{
"type": "FeatureCollection",
"name": "01028",
"features": [
{ "type": "Feature", "properties": { "CCAA": "16 - País Vasco", "PROVINCIA": "01 - Araba/Álava", "MUNICIPIO": "01028 - Labastida/Bastida", "COD_MUNICIPIO": "01028", "DISTRITO": "01", "SECCION": "0102801001", "V1_H": 80.85, "V1_M": 86.44, "V2_H": 80.47892397, "V2_M": 86.23437891, "V3_H": 81.22204479, "V3_M": 86.80010662 }, "geometry": { "type": "Polygon", "coordinates": [ [ [ -2.794753, 42.6323399 ], [ -2.7948438, 42.6323355 ], [ -2.794904, 42.6323312 ], [ -2.7949227, 42.6323312 ], [ -2.7951259, 42.6323181 ], [ -2.7952486, 42.6323093 ], [ -2.7953241, 42.6323049 ], [ -2.7953672, 42.6323005 ], [ -2.7954133, 42.632296 ], [ -2.7956485, 42.632283 ], [ -2.7957248, 42.6322786 ], [ -2.7958128, 42.6322742 ], [ -2.7958791, 42.6322698 ], [ -2.7958948, 42.6322654 ], [ -2.7959855, 42.6322611 ], [ -2.7959992, 42.6322611 ], [ -2.7960145, 42.6322611 ], [ -2.7960274, 42.6322566 ], [ -2.796069, 42.6322567 ], [ -2.7961273, 42.6322523 ], [ -2.7961795, 42.6322479 ], [ -2.7963393, 42.6322392 ], [ -2.7963831, 42.6322347 ], [ -2.7964068, 42.6322348 ], [ -2.7964338, 42.6322303 ], [ -2.7964922, 42.6322304 ], [ -2.796528, 42.632226 ], [ -2.7965737, 42.6322216 ], [ -2.7965974, 42.6322216 ], [ -2.7966404, 42.6322172 ], [ -2.7966542, 42.6322172 ], [ -2.796775, 42.6322084 ], [ -2.7968074, 42.6322085 ], [ -2.7968593, 42.6322041 ], [ -2.7968756, 42.6322041 ], [ -2.7969801, 42.6321953 ], [ -2.7971063, 42.6321865 ], [ -2.7971848, 42.6321822 ], [ -2.7972142, 42.6321822 ], [ -2.7973266, 42.6321734 ], [ -2.7973541, 42.6321734 ], [ -2.7973945, 42.632169 ], [ -2.7974295, 42.6321691 ], [ -2.7974821, 42.6321647 ], [ -2.7975062, 42.6321602 ], [ -2.7975336, 42.6321602 ], [ -2.7975687, 42.6321603 ], [ -2.7976716, 42.632147 ], [ -2.7977094, 42.6321426 ], [ -2.7977304, 42.6321381 ], [ -2.7977822, 42.6321337 ], [ -2.7978058, 42.6321292 ], [ -2.7978565, 42.6321248 ], [ -2.7979012, 42.6321204 ], [ -2.7979503, 42.632116 ], [ -2.7979881, 42.6321115 ], [ -2.7980178, 42.6321071 ], [ -2.7980842, 42.6320982 ], [ -2.7981036, 42.6320982 ], [ -2.7981864, 42.6320894 ], [ -2.7982248, 42.6320849 ], [ -2.7982798, 42.6320715 ], [ -2.7982916, 42.632067 ], [ -2.79835, 42.6320536 ], [ -2.7983744, 42.6320447 ], [ -2.798424, 42.6320357 ], [ -2.7984739, 42.6320223 ], [ -2.7986059, 42.6319866 ], [ -2.7986883, 42.6319867 ], [ -2.7987267, 42.6319868 ], [ -2.7988102, 42.6319869 ], [ -2.7990382, 42.6319783 ], [ -2.7990729, 42.6319783 ], [ -2.7992036, 42.6319786 ], [ -2.7992181, 42.6319786 ], [ -2.7992832, 42.6319742 ], [ -2.7993046, 42.6319743 ], [ -2.7993838, 42.6319744 ], [ -2.7994162, 42.6319745 ], [ -2.7994372, 42.6319745 ], [ -2.7994604, 42.6319745 ], [ -2.7994818, 42.6319701 ], [ -2.7995485, 42.6319702 ], [ -2.799608, 42.6319703 ], [ -2.7996628, 42.6319704 ], [ -2.7996895, 42.6319704 ], [ -2.7997128, 42.631966 ], [ -2.799741, 42.631966 ], [ -2.7997913, 42.6319661 ], [ -2.799847, 42.6319572 ], [ -2.7999633, 42.6319349 ], [ -2.8000045, 42.631926 ], [ -2.8000365, 42.6319215 ], [ -2.8001738, 42.6318947 ], [ -2.8002078, 42.6318903 ], [ -2.8002333, 42.6318858 ], [ -2.800255, 42.6318814 ], [ -2.8004072, 42.6318501 ], [ -2.8005411, 42.6318278 ], [ -2.8006925, 42.6318011 ], [ -2.8007092, 42.6317966 ], [ -2.8007256, 42.6317921 ], [ -2.8008873, 42.6317654 ], [ -2.8009411, 42.631752 ], [ -2.800996, 42.6317431 ], [ -2.8010097, 42.6317386 ], [ -2.8010628, 42.6317297 ], [ -2.8011028, 42.6317252 ], [ -2.8011428, 42.6317163 ], [ -2.8012461, 42.6316985 ], [ -2.8013022, 42.6316851 ], [ -2.8013217, 42.6316851 ], [ -2.8013453, 42.6316807 ], [ -2.8014593, 42.6316583 ], [ -2.8015059, 42.6316494 ], [ -2.8017324, 42.6316048 ], [ -2.8017545, 42.6316048 ], [ -2.8017698, 42.6316003 ], [ -2.8018224, 42.6315914 ], [ -2.8018525, 42.6315825 ], [ -2.8018708, 42.6315825 ], [ -2.8018933, 42.631578 ], [ -2.8020203, 42.6315558 ], [ -2.8021252, 42.6315334 ], [ -2.8021782, 42.6315245 ], [ -2.8022473, 42.6315111 ], [ -2.8022957, 42.6315022 ], [ -2.802431, 42.6314754 ], [ -2.8025836, 42.6314487 ], [ -2.8026076, 42.6314442 ], [ -2.8026461, 42.6314398 ], [ -2.8027887, 42.631413 ], [ -2.8028589, 42.6313996 ], [ -2.8030218, 42.6313684 ], [ -2.8030755, 42.6313595 ], [ -2.8031446, 42.631346 ], [ -2.8032483, 42.6313282 ], [ -2.8034401, 42.6312926 ], [ -2.8034573, 42.631288 ], [ -2.803474, 42.6312836 ], [ -2.8035587, 42.6312702 ], [ -2.8036704, 42.6312479 ], [ -2.8036787, 42.6312614 ], [ -2.8036894, 42.6312749 ], [ -2.8037364, 42.6313471 ], [ -2.8037523, 42.6313741 ], [ -2.803769, 42.6314012 ], [ -2.8037918, 42.6314327 ], [ -2.8038123, 42.6314643 ], [ -2.803865, 42.6315454 ], [ -2.8039245, 42.6316401 ], [ -2.8039727, 42.6317122 ], [ -2.8039981, 42.6317528 ], [ -2.8040277, 42.6317979 ], [ -2.8040952, 42.6319016 ], [ -2.8041362, 42.6319647 ], [ -2.8041802, 42.6320323 ], [ -2.8042697, 42.6321675 ], [ -2.8043444, 42.6322847 ], [ -2.8043619, 42.6323118 ], [ -2.8043759, 42.6323298 ], [ -2.8044154, 42.6323929 ], [ -2.8044294, 42.632411 ], [ -2.8044263, 42.6325505 ], [ -2.804421, 42.6327712 ], [ -2.8044206, 42.6327892 ], [ -2.8044175, 42.6329198 ], [ -2.8044144, 42.6330594 ], [ -2.8044126, 42.6331269 ], [ -2.8044122, 42.6331449 ], [ -2.8044117, 42.6331764 ], [ -2.804406, 42.6334151 ], [ -2.8044012, 42.6336312 ], [ -2.8043999, 42.6336807 ], [ -2.8043972, 42.6337888 ], [ -2.8043954, 42.6338609 ], [ -2.8043937, 42.6339464 ], [ -2.8043928, 42.6339914 ], [ -2.8043919, 42.6340274 ], [ -2.804388, 42.6341941 ], [ -2.8043875, 42.6342165 ], [ -2.8043818, 42.6344597 ], [ -2.8043817, 42.6344687 ], [ -2.8043804, 42.6345227 ], [ -2.8043751, 42.6347479 ], [ -2.8043734, 42.6348244 ], [ -2.8043716, 42.6349055 ], [ -2.8043672, 42.6350901 ], [ -2.8043654, 42.6351756 ], [ -2.8043641, 42.6352162 ], [ -2.8043579, 42.6354953 ], [ -2.8043566, 42.6355539 ], [ -2.8041942, 42.6358192 ], [ -2.804157, 42.6358822 ], [ -2.8041029, 42.6359722 ], [ -2.8040765, 42.6360172 ], [ -2.8040397, 42.6360757 ], [ -2.803975, 42.6361836 ], [ -2.8038275, 42.6364265 ], [ -2.8037769, 42.636512 ], [ -2.8036918, 42.6366514 ], [ -2.8036137, 42.6367819 ], [ -2.8035374, 42.6369078 ], [ -2.8034477, 42.6370563 ], [ -2.8034462, 42.6370653 ], [ -2.8034411, 42.6370878 ], [ -2.803426, 42.6371688 ], [ -2.8034191, 42.6372048 ], [ -2.8033896, 42.6373534 ], [ -2.8033714, 42.6374479 ], [ -2.8033567, 42.6375199 ], [ -2.8033543, 42.6375334 ], [ -2.8033493, 42.6375604 ], [ -2.8033272, 42.6376729 ], [ -2.803321, 42.6377045 ], [ -2.8033055, 42.637781 ], [ -2.8032927, 42.6378485 ], [ -2.8032804, 42.6379115 ], [ -2.8032676, 42.6379746 ], [ -2.8032575, 42.6380286 ], [ -2.8032486, 42.6380736 ], [ -2.8032408, 42.6381141 ], [ -2.8032037, 42.6383031 ], [ -2.8031936, 42.6383527 ], [ -2.8031827, 42.6384112 ], [ -2.8031754, 42.6384472 ], [ -2.8032625, 42.638596 ], [ -2.8032762, 42.6386185 ], [ -2.8033187, 42.6386906 ], [ -2.8033289, 42.6387086 ], [ -2.8033543, 42.6387537 ], [ -2.803374, 42.6387853 ], [ -2.8033835, 42.6388033 ], [ -2.8034077, 42.6388438 ], [ -2.8034487, 42.638916 ], [ -2.8034632, 42.638916 ], [ -2.8035165, 42.6389161 ], [ -2.8035894, 42.6389162 ], [ -2.8036118, 42.6389163 ], [ -2.8036431, 42.6389163 ], [ -2.8040597, 42.6389125 ], [ -2.8041836, 42.6389128 ], [ -2.8042077, 42.6389128 ], [ -2.804224, 42.6389128 ], [ -2.8044634, 42.6389087 ], [ -2.8048015, 42.6389048 ], [ -2.8049151, 42.638905 ], [ -2.8050119, 42.6389051 ], [ -2.8050417, 42.6389052 ], [ -2.8051121, 42.6389098 ], [ -2.8051407, 42.6389144 ], [ -2.8052036, 42.6389145 ], [ -2.8053582, 42.6389688 ], [ -2.8054259, 42.6390184 ], [ -2.8054651, 42.6390455 ], [ -2.805473, 42.639059 ], [ -2.8055117, 42.6391402 ], [ -2.8055158, 42.6391492 ], [ -2.8055211, 42.6391627 ], [ -2.8055244, 42.6393518 ], [ -2.8055246, 42.6393833 ], [ -2.8055406, 42.639523 ], [ -2.8055662, 42.6397391 ], [ -2.8056047, 42.6398518 ], [ -2.8056279, 42.6398833 ], [ -2.8056377, 42.6398969 ], [ -2.8056415, 42.6399059 ], [ -2.8057539, 42.6400682 ], [ -2.8057695, 42.6400817 ], [ -2.8058044, 42.6401133 ], [ -2.8058333, 42.6401404 ], [ -2.8058686, 42.6401719 ], [ -2.8059437, 42.6401946 ], [ -2.8060015, 42.6402082 ], [ -2.8062573, 42.6402041 ], [ -2.8064327, 42.6401999 ], [ -2.8065101, 42.6402 ], [ -2.8065314, 42.6402001 ], [ -2.8068181, 42.6401915 ], [ -2.8069744, 42.6401918 ], [ -2.8070598, 42.6401874 ], [ -2.8071498, 42.6401606 ], [ -2.8071754, 42.6401516 ], [ -2.8072315, 42.6401382 ], [ -2.8075043, 42.6400576 ], [ -2.8079182, 42.6399322 ], [ -2.8080583, 42.639892 ], [ -2.8081643, 42.6398606 ], [ -2.8081792, 42.6398561 ], [ -2.8081941, 42.6398517 ], [ -2.8082467, 42.6398337 ], [ -2.8082757, 42.6398293 ], [ -2.8083657, 42.6398114 ], [ -2.8084645, 42.6397936 ], [ -2.8085784, 42.6398073 ], [ -2.8087247, 42.6398526 ], [ -2.808842, 42.6398843 ], [ -2.8089638, 42.639925 ], [ -2.8090411, 42.6399477 ], [ -2.8090678, 42.6399567 ], [ -2.8090994, 42.6399658 ], [ -2.8092167, 42.6399975 ], [ -2.8094122, 42.6400203 ], [ -2.8095567, 42.6400161 ], [ -2.8097994, 42.640012 ], [ -2.8098365, 42.6400075 ], [ -2.8098834, 42.6400076 ], [ -2.8099485, 42.6400077 ], [ -2.8099805, 42.6400032 ], [ -2.810138, 42.6399945 ], [ -2.8102219, 42.6399766 ], [ -2.8102414, 42.6399722 ], [ -2.8103295, 42.6399543 ], [ -2.8103818, 42.6399319 ], [ -2.8104158, 42.6399139 ], [ -2.810454, 42.639887 ], [ -2.8104799, 42.639869 ], [ -2.8105346, 42.6398286 ], [ -2.8105869, 42.6397926 ], [ -2.8107581, 42.6396578 ], [ -2.8108065, 42.6396489 ], [ -2.8108351, 42.639649 ], [ -2.8109468, 42.6396311 ], [ -2.8110948, 42.6396134 ], [ -2.8111474, 42.6396044 ], [ -2.8113042, 42.6395867 ], [ -2.8113377, 42.6395823 ], [ -2.8114189, 42.6395689 ], [ -2.8114338, 42.6395689 ], [ -2.811446, 42.6395644 ], [ -2.8114605, 42.6395644 ], [ -2.81152, 42.6395555 ], [ -2.8117076, 42.6395333 ], [ -2.8120416, 42.6394888 ], [ -2.812116, 42.6394755 ], [ -2.8123757, 42.6394444 ], [ -2.8124664, 42.639431 ], [ -2.8125206, 42.6394221 ], [ -2.8125556, 42.6394176 ], [ -2.8126384, 42.6394088 ], [ -2.8126697, 42.6394088 ], [ -2.8128355, 42.6393866 ], [ -2.8134792, 42.6393111 ], [ -2.8136672, 42.6392889 ], [ -2.813679, 42.6392889 ], [ -2.8136999, 42.6392889 ], [ -2.8137145, 42.6392845 ], [ -2.8137339, 42.6392845 ], [ -2.8142251, 42.6393393 ], [ -2.8143634, 42.6393576 ], [ -2.8147189, 42.6393987 ], [ -2.814786, 42.6394078 ], [ -2.8149132, 42.6394215 ], [ -2.8158125, 42.6395265 ], [ -2.8158251, 42.6395266 ], [ -2.8160628, 42.6395585 ], [ -2.8162793, 42.6395813 ], [ -2.8163196, 42.6396129 ], [ -2.8164394, 42.6397077 ], [ -2.8164808, 42.6397393 ], [ -2.8165584, 42.6398024 ], [ -2.8166204, 42.6398521 ], [ -2.8167139, 42.6399242 ], [ -2.8168626, 42.6400416 ], [ -2.8169231, 42.6400912 ], [ -2.8170262, 42.6401724 ], [ -2.8171756, 42.6402897 ], [ -2.8172547, 42.6403484 ], [ -2.817486, 42.6405334 ], [ -2.8175567, 42.6405875 ], [ -2.8176841, 42.6406868 ], [ -2.8178146, 42.6407906 ], [ -2.8178944, 42.6408537 ], [ -2.8179978, 42.640935 ], [ -2.818182, 42.6410793 ], [ -2.8182424, 42.641129 ], [ -2.8182633, 42.641147 ], [ -2.8183051, 42.6411786 ], [ -2.8184143, 42.6412643 ], [ -2.8187664, 42.6415396 ], [ -2.8188645, 42.6416163 ], [ -2.819173, 42.6418599 ], [ -2.8193243, 42.6419817 ], [ -2.8194331, 42.6420675 ], [ -2.8195457, 42.6421532 ], [ -2.8195925, 42.6421938 ], [ -2.8198062, 42.6423608 ], [ -2.8198739, 42.6424149 ], [ -2.819896, 42.6424329 ], [ -2.8199858, 42.6425006 ], [ -2.8201063, 42.6425954 ], [ -2.8202379, 42.6426991 ], [ -2.8202691, 42.6427262 ], [ -2.8202927, 42.6427443 ], [ -2.8204972, 42.6429067 ], [ -2.8205593, 42.6429473 ], [ -2.8206982, 42.6430376 ], [ -2.8207621, 42.6430782 ], [ -2.8208134, 42.6431143 ], [ -2.8209124, 42.6431775 ], [ -2.8209382, 42.6431956 ], [ -2.8211387, 42.6433265 ], [ -2.8211943, 42.6433626 ], [ -2.8212342, 42.6433897 ], [ -2.8213472, 42.6434619 ], [ -2.8213553, 42.6434709 ], [ -2.8214382, 42.6435251 ], [ -2.8214603, 42.6435386 ], [ -2.8216311, 42.6436515 ], [ -2.8216577, 42.6436695 ], [ -2.8217871, 42.6437553 ], [ -2.8218616, 42.6438049 ], [ -2.8220024, 42.6438952 ], [ -2.8220382, 42.6439177 ], [ -2.8221577, 42.643999 ], [ -2.8221881, 42.6440171 ], [ -2.8224099, 42.6441615 ], [ -2.8225189, 42.6441887 ], [ -2.8225886, 42.6442068 ], [ -2.8226366, 42.6442204 ], [ -2.8226792, 42.6442295 ], [ -2.8227253, 42.6442385 ], [ -2.8227741, 42.6442521 ], [ -2.8228278, 42.6442657 ], [ -2.822949, 42.6442929 ], [ -2.8231497, 42.6443428 ], [ -2.8232023, 42.6443564 ], [ -2.823269, 42.6443745 ], [ -2.8238575, 42.644515 ], [ -2.8238949, 42.6445241 ], [ -2.8242617, 42.6446147 ], [ -2.8244122, 42.6446374 ], [ -2.8245227, 42.6446556 ], [ -2.8246888, 42.6446784 ], [ -2.8247872, 42.644692 ], [ -2.8249682, 42.6447193 ], [ -2.8250001, 42.6447239 ], [ -2.8251122, 42.6447421 ], [ -2.825244, 42.6447603 ], [ -2.8252753, 42.6447648 ], [ -2.8256838, 42.6448285 ], [ -2.8257196, 42.644833 ], [ -2.8257352, 42.6448376 ], [ -2.8259922, 42.644946 ], [ -2.8261331, 42.6450093 ], [ -2.8261483, 42.6450138 ], [ -2.8261757, 42.6450274 ], [ -2.8261956, 42.6450229 ], [ -2.8265518, 42.6449514 ], [ -2.8266765, 42.6449246 ], [ -2.826797, 42.6449022 ], [ -2.8271457, 42.6448307 ], [ -2.8271651, 42.6448262 ], [ -2.827331, 42.6447905 ], [ -2.8274794, 42.6447637 ], [ -2.8276854, 42.644719 ], [ -2.828023, 42.644652 ], [ -2.8280958, 42.6446385 ], [ -2.8281721, 42.6446206 ], [ -2.8282892, 42.6445983 ], [ -2.8283888, 42.6445804 ], [ -2.8284871, 42.6445581 ], [ -2.8285054, 42.6445536 ], [ -2.82856, 42.6445447 ], [ -2.8287194, 42.6445134 ], [ -2.8288395, 42.6444866 ], [ -2.8290284, 42.6444508 ], [ -2.8290574, 42.6444374 ], [ -2.8290898, 42.6444284 ], [ -2.8294424, 42.6443028 ], [ -2.82955, 42.644267 ], [ -2.8296297, 42.6442356 ], [ -2.8296431, 42.6442311 ], [ -2.8297019, 42.6442132 ], [ -2.8298175, 42.6441728 ], [ -2.8298682, 42.6441549 ], [ -2.829948, 42.644128 ], [ -2.8299949, 42.6441101 ], [ -2.8302761, 42.6440204 ], [ -2.8303505, 42.643998 ], [ -2.8304489, 42.6439666 ], [ -2.8305458, 42.6439307 ], [ -2.8306435, 42.6438949 ], [ -2.8307828, 42.6438411 ], [ -2.8308118, 42.6438276 ], [ -2.8309118, 42.6437917 ], [ -2.8309317, 42.6437827 ], [ -2.8309515, 42.6437783 ], [ -2.8310477, 42.6437424 ], [ -2.8311461, 42.6437065 ], [ -2.8311606, 42.643702 ], [ -2.8311724, 42.6436975 ], [ -2.8314029, 42.6436168 ], [ -2.831528, 42.643572 ], [ -2.83157, 42.643554 ], [ -2.8316151, 42.6435406 ], [ -2.8316647, 42.6435227 ], [ -2.8317112, 42.6435047 ], [ -2.831757, 42.6434868 ], [ -2.8317814, 42.6434778 ], [ -2.8318509, 42.6434509 ], [ -2.831865, 42.6434464 ], [ -2.8319711, 42.643406 ], [ -2.8320791, 42.6433657 ], [ -2.8321626, 42.6433343 ], [ -2.8322122, 42.6433164 ], [ -2.8322454, 42.6433074 ], [ -2.8322836, 42.6432894 ], [ -2.8324392, 42.6432401 ], [ -2.8326041, 42.6431863 ], [ -2.8326335, 42.6431729 ], [ -2.832738, 42.6431415 ], [ -2.8327705, 42.643128 ], [ -2.8328261, 42.6431101 ], [ -2.832938, 42.6430698 ], [ -2.8329754, 42.6430563 ], [ -2.8330909, 42.6430114 ], [ -2.8331719, 42.6429845 ], [ -2.8332047, 42.6429711 ], [ -2.833352, 42.6429172 ], [ -2.8333844, 42.6429038 ], [ -2.8334229, 42.6428903 ], [ -2.8334882, 42.6428679 ], [ -2.8335553, 42.642841 ], [ -2.8336068, 42.6428231 ], [ -2.8336229, 42.6428186 ], [ -2.8336518, 42.6428051 ], [ -2.8337908, 42.6427468 ], [ -2.8338977, 42.6427019 ], [ -2.8340205, 42.6426481 ], [ -2.8340411, 42.6426391 ], [ -2.8340812, 42.6426211 ], [ -2.834143, 42.6425987 ], [ -2.8342598, 42.6425584 ], [ -2.8342777, 42.6425539 ], [ -2.8342911, 42.6425449 ], [ -2.8343178, 42.6425359 ], [ -2.8343983, 42.642509 ], [ -2.834486, 42.6424776 ], [ -2.8345188, 42.6424642 ], [ -2.8345314, 42.6424597 ], [ -2.8346169, 42.6424283 ], [ -2.8346913, 42.6424014 ], [ -2.8348077, 42.642361 ], [ -2.8348371, 42.6423475 ], [ -2.8348581, 42.6423431 ], [ -2.8349951, 42.6422892 ], [ -2.8350424, 42.6422713 ], [ -2.8351424, 42.6422354 ], [ -2.8352625, 42.6421906 ], [ -2.8353816, 42.6421457 ], [ -2.8354213, 42.6421322 ], [ -2.8354827, 42.6421144 ], [ -2.8354949, 42.6421099 ], [ -2.8356345, 42.6420695 ], [ -2.8356593, 42.6420606 ], [ -2.8356894, 42.6420516 ], [ -2.8357139, 42.6420471 ], [ -2.8358077, 42.6420337 ], [ -2.8358202, 42.6420338 ], [ -2.8358954, 42.6420249 ], [ -2.8359423, 42.6420159 ], [ -2.835977, 42.6420115 ], [ -2.836014, 42.642007 ], [ -2.8360304, 42.6420026 ], [ -2.8360926, 42.6419846 ], [ -2.8361376, 42.6419712 ], [ -2.8361891, 42.6419577 ], [ -2.8362173, 42.6419443 ], [ -2.8362566, 42.6419308 ], [ -2.8364425, 42.6418636 ], [ -2.8364905, 42.6418501 ], [ -2.8365832, 42.6418142 ], [ -2.8366607, 42.6417963 ], [ -2.8366828, 42.6417919 ], [ -2.8367339, 42.6417784 ], [ -2.8367461, 42.6417739 ], [ -2.8367717, 42.6417695 ], [ -2.8368014, 42.6417605 ], [ -2.8368918, 42.6417426 ], [ -2.8370634, 42.6417113 ], [ -2.8371469, 42.6416935 ], [ -2.8371916, 42.6416845 ], [ -2.8373113, 42.6416622 ], [ -2.8373395, 42.6416577 ], [ -2.8374455, 42.6416398 ], [ -2.8376107, 42.6416086 ], [ -2.8377434, 42.6415817 ], [ -2.8379143, 42.641546 ], [ -2.8379406, 42.6415415 ], [ -2.8381222, 42.6414967 ], [ -2.8381416, 42.6414878 ], [ -2.8383171, 42.641443 ], [ -2.8383537, 42.641434 ], [ -2.838377, 42.6414296 ], [ -2.8383976, 42.6414206 ], [ -2.8385276, 42.6413892 ], [ -2.8386329, 42.6413624 ], [ -2.8387287, 42.64134 ], [ -2.8387615, 42.6413355 ], [ -2.8388713, 42.6413222 ], [ -2.8390249, 42.6413044 ], [ -2.8391851, 42.6412821 ], [ -2.8392438, 42.6412732 ], [ -2.8392865, 42.6412687 ], [ -2.839314, 42.6412688 ], [ -2.8393418, 42.6412643 ], [ -2.8395855, 42.6412331 ], [ -2.8397243, 42.6412198 ], [ -2.839765, 42.6412154 ], [ -2.8397879, 42.6412109 ], [ -2.8400082, 42.6412202 ], [ -2.8400627, 42.6412248 ], [ -2.8400871, 42.6412248 ], [ -2.8401778, 42.6412295 ], [ -2.8402293, 42.641234 ], [ -2.8403368, 42.6412387 ], [ -2.840506, 42.6412524 ], [ -2.8406962, 42.6412617 ], [ -2.8407983, 42.6412663 ], [ -2.8410255, 42.6412757 ], [ -2.8411459, 42.6412804 ], [ -2.8411993, 42.6412804 ], [ -2.8412915, 42.6412851 ], [ -2.8414642, 42.6412898 ], [ -2.8414871, 42.6412899 ], [ -2.8415137, 42.6412899 ], [ -2.8415664, 42.64129 ], [ -2.8416757, 42.6412946 ], [ -2.8417207, 42.6412947 ], [ -2.8419315, 42.641295 ], [ -2.842007, 42.6412951 ], [ -2.8421297, 42.6412907 ], [ -2.842156, 42.6412908 ], [ -2.842254, 42.6412864 ], [ -2.8422983, 42.641282 ], [ -2.8423417, 42.641282 ], [ -2.8424927, 42.6412642 ], [ -2.8425102, 42.6412642 ], [ -2.8425663, 42.6412598 ], [ -2.8427409, 42.6412331 ], [ -2.8428248, 42.6412242 ], [ -2.842853, 42.6412197 ], [ -2.8428881, 42.6412153 ], [ -2.843083, 42.6411705 ], [ -2.8431075, 42.641166 ], [ -2.8431852, 42.6411436 ], [ -2.8433843, 42.6410989 ], [ -2.8435293, 42.6410675 ], [ -2.8435422, 42.641063 ], [ -2.8436375, 42.6410452 ], [ -2.8438557, 42.6409779 ], [ -2.8439348, 42.640951 ], [ -2.8439454, 42.6409465 ], [ -2.8440526, 42.6409107 ], [ -2.8442838, 42.6408344 ], [ -2.8443235, 42.6408209 ], [ -2.8443681, 42.640812 ], [ -2.84447, 42.6407806 ], [ -2.8444937, 42.6407717 ], [ -2.8445386, 42.6407627 ], [ -2.8447423, 42.6406999 ], [ -2.8449701, 42.6406417 ], [ -2.8450395, 42.6406238 ], [ -2.8450593, 42.6406148 ], [ -2.8451497, 42.6405924 ], [ -2.8452832, 42.6405701 ], [ -2.8454578, 42.6405388 ], [ -2.8455379, 42.6405254 ], [ -2.8455726, 42.640521 ], [ -2.845777, 42.6404897 ], [ -2.8458087, 42.6404853 ], [ -2.8462204, 42.6404588 ], [ -2.8462349, 42.6404588 ], [ -2.846252, 42.6404589 ], [ -2.8466058, 42.6404368 ], [ -2.846705, 42.6404279 ], [ -2.846785, 42.6404235 ], [ -2.8469413, 42.6404192 ], [ -2.8471159, 42.6404105 ], [ -2.8471895, 42.6404061 ], [ -2.8472234, 42.6404061 ], [ -2.8472459, 42.6404017 ], [ -2.8473645, 42.6403973 ], [ -2.8474167, 42.6403974 ], [ -2.8475383, 42.6403976 ], [ -2.8475539, 42.6403976 ], [ -2.8476245, 42.6403977 ], [ -2.8477983, 42.6404024 ], [ -2.8479099, 42.6404071 ], [ -2.8480578, 42.6404118 ], [ -2.8481237, 42.6404118 ], [ -2.8481356, 42.6404119 ], [ -2.8481703, 42.6404164 ], [ -2.8482118, 42.6404165 ], [ -2.8482594, 42.6404165 ], [ -2.8483204, 42.6404211 ], [ -2.8485766, 42.6404259 ], [ -2.8486825, 42.6404306 ], [ -2.8486993, 42.6404306 ], [ -2.8487553, 42.6404352 ], [ -2.8487973, 42.6404352 ], [ -2.848846, 42.6404353 ], [ -2.848888, 42.6404399 ], [ -2.8489855, 42.64044 ], [ -2.8493183, 42.640454 ], [ -2.849388, 42.6404541 ], [ -2.8494014, 42.6404586 ], [ -2.8494201, 42.6404586 ], [ -2.8494421, 42.6404586 ], [ -2.8496365, 42.6404679 ], [ -2.8496495, 42.6404679 ], [ -2.8496685, 42.6404724 ], [ -2.8496823, 42.6404725 ], [ -2.849696, 42.6404725 ], [ -2.8497818, 42.6404816 ], [ -2.8499429, 42.6404998 ], [ -2.8500074, 42.6405044 ], [ -2.850031, 42.6405089 ], [ -2.8504017, 42.6405589 ], [ -2.8504189, 42.640559 ], [ -2.8505282, 42.6405726 ], [ -2.8506544, 42.6405863 ], [ -2.8507085, 42.6405909 ], [ -2.8508487, 42.6406046 ], [ -2.8510008, 42.6406228 ], [ -2.8510206, 42.6406228 ], [ -2.8510774, 42.6406274 ], [ -2.8510995, 42.6406274 ], [ -2.8511395, 42.640632 ], [ -2.8511696, 42.640632 ], [ -2.8511891, 42.6406365 ], [ -2.8512554, 42.6406411 ], [ -2.8514421, 42.6406549 ], [ -2.851457, 42.6406549 ], [ -2.8516057, 42.6406551 ], [ -2.8517223, 42.6406553 ], [ -2.8517528, 42.6406553 ], [ -2.8518248, 42.6406554 ], [ -2.8518572, 42.6406554 ], [ -2.8518763, 42.6406555 ], [ -2.8519335, 42.6406555 ], [ -2.8519602, 42.6406556 ], [ -2.8519712, 42.6406511 ], [ -2.8520334, 42.6406512 ], [ -2.8521969, 42.6406423 ], [ -2.8523513, 42.640638 ], [ -2.8524203, 42.6406336 ], [ -2.8524725, 42.6406292 ], [ -2.8524878, 42.6406292 ], [ -2.8525, 42.6406292 ], [ -2.8525282, 42.6406293 ], [ -2.8526372, 42.6406249 ], [ -2.8526822, 42.6406205 ], [ -2.8527108, 42.6406205 ], [ -2.8528282, 42.6406117 ], [ -2.8529201, 42.6406073 ], [ -2.8529994, 42.6406074 ], [ -2.8530508, 42.6406074 ], [ -2.8530775, 42.6406075 ], [ -2.85323, 42.6406032 ], [ -2.8532441, 42.6406032 ], [ -2.8532906, 42.6406033 ], [ -2.85332, 42.6406033 ], [ -2.8533368, 42.6406033 ], [ -2.853461, 42.640608 ], [ -2.8535128, 42.6406125 ], [ -2.8535441, 42.6406126 ], [ -2.8536287, 42.6406217 ], [ -2.8536512, 42.6406217 ], [ -2.8536744, 42.6406262 ], [ -2.8537087, 42.6406308 ], [ -2.8537232, 42.6406308 ], [ -2.853751, 42.6406308 ], [ -2.8538135, 42.6406399 ], [ -2.8538261, 42.6406399 ], [ -2.8538828, 42.640649 ], [ -2.8539934, 42.6406627 ], [ -2.8541755, 42.6406854 ], [ -2.8541885, 42.6406855 ], [ -2.854206, 42.6406855 ], [ -2.8543139, 42.6406766 ], [ -2.8543623, 42.6406722 ], [ -2.854386, 42.6406722 ], [ -2.8544508, 42.6406678 ], [ -2.8544961, 42.6406633 ], [ -2.8546338, 42.64065 ], [ -2.8546578, 42.64065 ], [ -2.8546734, 42.64065 ], [ -2.854736, 42.6406411 ], [ -2.8548134, 42.6406367 ], [ -2.8548454, 42.6406322 ], [ -2.8549613, 42.6406234 ], [ -2.8549994, 42.6406235 ], [ -2.8550368, 42.640619 ], [ -2.855049, 42.640619 ], [ -2.8550646, 42.6406145 ], [ -2.8550917, 42.6406146 ], [ -2.8551066, 42.6406101 ], [ -2.8551363, 42.6406101 ], [ -2.8551923, 42.6406012 ], [ -2.8552065, 42.6406012 ], [ -2.8552278, 42.6405967 ], [ -2.8552747, 42.6405832 ], [ -2.8552949, 42.6405788 ], [ -2.8553133, 42.6405743 ], [ -2.8553575, 42.6405609 ], [ -2.8553739, 42.6405519 ], [ -2.8553918, 42.6405474 ], [ -2.8554418, 42.6405295 ], [ -2.8554723, 42.640516 ], [ -2.8554857, 42.6405115 ], [ -2.8555525, 42.6404756 ], [ -2.8555841, 42.6404621 ], [ -2.8556902, 42.6404172 ], [ -2.8557154, 42.6404037 ], [ -2.8557589, 42.6403812 ], [ -2.855773, 42.6403723 ], [ -2.8557925, 42.6403633 ], [ -2.8558913, 42.6403094 ], [ -2.8559062, 42.6403004 ], [ -2.8559742, 42.6402689 ], [ -2.8560325, 42.640242 ], [ -2.856049, 42.640233 ], [ -2.8560795, 42.6402241 ], [ -2.8561409, 42.6401971 ], [ -2.8561973, 42.6401837 ], [ -2.8562115, 42.6401792 ], [ -2.8562431, 42.6401702 ], [ -2.8562946, 42.6401613 ], [ -2.8563385, 42.6401479 ], [ -2.8563633, 42.6401434 ], [ -2.8564498, 42.6401255 ], [ -2.8564731, 42.6401165 ], [ -2.8565166, 42.6401076 ], [ -2.8565414, 42.6401031 ], [ -2.8565696, 42.6400941 ], [ -2.8566146, 42.6400852 ], [ -2.8566493, 42.6400762 ], [ -2.8566787, 42.6400717 ], [ -2.8568144, 42.6400404 ], [ -2.8568819, 42.6400225 ], [ -2.8569384, 42.6400135 ], [ -2.8569639, 42.6400045 ], [ -2.8570142, 42.6399956 ], [ -2.857049, 42.6399866 ], [ -2.8571935, 42.6399508 ], [ -2.8572088, 42.6399463 ], [ -2.8572386, 42.6399373 ], [ -2.8573014, 42.6399329 ], [ -2.8573594, 42.639924 ], [ -2.8573933, 42.6399285 ], [ -2.85742, 42.639933 ], [ -2.8574467, 42.6399331 ], [ -2.8574611, 42.6399376 ], [ -2.8575515, 42.6399467 ], [ -2.8575656, 42.6399467 ], [ -2.8576506, 42.6399559 ], [ -2.8576746, 42.6399604 ], [ -2.8577188, 42.639965 ], [ -2.8577972, 42.6399786 ], [ -2.8578243, 42.6399831 ], [ -2.8578472, 42.6399876 ], [ -2.8579013, 42.6399922 ], [ -2.8579493, 42.6400013 ], [ -2.8579676, 42.6400013 ], [ -2.8580088, 42.6400013 ], [ -2.8580332, 42.6399969 ], [ -2.8580652, 42.6399969 ], [ -2.8580976, 42.639997 ], [ -2.8581506, 42.639988 ], [ -2.8581631, 42.6399835 ], [ -2.858207, 42.6399791 ], [ -2.8582276, 42.6399746 ], [ -2.8583234, 42.6399387 ], [ -2.858355, 42.6399252 ], [ -2.8583844, 42.6399118 ], [ -2.8583951, 42.6399028 ], [ -2.8584085, 42.6398983 ], [ -2.8584581, 42.6398578 ], [ -2.8584902, 42.6398309 ], [ -2.8585078, 42.6398173 ], [ -2.8585299, 42.6397949 ], [ -2.8585433, 42.6397814 ], [ -2.8585987, 42.6397274 ], [ -2.8586269, 42.6397004 ], [ -2.8587592, 42.6395475 ], [ -2.8587772, 42.639525 ], [ -2.8588609, 42.639408 ], [ -2.8589107, 42.6393045 ], [ -2.8589272, 42.6392685 ], [ -2.8589314, 42.6392595 ], [ -2.8589612, 42.6391965 ], [ -2.8589915, 42.6391335 ], [ -2.8590003, 42.63912 ], [ -2.8590103, 42.639102 ], [ -2.8590367, 42.639057 ], [ -2.8590462, 42.639039 ], [ -2.8590566, 42.639021 ], [ -2.8591436, 42.6388557 ], [ -2.8591442, 42.6388545 ], [ -2.8589225, 42.6388092 ], [ -2.8580944, 42.6382048 ], [ -2.8564129, 42.6374732 ], [ -2.8563863, 42.6374626 ], [ -2.8542072, 42.6366424 ], [ -2.8541697, 42.6366191 ], [ -2.8428976, 42.6296049 ], [ -2.8428942, 42.6296028 ], [ -2.842894, 42.6296023 ], [ -2.84224, 42.6279369 ], [ -2.8422395, 42.6279358 ], [ -2.8422397, 42.6279353 ], [ -2.84308, 42.6234613 ], [ -2.8430803, 42.6234595 ], [ -2.8430823, 42.6234569 ], [ -2.8476653, 42.6177061 ], [ -2.8480755, 42.6171914 ], [ -2.8480831, 42.6171819 ], [ -2.848083, 42.6171817 ], [ -2.8475862, 42.6160555 ], [ -2.8457531, 42.6150471 ], [ -2.8444323, 42.6143204 ], [ -2.8418707, 42.6100757 ], [ -2.8418012, 42.6085992 ], [ -2.841031, 42.6085517 ], [ -2.8400093, 42.6084886 ], [ -2.8371438, 42.6087097 ], [ -2.8371437, 42.6087097 ], [ -2.8343506, 42.6091829 ], [ -2.8324705, 42.6101168 ], [ -2.8280033, 42.6119383 ], [ -2.8262824, 42.6125391 ], [ -2.8242945, 42.6127521 ], [ -2.8199002, 42.6145014 ], [ -2.8199001, 42.6145014 ], [ -2.8187714, 42.6127165 ], [ -2.8187361, 42.6122661 ], [ -2.8190309, 42.6115461 ], [ -2.8194403, 42.6091152 ], [ -2.8207767, 42.6065237 ], [ -2.8209855, 42.6059656 ], [ -2.8210727, 42.6053353 ], [ -2.8213918, 42.6046064 ], [ -2.8219555, 42.6035716 ], [ -2.8236438, 42.6014578 ], [ -2.8218429, 42.6011161 ], [ -2.8218284, 42.6011133 ], [ -2.8218242, 42.6011112 ], [ -2.8189923, 42.5996483 ], [ -2.8181832, 42.5971173 ], [ -2.8181831, 42.5971169 ], [ -2.8181835, 42.5971154 ], [ -2.8194775, 42.5921404 ], [ -2.8223505, 42.5890549 ], [ -2.8223506, 42.5890548 ], [ -2.8223508, 42.5890547 ], [ -2.83054, 42.5850738 ], [ -2.8305516, 42.5850682 ], [ -2.8305591, 42.585066 ], [ -2.8373094, 42.5831705 ], [ -2.8373815, 42.5831514 ], [ -2.8388817, 42.5826673 ], [ -2.8396991, 42.5823352 ], [ -2.8402361, 42.5820297 ], [ -2.8407734, 42.5816163 ], [ -2.8407999, 42.5814647 ], [ -2.8408476, 42.5811931 ], [ -2.8390044, 42.5776692 ], [ -2.8390043, 42.5776689 ], [ -2.8385804, 42.5767049 ], [ -2.8383508, 42.5759932 ], [ -2.8382432, 42.5751645 ], [ -2.8376689, 42.571129 ], [ -2.8376665, 42.571125 ], [ -2.8363852, 42.5696031 ], [ -2.8357498, 42.5688483 ], [ -2.8303224, 42.5649897 ], [ -2.828522, 42.5637096 ], [ -2.8285026, 42.5636958 ], [ -2.8285016, 42.5636931 ], [ -2.8266347, 42.5587309 ], [ -2.8253224, 42.5552427 ], [ -2.8253223, 42.5552423 ], [ -2.8249954, 42.5549444 ], [ -2.8249953, 42.5549444 ], [ -2.824994, 42.5549446 ], [ -2.8229726, 42.5547434 ], [ -2.8229725, 42.5547433 ], [ -2.821852, 42.5547236 ], [ -2.8218519, 42.5547236 ], [ -2.8208163, 42.554812 ], [ -2.8208163, 42.554812 ], [ -2.8200972, 42.554973 ], [ -2.8200971, 42.554973 ], [ -2.8196701, 42.5551974 ], [ -2.8174337, 42.5576615 ], [ -2.8171521, 42.5581294 ], [ -2.8171022, 42.5585706 ], [ -2.8174021, 42.5601201 ], [ -2.81762, 42.5606157 ], [ -2.8177276, 42.5612913 ], [ -2.8176018, 42.562642 ], [ -2.8172937, 42.5638753 ], [ -2.8172937, 42.5638754 ], [ -2.8158199, 42.5678445 ], [ -2.8155958, 42.5681565 ], [ -2.8154774, 42.5683214 ], [ -2.8153318, 42.5684763 ], [ -2.8149029, 42.5689327 ], [ -2.8142072, 42.5693189 ], [ -2.8136341, 42.5694981 ], [ -2.8130368, 42.5695871 ], [ -2.8127044, 42.5695505 ], [ -2.8122086, 42.5694958 ], [ -2.8106507, 42.5689438 ], [ -2.8066716, 42.567298 ], [ -2.8052978, 42.5663861 ], [ -2.8041679, 42.5653665 ], [ -2.8034881, 42.5645998 ], [ -2.8002535, 42.5665214 ], [ -2.7998311, 42.5690603 ], [ -2.7983293, 42.5737858 ], [ -2.7893705, 42.5782455 ], [ -2.783824, 42.5788384 ], [ -2.7838239, 42.5788384 ], [ -2.7824462, 42.5790519 ], [ -2.7812266, 42.5793468 ], [ -2.7804823, 42.5796065 ], [ -2.7797501, 42.5799383 ], [ -2.7783817, 42.5809083 ], [ -2.7779537, 42.5813397 ], [ -2.7776716, 42.5818525 ], [ -2.7776207, 42.5824288 ], [ -2.7777044, 42.5828793 ], [ -2.7780002, 42.5834382 ], [ -2.7783702, 42.5841414 ], [ -2.7788674, 42.5848268 ], [ -2.7788674, 42.5848268 ], [ -2.7789875, 42.5853404 ], [ -2.7779952, 42.5867884 ], [ -2.7768597, 42.5873625 ], [ -2.7765781, 42.5877222 ], [ -2.7763811, 42.5882532 ], [ -2.7761944, 42.5893425 ], [ -2.7747872, 42.5908797 ], [ -2.773736, 42.5917152 ], [ -2.7734176, 42.5921288 ], [ -2.7730123, 42.5929656 ], [ -2.7718667, 42.5962775 ], [ -2.7717665, 42.5969887 ], [ -2.7720468, 42.6003394 ], [ -2.7725503, 42.602655 ], [ -2.7734724, 42.6038546 ], [ -2.774311, 42.6045317 ], [ -2.7743111, 42.6045317 ], [ -2.7743683, 42.6055765 ], [ -2.773802, 42.6070703 ], [ -2.7709851, 42.610586 ], [ -2.7695138, 42.6128075 ], [ -2.7677988, 42.6149564 ], [ -2.765926, 42.6200273 ], [ -2.7661299, 42.6201313 ], [ -2.7661599, 42.6201449 ], [ -2.7663699, 42.6202399 ], [ -2.7664087, 42.620258 ], [ -2.7665852, 42.6203439 ], [ -2.7667271, 42.6204072 ], [ -2.7667499, 42.6204208 ], [ -2.766786, 42.6204388 ], [ -2.7669876, 42.6205383 ], [ -2.7670675, 42.6205745 ], [ -2.7671968, 42.6206378 ], [ -2.767217, 42.6206514 ], [ -2.767368, 42.6207237 ], [ -2.7673916, 42.6207328 ], [ -2.7675293, 42.6208006 ], [ -2.7675441, 42.6208096 ], [ -2.7675566, 42.6208142 ], [ -2.7675715, 42.6208232 ], [ -2.7676571, 42.6208639 ], [ -2.7676993, 42.6208865 ], [ -2.7677895, 42.6209317 ], [ -2.7678248, 42.6209453 ], [ -2.7679154, 42.6209905 ], [ -2.7679678, 42.6210176 ], [ -2.7679887, 42.6210267 ], [ -2.7681185, 42.62109 ], [ -2.768136, 42.621099 ], [ -2.7682143, 42.6211397 ], [ -2.7683026, 42.6211804 ], [ -2.7683349, 42.6211985 ], [ -2.7683612, 42.6212076 ], [ -2.7685171, 42.6212844 ], [ -2.7686266, 42.6213387 ], [ -2.7686491, 42.6213522 ], [ -2.7687016, 42.6213749 ], [ -2.7688058, 42.6214291 ], [ -2.7689382, 42.6214924 ], [ -2.7689884, 42.621515 ], [ -2.7690644, 42.6215557 ], [ -2.7691382, 42.6215874 ], [ -2.7692105, 42.6216236 ], [ -2.7692387, 42.6216371 ], [ -2.7692953, 42.6216688 ], [ -2.7693402, 42.6216914 ], [ -2.7693741, 42.6217095 ], [ -2.7694341, 42.6217456 ], [ -2.769482, 42.6217682 ], [ -2.769525, 42.6217953 ], [ -2.7695463, 42.6218043 ], [ -2.7696303, 42.6218586 ], [ -2.769676, 42.6218857 ], [ -2.7696934, 42.6218992 ], [ -2.7697501, 42.6219308 ], [ -2.7697976, 42.6219625 ], [ -2.769814, 42.6219715 ], [ -2.7698296, 42.6219805 ], [ -2.7698569, 42.6219986 ], [ -2.7698813, 42.6220122 ], [ -2.7699022, 42.6220257 ], [ -2.7699353, 42.6220483 ], [ -2.7699634, 42.6220619 ], [ -2.7700109, 42.6220935 ], [ -2.7700311, 42.622107 ], [ -2.7700505, 42.6221161 ], [ -2.7700835, 42.6221387 ], [ -2.7701493, 42.6221793 ], [ -2.7701657, 42.6221883 ], [ -2.7702364, 42.6222335 ], [ -2.7703896, 42.6223284 ], [ -2.7704755, 42.6223826 ], [ -2.770571, 42.6224413 ], [ -2.7706827, 42.6225091 ], [ -2.7707318, 42.6225407 ], [ -2.7707614, 42.6225588 ], [ -2.7707915, 42.6225768 ], [ -2.7708067, 42.6225859 ], [ -2.7708219, 42.6225949 ], [ -2.7708428, 42.6226085 ], [ -2.7708527, 42.6226175 ], [ -2.7709044, 42.6226446 ], [ -2.7709523, 42.6226717 ], [ -2.7709838, 42.6226943 ], [ -2.7710295, 42.622717 ], [ -2.771058, 42.622735 ], [ -2.7710995, 42.6227576 ], [ -2.7711147, 42.6227666 ], [ -2.7711474, 42.6227892 ], [ -2.7711675, 42.6227983 ], [ -2.7711831, 42.6228073 ], [ -2.7711953, 42.6228163 ], [ -2.7712615, 42.6228525 ], [ -2.7713147, 42.6228841 ], [ -2.771325, 42.6228886 ], [ -2.7713858, 42.6229248 ], [ -2.7715261, 42.6230061 ], [ -2.7716022, 42.6230513 ], [ -2.7716197, 42.6230604 ], [ -2.7716866, 42.623101 ], [ -2.7716991, 42.6231055 ], [ -2.7717147, 42.6231146 ], [ -2.7717592, 42.6231417 ], [ -2.7717809, 42.6231552 ], [ -2.7718072, 42.6231688 ], [ -2.7719026, 42.623223 ], [ -2.7719391, 42.6232456 ], [ -2.7720018, 42.6232817 ], [ -2.7720129, 42.6232863 ], [ -2.7720273, 42.6232953 ], [ -2.7720771, 42.6233224 ], [ -2.7720931, 42.6233315 ], [ -2.7721467, 42.6233631 ], [ -2.7722331, 42.6234128 ], [ -2.7722947, 42.623449 ], [ -2.7723711, 42.6234941 ], [ -2.7724255, 42.6235213 ], [ -2.7724513, 42.6235393 ], [ -2.7725768, 42.6236116 ], [ -2.7726609, 42.6236568 ], [ -2.7726799, 42.6236703 ], [ -2.7727772, 42.6237246 ], [ -2.7728016, 42.6237381 ], [ -2.7728602, 42.6237698 ], [ -2.7730058, 42.6238556 ], [ -2.77311, 42.6239144 ], [ -2.7731693, 42.6239505 ], [ -2.7732051, 42.6239686 ], [ -2.7733047, 42.6240273 ], [ -2.7733439, 42.6240499 ], [ -2.7734233, 42.6240951 ], [ -2.7734446, 42.6241042 ], [ -2.7734679, 42.6241177 ], [ -2.7735986, 42.6241945 ], [ -2.7736413, 42.6242171 ], [ -2.7737234, 42.6242668 ], [ -2.7737903, 42.624303 ], [ -2.7738497, 42.6243391 ], [ -2.7738808, 42.6243572 ], [ -2.7738938, 42.6243617 ], [ -2.7740166, 42.624434 ], [ -2.7740995, 42.6244792 ], [ -2.7741402, 42.6245018 ], [ -2.774198, 42.6245379 ], [ -2.7743193, 42.6246057 ], [ -2.774363, 42.6246328 ], [ -2.7744384, 42.6246735 ], [ -2.7744517, 42.6246825 ], [ -2.7744726, 42.6246961 ], [ -2.7744893, 42.6247051 ], [ -2.7745079, 42.6247187 ], [ -2.7745319, 42.6247367 ], [ -2.7745475, 42.6247503 ], [ -2.7745813, 42.6247729 ], [ -2.7745908, 42.6247819 ], [ -2.7746212, 42.6248045 ], [ -2.7746322, 42.624809 ], [ -2.7746504, 42.6248225 ], [ -2.7746596, 42.6248315 ], [ -2.7746934, 42.6248541 ], [ -2.7747025, 42.6248632 ], [ -2.7747687, 42.6249083 ], [ -2.7747873, 42.6249219 ], [ -2.7748082, 42.6249399 ], [ -2.774904, 42.6250076 ], [ -2.7749196, 42.6250212 ], [ -2.7749674, 42.6250528 ], [ -2.7750096, 42.6250844 ], [ -2.7750199, 42.6250979 ], [ -2.7750339, 42.625116 ], [ -2.7750612, 42.6251475 ], [ -2.7750882, 42.6251791 ], [ -2.7751512, 42.6252558 ], [ -2.7751789, 42.6252919 ], [ -2.7751887, 42.6253009 ], [ -2.7752081, 42.6253234 ], [ -2.7752168, 42.625337 ], [ -2.7752271, 42.6253505 ], [ -2.7752422, 42.6253686 ], [ -2.7752604, 42.6253866 ], [ -2.7753173, 42.6254587 ], [ -2.7753253, 42.6254677 ], [ -2.7753325, 42.6254768 ], [ -2.7754885, 42.6256617 ], [ -2.7755765, 42.62577 ], [ -2.7756012, 42.6257971 ], [ -2.7756376, 42.6258421 ], [ -2.7756755, 42.6258872 ], [ -2.7756926, 42.6259053 ], [ -2.7757283, 42.6259504 ], [ -2.7757738, 42.6260045 ], [ -2.7758137, 42.6260541 ], [ -2.7758596, 42.6261082 ], [ -2.7758683, 42.6261173 ], [ -2.7758884, 42.6261398 ], [ -2.7758983, 42.6261533 ], [ -2.775907, 42.6261624 ], [ -2.7759135, 42.6261714 ], [ -2.7759275, 42.6261894 ], [ -2.7759507, 42.6262165 ], [ -2.7759856, 42.6262571 ], [ -2.7760015, 42.6262751 ], [ -2.7760285, 42.6263112 ], [ -2.7760603, 42.6263473 ], [ -2.7760743, 42.6263653 ], [ -2.7761108, 42.6264059 ], [ -2.7762148, 42.6265322 ], [ -2.7762208, 42.6265412 ], [ -2.7762629, 42.6265908 ], [ -2.7763331, 42.626672 ], [ -2.7763643, 42.6267126 ], [ -2.7764341, 42.6267938 ], [ -2.7765233, 42.6269021 ], [ -2.7765331, 42.6269156 ], [ -2.7766158, 42.6270148 ], [ -2.7766705, 42.627078 ], [ -2.7766929, 42.627105 ], [ -2.7767896, 42.6272223 ], [ -2.7768207, 42.6272584 ], [ -2.7769331, 42.6273937 ], [ -2.7770021, 42.6274749 ], [ -2.777053, 42.627538 ], [ -2.7771072, 42.6276012 ], [ -2.7771945, 42.6277049 ], [ -2.7772227, 42.627741 ], [ -2.7772477, 42.627768 ], [ -2.7772644, 42.6277906 ], [ -2.7773509, 42.6278943 ], [ -2.7774275, 42.6279845 ], [ -2.7774598, 42.6280251 ], [ -2.7774753, 42.6280432 ], [ -2.7774833, 42.6280522 ], [ -2.777514, 42.6280883 ], [ -2.7776089, 42.6282055 ], [ -2.7778286, 42.6284671 ], [ -2.7778366, 42.6284761 ], [ -2.7779288, 42.6285889 ], [ -2.7779512, 42.6286159 ], [ -2.7779937, 42.6286656 ], [ -2.7780005, 42.6286746 ], [ -2.7780104, 42.6286881 ], [ -2.7780256, 42.6287062 ], [ -2.7781906, 42.6289046 ], [ -2.77824, 42.6289633 ], [ -2.7782628, 42.6289903 ], [ -2.778276, 42.6290084 ], [ -2.778355, 42.629103 ], [ -2.7783743, 42.6291256 ], [ -2.7784779, 42.6292474 ], [ -2.7785079, 42.6292835 ], [ -2.778547, 42.6293331 ], [ -2.7786284, 42.6293693 ], [ -2.7786702, 42.6293919 ], [ -2.7787269, 42.629419 ], [ -2.7788776, 42.6294868 ], [ -2.7789145, 42.6295049 ], [ -2.778986, 42.6295411 ], [ -2.7790918, 42.6295908 ], [ -2.7791554, 42.629618 ], [ -2.7794088, 42.62974 ], [ -2.7794422, 42.6297536 ], [ -2.7795016, 42.6297807 ], [ -2.7795648, 42.6298124 ], [ -2.7796218, 42.6298395 ], [ -2.7796751, 42.6298621 ], [ -2.7797322, 42.6298892 ], [ -2.7798079, 42.6299254 ], [ -2.7798303, 42.629939 ], [ -2.7798661, 42.6299525 ], [ -2.7801305, 42.6300791 ], [ -2.7802458, 42.6301334 ], [ -2.7804368, 42.6302238 ], [ -2.7805395, 42.6302735 ], [ -2.7808025, 42.6303956 ], [ -2.7808421, 42.6304137 ], [ -2.7808957, 42.6304408 ], [ -2.7809962, 42.6304861 ], [ -2.7810604, 42.6305177 ], [ -2.7810761, 42.6305267 ], [ -2.7811114, 42.6305403 ], [ -2.7811419, 42.6305539 ], [ -2.7811753, 42.630572 ], [ -2.781287, 42.6305722 ], [ -2.7813411, 42.6305768 ], [ -2.7814189, 42.6305769 ], [ -2.7816132, 42.6305818 ], [ -2.7816281, 42.6305818 ], [ -2.781649, 42.6305819 ], [ -2.781667, 42.6305819 ], [ -2.7817257, 42.630582 ], [ -2.7819128, 42.6305869 ], [ -2.7820545, 42.6305872 ], [ -2.7820969, 42.6305872 ], [ -2.7821212, 42.6305873 ], [ -2.7822039, 42.6305919 ], [ -2.7823419, 42.6305922 ], [ -2.7824482, 42.6305969 ], [ -2.7825454, 42.6305971 ], [ -2.7826273, 42.6305973 ], [ -2.7826582, 42.6305973 ], [ -2.7826673, 42.6306063 ], [ -2.7826883, 42.6306154 ], [ -2.7827236, 42.630638 ], [ -2.7827624, 42.6306651 ], [ -2.782789, 42.6306786 ], [ -2.7828403, 42.6307102 ], [ -2.7829628, 42.630787 ], [ -2.7829985, 42.6308096 ], [ -2.7830328, 42.6308322 ], [ -2.7830666, 42.6308548 ], [ -2.783178, 42.6309225 ], [ -2.7833146, 42.6310084 ], [ -2.7833587, 42.6310354 ], [ -2.7834557, 42.6310941 ], [ -2.7835279, 42.6311393 ], [ -2.7836268, 42.6312026 ], [ -2.783639, 42.6312116 ], [ -2.7837596, 42.6312839 ], [ -2.7838151, 42.63132 ], [ -2.7838459, 42.6313381 ], [ -2.7838675, 42.6313516 ], [ -2.7839634, 42.6314103 ], [ -2.7839774, 42.6314193 ], [ -2.7840067, 42.6314374 ], [ -2.7840189, 42.6314464 ], [ -2.784071, 42.6314781 ], [ -2.7840877, 42.6314916 ], [ -2.7841885, 42.6315548 ], [ -2.7842801, 42.6316091 ], [ -2.7843292, 42.6316407 ], [ -2.7844521, 42.6317174 ], [ -2.7845137, 42.6317536 ], [ -2.7846544, 42.6318439 ], [ -2.7846662, 42.6318485 ], [ -2.7848659, 42.6319749 ], [ -2.7849681, 42.6320382 ], [ -2.7850069, 42.6320652 ], [ -2.7851686, 42.6321646 ], [ -2.7852294, 42.6322007 ], [ -2.7853157, 42.6322549 ], [ -2.7853773, 42.6322956 ], [ -2.7854504, 42.6323407 ], [ -2.7855204, 42.6323814 ], [ -2.7856225, 42.6323861 ], [ -2.7856987, 42.6323862 ], [ -2.7857292, 42.6323863 ], [ -2.7857448, 42.6323863 ], [ -2.7858846, 42.6324046 ], [ -2.7859243, 42.6324092 ], [ -2.7860373, 42.6324499 ], [ -2.7861108, 42.6324771 ], [ -2.7861347, 42.6324906 ], [ -2.7863083, 42.6325675 ], [ -2.786373, 42.6325991 ], [ -2.7864103, 42.6326172 ], [ -2.7865434, 42.6326985 ], [ -2.7866792, 42.6327843 ], [ -2.7867103, 42.6328024 ], [ -2.7868081, 42.6328611 ], [ -2.7868438, 42.6328837 ], [ -2.7868659, 42.6328973 ], [ -2.7868933, 42.6329153 ], [ -2.7869275, 42.6329379 ], [ -2.7870979, 42.6330418 ], [ -2.7871268, 42.6330599 ], [ -2.7871435, 42.6330689 ], [ -2.7872078, 42.6331095 ], [ -2.7872367, 42.6331186 ], [ -2.7872638, 42.6331276 ], [ -2.7873175, 42.6331458 ], [ -2.7873533, 42.6331458 ], [ -2.7873906, 42.6331504 ], [ -2.7874036, 42.6331504 ], [ -2.7875198, 42.6331596 ], [ -2.7875621, 42.6331597 ], [ -2.7876513, 42.6331644 ], [ -2.787764, 42.6331691 ], [ -2.7878464, 42.6331693 ], [ -2.7878769, 42.6331738 ], [ -2.7879591, 42.6331965 ], [ -2.7880329, 42.6332281 ], [ -2.7880504, 42.6332507 ], [ -2.7880713, 42.6332733 ], [ -2.7880812, 42.6332868 ], [ -2.7881274, 42.6333409 ], [ -2.7881616, 42.6333995 ], [ -2.7881718, 42.633413 ], [ -2.7881862, 42.6334401 ], [ -2.7882609, 42.6335618 ], [ -2.7882934, 42.6336249 ], [ -2.788343, 42.6337286 ], [ -2.7883562, 42.6337826 ], [ -2.7883723, 42.6338502 ], [ -2.7883745, 42.6338592 ], [ -2.7883915, 42.6339268 ], [ -2.7884043, 42.6339718 ], [ -2.7884274, 42.6340259 ], [ -2.7884323, 42.6340349 ], [ -2.7884554, 42.6340665 ], [ -2.7884916, 42.63408 ], [ -2.7885098, 42.6340891 ], [ -2.7885346, 42.6341027 ], [ -2.7885822, 42.6341252 ], [ -2.7886198, 42.6341388 ], [ -2.7887146, 42.634175 ], [ -2.788766, 42.6341976 ], [ -2.7888471, 42.6342293 ], [ -2.7888783, 42.6342429 ], [ -2.7890739, 42.6343198 ], [ -2.7891074, 42.6343424 ], [ -2.7891823, 42.634392 ], [ -2.7892492, 42.6344552 ], [ -2.7893245, 42.6345184 ], [ -2.7893655, 42.6345545 ], [ -2.7894077, 42.6345906 ], [ -2.7894704, 42.6346402 ], [ -2.7894951, 42.6346583 ], [ -2.7895232, 42.6346764 ], [ -2.7895848, 42.634717 ], [ -2.7897082, 42.6347532 ], [ -2.7897451, 42.6347668 ], [ -2.7897627, 42.6347713 ], [ -2.7897817, 42.6347759 ], [ -2.7898042, 42.6347759 ], [ -2.7898891, 42.6347896 ], [ -2.7899173, 42.6347897 ], [ -2.7900621, 42.6348079 ], [ -2.7900956, 42.6348125 ], [ -2.7902309, 42.6348308 ], [ -2.7903002, 42.6348399 ], [ -2.7903242, 42.6348399 ], [ -2.7903391, 42.63484 ], [ -2.7903894, 42.63484 ], [ -2.7904595, 42.6348357 ], [ -2.7907218, 42.6348182 ], [ -2.7908469, 42.6348004 ], [ -2.7909846, 42.6347781 ], [ -2.7910402, 42.6347692 ], [ -2.7910528, 42.6347692 ], [ -2.7910792, 42.6347648 ], [ -2.7911421, 42.6347559 ], [ -2.7912592, 42.6347336 ], [ -2.7912729, 42.6347336 ], [ -2.791361, 42.6347112 ], [ -2.7913744, 42.6347068 ], [ -2.7914251, 42.6346844 ], [ -2.7915809, 42.6346126 ], [ -2.7916404, 42.6345857 ], [ -2.7916611, 42.6345767 ], [ -2.791679, 42.6345677 ], [ -2.7917336, 42.6345408 ], [ -2.7917962, 42.6345094 ], [ -2.7919222, 42.6344466 ], [ -2.7920031, 42.6344107 ], [ -2.7920543, 42.6343793 ], [ -2.7921123, 42.6343434 ], [ -2.7921238, 42.6343344 ], [ -2.7921326, 42.6343254 ], [ -2.792154, 42.6343074 ], [ -2.792211, 42.6342535 ], [ -2.7922549, 42.6342085 ], [ -2.7923104, 42.6341546 ], [ -2.7924485, 42.6340153 ], [ -2.7924668, 42.6339973 ], [ -2.7924783, 42.6339883 ], [ -2.792567, 42.6338985 ], [ -2.7925907, 42.6338805 ], [ -2.7926526, 42.6338265 ], [ -2.7926656, 42.6338131 ], [ -2.7927611, 42.6337457 ], [ -2.7927814, 42.6337322 ], [ -2.7928227, 42.6337008 ], [ -2.792891, 42.6336559 ], [ -2.792909, 42.6336424 ], [ -2.7929227, 42.6336334 ], [ -2.7930507, 42.6335481 ], [ -2.7930977, 42.6335167 ], [ -2.7932673, 42.6334044 ], [ -2.793278, 42.6333999 ], [ -2.7933158, 42.6333729 ], [ -2.7933563, 42.633346 ], [ -2.7934888, 42.6332787 ], [ -2.7935021, 42.6332697 ], [ -2.7936419, 42.633198 ], [ -2.7936632, 42.6331844 ], [ -2.7937974, 42.6330811 ], [ -2.7938054, 42.6330722 ], [ -2.7938776, 42.6330183 ], [ -2.7938994, 42.6330003 ], [ -2.793959, 42.6329554 ], [ -2.7940736, 42.6328655 ], [ -2.7941543, 42.6328026 ], [ -2.7942372, 42.6327397 ], [ -2.7942708, 42.6327128 ], [ -2.7943232, 42.6326723 ], [ -2.7943541, 42.6326499 ], [ -2.7943778, 42.6326319 ], [ -2.7944993, 42.6325375 ], [ -2.7945177, 42.6325241 ], [ -2.7946116, 42.6324522 ], [ -2.794753, 42.6323399 ] ] ] } }
]
}
