{
"type": "FeatureCollection",
"name": "01057",
"features": [
{ "type": "Feature", "properties": { "CCAA": "16 - País Vasco", "PROVINCIA": "01 - Araba/Álava", "MUNICIPIO": "01057 - Villabuena de Álava/Eskuernaga", "COD_MUNICIPIO": "01057", "DISTRITO": "01", "SECCION": "0105701001", "V1_H": 80.21, "V1_M": 86.35, "V2_H": 80.00126986, "V2_M": 86.33312861, "V3_H": 80.58114521, "V3_M": 86.56210486000001 }, "geometry": { "type": "Polygon", "coordinates": [ [ [ -2.6507046, 42.5587448 ], [ -2.6508128, 42.5587271 ], [ -2.6508311, 42.5587272 ], [ -2.6508845, 42.5587183 ], [ -2.6509652, 42.5587051 ], [ -2.6510506, 42.5586918 ], [ -2.6512144, 42.5586653 ], [ -2.6513843, 42.5586343 ], [ -2.6514095, 42.5586344 ], [ -2.6514964, 42.5586166 ], [ -2.6515162, 42.5586167 ], [ -2.6518423, 42.5585636 ], [ -2.6520992, 42.5585194 ], [ -2.6529245, 42.5583868 ], [ -2.6531538, 42.5585046 ], [ -2.6532631, 42.5585589 ], [ -2.6534172, 42.5586405 ], [ -2.6534992, 42.5586812 ], [ -2.6535667, 42.5587175 ], [ -2.6536783, 42.5587718 ], [ -2.6537535, 42.5588126 ], [ -2.6537869, 42.5588307 ], [ -2.653878, 42.558876 ], [ -2.6540564, 42.5589666 ], [ -2.6541354, 42.5590074 ], [ -2.6541969, 42.5590391 ], [ -2.6542318, 42.5590527 ], [ -2.6543411, 42.5591116 ], [ -2.6545568, 42.5592203 ], [ -2.6545834, 42.5592339 ], [ -2.6547147, 42.5593018 ], [ -2.6547352, 42.5593109 ], [ -2.6547504, 42.5593199 ], [ -2.6549144, 42.5594015 ], [ -2.6549311, 42.5594106 ], [ -2.6550419, 42.5594649 ], [ -2.6550563, 42.559474 ], [ -2.6551771, 42.5595329 ], [ -2.6553571, 42.5596235 ], [ -2.6558179, 42.559859 ], [ -2.6558862, 42.5598952 ], [ -2.6560525, 42.5599768 ], [ -2.6560867, 42.5599949 ], [ -2.6561072, 42.560004 ], [ -2.6561459, 42.5600266 ], [ -2.6561626, 42.5600357 ], [ -2.6563311, 42.5601218 ], [ -2.6563547, 42.5601308 ], [ -2.6564157, 42.560104 ], [ -2.6565478, 42.5600368 ], [ -2.6567028, 42.5599607 ], [ -2.6567234, 42.5599518 ], [ -2.6568158, 42.559907 ], [ -2.6568631, 42.5598847 ], [ -2.6569952, 42.5598175 ], [ -2.657212, 42.5597146 ], [ -2.6572891, 42.5596743 ], [ -2.6575388, 42.5595535 ], [ -2.6576044, 42.5595222 ], [ -2.6577716, 42.5594416 ], [ -2.6577968, 42.5594282 ], [ -2.6578457, 42.5594013 ], [ -2.6579572, 42.5593341 ], [ -2.6579717, 42.5593251 ], [ -2.6581367, 42.5592221 ], [ -2.6584805, 42.5590159 ], [ -2.6585744, 42.5589622 ], [ -2.6586371, 42.5589219 ], [ -2.6586478, 42.5589174 ], [ -2.6586661, 42.5589039 ], [ -2.6586852, 42.5588949 ], [ -2.6587303, 42.5588636 ], [ -2.6588112, 42.5588188 ], [ -2.6589915, 42.5587068 ], [ -2.6590182, 42.5586933 ], [ -2.6591061, 42.5586396 ], [ -2.6591535, 42.5586082 ], [ -2.6591917, 42.5585858 ], [ -2.6592092, 42.5585768 ], [ -2.6592695, 42.558541 ], [ -2.6593025, 42.5585186 ], [ -2.6593643, 42.5584827 ], [ -2.6594552, 42.5584335 ], [ -2.6595094, 42.5584021 ], [ -2.6595254, 42.5583886 ], [ -2.6595972, 42.5583483 ], [ -2.6596087, 42.5583439 ], [ -2.6596309, 42.5583304 ], [ -2.6597049, 42.5582856 ], [ -2.6598462, 42.558205 ], [ -2.6599257, 42.5581557 ], [ -2.6600761, 42.5580706 ], [ -2.6601334, 42.5580347 ], [ -2.6601701, 42.5580168 ], [ -2.6602449, 42.557972 ], [ -2.6603488, 42.5579138 ], [ -2.6604397, 42.55786 ], [ -2.6604756, 42.5578376 ], [ -2.6605833, 42.5577749 ], [ -2.6606024, 42.5577659 ], [ -2.6606398, 42.5577525 ], [ -2.6607854, 42.557708 ], [ -2.6608396, 42.5576901 ], [ -2.6609524, 42.5576544 ], [ -2.6610935, 42.5576098 ], [ -2.6612788, 42.5575563 ], [ -2.661304, 42.5575473 ], [ -2.661352, 42.557534 ], [ -2.6613689, 42.5575251 ], [ -2.6614146, 42.5575117 ], [ -2.6615106, 42.5574849 ], [ -2.6616807, 42.5574314 ], [ -2.6616975, 42.5574269 ], [ -2.6617707, 42.5574047 ], [ -2.6619827, 42.5573377 ], [ -2.6620987, 42.557302 ], [ -2.6621421, 42.5572887 ], [ -2.662178, 42.5572753 ], [ -2.6622702, 42.5572486 ], [ -2.6623458, 42.5572262 ], [ -2.6623816, 42.5572128 ], [ -2.6624189, 42.557204 ], [ -2.6625387, 42.5571638 ], [ -2.6626386, 42.5571371 ], [ -2.6627675, 42.5570969 ], [ -2.6628254, 42.5570926 ], [ -2.662887, 42.5570882 ], [ -2.6629243, 42.5570884 ], [ -2.663165, 42.5570756 ], [ -2.6632016, 42.5570712 ], [ -2.663267, 42.5570713 ], [ -2.6633882, 42.5570627 ], [ -2.6634003, 42.5570673 ], [ -2.6634505, 42.5570764 ], [ -2.6637289, 42.5571358 ], [ -2.6638475, 42.5571631 ], [ -2.6638664, 42.5571677 ], [ -2.6640711, 42.5572043 ], [ -2.6642932, 42.5572455 ], [ -2.6643517, 42.5572592 ], [ -2.6644415, 42.5572729 ], [ -2.6645099, 42.5572866 ], [ -2.6645441, 42.5572957 ], [ -2.664621, 42.5573095 ], [ -2.664751, 42.5573324 ], [ -2.6648796, 42.5573553 ], [ -2.6650834, 42.5573964 ], [ -2.6650956, 42.5573964 ], [ -2.6652332, 42.5574239 ], [ -2.6653891, 42.5574513 ], [ -2.6654006, 42.5574423 ], [ -2.6654358, 42.5574154 ], [ -2.6655459, 42.5573302 ], [ -2.6655558, 42.5573212 ], [ -2.6658402, 42.5570969 ], [ -2.6660039, 42.5569668 ], [ -2.6660138, 42.5569578 ], [ -2.6661308, 42.5568636 ], [ -2.6661469, 42.5568501 ], [ -2.6663854, 42.5566617 ], [ -2.6663954, 42.5566527 ], [ -2.6664221, 42.5566348 ], [ -2.6664351, 42.5566214 ], [ -2.6664665, 42.5565809 ], [ -2.6665455, 42.5564776 ], [ -2.6665501, 42.5564686 ], [ -2.6665586, 42.5564596 ], [ -2.6666552, 42.5563293 ], [ -2.6667487, 42.556208 ], [ -2.6668039, 42.5561316 ], [ -2.666886, 42.5560238 ], [ -2.6669757, 42.5559024 ], [ -2.6671474, 42.5556778 ], [ -2.6671735, 42.5556418 ], [ -2.6671957, 42.5556149 ], [ -2.6672096, 42.5555924 ], [ -2.6672418, 42.555552 ], [ -2.6672632, 42.555525 ], [ -2.6673276, 42.5554397 ], [ -2.6674127, 42.5553273 ], [ -2.6675339, 42.5551656 ], [ -2.6675439, 42.5551521 ], [ -2.6676857, 42.5549634 ], [ -2.6677056, 42.5549364 ], [ -2.6677364, 42.554896 ], [ -2.6677693, 42.5548511 ], [ -2.6678874, 42.5546938 ], [ -2.6679395, 42.5546264 ], [ -2.6680208, 42.5545186 ], [ -2.6680361, 42.5544961 ], [ -2.6680437, 42.5544871 ], [ -2.6680568, 42.5544691 ], [ -2.6680722, 42.5544512 ], [ -2.6680829, 42.5544332 ], [ -2.6681181, 42.5544108 ], [ -2.66829, 42.5542852 ], [ -2.6683519, 42.5542358 ], [ -2.6685009, 42.5541282 ], [ -2.6685315, 42.5541058 ], [ -2.6685583, 42.5540878 ], [ -2.6686836, 42.5539936 ], [ -2.6687317, 42.5539577 ], [ -2.6688059, 42.5539039 ], [ -2.668841, 42.553886 ], [ -2.6688639, 42.5538726 ], [ -2.6689067, 42.5538457 ], [ -2.6690533, 42.5537651 ], [ -2.6691839, 42.5536889 ], [ -2.6692473, 42.5536531 ], [ -2.6693564, 42.5535948 ], [ -2.6696092, 42.5534515 ], [ -2.6697161, 42.5533887 ], [ -2.6698352, 42.5533215 ], [ -2.6698772, 42.5532992 ], [ -2.670372, 42.5530169 ], [ -2.6703965, 42.5530035 ], [ -2.6704071, 42.552999 ], [ -2.6704896, 42.5529497 ], [ -2.6705973, 42.5528869 ], [ -2.6706355, 42.5528691 ], [ -2.6706926, 42.5528602 ], [ -2.6708694, 42.5528292 ], [ -2.6710263, 42.5528071 ], [ -2.6714119, 42.5527452 ], [ -2.6715886, 42.5527187 ], [ -2.6716168, 42.5527143 ], [ -2.671904, 42.5526701 ], [ -2.6720602, 42.5526435 ], [ -2.6722904, 42.5526082 ], [ -2.6724077, 42.5525905 ], [ -2.6725151, 42.5525728 ], [ -2.6726584, 42.5525507 ], [ -2.6727345, 42.5525419 ], [ -2.6729692, 42.5525065 ], [ -2.6729959, 42.5525021 ], [ -2.6733921, 42.5524402 ], [ -2.6734546, 42.5524269 ], [ -2.6734843, 42.5524224 ], [ -2.6736869, 42.5523915 ], [ -2.6740168, 42.5523429 ], [ -2.6741654, 42.5523163 ], [ -2.6741921, 42.5523164 ], [ -2.6745022, 42.5522677 ], [ -2.674602, 42.55225 ], [ -2.6746934, 42.5522368 ], [ -2.6747277, 42.5522324 ], [ -2.6747651, 42.5522235 ], [ -2.6747757, 42.552219 ], [ -2.6748498, 42.5521832 ], [ -2.6748803, 42.5521697 ], [ -2.6750207, 42.5521026 ], [ -2.6751191, 42.5520579 ], [ -2.6751352, 42.5520489 ], [ -2.6754802, 42.5518833 ], [ -2.6755259, 42.5518609 ], [ -2.67559, 42.551834 ], [ -2.6756038, 42.551825 ], [ -2.6756587, 42.5517982 ], [ -2.6757305, 42.5517669 ], [ -2.6758228, 42.5517221 ], [ -2.675977, 42.551646 ], [ -2.6760884, 42.5515968 ], [ -2.6762868, 42.5515028 ], [ -2.6764685, 42.5514133 ], [ -2.6765112, 42.5513953 ], [ -2.6769386, 42.5511894 ], [ -2.6769874, 42.5511671 ], [ -2.6773293, 42.5510059 ], [ -2.6774384, 42.5509522 ], [ -2.6775506, 42.5508985 ], [ -2.6775643, 42.550894 ], [ -2.6776851, 42.5507908 ], [ -2.6778243, 42.5506696 ], [ -2.6778496, 42.5506472 ], [ -2.6778932, 42.5506113 ], [ -2.6779352, 42.5505754 ], [ -2.6779964, 42.5505215 ], [ -2.6781921, 42.5503554 ], [ -2.6783015, 42.5502612 ], [ -2.6785362, 42.5500637 ], [ -2.6785538, 42.5500457 ], [ -2.678631, 42.5499829 ], [ -2.6788074, 42.5497267 ], [ -2.6788151, 42.5497178 ], [ -2.6790221, 42.5494212 ], [ -2.6790567, 42.5493717 ], [ -2.6790643, 42.5493628 ], [ -2.6790942, 42.5493178 ], [ -2.6791855, 42.5491875 ], [ -2.67922, 42.549138 ], [ -2.6792821, 42.5490481 ], [ -2.6793373, 42.5489718 ], [ -2.6793649, 42.5489313 ], [ -2.6794025, 42.5488774 ], [ -2.6794638, 42.5487875 ], [ -2.6795076, 42.5487246 ], [ -2.6795222, 42.5487021 ], [ -2.6795582, 42.5486527 ], [ -2.6795889, 42.5486077 ], [ -2.6796348, 42.5485493 ], [ -2.6797421, 42.5484055 ], [ -2.6798066, 42.5483156 ], [ -2.6798364, 42.5482797 ], [ -2.6798878, 42.5482078 ], [ -2.6798978, 42.5481943 ], [ -2.6799208, 42.5481674 ], [ -2.6799284, 42.5481539 ], [ -2.6804739, 42.5479302 ], [ -2.6805616, 42.5478945 ], [ -2.6806539, 42.5478542 ], [ -2.6809888, 42.5477156 ], [ -2.6816624, 42.5474382 ], [ -2.6817562, 42.547398 ], [ -2.6817684, 42.5473935 ], [ -2.6818149, 42.5473756 ], [ -2.6819698, 42.5473131 ], [ -2.6822459, 42.5471967 ], [ -2.6826304, 42.5470357 ], [ -2.6829157, 42.5469194 ], [ -2.6830584, 42.5468612 ], [ -2.6831873, 42.5468076 ], [ -2.6832285, 42.5467897 ], [ -2.6837975, 42.5465571 ], [ -2.6839814, 42.5464811 ], [ -2.6841035, 42.5464274 ], [ -2.6843826, 42.5463111 ], [ -2.6845381, 42.54628 ], [ -2.6850266, 42.5461688 ], [ -2.685121, 42.546151 ], [ -2.685304, 42.5461065 ], [ -2.6854183, 42.5460843 ], [ -2.685483, 42.546071 ], [ -2.6855898, 42.5460352 ], [ -2.6862439, 42.5458434 ], [ -2.6860212, 42.5453204 ], [ -2.6860069, 42.5452889 ], [ -2.6859933, 42.5452573 ], [ -2.6859881, 42.5452438 ], [ -2.6859632, 42.5451897 ], [ -2.6858549, 42.5449372 ], [ -2.6857764, 42.5448064 ], [ -2.6854269, 42.5442336 ], [ -2.6853702, 42.5441389 ], [ -2.685365, 42.5441299 ], [ -2.6853325, 42.5440758 ], [ -2.6852895, 42.5440081 ], [ -2.6851921, 42.5438457 ], [ -2.685183, 42.5438322 ], [ -2.6851755, 42.5438187 ], [ -2.6851679, 42.5438096 ], [ -2.6851475, 42.5437735 ], [ -2.6850826, 42.5436653 ], [ -2.6850697, 42.5436472 ], [ -2.6849975, 42.5434895 ], [ -2.6849651, 42.5434173 ], [ -2.6849561, 42.5433948 ], [ -2.68495, 42.5433857 ], [ -2.6848974, 42.5432685 ], [ -2.6848696, 42.5432054 ], [ -2.6848477, 42.5431603 ], [ -2.6848334, 42.5431287 ], [ -2.6848221, 42.5431017 ], [ -2.6847973, 42.5430476 ], [ -2.6847814, 42.543016 ], [ -2.6847024, 42.5428402 ], [ -2.6846587, 42.5427455 ], [ -2.684655, 42.5427365 ], [ -2.6846271, 42.5426779 ], [ -2.6845594, 42.5425291 ], [ -2.684521, 42.5424434 ], [ -2.6844698, 42.5423308 ], [ -2.684384, 42.5421414 ], [ -2.6843538, 42.5420783 ], [ -2.6843267, 42.5420196 ], [ -2.6842748, 42.5419069 ], [ -2.6842642, 42.5418799 ], [ -2.684259, 42.5418708 ], [ -2.684247, 42.5418393 ], [ -2.6842387, 42.5418168 ], [ -2.6842199, 42.5417672 ], [ -2.6842139, 42.5417537 ], [ -2.6841558, 42.5416454 ], [ -2.684143, 42.5416229 ], [ -2.6841166, 42.5415733 ], [ -2.6840706, 42.5414876 ], [ -2.6839703, 42.5413027 ], [ -2.6839145, 42.541199 ], [ -2.6838436, 42.5410682 ], [ -2.6837992, 42.5409825 ], [ -2.6837712, 42.5409329 ], [ -2.683683, 42.540766 ], [ -2.6836242, 42.5406578 ], [ -2.6835164, 42.5404594 ], [ -2.6834772, 42.5403872 ], [ -2.6834727, 42.5403782 ], [ -2.6834636, 42.5403602 ], [ -2.6833543, 42.5401573 ], [ -2.683346, 42.5401437 ], [ -2.6832902, 42.54004 ], [ -2.6832525, 42.5399679 ], [ -2.6832276, 42.5399227 ], [ -2.683168, 42.53981 ], [ -2.6831356, 42.5397514 ], [ -2.683113, 42.5397108 ], [ -2.6830263, 42.5395484 ], [ -2.6829493, 42.5394086 ], [ -2.6828483, 42.5392192 ], [ -2.6828197, 42.5391651 ], [ -2.6828031, 42.5391336 ], [ -2.6827496, 42.5390343 ], [ -2.6827292, 42.5389983 ], [ -2.6826998, 42.5389442 ], [ -2.682601, 42.5387592 ], [ -2.6825731, 42.5387051 ], [ -2.6825603, 42.5386826 ], [ -2.682466, 42.5385067 ], [ -2.682382, 42.5384254 ], [ -2.682354, 42.5383983 ], [ -2.682198, 42.5382448 ], [ -2.6821003, 42.5381455 ], [ -2.6820503, 42.5381003 ], [ -2.6820321, 42.5380777 ], [ -2.6819503, 42.538001 ], [ -2.6818822, 42.5379332 ], [ -2.6818004, 42.537852 ], [ -2.6817761, 42.5378294 ], [ -2.6817595, 42.5378113 ], [ -2.6816709, 42.5377255 ], [ -2.6816133, 42.5376668 ], [ -2.6815838, 42.5376397 ], [ -2.6814596, 42.5375133 ], [ -2.6812513, 42.53731 ], [ -2.6812316, 42.5372875 ], [ -2.6811582, 42.5372153 ], [ -2.6810999, 42.537161 ], [ -2.6810749, 42.537134 ], [ -2.6807266, 42.5367908 ], [ -2.6804744, 42.5365424 ], [ -2.6803726, 42.5365106 ], [ -2.6802472, 42.5364697 ], [ -2.6802054, 42.5364561 ], [ -2.6800276, 42.5364015 ], [ -2.6800025, 42.5363925 ], [ -2.6799546, 42.5363789 ], [ -2.6798916, 42.5363607 ], [ -2.6798741, 42.5363516 ], [ -2.6797502, 42.5363152 ], [ -2.6797297, 42.5363062 ], [ -2.6797107, 42.5363016 ], [ -2.6796439, 42.5362789 ], [ -2.6795929, 42.5362653 ], [ -2.6793977, 42.5362017 ], [ -2.6793391, 42.5361835 ], [ -2.6792343, 42.5361517 ], [ -2.6792237, 42.5361471 ], [ -2.6791484, 42.5361244 ], [ -2.6789425, 42.5360608 ], [ -2.6788855, 42.5360426 ], [ -2.6788551, 42.5360336 ], [ -2.6787632, 42.5360018 ], [ -2.6786925, 42.5359836 ], [ -2.6784349, 42.5359018 ], [ -2.6784197, 42.5358972 ], [ -2.6782085, 42.5358291 ], [ -2.678134, 42.5358154 ], [ -2.6781112, 42.5358108 ], [ -2.6780419, 42.5358016 ], [ -2.6776648, 42.535733 ], [ -2.6776518, 42.535733 ], [ -2.6771067, 42.5356324 ], [ -2.6770717, 42.5356278 ], [ -2.6768306, 42.5355866 ], [ -2.676804, 42.535582 ], [ -2.6767462, 42.5355728 ], [ -2.6767203, 42.5355682 ], [ -2.6767037, 42.5355637 ], [ -2.6765683, 42.5355408 ], [ -2.6765531, 42.5355362 ], [ -2.6763029, 42.5354905 ], [ -2.6762824, 42.5354904 ], [ -2.6756521, 42.5353761 ], [ -2.6755928, 42.5353669 ], [ -2.6754292, 42.5353394 ], [ -2.6751966, 42.5352982 ], [ -2.6749395, 42.5352525 ], [ -2.6746293, 42.5351976 ], [ -2.6746065, 42.535193 ], [ -2.6743503, 42.5351472 ], [ -2.674183, 42.5351197 ], [ -2.674075, 42.5350969 ], [ -2.6740355, 42.5350923 ], [ -2.6739268, 42.535074 ], [ -2.6733755, 42.5349733 ], [ -2.67326, 42.534946 ], [ -2.6732105, 42.5349324 ], [ -2.6731733, 42.5349232 ], [ -2.6728146, 42.5348277 ], [ -2.672674, 42.5347912 ], [ -2.6724573, 42.534732 ], [ -2.6723814, 42.5347138 ], [ -2.6722392, 42.5346729 ], [ -2.6721929, 42.5346637 ], [ -2.6721792, 42.5346592 ], [ -2.6718805, 42.5345818 ], [ -2.6717961, 42.5345591 ], [ -2.6715484, 42.5344908 ], [ -2.6712474, 42.5344134 ], [ -2.6711715, 42.5343951 ], [ -2.6710946, 42.5343724 ], [ -2.6709716, 42.534336 ], [ -2.6709374, 42.5343269 ], [ -2.6707345, 42.5342678 ], [ -2.6706714, 42.5342496 ], [ -2.6702291, 42.5341268 ], [ -2.6701729, 42.5341086 ], [ -2.6701485, 42.534104 ], [ -2.6699951, 42.5340586 ], [ -2.669957, 42.5340494 ], [ -2.6697656, 42.5339949 ], [ -2.6697192, 42.5339812 ], [ -2.6696067, 42.5339493 ], [ -2.669514, 42.5339221 ], [ -2.6693582, 42.5338766 ], [ -2.6692253, 42.5338402 ], [ -2.6691645, 42.533822 ], [ -2.6691105, 42.5338083 ], [ -2.6689182, 42.5337537 ], [ -2.668767, 42.5337083 ], [ -2.668634, 42.5336719 ], [ -2.6686196, 42.5336673 ], [ -2.6685276, 42.5336401 ], [ -2.6685132, 42.5336445 ], [ -2.6684507, 42.5336533 ], [ -2.6684012, 42.5336622 ], [ -2.668242, 42.5336887 ], [ -2.6681689, 42.5336976 ], [ -2.6681422, 42.533702 ], [ -2.668028, 42.5337196 ], [ -2.6678391, 42.5337506 ], [ -2.667804, 42.5337595 ], [ -2.6676852, 42.5337772 ], [ -2.6675671, 42.5337949 ], [ -2.6673561, 42.5338303 ], [ -2.6672952, 42.5338391 ], [ -2.6671025, 42.53387 ], [ -2.6669242, 42.533901 ], [ -2.6666782, 42.5339409 ], [ -2.6666599, 42.5339408 ], [ -2.6664672, 42.5339718 ], [ -2.6664256, 42.5339221 ], [ -2.6663568, 42.5338364 ], [ -2.6663493, 42.5338273 ], [ -2.6662109, 42.5336558 ], [ -2.6661806, 42.5336197 ], [ -2.6660793, 42.5334933 ], [ -2.6660075, 42.5334076 ], [ -2.6659569, 42.5333444 ], [ -2.6657746, 42.5331232 ], [ -2.6657512, 42.5330916 ], [ -2.6655902, 42.532893 ], [ -2.6654949, 42.5327756 ], [ -2.6654526, 42.532726 ], [ -2.6654291, 42.5326944 ], [ -2.6653777, 42.5326312 ], [ -2.6652348, 42.5324552 ], [ -2.6651879, 42.532401 ], [ -2.6651055, 42.5322972 ], [ -2.6650352, 42.5322114 ], [ -2.6650201, 42.5321934 ], [ -2.6649589, 42.5321167 ], [ -2.6649308, 42.532085 ], [ -2.6648878, 42.5320309 ], [ -2.664853, 42.5319858 ], [ -2.664822, 42.5319496 ], [ -2.6648129, 42.5319406 ], [ -2.6647479, 42.5318594 ], [ -2.6646874, 42.5317827 ], [ -2.6646073, 42.5316833 ], [ -2.6645598, 42.5316067 ], [ -2.6645198, 42.531539 ], [ -2.6644745, 42.5314623 ], [ -2.6643501, 42.5312548 ], [ -2.6642113, 42.5310203 ], [ -2.6641344, 42.530894 ], [ -2.6640145, 42.530691 ], [ -2.6639964, 42.5306639 ], [ -2.6639262, 42.5305466 ], [ -2.6639142, 42.5305241 ], [ -2.6639059, 42.5305105 ], [ -2.6638704, 42.5304519 ], [ -2.6638372, 42.5303932 ], [ -2.6637566, 42.5302579 ], [ -2.6637324, 42.5302173 ], [ -2.6637189, 42.5301948 ], [ -2.6636774, 42.5301271 ], [ -2.6636261, 42.5300414 ], [ -2.6635921, 42.5299828 ], [ -2.6635747, 42.5299557 ], [ -2.663528, 42.5298745 ], [ -2.6635054, 42.5298384 ], [ -2.663479, 42.5297933 ], [ -2.6634352, 42.5297211 ], [ -2.6631883, 42.5296484 ], [ -2.6631564, 42.5296392 ], [ -2.6630303, 42.5295984 ], [ -2.662968, 42.5295802 ], [ -2.66293, 42.5295665 ], [ -2.6628099, 42.5295302 ], [ -2.6627112, 42.5295029 ], [ -2.6626725, 42.5294892 ], [ -2.6626056, 42.529471 ], [ -2.6624072, 42.5294119 ], [ -2.6623799, 42.5294028 ], [ -2.6622994, 42.5293801 ], [ -2.6622177, 42.5292853 ], [ -2.6621398, 42.529195 ], [ -2.6621179, 42.5291679 ], [ -2.6620354, 42.5290731 ], [ -2.6619371, 42.5289602 ], [ -2.6618464, 42.5288519 ], [ -2.6618123, 42.5288158 ], [ -2.6617458, 42.5287345 ], [ -2.6617004, 42.5286849 ], [ -2.6616634, 42.5286397 ], [ -2.6615212, 42.5284772 ], [ -2.6614842, 42.5284321 ], [ -2.6614728, 42.5284185 ], [ -2.6614327, 42.5283733 ], [ -2.6613268, 42.5282515 ], [ -2.6613193, 42.5282424 ], [ -2.6611869, 42.5280889 ], [ -2.6611582, 42.5280573 ], [ -2.6610924, 42.5279806 ], [ -2.6610811, 42.527967 ], [ -2.6610372, 42.5279174 ], [ -2.6610062, 42.5278813 ], [ -2.6609472, 42.5278136 ], [ -2.6607884, 42.5276285 ], [ -2.6606001, 42.5274073 ], [ -2.6605797, 42.5273847 ], [ -2.6605646, 42.5273666 ], [ -2.6603861, 42.5271635 ], [ -2.6603468, 42.5271138 ], [ -2.6603385, 42.5271048 ], [ -2.6603007, 42.5270641 ], [ -2.660278, 42.5270371 ], [ -2.6602576, 42.52701 ], [ -2.6600935, 42.5268204 ], [ -2.660073, 42.5267978 ], [ -2.6600655, 42.5267888 ], [ -2.6600239, 42.5267436 ], [ -2.659977, 42.5266849 ], [ -2.6599415, 42.5266443 ], [ -2.6598946, 42.5265901 ], [ -2.6598137, 42.5264953 ], [ -2.6597721, 42.5264502 ], [ -2.6597274, 42.526396 ], [ -2.6596465, 42.5263057 ], [ -2.659633, 42.5262697 ], [ -2.6595467, 42.5260623 ], [ -2.6595249, 42.5260082 ], [ -2.6594498, 42.5258278 ], [ -2.6594377, 42.5258008 ], [ -2.6594025, 42.5257151 ], [ -2.6593912, 42.525688 ], [ -2.6593732, 42.525643 ], [ -2.6593386, 42.5255618 ], [ -2.6592822, 42.5254266 ], [ -2.6592687, 42.525395 ], [ -2.6592537, 42.5253544 ], [ -2.6592229, 42.5252823 ], [ -2.6592154, 42.5252642 ], [ -2.6592087, 42.5252462 ], [ -2.6591891, 42.5252011 ], [ -2.6591614, 42.5251335 ], [ -2.6591381, 42.5250794 ], [ -2.6591306, 42.5250569 ], [ -2.659072, 42.5249171 ], [ -2.6590502, 42.5248675 ], [ -2.6590246, 42.5248044 ], [ -2.6589923, 42.5247277 ], [ -2.6589473, 42.524615 ], [ -2.658933, 42.5245835 ], [ -2.6588887, 42.5244753 ], [ -2.6588849, 42.5244663 ], [ -2.6588519, 42.5243896 ], [ -2.6588474, 42.5243761 ], [ -2.6588406, 42.524358 ], [ -2.6587783, 42.5242093 ], [ -2.6587648, 42.5241777 ], [ -2.6587581, 42.5241642 ], [ -2.6587512, 42.5241462 ], [ -2.6587392, 42.5241191 ], [ -2.6587332, 42.5241011 ], [ -2.6586964, 42.5240109 ], [ -2.6586769, 42.5239658 ], [ -2.6586506, 42.5239027 ], [ -2.6586416, 42.5238801 ], [ -2.658553, 42.5236682 ], [ -2.658535, 42.5236232 ], [ -2.6585027, 42.5235465 ], [ -2.6584809, 42.5234924 ], [ -2.6584531, 42.5234248 ], [ -2.6584321, 42.5233752 ], [ -2.6584253, 42.5233572 ], [ -2.6584065, 42.5233121 ], [ -2.658402, 42.5233031 ], [ -2.6583983, 42.5232941 ], [ -2.6583788, 42.5232445 ], [ -2.6583638, 42.5232084 ], [ -2.6583419, 42.5231588 ], [ -2.6583269, 42.5231227 ], [ -2.6582946, 42.5230461 ], [ -2.6582917, 42.5230371 ], [ -2.6582728, 42.523001 ], [ -2.658208, 42.5228837 ], [ -2.6581598, 42.522798 ], [ -2.6580257, 42.5225544 ], [ -2.6580129, 42.5225274 ], [ -2.6579722, 42.5224552 ], [ -2.6579488, 42.5224101 ], [ -2.6579322, 42.522383 ], [ -2.6578863, 42.5222974 ], [ -2.6578637, 42.5222567 ], [ -2.6577801, 42.5221034 ], [ -2.6577635, 42.5220764 ], [ -2.6577484, 42.5220448 ], [ -2.6577431, 42.5220358 ], [ -2.6577055, 42.5219681 ], [ -2.657591, 42.5217606 ], [ -2.6575179, 42.5216253 ], [ -2.6574561, 42.5215126 ], [ -2.6574478, 42.521499 ], [ -2.6573845, 42.5213818 ], [ -2.6573748, 42.5213637 ], [ -2.657313, 42.521251 ], [ -2.6572746, 42.5211833 ], [ -2.6572527, 42.5211427 ], [ -2.6572362, 42.5211111 ], [ -2.6572053, 42.521057 ], [ -2.6571923, 42.5210525 ], [ -2.6571642, 42.5210434 ], [ -2.6569774, 42.5209708 ], [ -2.6569319, 42.5209526 ], [ -2.6568529, 42.5209209 ], [ -2.6567148, 42.5208664 ], [ -2.6566927, 42.5208574 ], [ -2.6566328, 42.5208301 ], [ -2.6563777, 42.5207258 ], [ -2.6563109, 42.5206986 ], [ -2.6561962, 42.5206532 ], [ -2.6557445, 42.5204673 ], [ -2.655459, 42.5203493 ], [ -2.65504, 42.5201769 ], [ -2.6548616, 42.5201044 ], [ -2.6548115, 42.5200862 ], [ -2.6548009, 42.5200817 ], [ -2.6547849, 42.5200726 ], [ -2.6543537, 42.5198957 ], [ -2.6540075, 42.519755 ], [ -2.6539529, 42.5197324 ], [ -2.6539377, 42.5197278 ], [ -2.6538671, 42.5196961 ], [ -2.653735, 42.5196417 ], [ -2.6534974, 42.5195464 ], [ -2.6531489, 42.5194012 ], [ -2.6530236, 42.5193513 ], [ -2.652906, 42.5193059 ], [ -2.652871, 42.5192878 ], [ -2.6527929, 42.5192561 ], [ -2.6527602, 42.5192425 ], [ -2.6523935, 42.5190927 ], [ -2.6523344, 42.519061 ], [ -2.652323, 42.5190565 ], [ -2.6511881, 42.5184451 ], [ -2.6511729, 42.5184361 ], [ -2.650849, 42.518264 ], [ -2.6506123, 42.5181372 ], [ -2.650541, 42.5181009 ], [ -2.650381, 42.5180149 ], [ -2.6502164, 42.5179243 ], [ -2.6501997, 42.5179153 ], [ -2.6501549, 42.5178926 ], [ -2.6500001, 42.5178111 ], [ -2.6499619, 42.517838 ], [ -2.6498756, 42.5179053 ], [ -2.6498618, 42.5179187 ], [ -2.6498275, 42.5179456 ], [ -2.6497892, 42.5179771 ], [ -2.6496944, 42.5180488 ], [ -2.6495668, 42.518152 ], [ -2.6495324, 42.5181789 ], [ -2.6495187, 42.5181879 ], [ -2.6494408, 42.5182507 ], [ -2.6493949, 42.5182865 ], [ -2.6493016, 42.5183583 ], [ -2.6492107, 42.5184301 ], [ -2.6487376, 42.5188024 ], [ -2.6487178, 42.5188158 ], [ -2.6487078, 42.5188248 ], [ -2.6486215, 42.518892 ], [ -2.6485473, 42.5189504 ], [ -2.6485236, 42.5189683 ], [ -2.6484184, 42.519013 ], [ -2.6484001, 42.5190174 ], [ -2.6481789, 42.5191069 ], [ -2.6480577, 42.519156 ], [ -2.6477282, 42.5192856 ], [ -2.6476459, 42.5193214 ], [ -2.6473294, 42.5194465 ], [ -2.6472897, 42.5194643 ], [ -2.6470846, 42.5195448 ], [ -2.6470304, 42.5195671 ], [ -2.6469801, 42.519585 ], [ -2.6466888, 42.5197057 ], [ -2.646579, 42.5197459 ], [ -2.6465286, 42.5197682 ], [ -2.646486, 42.5197861 ], [ -2.6464119, 42.5198129 ], [ -2.6463365, 42.5198442 ], [ -2.6462244, 42.5198888 ], [ -2.6461001, 42.519938 ], [ -2.6460627, 42.5199559 ], [ -2.6460109, 42.5199647 ], [ -2.6459141, 42.5199779 ], [ -2.6458624, 42.5199868 ], [ -2.6458494, 42.5199867 ], [ -2.6457596, 42.52 ], [ -2.645669, 42.5200087 ], [ -2.6455844, 42.5200219 ], [ -2.6455449, 42.5200263 ], [ -2.6454542, 42.5200395 ], [ -2.6453149, 42.5200572 ], [ -2.6451231, 42.5200791 ], [ -2.6447095, 42.5201363 ], [ -2.6446357, 42.5201451 ], [ -2.6445862, 42.5201494 ], [ -2.6443988, 42.5201758 ], [ -2.6443067, 42.5201891 ], [ -2.6442603, 42.5201935 ], [ -2.6441057, 42.520211 ], [ -2.6438156, 42.5202506 ], [ -2.6434691, 42.5202945 ], [ -2.6434227, 42.5203034 ], [ -2.6433633, 42.5203077 ], [ -2.6430832, 42.5203114 ], [ -2.6430399, 42.5203112 ], [ -2.642979, 42.520311 ], [ -2.6428086, 42.520315 ], [ -2.6426313, 42.5203145 ], [ -2.6425826, 42.5203143 ], [ -2.6425019, 42.5203141 ], [ -2.6420256, 42.5203171 ], [ -2.6418407, 42.520321 ], [ -2.6416847, 42.5203205 ], [ -2.641604, 42.5203202 ], [ -2.6415234, 42.52032 ], [ -2.6409032, 42.5203271 ], [ -2.6408675, 42.5203269 ], [ -2.6408332, 42.5203268 ], [ -2.6407746, 42.5203266 ], [ -2.6406719, 42.5203263 ], [ -2.6406506, 42.5203263 ], [ -2.6406338, 42.5203262 ], [ -2.6406217, 42.5203262 ], [ -2.6405189, 42.5203303 ], [ -2.640458, 42.5203302 ], [ -2.6405428, 42.5204115 ], [ -2.6405662, 42.5204341 ], [ -2.6406132, 42.5204792 ], [ -2.6406502, 42.5205154 ], [ -2.6407479, 42.5206057 ], [ -2.6408402, 42.5206961 ], [ -2.6408682, 42.5207232 ], [ -2.6408977, 42.5207503 ], [ -2.6409053, 42.5207593 ], [ -2.6410188, 42.5208678 ], [ -2.6410627, 42.5209084 ], [ -2.641074, 42.520922 ], [ -2.6411247, 42.5209716 ], [ -2.6412034, 42.5210485 ], [ -2.6412208, 42.5210665 ], [ -2.6412813, 42.5211252 ], [ -2.6413396, 42.5211795 ], [ -2.641351, 42.521193 ], [ -2.6414864, 42.5213285 ], [ -2.6416105, 42.521446 ], [ -2.6416188, 42.521455 ], [ -2.6417414, 42.521577 ], [ -2.6418617, 42.5216944 ], [ -2.6419426, 42.5217758 ], [ -2.6419979, 42.5218299 ], [ -2.6420615, 42.5218932 ], [ -2.6421719, 42.5220016 ], [ -2.6423497, 42.5221778 ], [ -2.6423679, 42.5221914 ], [ -2.6424428, 42.5222681 ], [ -2.6425177, 42.5223404 ], [ -2.6425298, 42.522354 ], [ -2.642753, 42.5225708 ], [ -2.6427719, 42.5225934 ], [ -2.6427916, 42.5226115 ], [ -2.6428022, 42.5226205 ], [ -2.6429589, 42.5227741 ], [ -2.6430307, 42.5228463 ], [ -2.6431435, 42.5229593 ], [ -2.6432714, 42.5230812 ], [ -2.6432993, 42.5231128 ], [ -2.6433727, 42.5231806 ], [ -2.6433871, 42.5231987 ], [ -2.643406, 42.5232213 ], [ -2.6434257, 42.5232393 ], [ -2.6434756, 42.523298 ], [ -2.6435731, 42.5234019 ], [ -2.6436518, 42.5234922 ], [ -2.643685, 42.5235283 ], [ -2.6437289, 42.523578 ], [ -2.6437796, 42.5236322 ], [ -2.6438257, 42.5236819 ], [ -2.6439187, 42.5237857 ], [ -2.6439633, 42.5238354 ], [ -2.6440193, 42.5238941 ], [ -2.6440767, 42.5239573 ], [ -2.6441403, 42.5240296 ], [ -2.6441531, 42.5240431 ], [ -2.6441644, 42.5240567 ], [ -2.6442008, 42.5240973 ], [ -2.6442544, 42.524156 ], [ -2.6442817, 42.5241831 ], [ -2.6442907, 42.5241966 ], [ -2.644299, 42.5242057 ], [ -2.6443081, 42.5242147 ], [ -2.6444141, 42.5243231 ], [ -2.644473, 42.5243863 ], [ -2.6445003, 42.5244134 ], [ -2.6445835, 42.5244993 ], [ -2.6446228, 42.5245399 ], [ -2.6446304, 42.5245489 ], [ -2.6447681, 42.524689 ], [ -2.6447786, 42.5247025 ], [ -2.6448014, 42.5247251 ], [ -2.6448339, 42.5247567 ], [ -2.6448763, 42.5248019 ], [ -2.6449224, 42.5248515 ], [ -2.6449792, 42.5249102 ], [ -2.645048, 42.5249825 ], [ -2.6450919, 42.5250277 ], [ -2.6451062, 42.5250412 ], [ -2.6451751, 42.5251135 ], [ -2.6452674, 42.5252083 ], [ -2.6453642, 42.5253077 ], [ -2.6454512, 42.525398 ], [ -2.6454746, 42.5254206 ], [ -2.6455087, 42.5254567 ], [ -2.6455685, 42.52552 ], [ -2.6456048, 42.5255561 ], [ -2.6456842, 42.5256374 ], [ -2.6457001, 42.5256555 ], [ -2.6457258, 42.5256825 ], [ -2.6458264, 42.5257864 ], [ -2.64584, 42.5258 ], [ -2.6458491, 42.525809 ], [ -2.64589, 42.5258497 ], [ -2.6459142, 42.5258768 ], [ -2.6460178, 42.5259807 ], [ -2.6460549, 42.5260168 ], [ -2.6461291, 42.5260891 ], [ -2.6461632, 42.5261252 ], [ -2.6462456, 42.5262065 ], [ -2.6463803, 42.526342 ], [ -2.6464824, 42.5264459 ], [ -2.6465672, 42.5265317 ], [ -2.6466285, 42.5265905 ], [ -2.6466913, 42.5266537 ], [ -2.6467193, 42.5266808 ], [ -2.6467329, 42.5266943 ], [ -2.6467761, 42.5267395 ], [ -2.6468093, 42.5267711 ], [ -2.6468381, 42.5268027 ], [ -2.6468495, 42.5268118 ], [ -2.6469581, 42.5269787 ], [ -2.6469671, 42.5269923 ], [ -2.6470064, 42.5270509 ], [ -2.6470192, 42.527069 ], [ -2.6470463, 42.5271141 ], [ -2.6471459, 42.527263 ], [ -2.6472908, 42.527484 ], [ -2.6474002, 42.527651 ], [ -2.6474236, 42.5276871 ], [ -2.6474923, 42.5277909 ], [ -2.6475232, 42.527836 ], [ -2.6475323, 42.527854 ], [ -2.6475654, 42.5279037 ], [ -2.6476175, 42.5279804 ], [ -2.6476733, 42.5280661 ], [ -2.647699, 42.5281067 ], [ -2.6477759, 42.528224 ], [ -2.6478046, 42.5282647 ], [ -2.6478175, 42.5282872 ], [ -2.6478439, 42.5283278 ], [ -2.6479616, 42.5285038 ], [ -2.6479699, 42.5285173 ], [ -2.6480589, 42.5286527 ], [ -2.6480921, 42.5287023 ], [ -2.6481102, 42.5287294 ], [ -2.6481713, 42.5288241 ], [ -2.6481864, 42.5288467 ], [ -2.6482423, 42.5289324 ], [ -2.6482694, 42.5289731 ], [ -2.6483336, 42.5290723 ], [ -2.6483909, 42.529158 ], [ -2.6484015, 42.5291716 ], [ -2.6484762, 42.5292889 ], [ -2.648532, 42.5293701 ], [ -2.648618, 42.5295055 ], [ -2.6486324, 42.5295235 ], [ -2.6486716, 42.5295867 ], [ -2.6486829, 42.5296002 ], [ -2.6487787, 42.5297491 ], [ -2.6488029, 42.5297852 ], [ -2.6488203, 42.5298123 ], [ -2.6488467, 42.5298484 ], [ -2.6488708, 42.529889 ], [ -2.6489221, 42.5299657 ], [ -2.6489432, 42.5299973 ], [ -2.6490051, 42.530092 ], [ -2.6490225, 42.5301191 ], [ -2.6490466, 42.5301507 ], [ -2.6491305, 42.5302545 ], [ -2.6491646, 42.5302951 ], [ -2.6492038, 42.5303448 ], [ -2.6492787, 42.5304396 ], [ -2.6492915, 42.5304531 ], [ -2.6494124, 42.5306066 ], [ -2.6494253, 42.5306246 ], [ -2.6494389, 42.5306382 ], [ -2.6495016, 42.5307194 ], [ -2.6495786, 42.5308142 ], [ -2.6495885, 42.5308278 ], [ -2.6496384, 42.530891 ], [ -2.6496799, 42.5309406 ], [ -2.6497313, 42.5310038 ], [ -2.6497683, 42.5310535 ], [ -2.6498477, 42.5311528 ], [ -2.6498976, 42.5312115 ], [ -2.6499482, 42.5312792 ], [ -2.6499867, 42.5313243 ], [ -2.6500616, 42.5314191 ], [ -2.6501258, 42.5315004 ], [ -2.650178, 42.5315636 ], [ -2.6502225, 42.5316223 ], [ -2.6502467, 42.5316493 ], [ -2.6502891, 42.5317035 ], [ -2.6503095, 42.5317306 ], [ -2.6503556, 42.5317847 ], [ -2.6504175, 42.531866 ], [ -2.6504606, 42.5319202 ], [ -2.6505248, 42.5319969 ], [ -2.6506616, 42.5321684 ], [ -2.6506692, 42.5321775 ], [ -2.6508014, 42.5323445 ], [ -2.6509488, 42.5325295 ], [ -2.6509384, 42.5327547 ], [ -2.650921, 42.5331464 ], [ -2.6509202, 42.5331599 ], [ -2.6509193, 42.5331824 ], [ -2.6509141, 42.5332859 ], [ -2.650908, 42.533439 ], [ -2.6509063, 42.533457 ], [ -2.650901, 42.5335921 ], [ -2.6509002, 42.5336011 ], [ -2.650895, 42.5337227 ], [ -2.6508898, 42.5338307 ], [ -2.6508881, 42.5338667 ], [ -2.6508863, 42.5339163 ], [ -2.6508854, 42.5339343 ], [ -2.6508737, 42.5339883 ], [ -2.6508674, 42.5340153 ], [ -2.6508549, 42.5340738 ], [ -2.6508495, 42.5340963 ], [ -2.6508409, 42.5341367 ], [ -2.6508307, 42.5341863 ], [ -2.6508252, 42.5342132 ], [ -2.6508151, 42.5342582 ], [ -2.650762, 42.5345013 ], [ -2.6507182, 42.5347083 ], [ -2.6507002, 42.5347892 ], [ -2.6506807, 42.5348793 ], [ -2.6506721, 42.5349197 ], [ -2.6506541, 42.5350008 ], [ -2.6506533, 42.5350097 ], [ -2.6505924, 42.5352887 ], [ -2.6505713, 42.5353878 ], [ -2.6505432, 42.5355183 ], [ -2.6505026, 42.5357028 ], [ -2.6504932, 42.5357477 ], [ -2.6504588, 42.5359097 ], [ -2.6504095, 42.5361392 ], [ -2.6503853, 42.5362472 ], [ -2.6503752, 42.5362967 ], [ -2.6503736, 42.5363057 ], [ -2.6503377, 42.5364678 ], [ -2.6503205, 42.5365487 ], [ -2.6503002, 42.5366432 ], [ -2.6502861, 42.5367062 ], [ -2.6502721, 42.5367737 ], [ -2.6502463, 42.5368907 ], [ -2.650222, 42.5370032 ], [ -2.6502166, 42.5370302 ], [ -2.6501994, 42.5371067 ], [ -2.6501939, 42.5371337 ], [ -2.6501744, 42.5372237 ], [ -2.6501642, 42.5372732 ], [ -2.6501361, 42.5374037 ], [ -2.6501426, 42.5374578 ], [ -2.6501448, 42.5374758 ], [ -2.6501835, 42.5377686 ], [ -2.6502054, 42.5379353 ], [ -2.6502163, 42.5380209 ], [ -2.6502214, 42.5380614 ], [ -2.6502579, 42.5383407 ], [ -2.6502638, 42.5383858 ], [ -2.6502652, 42.5383948 ], [ -2.6502703, 42.5384353 ], [ -2.650274, 42.5384623 ], [ -2.650301, 42.5386741 ], [ -2.6503039, 42.5386965 ], [ -2.650309, 42.5387326 ], [ -2.6503272, 42.5388723 ], [ -2.6503258, 42.5391334 ], [ -2.6503245, 42.539228 ], [ -2.6503236, 42.5393811 ], [ -2.6503226, 42.5395567 ], [ -2.6503225, 42.5395837 ], [ -2.6503219, 42.5396963 ], [ -2.650321, 42.5398584 ], [ -2.6503203, 42.5399754 ], [ -2.6503188, 42.5402456 ], [ -2.6503171, 42.5404122 ], [ -2.6503167, 42.5404888 ], [ -2.6503159, 42.5406239 ], [ -2.6503149, 42.540813 ], [ -2.6503145, 42.5408805 ], [ -2.6502817, 42.5410155 ], [ -2.6502685, 42.541074 ], [ -2.6502568, 42.541119 ], [ -2.6502428, 42.5411775 ], [ -2.6501227, 42.5416815 ], [ -2.6501056, 42.5417534 ], [ -2.6500359, 42.5419694 ], [ -2.6499855, 42.5421313 ], [ -2.649963, 42.5421988 ], [ -2.6498979, 42.5424057 ], [ -2.6498848, 42.5424462 ], [ -2.6498793, 42.5424642 ], [ -2.6498484, 42.5425632 ], [ -2.6498306, 42.5426172 ], [ -2.6497778, 42.5427836 ], [ -2.6497693, 42.5428106 ], [ -2.6496832, 42.5428194 ], [ -2.6496604, 42.5428238 ], [ -2.6496322, 42.5428282 ], [ -2.649326, 42.5428633 ], [ -2.6492559, 42.5428721 ], [ -2.6492285, 42.5428765 ], [ -2.6488629, 42.5429204 ], [ -2.6487852, 42.5429292 ], [ -2.6487037, 42.5429379 ], [ -2.6486131, 42.5429466 ], [ -2.6481423, 42.5430037 ], [ -2.6480761, 42.5430125 ], [ -2.6479877, 42.5430213 ], [ -2.647955, 42.5430257 ], [ -2.6477257, 42.543052 ], [ -2.6475977, 42.5430696 ], [ -2.6473845, 42.5430959 ], [ -2.647266, 42.5431857 ], [ -2.647055, 42.5433426 ], [ -2.6469556, 42.5434188 ], [ -2.646763, 42.5435624 ], [ -2.6463563, 42.5438673 ], [ -2.6463334, 42.5438852 ], [ -2.6463051, 42.5439077 ], [ -2.6462325, 42.5439615 ], [ -2.6461988, 42.5439884 ], [ -2.6459093, 42.5443027 ], [ -2.6458504, 42.544361 ], [ -2.6457549, 42.5444058 ], [ -2.6456725, 42.544446 ], [ -2.6455771, 42.5444953 ], [ -2.6452618, 42.5446474 ], [ -2.6451481, 42.5447056 ], [ -2.6450771, 42.5447414 ], [ -2.6450823, 42.5447684 ], [ -2.6450956, 42.544836 ], [ -2.6450993, 42.544854 ], [ -2.6451333, 42.5450343 ], [ -2.6451429, 42.5450838 ], [ -2.6451555, 42.5451514 ], [ -2.6451599, 42.5451739 ], [ -2.6451725, 42.5452415 ], [ -2.6451791, 42.545273 ], [ -2.6452176, 42.5454758 ], [ -2.6452198, 42.5454893 ], [ -2.6452604, 42.5457011 ], [ -2.645273, 42.5457642 ], [ -2.6453055, 42.5459399 ], [ -2.6453158, 42.545994 ], [ -2.6453484, 42.5461607 ], [ -2.6453587, 42.5462147 ], [ -2.6453644, 42.5462868 ], [ -2.6453659, 42.5462958 ], [ -2.645373, 42.5463769 ], [ -2.6453852, 42.546521 ], [ -2.6453931, 42.5466111 ], [ -2.6453966, 42.5466471 ], [ -2.6454046, 42.5467327 ], [ -2.6454088, 42.5467822 ], [ -2.645411, 42.5468048 ], [ -2.6454288, 42.5470119 ], [ -2.645436, 42.547093 ], [ -2.6454367, 42.547102 ], [ -2.6454388, 42.5471245 ], [ -2.6454703, 42.5474759 ], [ -2.6454739, 42.5475164 ], [ -2.6454811, 42.547602 ], [ -2.6454825, 42.54762 ], [ -2.6454846, 42.547647 ], [ -2.645486, 42.5476561 ], [ -2.6454935, 42.5476786 ], [ -2.6455003, 42.5476966 ], [ -2.6455153, 42.5477372 ], [ -2.645531, 42.5477778 ], [ -2.6455378, 42.5477958 ], [ -2.6455813, 42.5479085 ], [ -2.6456128, 42.5479942 ], [ -2.6456555, 42.5481069 ], [ -2.6456855, 42.548188 ], [ -2.6456968, 42.5482196 ], [ -2.6457628, 42.5483909 ], [ -2.6457702, 42.5484134 ], [ -2.6457755, 42.548427 ], [ -2.645849, 42.5486208 ], [ -2.645867, 42.5486749 ], [ -2.6458745, 42.5486929 ], [ -2.6459149, 42.5488101 ], [ -2.6459479, 42.5489048 ], [ -2.6459652, 42.5489499 ], [ -2.6459944, 42.549031 ], [ -2.6460138, 42.5490896 ], [ -2.6460415, 42.5491662 ], [ -2.6460565, 42.5492113 ], [ -2.6460693, 42.5492474 ], [ -2.6461135, 42.5493736 ], [ -2.6461232, 42.5494006 ], [ -2.6461577, 42.5494953 ], [ -2.6461786, 42.5495584 ], [ -2.6462341, 42.5497117 ], [ -2.6462498, 42.5497568 ], [ -2.6462581, 42.5497838 ], [ -2.6462843, 42.5498559 ], [ -2.646345, 42.5500272 ], [ -2.6463615, 42.5500723 ], [ -2.6463712, 42.5500994 ], [ -2.6464146, 42.5502256 ], [ -2.6465593, 42.5506358 ], [ -2.6465623, 42.5506448 ], [ -2.646566, 42.5506538 ], [ -2.6465765, 42.5506854 ], [ -2.6466701, 42.5509513 ], [ -2.6466769, 42.5509694 ], [ -2.6466957, 42.5510099 ], [ -2.6467137, 42.5510505 ], [ -2.6467385, 42.5511091 ], [ -2.6468355, 42.5513301 ], [ -2.6468513, 42.5513661 ], [ -2.6468655, 42.5513977 ], [ -2.6468677, 42.5514067 ], [ -2.6468775, 42.5514293 ], [ -2.6468865, 42.5514518 ], [ -2.6468888, 42.5514608 ], [ -2.6469961, 42.5517313 ], [ -2.6470344, 42.5518305 ], [ -2.6470839, 42.5519568 ], [ -2.6471162, 42.5520334 ], [ -2.6471365, 42.5520875 ], [ -2.6472258, 42.5523129 ], [ -2.647228, 42.5523219 ], [ -2.6472355, 42.5523355 ], [ -2.6472642, 42.5523806 ], [ -2.6473012, 42.5524437 ], [ -2.647326, 42.5524888 ], [ -2.6473441, 42.5525159 ], [ -2.6474384, 42.5526783 ], [ -2.6475191, 42.5528137 ], [ -2.6475583, 42.5528768 ], [ -2.6476412, 42.5530167 ], [ -2.6477257, 42.553161 ], [ -2.6478154, 42.5533144 ], [ -2.647915, 42.5534813 ], [ -2.648016, 42.5536527 ], [ -2.6480461, 42.5537159 ], [ -2.6480567, 42.5537384 ], [ -2.6481296, 42.5538962 ], [ -2.6481627, 42.5539684 ], [ -2.6482341, 42.5541262 ], [ -2.6482394, 42.5541352 ], [ -2.6482439, 42.5541442 ], [ -2.648283, 42.5542299 ], [ -2.6482875, 42.5542434 ], [ -2.6482996, 42.554266 ], [ -2.6483312, 42.5543336 ], [ -2.6483402, 42.5543562 ], [ -2.648365, 42.5544103 ], [ -2.6485884, 42.5548928 ], [ -2.6485959, 42.5549108 ], [ -2.648629, 42.554983 ], [ -2.6487125, 42.5551634 ], [ -2.6487847, 42.5553167 ], [ -2.6488434, 42.5554474 ], [ -2.6488531, 42.55547 ], [ -2.6489195, 42.5555873 ], [ -2.64893, 42.5556008 ], [ -2.6489391, 42.5556189 ], [ -2.6490898, 42.555885 ], [ -2.6490989, 42.555903 ], [ -2.6491147, 42.5559301 ], [ -2.6491599, 42.5560113 ], [ -2.6491946, 42.5560699 ], [ -2.6492904, 42.5562413 ], [ -2.6492956, 42.5562503 ], [ -2.6492994, 42.5562594 ], [ -2.6493725, 42.5563857 ], [ -2.649463, 42.5565481 ], [ -2.6494683, 42.5565571 ], [ -2.6495052, 42.5566202 ], [ -2.6495994, 42.5567871 ], [ -2.6496213, 42.5568277 ], [ -2.649656, 42.5568864 ], [ -2.6496658, 42.5569044 ], [ -2.6496711, 42.5569134 ], [ -2.6497223, 42.5570036 ], [ -2.6497532, 42.5570623 ], [ -2.6498723, 42.5572698 ], [ -2.649898, 42.5573149 ], [ -2.6499364, 42.5573825 ], [ -2.6499711, 42.5574457 ], [ -2.6500616, 42.5576081 ], [ -2.6500706, 42.5576216 ], [ -2.6500804, 42.5576396 ], [ -2.6501113, 42.5576938 ], [ -2.650143, 42.5577524 ], [ -2.6501543, 42.5577705 ], [ -2.6501867, 42.5578291 ], [ -2.6503496, 42.5581133 ], [ -2.650391, 42.55819 ], [ -2.6504061, 42.558217 ], [ -2.6504461, 42.5582847 ], [ -2.6504558, 42.5583028 ], [ -2.6505131, 42.5584065 ], [ -2.6507046, 42.5587448 ] ] ] } }
]
}
