{
"type": "FeatureCollection",
"name": "02045",
"features": [
{ "type": "Feature", "properties": { "CCAA": "08 - Castilla-La Mancha", "PROVINCIA": "02 - Albacete", "MUNICIPIO": "02045 - Madrigueras", "COD_MUNICIPIO": "02045", "DISTRITO": "01", "SECCION": "0204501002", "V1_H": 80.01, "V1_M": 85.96, "V2_H": 79.87654463, "V2_M": 85.8497366, "V3_H": 80.24882261, "V3_M": 86.17409879 }, "geometry": { "type": "Polygon", "coordinates": [ [ [ -1.8294942, 39.2868173 ], [ -1.8307909, 39.2868304 ], [ -1.8307912, 39.2868304 ], [ -1.8313574, 39.2868142 ], [ -1.8331228, 39.2867636 ], [ -1.8340023, 39.2866906 ], [ -1.8348643, 39.2866189 ], [ -1.8348645, 39.2866189 ], [ -1.845192, 39.2861181 ], [ -1.8451923, 39.2861181 ], [ -1.8454024, 39.2853273 ], [ -1.8458526, 39.2840343 ], [ -1.8461976, 39.2827942 ], [ -1.8469086, 39.2804496 ], [ -1.8470957, 39.2796405 ], [ -1.84723, 39.2785245 ], [ -1.847278, 39.2763084 ], [ -1.8474428, 39.2747422 ], [ -1.8474835, 39.2736704 ], [ -1.8479296, 39.2705031 ], [ -1.8484764, 39.2675531 ], [ -1.8492894, 39.2639119 ], [ -1.8503613, 39.2586153 ], [ -1.850634, 39.2575277 ], [ -1.8512718, 39.2553806 ], [ -1.8515695, 39.2541851 ], [ -1.8522073, 39.2527407 ], [ -1.8528925, 39.2505219 ], [ -1.8529171, 39.250432 ], [ -1.8529464, 39.2503612 ], [ -1.8529625, 39.2503223 ], [ -1.8528036, 39.2502772 ], [ -1.850035, 39.2495678 ], [ -1.8448607, 39.248247 ], [ -1.8427774, 39.2477226 ], [ -1.8390951, 39.2467835 ], [ -1.8362195, 39.2460307 ], [ -1.8339755, 39.2454416 ], [ -1.8264905, 39.2435301 ], [ -1.8238703, 39.2428531 ], [ -1.8191538, 39.2416511 ], [ -1.8165603, 39.2409951 ], [ -1.815566, 39.2407437 ], [ -1.8146569, 39.2402412 ], [ -1.8102357, 39.2375518 ], [ -1.8069322, 39.2355553 ], [ -1.8066986, 39.2354128 ], [ -1.8065435, 39.2353188 ], [ -1.8063885, 39.2352248 ], [ -1.8061246, 39.2350624 ], [ -1.8057788, 39.2348529 ], [ -1.8055701, 39.2347275 ], [ -1.8055219, 39.2346786 ], [ -1.8051029, 39.2345621 ], [ -1.8043699, 39.2345171 ], [ -1.8038773, 39.234484 ], [ -1.8025931, 39.2343118 ], [ -1.8024951, 39.2351246 ], [ -1.8024609, 39.2356523 ], [ -1.8023448, 39.2361801 ], [ -1.8016415, 39.2358847 ], [ -1.8013471, 39.2362512 ], [ -1.8011011, 39.2366539 ], [ -1.801056, 39.2367822 ], [ -1.8007119, 39.2368264 ], [ -1.8003454, 39.2369251 ], [ -1.8002054, 39.2371327 ], [ -1.8023181, 39.2385047 ], [ -1.8024364, 39.2388945 ], [ -1.8025958, 39.2390177 ], [ -1.802746, 39.2391797 ], [ -1.8030838, 39.2395122 ], [ -1.8033863, 39.2397489 ], [ -1.8041017, 39.2402283 ], [ -1.8045109, 39.2404007 ], [ -1.8051154, 39.2407579 ], [ -1.8056572, 39.24122 ], [ -1.8068135, 39.242281 ], [ -1.8073051, 39.242762 ], [ -1.808044, 39.2433913 ], [ -1.8084006, 39.2437252 ], [ -1.8086075, 39.2440479 ], [ -1.8085993, 39.2445335 ], [ -1.8088869, 39.2452553 ], [ -1.8089712, 39.2454407 ], [ -1.8092779, 39.2457741 ], [ -1.8099057, 39.2463245 ], [ -1.8103869, 39.2466791 ], [ -1.8108187, 39.2470041 ], [ -1.8111263, 39.247289 ], [ -1.8115547, 39.2478082 ], [ -1.8119068, 39.248414 ], [ -1.8121147, 39.2486784 ], [ -1.8125207, 39.2490517 ], [ -1.8130467, 39.2497176 ], [ -1.8132757, 39.2502153 ], [ -1.8134069, 39.2505858 ], [ -1.813637, 39.2510156 ], [ -1.8138925, 39.2514262 ], [ -1.8142064, 39.2520705 ], [ -1.8142977, 39.2525863 ], [ -1.8142728, 39.2540625 ], [ -1.8144004, 39.2546467 ], [ -1.8146182, 39.2550666 ], [ -1.8149538, 39.2559151 ], [ -1.8152165, 39.2566366 ], [ -1.8153578, 39.2571529 ], [ -1.8154611, 39.257698 ], [ -1.8157987, 39.2584202 ], [ -1.816019, 39.2586945 ], [ -1.8162119, 39.2591141 ], [ -1.8168325, 39.2601016 ], [ -1.8176595, 39.2614505 ], [ -1.8180374, 39.2620177 ], [ -1.8184704, 39.2630226 ], [ -1.8186752, 39.2634715 ], [ -1.8188787, 39.2640079 ], [ -1.8194484, 39.2650531 ], [ -1.819802, 39.2655812 ], [ -1.8201378, 39.26642 ], [ -1.8205503, 39.2671624 ], [ -1.8209104, 39.2680403 ], [ -1.8212006, 39.2686261 ], [ -1.8213423, 39.2691132 ], [ -1.8215969, 39.2695821 ], [ -1.8216915, 39.2699036 ], [ -1.8217629, 39.270118 ], [ -1.8220155, 39.2707034 ], [ -1.8221729, 39.2710062 ], [ -1.8224242, 39.2716692 ], [ -1.8226553, 39.2720504 ], [ -1.8231764, 39.2730271 ], [ -1.8236851, 39.2739939 ], [ -1.8238613, 39.274666 ], [ -1.8239973, 39.2755027 ], [ -1.8240796, 39.2758144 ], [ -1.8243655, 39.2766527 ], [ -1.824619, 39.2771895 ], [ -1.8249972, 39.278495 ], [ -1.8250922, 39.2787874 ], [ -1.8253251, 39.2798097 ], [ -1.8254652, 39.2811516 ], [ -1.8255491, 39.2813662 ], [ -1.8257007, 39.2820185 ], [ -1.8258308, 39.2824569 ], [ -1.8260626, 39.2827993 ], [ -1.8265789, 39.2833193 ], [ -1.826799, 39.283613 ], [ -1.8271554, 39.283976 ], [ -1.8275963, 39.2845244 ], [ -1.8285022, 39.28567 ], [ -1.8294942, 39.2868173 ] ] ] } },
{ "type": "Feature", "properties": { "CCAA": "08 - Castilla-La Mancha", "PROVINCIA": "02 - Albacete", "MUNICIPIO": "02045 - Madrigueras", "COD_MUNICIPIO": "02045", "DISTRITO": "02", "SECCION": "0204502001", "V1_H": 80.3, "V1_M": 86.18, "V2_H": 80.25682951, "V2_M": 86.26310791, "V3_H": 80.49886239, "V3_M": 86.29802272000001 }, "geometry": { "type": "Polygon", "coordinates": [ [ [ -1.8002054, 39.2371327 ], [ -1.8003454, 39.2369251 ], [ -1.8007119, 39.2368264 ], [ -1.801056, 39.2367822 ], [ -1.8011011, 39.2366539 ], [ -1.8013471, 39.2362512 ], [ -1.8016415, 39.2358847 ], [ -1.8023448, 39.2361801 ], [ -1.8024609, 39.2356523 ], [ -1.8024951, 39.2351246 ], [ -1.8025931, 39.2343118 ], [ -1.8038773, 39.234484 ], [ -1.8043699, 39.2345171 ], [ -1.8051029, 39.2345621 ], [ -1.8055219, 39.2346786 ], [ -1.8055701, 39.2347275 ], [ -1.8057788, 39.2348529 ], [ -1.8061246, 39.2350624 ], [ -1.8063885, 39.2352248 ], [ -1.8065435, 39.2353188 ], [ -1.8066986, 39.2354128 ], [ -1.8069322, 39.2355553 ], [ -1.8102357, 39.2375518 ], [ -1.8146569, 39.2402412 ], [ -1.815566, 39.2407437 ], [ -1.8165603, 39.2409951 ], [ -1.8191538, 39.2416511 ], [ -1.8238703, 39.2428531 ], [ -1.8264905, 39.2435301 ], [ -1.8339755, 39.2454416 ], [ -1.8362195, 39.2460307 ], [ -1.8390951, 39.2467835 ], [ -1.8427774, 39.2477226 ], [ -1.8448607, 39.248247 ], [ -1.850035, 39.2495678 ], [ -1.8528036, 39.2502772 ], [ -1.8529625, 39.2503223 ], [ -1.8530619, 39.250082 ], [ -1.8542089, 39.247255 ], [ -1.8545169, 39.2468436 ], [ -1.8574398, 39.2409704 ], [ -1.8570535, 39.2326499 ], [ -1.8545196, 39.2246057 ], [ -1.8541979, 39.2244403 ], [ -1.8531556, 39.2229974 ], [ -1.853044, 39.222735 ], [ -1.8517227, 39.2199377 ], [ -1.8512946, 39.2184828 ], [ -1.8507401, 39.2162607 ], [ -1.8501477, 39.2142365 ], [ -1.849561, 39.2118609 ], [ -1.8491804, 39.2103434 ], [ -1.8487443, 39.2072575 ], [ -1.8480566, 39.2046917 ], [ -1.8472004, 39.2025206 ], [ -1.8462986, 39.201007 ], [ -1.8450636, 39.1993458 ], [ -1.8431338, 39.1969749 ], [ -1.8408808, 39.1945467 ], [ -1.8401961, 39.1939361 ], [ -1.8390386, 39.1932038 ], [ -1.8379758, 39.1923462 ], [ -1.8375783, 39.1918737 ], [ -1.8373029, 39.1910239 ], [ -1.8366464, 39.1901073 ], [ -1.8360176, 39.1889206 ], [ -1.8354923, 39.187771 ], [ -1.8340232, 39.1848909 ], [ -1.830892, 39.1796064 ], [ -1.82912, 39.1768584 ], [ -1.8258501, 39.1709145 ], [ -1.8251023, 39.1699338 ], [ -1.8247602, 39.169624 ], [ -1.824382, 39.1687011 ], [ -1.8238992, 39.168498 ], [ -1.821798, 39.1681704 ], [ -1.8215685, 39.168051 ], [ -1.821481, 39.1679194 ], [ -1.8213766, 39.1677607 ], [ -1.8212586, 39.1672009 ], [ -1.8213235, 39.166778 ], [ -1.8210847, 39.1665233 ], [ -1.8204417, 39.1662104 ], [ -1.8181416, 39.1653221 ], [ -1.8162173, 39.1647979 ], [ -1.8154675, 39.1646462 ], [ -1.8105932, 39.1640378 ], [ -1.8096455, 39.1639471 ], [ -1.8074659, 39.1641591 ], [ -1.8070036, 39.1641183 ], [ -1.8057726, 39.1636732 ], [ -1.8052003, 39.1632979 ], [ -1.8047724, 39.1632754 ], [ -1.8047721, 39.1632754 ], [ -1.802305, 39.1667913 ], [ -1.8013124, 39.1686643 ], [ -1.8002144, 39.1712931 ], [ -1.7997176, 39.1725945 ], [ -1.7985935, 39.176061 ], [ -1.798171, 39.1770838 ], [ -1.7980569, 39.1776593 ], [ -1.7978558, 39.1785943 ], [ -1.7977724, 39.1794134 ], [ -1.7976338, 39.1800698 ], [ -1.7972099, 39.1811647 ], [ -1.7965334, 39.1834914 ], [ -1.7960029, 39.1845403 ], [ -1.7950236, 39.1864764 ], [ -1.7936024, 39.1890116 ], [ -1.7924764, 39.1912076 ], [ -1.7924271, 39.1913048 ], [ -1.792427, 39.1913051 ], [ -1.7924259, 39.1913072 ], [ -1.7924261, 39.1913073 ], [ -1.7927089, 39.1925799 ], [ -1.7932831, 39.1951924 ], [ -1.7934854, 39.1961389 ], [ -1.7940946, 39.1988368 ], [ -1.7943764, 39.2001052 ], [ -1.7946926, 39.2014873 ], [ -1.7951309, 39.2035412 ], [ -1.7955629, 39.2052551 ], [ -1.7959913, 39.2071767 ], [ -1.7965543, 39.2097513 ], [ -1.7968123, 39.2109911 ], [ -1.7973671, 39.213339 ], [ -1.7976796, 39.2149478 ], [ -1.7982098, 39.2173142 ], [ -1.7988983, 39.2203718 ], [ -1.79944, 39.2227762 ], [ -1.7999463, 39.225133 ], [ -1.8006133, 39.2280297 ], [ -1.8010546, 39.2301636 ], [ -1.8004338, 39.2302621 ], [ -1.8006192, 39.2310722 ], [ -1.8002593, 39.2311472 ], [ -1.8004378, 39.2319189 ], [ -1.8005087, 39.2320329 ], [ -1.8007936, 39.2324136 ], [ -1.8006102, 39.2324873 ], [ -1.8007843, 39.2329613 ], [ -1.8010039, 39.2336152 ], [ -1.8012238, 39.2340919 ], [ -1.8006645, 39.2343519 ], [ -1.8004415, 39.2344879 ], [ -1.8002113, 39.2346858 ], [ -1.8000612, 39.2348607 ], [ -1.7998959, 39.2352023 ], [ -1.7996907, 39.2357342 ], [ -1.7995989, 39.2360813 ], [ -1.7994855, 39.2368025 ], [ -1.7994758, 39.2370075 ], [ -1.7995334, 39.2370618 ], [ -1.799567, 39.2370654 ], [ -1.7996942, 39.2370789 ], [ -1.8002054, 39.2371327 ] ] ] } },
{ "type": "Feature", "properties": { "CCAA": "08 - Castilla-La Mancha", "PROVINCIA": "02 - Albacete", "MUNICIPIO": "02045 - Madrigueras", "COD_MUNICIPIO": "02045", "DISTRITO": "01", "SECCION": "0204501001", "V1_H": 79.73, "V1_M": 85.7, "V2_H": 79.65450701, "V2_M": 85.67937417, "V3_H": 79.92768478000001, "V3_M": 85.93517811 }, "geometry": { "type": "Polygon", "coordinates": [ [ [ -1.7698542, 39.2805078 ], [ -1.7698544, 39.2805079 ], [ -1.7715985, 39.2808867 ], [ -1.7747996, 39.28147 ], [ -1.7747998, 39.2814701 ], [ -1.7783504, 39.2819759 ], [ -1.7818974, 39.2826889 ], [ -1.7863823, 39.2834836 ], [ -1.7914056, 39.2839864 ], [ -1.7942787, 39.2841062 ], [ -1.794279, 39.2841062 ], [ -1.7958176, 39.2842492 ], [ -1.7988631, 39.2845321 ], [ -1.8059111, 39.2852815 ], [ -1.8068371, 39.2853799 ], [ -1.8068374, 39.2853799 ], [ -1.8096463, 39.2858862 ], [ -1.8124331, 39.2863201 ], [ -1.8124333, 39.2863202 ], [ -1.8129504, 39.2863459 ], [ -1.8131166, 39.2863542 ], [ -1.8131169, 39.2863542 ], [ -1.8141393, 39.2862294 ], [ -1.8164354, 39.2861987 ], [ -1.8164356, 39.2861987 ], [ -1.8220651, 39.2865171 ], [ -1.8220654, 39.2865171 ], [ -1.828681, 39.2868092 ], [ -1.8286812, 39.2868092 ], [ -1.8294942, 39.2868173 ], [ -1.8285022, 39.28567 ], [ -1.8275963, 39.2845244 ], [ -1.8271554, 39.283976 ], [ -1.826799, 39.283613 ], [ -1.8265789, 39.2833193 ], [ -1.8260626, 39.2827993 ], [ -1.8258308, 39.2824569 ], [ -1.8257007, 39.2820185 ], [ -1.8255491, 39.2813662 ], [ -1.8254652, 39.2811516 ], [ -1.8253251, 39.2798097 ], [ -1.8250922, 39.2787874 ], [ -1.8249972, 39.278495 ], [ -1.824619, 39.2771895 ], [ -1.8243655, 39.2766527 ], [ -1.8240796, 39.2758144 ], [ -1.8239973, 39.2755027 ], [ -1.8238613, 39.274666 ], [ -1.8236851, 39.2739939 ], [ -1.8231764, 39.2730271 ], [ -1.8226553, 39.2720504 ], [ -1.8224242, 39.2716692 ], [ -1.8221729, 39.2710062 ], [ -1.8220155, 39.2707034 ], [ -1.8217629, 39.270118 ], [ -1.8216915, 39.2699036 ], [ -1.8215969, 39.2695821 ], [ -1.8213423, 39.2691132 ], [ -1.8212006, 39.2686261 ], [ -1.8209104, 39.2680403 ], [ -1.8205503, 39.2671624 ], [ -1.8201378, 39.26642 ], [ -1.819802, 39.2655812 ], [ -1.8194484, 39.2650531 ], [ -1.8188787, 39.2640079 ], [ -1.8186752, 39.2634715 ], [ -1.8184704, 39.2630226 ], [ -1.8180374, 39.2620177 ], [ -1.8176595, 39.2614505 ], [ -1.8168325, 39.2601016 ], [ -1.8162119, 39.2591141 ], [ -1.816019, 39.2586945 ], [ -1.8157987, 39.2584202 ], [ -1.8154611, 39.257698 ], [ -1.8153578, 39.2571529 ], [ -1.8152165, 39.2566366 ], [ -1.8149538, 39.2559151 ], [ -1.8146182, 39.2550666 ], [ -1.8144004, 39.2546467 ], [ -1.8142728, 39.2540625 ], [ -1.8142977, 39.2525863 ], [ -1.8142064, 39.2520705 ], [ -1.8138925, 39.2514262 ], [ -1.813637, 39.2510156 ], [ -1.8134069, 39.2505858 ], [ -1.8132757, 39.2502153 ], [ -1.8130467, 39.2497176 ], [ -1.8125207, 39.2490517 ], [ -1.8121147, 39.2486784 ], [ -1.8119068, 39.248414 ], [ -1.8115547, 39.2478082 ], [ -1.8111263, 39.247289 ], [ -1.8108187, 39.2470041 ], [ -1.8103869, 39.2466791 ], [ -1.8099057, 39.2463245 ], [ -1.8092779, 39.2457741 ], [ -1.8089712, 39.2454407 ], [ -1.8088869, 39.2452553 ], [ -1.8085993, 39.2445335 ], [ -1.8086075, 39.2440479 ], [ -1.8084006, 39.2437252 ], [ -1.808044, 39.2433913 ], [ -1.8073051, 39.242762 ], [ -1.8068135, 39.242281 ], [ -1.8056572, 39.24122 ], [ -1.8051154, 39.2407579 ], [ -1.8045109, 39.2404007 ], [ -1.8041017, 39.2402283 ], [ -1.8033863, 39.2397489 ], [ -1.8030838, 39.2395122 ], [ -1.802746, 39.2391797 ], [ -1.8025958, 39.2390177 ], [ -1.8024364, 39.2388945 ], [ -1.8023181, 39.2385047 ], [ -1.8002054, 39.2371327 ], [ -1.7996942, 39.2370789 ], [ -1.799567, 39.2370654 ], [ -1.7995334, 39.2370618 ], [ -1.798761, 39.23698 ], [ -1.7987543, 39.237109 ], [ -1.7984907, 39.2371062 ], [ -1.7976193, 39.2370068 ], [ -1.7966426, 39.2368941 ], [ -1.796431, 39.2368556 ], [ -1.79571, 39.2367533 ], [ -1.7933388, 39.2363044 ], [ -1.7912342, 39.235863 ], [ -1.7905896, 39.2357299 ], [ -1.7892268, 39.2354678 ], [ -1.7877451, 39.2351759 ], [ -1.7867091, 39.2349863 ], [ -1.784091, 39.2344631 ], [ -1.782212, 39.2340978 ], [ -1.7817815, 39.2339955 ], [ -1.7813492, 39.2338217 ], [ -1.7785955, 39.2328106 ], [ -1.7777095, 39.2324628 ], [ -1.7772375, 39.2322814 ], [ -1.7770785, 39.2336958 ], [ -1.7770782, 39.2336958 ], [ -1.7770782, 39.2336958 ], [ -1.7770782, 39.2336963 ], [ -1.7769151, 39.2351697 ], [ -1.7761635, 39.2397481 ], [ -1.7758928, 39.2417263 ], [ -1.7756193, 39.243725 ], [ -1.7746042, 39.2501118 ], [ -1.7745663, 39.2502915 ], [ -1.7745409, 39.2504174 ], [ -1.7739854, 39.2530336 ], [ -1.7734347, 39.2567041 ], [ -1.7730778, 39.25989 ], [ -1.7724954, 39.2673535 ], [ -1.7723754, 39.2682533 ], [ -1.7722762, 39.2699462 ], [ -1.772435, 39.2721465 ], [ -1.7721587, 39.2733599 ], [ -1.7716823, 39.2747515 ], [ -1.7711238, 39.2768541 ], [ -1.7706354, 39.2782635 ], [ -1.7699581, 39.2798692 ], [ -1.7698548, 39.2805041 ], [ -1.7698547, 39.2805044 ], [ -1.7698547, 39.2805044 ], [ -1.7698542, 39.2805078 ] ] ] } },
{ "type": "Feature", "properties": { "CCAA": "08 - Castilla-La Mancha", "PROVINCIA": "02 - Albacete", "MUNICIPIO": "02045 - Madrigueras", "COD_MUNICIPIO": "02045", "DISTRITO": "02", "SECCION": "0204502002", "V1_H": 79.85, "V1_M": 85.78, "V2_H": 79.86035794, "V2_M": 85.76242541000001, "V3_H": 79.99500792000001, "V3_M": 85.93655133 }, "geometry": { "type": "Polygon", "coordinates": [ [ [ -1.7770782, 39.2336958 ], [ -1.7770785, 39.2336958 ], [ -1.7772375, 39.2322814 ], [ -1.7777095, 39.2324628 ], [ -1.7785955, 39.2328106 ], [ -1.7813492, 39.2338217 ], [ -1.7817815, 39.2339955 ], [ -1.782212, 39.2340978 ], [ -1.784091, 39.2344631 ], [ -1.7867091, 39.2349863 ], [ -1.7877451, 39.2351759 ], [ -1.7892268, 39.2354678 ], [ -1.7905896, 39.2357299 ], [ -1.7912342, 39.235863 ], [ -1.7933388, 39.2363044 ], [ -1.79571, 39.2367533 ], [ -1.796431, 39.2368556 ], [ -1.7966426, 39.2368941 ], [ -1.7976193, 39.2370068 ], [ -1.7984907, 39.2371062 ], [ -1.7987543, 39.237109 ], [ -1.798761, 39.23698 ], [ -1.7995334, 39.2370618 ], [ -1.7994758, 39.2370075 ], [ -1.7994855, 39.2368025 ], [ -1.7995989, 39.2360813 ], [ -1.7996907, 39.2357342 ], [ -1.7998959, 39.2352023 ], [ -1.8000612, 39.2348607 ], [ -1.8002113, 39.2346858 ], [ -1.8004415, 39.2344879 ], [ -1.8006645, 39.2343519 ], [ -1.8012238, 39.2340919 ], [ -1.8010039, 39.2336152 ], [ -1.8007843, 39.2329613 ], [ -1.8006102, 39.2324873 ], [ -1.8007936, 39.2324136 ], [ -1.8005087, 39.2320329 ], [ -1.8004378, 39.2319189 ], [ -1.8002593, 39.2311472 ], [ -1.8006192, 39.2310722 ], [ -1.8004338, 39.2302621 ], [ -1.8010546, 39.2301636 ], [ -1.8006133, 39.2280297 ], [ -1.7999463, 39.225133 ], [ -1.79944, 39.2227762 ], [ -1.7988983, 39.2203718 ], [ -1.7982098, 39.2173142 ], [ -1.7976796, 39.2149478 ], [ -1.7973671, 39.213339 ], [ -1.7968123, 39.2109911 ], [ -1.7965543, 39.2097513 ], [ -1.7959913, 39.2071767 ], [ -1.7955629, 39.2052551 ], [ -1.7951309, 39.2035412 ], [ -1.7946926, 39.2014873 ], [ -1.7943764, 39.2001052 ], [ -1.7940946, 39.1988368 ], [ -1.7934854, 39.1961389 ], [ -1.7932831, 39.1951924 ], [ -1.7927089, 39.1925799 ], [ -1.7924261, 39.1913073 ], [ -1.7924259, 39.1913072 ], [ -1.7924259, 39.1913073 ], [ -1.792045, 39.1920591 ], [ -1.7908231, 39.1944342 ], [ -1.7896696, 39.1961973 ], [ -1.78925, 39.1969454 ], [ -1.7877702, 39.1995835 ], [ -1.7866552, 39.2017885 ], [ -1.7853881, 39.204082 ], [ -1.7847749, 39.2053912 ], [ -1.7839265, 39.2069051 ], [ -1.7818274, 39.211082 ], [ -1.7814635, 39.2120334 ], [ -1.7812273, 39.2136348 ], [ -1.7808612, 39.215379 ], [ -1.7790809, 39.2225237 ], [ -1.7781918, 39.2270376 ], [ -1.7775313, 39.2303826 ], [ -1.7772588, 39.2320647 ], [ -1.7770785, 39.2336936 ], [ -1.7770785, 39.2336937 ], [ -1.7770785, 39.2336938 ], [ -1.7770782, 39.2336958 ] ] ] } }
]
}
