{
"type": "FeatureCollection",
"name": "03051",
"features": [
{ "type": "Feature", "properties": { "CCAA": "10 - Comunitat Valenciana", "PROVINCIA": "03 - Alicante", "MUNICIPIO": "03051 - Campo de Mirra/Camp de Mirra, el", "COD_MUNICIPIO": "03051", "DISTRITO": "01", "SECCION": "0305101001", "V1_H": 79.81, "V1_M": 85.63, "V2_H": 79.83092799000001, "V2_M": 85.85143097, "V3_H": 80.00184088, "V3_M": 85.62912109 }, "geometry": { "type": "Polygon", "coordinates": [ [ [ -0.8010591, 38.737165 ], [ -0.8020008, 38.7368404 ], [ -0.8031602, 38.7369253 ], [ -0.803864, 38.7368574 ], [ -0.8066377, 38.7353147 ], [ -0.8077475, 38.7366421 ], [ -0.8084883, 38.73762 ], [ -0.8103805, 38.7381962 ], [ -0.8120578, 38.7382727 ], [ -0.816911, 38.737949 ], [ -0.8174171, 38.7379495 ], [ -0.8204994, 38.7368447 ], [ -0.8209223, 38.7365552 ], [ -0.8218068, 38.7362203 ], [ -0.822563, 38.7363245 ], [ -0.8241173, 38.7362814 ], [ -0.8252716, 38.7350145 ], [ -0.8277233, 38.7342131 ], [ -0.8285441, 38.7336968 ], [ -0.8302258, 38.7324846 ], [ -0.8316766, 38.7324394 ], [ -0.8329997, 38.7324357 ], [ -0.8346218, 38.7324311 ], [ -0.8375591, 38.736495 ], [ -0.8375632, 38.7364916 ], [ -0.8375632, 38.7364916 ], [ -0.8375656, 38.7364896 ], [ -0.8426568, 38.7322464 ], [ -0.8340828, 38.7236179 ], [ -0.828274, 38.7179327 ], [ -0.8268581, 38.7164557 ], [ -0.8229737, 38.712572 ], [ -0.8195056, 38.7090023 ], [ -0.8187788, 38.708322 ], [ -0.8167482, 38.7066532 ], [ -0.8168872, 38.7062413 ], [ -0.8173338, 38.7055469 ], [ -0.8161555, 38.703083 ], [ -0.8142801, 38.6985879 ], [ -0.8139954, 38.6977446 ], [ -0.8130248, 38.695636 ], [ -0.8112209, 38.6922054 ], [ -0.810984, 38.6916783 ], [ -0.8106038, 38.6913289 ], [ -0.8098853, 38.6900089 ], [ -0.8096102, 38.6892288 ], [ -0.8090307, 38.6878754 ], [ -0.808606, 38.6867232 ], [ -0.8080427, 38.6848385 ], [ -0.8077796, 38.684419 ], [ -0.8045481, 38.6859622 ], [ -0.8031639, 38.6838638 ], [ -0.8015171, 38.6817064 ], [ -0.8014506, 38.681624 ], [ -0.8004165, 38.6801089 ], [ -0.8002732, 38.679908 ], [ -0.7965532, 38.6771438 ], [ -0.7963763, 38.6769153 ], [ -0.7942822, 38.6713705 ], [ -0.7944521, 38.6712646 ], [ -0.794948, 38.669296 ], [ -0.7955521, 38.6667326 ], [ -0.7970742, 38.6656456 ], [ -0.7992602, 38.6640847 ], [ -0.7990175, 38.6639085 ], [ -0.7983618, 38.6633984 ], [ -0.797796, 38.6628098 ], [ -0.7969813, 38.6620106 ], [ -0.797066, 38.66192 ], [ -0.7969982, 38.6618979 ], [ -0.7968228, 38.6619992 ], [ -0.7966357, 38.6621072 ], [ -0.7945279, 38.6633653 ], [ -0.7938261, 38.6637842 ], [ -0.7914056, 38.6651351 ], [ -0.7895553, 38.665884 ], [ -0.7876673, 38.6667313 ], [ -0.7875623, 38.6667834 ], [ -0.7832169, 38.6690527 ], [ -0.7817835, 38.6696923 ], [ -0.7789079, 38.6708811 ], [ -0.7783011, 38.6711759 ], [ -0.7783298, 38.6717351 ], [ -0.7783293, 38.6717349 ], [ -0.7783293, 38.6717351 ], [ -0.7772276, 38.6713087 ], [ -0.7768278, 38.6712471 ], [ -0.7768277, 38.671247 ], [ -0.7764361, 38.6712756 ], [ -0.7759231, 38.6715091 ], [ -0.7754544, 38.6717976 ], [ -0.7743029, 38.672983 ], [ -0.7738179, 38.6734242 ], [ -0.7732064, 38.6738721 ], [ -0.772599, 38.6741849 ], [ -0.7717848, 38.6744938 ], [ -0.7705358, 38.6751097 ], [ -0.7702389, 38.6754194 ], [ -0.7700218, 38.6757486 ], [ -0.76995, 38.6758374 ], [ -0.7699363, 38.6759092 ], [ -0.7694797, 38.677288 ], [ -0.7686957, 38.6785628 ], [ -0.7685596, 38.6787842 ], [ -0.7680186, 38.6795488 ], [ -0.7677541, 38.6799221 ], [ -0.7677539, 38.6799225 ], [ -0.7677978, 38.679977 ], [ -0.7684073, 38.6810789 ], [ -0.7692844, 38.6828166 ], [ -0.7699626, 38.6842982 ], [ -0.7712599, 38.6854673 ], [ -0.7722923, 38.6862798 ], [ -0.7725352, 38.6865998 ], [ -0.7726193, 38.6868537 ], [ -0.7726536, 38.6879717 ], [ -0.772782, 38.6882804 ], [ -0.7733162, 38.6895881 ], [ -0.7762385, 38.6954553 ], [ -0.7765838, 38.6961827 ], [ -0.7778428, 38.6959994 ], [ -0.7787913, 38.6958102 ], [ -0.7814159, 38.6949681 ], [ -0.7827546, 38.6948043 ], [ -0.7838007, 38.6944366 ], [ -0.7854557, 38.6937112 ], [ -0.7857073, 38.6944998 ], [ -0.7860789, 38.6951286 ], [ -0.7869967, 38.6963083 ], [ -0.7872556, 38.6968628 ], [ -0.7871984, 38.69797 ], [ -0.7872895, 38.6998639 ], [ -0.7872295, 38.7006916 ], [ -0.7869838, 38.7012006 ], [ -0.7868503, 38.7018017 ], [ -0.7868641, 38.7020993 ], [ -0.7864286, 38.7031723 ], [ -0.786255, 38.703953 ], [ -0.786722, 38.7052142 ], [ -0.7876824, 38.7065118 ], [ -0.7879486, 38.7072016 ], [ -0.7880629, 38.7079697 ], [ -0.7887116, 38.7089371 ], [ -0.7890893, 38.7093677 ], [ -0.789376, 38.710139 ], [ -0.7894529, 38.7121227 ], [ -0.7899415, 38.71306 ], [ -0.7903643, 38.7135185 ], [ -0.7907968, 38.7147881 ], [ -0.7910354, 38.7159999 ], [ -0.7909089, 38.7174933 ], [ -0.7910548, 38.718361 ], [ -0.7917078, 38.7195627 ], [ -0.7919765, 38.719802 ], [ -0.7938614, 38.7209639 ], [ -0.796547, 38.722276 ], [ -0.7980349, 38.7251334 ], [ -0.7992294, 38.7278139 ], [ -0.8003344, 38.7296638 ], [ -0.801166, 38.7325538 ], [ -0.8007171, 38.7344375 ], [ -0.8011007, 38.7350575 ], [ -0.8014208, 38.7358744 ], [ -0.8010591, 38.737165 ] ] ] } }
]
}
