{
"type": "FeatureCollection",
"name": "04007",
"features": [
{ "type": "Feature", "properties": { "CCAA": "01 - Andalucía", "PROVINCIA": "04 - Almería", "MUNICIPIO": "04007 - Alcolea", "COD_MUNICIPIO": "04007", "DISTRITO": "01", "SECCION": "0400701001", "V1_H": 78.9, "V1_M": 84.87, "V2_H": 79.02373168, "V2_M": 85.07467156, "V3_H": 78.82484982, "V3_M": 84.79604014 }, "geometry": { "type": "Polygon", "coordinates": [ [ [ -2.9418862, 36.9957058 ], [ -2.9418863, 36.9957058 ], [ -2.9504491, 36.9969808 ], [ -2.9583605, 36.9981649 ], [ -2.9685882, 36.9975192 ], [ -2.9706224, 36.9974747 ], [ -2.9724768, 36.9975743 ], [ -2.9733534, 36.9975115 ], [ -2.9735445, 36.9974304 ], [ -2.9737468, 36.9972681 ], [ -2.974028, 36.9967544 ], [ -2.9746912, 36.9963129 ], [ -2.9748712, 36.9958261 ], [ -2.9747476, 36.9956999 ], [ -2.974433, 36.9956367 ], [ -2.9743768, 36.9955646 ], [ -2.9744331, 36.9954294 ], [ -2.9747478, 36.9953123 ], [ -2.9750962, 36.9950599 ], [ -2.9755236, 36.9943479 ], [ -2.9757259, 36.9942037 ], [ -2.9770409, 36.9940598 ], [ -2.9775466, 36.9938796 ], [ -2.977985, 36.9936273 ], [ -2.9782547, 36.9933569 ], [ -2.9784122, 36.9931136 ], [ -2.978491, 36.9926629 ], [ -2.9784798, 36.9924105 ], [ -2.9782552, 36.9918064 ], [ -2.9779074, 36.9900486 ], [ -2.9779636, 36.9897782 ], [ -2.9781323, 36.9894717 ], [ -2.9781324, 36.9892373 ], [ -2.9779414, 36.9889578 ], [ -2.9776156, 36.9887865 ], [ -2.9775145, 36.9885431 ], [ -2.9775147, 36.9879391 ], [ -2.9774137, 36.9876417 ], [ -2.9769194, 36.9872088 ], [ -2.9768295, 36.9869925 ], [ -2.9770887, 36.984766 ], [ -2.9776619, 36.9843154 ], [ -2.9777744, 36.9840629 ], [ -2.977943, 36.9838827 ], [ -2.978033, 36.9834591 ], [ -2.9781345, 36.982143 ], [ -2.9784156, 36.9815571 ], [ -2.978382, 36.9813859 ], [ -2.9774945, 36.9807547 ], [ -2.9771351, 36.9803219 ], [ -2.9769666, 36.9800153 ], [ -2.9767644, 36.97979 ], [ -2.9763826, 36.9790777 ], [ -2.9761918, 36.9785909 ], [ -2.9762144, 36.9781222 ], [ -2.9765518, 36.977338 ], [ -2.9775635, 36.9754452 ], [ -2.9777773, 36.9745528 ], [ -2.9784179, 36.9738498 ], [ -2.9799686, 36.9733994 ], [ -2.9811707, 36.9731743 ], [ -2.9832831, 36.9724625 ], [ -2.9843618, 36.9722824 ], [ -2.9847662, 36.9721021 ], [ -2.9850135, 36.9719129 ], [ -2.9851484, 36.9715253 ], [ -2.9852497, 36.9704706 ], [ -2.9854858, 36.9695962 ], [ -2.9861489, 36.9682351 ], [ -2.986149, 36.9682352 ], [ -2.984768, 36.9644309 ], [ -2.9850152, 36.9642236 ], [ -2.9852736, 36.9637369 ], [ -2.9857119, 36.9632501 ], [ -2.9862961, 36.9627454 ], [ -2.9864535, 36.962448 ], [ -2.9866221, 36.9617989 ], [ -2.9871278, 36.9606812 ], [ -2.987375, 36.9603928 ], [ -2.9878581, 36.9600143 ], [ -2.9886782, 36.9596267 ], [ -2.989004, 36.9594014 ], [ -2.990251, 36.9583469 ], [ -2.9904982, 36.9581846 ], [ -2.9925426, 36.9573375 ], [ -2.9925426, 36.9573374 ], [ -2.9930594, 36.9571933 ], [ -2.994486, 36.9570221 ], [ -2.9955419, 36.9566886 ], [ -2.9959687, 36.9566436 ], [ -2.9959687, 36.9566436 ], [ -2.9965079, 36.9566887 ], [ -2.9965079, 36.9566887 ], [ -2.996779, 36.9567763 ], [ -2.9973166, 36.9569501 ], [ -2.9982152, 36.9567248 ], [ -2.9982153, 36.9567248 ], [ -2.998687, 36.9567519 ], [ -2.998687, 36.9567519 ], [ -2.9993161, 36.9569321 ], [ -2.9996584, 36.9569055 ], [ -3.0001248, 36.9568691 ], [ -3.0012368, 36.9567519 ], [ -3.0012369, 36.9567519 ], [ -3.002259, 36.9568781 ], [ -3.0022591, 36.9568781 ], [ -3.0029668, 36.9569142 ], [ -3.0037503, 36.956904 ], [ -3.0043596, 36.9568962 ], [ -3.0052919, 36.9570043 ], [ -3.0052919, 36.9570043 ], [ -3.0058042, 36.9572136 ], [ -3.0059097, 36.9572567 ], [ -3.0059098, 36.9572567 ], [ -3.0065374, 36.9573264 ], [ -3.0066399, 36.9573378 ], [ -3.0066399, 36.9573378 ], [ -3.0074374, 36.9569952 ], [ -3.0083809, 36.956932 ], [ -3.008381, 36.956932 ], [ -3.0092683, 36.9565714 ], [ -3.0098074, 36.9564993 ], [ -3.0098075, 36.9564993 ], [ -3.0101238, 36.9565852 ], [ -3.0105039, 36.9566886 ], [ -3.0107286, 36.9566885 ], [ -3.0109532, 36.9565803 ], [ -3.0115484, 36.9558231 ], [ -3.0117619, 36.9557239 ], [ -3.0120875, 36.9557239 ], [ -3.0120876, 36.9557239 ], [ -3.01302, 36.9559312 ], [ -3.0134468, 36.9560843 ], [ -3.0139972, 36.9563637 ], [ -3.0139973, 36.9563637 ], [ -3.0141558, 36.9563717 ], [ -3.0141769, 36.9563727 ], [ -3.014177, 36.9563727 ], [ -3.0150306, 36.9558768 ], [ -3.0162322, 36.9543803 ], [ -3.0166702, 36.9541549 ], [ -3.0172205, 36.9539565 ], [ -3.0172205, 36.9539565 ], [ -3.0177709, 36.9538753 ], [ -3.0195905, 36.953839 ], [ -3.0195905, 36.953839 ], [ -3.0209608, 36.953956 ], [ -3.0209609, 36.953956 ], [ -3.0217742, 36.9540397 ], [ -3.0221853, 36.954082 ], [ -3.023443, 36.9532254 ], [ -3.0259245, 36.9505386 ], [ -3.0293379, 36.9475271 ], [ -3.0317288, 36.9440289 ], [ -3.0319642, 36.9429652 ], [ -3.0321325, 36.9427217 ], [ -3.032211, 36.942289 ], [ -3.0321434, 36.9417932 ], [ -3.0316823, 36.940324 ], [ -3.0304686, 36.9381067 ], [ -3.030659, 36.9367816 ], [ -3.0299287, 36.9357361 ], [ -3.0302653, 36.9350689 ], [ -3.0283896, 36.9340868 ], [ -3.0291081, 36.9336088 ], [ -3.030287, 36.9331488 ], [ -3.0308035, 36.9328783 ], [ -3.0311739, 36.9326258 ], [ -3.031174, 36.9326258 ], [ -3.031376, 36.9324004 ], [ -3.0314096, 36.932184 ], [ -3.0313421, 36.9319316 ], [ -3.031342, 36.9319316 ], [ -3.0310275, 36.9315711 ], [ -3.0309713, 36.9313818 ], [ -3.0309937, 36.9312105 ], [ -3.0316334, 36.9304893 ], [ -3.0316335, 36.9304892 ], [ -3.0318355, 36.9302909 ], [ -3.0318466, 36.9301196 ], [ -3.0317343, 36.9299393 ], [ -3.0313637, 36.9298673 ], [ -3.0310044, 36.9297142 ], [ -3.0302405, 36.9290653 ], [ -3.0298587, 36.928813 ], [ -3.0296228, 36.9285156 ], [ -3.0294991, 36.9282451 ], [ -3.0295215, 36.9278846 ], [ -3.0295215, 36.9278845 ], [ -3.0295595, 36.9278257 ], [ -3.0296786, 36.9276412 ], [ -3.0299368, 36.9275239 ], [ -3.0302175, 36.9275058 ], [ -3.0304983, 36.9278393 ], [ -3.030779, 36.9279113 ], [ -3.0307791, 36.9279113 ], [ -3.0310597, 36.9278842 ], [ -3.0310598, 36.9278842 ], [ -3.0313067, 36.9276588 ], [ -3.0314301, 36.9273072 ], [ -3.0313963, 36.9271179 ], [ -3.0313963, 36.9271178 ], [ -3.030846, 36.9267935 ], [ -3.0307897, 36.9263879 ], [ -3.0308792, 36.9257208 ], [ -3.0313167, 36.9245849 ], [ -3.0354821, 36.9239978 ], [ -3.0406122, 36.9221303 ], [ -3.0436207, 36.9211376 ], [ -3.0458879, 36.9198658 ], [ -3.0480416, 36.916737 ], [ -3.0482323, 36.9165205 ], [ -3.0480637, 36.9160699 ], [ -3.0501625, 36.915384 ], [ -3.0501626, 36.9153839 ], [ -3.0505844, 36.9153219 ], [ -3.0514535, 36.9151941 ], [ -3.0558632, 36.9118388 ], [ -3.0562561, 36.9117936 ], [ -3.0571877, 36.9115408 ], [ -3.0579733, 36.9114683 ], [ -3.0579734, 36.9114683 ], [ -3.0589758, 36.9115602 ], [ -3.0622734, 36.9118628 ], [ -3.0633845, 36.9115467 ], [ -3.0639008, 36.9115825 ], [ -3.0639009, 36.9115825 ], [ -3.0645184, 36.9116994 ], [ -3.0662927, 36.9124196 ], [ -3.0664837, 36.9125728 ], [ -3.0670759, 36.9133582 ], [ -3.0673941, 36.9137802 ], [ -3.0675066, 36.9141137 ], [ -3.0675744, 36.9146184 ], [ -3.0677318, 36.9148437 ], [ -3.068687, 36.9158348 ], [ -3.0686871, 36.91597 ], [ -3.068474, 36.9162495 ], [ -3.0684742, 36.9164659 ], [ -3.068699, 36.9167452 ], [ -3.0694855, 36.917484 ], [ -3.0697776, 36.9177092 ], [ -3.0700138, 36.9180967 ], [ -3.0706091, 36.9184298 ], [ -3.070924, 36.9190426 ], [ -3.070924, 36.9190427 ], [ -3.0710814, 36.9192409 ], [ -3.0711809, 36.9192617 ], [ -3.0713396, 36.9192948 ], [ -3.071609, 36.9192586 ], [ -3.0716091, 36.9192586 ], [ -3.0719346, 36.9192855 ], [ -3.0719346, 36.9192854 ], [ -3.0718221, 36.919006 ], [ -3.0706874, 36.9181774 ], [ -3.0702829, 36.917826 ], [ -3.0696872, 36.9170512 ], [ -3.069642, 36.9167537 ], [ -3.0693498, 36.9164474 ], [ -3.0689674, 36.9156453 ], [ -3.0690675, 36.9145275 ], [ -3.0690329, 36.9135089 ], [ -3.0695258, 36.9123457 ], [ -3.0686017, 36.9083257 ], [ -3.0680618, 36.9071632 ], [ -3.0681737, 36.9066763 ], [ -3.0681059, 36.9062076 ], [ -3.0683071, 36.905243 ], [ -3.0684752, 36.9049094 ], [ -3.0687219, 36.9046208 ], [ -3.0691482, 36.904287 ], [ -3.0694509, 36.9038631 ], [ -3.0696523, 36.903214 ], [ -3.0699548, 36.9026008 ], [ -3.0705147, 36.9011762 ], [ -3.0697165, 36.8996352 ], [ -3.0675954, 36.900033 ], [ -3.0672811, 36.9000242 ], [ -3.0665961, 36.899736 ], [ -3.0663264, 36.8993756 ], [ -3.0660232, 36.8991684 ], [ -3.0654843, 36.8989344 ], [ -3.0652708, 36.8987362 ], [ -3.065046, 36.8982765 ], [ -3.0648097, 36.8975735 ], [ -3.064057, 36.8968257 ], [ -3.0632372, 36.8961861 ], [ -3.0626756, 36.8956365 ], [ -3.0624173, 36.8954474 ], [ -3.0617317, 36.8942939 ], [ -3.061428, 36.8935097 ], [ -3.0607648, 36.8921398 ], [ -3.0605737, 36.8917974 ], [ -3.0600344, 36.8910765 ], [ -3.0591808, 36.8901033 ], [ -3.0582026, 36.8877691 ], [ -3.0576969, 36.8868318 ], [ -3.057584, 36.8859304 ], [ -3.05709, 36.8856061 ], [ -3.0568092, 36.8853538 ], [ -3.0566407, 36.8850564 ], [ -3.0557094, 36.8852461 ], [ -3.0557094, 36.8852461 ], [ -3.054666, 36.8855621 ], [ -3.0542733, 36.8857245 ], [ -3.0538358, 36.8860132 ], [ -3.0531627, 36.88632 ], [ -3.0531627, 36.88632 ], [ -3.0525119, 36.8864374 ], [ -3.0525118, 36.8864375 ], [ -3.0517826, 36.8866361 ], [ -3.0517825, 36.8866361 ], [ -3.0510756, 36.8866634 ], [ -3.0499308, 36.8865557 ], [ -3.0499308, 36.8865557 ], [ -3.0487974, 36.8866283 ], [ -3.0487974, 36.8866283 ], [ -3.0477874, 36.8866376 ], [ -3.0477873, 36.8866376 ], [ -3.0459581, 36.8865752 ], [ -3.045958, 36.8865752 ], [ -3.0430961, 36.8860985 ], [ -3.0401563, 36.8869558 ], [ -3.0401562, 36.8869558 ], [ -3.038832, 36.8868391 ], [ -3.0388319, 36.886839 ], [ -3.0380911, 36.8865598 ], [ -3.0372381, 36.8861544 ], [ -3.037238, 36.8861544 ], [ -3.0360143, 36.8851632 ], [ -3.0355989, 36.8848838 ], [ -3.0352286, 36.8847938 ], [ -3.0348022, 36.8848119 ], [ -3.0344544, 36.8850644 ], [ -3.034017, 36.8855333 ], [ -3.0336357, 36.8862546 ], [ -3.0334452, 36.8867415 ], [ -3.0331648, 36.8871562 ], [ -3.0330344, 36.887251 ], [ -3.0329292, 36.8873275 ], [ -3.0327497, 36.8874538 ], [ -3.03249, 36.8875505 ], [ -3.0322896, 36.8876251 ], [ -3.031891, 36.8877012 ], [ -3.0316276, 36.8877515 ], [ -3.0316275, 36.8877515 ], [ -3.0307298, 36.8877698 ], [ -3.0300015, 36.8877383 ], [ -3.0298993, 36.8877339 ], [ -3.030089, 36.888262 ], [ -3.0300903, 36.8882657 ], [ -3.0301577, 36.8886804 ], [ -3.0301018, 36.889059 ], [ -3.0299224, 36.8894557 ], [ -3.0298328, 36.8899605 ], [ -3.0296309, 36.890213 ], [ -3.0281606, 36.8902674 ], [ -3.027611, 36.8909616 ], [ -3.027611, 36.8909616 ], [ -3.0274091, 36.891214 ], [ -3.0272858, 36.8919172 ], [ -3.0274095, 36.892395 ], [ -3.0274431, 36.89244 ], [ -3.0276004, 36.8928276 ], [ -3.0274658, 36.8931161 ], [ -3.02741, 36.8939815 ], [ -3.027208, 36.8941168 ], [ -3.027208, 36.8941168 ], [ -3.0268152, 36.8941619 ], [ -3.0258501, 36.8944596 ], [ -3.0254582, 36.8947248 ], [ -3.0254237, 36.8947481 ], [ -3.025233, 36.8950817 ], [ -3.0250424, 36.8956406 ], [ -3.0250089, 36.8961545 ], [ -3.0251436, 36.8962987 ], [ -3.0253794, 36.8966051 ], [ -3.0253795, 36.8968305 ], [ -3.0252673, 36.8972181 ], [ -3.0254734, 36.897188 ], [ -3.0260081, 36.8971098 ], [ -3.026356, 36.8971188 ], [ -3.0271532, 36.8976955 ], [ -3.0275235, 36.8977585 ], [ -3.0275235, 36.8977586 ], [ -3.027558, 36.9000212 ], [ -3.0268512, 36.9009048 ], [ -3.0264247, 36.9010671 ], [ -3.0263686, 36.9012564 ], [ -3.02638, 36.90159 ], [ -3.0266157, 36.9017882 ], [ -3.0265709, 36.9019054 ], [ -3.0260882, 36.9018154 ], [ -3.025976, 36.9019506 ], [ -3.0262454, 36.9022571 ], [ -3.0262455, 36.9022571 ], [ -3.0262905, 36.9024644 ], [ -3.0256509, 36.9031587 ], [ -3.0256959, 36.9034381 ], [ -3.0256735, 36.9037356 ], [ -3.0255277, 36.903988 ], [ -3.0255278, 36.9043666 ], [ -3.0256513, 36.9045108 ], [ -3.0256177, 36.9046551 ], [ -3.0256514, 36.9047903 ], [ -3.0259546, 36.9049885 ], [ -3.0258985, 36.9052139 ], [ -3.0257077, 36.9053221 ], [ -3.0257076, 36.9053221 ], [ -3.0253822, 36.9052951 ], [ -3.0248547, 36.9055477 ], [ -3.0238894, 36.9060166 ], [ -3.0235122, 36.9060691 ], [ -3.0233058, 36.9060978 ], [ -3.0219925, 36.9064226 ], [ -3.0219924, 36.9064226 ], [ -3.020971, 36.9064678 ], [ -3.0196689, 36.9065311 ], [ -3.0193658, 36.9066123 ], [ -3.0191189, 36.9069909 ], [ -3.0191189, 36.9069909 ], [ -3.0187598, 36.9072434 ], [ -3.0180975, 36.9074778 ], [ -3.0164026, 36.9082173 ], [ -3.016223, 36.9082443 ], [ -3.0160546, 36.9081632 ], [ -3.0158188, 36.9079288 ], [ -3.0156167, 36.9078928 ], [ -3.0156167, 36.9078928 ], [ -3.0147861, 36.9081092 ], [ -3.0147861, 36.9081092 ], [ -3.014483, 36.9081363 ], [ -3.0144829, 36.9081363 ], [ -3.0143926, 36.9081323 ], [ -3.0136748, 36.9081003 ], [ -3.0133829, 36.9081545 ], [ -3.0132145, 36.9082626 ], [ -3.0132145, 36.9082626 ], [ -3.0129227, 36.9083258 ], [ -3.0129226, 36.9083258 ], [ -3.0128735, 36.9083243 ], [ -3.0123277, 36.9083078 ], [ -3.0120471, 36.9083709 ], [ -3.0114634, 36.9087586 ], [ -3.0111491, 36.9088307 ], [ -3.011149, 36.9088307 ], [ -3.0110872, 36.9088221 ], [ -3.0108235, 36.9087856 ], [ -3.0104919, 36.9086573 ], [ -3.0101948, 36.9085423 ], [ -3.0096785, 36.9082629 ], [ -3.0089488, 36.9077131 ], [ -3.0085558, 36.9072353 ], [ -3.0080955, 36.9069198 ], [ -3.007725, 36.9067756 ], [ -3.0067596, 36.9066404 ], [ -3.0067596, 36.9066404 ], [ -3.0052554, 36.9061627 ], [ -3.0052554, 36.9061627 ], [ -3.0001479, 36.9071813 ], [ -2.9986998, 36.9075509 ], [ -2.9944004, 36.9070188 ], [ -2.9888318, 36.9123369 ], [ -2.9856209, 36.9130396 ], [ -2.9856208, 36.9130396 ], [ -2.9838471, 36.9133458 ], [ -2.9820395, 36.9139945 ], [ -2.9812872, 36.914391 ], [ -2.9777281, 36.9153008 ], [ -2.9710702, 36.9163089 ], [ -2.9710029, 36.9163178 ], [ -2.9710028, 36.9163179 ], [ -2.9681511, 36.9167498 ], [ -2.9681511, 36.9167498 ], [ -2.9657933, 36.9170826 ], [ -2.9657932, 36.9170826 ], [ -2.9575073, 36.9179361 ], [ -2.9575072, 36.9179361 ], [ -2.9565305, 36.9180439 ], [ -2.9565304, 36.9180439 ], [ -2.945774, 36.9192472 ], [ -2.945774, 36.9192472 ], [ -2.9411256, 36.9197046 ], [ -2.9411255, 36.9197046 ], [ -2.9389024, 36.9199288 ], [ -2.9388717, 36.9199247 ], [ -2.9385656, 36.9198835 ], [ -2.9385656, 36.9198835 ], [ -2.9384531, 36.9201989 ], [ -2.9377788, 36.9209197 ], [ -2.9362062, 36.9217572 ], [ -2.9353412, 36.9223517 ], [ -2.9354644, 36.9226402 ], [ -2.9355429, 36.9228386 ], [ -2.9358118, 36.9235239 ], [ -2.9369098, 36.9262739 ], [ -2.9367715, 36.9305737 ], [ -2.9368492, 36.9315654 ], [ -2.9368937, 36.9320612 ], [ -2.9371491, 36.9355229 ], [ -2.9372161, 36.9359286 ], [ -2.9374172, 36.9372809 ], [ -2.9380426, 36.941482 ], [ -2.9379278, 36.9445469 ], [ -2.9377981, 36.9518575 ], [ -2.9378867, 36.9534621 ], [ -2.9378526, 36.9538948 ], [ -2.9373907, 36.9555802 ], [ -2.9370528, 36.9567158 ], [ -2.9369623, 36.9574369 ], [ -2.9369392, 36.9581671 ], [ -2.9370287, 36.9585548 ], [ -2.9374998, 36.9594655 ], [ -2.9379487, 36.9600156 ], [ -2.9383416, 36.9603133 ], [ -2.9383416, 36.9603133 ], [ -2.9388132, 36.9605389 ], [ -2.9401496, 36.9610535 ], [ -2.940273, 36.9612248 ], [ -2.9405979, 36.9622707 ], [ -2.9407999, 36.9624961 ], [ -2.9408, 36.9624961 ], [ -2.9415634, 36.9629382 ], [ -2.9413713, 36.9643985 ], [ -2.9404016, 36.9690043 ], [ -2.9410109, 36.979876 ], [ -2.9418862, 36.9957058 ] ] ] } }
]
}
