{
"type": "FeatureCollection",
"name": "04101",
"features": [
{ "type": "Feature", "properties": { "CCAA": "01 - Andalucía", "PROVINCIA": "04 - Almería", "MUNICIPIO": "04101 - Viator", "COD_MUNICIPIO": "04101", "DISTRITO": "01", "SECCION": "0410101001", "V1_H": 79.2, "V1_M": 85.22, "V2_H": 79.18248439, "V2_M": 85.25623492, "V3_H": 79.42953696, "V3_M": 85.41396632 }, "geometry": { "type": "Polygon", "coordinates": [ [ [ -2.4230729, 36.8893638 ], [ -2.4236716, 36.8893113 ], [ -2.4243128, 36.8893334 ], [ -2.4248114, 36.8893645 ], [ -2.4251195, 36.8894518 ], [ -2.4255344, 36.8895588 ], [ -2.4256613, 36.8896374 ], [ -2.4259632, 36.8896209 ], [ -2.4262679, 36.8895774 ], [ -2.4265954, 36.8894933 ], [ -2.4270786, 36.8896939 ], [ -2.4272917, 36.8898032 ], [ -2.4274839, 36.8897049 ], [ -2.4277669, 36.8895621 ], [ -2.427812, 36.8896254 ], [ -2.4278783, 36.8897699 ], [ -2.4280701, 36.8897258 ], [ -2.4281033, 36.8897891 ], [ -2.428193, 36.889983 ], [ -2.4283321, 36.8899449 ], [ -2.4285345, 36.8898887 ], [ -2.4286778, 36.8897844 ], [ -2.4287729, 36.8897658 ], [ -2.4296658, 36.8894839 ], [ -2.4314519, 36.8888818 ], [ -2.4325829, 36.8885057 ], [ -2.4316246, 36.8865495 ], [ -2.4309593, 36.8852164 ], [ -2.4301903, 36.8854158 ], [ -2.429726, 36.8855961 ], [ -2.4284326, 36.8861713 ], [ -2.4280303, 36.8864218 ], [ -2.4277163, 36.8865712 ], [ -2.4275408, 36.8866898 ], [ -2.4275407, 36.8867052 ], [ -2.42737, 36.8865317 ], [ -2.427259, 36.886356 ], [ -2.4261858, 36.8867277 ], [ -2.4257293, 36.8868104 ], [ -2.4258197, 36.8870815 ], [ -2.4258913, 36.8872358 ], [ -2.4259239, 36.887289 ], [ -2.4258771, 36.8873578 ], [ -2.4258103, 36.887453 ], [ -2.4258692, 36.8875329 ], [ -2.4259952, 36.8876992 ], [ -2.4260257, 36.8877121 ], [ -2.4260613, 36.8878748 ], [ -2.4261061, 36.8880227 ], [ -2.4261194, 36.8880893 ], [ -2.42594, 36.8880958 ], [ -2.4255905, 36.8880978 ], [ -2.4255123, 36.8881011 ], [ -2.425308, 36.8883587 ], [ -2.4252707, 36.8884324 ], [ -2.4252011, 36.888517 ], [ -2.425136, 36.8886054 ], [ -2.4251622, 36.8887939 ], [ -2.4245346, 36.8884621 ], [ -2.4245156, 36.888547 ], [ -2.4238441, 36.8885585 ], [ -2.4237892, 36.8885139 ], [ -2.423805, 36.8882517 ], [ -2.4238243, 36.8881299 ], [ -2.4236501, 36.8880589 ], [ -2.4234987, 36.8880064 ], [ -2.4232966, 36.8879833 ], [ -2.4230766, 36.8879708 ], [ -2.4230949, 36.8887034 ], [ -2.4230729, 36.8893638 ] ] ] } },
{ "type": "Feature", "properties": { "CCAA": "01 - Andalucía", "PROVINCIA": "04 - Almería", "MUNICIPIO": "04101 - Viator", "COD_MUNICIPIO": "04101", "DISTRITO": "02", "SECCION": "0410102001", "V1_H": 79.78, "V1_M": 85.67, "V2_H": 79.78305357000001, "V2_M": 85.83721796, "V3_H": 80.07461692, "V3_M": 85.64972132 }, "geometry": { "type": "Polygon", "coordinates": [ [ [ -2.3688509, 36.903154 ], [ -2.3684988, 36.9056565 ], [ -2.3683109, 36.9080173 ], [ -2.3680199, 36.9092777 ], [ -2.3675111, 36.911078 ], [ -2.3674129, 36.912087 ], [ -2.3678498, 36.9135677 ], [ -2.368806, 36.9160428 ], [ -2.3690475, 36.9167111 ], [ -2.3708794, 36.9219312 ], [ -2.3734622, 36.923243 ], [ -2.3764461, 36.9249444 ], [ -2.3784807, 36.9260368 ], [ -2.379128, 36.926527 ], [ -2.3800786, 36.9269917 ], [ -2.3864884, 36.9187858 ], [ -2.3885034, 36.9167139 ], [ -2.3918651, 36.9132606 ], [ -2.3954104, 36.9107005 ], [ -2.3989421, 36.9084108 ], [ -2.4000131, 36.9078303 ], [ -2.4069532, 36.9045659 ], [ -2.4150724, 36.902632 ], [ -2.4205653, 36.9006127 ], [ -2.4240415, 36.8995569 ], [ -2.4307504, 36.8954516 ], [ -2.4312464, 36.8951565 ], [ -2.4314487, 36.8950866 ], [ -2.4352635, 36.8937695 ], [ -2.4339352, 36.8912661 ], [ -2.4328616, 36.8890746 ], [ -2.4325829, 36.8885057 ], [ -2.4314519, 36.8888818 ], [ -2.4296658, 36.8894839 ], [ -2.4287729, 36.8897658 ], [ -2.4286778, 36.8897844 ], [ -2.4285345, 36.8898887 ], [ -2.4283321, 36.8899449 ], [ -2.428193, 36.889983 ], [ -2.4281033, 36.8897891 ], [ -2.4280701, 36.8897258 ], [ -2.4278783, 36.8897699 ], [ -2.427812, 36.8896254 ], [ -2.4277669, 36.8895621 ], [ -2.4274839, 36.8897049 ], [ -2.4272917, 36.8898032 ], [ -2.4270786, 36.8896939 ], [ -2.4265954, 36.8894933 ], [ -2.4262679, 36.8895774 ], [ -2.4259632, 36.8896209 ], [ -2.4256613, 36.8896374 ], [ -2.4255344, 36.8895588 ], [ -2.4251195, 36.8894518 ], [ -2.4248114, 36.8893645 ], [ -2.4243128, 36.8893334 ], [ -2.4236716, 36.8893113 ], [ -2.4230729, 36.8893638 ], [ -2.4230723, 36.8893838 ], [ -2.422842, 36.8893241 ], [ -2.422516, 36.8892008 ], [ -2.4221225, 36.8891087 ], [ -2.4216045, 36.88898 ], [ -2.4213231, 36.8888953 ], [ -2.421008, 36.8888216 ], [ -2.4206139, 36.8888197 ], [ -2.4204784, 36.8888371 ], [ -2.4203878, 36.8888547 ], [ -2.4203099, 36.8887641 ], [ -2.4200857, 36.8885377 ], [ -2.4199067, 36.8883723 ], [ -2.4197055, 36.888173 ], [ -2.4195149, 36.8880639 ], [ -2.4190981, 36.8879897 ], [ -2.4187264, 36.8879879 ], [ -2.4184101, 36.8879863 ], [ -2.4180494, 36.8880026 ], [ -2.417531, 36.8880091 ], [ -2.4172825, 36.8880349 ], [ -2.4171579, 36.8880974 ], [ -2.4170445, 36.8882591 ], [ -2.4168608, 36.888612 ], [ -2.4167672, 36.8891186 ], [ -2.4166174, 36.8895483 ], [ -2.4165463, 36.8899379 ], [ -2.416454, 36.8902619 ], [ -2.4162712, 36.8905968 ], [ -2.4160658, 36.8908572 ], [ -2.4158164, 36.8910926 ], [ -2.4155668, 36.8912717 ], [ -2.4151932, 36.8915065 ], [ -2.4147286, 36.8918107 ], [ -2.4144003, 36.8919961 ], [ -2.413879, 36.892291 ], [ -2.4133469, 36.8926152 ], [ -2.412939, 36.8928498 ], [ -2.4124968, 36.8931631 ], [ -2.4121006, 36.8934248 ], [ -2.4116919, 36.8937563 ], [ -2.4115103, 36.8939244 ], [ -2.4113971, 36.8939509 ], [ -2.4111272, 36.8939406 ], [ -2.4109242, 36.8938765 ], [ -2.4107217, 36.8938574 ], [ -2.4104179, 36.8937725 ], [ -2.4101028, 36.8937079 ], [ -2.4099115, 36.8936709 ], [ -2.4097322, 36.8934536 ], [ -2.4093741, 36.893134 ], [ -2.40914, 36.8930292 ], [ -2.4089415, 36.8931139 ], [ -2.4087362, 36.8931715 ], [ -2.4085193, 36.8932853 ], [ -2.4084044, 36.8933523 ], [ -2.4083375, 36.8934872 ], [ -2.4083601, 36.8936473 ], [ -2.4083533, 36.8938073 ], [ -2.4083693, 36.8939945 ], [ -2.4083439, 36.8941972 ], [ -2.4083367, 36.8943999 ], [ -2.4083224, 36.8946275 ], [ -2.4082964, 36.8948978 ], [ -2.4081212, 36.8950659 ], [ -2.4077799, 36.8951949 ], [ -2.4075993, 36.8952391 ], [ -2.4074302, 36.8952473 ], [ -2.4071597, 36.8952099 ], [ -2.4068644, 36.8952039 ], [ -2.4066661, 36.8951871 ], [ -2.4063546, 36.8951022 ], [ -2.4062166, 36.8950677 ], [ -2.4059709, 36.8950079 ], [ -2.4058079, 36.8950363 ], [ -2.4056572, 36.8951167 ], [ -2.4054766, 36.8951609 ], [ -2.4052958, 36.8952276 ], [ -2.4050437, 36.8952601 ], [ -2.4042201, 36.8952673 ], [ -2.4038896, 36.8952791 ], [ -2.4035656, 36.895273 ], [ -2.4031987, 36.8952711 ], [ -2.403043, 36.8952658 ], [ -2.4027006, 36.8952844 ], [ -2.4023454, 36.8953119 ], [ -2.4020147, 36.8953531 ], [ -2.4016957, 36.8954145 ], [ -2.4014609, 36.895481 ], [ -2.4009014, 36.8956359 ], [ -2.4005214, 36.8957805 ], [ -2.4001963, 36.8959073 ], [ -2.399907, 36.896032 ], [ -2.3995997, 36.8961319 ], [ -2.3992567, 36.8962271 ], [ -2.3988651, 36.8963287 ], [ -2.3984736, 36.8964237 ], [ -2.3980702, 36.8965321 ], [ -2.3976549, 36.8966156 ], [ -2.3972403, 36.8967104 ], [ -2.3966499, 36.8968584 ], [ -2.3964215, 36.896909 ], [ -2.3962225, 36.8969666 ], [ -2.3959636, 36.8970622 ], [ -2.3957525, 36.8971468 ], [ -2.3953847, 36.8973522 ], [ -2.3951427, 36.8975358 ], [ -2.3948168, 36.897755 ], [ -2.3945146, 36.897918 ], [ -2.3942125, 36.898144 ], [ -2.3937835, 36.8984641 ], [ -2.3935478, 36.8986455 ], [ -2.3934086, 36.8987709 ], [ -2.3931, 36.8990263 ], [ -2.3928279, 36.899275 ], [ -2.3925007, 36.8995731 ], [ -2.3922766, 36.8997928 ], [ -2.392047, 36.9000035 ], [ -2.3918533, 36.9001873 ], [ -2.3916838, 36.9003352 ], [ -2.3914179, 36.9005073 ], [ -2.3911041, 36.900713 ], [ -2.3907962, 36.900876 ], [ -2.3903697, 36.9010518 ], [ -2.3900849, 36.9011337 ], [ -2.3897121, 36.9011769 ], [ -2.3894535, 36.9012229 ], [ -2.3890378, 36.901365 ], [ -2.3888395, 36.9014248 ], [ -2.3885565, 36.9014617 ], [ -2.3882262, 36.9014464 ], [ -2.3879381, 36.9014156 ], [ -2.3876615, 36.9014345 ], [ -2.387397, 36.9014422 ], [ -2.3872109, 36.9014615 ], [ -2.3869167, 36.9014149 ], [ -2.3865444, 36.9013814 ], [ -2.386229, 36.9013527 ], [ -2.3858685, 36.9013418 ], [ -2.3855194, 36.901304 ], [ -2.3851359, 36.9012749 ], [ -2.3843134, 36.9012347 ], [ -2.3840084, 36.9012962 ], [ -2.3836919, 36.9013936 ], [ -2.383489, 36.9014106 ], [ -2.3832858, 36.901387 ], [ -2.3830497, 36.9013407 ], [ -2.382858, 36.9012856 ], [ -2.3826779, 36.9012487 ], [ -2.3825426, 36.901239 ], [ -2.3822614, 36.9012285 ], [ -2.3819903, 36.9012721 ], [ -2.3815722, 36.9013601 ], [ -2.3813578, 36.9014131 ], [ -2.3810866, 36.9014657 ], [ -2.3807922, 36.9016062 ], [ -2.3804981, 36.9017128 ], [ -2.3802044, 36.9017744 ], [ -2.379865, 36.9019259 ], [ -2.3796155, 36.9020597 ], [ -2.3794002, 36.9022322 ], [ -2.3791277, 36.9024381 ], [ -2.378867, 36.9026643 ], [ -2.378595, 36.9028071 ], [ -2.3784029, 36.9028782 ], [ -2.3780013, 36.9029234 ], [ -2.3776916, 36.9029556 ], [ -2.3773104, 36.9030821 ], [ -2.3770814, 36.903126 ], [ -2.3765244, 36.9031952 ], [ -2.3761308, 36.9032021 ], [ -2.3759394, 36.9031831 ], [ -2.3756492, 36.9031635 ], [ -2.3751667, 36.9031384 ], [ -2.3746009, 36.9030994 ], [ -2.3740935, 36.9031125 ], [ -2.3737811, 36.9031401 ], [ -2.3729262, 36.9031942 ], [ -2.3727234, 36.9031976 ], [ -2.3724801, 36.9031874 ], [ -2.3721561, 36.9031744 ], [ -2.3719235, 36.9031393 ], [ -2.3715939, 36.9031218 ], [ -2.3713455, 36.9031295 ], [ -2.3710259, 36.9031729 ], [ -2.3707977, 36.9031965 ], [ -2.3703769, 36.9031807 ], [ -2.3700984, 36.9031793 ], [ -2.3698985, 36.9031804 ], [ -2.3696789, 36.9031793 ], [ -2.3688509, 36.903154 ] ] ] } },
{ "type": "Feature", "properties": { "CCAA": "01 - Andalucía", "PROVINCIA": "04 - Almería", "MUNICIPIO": "04101 - Viator", "COD_MUNICIPIO": "04101", "DISTRITO": "01", "SECCION": "0410101002", "V1_H": 79.68, "V1_M": 85.47, "V2_H": 79.93758061, "V2_M": 85.65037312, "V3_H": 79.53414521000001, "V3_M": 85.4025844 }, "geometry": { "type": "Polygon", "coordinates": [ [ [ -2.3688509, 36.903154 ], [ -2.3696789, 36.9031793 ], [ -2.3698985, 36.9031804 ], [ -2.3700984, 36.9031793 ], [ -2.3703769, 36.9031807 ], [ -2.3707977, 36.9031965 ], [ -2.3710259, 36.9031729 ], [ -2.3713455, 36.9031295 ], [ -2.3715939, 36.9031218 ], [ -2.3719235, 36.9031393 ], [ -2.3721561, 36.9031744 ], [ -2.3724801, 36.9031874 ], [ -2.3727234, 36.9031976 ], [ -2.3729262, 36.9031942 ], [ -2.3737811, 36.9031401 ], [ -2.3740935, 36.9031125 ], [ -2.3746009, 36.9030994 ], [ -2.3751667, 36.9031384 ], [ -2.3756492, 36.9031635 ], [ -2.3759394, 36.9031831 ], [ -2.3761308, 36.9032021 ], [ -2.3765244, 36.9031952 ], [ -2.3770814, 36.903126 ], [ -2.3773104, 36.9030821 ], [ -2.3776916, 36.9029556 ], [ -2.3780013, 36.9029234 ], [ -2.3784029, 36.9028782 ], [ -2.378595, 36.9028071 ], [ -2.378867, 36.9026643 ], [ -2.3791277, 36.9024381 ], [ -2.3794002, 36.9022322 ], [ -2.3796155, 36.9020597 ], [ -2.379865, 36.9019259 ], [ -2.3802044, 36.9017744 ], [ -2.3804981, 36.9017128 ], [ -2.3807922, 36.9016062 ], [ -2.3810866, 36.9014657 ], [ -2.3813578, 36.9014131 ], [ -2.3815722, 36.9013601 ], [ -2.3819903, 36.9012721 ], [ -2.3822614, 36.9012285 ], [ -2.3825426, 36.901239 ], [ -2.3826779, 36.9012487 ], [ -2.382858, 36.9012856 ], [ -2.3830497, 36.9013407 ], [ -2.3832858, 36.901387 ], [ -2.383489, 36.9014106 ], [ -2.3836919, 36.9013936 ], [ -2.3840084, 36.9012962 ], [ -2.3843134, 36.9012347 ], [ -2.3851359, 36.9012749 ], [ -2.3855194, 36.901304 ], [ -2.3858685, 36.9013418 ], [ -2.386229, 36.9013527 ], [ -2.3865444, 36.9013814 ], [ -2.3869167, 36.9014149 ], [ -2.3872109, 36.9014615 ], [ -2.387397, 36.9014422 ], [ -2.3876615, 36.9014345 ], [ -2.3879381, 36.9014156 ], [ -2.3882262, 36.9014464 ], [ -2.3885565, 36.9014617 ], [ -2.3888395, 36.9014248 ], [ -2.3890378, 36.901365 ], [ -2.3894535, 36.9012229 ], [ -2.3897121, 36.9011769 ], [ -2.3900849, 36.9011337 ], [ -2.3903697, 36.9010518 ], [ -2.3907962, 36.900876 ], [ -2.3911041, 36.900713 ], [ -2.3914179, 36.9005073 ], [ -2.3916838, 36.9003352 ], [ -2.3918533, 36.9001873 ], [ -2.392047, 36.9000035 ], [ -2.3922766, 36.8997928 ], [ -2.3925007, 36.8995731 ], [ -2.3928279, 36.899275 ], [ -2.3931, 36.8990263 ], [ -2.3934086, 36.8987709 ], [ -2.3935478, 36.8986455 ], [ -2.3937835, 36.8984641 ], [ -2.3942125, 36.898144 ], [ -2.3945146, 36.897918 ], [ -2.3948168, 36.897755 ], [ -2.3951427, 36.8975358 ], [ -2.3953847, 36.8973522 ], [ -2.3957525, 36.8971468 ], [ -2.3959636, 36.8970622 ], [ -2.3962225, 36.8969666 ], [ -2.3964215, 36.896909 ], [ -2.3966499, 36.8968584 ], [ -2.3972403, 36.8967104 ], [ -2.3976549, 36.8966156 ], [ -2.3980702, 36.8965321 ], [ -2.3984736, 36.8964237 ], [ -2.3988651, 36.8963287 ], [ -2.3992567, 36.8962271 ], [ -2.3995997, 36.8961319 ], [ -2.399907, 36.896032 ], [ -2.4001963, 36.8959073 ], [ -2.4005214, 36.8957805 ], [ -2.4009014, 36.8956359 ], [ -2.4014609, 36.895481 ], [ -2.4016957, 36.8954145 ], [ -2.4020147, 36.8953531 ], [ -2.4023454, 36.8953119 ], [ -2.4027006, 36.8952844 ], [ -2.403043, 36.8952658 ], [ -2.4031987, 36.8952711 ], [ -2.4035656, 36.895273 ], [ -2.4038896, 36.8952791 ], [ -2.4042201, 36.8952673 ], [ -2.4050437, 36.8952601 ], [ -2.4052958, 36.8952276 ], [ -2.4054766, 36.8951609 ], [ -2.4056572, 36.8951167 ], [ -2.4058079, 36.8950363 ], [ -2.4059709, 36.8950079 ], [ -2.4062166, 36.8950677 ], [ -2.4063546, 36.8951022 ], [ -2.4066661, 36.8951871 ], [ -2.4068644, 36.8952039 ], [ -2.4071597, 36.8952099 ], [ -2.4074302, 36.8952473 ], [ -2.4075993, 36.8952391 ], [ -2.4077799, 36.8951949 ], [ -2.4081212, 36.8950659 ], [ -2.4082964, 36.8948978 ], [ -2.4083224, 36.8946275 ], [ -2.4083367, 36.8943999 ], [ -2.4083439, 36.8941972 ], [ -2.4083693, 36.8939945 ], [ -2.4083533, 36.8938073 ], [ -2.4083601, 36.8936473 ], [ -2.4083375, 36.8934872 ], [ -2.4084044, 36.8933523 ], [ -2.4085193, 36.8932853 ], [ -2.4087362, 36.8931715 ], [ -2.4089415, 36.8931139 ], [ -2.40914, 36.8930292 ], [ -2.4093741, 36.893134 ], [ -2.4097322, 36.8934536 ], [ -2.4099115, 36.8936709 ], [ -2.4101028, 36.8937079 ], [ -2.4104179, 36.8937725 ], [ -2.4107217, 36.8938574 ], [ -2.4109242, 36.8938765 ], [ -2.4111272, 36.8939406 ], [ -2.4113971, 36.8939509 ], [ -2.4115103, 36.8939244 ], [ -2.4116919, 36.8937563 ], [ -2.4121006, 36.8934248 ], [ -2.4124968, 36.8931631 ], [ -2.412939, 36.8928498 ], [ -2.4133469, 36.8926152 ], [ -2.413879, 36.892291 ], [ -2.4144003, 36.8919961 ], [ -2.4147286, 36.8918107 ], [ -2.4151932, 36.8915065 ], [ -2.4155668, 36.8912717 ], [ -2.4158164, 36.8910926 ], [ -2.4160658, 36.8908572 ], [ -2.4162712, 36.8905968 ], [ -2.416454, 36.8902619 ], [ -2.4165463, 36.8899379 ], [ -2.4166174, 36.8895483 ], [ -2.4167672, 36.8891186 ], [ -2.4168608, 36.888612 ], [ -2.4170445, 36.8882591 ], [ -2.4171579, 36.8880974 ], [ -2.4172825, 36.8880349 ], [ -2.417531, 36.8880091 ], [ -2.4180494, 36.8880026 ], [ -2.4184101, 36.8879863 ], [ -2.4187264, 36.8879879 ], [ -2.4190981, 36.8879897 ], [ -2.4195149, 36.8880639 ], [ -2.4197055, 36.888173 ], [ -2.4199067, 36.8883723 ], [ -2.4200857, 36.8885377 ], [ -2.4203099, 36.8887641 ], [ -2.4203878, 36.8888547 ], [ -2.4204784, 36.8888371 ], [ -2.4206139, 36.8888197 ], [ -2.421008, 36.8888216 ], [ -2.4213231, 36.8888953 ], [ -2.4216045, 36.88898 ], [ -2.4221225, 36.8891087 ], [ -2.422516, 36.8892008 ], [ -2.422842, 36.8893241 ], [ -2.4230723, 36.8893838 ], [ -2.4230729, 36.8893638 ], [ -2.4230949, 36.8887034 ], [ -2.4230766, 36.8879708 ], [ -2.4232966, 36.8879833 ], [ -2.4234987, 36.8880064 ], [ -2.4236501, 36.8880589 ], [ -2.4238243, 36.8881299 ], [ -2.423805, 36.8882517 ], [ -2.4237892, 36.8885139 ], [ -2.4238441, 36.8885585 ], [ -2.4245156, 36.888547 ], [ -2.4245346, 36.8884621 ], [ -2.4251622, 36.8887939 ], [ -2.425136, 36.8886054 ], [ -2.4252011, 36.888517 ], [ -2.4252707, 36.8884324 ], [ -2.425308, 36.8883587 ], [ -2.4255123, 36.8881011 ], [ -2.4255905, 36.8880978 ], [ -2.42594, 36.8880958 ], [ -2.4261194, 36.8880893 ], [ -2.4261061, 36.8880227 ], [ -2.4260613, 36.8878748 ], [ -2.4260257, 36.8877121 ], [ -2.4259952, 36.8876992 ], [ -2.4258692, 36.8875329 ], [ -2.4258103, 36.887453 ], [ -2.4258771, 36.8873578 ], [ -2.4259239, 36.887289 ], [ -2.4258913, 36.8872358 ], [ -2.4258197, 36.8870815 ], [ -2.4257293, 36.8868104 ], [ -2.4261858, 36.8867277 ], [ -2.427259, 36.886356 ], [ -2.42737, 36.8865317 ], [ -2.4275407, 36.8867052 ], [ -2.4275408, 36.8866898 ], [ -2.4277163, 36.8865712 ], [ -2.4280303, 36.8864218 ], [ -2.4284326, 36.8861713 ], [ -2.429726, 36.8855961 ], [ -2.4301903, 36.8854158 ], [ -2.4309593, 36.8852164 ], [ -2.4309391, 36.885176 ], [ -2.4286643, 36.8787107 ], [ -2.4256955, 36.866094 ], [ -2.4253514, 36.8660995 ], [ -2.4209492, 36.8661701 ], [ -2.4207913, 36.8662351 ], [ -2.4170893, 36.8677582 ], [ -2.4146917, 36.8687446 ], [ -2.4001517, 36.8749763 ], [ -2.4001185, 36.8749905 ], [ -2.3887641, 36.879855 ], [ -2.3836009, 36.8834239 ], [ -2.3706397, 36.8923805 ], [ -2.3690235, 36.9019273 ], [ -2.3688509, 36.903154 ] ] ] } }
]
}
