{
"type": "FeatureCollection",
"name": "05043",
"features": [
{ "type": "Feature", "properties": { "CCAA": "07 - Castilla y León", "PROVINCIA": "05 - Ávila", "MUNICIPIO": "05043 - Cabezas del Pozo", "COD_MUNICIPIO": "05043", "DISTRITO": "01", "SECCION": "0504301001", "V1_H": 75.48, "V1_M": 82.31, "V2_H": 75.36985678000001, "V2_M": 82.56533706, "V3_H": 75.8600571, "V3_M": 82.01450712 }, "geometry": { "type": "Polygon", "coordinates": [ [ [ -4.9438067, 41.0244416 ], [ -4.9455431, 41.0244393 ], [ -4.9497591, 41.0226116 ], [ -4.9544803, 41.0246033 ], [ -4.9569809, 41.022291 ], [ -4.9595738, 41.019887 ], [ -4.9666555, 41.0180639 ], [ -4.9733832, 41.0175436 ], [ -4.9741903, 41.016692 ], [ -4.98007, 41.0160597 ], [ -4.9826615, 41.0152315 ], [ -4.9865864, 41.015245 ], [ -4.9857035, 41.0135668 ], [ -4.9884685, 41.007439 ], [ -4.9894384, 41.0060802 ], [ -4.9953281, 41.001871 ], [ -4.9961431, 41.0012983 ], [ -4.9964789, 41.0002116 ], [ -4.9965248, 41.0001568 ], [ -4.9970845, 40.9993995 ], [ -4.9973923, 40.9985654 ], [ -4.9982895, 40.9975681 ], [ -4.9996177, 40.996275 ], [ -4.9969538, 40.9958528 ], [ -4.9952153, 40.9953695 ], [ -4.9942361, 40.9932516 ], [ -4.9951395, 40.992065 ], [ -4.9960177, 40.9888612 ], [ -4.9968728, 40.987261 ], [ -5.0005116, 40.9845497 ], [ -5.0001156, 40.9812778 ], [ -4.9947736, 40.9791365 ], [ -4.9930566, 40.9773737 ], [ -4.9914287, 40.9777801 ], [ -4.9872266, 40.9791498 ], [ -4.9865058, 40.9792883 ], [ -4.9852058, 40.9791396 ], [ -4.9830887, 40.980284 ], [ -4.9809438, 40.9808973 ], [ -4.9787462, 40.9821331 ], [ -4.9763755, 40.9839483 ], [ -4.9721327, 40.9847685 ], [ -4.9702393, 40.9862511 ], [ -4.967424, 40.9875153 ], [ -4.9660942, 40.9879703 ], [ -4.9615064, 40.9887961 ], [ -4.9574594, 40.9894234 ], [ -4.9548204, 40.9910355 ], [ -4.9514054, 40.9921382 ], [ -4.9497478, 40.9927698 ], [ -4.9488099, 40.9928127 ], [ -4.9468398, 40.9929271 ], [ -4.9461258, 40.9920924 ], [ -4.9431655, 40.9920883 ], [ -4.9429722, 40.9919835 ], [ -4.942128, 40.9915743 ], [ -4.939063, 40.9924546 ], [ -4.9367918, 40.9924388 ], [ -4.9348026, 40.9918957 ], [ -4.933636, 40.9914379 ], [ -4.9318387, 40.9929903 ], [ -4.9324307, 40.994944 ], [ -4.93144, 40.9976629 ], [ -4.9302285, 40.9981066 ], [ -4.9309909, 41.0002015 ], [ -4.9310957, 41.0013438 ], [ -4.9327539, 41.0072339 ], [ -4.9337091, 41.0081817 ], [ -4.9380816, 41.012531 ], [ -4.9396425, 41.0150719 ], [ -4.9417462, 41.0190808 ], [ -4.9414551, 41.0225356 ], [ -4.9438067, 41.0244416 ] ] ] } }
]
}
