{
"type": "FeatureCollection",
"name": "05086",
"features": [
{ "type": "Feature", "properties": { "CCAA": "07 - Castilla y León", "PROVINCIA": "05 - Ávila", "MUNICIPIO": "05086 - Gimialcón", "COD_MUNICIPIO": "05086", "DISTRITO": "01", "SECCION": "0508601001", "V1_H": 75.48, "V1_M": 82.31, "V2_H": 75.36985678000001, "V2_M": 82.56533706, "V3_H": 75.8600571, "V3_M": 82.01450712 }, "geometry": { "type": "Polygon", "coordinates": [ [ [ -5.115527, 40.902293 ], [ -5.1163052, 40.9021256 ], [ -5.1170553, 40.9018235 ], [ -5.1182491, 40.9016575 ], [ -5.1215534, 40.9010382 ], [ -5.123224, 40.9024217 ], [ -5.1239351, 40.901643 ], [ -5.1255619, 40.9012797 ], [ -5.1271289, 40.9001699 ], [ -5.1277924, 40.9008692 ], [ -5.1300542, 40.9003231 ], [ -5.130229, 40.8994821 ], [ -5.1324925, 40.8982513 ], [ -5.1350484, 40.8965196 ], [ -5.1339651, 40.8953146 ], [ -5.136501, 40.8940696 ], [ -5.1388519, 40.8937198 ], [ -5.1396399, 40.8920208 ], [ -5.1369406, 40.891134 ], [ -5.1375031, 40.8909074 ], [ -5.1377123, 40.8907684 ], [ -5.1386433, 40.890562 ], [ -5.1390958, 40.8902384 ], [ -5.1394974, 40.8898076 ], [ -5.1398934, 40.8880978 ], [ -5.1401612, 40.8875704 ], [ -5.1412099, 40.8869653 ], [ -5.1419253, 40.8863306 ], [ -5.142205, 40.8861722 ], [ -5.1427056, 40.8866043 ], [ -5.1441807, 40.8859734 ], [ -5.1441454, 40.8856137 ], [ -5.145418, 40.8849596 ], [ -5.1451136, 40.884722 ], [ -5.1450363, 40.8845343 ], [ -5.1459177, 40.8842656 ], [ -5.1455039, 40.8832105 ], [ -5.1476676, 40.8822244 ], [ -5.1494273, 40.8815881 ], [ -5.1499909, 40.8795689 ], [ -5.1493172, 40.8792842 ], [ -5.1496344, 40.8788189 ], [ -5.149229, 40.8783941 ], [ -5.1496105, 40.8780807 ], [ -5.1490161, 40.8773171 ], [ -5.1501115, 40.8766932 ], [ -5.1507224, 40.8765017 ], [ -5.1515612, 40.8763869 ], [ -5.1520312, 40.8762431 ], [ -5.1525391, 40.8739727 ], [ -5.1576496, 40.8709227 ], [ -5.1571961, 40.8701115 ], [ -5.1576363, 40.8701483 ], [ -5.1638085, 40.8683842 ], [ -5.1626213, 40.8680011 ], [ -5.1625868, 40.8676685 ], [ -5.1628135, 40.8662501 ], [ -5.1630031, 40.8658772 ], [ -5.1633702, 40.865492 ], [ -5.1620095, 40.8663372 ], [ -5.156262, 40.8625355 ], [ -5.1540682, 40.8629368 ], [ -5.1541451, 40.8620166 ], [ -5.1538581, 40.8612113 ], [ -5.1512972, 40.8612681 ], [ -5.1511011, 40.8610736 ], [ -5.1506075, 40.860119 ], [ -5.1504128, 40.8599694 ], [ -5.1493263, 40.8597556 ], [ -5.1465869, 40.8572214 ], [ -5.1464801, 40.8568541 ], [ -5.1466057, 40.855969 ], [ -5.146052, 40.8557181 ], [ -5.1465807, 40.8548255 ], [ -5.1443211, 40.8550207 ], [ -5.1430712, 40.8541522 ], [ -5.1426911, 40.8537719 ], [ -5.1418896, 40.8531923 ], [ -5.1407655, 40.8529159 ], [ -5.1403769, 40.8530041 ], [ -5.1398746, 40.8532477 ], [ -5.1384094, 40.85232 ], [ -5.1376064, 40.8516954 ], [ -5.1362433, 40.8502524 ], [ -5.1357558, 40.8494778 ], [ -5.1352206, 40.8494337 ], [ -5.1337545, 40.8495869 ], [ -5.1318718, 40.8500631 ], [ -5.1304402, 40.850549 ], [ -5.1292488, 40.8507601 ], [ -5.1282058, 40.8507884 ], [ -5.1270275, 40.850666 ], [ -5.1254632, 40.8503435 ], [ -5.1241691, 40.8495657 ], [ -5.1240817, 40.8483153 ], [ -5.1222878, 40.8471143 ], [ -5.1210097, 40.8475791 ], [ -5.1212477, 40.8468631 ], [ -5.1216542, 40.8462161 ], [ -5.121704, 40.845918 ], [ -5.1214945, 40.8456696 ], [ -5.1210167, 40.8459396 ], [ -5.1205686, 40.8460199 ], [ -5.1188333, 40.846286 ], [ -5.1180098, 40.8464993 ], [ -5.1176171, 40.8464615 ], [ -5.1173101, 40.8465032 ], [ -5.1169475, 40.8466629 ], [ -5.1163011, 40.8472243 ], [ -5.1154674, 40.8474917 ], [ -5.1152724, 40.8477025 ], [ -5.1150294, 40.8482654 ], [ -5.1141432, 40.8480025 ], [ -5.1141562, 40.8472906 ], [ -5.1139526, 40.8464837 ], [ -5.1122526, 40.8452448 ], [ -5.1119232, 40.8438366 ], [ -5.1123345, 40.8433426 ], [ -5.1128211, 40.8426041 ], [ -5.1122786, 40.8419565 ], [ -5.1118629, 40.8419371 ], [ -5.1113586, 40.8421175 ], [ -5.109863, 40.8428294 ], [ -5.107971, 40.8433865 ], [ -5.1068737, 40.8435687 ], [ -5.1035884, 40.8439529 ], [ -5.102581, 40.8439803 ], [ -5.1011649, 40.8438349 ], [ -5.1012246, 40.8442212 ], [ -5.1028228, 40.8467502 ], [ -5.1025683, 40.8469531 ], [ -5.1023654, 40.84729 ], [ -5.1020788, 40.8483581 ], [ -5.1020959, 40.8488983 ], [ -5.1022313, 40.8494273 ], [ -5.1033264, 40.8510467 ], [ -5.1033656, 40.8519107 ], [ -5.1041182, 40.8539507 ], [ -5.1033738, 40.8551713 ], [ -5.1030519, 40.8558708 ], [ -5.102883, 40.8565314 ], [ -5.1022452, 40.8573718 ], [ -5.1049356, 40.8591603 ], [ -5.108536, 40.8615805 ], [ -5.1070021, 40.8625994 ], [ -5.1048093, 40.8675397 ], [ -5.1070137, 40.8685803 ], [ -5.1072188, 40.8705582 ], [ -5.1109619, 40.8722192 ], [ -5.1102527, 40.8752948 ], [ -5.1113587, 40.875743 ], [ -5.1108083, 40.8763475 ], [ -5.1103036, 40.8768972 ], [ -5.1094495, 40.8825155 ], [ -5.1124147, 40.882083 ], [ -5.1138949, 40.8853346 ], [ -5.1141288, 40.888582 ], [ -5.1095661, 40.890296 ], [ -5.1106732, 40.8915188 ], [ -5.1091057, 40.8926194 ], [ -5.1097718, 40.8934089 ], [ -5.1082123, 40.8947615 ], [ -5.1086843, 40.8961671 ], [ -5.1109721, 40.8964405 ], [ -5.1118668, 40.8973248 ], [ -5.1137741, 40.8986951 ], [ -5.1162872, 40.9011891 ], [ -5.1163473, 40.9015843 ], [ -5.115527, 40.902293 ] ] ] } }
]
}
