{
"type": "FeatureCollection",
"name": "05131",
"features": [
{ "type": "Feature", "properties": { "CCAA": "07 - Castilla y León", "PROVINCIA": "05 - Ávila", "MUNICIPIO": "05131 - Mirueña de los Infanzones", "COD_MUNICIPIO": "05131", "DISTRITO": "01", "SECCION": "0513101001", "V1_H": 79.33, "V1_M": 85.14, "V2_H": 79.29974376, "V2_M": 85.20981541, "V3_H": 79.50065775, "V3_M": 85.33298389 }, "geometry": { "type": "Polygon", "coordinates": [ [ [ -5.0473051, 40.7571224 ], [ -5.048728, 40.7575565 ], [ -5.0510915, 40.7577577 ], [ -5.0523118, 40.757763 ], [ -5.0538228, 40.757592 ], [ -5.0552342, 40.757648 ], [ -5.0571214, 40.7573801 ], [ -5.0580616, 40.7571381 ], [ -5.0599364, 40.7564741 ], [ -5.0609603, 40.7562577 ], [ -5.0620858, 40.7562646 ], [ -5.063416, 40.7563759 ], [ -5.0656091, 40.7568141 ], [ -5.0689017, 40.7575568 ], [ -5.0697487, 40.7577487 ], [ -5.0706877, 40.7582363 ], [ -5.074123, 40.7589943 ], [ -5.0751094, 40.7590937 ], [ -5.0758057, 40.7590091 ], [ -5.0768983, 40.7587191 ], [ -5.078711, 40.7583442 ], [ -5.0799839, 40.7581411 ], [ -5.0808362, 40.7581168 ], [ -5.0816953, 40.7583174 ], [ -5.0821407, 40.7585436 ], [ -5.0827374, 40.7590642 ], [ -5.0829104, 40.7592954 ], [ -5.0831477, 40.7604441 ], [ -5.081942, 40.7631862 ], [ -5.0838657, 40.7648449 ], [ -5.0892847, 40.7646207 ], [ -5.0910689, 40.7637147 ], [ -5.0916712, 40.7629021 ], [ -5.0923498, 40.7622501 ], [ -5.0938157, 40.7621516 ], [ -5.0961388, 40.7610554 ], [ -5.0957718, 40.7618188 ], [ -5.096328, 40.762178 ], [ -5.0992718, 40.7608544 ], [ -5.104975, 40.759138 ], [ -5.1076907, 40.7581066 ], [ -5.1079374, 40.758039 ], [ -5.1087361, 40.7578262 ], [ -5.1128691, 40.757039 ], [ -5.1194043, 40.7558021 ], [ -5.1225605, 40.7537354 ], [ -5.1263049, 40.7522882 ], [ -5.1262265, 40.7513168 ], [ -5.1248637, 40.7501799 ], [ -5.1237203, 40.7492371 ], [ -5.1220076, 40.7475212 ], [ -5.1228044, 40.7461374 ], [ -5.1231563, 40.7452842 ], [ -5.1233097, 40.744894 ], [ -5.1234454, 40.7439456 ], [ -5.1245293, 40.7433942 ], [ -5.1253411, 40.7428568 ], [ -5.1262726, 40.741984 ], [ -5.1272642, 40.7407676 ], [ -5.1285241, 40.7390509 ], [ -5.1290354, 40.7387442 ], [ -5.1297143, 40.7384975 ], [ -5.1334279, 40.7376001 ], [ -5.1358579, 40.7369336 ], [ -5.1377617, 40.7353671 ], [ -5.1392234, 40.7336825 ], [ -5.1396965, 40.7332954 ], [ -5.1404508, 40.732813 ], [ -5.1421096, 40.7321067 ], [ -5.1445685, 40.7312412 ], [ -5.1458731, 40.7309377 ], [ -5.1466039, 40.730834 ], [ -5.145236, 40.729166 ], [ -5.1441316, 40.7279615 ], [ -5.143548, 40.7271166 ], [ -5.1389364, 40.7284183 ], [ -5.1216549, 40.7297193 ], [ -5.1144255, 40.7302663 ], [ -5.1094038, 40.7287279 ], [ -5.1043872, 40.7258469 ], [ -5.0987445, 40.7162122 ], [ -5.0945556, 40.7128744 ], [ -5.0937183, 40.712223 ], [ -5.091716, 40.7125476 ], [ -5.0915031, 40.7129298 ], [ -5.0893714, 40.7166887 ], [ -5.0869763, 40.7161916 ], [ -5.0855979, 40.7160273 ], [ -5.0824209, 40.7151298 ], [ -5.0827586, 40.7134303 ], [ -5.0821087, 40.7130907 ], [ -5.0820608, 40.7130736 ], [ -5.0757518, 40.7123315 ], [ -5.075798, 40.7111506 ], [ -5.0749599, 40.7100848 ], [ -5.0750545, 40.7093174 ], [ -5.075448, 40.7090311 ], [ -5.0757969, 40.7084483 ], [ -5.0755038, 40.707778 ], [ -5.0725903, 40.707344 ], [ -5.0687574, 40.7058904 ], [ -5.0655665, 40.7049027 ], [ -5.068604, 40.7024612 ], [ -5.0674465, 40.701392 ], [ -5.0662602, 40.7020708 ], [ -5.0643655, 40.7005103 ], [ -5.0635153, 40.7001922 ], [ -5.0604734, 40.7024896 ], [ -5.058776, 40.701565 ], [ -5.0556611, 40.7007288 ], [ -5.0548424, 40.7006623 ], [ -5.0541825, 40.7007552 ], [ -5.0535637, 40.7010364 ], [ -5.0534986, 40.7012267 ], [ -5.0537094, 40.7015383 ], [ -5.0562637, 40.7014657 ], [ -5.0565979, 40.7023245 ], [ -5.063302, 40.7051684 ], [ -5.0627994, 40.7061412 ], [ -5.0639455, 40.706454 ], [ -5.0638823, 40.7067074 ], [ -5.0635934, 40.7069377 ], [ -5.0604253, 40.7066881 ], [ -5.0575492, 40.7059287 ], [ -5.0568141, 40.7058878 ], [ -5.0567669, 40.7066633 ], [ -5.0576102, 40.7067564 ], [ -5.0583088, 40.7071493 ], [ -5.0592444, 40.7075469 ], [ -5.0600324, 40.7077671 ], [ -5.0607335, 40.7078536 ], [ -5.061081, 40.7079916 ], [ -5.0609114, 40.7093998 ], [ -5.0547509, 40.7084648 ], [ -5.0519624, 40.7144146 ], [ -5.0513731, 40.7156592 ], [ -5.0515248, 40.7194398 ], [ -5.0514709, 40.7223142 ], [ -5.0512597, 40.724687 ], [ -5.0482308, 40.7351809 ], [ -5.0469744, 40.7366895 ], [ -5.0458754, 40.7371504 ], [ -5.04555, 40.7373543 ], [ -5.0454804, 40.7374006 ], [ -5.0453449, 40.7376192 ], [ -5.0457763, 40.7377827 ], [ -5.0466442, 40.7386681 ], [ -5.0467998, 40.7391067 ], [ -5.046821, 40.7394126 ], [ -5.046319, 40.7400341 ], [ -5.0463963, 40.7402399 ], [ -5.0466034, 40.7404253 ], [ -5.0469389, 40.7405545 ], [ -5.0471459, 40.74074 ], [ -5.047222, 40.7409008 ], [ -5.0466722, 40.7411267 ], [ -5.0465284, 40.7414536 ], [ -5.0465008, 40.7417152 ], [ -5.0466858, 40.7419552 ], [ -5.0469503, 40.7420856 ], [ -5.0471403, 40.7421003 ], [ -5.0485384, 40.7417332 ], [ -5.0487892, 40.7418008 ], [ -5.0488646, 40.7419436 ], [ -5.048928, 40.7424649 ], [ -5.0488382, 40.7426286 ], [ -5.0478754, 40.7432853 ], [ -5.0472891, 40.7442505 ], [ -5.0472514, 40.7445664 ], [ -5.047881, 40.7446273 ], [ -5.0487683, 40.7449809 ], [ -5.0494864, 40.7456077 ], [ -5.0495949, 40.7460562 ], [ -5.0497697, 40.7463503 ], [ -5.050224, 40.7464864 ], [ -5.0506261, 40.7464702 ], [ -5.0516831, 40.7457938 ], [ -5.0524431, 40.7450867 ], [ -5.0528759, 40.7449079 ], [ -5.0531864, 40.7449924 ], [ -5.0535361, 40.7451934 ], [ -5.0537111, 40.7454965 ], [ -5.0537102, 40.7473882 ], [ -5.0531799, 40.750172 ], [ -5.0530776, 40.7506963 ], [ -5.0524125, 40.7541041 ], [ -5.0514861, 40.7544088 ], [ -5.0504845, 40.7549671 ], [ -5.0500801, 40.7552985 ], [ -5.0494494, 40.755589 ], [ -5.0477278, 40.7558448 ], [ -5.0473051, 40.7571224 ] ] ] } }
]
}
