{
"type": "FeatureCollection",
"name": "05167",
"features": [
{ "type": "Feature", "properties": { "CCAA": "07 - Castilla y León", "PROVINCIA": "05 - Ávila", "MUNICIPIO": "05167 - Navarrevisca", "COD_MUNICIPIO": "05167", "DISTRITO": "01", "SECCION": "0516701001", "V1_H": 80.31, "V1_M": 85.98, "V2_H": 80.51251293, "V2_M": 86.22129475, "V3_H": 80.221823, "V3_M": 85.87405604 }, "geometry": { "type": "Polygon", "coordinates": [ [ [ -4.8653979, 40.3921418 ], [ -4.8670931, 40.3916641 ], [ -4.8680827, 40.3912337 ], [ -4.8699857, 40.3906083 ], [ -4.8711145, 40.390527 ], [ -4.8734419, 40.3907595 ], [ -4.8744166, 40.391068 ], [ -4.875392, 40.3909802 ], [ -4.8763849, 40.3906758 ], [ -4.8773005, 40.389706 ], [ -4.8777292, 40.3894468 ], [ -4.8791278, 40.3893249 ], [ -4.8799777, 40.3893832 ], [ -4.8807115, 40.3895064 ], [ -4.8853994, 40.3907363 ], [ -4.8869734, 40.3909899 ], [ -4.8905129, 40.3920131 ], [ -4.8909742, 40.3920776 ], [ -4.8913706, 40.3919269 ], [ -4.8916677, 40.3915978 ], [ -4.8924093, 40.3903155 ], [ -4.8931939, 40.3893027 ], [ -4.8939169, 40.3886152 ], [ -4.8943691, 40.3883555 ], [ -4.8950484, 40.3877949 ], [ -4.8966242, 40.3872736 ], [ -4.8992365, 40.3867442 ], [ -4.9004992, 40.3868225 ], [ -4.9025864, 40.3873107 ], [ -4.9033615, 40.3817848 ], [ -4.9036948, 40.3810677 ], [ -4.9042902, 40.3804633 ], [ -4.9116146, 40.3741176 ], [ -4.9132959, 40.3731799 ], [ -4.9139389, 40.3725927 ], [ -4.9142673, 40.3721279 ], [ -4.9148048, 40.3715604 ], [ -4.9171505, 40.3695487 ], [ -4.9236118, 40.3615139 ], [ -4.9244919, 40.3543647 ], [ -4.9200255, 40.3525742 ], [ -4.9189044, 40.3520703 ], [ -4.9182653, 40.3515404 ], [ -4.9169081, 40.350599 ], [ -4.9152962, 40.3493916 ], [ -4.914548, 40.348332 ], [ -4.9138365, 40.3481546 ], [ -4.9067123, 40.3460292 ], [ -4.9054271, 40.345546 ], [ -4.9030102, 40.343748 ], [ -4.9028546, 40.3436605 ], [ -4.9020546, 40.3432592 ], [ -4.9011162, 40.342545 ], [ -4.9002781, 40.3420453 ], [ -4.8992541, 40.3412153 ], [ -4.8980419, 40.3403884 ], [ -4.8960409, 40.3391421 ], [ -4.8914908, 40.3372438 ], [ -4.8908694, 40.3369116 ], [ -4.8894511, 40.3362862 ], [ -4.8876079, 40.3356226 ], [ -4.8862546, 40.3352123 ], [ -4.879923, 40.3335767 ], [ -4.8798033, 40.3335067 ], [ -4.8797558, 40.3334894 ], [ -4.8781765, 40.3329926 ], [ -4.870383, 40.3299839 ], [ -4.8680007, 40.3293918 ], [ -4.866711, 40.3287191 ], [ -4.8664642, 40.3283086 ], [ -4.8663108, 40.3274373 ], [ -4.8664639, 40.3257322 ], [ -4.865647, 40.324277 ], [ -4.8651101, 40.3240154 ], [ -4.8582655, 40.3237833 ], [ -4.857636, 40.3235772 ], [ -4.8568274, 40.3241307 ], [ -4.8543346, 40.3268012 ], [ -4.8532163, 40.3276569 ], [ -4.8502422, 40.3286594 ], [ -4.8488523, 40.3288669 ], [ -4.8465259, 40.3292143 ], [ -4.8465243, 40.3292143 ], [ -4.8465242, 40.3292143 ], [ -4.8445373, 40.329237 ], [ -4.8438816, 40.3293645 ], [ -4.8427731, 40.3296747 ], [ -4.8412531, 40.3301001 ], [ -4.8394373, 40.3318231 ], [ -4.8388778, 40.3323539 ], [ -4.8382668, 40.3328321 ], [ -4.8373639, 40.3332513 ], [ -4.8368602, 40.3334851 ], [ -4.8368369, 40.3334944 ], [ -4.8348801, 40.335129 ], [ -4.8340291, 40.3358722 ], [ -4.8332188, 40.3363805 ], [ -4.8286259, 40.3376244 ], [ -4.8266583, 40.3379978 ], [ -4.8266578, 40.3379976 ], [ -4.8266566, 40.3379978 ], [ -4.8237258, 40.3365763 ], [ -4.8223939, 40.3359302 ], [ -4.8221597, 40.3358166 ], [ -4.8191216, 40.3344681 ], [ -4.8176372, 40.333987 ], [ -4.8165417, 40.3335177 ], [ -4.8165057, 40.3334913 ], [ -4.8151129, 40.332912 ], [ -4.8134582, 40.3322238 ], [ -4.8132305, 40.3320743 ], [ -4.8125633, 40.3316544 ], [ -4.812907, 40.3321289 ], [ -4.8139005, 40.3334961 ], [ -4.8139185, 40.3335229 ], [ -4.8156757, 40.3362789 ], [ -4.8164368, 40.3370057 ], [ -4.818478, 40.3393699 ], [ -4.8197159, 40.3403143 ], [ -4.8215246, 40.341466 ], [ -4.82339, 40.3425356 ], [ -4.8241243, 40.3426952 ], [ -4.8268211, 40.3435986 ], [ -4.8295196, 40.3449972 ], [ -4.831281, 40.3461314 ], [ -4.8327029, 40.3473341 ], [ -4.8347887, 40.3491387 ], [ -4.8340966, 40.3522757 ], [ -4.8342072, 40.3533189 ], [ -4.8342042, 40.3549405 ], [ -4.8344755, 40.3571343 ], [ -4.835999, 40.3603351 ], [ -4.8357431, 40.3621859 ], [ -4.8357314, 40.36306 ], [ -4.8371769, 40.367289 ], [ -4.8393232, 40.3682548 ], [ -4.8409225, 40.3694635 ], [ -4.8418209, 40.3704492 ], [ -4.8423467, 40.3707291 ], [ -4.8426441, 40.3711072 ], [ -4.844018, 40.3728464 ], [ -4.8451969, 40.3741789 ], [ -4.8473293, 40.3776491 ], [ -4.8477285, 40.3780302 ], [ -4.8499824, 40.3794715 ], [ -4.8516075, 40.3807427 ], [ -4.854324, 40.3835818 ], [ -4.8550469, 40.3843314 ], [ -4.8553788, 40.3846729 ], [ -4.8613831, 40.3879636 ], [ -4.8621095, 40.3887627 ], [ -4.862914, 40.3896505 ], [ -4.8653979, 40.3921418 ] ] ] } }
]
}
