{
"type": "FeatureCollection",
"name": "05193",
"features": [
{ "type": "Feature", "properties": { "CCAA": "07 - Castilla y León", "PROVINCIA": "05 - Ávila", "MUNICIPIO": "05193 - Rasueros", "COD_MUNICIPIO": "05193", "DISTRITO": "01", "SECCION": "0519301001", "V1_H": 79.94, "V1_M": 85.93, "V2_H": 80.18978947, "V2_M": 86.02067046000001, "V3_H": 79.89390484, "V3_M": 85.97042077 }, "geometry": { "type": "Polygon", "coordinates": [ [ [ -5.0633617, 41.0643554 ], [ -5.0686733, 41.0648547 ], [ -5.067418, 41.0620129 ], [ -5.0701183, 41.0608385 ], [ -5.0711247, 41.0583974 ], [ -5.0732789, 41.0568905 ], [ -5.0739363, 41.057365 ], [ -5.077199, 41.0555408 ], [ -5.0797011, 41.0537573 ], [ -5.0802527, 41.0527565 ], [ -5.0807923, 41.0517559 ], [ -5.0829135, 41.0495918 ], [ -5.0823635, 41.0479985 ], [ -5.0806598, 41.0460386 ], [ -5.0794494, 41.0438717 ], [ -5.0785978, 41.041383 ], [ -5.0835831, 41.0414011 ], [ -5.0838807, 41.0414047 ], [ -5.0879555, 41.0408445 ], [ -5.0883157, 41.0394418 ], [ -5.0896556, 41.0400571 ], [ -5.0934088, 41.0409888 ], [ -5.0968133, 41.0380535 ], [ -5.0996489, 41.0378127 ], [ -5.1002622, 41.0365225 ], [ -5.1024067, 41.0351323 ], [ -5.1051358, 41.0352897 ], [ -5.1061964, 41.0323609 ], [ -5.1066048, 41.029498 ], [ -5.1079271, 41.0269518 ], [ -5.1047301, 41.0259113 ], [ -5.1037499, 41.0265057 ], [ -5.104018, 41.0252128 ], [ -5.1053463, 41.0247201 ], [ -5.1045596, 41.0235455 ], [ -5.1052608, 41.0231544 ], [ -5.1046043, 41.022707 ], [ -5.1037936, 41.023019 ], [ -5.1019945, 41.0217998 ], [ -5.1035187, 41.0184933 ], [ -5.1028142, 41.0180288 ], [ -5.1030142, 41.0172145 ], [ -5.1026813, 41.0168422 ], [ -5.1013067, 41.0166241 ], [ -5.1008668, 41.0170014 ], [ -5.100125, 41.0168618 ], [ -5.1002445, 41.0161301 ], [ -5.1009836, 41.0143151 ], [ -5.099633, 41.0144748 ], [ -5.0995026, 41.012991 ], [ -5.0984375, 41.0127762 ], [ -5.0956543, 41.0101336 ], [ -5.0963457, 41.0094364 ], [ -5.0930806, 41.0080907 ], [ -5.092934, 41.0068413 ], [ -5.0924417, 41.0070664 ], [ -5.0920213, 41.0069299 ], [ -5.0921784, 41.0047562 ], [ -5.0930013, 41.0040838 ], [ -5.0929557, 41.003391 ], [ -5.0911461, 41.0025682 ], [ -5.0915404, 41.0018764 ], [ -5.0926973, 41.0019906 ], [ -5.0909177, 41.0006087 ], [ -5.0909409, 41.0002119 ], [ -5.0909751, 41.0001663 ], [ -5.0920035, 40.9984722 ], [ -5.0913183, 40.9971065 ], [ -5.0898409, 40.9966289 ], [ -5.091575, 40.9943186 ], [ -5.0949436, 40.992573 ], [ -5.0996391, 40.9895691 ], [ -5.0993536, 40.9873134 ], [ -5.096395, 40.9847281 ], [ -5.0973238, 40.9821531 ], [ -5.0975221, 40.9801588 ], [ -5.0964707, 40.9784845 ], [ -5.097403, 40.9779001 ], [ -5.0980686, 40.9771494 ], [ -5.0960746, 40.9768614 ], [ -5.0962793, 40.9761911 ], [ -5.0952578, 40.975462 ], [ -5.0950623, 40.9764204 ], [ -5.0935503, 40.9774657 ], [ -5.0920886, 40.9770959 ], [ -5.0916185, 40.9768882 ], [ -5.0912502, 40.9765166 ], [ -5.0906403, 40.975645 ], [ -5.0882636, 40.9760303 ], [ -5.0873256, 40.9771913 ], [ -5.083667, 40.9772575 ], [ -5.0831586, 40.9777171 ], [ -5.0826501, 40.9781766 ], [ -5.08145, 40.9789459 ], [ -5.079964, 40.9789366 ], [ -5.0778601, 40.9789296 ], [ -5.0774387, 40.9783787 ], [ -5.0758873, 40.9789381 ], [ -5.0743632, 40.9780918 ], [ -5.0703169, 40.9771647 ], [ -5.0702798, 40.9759764 ], [ -5.0645584, 40.9758269 ], [ -5.050634, 40.9817412 ], [ -5.052854, 40.9831879 ], [ -5.0553326, 40.9837742 ], [ -5.0554681, 40.9839249 ], [ -5.0553429, 40.9852513 ], [ -5.0578145, 40.9879004 ], [ -5.0610753, 40.9922198 ], [ -5.062595, 40.9955884 ], [ -5.0633133, 40.9965124 ], [ -5.0606213, 40.9997852 ], [ -5.060217, 41.0001618 ], [ -5.0601708, 41.0002076 ], [ -5.0558552, 41.0025095 ], [ -5.0503969, 41.0047865 ], [ -5.0485664, 41.0063414 ], [ -5.0471341, 41.0069343 ], [ -5.0453782, 41.0078302 ], [ -5.043645, 41.007924 ], [ -5.0428302, 41.0081095 ], [ -5.0433512, 41.0107305 ], [ -5.0427564, 41.011876 ], [ -5.0434673, 41.0133317 ], [ -5.0384808, 41.0178426 ], [ -5.0393253, 41.0178457 ], [ -5.0400104, 41.0180767 ], [ -5.0381972, 41.0194419 ], [ -5.0394592, 41.0217976 ], [ -5.0380245, 41.0223274 ], [ -5.036344, 41.022213 ], [ -5.0357555, 41.0231872 ], [ -5.0354156, 41.0237336 ], [ -5.0313325, 41.0271024 ], [ -5.0288565, 41.0281999 ], [ -5.0270959, 41.0285821 ], [ -5.0283969, 41.0302796 ], [ -5.0287007, 41.0308779 ], [ -5.0267866, 41.0312988 ], [ -5.0251454, 41.0320843 ], [ -5.0243178, 41.0334139 ], [ -5.0235834, 41.0362372 ], [ -5.0218653, 41.0380148 ], [ -5.023367, 41.0412131 ], [ -5.023367, 41.0412131 ], [ -5.0225229, 41.0423989 ], [ -5.023387, 41.0441942 ], [ -5.0264259, 41.0470772 ], [ -5.0263606, 41.0484385 ], [ -5.027609, 41.0491822 ], [ -5.0297559, 41.0481896 ], [ -5.0347839, 41.0515057 ], [ -5.0364953, 41.0514394 ], [ -5.0364953, 41.0514395 ], [ -5.0372694, 41.0557042 ], [ -5.0417586, 41.0561923 ], [ -5.0417587, 41.0561923 ], [ -5.0423798, 41.057037 ], [ -5.0431517, 41.0581402 ], [ -5.0457722, 41.0605256 ], [ -5.0475487, 41.0602509 ], [ -5.0475488, 41.0602509 ], [ -5.050702, 41.0608124 ], [ -5.050901, 41.0608478 ], [ -5.0514905, 41.0609527 ], [ -5.0610714, 41.062658 ], [ -5.0633617, 41.0643554 ] ] ] } }
]
}
