{
"type": "FeatureCollection",
"name": "05206",
"features": [
{ "type": "Feature", "properties": { "CCAA": "07 - Castilla y León", "PROVINCIA": "05 - Ávila", "MUNICIPIO": "05206 - San Esteban de los Patos", "COD_MUNICIPIO": "05206", "DISTRITO": "01", "SECCION": "0520601001", "V1_H": 75.48, "V1_M": 82.31, "V2_H": 75.36985678000001, "V2_M": 82.56533706, "V3_H": 75.8600571, "V3_M": 82.01450712 }, "geometry": { "type": "Polygon", "coordinates": [ [ [ -4.6333872, 40.7618952 ], [ -4.633531, 40.7614788 ], [ -4.6361136, 40.7624421 ], [ -4.637549, 40.7620344 ], [ -4.6374055, 40.761496 ], [ -4.6386391, 40.7610731 ], [ -4.6386688, 40.7608384 ], [ -4.6385009, 40.7602733 ], [ -4.6378887, 40.7570481 ], [ -4.6377397, 40.7562846 ], [ -4.6388297, 40.7558097 ], [ -4.6394109, 40.75536 ], [ -4.6396839, 40.7539329 ], [ -4.6400089, 40.7531806 ], [ -4.6406182, 40.7524242 ], [ -4.6424028, 40.7508135 ], [ -4.641167, 40.7501735 ], [ -4.6404113, 40.7497879 ], [ -4.6415514, 40.7475016 ], [ -4.6417903, 40.7471018 ], [ -4.6420746, 40.7466203 ], [ -4.6423653, 40.7454362 ], [ -4.6429252, 40.7450859 ], [ -4.6436636, 40.7447691 ], [ -4.6443994, 40.7448307 ], [ -4.6449795, 40.7438586 ], [ -4.6455447, 40.7422831 ], [ -4.6461114, 40.7417255 ], [ -4.646179, 40.7406256 ], [ -4.6471526, 40.7402424 ], [ -4.6481183, 40.7400214 ], [ -4.6486504, 40.7399868 ], [ -4.6501284, 40.7389297 ], [ -4.6520502, 40.7366682 ], [ -4.6524436, 40.7362933 ], [ -4.6520199, 40.735921 ], [ -4.6520783, 40.7349293 ], [ -4.6518551, 40.7345271 ], [ -4.651328, 40.7342824 ], [ -4.6503906, 40.7342057 ], [ -4.6494456, 40.7343004 ], [ -4.6484499, 40.7337831 ], [ -4.6478794, 40.7327373 ], [ -4.6464191, 40.7316231 ], [ -4.6467747, 40.7311586 ], [ -4.6474953, 40.7306078 ], [ -4.6477694, 40.7301986 ], [ -4.6480029, 40.7295827 ], [ -4.6482189, 40.7292193 ], [ -4.6487822, 40.7290131 ], [ -4.6496434, 40.7288836 ], [ -4.6505235, 40.7280784 ], [ -4.6506562, 40.7272207 ], [ -4.6506735, 40.7264818 ], [ -4.6517601, 40.7254123 ], [ -4.6507982, 40.7252999 ], [ -4.64792, 40.7233412 ], [ -4.6491933, 40.7211971 ], [ -4.6470303, 40.7203903 ], [ -4.6474312, 40.7198441 ], [ -4.6474675, 40.7193931 ], [ -4.6471596, 40.7189111 ], [ -4.6459218, 40.7176857 ], [ -4.645355, 40.7172613 ], [ -4.6447958, 40.7171522 ], [ -4.6415781, 40.7177385 ], [ -4.6405261, 40.7178075 ], [ -4.6374228, 40.7177525 ], [ -4.6362945, 40.7176063 ], [ -4.6354007, 40.7173668 ], [ -4.6348295, 40.718699 ], [ -4.6373, 40.7199882 ], [ -4.6359231, 40.7212959 ], [ -4.6361873, 40.7219317 ], [ -4.6356478, 40.7231104 ], [ -4.6343381, 40.7233001 ], [ -4.6339005, 40.7238018 ], [ -4.6330434, 40.725066 ], [ -4.6326375, 40.7259005 ], [ -4.6322695, 40.7273201 ], [ -4.6314658, 40.7288358 ], [ -4.6286487, 40.728398 ], [ -4.6276634, 40.7282949 ], [ -4.6259051, 40.7300042 ], [ -4.6241541, 40.7290919 ], [ -4.6233225, 40.7289775 ], [ -4.6225471, 40.7287452 ], [ -4.6212256, 40.7299168 ], [ -4.6198991, 40.7299084 ], [ -4.6188909, 40.7308144 ], [ -4.6175224, 40.7305363 ], [ -4.6160793, 40.7306015 ], [ -4.6133347, 40.7341441 ], [ -4.613197, 40.7343262 ], [ -4.6135169, 40.7348262 ], [ -4.6141712, 40.7354386 ], [ -4.6150808, 40.7363267 ], [ -4.6149156, 40.736347 ], [ -4.6131695, 40.7366236 ], [ -4.6136842, 40.7393009 ], [ -4.6104298, 40.7398958 ], [ -4.6092935, 40.7379569 ], [ -4.6085153, 40.7385893 ], [ -4.6079982, 40.7392451 ], [ -4.6066095, 40.742075 ], [ -4.6060343, 40.7437675 ], [ -4.6051221, 40.7467168 ], [ -4.6060556, 40.7466227 ], [ -4.6072326, 40.7468045 ], [ -4.6086876, 40.7467302 ], [ -4.6095882, 40.7467447 ], [ -4.61051, 40.7466597 ], [ -4.6112284, 40.7464876 ], [ -4.611705, 40.7461116 ], [ -4.6137444, 40.7457138 ], [ -4.6124885, 40.7466772 ], [ -4.6110565, 40.7482015 ], [ -4.6116538, 40.7484094 ], [ -4.6142467, 40.749346 ], [ -4.6154788, 40.7498422 ], [ -4.6166595, 40.750177 ], [ -4.6172562, 40.7503578 ], [ -4.6178806, 40.7507094 ], [ -4.6187994, 40.7514712 ], [ -4.6214006, 40.7522544 ], [ -4.6217409, 40.75261 ], [ -4.6220812, 40.753452 ], [ -4.6220492, 40.754083 ], [ -4.621849, 40.7546173 ], [ -4.6213379, 40.7555252 ], [ -4.6223781, 40.7554296 ], [ -4.6230237, 40.7556727 ], [ -4.6236401, 40.7561774 ], [ -4.624105, 40.7567835 ], [ -4.6243111, 40.7574652 ], [ -4.624129, 40.7582605 ], [ -4.6241755, 40.7591967 ], [ -4.6236185, 40.7596729 ], [ -4.6231353, 40.7602652 ], [ -4.6231278, 40.760932 ], [ -4.6231153, 40.761878 ], [ -4.6242748, 40.762303 ], [ -4.6279148, 40.7614501 ], [ -4.6296244, 40.7611106 ], [ -4.6323216, 40.7624057 ], [ -4.6333872, 40.7618952 ] ] ] } }
]
}
