{
"type": "FeatureCollection",
"name": "05249",
"features": [
{ "type": "Feature", "properties": { "CCAA": "07 - Castilla y León", "PROVINCIA": "05 - Ávila", "MUNICIPIO": "05249 - Umbrías", "COD_MUNICIPIO": "05249", "DISTRITO": "01", "SECCION": "0524901001", "V1_H": 78.2, "V1_M": 84.44, "V2_H": 78.32882893, "V2_M": 84.51506174, "V3_H": 78.2023938, "V3_M": 84.51669805 }, "geometry": { "type": "Polygon", "coordinates": [ [ [ -5.5543617, 40.3246626 ], [ -5.556395, 40.3277073 ], [ -5.5575199, 40.3291326 ], [ -5.5594442, 40.3320896 ], [ -5.5619671, 40.3334389 ], [ -5.562075, 40.3334906 ], [ -5.5621234, 40.3335256 ], [ -5.5643314, 40.3346385 ], [ -5.5646557, 40.3348115 ], [ -5.5657528, 40.3351836 ], [ -5.566743, 40.3355308 ], [ -5.567224, 40.3357994 ], [ -5.5680425, 40.3362766 ], [ -5.5697113, 40.336825 ], [ -5.5711778, 40.3373149 ], [ -5.5719595, 40.3374416 ], [ -5.5752858, 40.3342149 ], [ -5.5759326, 40.3335789 ], [ -5.5759309, 40.3335339 ], [ -5.5759177, 40.3334982 ], [ -5.5758925, 40.3334537 ], [ -5.5779523, 40.332525 ], [ -5.5868137, 40.3256974 ], [ -5.5869656, 40.3253607 ], [ -5.5873317, 40.3244697 ], [ -5.5884346, 40.323148 ], [ -5.5887213, 40.3229524 ], [ -5.5888933, 40.3228314 ], [ -5.5901175, 40.3209935 ], [ -5.5915967, 40.3187444 ], [ -5.5928864, 40.3176976 ], [ -5.5950556, 40.3159555 ], [ -5.5950666, 40.3159373 ], [ -5.5995295, 40.312333 ], [ -5.5903765, 40.3025309 ], [ -5.5860353, 40.297908 ], [ -5.578267, 40.2922444 ], [ -5.5730476, 40.290478 ], [ -5.569746, 40.2902723 ], [ -5.5690692, 40.2904134 ], [ -5.5668585, 40.291057 ], [ -5.5686841, 40.2970157 ], [ -5.5679691, 40.2995717 ], [ -5.5627506, 40.302507 ], [ -5.5609924, 40.302681 ], [ -5.5607465, 40.3027135 ], [ -5.5607254, 40.302777 ], [ -5.5601371, 40.3046457 ], [ -5.5585277, 40.3096986 ], [ -5.5580005, 40.311629 ], [ -5.5577859, 40.3140478 ], [ -5.5574843, 40.3160362 ], [ -5.5562684, 40.320612 ], [ -5.5557496, 40.3221457 ], [ -5.5554884, 40.32271 ], [ -5.5543617, 40.3246626 ] ] ] } }
]
}
