{
"type": "FeatureCollection",
"name": "06011",
"features": [
{ "type": "Feature", "properties": { "CCAA": "11 - Extremadura", "PROVINCIA": "06 - Badajoz", "MUNICIPIO": "06011 - Almendralejo", "COD_MUNICIPIO": "06011", "DISTRITO": "01", "SECCION": "0601101002", "V1_H": 79.83, "V1_M": 85.66, "V2_H": 79.86201885, "V2_M": 85.75249, "V3_H": 79.86616026, "V3_M": 85.80070523000001 }, "geometry": { "type": "Polygon", "coordinates": [ [ [ -6.4043735, 38.6883408 ], [ -6.4057712, 38.6899463 ], [ -6.4082375, 38.6882596 ], [ -6.4082151, 38.688242 ], [ -6.4083694, 38.6880697 ], [ -6.4085914, 38.6878314 ], [ -6.4088773, 38.6875134 ], [ -6.4090096, 38.6873496 ], [ -6.4097651, 38.6864024 ], [ -6.4097975, 38.6863625 ], [ -6.4107496, 38.6852619 ], [ -6.4111856, 38.6850058 ], [ -6.4112164, 38.6849885 ], [ -6.4114269, 38.6848895 ], [ -6.4116578, 38.684782 ], [ -6.4114753, 38.6847825 ], [ -6.4109068, 38.6847879 ], [ -6.4103186, 38.6848019 ], [ -6.4099169, 38.6848065 ], [ -6.409683, 38.6847968 ], [ -6.4090613, 38.6846839 ], [ -6.4089699, 38.6846684 ], [ -6.4088279, 38.6846427 ], [ -6.4085591, 38.6846052 ], [ -6.4084108, 38.6845929 ], [ -6.4083385, 38.6845868 ], [ -6.408261, 38.6845625 ], [ -6.4080915, 38.6845047 ], [ -6.4078431, 38.6843596 ], [ -6.4077162, 38.6843703 ], [ -6.4076155, 38.6842554 ], [ -6.4074039, 38.6843273 ], [ -6.4072513, 38.6844726 ], [ -6.4071873, 38.6845342 ], [ -6.4071563, 38.6845786 ], [ -6.4070167, 38.6847827 ], [ -6.4067717, 38.6851422 ], [ -6.40649, 38.6855594 ], [ -6.4061316, 38.6860334 ], [ -6.4050747, 38.687429 ], [ -6.4050582, 38.6874467 ], [ -6.4047596, 38.6877959 ], [ -6.4047238, 38.6878356 ], [ -6.4043735, 38.6883408 ] ] ] } },
{ "type": "Feature", "properties": { "CCAA": "11 - Extremadura", "PROVINCIA": "06 - Badajoz", "MUNICIPIO": "06011 - Almendralejo", "COD_MUNICIPIO": "06011", "DISTRITO": "02", "SECCION": "0601102005", "V1_H": 80.06, "V1_M": 86.12, "V2_H": 80.10460866, "V2_M": 86.20761786, "V3_H": 80.17898723, "V3_M": 86.18020212 }, "geometry": { "type": "Polygon", "coordinates": [ [ [ -6.4056721, 38.6818337 ], [ -6.4062168, 38.6820665 ], [ -6.4075454, 38.6826366 ], [ -6.4079525, 38.6828213 ], [ -6.4081292, 38.6828838 ], [ -6.4082914, 38.682946 ], [ -6.4083263, 38.6829332 ], [ -6.4084567, 38.6826478 ], [ -6.4085327, 38.6824919 ], [ -6.4085948, 38.6823446 ], [ -6.4087897, 38.6816191 ], [ -6.408923, 38.6812526 ], [ -6.4089956, 38.6808128 ], [ -6.4090564, 38.6804808 ], [ -6.408637, 38.6804174 ], [ -6.4075898, 38.6800924 ], [ -6.4070512, 38.6798912 ], [ -6.4061242, 38.6795012 ], [ -6.4061123, 38.679492 ], [ -6.404585, 38.6787192 ], [ -6.4041536, 38.6796016 ], [ -6.4039435, 38.6800294 ], [ -6.4038924, 38.6804698 ], [ -6.4038395, 38.6809371 ], [ -6.4056971, 38.6811225 ], [ -6.4059224, 38.6814879 ], [ -6.4056721, 38.6818337 ] ] ] } },
{ "type": "Feature", "properties": { "CCAA": "11 - Extremadura", "PROVINCIA": "06 - Badajoz", "MUNICIPIO": "06011 - Almendralejo", "COD_MUNICIPIO": "06011", "DISTRITO": "02", "SECCION": "0601102006", "V1_H": 79.16, "V1_M": 85.0, "V2_H": 79.432337, "V2_M": 85.16926182, "V3_H": 78.95181978, "V3_M": 84.90024095 }, "geometry": { "type": "Polygon", "coordinates": [ [ [ -6.4099646, 38.6788657 ], [ -6.409971, 38.679046 ], [ -6.4108085, 38.6806232 ], [ -6.4114541, 38.6818448 ], [ -6.411574, 38.6819241 ], [ -6.4117213, 38.6819454 ], [ -6.412013, 38.6819834 ], [ -6.411989, 38.6822306 ], [ -6.412526, 38.6828191 ], [ -6.4125162, 38.6827919 ], [ -6.4136403, 38.6821996 ], [ -6.4146051, 38.6816803 ], [ -6.415276, 38.6812853 ], [ -6.4151681, 38.6811883 ], [ -6.413855, 38.6807268 ], [ -6.4106379, 38.6791779 ], [ -6.4103521, 38.6790454 ], [ -6.4099646, 38.6788657 ] ] ] } },
{ "type": "Feature", "properties": { "CCAA": "11 - Extremadura", "PROVINCIA": "06 - Badajoz", "MUNICIPIO": "06011 - Almendralejo", "COD_MUNICIPIO": "06011", "DISTRITO": "03", "SECCION": "0601103001", "V1_H": 79.33, "V1_M": 85.14, "V2_H": 79.29974376, "V2_M": 85.20981541, "V3_H": 79.50065775, "V3_M": 85.33298389 }, "geometry": { "type": "Polygon", "coordinates": [ [ [ -6.404585, 38.6787192 ], [ -6.4061123, 38.679492 ], [ -6.4061242, 38.6795012 ], [ -6.4070512, 38.6798912 ], [ -6.4075898, 38.6800924 ], [ -6.408637, 38.6804174 ], [ -6.4090564, 38.6804808 ], [ -6.4092942, 38.6798824 ], [ -6.409463, 38.6793681 ], [ -6.4096402, 38.6788303 ], [ -6.4076053, 38.6784074 ], [ -6.4074086, 38.6783665 ], [ -6.4061715, 38.6780546 ], [ -6.4057835, 38.6779489 ], [ -6.4057547, 38.6779569 ], [ -6.4057409, 38.6779611 ], [ -6.4056008, 38.678021 ], [ -6.4055584, 38.6780426 ], [ -6.4053771, 38.6781287 ], [ -6.4051541, 38.6782364 ], [ -6.4050963, 38.6782666 ], [ -6.4048753, 38.6783788 ], [ -6.4048115, 38.6784135 ], [ -6.4047159, 38.6784564 ], [ -6.404593, 38.6785167 ], [ -6.4043875, 38.6786158 ], [ -6.404585, 38.6787192 ] ] ] } },
{ "type": "Feature", "properties": { "CCAA": "11 - Extremadura", "PROVINCIA": "06 - Badajoz", "MUNICIPIO": "06011 - Almendralejo", "COD_MUNICIPIO": "06011", "DISTRITO": "01", "SECCION": "0601101004", "V1_H": 78.2, "V1_M": 84.44, "V2_H": 78.32882893, "V2_M": 84.51506174, "V3_H": 78.2023938, "V3_M": 84.51669805 }, "geometry": { "type": "Polygon", "coordinates": [ [ [ -6.3830484, 38.6915986 ], [ -6.3878565, 38.6969625 ], [ -6.3934733, 38.7045982 ], [ -6.3943995, 38.7061729 ], [ -6.3963702, 38.7107872 ], [ -6.3991217, 38.7103067 ], [ -6.4026115, 38.711025 ], [ -6.405905, 38.711196 ], [ -6.4084054, 38.7110658 ], [ -6.4112747, 38.7105054 ], [ -6.4136912, 38.7096339 ], [ -6.4158582, 38.7086363 ], [ -6.4160488, 38.7086081 ], [ -6.416043, 38.708543 ], [ -6.4194021, 38.7064065 ], [ -6.4289011, 38.6993368 ], [ -6.4287983, 38.699244 ], [ -6.4287764, 38.6992242 ], [ -6.4264291, 38.6970102 ], [ -6.4254199, 38.6960014 ], [ -6.4227599, 38.694339 ], [ -6.4218661, 38.6935985 ], [ -6.4210598, 38.6927608 ], [ -6.4193128, 38.6913122 ], [ -6.4174326, 38.6900904 ], [ -6.4163744, 38.6904274 ], [ -6.4145609, 38.6908467 ], [ -6.4136853, 38.6907598 ], [ -6.4130479, 38.691043 ], [ -6.4118814, 38.6910532 ], [ -6.4115232, 38.6905633 ], [ -6.409972, 38.6896099 ], [ -6.4091914, 38.6890024 ], [ -6.4087, 38.6886222 ], [ -6.4082375, 38.6882596 ], [ -6.4057712, 38.6899463 ], [ -6.4043735, 38.6883408 ], [ -6.4043485, 38.6883769 ], [ -6.4015864, 38.6854229 ], [ -6.3999024, 38.6836831 ], [ -6.3996263, 38.6833931 ], [ -6.3987479, 38.6834051 ], [ -6.3986662, 38.6834213 ], [ -6.3984632, 38.6835114 ], [ -6.3982809, 38.6836245 ], [ -6.3975862, 38.6840415 ], [ -6.3947776, 38.6858124 ], [ -6.3941388, 38.68619 ], [ -6.3941453, 38.6862082 ], [ -6.3919368, 38.6874158 ], [ -6.3869192, 38.6897813 ], [ -6.3830484, 38.6915986 ] ] ] } },
{ "type": "Feature", "properties": { "CCAA": "11 - Extremadura", "PROVINCIA": "06 - Badajoz", "MUNICIPIO": "06011 - Almendralejo", "COD_MUNICIPIO": "06011", "DISTRITO": "02", "SECCION": "0601102001", "V1_H": 80.38, "V1_M": 86.41, "V2_H": 80.21151379, "V2_M": 86.36716419, "V3_H": 80.6951312, "V3_M": 86.59024448 }, "geometry": { "type": "Polygon", "coordinates": [ [ [ -6.4018329, 38.6839603 ], [ -6.4018513, 38.6839652 ], [ -6.4031817, 38.684148 ], [ -6.4040787, 38.6842355 ], [ -6.4046449, 38.6842931 ], [ -6.405111, 38.6843395 ], [ -6.4062921, 38.6844558 ], [ -6.4065899, 38.6844849 ], [ -6.406635, 38.6844319 ], [ -6.4068996, 38.6845053 ], [ -6.4071563, 38.6845786 ], [ -6.4071873, 38.6845342 ], [ -6.4072513, 38.6844726 ], [ -6.4074039, 38.6843273 ], [ -6.4073865, 38.6840521 ], [ -6.407441, 38.6839542 ], [ -6.4075644, 38.6837407 ], [ -6.4077479, 38.683515 ], [ -6.4078734, 38.6834007 ], [ -6.4080221, 38.6833815 ], [ -6.4083287, 38.6830864 ], [ -6.4083486, 38.6830734 ], [ -6.4084763, 38.6829996 ], [ -6.4086799, 38.6829321 ], [ -6.4086437, 38.6828592 ], [ -6.4084921, 38.6829189 ], [ -6.4083536, 38.6829744 ], [ -6.4083263, 38.6829332 ], [ -6.4082914, 38.682946 ], [ -6.4081292, 38.6828838 ], [ -6.4079525, 38.6828213 ], [ -6.4075454, 38.6826366 ], [ -6.4062168, 38.6820665 ], [ -6.4056721, 38.6818337 ], [ -6.4055284, 38.6820333 ], [ -6.4054657, 38.682158 ], [ -6.4054377, 38.6822159 ], [ -6.4053518, 38.6823852 ], [ -6.4051661, 38.682755 ], [ -6.40413, 38.6826193 ], [ -6.4032291, 38.6828381 ], [ -6.402673, 38.6827807 ], [ -6.4027889, 38.6828734 ], [ -6.4032192, 38.6831127 ], [ -6.4032786, 38.683177 ], [ -6.4032953, 38.6833306 ], [ -6.4032117, 38.6833197 ], [ -6.4022541, 38.6832579 ], [ -6.4022137, 38.683302 ], [ -6.4021248, 38.6833361 ], [ -6.4020419, 38.6833252 ], [ -6.4019266, 38.6834533 ], [ -6.4018329, 38.6839603 ] ] ] } },
{ "type": "Feature", "properties": { "CCAA": "11 - Extremadura", "PROVINCIA": "06 - Badajoz", "MUNICIPIO": "06011 - Almendralejo", "COD_MUNICIPIO": "06011", "DISTRITO": "03", "SECCION": "0601103004", "V1_H": 77.6, "V1_M": 83.87, "V2_H": 77.77347434000001, "V2_M": 84.06024086, "V3_H": 77.45781126, "V3_M": 83.80561047 }, "geometry": { "type": "Polygon", "coordinates": [ [ [ -6.4076053, 38.6784074 ], [ -6.4096402, 38.6788303 ], [ -6.4096428, 38.6788225 ], [ -6.4096606, 38.6787688 ], [ -6.4093229, 38.6786892 ], [ -6.4093982, 38.6785152 ], [ -6.4095689, 38.6781046 ], [ -6.4096706, 38.6778546 ], [ -6.409803, 38.6775286 ], [ -6.4101501, 38.6766308 ], [ -6.4104609, 38.6757413 ], [ -6.4106472, 38.6750967 ], [ -6.4108165, 38.6745238 ], [ -6.4109523, 38.6740448 ], [ -6.410995, 38.6738971 ], [ -6.4110117, 38.6738524 ], [ -6.4110179, 38.6738391 ], [ -6.4111539, 38.6735718 ], [ -6.4111653, 38.6735765 ], [ -6.4111811, 38.6734958 ], [ -6.4114473, 38.6727269 ], [ -6.4115528, 38.6724589 ], [ -6.4118569, 38.6720301 ], [ -6.4126897, 38.6708093 ], [ -6.4136215, 38.669433 ], [ -6.4142089, 38.668615 ], [ -6.4151665, 38.6679101 ], [ -6.4157162, 38.6672497 ], [ -6.4124513, 38.6646419 ], [ -6.4110732, 38.663639 ], [ -6.4110577, 38.6635053 ], [ -6.4080711, 38.6617058 ], [ -6.4046781, 38.6604128 ], [ -6.400044, 38.6596134 ], [ -6.3961799, 38.6596686 ], [ -6.3937287, 38.6601139 ], [ -6.3940845, 38.6604121 ], [ -6.3943071, 38.6607099 ], [ -6.3944114, 38.6610636 ], [ -6.394654, 38.6616997 ], [ -6.3948071, 38.6621536 ], [ -6.3949832, 38.6631576 ], [ -6.3952066, 38.6640275 ], [ -6.3955288, 38.6648095 ], [ -6.3955838, 38.6653513 ], [ -6.39569, 38.6659483 ], [ -6.3957053, 38.6666965 ], [ -6.3957501, 38.6674993 ], [ -6.3958227, 38.6681316 ], [ -6.3958923, 38.6688675 ], [ -6.396094, 38.6691467 ], [ -6.3964034, 38.6694104 ], [ -6.3967261, 38.6696023 ], [ -6.3971278, 38.6699536 ], [ -6.3974106, 38.6702978 ], [ -6.3976194, 38.670343 ], [ -6.3982693, 38.6707043 ], [ -6.3997126, 38.6713491 ], [ -6.4021606, 38.6727009 ], [ -6.4029927, 38.6729898 ], [ -6.4035927, 38.6732418 ], [ -6.4037375, 38.6732901 ], [ -6.4038957, 38.6733252 ], [ -6.4040929, 38.6733746 ], [ -6.4042711, 38.6734326 ], [ -6.4045051, 38.6735144 ], [ -6.4045477, 38.6735288 ], [ -6.4047055, 38.6735954 ], [ -6.404914, 38.6736901 ], [ -6.4049366, 38.6736996 ], [ -6.4051176, 38.6737802 ], [ -6.40516, 38.6737992 ], [ -6.4051904, 38.6738134 ], [ -6.4053668, 38.6739209 ], [ -6.4055459, 38.674033 ], [ -6.4056652, 38.6741123 ], [ -6.405958, 38.674317 ], [ -6.4061748, 38.674502 ], [ -6.4062989, 38.6746039 ], [ -6.4065714, 38.6749162 ], [ -6.4068405, 38.675242 ], [ -6.4075087, 38.675856 ], [ -6.4076325, 38.6759668 ], [ -6.4080001, 38.6766688 ], [ -6.4078462, 38.676814 ], [ -6.4078114, 38.6769033 ], [ -6.4078642, 38.6769624 ], [ -6.4082929, 38.6777782 ], [ -6.4076627, 38.6782113 ], [ -6.4076547, 38.6782969 ], [ -6.4076515, 38.6782961 ], [ -6.4076053, 38.6784074 ] ] ] } },
{ "type": "Feature", "properties": { "CCAA": "11 - Extremadura", "PROVINCIA": "06 - Badajoz", "MUNICIPIO": "06011 - Almendralejo", "COD_MUNICIPIO": "06011", "DISTRITO": "04", "SECCION": "0601104001", "V1_H": 79.16, "V1_M": 85.0, "V2_H": 79.432337, "V2_M": 85.16926182, "V3_H": 78.95181978, "V3_M": 84.90024095 }, "geometry": { "type": "Polygon", "coordinates": [ [ [ -6.3989956, 38.6798608 ], [ -6.3987914, 38.6800455 ], [ -6.3982033, 38.680573 ], [ -6.3980511, 38.6807092 ], [ -6.3978901, 38.6808498 ], [ -6.3975449, 38.6811575 ], [ -6.3969957, 38.6813074 ], [ -6.3939457, 38.6821494 ], [ -6.3924444, 38.6830934 ], [ -6.3903294, 38.682857 ], [ -6.3895836, 38.6827412 ], [ -6.3881047, 38.6821406 ], [ -6.3865764, 38.6816334 ], [ -6.3846758, 38.6812124 ], [ -6.3821066, 38.6807855 ], [ -6.3802814, 38.6805059 ], [ -6.378975, 38.6802603 ], [ -6.3778906, 38.6800922 ], [ -6.3786218, 38.6842853 ], [ -6.3789797, 38.685686 ], [ -6.3814733, 38.6900757 ], [ -6.3829672, 38.6916367 ], [ -6.3830484, 38.6915986 ], [ -6.3869192, 38.6897813 ], [ -6.3919368, 38.6874158 ], [ -6.3941453, 38.6862082 ], [ -6.3941388, 38.68619 ], [ -6.3947776, 38.6858124 ], [ -6.3975862, 38.6840415 ], [ -6.3982809, 38.6836245 ], [ -6.3984632, 38.6835114 ], [ -6.3986662, 38.6834213 ], [ -6.3987479, 38.6834051 ], [ -6.3996263, 38.6833931 ], [ -6.3994894, 38.6832459 ], [ -6.4002291, 38.6829561 ], [ -6.4005593, 38.6828238 ], [ -6.4019298, 38.6822146 ], [ -6.401987, 38.6821032 ], [ -6.402027, 38.6819104 ], [ -6.4021053, 38.6815337 ], [ -6.4021629, 38.6812512 ], [ -6.4022468, 38.6808386 ], [ -6.4023323, 38.6804216 ], [ -6.4024612, 38.6797983 ], [ -6.4025178, 38.6795247 ], [ -6.4029468, 38.6793225 ], [ -6.4020298, 38.6788156 ], [ -6.4011673, 38.6783325 ], [ -6.400899, 38.6781823 ], [ -6.4007359, 38.6783229 ], [ -6.4005935, 38.6784278 ], [ -6.4005602, 38.6784541 ], [ -6.4002907, 38.6786959 ], [ -6.4002276, 38.678753 ], [ -6.3999756, 38.6789862 ], [ -6.3999191, 38.679039 ], [ -6.3998604, 38.6790917 ], [ -6.3995122, 38.6794038 ], [ -6.3993868, 38.6795137 ], [ -6.3989956, 38.6798608 ] ] ] } },
{ "type": "Feature", "properties": { "CCAA": "11 - Extremadura", "PROVINCIA": "06 - Badajoz", "MUNICIPIO": "06011 - Almendralejo", "COD_MUNICIPIO": "06011", "DISTRITO": "01", "SECCION": "0601101003", "V1_H": 80.02, "V1_M": 86.02, "V2_H": 79.96138623, "V2_M": 86.18252023, "V3_H": 80.18726569, "V3_M": 86.15258899 }, "geometry": { "type": "Polygon", "coordinates": [ [ [ -6.3999024, 38.6836831 ], [ -6.4015864, 38.6854229 ], [ -6.4043485, 38.6883769 ], [ -6.4043735, 38.6883408 ], [ -6.4047238, 38.6878356 ], [ -6.4047596, 38.6877959 ], [ -6.4050582, 38.6874467 ], [ -6.4050747, 38.687429 ], [ -6.4061316, 38.6860334 ], [ -6.40649, 38.6855594 ], [ -6.4067717, 38.6851422 ], [ -6.4070167, 38.6847827 ], [ -6.4071563, 38.6845786 ], [ -6.4068996, 38.6845053 ], [ -6.406635, 38.6844319 ], [ -6.4065899, 38.6844849 ], [ -6.4062921, 38.6844558 ], [ -6.405111, 38.6843395 ], [ -6.4046449, 38.6842931 ], [ -6.4040787, 38.6842355 ], [ -6.4031817, 38.684148 ], [ -6.4018513, 38.6839652 ], [ -6.4018329, 38.6839603 ], [ -6.3999024, 38.6836831 ] ] ] } },
{ "type": "Feature", "properties": { "CCAA": "11 - Extremadura", "PROVINCIA": "06 - Badajoz", "MUNICIPIO": "06011 - Almendralejo", "COD_MUNICIPIO": "06011", "DISTRITO": "02", "SECCION": "0601102002", "V1_H": 80.25, "V1_M": 86.11, "V2_H": 80.02266353, "V2_M": 86.02270939, "V3_H": 80.50879823, "V3_M": 86.37032083 }, "geometry": { "type": "Polygon", "coordinates": [ [ [ -6.4086437, 38.6828592 ], [ -6.4089004, 38.6827523 ], [ -6.4088626, 38.6827064 ], [ -6.4089622, 38.6826726 ], [ -6.4091782, 38.6826999 ], [ -6.409199, 38.6828805 ], [ -6.4096807, 38.6829092 ], [ -6.4099031, 38.6829187 ], [ -6.410143, 38.6826402 ], [ -6.4103042, 38.6825942 ], [ -6.4106015, 38.6825963 ], [ -6.4117753, 38.6828385 ], [ -6.4118001, 38.6828481 ], [ -6.4124184, 38.683033 ], [ -6.4125765, 38.683032 ], [ -6.412526, 38.6828191 ], [ -6.411989, 38.6822306 ], [ -6.412013, 38.6819834 ], [ -6.4117213, 38.6819454 ], [ -6.411574, 38.6819241 ], [ -6.4114541, 38.6818448 ], [ -6.4108085, 38.6806232 ], [ -6.409971, 38.679046 ], [ -6.4099646, 38.6788657 ], [ -6.4096606, 38.6787688 ], [ -6.4096428, 38.6788225 ], [ -6.4096402, 38.6788303 ], [ -6.409463, 38.6793681 ], [ -6.4092942, 38.6798824 ], [ -6.4090564, 38.6804808 ], [ -6.4089956, 38.6808128 ], [ -6.408923, 38.6812526 ], [ -6.4087897, 38.6816191 ], [ -6.4085948, 38.6823446 ], [ -6.4085327, 38.6824919 ], [ -6.4084567, 38.6826478 ], [ -6.4083263, 38.6829332 ], [ -6.4083536, 38.6829744 ], [ -6.4084921, 38.6829189 ], [ -6.4086437, 38.6828592 ] ] ] } },
{ "type": "Feature", "properties": { "CCAA": "11 - Extremadura", "PROVINCIA": "06 - Badajoz", "MUNICIPIO": "06011 - Almendralejo", "COD_MUNICIPIO": "06011", "DISTRITO": "02", "SECCION": "0601102003", "V1_H": 79.33, "V1_M": 85.14, "V2_H": 79.29974376, "V2_M": 85.20981541, "V3_H": 79.50065775, "V3_M": 85.33298389 }, "geometry": { "type": "Polygon", "coordinates": [ [ [ -6.4391128, 38.6916058 ], [ -6.4391133, 38.691606 ], [ -6.4397504, 38.6882383 ], [ -6.4395541, 38.6866805 ], [ -6.438993, 38.6846187 ], [ -6.4381615, 38.6830034 ], [ -6.4364607, 38.6810132 ], [ -6.4347451, 38.6797289 ], [ -6.4311273, 38.6778331 ], [ -6.4278148, 38.6762143 ], [ -6.4265901, 38.675564 ], [ -6.426579, 38.6755684 ], [ -6.4265306, 38.6755873 ], [ -6.4260961, 38.6758255 ], [ -6.4250931, 38.6765106 ], [ -6.4234642, 38.6775244 ], [ -6.4222161, 38.6783933 ], [ -6.421664, 38.678764 ], [ -6.4210518, 38.6790478 ], [ -6.4200736, 38.6794002 ], [ -6.4193644, 38.6795872 ], [ -6.4191399, 38.6796768 ], [ -6.4187239, 38.6798388 ], [ -6.4186782, 38.6798569 ], [ -6.4185153, 38.6799213 ], [ -6.41799, 38.680129 ], [ -6.4174656, 38.6804687 ], [ -6.4166286, 38.6811485 ], [ -6.4160609, 38.6814513 ], [ -6.4158147, 38.6814864 ], [ -6.415276, 38.6812853 ], [ -6.4146051, 38.6816803 ], [ -6.4136403, 38.6821996 ], [ -6.4125162, 38.6827919 ], [ -6.412526, 38.6828191 ], [ -6.4125765, 38.683032 ], [ -6.4126462, 38.6830921 ], [ -6.4128046, 38.6831812 ], [ -6.4127535, 38.6832251 ], [ -6.4126702, 38.6836827 ], [ -6.4126828, 38.683692 ], [ -6.4127487, 38.683716 ], [ -6.4128343, 38.6837539 ], [ -6.414648, 38.6849383 ], [ -6.4147675, 38.685013 ], [ -6.4150941, 38.6852185 ], [ -6.4153175, 38.6853586 ], [ -6.4153787, 38.685396 ], [ -6.4162411, 38.6859466 ], [ -6.417369, 38.6866473 ], [ -6.4175061, 38.6867089 ], [ -6.4178125, 38.6868012 ], [ -6.418074, 38.6868611 ], [ -6.4193675, 38.6870518 ], [ -6.4197054, 38.6871268 ], [ -6.4200855, 38.6872254 ], [ -6.4210193, 38.6875118 ], [ -6.4219234, 38.687802 ], [ -6.4221885, 38.6878844 ], [ -6.4229893, 38.6881318 ], [ -6.4237189, 38.6883597 ], [ -6.4244161, 38.6885732 ], [ -6.4248925, 38.6887144 ], [ -6.4255218, 38.6888949 ], [ -6.4259976, 38.688991 ], [ -6.4295523, 38.6896594 ], [ -6.4361262, 38.6908941 ], [ -6.4387549, 38.6915058 ], [ -6.4391128, 38.6916058 ] ] ] } },
{ "type": "Feature", "properties": { "CCAA": "11 - Extremadura", "PROVINCIA": "06 - Badajoz", "MUNICIPIO": "06011 - Almendralejo", "COD_MUNICIPIO": "06011", "DISTRITO": "04", "SECCION": "0601104003", "V1_H": 75.48, "V1_M": 82.31, "V2_H": 75.36985678000001, "V2_M": 82.56533706, "V3_H": 75.8600571, "V3_M": 82.01450712 }, "geometry": { "type": "Polygon", "coordinates": [ [ [ -6.3972123, 38.6748133 ], [ -6.3947866, 38.6769417 ], [ -6.3989956, 38.6798608 ], [ -6.3993868, 38.6795137 ], [ -6.3995122, 38.6794038 ], [ -6.3998604, 38.6790917 ], [ -6.3999191, 38.679039 ], [ -6.3999756, 38.6789862 ], [ -6.4002276, 38.678753 ], [ -6.4002907, 38.6786959 ], [ -6.4005602, 38.6784541 ], [ -6.4005935, 38.6784278 ], [ -6.4007359, 38.6783229 ], [ -6.400899, 38.6781823 ], [ -6.4007085, 38.67807 ], [ -6.4000138, 38.6776716 ], [ -6.3999491, 38.6776341 ], [ -6.3994295, 38.6773433 ], [ -6.3996018, 38.6771894 ], [ -6.399051, 38.6768663 ], [ -6.39926, 38.6766277 ], [ -6.3984862, 38.676178 ], [ -6.3973633, 38.6755269 ], [ -6.3978083, 38.6750998 ], [ -6.3977116, 38.6750526 ], [ -6.3975096, 38.674958 ], [ -6.3972123, 38.6748133 ] ] ] } },
{ "type": "Feature", "properties": { "CCAA": "11 - Extremadura", "PROVINCIA": "06 - Badajoz", "MUNICIPIO": "06011 - Almendralejo", "COD_MUNICIPIO": "06011", "DISTRITO": "02", "SECCION": "0601102008", "V1_H": 79.66, "V1_M": 85.68, "V2_H": 79.65353369, "V2_M": 85.83118741, "V3_H": 79.80284041, "V3_M": 85.7603318 }, "geometry": { "type": "Polygon", "coordinates": [ [ [ -6.4103521, 38.6790454 ], [ -6.4108077, 38.6787064 ], [ -6.4115505, 38.6781023 ], [ -6.4120884, 38.6776945 ], [ -6.4126923, 38.6771729 ], [ -6.4132418, 38.6767088 ], [ -6.4132696, 38.6765939 ], [ -6.4133883, 38.6763769 ], [ -6.4135081, 38.6761823 ], [ -6.4135828, 38.675944 ], [ -6.4136176, 38.6759661 ], [ -6.4136731, 38.6758264 ], [ -6.4141608, 38.6759789 ], [ -6.4153817, 38.6770838 ], [ -6.4153976, 38.6770939 ], [ -6.4154453, 38.6771413 ], [ -6.4157827, 38.6774772 ], [ -6.4168176, 38.6782668 ], [ -6.4185153, 38.6799213 ], [ -6.4186782, 38.6798569 ], [ -6.4187239, 38.6798388 ], [ -6.4191399, 38.6796768 ], [ -6.4193644, 38.6795872 ], [ -6.4200736, 38.6794002 ], [ -6.4210518, 38.6790478 ], [ -6.421664, 38.678764 ], [ -6.4222161, 38.6783933 ], [ -6.4234642, 38.6775244 ], [ -6.4250931, 38.6765106 ], [ -6.4260961, 38.6758255 ], [ -6.4265306, 38.6755873 ], [ -6.426579, 38.6755684 ], [ -6.4255151, 38.6749184 ], [ -6.4235515, 38.6735268 ], [ -6.4205179, 38.6711178 ], [ -6.4158137, 38.6673275 ], [ -6.4157162, 38.6672497 ], [ -6.4151665, 38.6679101 ], [ -6.4142089, 38.668615 ], [ -6.4136215, 38.669433 ], [ -6.4126897, 38.6708093 ], [ -6.4118569, 38.6720301 ], [ -6.4115528, 38.6724589 ], [ -6.4114473, 38.6727269 ], [ -6.4111811, 38.6734958 ], [ -6.4111653, 38.6735765 ], [ -6.4111539, 38.6735718 ], [ -6.4110179, 38.6738391 ], [ -6.4110117, 38.6738524 ], [ -6.410995, 38.6738971 ], [ -6.4109523, 38.6740448 ], [ -6.4108165, 38.6745238 ], [ -6.4106472, 38.6750967 ], [ -6.4104609, 38.6757413 ], [ -6.4101501, 38.6766308 ], [ -6.409803, 38.6775286 ], [ -6.4096706, 38.6778546 ], [ -6.4095689, 38.6781046 ], [ -6.4093982, 38.6785152 ], [ -6.4093229, 38.6786892 ], [ -6.4096606, 38.6787688 ], [ -6.4099646, 38.6788657 ], [ -6.4103521, 38.6790454 ] ] ] } },
{ "type": "Feature", "properties": { "CCAA": "11 - Extremadura", "PROVINCIA": "06 - Badajoz", "MUNICIPIO": "06011 - Almendralejo", "COD_MUNICIPIO": "06011", "DISTRITO": "03", "SECCION": "0601103002", "V1_H": 78.9, "V1_M": 84.87, "V2_H": 79.02373168, "V2_M": 85.07467156, "V3_H": 78.82484982, "V3_M": 84.79604014 }, "geometry": { "type": "Polygon", "coordinates": [ [ [ -6.4038692, 38.6770365 ], [ -6.4040642, 38.677149 ], [ -6.4046288, 38.6767516 ], [ -6.4046266, 38.6767455 ], [ -6.4051552, 38.6763741 ], [ -6.4048201, 38.6761131 ], [ -6.4048221, 38.6761117 ], [ -6.4052472, 38.6758193 ], [ -6.4059756, 38.6753219 ], [ -6.4065714, 38.6749162 ], [ -6.4062989, 38.6746039 ], [ -6.4061748, 38.674502 ], [ -6.405958, 38.674317 ], [ -6.4056652, 38.6741123 ], [ -6.4055459, 38.674033 ], [ -6.4053668, 38.6739209 ], [ -6.4051904, 38.6738134 ], [ -6.40516, 38.6737992 ], [ -6.4051176, 38.6737802 ], [ -6.4049366, 38.6736996 ], [ -6.404914, 38.6736901 ], [ -6.4047055, 38.6735954 ], [ -6.4045477, 38.6735288 ], [ -6.4045051, 38.6735144 ], [ -6.4042711, 38.6734326 ], [ -6.4040929, 38.6733746 ], [ -6.4038957, 38.6733252 ], [ -6.4037375, 38.6732901 ], [ -6.4035927, 38.6732418 ], [ -6.4029927, 38.6729898 ], [ -6.4021606, 38.6727009 ], [ -6.3997126, 38.6713491 ], [ -6.3982693, 38.6707043 ], [ -6.3976194, 38.670343 ], [ -6.3974106, 38.6702978 ], [ -6.3971278, 38.6699536 ], [ -6.3967261, 38.6696023 ], [ -6.3964034, 38.6694104 ], [ -6.396094, 38.6691467 ], [ -6.3958923, 38.6688675 ], [ -6.3958227, 38.6681316 ], [ -6.3957501, 38.6674993 ], [ -6.3957053, 38.6666965 ], [ -6.39569, 38.6659483 ], [ -6.3955838, 38.6653513 ], [ -6.3955288, 38.6648095 ], [ -6.3952066, 38.6640275 ], [ -6.3949832, 38.6631576 ], [ -6.3948071, 38.6621536 ], [ -6.394654, 38.6616997 ], [ -6.3944114, 38.6610636 ], [ -6.3943071, 38.6607099 ], [ -6.3940845, 38.6604121 ], [ -6.3937287, 38.6601139 ], [ -6.3936957, 38.6600863 ], [ -6.3882938, 38.6615851 ], [ -6.3819326, 38.6636319 ], [ -6.3836963, 38.6650768 ], [ -6.3856353, 38.6664445 ], [ -6.3867124, 38.6674192 ], [ -6.3874973, 38.6685089 ], [ -6.3875176, 38.6685228 ], [ -6.3876826, 38.6686482 ], [ -6.3878091, 38.6687636 ], [ -6.3879783, 38.6689116 ], [ -6.3880114, 38.6689483 ], [ -6.3880824, 38.669031 ], [ -6.3881124, 38.6690722 ], [ -6.3882486, 38.6692194 ], [ -6.3884522, 38.6694087 ], [ -6.3886751, 38.6695984 ], [ -6.3889821, 38.6698485 ], [ -6.3892609, 38.6700619 ], [ -6.389609, 38.6703084 ], [ -6.3898764, 38.6704991 ], [ -6.3902136, 38.6707274 ], [ -6.3906487, 38.671048 ], [ -6.3909977, 38.671308 ], [ -6.3912404, 38.6714891 ], [ -6.3916719, 38.671769 ], [ -6.3921266, 38.672045 ], [ -6.3921962, 38.6720871 ], [ -6.3923568, 38.6721943 ], [ -6.392486, 38.6722782 ], [ -6.392623, 38.6723804 ], [ -6.3928479, 38.6725386 ], [ -6.3929626, 38.6726222 ], [ -6.3930387, 38.6726825 ], [ -6.3931533, 38.6727707 ], [ -6.3932525, 38.6728495 ], [ -6.3933714, 38.6729377 ], [ -6.3935491, 38.6730678 ], [ -6.3936659, 38.6731535 ], [ -6.3939123, 38.6729211 ], [ -6.3939361, 38.6729336 ], [ -6.3949931, 38.6719887 ], [ -6.395583, 38.6723337 ], [ -6.3955982, 38.6723171 ], [ -6.3977609, 38.673616 ], [ -6.4002292, 38.6750172 ], [ -6.4013048, 38.6756437 ], [ -6.4013377, 38.6756069 ], [ -6.4013639, 38.6756204 ], [ -6.401452, 38.6756674 ], [ -6.4018445, 38.6758969 ], [ -6.4018826, 38.6759158 ], [ -6.4023549, 38.676183 ], [ -6.4024598, 38.6762439 ], [ -6.4028266, 38.6764503 ], [ -6.4030482, 38.6765769 ], [ -6.4034474, 38.6768019 ], [ -6.4038502, 38.6770271 ], [ -6.4038692, 38.6770365 ] ] ] } },
{ "type": "Feature", "properties": { "CCAA": "11 - Extremadura", "PROVINCIA": "06 - Badajoz", "MUNICIPIO": "06011 - Almendralejo", "COD_MUNICIPIO": "06011", "DISTRITO": "03", "SECCION": "0601103005", "V1_H": 77.6, "V1_M": 83.87, "V2_H": 77.77347434000001, "V2_M": 84.06024086, "V3_H": 77.45781126, "V3_M": 83.80561047 }, "geometry": { "type": "Polygon", "coordinates": [ [ [ -6.4047159, 38.6784564 ], [ -6.4048115, 38.6784135 ], [ -6.4048753, 38.6783788 ], [ -6.4050963, 38.6782666 ], [ -6.4051541, 38.6782364 ], [ -6.4053771, 38.6781287 ], [ -6.4055584, 38.6780426 ], [ -6.4056008, 38.678021 ], [ -6.4057409, 38.6779611 ], [ -6.4057547, 38.6779569 ], [ -6.4057835, 38.6779489 ], [ -6.4061715, 38.6780546 ], [ -6.4074086, 38.6783665 ], [ -6.4076053, 38.6784074 ], [ -6.4076515, 38.6782961 ], [ -6.4076547, 38.6782969 ], [ -6.4076627, 38.6782113 ], [ -6.4082929, 38.6777782 ], [ -6.4078642, 38.6769624 ], [ -6.4078114, 38.6769033 ], [ -6.4078462, 38.676814 ], [ -6.4080001, 38.6766688 ], [ -6.4076325, 38.6759668 ], [ -6.4075087, 38.675856 ], [ -6.4068405, 38.675242 ], [ -6.4065714, 38.6749162 ], [ -6.4059756, 38.6753219 ], [ -6.4052472, 38.6758193 ], [ -6.4048221, 38.6761117 ], [ -6.4048201, 38.6761131 ], [ -6.4051552, 38.6763741 ], [ -6.4046266, 38.6767455 ], [ -6.4046288, 38.6767516 ], [ -6.4040642, 38.677149 ], [ -6.4038692, 38.6770365 ], [ -6.4047159, 38.6784564 ] ] ] } },
{ "type": "Feature", "properties": { "CCAA": "11 - Extremadura", "PROVINCIA": "06 - Badajoz", "MUNICIPIO": "06011 - Almendralejo", "COD_MUNICIPIO": "06011", "DISTRITO": "02", "SECCION": "0601102007", "V1_H": 79.36, "V1_M": 85.46, "V2_H": 79.32780616, "V2_M": 85.51002556, "V3_H": 79.53169609, "V3_M": 85.5666933 }, "geometry": { "type": "Polygon", "coordinates": [ [ [ -6.415276, 38.6812853 ], [ -6.4158147, 38.6814864 ], [ -6.4160609, 38.6814513 ], [ -6.4166286, 38.6811485 ], [ -6.4174656, 38.6804687 ], [ -6.41799, 38.680129 ], [ -6.4185153, 38.6799213 ], [ -6.4168176, 38.6782668 ], [ -6.4157827, 38.6774772 ], [ -6.4154453, 38.6771413 ], [ -6.4153976, 38.6770939 ], [ -6.4153817, 38.6770838 ], [ -6.4141608, 38.6759789 ], [ -6.4136731, 38.6758264 ], [ -6.4136176, 38.6759661 ], [ -6.4135828, 38.675944 ], [ -6.4135081, 38.6761823 ], [ -6.4133883, 38.6763769 ], [ -6.4132696, 38.6765939 ], [ -6.4132418, 38.6767088 ], [ -6.4126923, 38.6771729 ], [ -6.4120884, 38.6776945 ], [ -6.4115505, 38.6781023 ], [ -6.4108077, 38.6787064 ], [ -6.4103521, 38.6790454 ], [ -6.4106379, 38.6791779 ], [ -6.413855, 38.6807268 ], [ -6.4151681, 38.6811883 ], [ -6.415276, 38.6812853 ] ] ] } },
{ "type": "Feature", "properties": { "CCAA": "11 - Extremadura", "PROVINCIA": "06 - Badajoz", "MUNICIPIO": "06011 - Almendralejo", "COD_MUNICIPIO": "06011", "DISTRITO": "03", "SECCION": "0601103003", "V1_H": 79.33, "V1_M": 85.14, "V2_H": 79.29974376, "V2_M": 85.20981541, "V3_H": 79.50065775, "V3_M": 85.33298389 }, "geometry": { "type": "Polygon", "coordinates": [ [ [ -6.400899, 38.6781823 ], [ -6.4011673, 38.6783325 ], [ -6.4020298, 38.6788156 ], [ -6.4029468, 38.6793225 ], [ -6.4033636, 38.6791201 ], [ -6.4035164, 38.6790469 ], [ -6.4037402, 38.6789347 ], [ -6.4038968, 38.6788571 ], [ -6.4043875, 38.6786158 ], [ -6.404593, 38.6785167 ], [ -6.4047159, 38.6784564 ], [ -6.4038692, 38.6770365 ], [ -6.4038502, 38.6770271 ], [ -6.4034474, 38.6768019 ], [ -6.4030482, 38.6765769 ], [ -6.4028266, 38.6764503 ], [ -6.4024598, 38.6762439 ], [ -6.4023549, 38.676183 ], [ -6.4018826, 38.6759158 ], [ -6.4018445, 38.6758969 ], [ -6.401452, 38.6756674 ], [ -6.4013639, 38.6756204 ], [ -6.4013377, 38.6756069 ], [ -6.4013048, 38.6756437 ], [ -6.4002292, 38.6750172 ], [ -6.3977609, 38.673616 ], [ -6.3955982, 38.6723171 ], [ -6.395583, 38.6723337 ], [ -6.3949931, 38.6719887 ], [ -6.3939361, 38.6729336 ], [ -6.3946948, 38.6733333 ], [ -6.394695, 38.6733331 ], [ -6.3956263, 38.6738056 ], [ -6.3957226, 38.6741334 ], [ -6.3960185, 38.6742626 ], [ -6.3963414, 38.6744094 ], [ -6.3968334, 38.6746276 ], [ -6.3970247, 38.674722 ], [ -6.3972123, 38.6748133 ], [ -6.3975096, 38.674958 ], [ -6.3977116, 38.6750526 ], [ -6.3978083, 38.6750998 ], [ -6.3973633, 38.6755269 ], [ -6.3984862, 38.676178 ], [ -6.39926, 38.6766277 ], [ -6.399051, 38.6768663 ], [ -6.3996018, 38.6771894 ], [ -6.3994295, 38.6773433 ], [ -6.3999491, 38.6776341 ], [ -6.4000138, 38.6776716 ], [ -6.4007085, 38.67807 ], [ -6.400899, 38.6781823 ] ] ] } },
{ "type": "Feature", "properties": { "CCAA": "11 - Extremadura", "PROVINCIA": "06 - Badajoz", "MUNICIPIO": "06011 - Almendralejo", "COD_MUNICIPIO": "06011", "DISTRITO": "01", "SECCION": "0601101001", "V1_H": 80.3, "V1_M": 86.18, "V2_H": 80.25682951, "V2_M": 86.26310791, "V3_H": 80.49886239, "V3_M": 86.29802272000001 }, "geometry": { "type": "Polygon", "coordinates": [ [ [ -6.4082375, 38.6882596 ], [ -6.4087, 38.6886222 ], [ -6.4091914, 38.6890024 ], [ -6.409972, 38.6896099 ], [ -6.4115232, 38.6905633 ], [ -6.4118814, 38.6910532 ], [ -6.4130479, 38.691043 ], [ -6.4136853, 38.6907598 ], [ -6.4145609, 38.6908467 ], [ -6.4163744, 38.6904274 ], [ -6.4174326, 38.6900904 ], [ -6.4193128, 38.6913122 ], [ -6.4210598, 38.6927608 ], [ -6.4218661, 38.6935985 ], [ -6.4227599, 38.694339 ], [ -6.4254199, 38.6960014 ], [ -6.4264291, 38.6970102 ], [ -6.4287764, 38.6992242 ], [ -6.4287983, 38.699244 ], [ -6.4391128, 38.6916058 ], [ -6.4387549, 38.6915058 ], [ -6.4361262, 38.6908941 ], [ -6.4295523, 38.6896594 ], [ -6.4259976, 38.688991 ], [ -6.4255218, 38.6888949 ], [ -6.4248925, 38.6887144 ], [ -6.4244161, 38.6885732 ], [ -6.4237189, 38.6883597 ], [ -6.4229893, 38.6881318 ], [ -6.4221885, 38.6878844 ], [ -6.4219234, 38.687802 ], [ -6.4210193, 38.6875118 ], [ -6.4200855, 38.6872254 ], [ -6.4197054, 38.6871268 ], [ -6.4193675, 38.6870518 ], [ -6.418074, 38.6868611 ], [ -6.4178125, 38.6868012 ], [ -6.4175061, 38.6867089 ], [ -6.417369, 38.6866473 ], [ -6.4162411, 38.6859466 ], [ -6.4153787, 38.685396 ], [ -6.4153175, 38.6853586 ], [ -6.4150941, 38.6852185 ], [ -6.4147675, 38.685013 ], [ -6.414648, 38.6849383 ], [ -6.4128343, 38.6837539 ], [ -6.4127487, 38.683716 ], [ -6.4126828, 38.683692 ], [ -6.4126702, 38.6836827 ], [ -6.4127535, 38.6832251 ], [ -6.4128046, 38.6831812 ], [ -6.4126462, 38.6830921 ], [ -6.4125765, 38.683032 ], [ -6.4124184, 38.683033 ], [ -6.4118001, 38.6828481 ], [ -6.4117753, 38.6828385 ], [ -6.4106015, 38.6825963 ], [ -6.4103042, 38.6825942 ], [ -6.410143, 38.6826402 ], [ -6.4099031, 38.6829187 ], [ -6.4096807, 38.6829092 ], [ -6.409199, 38.6828805 ], [ -6.4091782, 38.6826999 ], [ -6.4089622, 38.6826726 ], [ -6.4088626, 38.6827064 ], [ -6.4089004, 38.6827523 ], [ -6.4086437, 38.6828592 ], [ -6.4086799, 38.6829321 ], [ -6.4084763, 38.6829996 ], [ -6.4083486, 38.6830734 ], [ -6.4083287, 38.6830864 ], [ -6.4080221, 38.6833815 ], [ -6.4078734, 38.6834007 ], [ -6.4077479, 38.683515 ], [ -6.4075644, 38.6837407 ], [ -6.407441, 38.6839542 ], [ -6.4073865, 38.6840521 ], [ -6.4074039, 38.6843273 ], [ -6.4076155, 38.6842554 ], [ -6.4077162, 38.6843703 ], [ -6.4078431, 38.6843596 ], [ -6.4080915, 38.6845047 ], [ -6.408261, 38.6845625 ], [ -6.4083385, 38.6845868 ], [ -6.4084108, 38.6845929 ], [ -6.4085591, 38.6846052 ], [ -6.4088279, 38.6846427 ], [ -6.4089699, 38.6846684 ], [ -6.4090613, 38.6846839 ], [ -6.409683, 38.6847968 ], [ -6.4099169, 38.6848065 ], [ -6.4103186, 38.6848019 ], [ -6.4109068, 38.6847879 ], [ -6.4114753, 38.6847825 ], [ -6.4116578, 38.684782 ], [ -6.4114269, 38.6848895 ], [ -6.4112164, 38.6849885 ], [ -6.4111856, 38.6850058 ], [ -6.4107496, 38.6852619 ], [ -6.4097975, 38.6863625 ], [ -6.4097651, 38.6864024 ], [ -6.4090096, 38.6873496 ], [ -6.4088773, 38.6875134 ], [ -6.4085914, 38.6878314 ], [ -6.4083694, 38.6880697 ], [ -6.4082151, 38.688242 ], [ -6.4082375, 38.6882596 ] ] ] } },
{ "type": "Feature", "properties": { "CCAA": "11 - Extremadura", "PROVINCIA": "06 - Badajoz", "MUNICIPIO": "06011 - Almendralejo", "COD_MUNICIPIO": "06011", "DISTRITO": "02", "SECCION": "0601102004", "V1_H": 80.23, "V1_M": 86.04, "V2_H": 80.01377171, "V2_M": 86.1814847, "V3_H": 80.55154758, "V3_M": 86.06989916000001 }, "geometry": { "type": "Polygon", "coordinates": [ [ [ -6.3999024, 38.6836831 ], [ -6.4018329, 38.6839603 ], [ -6.4019266, 38.6834533 ], [ -6.4020419, 38.6833252 ], [ -6.4021248, 38.6833361 ], [ -6.4022137, 38.683302 ], [ -6.4022541, 38.6832579 ], [ -6.4032117, 38.6833197 ], [ -6.4032953, 38.6833306 ], [ -6.4032786, 38.683177 ], [ -6.4032192, 38.6831127 ], [ -6.4027889, 38.6828734 ], [ -6.402673, 38.6827807 ], [ -6.4032291, 38.6828381 ], [ -6.40413, 38.6826193 ], [ -6.4051661, 38.682755 ], [ -6.4053518, 38.6823852 ], [ -6.4054377, 38.6822159 ], [ -6.4054657, 38.682158 ], [ -6.4055284, 38.6820333 ], [ -6.4056721, 38.6818337 ], [ -6.4059224, 38.6814879 ], [ -6.4056971, 38.6811225 ], [ -6.4038395, 38.6809371 ], [ -6.4038924, 38.6804698 ], [ -6.4039435, 38.6800294 ], [ -6.4041536, 38.6796016 ], [ -6.404585, 38.6787192 ], [ -6.4043875, 38.6786158 ], [ -6.4038968, 38.6788571 ], [ -6.4037402, 38.6789347 ], [ -6.4035164, 38.6790469 ], [ -6.4033636, 38.6791201 ], [ -6.4029468, 38.6793225 ], [ -6.4025178, 38.6795247 ], [ -6.4024612, 38.6797983 ], [ -6.4023323, 38.6804216 ], [ -6.4022468, 38.6808386 ], [ -6.4021629, 38.6812512 ], [ -6.4021053, 38.6815337 ], [ -6.402027, 38.6819104 ], [ -6.401987, 38.6821032 ], [ -6.4019298, 38.6822146 ], [ -6.4005593, 38.6828238 ], [ -6.4002291, 38.6829561 ], [ -6.3994894, 38.6832459 ], [ -6.3996263, 38.6833931 ], [ -6.3999024, 38.6836831 ] ] ] } },
{ "type": "Feature", "properties": { "CCAA": "11 - Extremadura", "PROVINCIA": "06 - Badajoz", "MUNICIPIO": "06011 - Almendralejo", "COD_MUNICIPIO": "06011", "DISTRITO": "04", "SECCION": "0601104002", "V1_H": 80.31, "V1_M": 85.98, "V2_H": 80.51251293, "V2_M": 86.22129475, "V3_H": 80.221823, "V3_M": 85.87405604 }, "geometry": { "type": "Polygon", "coordinates": [ [ [ -6.358191, 38.7760101 ], [ -6.3575497, 38.7778751 ], [ -6.3574625, 38.7781289 ], [ -6.3595984, 38.7768167 ], [ -6.361182, 38.7755011 ], [ -6.3618818, 38.7747241 ], [ -6.3626732, 38.7736885 ], [ -6.3634757, 38.7726383 ], [ -6.3637771, 38.7721902 ], [ -6.3641672, 38.7714422 ], [ -6.3644684, 38.7711108 ], [ -6.3650098, 38.7705152 ], [ -6.3652075, 38.7703034 ], [ -6.3661752, 38.7693567 ], [ -6.3677056, 38.7681299 ], [ -6.3706816, 38.7662392 ], [ -6.3710018, 38.7660358 ], [ -6.3714034, 38.7657806 ], [ -6.3715087, 38.7655984 ], [ -6.3715093, 38.7655981 ], [ -6.3718413, 38.765023 ], [ -6.3719803, 38.7647825 ], [ -6.3722543, 38.7643087 ], [ -6.3731466, 38.7630229 ], [ -6.3731639, 38.7629981 ], [ -6.373439, 38.7626016 ], [ -6.373558, 38.7624302 ], [ -6.3735687, 38.7624147 ], [ -6.3738347, 38.7619477 ], [ -6.3739514, 38.7615118 ], [ -6.3739521, 38.7615107 ], [ -6.3748835, 38.7571063 ], [ -6.3780441, 38.753767 ], [ -6.3780505, 38.7537626 ], [ -6.3780575, 38.7537599 ], [ -6.3809038, 38.7535259 ], [ -6.3809368, 38.7535302 ], [ -6.3819935, 38.7537024 ], [ -6.3822147, 38.7537479 ], [ -6.3826802, 38.753862 ], [ -6.383113, 38.7540203 ], [ -6.3844455, 38.7539826 ], [ -6.3844642, 38.7539794 ], [ -6.3936429, 38.7533706 ], [ -6.3963747, 38.7532401 ], [ -6.3977132, 38.7531004 ], [ -6.3977256, 38.7530996 ], [ -6.3927377, 38.7592717 ], [ -6.392738, 38.7592718 ], [ -6.3927378, 38.759272 ], [ -6.3939354, 38.7600195 ], [ -6.3956008, 38.7609351 ], [ -6.398165, 38.7622732 ], [ -6.399199, 38.7628127 ], [ -6.401644, 38.7639221 ], [ -6.4018691, 38.7640243 ], [ -6.404181, 38.7650732 ], [ -6.4054175, 38.7656342 ], [ -6.4054319, 38.7656414 ], [ -6.4054463, 38.765643 ], [ -6.4070311, 38.7658925 ], [ -6.4101725, 38.7661817 ], [ -6.4119798, 38.7663876 ], [ -6.4146495, 38.7692754 ], [ -6.4149688, 38.7697129 ], [ -6.4153527, 38.7700368 ], [ -6.4161332, 38.7699955 ], [ -6.4191482, 38.7687873 ], [ -6.4212524, 38.7679996 ], [ -6.4212616, 38.7679965 ], [ -6.4285691, 38.7665772 ], [ -6.4285688, 38.7665758 ], [ -6.4285676, 38.7658283 ], [ -6.4281269, 38.7643726 ], [ -6.4280625, 38.7641599 ], [ -6.4281067, 38.764154 ], [ -6.4305558, 38.7638583 ], [ -6.4313502, 38.7637513 ], [ -6.4326821, 38.7635718 ], [ -6.4334985, 38.7634322 ], [ -6.4346985, 38.7632715 ], [ -6.4348976, 38.7632552 ], [ -6.435415, 38.7632129 ], [ -6.4370155, 38.7629612 ], [ -6.438931, 38.7627047 ], [ -6.4449294, 38.7619011 ], [ -6.4482267, 38.7616736 ], [ -6.4511583, 38.7610662 ], [ -6.4511774, 38.7610637 ], [ -6.4518268, 38.7606473 ], [ -6.4522817, 38.7603566 ], [ -6.453149, 38.7604386 ], [ -6.4542162, 38.7603808 ], [ -6.4568697, 38.7600467 ], [ -6.459057, 38.7595994 ], [ -6.4590794, 38.7595968 ], [ -6.4593015, 38.7595367 ], [ -6.4622602, 38.758763 ], [ -6.4628727, 38.7585692 ], [ -6.4714003, 38.7562585 ], [ -6.4738782, 38.757536 ], [ -6.4764433, 38.7570543 ], [ -6.4764488, 38.7570553 ], [ -6.4770343, 38.7573758 ], [ -6.4776048, 38.7575142 ], [ -6.4779945, 38.7574957 ], [ -6.4782317, 38.7573971 ], [ -6.4796309, 38.7563642 ], [ -6.4802375, 38.755882 ], [ -6.48764, 38.7502973 ], [ -6.4876526, 38.7502888 ], [ -6.488092, 38.7501045 ], [ -6.4886898, 38.7498516 ], [ -6.4891868, 38.7495187 ], [ -6.4894196, 38.7493628 ], [ -6.4904946, 38.7486426 ], [ -6.4919502, 38.7475927 ], [ -6.4940778, 38.7461788 ], [ -6.494256, 38.7460558 ], [ -6.5000422, 38.742063 ], [ -6.5018287, 38.7407272 ], [ -6.5026143, 38.740091 ], [ -6.5028801, 38.7398758 ], [ -6.5039796, 38.7390884 ], [ -6.5039945, 38.739075 ], [ -6.514456, 38.7299169 ], [ -6.5145448, 38.7298534 ], [ -6.514636, 38.7297593 ], [ -6.516474, 38.72815 ], [ -6.5166195, 38.7280226 ], [ -6.5167949, 38.7278831 ], [ -6.517863, 38.7269337 ], [ -6.5178989, 38.7269023 ], [ -6.517912, 38.7268908 ], [ -6.517917, 38.7268865 ], [ -6.5179183, 38.7268853 ], [ -6.5179181, 38.7268847 ], [ -6.517918, 38.7268844 ], [ -6.5179085, 38.7268854 ], [ -6.5179062, 38.7268857 ], [ -6.5171878, 38.7269647 ], [ -6.5167517, 38.7270115 ], [ -6.5164205, 38.7270605 ], [ -6.5157832, 38.7271547 ], [ -6.5146852, 38.7273156 ], [ -6.5143475, 38.7272273 ], [ -6.5142216, 38.7269964 ], [ -6.5138927, 38.7263932 ], [ -6.5138292, 38.7263095 ], [ -6.5134476, 38.725806 ], [ -6.5133269, 38.7256463 ], [ -6.5130884, 38.7254733 ], [ -6.5128265, 38.7253781 ], [ -6.5125853, 38.7252888 ], [ -6.5120622, 38.7251785 ], [ -6.5118743, 38.7251024 ], [ -6.5115474, 38.7249963 ], [ -6.5112471, 38.7249207 ], [ -6.5108834, 38.724828 ], [ -6.5106926, 38.7248133 ], [ -6.5102947, 38.7247804 ], [ -6.5098675, 38.7248582 ], [ -6.5094967, 38.7249237 ], [ -6.5092013, 38.7249957 ], [ -6.5091761, 38.7250027 ], [ -6.5088041, 38.7251046 ], [ -6.5085602, 38.7250498 ], [ -6.5085443, 38.7249684 ], [ -6.5085052, 38.7248505 ], [ -6.5083922, 38.7245062 ], [ -6.5083688, 38.724433 ], [ -6.5083637, 38.7244051 ], [ -6.5082432, 38.7237456 ], [ -6.5082431, 38.7237453 ], [ -6.5078485, 38.7239268 ], [ -6.5071745, 38.7242364 ], [ -6.5067175, 38.7242942 ], [ -6.5064694, 38.724296 ], [ -6.5060853, 38.7242966 ], [ -6.505437, 38.7242079 ], [ -6.5047327, 38.7239137 ], [ -6.5042346, 38.7236044 ], [ -6.5036358, 38.7231179 ], [ -6.5032548, 38.7226159 ], [ -6.5031818, 38.7224631 ], [ -6.502512, 38.7210599 ], [ -6.5023076, 38.7199338 ], [ -6.502477, 38.7187492 ], [ -6.5025731, 38.7180783 ], [ -6.502617, 38.7173293 ], [ -6.5026169, 38.7173286 ], [ -6.5026169, 38.7173276 ], [ -6.5025332, 38.7167807 ], [ -6.5022413, 38.7160518 ], [ -6.5021528, 38.7158299 ], [ -6.5015628, 38.7145775 ], [ -6.50138, 38.7143866 ], [ -6.501345, 38.7143497 ], [ -6.4997433, 38.7135766 ], [ -6.4986925, 38.7132478 ], [ -6.4972063, 38.7131976 ], [ -6.4957672, 38.7131476 ], [ -6.4941973, 38.712546 ], [ -6.4936177, 38.7124111 ], [ -6.4935461, 38.7123942 ], [ -6.4933309, 38.7123683 ], [ -6.4927712, 38.7123004 ], [ -6.4919185, 38.7122629 ], [ -6.4900821, 38.7123268 ], [ -6.4897414, 38.7076888 ], [ -6.4889372, 38.7071458 ], [ -6.4883744, 38.7067646 ], [ -6.4873303, 38.7059654 ], [ -6.4853772, 38.7044681 ], [ -6.4845757, 38.7038254 ], [ -6.4836254, 38.7034304 ], [ -6.4811467, 38.702099 ], [ -6.4775804, 38.7003856 ], [ -6.4766457, 38.700064 ], [ -6.4763996, 38.6999789 ], [ -6.4757756, 38.6996636 ], [ -6.4760206, 38.6990677 ], [ -6.4764535, 38.6980159 ], [ -6.4764537, 38.6980144 ], [ -6.4764539, 38.698014 ], [ -6.4764692, 38.6979045 ], [ -6.4765225, 38.6975264 ], [ -6.4765161, 38.6970434 ], [ -6.4765142, 38.6968862 ], [ -6.4764293, 38.6963212 ], [ -6.4763249, 38.6961507 ], [ -6.4761424, 38.6958513 ], [ -6.4757767, 38.69542 ], [ -6.4756203, 38.6951713 ], [ -6.4754898, 38.6949619 ], [ -6.4754041, 38.6946138 ], [ -6.4754338, 38.694279 ], [ -6.4754339, 38.6942773 ], [ -6.4739594, 38.6932589 ], [ -6.4725754, 38.6917427 ], [ -6.4725304, 38.6916766 ], [ -6.4724104, 38.6915005 ], [ -6.4708187, 38.6891636 ], [ -6.4707611, 38.6890134 ], [ -6.4707002, 38.6888532 ], [ -6.4706997, 38.6887507 ], [ -6.4706993, 38.6886017 ], [ -6.4707873, 38.6883735 ], [ -6.4708934, 38.6880993 ], [ -6.4710145, 38.6872759 ], [ -6.4710145, 38.6872757 ], [ -6.470966, 38.6869819 ], [ -6.4709657, 38.6869802 ], [ -6.4707812, 38.6864902 ], [ -6.4691197, 38.6849624 ], [ -6.4680389, 38.6839678 ], [ -6.4676635, 38.6835722 ], [ -6.4672498, 38.682856 ], [ -6.4672131, 38.6826947 ], [ -6.4671326, 38.6823377 ], [ -6.4670907, 38.6819599 ], [ -6.4670514, 38.6815993 ], [ -6.4672015, 38.678769 ], [ -6.4672015, 38.6787688 ], [ -6.4672015, 38.6787684 ], [ -6.4671729, 38.6786524 ], [ -6.4670872, 38.6783025 ], [ -6.4666758, 38.6777095 ], [ -6.4664942, 38.6774472 ], [ -6.4661747, 38.6751146 ], [ -6.4659305, 38.6746204 ], [ -6.4657798, 38.6743144 ], [ -6.4655318, 38.6739556 ], [ -6.4653845, 38.6737418 ], [ -6.465183, 38.6733215 ], [ -6.4647458, 38.6724089 ], [ -6.4641125, 38.6721383 ], [ -6.463883, 38.6717763 ], [ -6.4637388, 38.6715475 ], [ -6.4632237, 38.6713915 ], [ -6.462899, 38.6712921 ], [ -6.4623945, 38.6710739 ], [ -6.4608231, 38.6699316 ], [ -6.4608227, 38.6699314 ], [ -6.4601156, 38.6695648 ], [ -6.4600024, 38.6696268 ], [ -6.4584922, 38.6704508 ], [ -6.4581952, 38.6704866 ], [ -6.4577897, 38.6704176 ], [ -6.4567163, 38.67008 ], [ -6.4561024, 38.6698262 ], [ -6.4557197, 38.6696674 ], [ -6.4554597, 38.6695148 ], [ -6.4549629, 38.669222 ], [ -6.4548652, 38.6690215 ], [ -6.4547337, 38.6687495 ], [ -6.4546778, 38.6678342 ], [ -6.4549396, 38.6668266 ], [ -6.4549398, 38.6668259 ], [ -6.4549493, 38.666781 ], [ -6.4556469, 38.6635649 ], [ -6.4558047, 38.6628374 ], [ -6.4558048, 38.6628369 ], [ -6.4558051, 38.6628353 ], [ -6.4558336, 38.6625121 ], [ -6.4558569, 38.6622503 ], [ -6.4557808, 38.661622 ], [ -6.4557356, 38.6615453 ], [ -6.4557292, 38.6615344 ], [ -6.4555931, 38.6613033 ], [ -6.4551554, 38.6608028 ], [ -6.4549413, 38.6606459 ], [ -6.4546389, 38.660424 ], [ -6.4543098, 38.6601826 ], [ -6.4535482, 38.6596237 ], [ -6.451951, 38.6586908 ], [ -6.4503679, 38.6577643 ], [ -6.4488803, 38.6566913 ], [ -6.4470465, 38.6555833 ], [ -6.4451107, 38.6545053 ], [ -6.4435654, 38.6538862 ], [ -6.4423464, 38.6533966 ], [ -6.4416332, 38.6531597 ], [ -6.4411556, 38.6530004 ], [ -6.4407824, 38.6528118 ], [ -6.4400608, 38.6524456 ], [ -6.4389303, 38.65211 ], [ -6.4376391, 38.6515276 ], [ -6.4376389, 38.6515275 ], [ -6.4362807, 38.6507545 ], [ -6.4345534, 38.6502012 ], [ -6.4332009, 38.6497662 ], [ -6.4319062, 38.6492362 ], [ -6.4310453, 38.6488826 ], [ -6.4301076, 38.6483599 ], [ -6.4287326, 38.6475917 ], [ -6.4296896, 38.646231 ], [ -6.430774, 38.64383 ], [ -6.4308322, 38.6437012 ], [ -6.4315848, 38.6416612 ], [ -6.4318343, 38.6410956 ], [ -6.4320722, 38.6405576 ], [ -6.4325042, 38.6397427 ], [ -6.4331319, 38.6387775 ], [ -6.4343444, 38.636914 ], [ -6.4347985, 38.6360809 ], [ -6.4348993, 38.6358491 ], [ -6.4350403, 38.6355258 ], [ -6.43504, 38.6355257 ], [ -6.4350877, 38.6354159 ], [ -6.4350882, 38.6354148 ], [ -6.4348922, 38.6352944 ], [ -6.4346278, 38.6351321 ], [ -6.434248, 38.6348977 ], [ -6.4341142, 38.6348187 ], [ -6.4336215, 38.6345281 ], [ -6.4330687, 38.6342735 ], [ -6.4324709, 38.6339963 ], [ -6.4290266, 38.6326794 ], [ -6.4289263, 38.6326409 ], [ -6.4288904, 38.6326216 ], [ -6.4283252, 38.6323163 ], [ -6.4279341, 38.6320343 ], [ -6.4270526, 38.6313969 ], [ -6.4253957, 38.6301306 ], [ -6.4226232, 38.6283306 ], [ -6.4222355, 38.6280965 ], [ -6.4200218, 38.6267584 ], [ -6.4200286, 38.6267442 ], [ -6.4200531, 38.6266943 ], [ -6.4200523, 38.6266944 ], [ -6.4200531, 38.6266927 ], [ -6.4196542, 38.6267454 ], [ -6.4193226, 38.6267878 ], [ -6.4169714, 38.6271037 ], [ -6.4144385, 38.6274426 ], [ -6.4142908, 38.6274753 ], [ -6.4142778, 38.6274781 ], [ -6.4140637, 38.6275244 ], [ -6.4137522, 38.6275905 ], [ -6.4132564, 38.6276957 ], [ -6.4108444, 38.6282953 ], [ -6.4088299, 38.6287968 ], [ -6.4075883, 38.6290852 ], [ -6.4051037, 38.6296639 ], [ -6.4005058, 38.6305347 ], [ -6.3997194, 38.6305927 ], [ -6.3950584, 38.6309363 ], [ -6.3952063, 38.6318065 ], [ -6.3952489, 38.6320568 ], [ -6.3952488, 38.6320568 ], [ -6.3952489, 38.6320575 ], [ -6.3947886, 38.6319829 ], [ -6.3943462, 38.6319119 ], [ -6.3943455, 38.6319117 ], [ -6.3916609, 38.6341533 ], [ -6.3895098, 38.6357811 ], [ -6.3837739, 38.6403064 ], [ -6.3830522, 38.6408218 ], [ -6.3803279, 38.6427609 ], [ -6.3796589, 38.6434261 ], [ -6.3769804, 38.6446139 ], [ -6.3742054, 38.6458362 ], [ -6.3735257, 38.6461356 ], [ -6.3733411, 38.6466089 ], [ -6.3731454, 38.647073 ], [ -6.3729709, 38.6480151 ], [ -6.373072, 38.6489409 ], [ -6.3699534, 38.6488257 ], [ -6.3690436, 38.6502558 ], [ -6.3686425, 38.6507603 ], [ -6.3663349, 38.652749 ], [ -6.3658535, 38.6532652 ], [ -6.3660508, 38.6540535 ], [ -6.3629083, 38.6558746 ], [ -6.3621626, 38.6563894 ], [ -6.3620013, 38.6571245 ], [ -6.361641, 38.6577651 ], [ -6.3604502, 38.6578463 ], [ -6.3570493, 38.6580938 ], [ -6.3572057, 38.6583545 ], [ -6.3572737, 38.6584673 ], [ -6.3572736, 38.6584678 ], [ -6.3572737, 38.658468 ], [ -6.3572739, 38.6584683 ], [ -6.3572738, 38.6584699 ], [ -6.3572542, 38.6589208 ], [ -6.3572462, 38.6591077 ], [ -6.35709, 38.6594545 ], [ -6.3570897, 38.659455 ], [ -6.3570896, 38.6594551 ], [ -6.3567342, 38.6599607 ], [ -6.3553441, 38.6609473 ], [ -6.3546412, 38.6616431 ], [ -6.3543782, 38.661903 ], [ -6.3534157, 38.6629578 ], [ -6.3529526, 38.6635274 ], [ -6.3522861, 38.6643488 ], [ -6.3512715, 38.665504 ], [ -6.3511977, 38.665614 ], [ -6.3504337, 38.6667554 ], [ -6.3503797, 38.6668389 ], [ -6.3503586, 38.6668724 ], [ -6.3502164, 38.6671353 ], [ -6.3498933, 38.6677342 ], [ -6.3497277, 38.668168 ], [ -6.3496578, 38.6683518 ], [ -6.3495051, 38.6692661 ], [ -6.3494733, 38.6698165 ], [ -6.3492876, 38.6705155 ], [ -6.3491253, 38.670782 ], [ -6.3489247, 38.6711133 ], [ -6.3482807, 38.671842 ], [ -6.3482065, 38.6719911 ], [ -6.3478757, 38.6726575 ], [ -6.3476577, 38.6730965 ], [ -6.3475455, 38.6733224 ], [ -6.3473146, 38.6737887 ], [ -6.3468995, 38.6745045 ], [ -6.3462281, 38.6754571 ], [ -6.3460589, 38.6756977 ], [ -6.3459059, 38.6758473 ], [ -6.3456414, 38.6761067 ], [ -6.3445938, 38.6768127 ], [ -6.3442639, 38.6771295 ], [ -6.3436026, 38.6779749 ], [ -6.3435334, 38.6780368 ], [ -6.3432492, 38.6782914 ], [ -6.3432934, 38.6785695 ], [ -6.3433306, 38.6788021 ], [ -6.3435222, 38.6794638 ], [ -6.3435223, 38.6794642 ], [ -6.3435354, 38.6796116 ], [ -6.3435703, 38.6800029 ], [ -6.3435311, 38.680436 ], [ -6.3435173, 38.6805903 ], [ -6.3433067, 38.6817387 ], [ -6.3433066, 38.6817391 ], [ -6.3433064, 38.68174 ], [ -6.3431008, 38.6824108 ], [ -6.3428777, 38.6831389 ], [ -6.3425503, 38.6844461 ], [ -6.3422572, 38.6856166 ], [ -6.3420204, 38.6863099 ], [ -6.3417415, 38.6871269 ], [ -6.3416748, 38.6878914 ], [ -6.3416142, 38.6885891 ], [ -6.3416391, 38.6888784 ], [ -6.3416639, 38.6891649 ], [ -6.3418399, 38.6901016 ], [ -6.3418775, 38.6903013 ], [ -6.3418775, 38.6903015 ], [ -6.3418778, 38.6903028 ], [ -6.3418664, 38.6907966 ], [ -6.3418663, 38.6907986 ], [ -6.3417733, 38.6912034 ], [ -6.3417515, 38.6912985 ], [ -6.341575, 38.6916999 ], [ -6.3413731, 38.6920273 ], [ -6.3412656, 38.6922022 ], [ -6.3416978, 38.6926127 ], [ -6.3416974, 38.6926134 ], [ -6.341698, 38.6926141 ], [ -6.3408962, 38.6941402 ], [ -6.341459, 38.6945743 ], [ -6.3415512, 38.6946452 ], [ -6.341551, 38.6946453 ], [ -6.3415513, 38.6946455 ], [ -6.3406972, 38.6950676 ], [ -6.3396497, 38.6957825 ], [ -6.3393725, 38.696085 ], [ -6.3392453, 38.6962245 ], [ -6.3391394, 38.696659 ], [ -6.3391529, 38.6974363 ], [ -6.3391604, 38.6978572 ], [ -6.3397787, 38.6985424 ], [ -6.3401096, 38.6987999 ], [ -6.3408401, 38.6993679 ], [ -6.3412351, 38.6995797 ], [ -6.3413822, 38.6996585 ], [ -6.34139, 38.6995752 ], [ -6.3414974, 38.6984283 ], [ -6.3447672, 38.6985342 ], [ -6.3447801, 38.6986632 ], [ -6.3448098, 38.698957 ], [ -6.3448097, 38.6989583 ], [ -6.3448097, 38.6989586 ], [ -6.3447512, 38.699479 ], [ -6.3447367, 38.6996076 ], [ -6.3446311, 38.7005476 ], [ -6.3446309, 38.7005479 ], [ -6.3446308, 38.7005492 ], [ -6.3445743, 38.7006779 ], [ -6.3444961, 38.7008577 ], [ -6.344058, 38.7015635 ], [ -6.3443694, 38.7025228 ], [ -6.3446913, 38.7035148 ], [ -6.344823, 38.7039187 ], [ -6.3448224, 38.7039187 ], [ -6.3448228, 38.7039202 ], [ -6.3445128, 38.7039378 ], [ -6.3441805, 38.7039582 ], [ -6.3435441, 38.7039333 ], [ -6.3427988, 38.7039061 ], [ -6.3419526, 38.7040023 ], [ -6.3419097, 38.7045621 ], [ -6.3418809, 38.7049323 ], [ -6.3418808, 38.7049326 ], [ -6.3418808, 38.704933 ], [ -6.341437, 38.7062607 ], [ -6.3409353, 38.7070149 ], [ -6.340094, 38.7082804 ], [ -6.3389554, 38.7080247 ], [ -6.3387849, 38.7082791 ], [ -6.3379344, 38.7095506 ], [ -6.3374747, 38.7100361 ], [ -6.3372877, 38.7102344 ], [ -6.3366725, 38.7106032 ], [ -6.3336935, 38.7118144 ], [ -6.3325893, 38.7118027 ], [ -6.3321583, 38.7119325 ], [ -6.3290608, 38.7138213 ], [ -6.3281656, 38.7145846 ], [ -6.3267996, 38.7156818 ], [ -6.3248177, 38.7172742 ], [ -6.3243567, 38.7177467 ], [ -6.323478, 38.719132 ], [ -6.3227986, 38.719854 ], [ -6.3227096, 38.7199203 ], [ -6.3222202, 38.7202866 ], [ -6.32208, 38.7203766 ], [ -6.3217758, 38.7205719 ], [ -6.3212715, 38.7208974 ], [ -6.3205244, 38.7212729 ], [ -6.319677, 38.7217009 ], [ -6.3199036, 38.7219931 ], [ -6.3199082, 38.7219991 ], [ -6.3199086, 38.7219995 ], [ -6.3191329, 38.7226349 ], [ -6.3185981, 38.7232437 ], [ -6.3204346, 38.72393 ], [ -6.3208379, 38.7245877 ], [ -6.321032, 38.7249038 ], [ -6.321118, 38.7250183 ], [ -6.3214973, 38.7255213 ], [ -6.3217715, 38.7257297 ], [ -6.3222331, 38.7259356 ], [ -6.3223398, 38.7259827 ], [ -6.3226641, 38.726126 ], [ -6.324597, 38.7263955 ], [ -6.3252959, 38.7265827 ], [ -6.3258906, 38.7268499 ], [ -6.3260354, 38.7269145 ], [ -6.326837, 38.7273592 ], [ -6.3272866, 38.7276086 ], [ -6.3278846, 38.7275987 ], [ -6.3280336, 38.7275959 ], [ -6.3283604, 38.728237 ], [ -6.3284004, 38.7283155 ], [ -6.3290058, 38.7282262 ], [ -6.3299833, 38.7282253 ], [ -6.3299828, 38.7282261 ], [ -6.3299833, 38.7282261 ], [ -6.32964, 38.7287588 ], [ -6.3294027, 38.7289748 ], [ -6.3292539, 38.7291109 ], [ -6.3288589, 38.7294068 ], [ -6.328654, 38.7295607 ], [ -6.3272495, 38.7307718 ], [ -6.3269783, 38.7311215 ], [ -6.3265036, 38.7324937 ], [ -6.3258734, 38.7343153 ], [ -6.3261371, 38.7344322 ], [ -6.3261784, 38.7344502 ], [ -6.327034, 38.7350464 ], [ -6.3272047, 38.7355008 ], [ -6.3272046, 38.735502 ], [ -6.3272047, 38.7355023 ], [ -6.3271947, 38.7356257 ], [ -6.3271683, 38.735955 ], [ -6.32698, 38.7362713 ], [ -6.3268906, 38.7364216 ], [ -6.3267878, 38.7365535 ], [ -6.3265109, 38.7369093 ], [ -6.3261033, 38.7377632 ], [ -6.3260179, 38.7379422 ], [ -6.3255675, 38.738882 ], [ -6.326381, 38.739066 ], [ -6.3273315, 38.7393428 ], [ -6.3277335, 38.7394591 ], [ -6.3277373, 38.7395175 ], [ -6.3277743, 38.7400893 ], [ -6.3278987, 38.7404058 ], [ -6.3279179, 38.7404543 ], [ -6.3280838, 38.7404128 ], [ -6.328725, 38.7402514 ], [ -6.3288167, 38.7408836 ], [ -6.3288265, 38.7409511 ], [ -6.3288268, 38.7409526 ], [ -6.3288214, 38.741131 ], [ -6.3288178, 38.7412576 ], [ -6.3291392, 38.7411634 ], [ -6.3293962, 38.7410873 ], [ -6.3293964, 38.7410881 ], [ -6.3293965, 38.741088 ], [ -6.3294672, 38.741549 ], [ -6.3295449, 38.7420547 ], [ -6.3302167, 38.7420375 ], [ -6.3305674, 38.7420275 ], [ -6.3315263, 38.7421173 ], [ -6.3325963, 38.7426182 ], [ -6.332853, 38.7428291 ], [ -6.333063, 38.743 ], [ -6.3336002, 38.7436557 ], [ -6.3340748, 38.7442336 ], [ -6.3342674, 38.7445586 ], [ -6.3345369, 38.7450113 ], [ -6.3345367, 38.7450131 ], [ -6.3343066, 38.7477224 ], [ -6.3342178, 38.7480402 ], [ -6.3342349, 38.7484092 ], [ -6.334398, 38.7486719 ], [ -6.3344711, 38.7487893 ], [ -6.3355179, 38.7497772 ], [ -6.3356234, 38.7498922 ], [ -6.3358086, 38.7500935 ], [ -6.3362637, 38.7506057 ], [ -6.336355, 38.7507085 ], [ -6.3363535, 38.7507094 ], [ -6.3363547, 38.7507107 ], [ -6.3357747, 38.7510463 ], [ -6.3353133, 38.7513148 ], [ -6.3330162, 38.7524093 ], [ -6.3321961, 38.7528006 ], [ -6.3308203, 38.7533452 ], [ -6.3301626, 38.7536058 ], [ -6.3299491, 38.7537506 ], [ -6.3291364, 38.7543028 ], [ -6.3289092, 38.7545249 ], [ -6.3285442, 38.7548817 ], [ -6.3284654, 38.7549587 ], [ -6.3284668, 38.7549591 ], [ -6.3289191, 38.755086 ], [ -6.3294095, 38.7552218 ], [ -6.3297481, 38.7553292 ], [ -6.329811, 38.75594 ], [ -6.3291128, 38.7560141 ], [ -6.3288839, 38.7560404 ], [ -6.3287754, 38.756456 ], [ -6.3287473, 38.7565644 ], [ -6.3287757, 38.7565714 ], [ -6.3288867, 38.7565969 ], [ -6.3294108, 38.7567351 ], [ -6.3304414, 38.7568769 ], [ -6.3308139, 38.7572176 ], [ -6.3308125, 38.7572184 ], [ -6.3308139, 38.7572197 ], [ -6.3294724, 38.7580492 ], [ -6.3303584, 38.7590503 ], [ -6.3310892, 38.7592577 ], [ -6.3314547, 38.7593606 ], [ -6.3314098, 38.7595006 ], [ -6.3312432, 38.76002 ], [ -6.3310726, 38.7605523 ], [ -6.33073, 38.7610566 ], [ -6.3305242, 38.761361 ], [ -6.3315054, 38.7616931 ], [ -6.3326219, 38.7619495 ], [ -6.3335289, 38.7621559 ], [ -6.3345121, 38.7624968 ], [ -6.335435, 38.762815 ], [ -6.3355721, 38.763398 ], [ -6.3355931, 38.7634869 ], [ -6.3356732, 38.7637662 ], [ -6.3357611, 38.7640726 ], [ -6.3358694, 38.7644501 ], [ -6.3359363, 38.7646834 ], [ -6.3360771, 38.7648647 ], [ -6.3361769, 38.7649933 ], [ -6.3364015, 38.7652827 ], [ -6.3376793, 38.7655434 ], [ -6.3380531, 38.7656712 ], [ -6.3382859, 38.7657507 ], [ -6.3382873, 38.7657511 ], [ -6.3383556, 38.765796 ], [ -6.3386434, 38.7659843 ], [ -6.338839, 38.7660189 ], [ -6.3388441, 38.7660198 ], [ -6.3406161, 38.7663313 ], [ -6.3415248, 38.7665772 ], [ -6.3419411, 38.7666182 ], [ -6.3430556, 38.7664536 ], [ -6.3432892, 38.7664189 ], [ -6.3433397, 38.7664045 ], [ -6.3433453, 38.7664029 ], [ -6.3436069, 38.7663273 ], [ -6.3436062, 38.7663289 ], [ -6.3436071, 38.7663287 ], [ -6.3433702, 38.7669355 ], [ -6.3433303, 38.7670375 ], [ -6.3433758, 38.7670553 ], [ -6.3443096, 38.7674213 ], [ -6.3448303, 38.7676254 ], [ -6.3455746, 38.7678321 ], [ -6.3459257, 38.7679288 ], [ -6.3478113, 38.7685288 ], [ -6.3481333, 38.7686312 ], [ -6.349063, 38.7688542 ], [ -6.3492737, 38.7689048 ], [ -6.3492737, 38.7689066 ], [ -6.3492739, 38.7689067 ], [ -6.3492599, 38.7693676 ], [ -6.3492378, 38.7701039 ], [ -6.349514, 38.7701158 ], [ -6.3506213, 38.7701625 ], [ -6.3505858, 38.7695598 ], [ -6.3505108, 38.7682928 ], [ -6.350511, 38.7682927 ], [ -6.3505109, 38.7682905 ], [ -6.3509725, 38.7680803 ], [ -6.3520252, 38.767951 ], [ -6.3531196, 38.7681378 ], [ -6.3546118, 38.7683912 ], [ -6.3551514, 38.7683834 ], [ -6.3558649, 38.7683714 ], [ -6.3571732, 38.7684337 ], [ -6.3573066, 38.7684398 ], [ -6.3573066, 38.76844 ], [ -6.3573116, 38.7685059 ], [ -6.3573972, 38.7696354 ], [ -6.3575536, 38.7705856 ], [ -6.3575744, 38.7707118 ], [ -6.3575745, 38.770712 ], [ -6.3576782, 38.7711319 ], [ -6.3577731, 38.7715163 ], [ -6.3577732, 38.7715175 ], [ -6.3577734, 38.7715184 ], [ -6.3578895, 38.7729194 ], [ -6.3579587, 38.7737535 ], [ -6.3580145, 38.7741127 ], [ -6.3582556, 38.7756642 ], [ -6.3582555, 38.7756646 ], [ -6.3582555, 38.7756647 ], [ -6.358191, 38.7760101 ] ], [ [ -6.4391128, 38.6916058 ], [ -6.4287983, 38.699244 ], [ -6.4289011, 38.6993368 ], [ -6.4194021, 38.7064065 ], [ -6.416043, 38.708543 ], [ -6.4160488, 38.7086081 ], [ -6.4158582, 38.7086363 ], [ -6.4136912, 38.7096339 ], [ -6.4112747, 38.7105054 ], [ -6.4084054, 38.7110658 ], [ -6.405905, 38.711196 ], [ -6.4026115, 38.711025 ], [ -6.3991217, 38.7103067 ], [ -6.3963702, 38.7107872 ], [ -6.3943995, 38.7061729 ], [ -6.3934733, 38.7045982 ], [ -6.3878565, 38.6969625 ], [ -6.3830484, 38.6915986 ], [ -6.3829672, 38.6916367 ], [ -6.3814733, 38.6900757 ], [ -6.3789797, 38.685686 ], [ -6.3786218, 38.6842853 ], [ -6.3778906, 38.6800922 ], [ -6.378975, 38.6802603 ], [ -6.3802814, 38.6805059 ], [ -6.3821066, 38.6807855 ], [ -6.3846758, 38.6812124 ], [ -6.3865764, 38.6816334 ], [ -6.3881047, 38.6821406 ], [ -6.3895836, 38.6827412 ], [ -6.3903294, 38.682857 ], [ -6.3924444, 38.6830934 ], [ -6.3939457, 38.6821494 ], [ -6.3969957, 38.6813074 ], [ -6.3975449, 38.6811575 ], [ -6.3978901, 38.6808498 ], [ -6.3980511, 38.6807092 ], [ -6.3982033, 38.680573 ], [ -6.3987914, 38.6800455 ], [ -6.3989956, 38.6798608 ], [ -6.3947866, 38.6769417 ], [ -6.3972123, 38.6748133 ], [ -6.3970247, 38.674722 ], [ -6.3968334, 38.6746276 ], [ -6.3963414, 38.6744094 ], [ -6.3960185, 38.6742626 ], [ -6.3957226, 38.6741334 ], [ -6.3956263, 38.6738056 ], [ -6.394695, 38.6733331 ], [ -6.3946948, 38.6733333 ], [ -6.3939361, 38.6729336 ], [ -6.3939123, 38.6729211 ], [ -6.3936659, 38.6731535 ], [ -6.3935491, 38.6730678 ], [ -6.3933714, 38.6729377 ], [ -6.3932525, 38.6728495 ], [ -6.3931533, 38.6727707 ], [ -6.3930387, 38.6726825 ], [ -6.3929626, 38.6726222 ], [ -6.3928479, 38.6725386 ], [ -6.392623, 38.6723804 ], [ -6.392486, 38.6722782 ], [ -6.3923568, 38.6721943 ], [ -6.3921962, 38.6720871 ], [ -6.3921266, 38.672045 ], [ -6.3916719, 38.671769 ], [ -6.3912404, 38.6714891 ], [ -6.3909977, 38.671308 ], [ -6.3906487, 38.671048 ], [ -6.3902136, 38.6707274 ], [ -6.3898764, 38.6704991 ], [ -6.389609, 38.6703084 ], [ -6.3892609, 38.6700619 ], [ -6.3889821, 38.6698485 ], [ -6.3886751, 38.6695984 ], [ -6.3884522, 38.6694087 ], [ -6.3882486, 38.6692194 ], [ -6.3881124, 38.6690722 ], [ -6.3880824, 38.669031 ], [ -6.3880114, 38.6689483 ], [ -6.3879783, 38.6689116 ], [ -6.3878091, 38.6687636 ], [ -6.3876826, 38.6686482 ], [ -6.3875176, 38.6685228 ], [ -6.3874973, 38.6685089 ], [ -6.3867124, 38.6674192 ], [ -6.3856353, 38.6664445 ], [ -6.3836963, 38.6650768 ], [ -6.3819326, 38.6636319 ], [ -6.3882938, 38.6615851 ], [ -6.3936957, 38.6600863 ], [ -6.3937287, 38.6601139 ], [ -6.3961799, 38.6596686 ], [ -6.400044, 38.6596134 ], [ -6.4046781, 38.6604128 ], [ -6.4080711, 38.6617058 ], [ -6.4110577, 38.6635053 ], [ -6.4110732, 38.663639 ], [ -6.4124513, 38.6646419 ], [ -6.4157162, 38.6672497 ], [ -6.4158137, 38.6673275 ], [ -6.4205179, 38.6711178 ], [ -6.4235515, 38.6735268 ], [ -6.4255151, 38.6749184 ], [ -6.426579, 38.6755684 ], [ -6.4265901, 38.675564 ], [ -6.4278148, 38.6762143 ], [ -6.4311273, 38.6778331 ], [ -6.4347451, 38.6797289 ], [ -6.4364607, 38.6810132 ], [ -6.4381615, 38.6830034 ], [ -6.438993, 38.6846187 ], [ -6.4395541, 38.6866805 ], [ -6.4397504, 38.6882383 ], [ -6.4391133, 38.691606 ], [ -6.4391128, 38.6916058 ] ] ] } }
]
}
