{
"type": "FeatureCollection",
"name": "06010",
"features": [
{ "type": "Feature", "properties": { "CCAA": "11 - Extremadura", "PROVINCIA": "06 - Badajoz", "MUNICIPIO": "06010 - Almendral", "COD_MUNICIPIO": "06010", "DISTRITO": "01", "SECCION": "0601001001", "V1_H": 79.19, "V1_M": 85.12, "V2_H": 79.38537767, "V2_M": 85.11224236, "V3_H": 79.115857, "V3_M": 85.3484756 }, "geometry": { "type": "Polygon", "coordinates": [ [ [ -6.8125801, 38.6745272 ], [ -6.8148814, 38.6743859 ], [ -6.8184899, 38.6746891 ], [ -6.8205236, 38.6749018 ], [ -6.8222871, 38.6752224 ], [ -6.8240708, 38.6757045 ], [ -6.824631, 38.6758663 ], [ -6.8246924, 38.6757846 ], [ -6.8249575, 38.6758619 ], [ -6.8257952, 38.6747463 ], [ -6.826652, 38.6747642 ], [ -6.8311173, 38.6748971 ], [ -6.8313249, 38.6748887 ], [ -6.8314436, 38.6748922 ], [ -6.8335437, 38.6748076 ], [ -6.8367865, 38.6751974 ], [ -6.8370255, 38.6751806 ], [ -6.8371127, 38.675191 ], [ -6.841188, 38.6749059 ], [ -6.8438413, 38.6744997 ], [ -6.8439839, 38.6746355 ], [ -6.8442865, 38.6749238 ], [ -6.8465537, 38.6749933 ], [ -6.8466604, 38.6749817 ], [ -6.8468801, 38.6749884 ], [ -6.8494048, 38.674715 ], [ -6.8498701, 38.674602 ], [ -6.8504242, 38.6742337 ], [ -6.8510624, 38.6736958 ], [ -6.853077, 38.6709937 ], [ -6.853268, 38.6702764 ], [ -6.8533057, 38.6699032 ], [ -6.852871, 38.6682238 ], [ -6.8527343, 38.6667436 ], [ -6.8525829, 38.666065 ], [ -6.8526296, 38.6647909 ], [ -6.8528687, 38.6639033 ], [ -6.8535956, 38.6618127 ], [ -6.8542654, 38.6603789 ], [ -6.8546426, 38.6599172 ], [ -6.8560068, 38.6583655 ], [ -6.8564408, 38.6579004 ], [ -6.8572951, 38.6571186 ], [ -6.858169, 38.6562167 ], [ -6.8581873, 38.6561979 ], [ -6.8590307, 38.655006 ], [ -6.8597354, 38.6537935 ], [ -6.8600447, 38.6522809 ], [ -6.8605977, 38.6508088 ], [ -6.8609222, 38.6502336 ], [ -6.8613719, 38.6496246 ], [ -6.8625525, 38.6482946 ], [ -6.8624288, 38.6466345 ], [ -6.8619831, 38.6451802 ], [ -6.8613871, 38.6437051 ], [ -6.8599382, 38.6404664 ], [ -6.8596315, 38.6396724 ], [ -6.8600471, 38.6390763 ], [ -6.8606124, 38.6380549 ], [ -6.8609061, 38.6368934 ], [ -6.8610441, 38.6358283 ], [ -6.8612202, 38.6350476 ], [ -6.8617446, 38.6336876 ], [ -6.8622902, 38.6325262 ], [ -6.8628885, 38.6312622 ], [ -6.8641191, 38.6293745 ], [ -6.8641575, 38.6290238 ], [ -6.8639045, 38.6287939 ], [ -6.8614956, 38.6277677 ], [ -6.8614655, 38.6272085 ], [ -6.8617742, 38.6261194 ], [ -6.8618016, 38.6259938 ], [ -6.8632361, 38.6227762 ], [ -6.8642395, 38.6202897 ], [ -6.8695757, 38.6104216 ], [ -6.8703318, 38.6086873 ], [ -6.8718253, 38.6057276 ], [ -6.872444, 38.604635 ], [ -6.8737921, 38.6017537 ], [ -6.8747576, 38.5992168 ], [ -6.8751033, 38.5981779 ], [ -6.8756134, 38.5969887 ], [ -6.8757587, 38.5964913 ], [ -6.8757902, 38.5953746 ], [ -6.8759212, 38.5945357 ], [ -6.8760379, 38.5937887 ], [ -6.8762924, 38.5925544 ], [ -6.8766525, 38.5915608 ], [ -6.87858, 38.5881448 ], [ -6.8800907, 38.5853024 ], [ -6.8803286, 38.5843876 ], [ -6.8804252, 38.5834207 ], [ -6.8804512, 38.5830473 ], [ -6.8804262, 38.5817268 ], [ -6.8794486, 38.5808396 ], [ -6.8789788, 38.5804211 ], [ -6.8781033, 38.5795042 ], [ -6.8778698, 38.5796078 ], [ -6.8777776, 38.5795113 ], [ -6.8762757, 38.5801736 ], [ -6.8732953, 38.5810831 ], [ -6.8730329, 38.5811202 ], [ -6.8728942, 38.5803737 ], [ -6.8730306, 38.5792769 ], [ -6.872945, 38.5781175 ], [ -6.873064, 38.5769077 ], [ -6.873288, 38.57447 ], [ -6.8734199, 38.5734992 ], [ -6.8740666, 38.5712268 ], [ -6.8741168, 38.5708853 ], [ -6.8740955, 38.5704885 ], [ -6.8735558, 38.5696227 ], [ -6.8725336, 38.5683336 ], [ -6.8715138, 38.5664319 ], [ -6.8711545, 38.5655063 ], [ -6.8703999, 38.5625687 ], [ -6.8700755, 38.5608012 ], [ -6.8695114, 38.5594799 ], [ -6.8688334, 38.5583953 ], [ -6.8679868, 38.5573617 ], [ -6.8671631, 38.5567655 ], [ -6.866633, 38.5565035 ], [ -6.8663553, 38.5564592 ], [ -6.8657656, 38.55573 ], [ -6.8657042, 38.5552563 ], [ -6.8655504, 38.5540708 ], [ -6.8650916, 38.5537466 ], [ -6.8614373, 38.551164 ], [ -6.860673, 38.5503003 ], [ -6.860606, 38.5502245 ], [ -6.8600821, 38.5496325 ], [ -6.859062, 38.5486057 ], [ -6.8574393, 38.5469724 ], [ -6.8569637, 38.5460142 ], [ -6.8546452, 38.5457669 ], [ -6.8511278, 38.5453056 ], [ -6.8506835, 38.5452473 ], [ -6.8506834, 38.5452473 ], [ -6.8487551, 38.5447901 ], [ -6.8487544, 38.5447898 ], [ -6.8486188, 38.5448392 ], [ -6.8473714, 38.5452944 ], [ -6.8455224, 38.5458957 ], [ -6.8438576, 38.5465089 ], [ -6.8422973, 38.5469295 ], [ -6.8396439, 38.5477193 ], [ -6.8385177, 38.5483237 ], [ -6.8374983, 38.5489967 ], [ -6.8367219, 38.549341 ], [ -6.8364673, 38.5494538 ], [ -6.8357122, 38.54992 ], [ -6.8337906, 38.5513161 ], [ -6.8327425, 38.5518819 ], [ -6.8288709, 38.553495 ], [ -6.8276661, 38.5539217 ], [ -6.8274443, 38.5549288 ], [ -6.8274129, 38.5558486 ], [ -6.8268492, 38.5565346 ], [ -6.8265078, 38.5569501 ], [ -6.8252295, 38.5588024 ], [ -6.824719, 38.5597739 ], [ -6.824531, 38.5607709 ], [ -6.8243621, 38.5612628 ], [ -6.823003, 38.5639734 ], [ -6.8214287, 38.5680332 ], [ -6.8202392, 38.5717831 ], [ -6.819883, 38.5732372 ], [ -6.8198054, 38.5735538 ], [ -6.8191968, 38.575276 ], [ -6.8189112, 38.5751675 ], [ -6.8188712, 38.5752806 ], [ -6.8183151, 38.5766949 ], [ -6.8179676, 38.5783636 ], [ -6.8169898, 38.5817823 ], [ -6.8169301, 38.5826039 ], [ -6.8154542, 38.5822558 ], [ -6.8141102, 38.5820115 ], [ -6.812684, 38.5819499 ], [ -6.81061, 38.5817923 ], [ -6.8075447, 38.5819823 ], [ -6.8043691, 38.5822568 ], [ -6.8037505, 38.5820608 ], [ -6.8026299, 38.5834394 ], [ -6.8020688, 38.5841151 ], [ -6.8011992, 38.5854675 ], [ -6.8002002, 38.586761 ], [ -6.8000282, 38.5871989 ], [ -6.799849, 38.5879344 ], [ -6.799343, 38.5894371 ], [ -6.7987441, 38.5902672 ], [ -6.7991769, 38.5908566 ], [ -6.7998235, 38.5915832 ], [ -6.8023153, 38.5939973 ], [ -6.8035169, 38.5976242 ], [ -6.804725, 38.6009356 ], [ -6.8074234, 38.6087652 ], [ -6.8087078, 38.6122092 ], [ -6.8092285, 38.6138046 ], [ -6.807743, 38.6158886 ], [ -6.806589, 38.6170792 ], [ -6.8065947, 38.6176194 ], [ -6.8065288, 38.6233143 ], [ -6.8067535, 38.6243067 ], [ -6.8069577, 38.6257773 ], [ -6.8070767, 38.6280252 ], [ -6.8075053, 38.630047 ], [ -6.8080691, 38.6320192 ], [ -6.8089356, 38.634504 ], [ -6.8095178, 38.6359533 ], [ -6.8070697, 38.6391676 ], [ -6.8067324, 38.6427725 ], [ -6.8067844, 38.6467881 ], [ -6.8061907, 38.6579135 ], [ -6.8061968, 38.6579217 ], [ -6.8062879, 38.6580434 ], [ -6.8065173, 38.6579112 ], [ -6.8080376, 38.65994 ], [ -6.8087182, 38.6610791 ], [ -6.8088475, 38.6615726 ], [ -6.8088799, 38.6628211 ], [ -6.8088267, 38.6633382 ], [ -6.8088398, 38.6642305 ], [ -6.8091712, 38.6659396 ], [ -6.8094192, 38.6664984 ], [ -6.8096633, 38.6667598 ], [ -6.8096766, 38.6667961 ], [ -6.8100183, 38.6676043 ], [ -6.8104115, 38.668301 ], [ -6.810846, 38.6693408 ], [ -6.8118974, 38.6714163 ], [ -6.8121802, 38.6719743 ], [ -6.8123878, 38.6728477 ], [ -6.8125785, 38.6745127 ], [ -6.8125801, 38.6745272 ] ] ] } }
]
}
