{
"type": "FeatureCollection",
"name": "06081",
"features": [
{ "type": "Feature", "properties": { "CCAA": "11 - Extremadura", "PROVINCIA": "06 - Badajoz", "MUNICIPIO": "06081 - Medina de las Torres", "COD_MUNICIPIO": "06081", "DISTRITO": "01", "SECCION": "0608101001", "V1_H": 79.29, "V1_M": 85.18, "V2_H": 79.29248013, "V2_M": 85.31775581, "V3_H": 79.43295666, "V3_M": 85.21995842 }, "geometry": { "type": "Polygon", "coordinates": [ [ [ -6.3128322, 38.361703 ], [ -6.3209618, 38.3616202 ], [ -6.3209701, 38.3616216 ], [ -6.3212854, 38.3616184 ], [ -6.3240205, 38.3621011 ], [ -6.3252593, 38.3620208 ], [ -6.3312485, 38.3616344 ], [ -6.3402611, 38.3610625 ], [ -6.343068, 38.3608923 ], [ -6.3431395, 38.3609057 ], [ -6.3433915, 38.3608904 ], [ -6.3481927, 38.3617893 ], [ -6.3520756, 38.3626241 ], [ -6.3523063, 38.3626626 ], [ -6.3544879, 38.3630776 ], [ -6.3546503, 38.363127 ], [ -6.3607921, 38.3650499 ], [ -6.3635812, 38.3667176 ], [ -6.3710474, 38.3670885 ], [ -6.3735679, 38.3674033 ], [ -6.3793894, 38.3682638 ], [ -6.3857247, 38.3680723 ], [ -6.3870346, 38.3679443 ], [ -6.3917807, 38.3664887 ], [ -6.3932616, 38.3660345 ], [ -6.3934079, 38.3660867 ], [ -6.3935853, 38.3660323 ], [ -6.4013354, 38.3687984 ], [ -6.4024132, 38.3693346 ], [ -6.402655, 38.3694796 ], [ -6.4039206, 38.3702385 ], [ -6.4039855, 38.3702366 ], [ -6.4117614, 38.3701276 ], [ -6.4117688, 38.3701297 ], [ -6.4120851, 38.3701253 ], [ -6.4131758, 38.3704448 ], [ -6.4154153, 38.3711134 ], [ -6.4170521, 38.371602 ], [ -6.42301, 38.3749853 ], [ -6.4238718, 38.3754746 ], [ -6.424311, 38.375717 ], [ -6.4289336, 38.3782677 ], [ -6.4300295, 38.3788723 ], [ -6.4302281, 38.3789819 ], [ -6.4302285, 38.3789815 ], [ -6.4307774, 38.378489 ], [ -6.4324282, 38.3763763 ], [ -6.4333584, 38.3754777 ], [ -6.434503, 38.3747504 ], [ -6.4356211, 38.3742028 ], [ -6.4369833, 38.3737176 ], [ -6.436918, 38.3736261 ], [ -6.4380729, 38.3731238 ], [ -6.4399254, 38.3718893 ], [ -6.4406799, 38.3716329 ], [ -6.4416179, 38.3716234 ], [ -6.4426432, 38.3715301 ], [ -6.4430519, 38.3712209 ], [ -6.4431208, 38.3709847 ], [ -6.4428683, 38.3702444 ], [ -6.4426715, 38.3692322 ], [ -6.4428663, 38.3682716 ], [ -6.4433747, 38.3674099 ], [ -6.444401, 38.3663708 ], [ -6.4458241, 38.3652569 ], [ -6.4469117, 38.3643061 ], [ -6.4485326, 38.362781 ], [ -6.4503356, 38.3614757 ], [ -6.4526403, 38.3601377 ], [ -6.4536263, 38.3594599 ], [ -6.4556759, 38.3575708 ], [ -6.4613062, 38.3588009 ], [ -6.4632528, 38.3590766 ], [ -6.4653005, 38.3590702 ], [ -6.4666007, 38.3589867 ], [ -6.4670465, 38.3587392 ], [ -6.4677617, 38.3581415 ], [ -6.4690724, 38.357319 ], [ -6.4701916, 38.3567995 ], [ -6.4721138, 38.3560849 ], [ -6.4735289, 38.3557727 ], [ -6.473313, 38.3550855 ], [ -6.4732421, 38.3543218 ], [ -6.473405, 38.3531819 ], [ -6.4742773, 38.3513274 ], [ -6.4746144, 38.3507228 ], [ -6.4738685, 38.3501954 ], [ -6.4736147, 38.3496715 ], [ -6.4735175, 38.349314 ], [ -6.472511, 38.3493168 ], [ -6.4708463, 38.3472762 ], [ -6.4694337, 38.346201 ], [ -6.4688659, 38.3455692 ], [ -6.4685591, 38.3453711 ], [ -6.4672437, 38.345374 ], [ -6.4664001, 38.345435 ], [ -6.4660646, 38.3453549 ], [ -6.4666061, 38.3447172 ], [ -6.4668663, 38.3441781 ], [ -6.4645871, 38.3412367 ], [ -6.4618446, 38.3372099 ], [ -6.4606809, 38.33583 ], [ -6.4588791, 38.3340184 ], [ -6.4586128, 38.3334678 ], [ -6.4569948, 38.3311913 ], [ -6.4569561, 38.3298953 ], [ -6.456856, 38.3294748 ], [ -6.456679, 38.3291197 ], [ -6.4568869, 38.3286811 ], [ -6.4574484, 38.3275026 ], [ -6.4588634, 38.3279202 ], [ -6.462537, 38.3286945 ], [ -6.4642423, 38.3292027 ], [ -6.4651045, 38.3295374 ], [ -6.4671558, 38.3305849 ], [ -6.4680699, 38.3305668 ], [ -6.469726, 38.3295629 ], [ -6.4717051, 38.3279008 ], [ -6.4714784, 38.3272229 ], [ -6.4713001, 38.3263633 ], [ -6.4708986, 38.3256185 ], [ -6.4702366, 38.3249265 ], [ -6.4699031, 38.3246481 ], [ -6.4697188, 38.3229419 ], [ -6.4697685, 38.3220666 ], [ -6.4697536, 38.3200762 ], [ -6.4698917, 38.3186578 ], [ -6.4697382, 38.3180768 ], [ -6.4694249, 38.3175005 ], [ -6.4686691, 38.3136403 ], [ -6.4685999, 38.3126694 ], [ -6.468615, 38.3117862 ], [ -6.4692739, 38.3088209 ], [ -6.4693952, 38.3080066 ], [ -6.4694419, 38.3070683 ], [ -6.4693465, 38.3060262 ], [ -6.4695528, 38.3060201 ], [ -6.4690628, 38.3060055 ], [ -6.4682077, 38.3058146 ], [ -6.4669517, 38.3056085 ], [ -6.46566, 38.3056107 ], [ -6.4656466, 38.3056128 ], [ -6.465589, 38.3056129 ], [ -6.4653368, 38.3056133 ], [ -6.4648375, 38.3056911 ], [ -6.4643857, 38.3060468 ], [ -6.4636462, 38.3068434 ], [ -6.4631233, 38.3071471 ], [ -6.4627211, 38.3072122 ], [ -6.460695, 38.3069826 ], [ -6.4598284, 38.306792 ], [ -6.4591377, 38.306452 ], [ -6.4585907, 38.3060087 ], [ -6.4578944, 38.3053086 ], [ -6.4575505, 38.3050485 ], [ -6.4571686, 38.3049517 ], [ -6.4568912, 38.3049658 ], [ -6.4568455, 38.3049542 ], [ -6.4551576, 38.30504 ], [ -6.4545206, 38.3051556 ], [ -6.4542731, 38.3051272 ], [ -6.4529556, 38.3043462 ], [ -6.4528508, 38.3043042 ], [ -6.4520358, 38.3039949 ], [ -6.4517157, 38.3038245 ], [ -6.4510741, 38.3034828 ], [ -6.4499429, 38.3032548 ], [ -6.4492884, 38.303193 ], [ -6.4486642, 38.3030492 ], [ -6.4468718, 38.3028587 ], [ -6.4459917, 38.3026234 ], [ -6.4446639, 38.3021039 ], [ -6.4446638, 38.3021038 ], [ -6.4433088, 38.3007654 ], [ -6.4427755, 38.3003667 ], [ -6.4421924, 38.3001226 ], [ -6.4414465, 38.3000634 ], [ -6.4404178, 38.3000666 ], [ -6.4386994, 38.2997477 ], [ -6.438258, 38.2995985 ], [ -6.4376431, 38.2991661 ], [ -6.4374477, 38.2989016 ], [ -6.4374793, 38.2983601 ], [ -6.4381112, 38.2974587 ], [ -6.4392287, 38.2961918 ], [ -6.4393854, 38.2956377 ], [ -6.4393743, 38.2951606 ], [ -6.4391915, 38.2946795 ], [ -6.4385157, 38.2939246 ], [ -6.4374485, 38.2931091 ], [ -6.4365921, 38.2921613 ], [ -6.4360635, 38.291375 ], [ -6.4358364, 38.2909222 ], [ -6.4357217, 38.2901869 ], [ -6.435735, 38.2892586 ], [ -6.4356195, 38.2887485 ], [ -6.435192, 38.2881665 ], [ -6.4345341, 38.2875462 ], [ -6.433127, 38.2865514 ], [ -6.4321264, 38.2859321 ], [ -6.431477, 38.2857349 ], [ -6.4308598, 38.285735 ], [ -6.4308526, 38.2857374 ], [ -6.4305737, 38.2857374 ], [ -6.4305369, 38.2857374 ], [ -6.4300529, 38.2858957 ], [ -6.4292227, 38.2867127 ], [ -6.428633, 38.2875407 ], [ -6.4281905, 38.2878509 ], [ -6.4278231, 38.2883031 ], [ -6.4264933, 38.2901617 ], [ -6.4260233, 38.2906169 ], [ -6.4256444, 38.2908261 ], [ -6.4254488, 38.290857 ], [ -6.4249786, 38.2906995 ], [ -6.4244962, 38.2904073 ], [ -6.4240532, 38.2902221 ], [ -6.4223037, 38.2885075 ], [ -6.4212541, 38.2875742 ], [ -6.4188056, 38.2860602 ], [ -6.4177521, 38.2855324 ], [ -6.4172415, 38.2853671 ], [ -6.4164717, 38.2852814 ], [ -6.4159348, 38.2850449 ], [ -6.4157049, 38.2847723 ], [ -6.415557, 38.2840559 ], [ -6.4156078, 38.2834328 ], [ -6.4160082, 38.2827095 ], [ -6.4161896, 38.2819475 ], [ -6.4161972, 38.2813797 ], [ -6.4158337, 38.2809399 ], [ -6.4153565, 38.2807556 ], [ -6.4150078, 38.2806307 ], [ -6.4139848, 38.2805073 ], [ -6.4137233, 38.280517 ], [ -6.4136619, 38.2805096 ], [ -6.4128349, 38.2805402 ], [ -6.4124598, 38.2801553 ], [ -6.412153, 38.2797048 ], [ -6.4120249, 38.279168 ], [ -6.4122326, 38.2782341 ], [ -6.4128363, 38.2769733 ], [ -6.4130161, 38.2764186 ], [ -6.4129751, 38.2757892 ], [ -6.4126231, 38.2751058 ], [ -6.4117133, 38.2739792 ], [ -6.4100913, 38.2725309 ], [ -6.4097191, 38.2721454 ], [ -6.4095082, 38.2717911 ], [ -6.3970893, 38.2716022 ], [ -6.3970832, 38.2716092 ], [ -6.3967665, 38.2716044 ], [ -6.3936917, 38.2751199 ], [ -6.3884877, 38.2810688 ], [ -6.3871443, 38.2829003 ], [ -6.3861413, 38.2851724 ], [ -6.3859378, 38.2854666 ], [ -6.3789042, 38.293498 ], [ -6.3770955, 38.2941807 ], [ -6.3717514, 38.2972624 ], [ -6.371529, 38.2973949 ], [ -6.3705996, 38.2985567 ], [ -6.3706894, 38.2995133 ], [ -6.3706899, 38.299518 ], [ -6.3707809, 38.3000019 ], [ -6.3690716, 38.3087624 ], [ -6.3648919, 38.3135669 ], [ -6.3593785, 38.3177249 ], [ -6.355928, 38.3192742 ], [ -6.3544183, 38.321002 ], [ -6.3547386, 38.3237315 ], [ -6.355523, 38.3243757 ], [ -6.3566389, 38.32774 ], [ -6.3543305, 38.3297609 ], [ -6.3532332, 38.3307653 ], [ -6.3503932, 38.333414 ], [ -6.3495315, 38.333826 ], [ -6.3489805, 38.3340309 ], [ -6.3485086, 38.3342156 ], [ -6.348054, 38.3345258 ], [ -6.3474095, 38.3351838 ], [ -6.3461007, 38.3363203 ], [ -6.3446225, 38.3377498 ], [ -6.3429168, 38.3397083 ], [ -6.3386284, 38.3449565 ], [ -6.3345633, 38.3500991 ], [ -6.3315664, 38.3543464 ], [ -6.3282859, 38.3544126 ], [ -6.3270634, 38.3544473 ], [ -6.3255144, 38.3553471 ], [ -6.3204279, 38.3579507 ], [ -6.3192744, 38.3584969 ], [ -6.3127262, 38.3616038 ], [ -6.3128322, 38.361703 ], [ -6.3128322, 38.361703 ] ] ] } }
]
}
