{
"type": "FeatureCollection",
"name": "06099",
"features": [
{ "type": "Feature", "properties": { "CCAA": "11 - Extremadura", "PROVINCIA": "06 - Badajoz", "MUNICIPIO": "06099 - Parra, La", "COD_MUNICIPIO": "06099", "DISTRITO": "01", "SECCION": "0609901001", "V1_H": 77.6, "V1_M": 83.87, "V2_H": 77.77347434000001, "V2_M": 84.06024086, "V3_H": 77.45781126, "V3_M": 83.80561047 }, "geometry": { "type": "Polygon", "coordinates": [ [ [ -6.6027521, 38.5876974 ], [ -6.6041382, 38.5871668 ], [ -6.6061567, 38.5862218 ], [ -6.6077784, 38.5855253 ], [ -6.6081677, 38.585358 ], [ -6.6094345, 38.5847277 ], [ -6.6108245, 38.5857918 ], [ -6.612558, 38.5869453 ], [ -6.6145115, 38.588137 ], [ -6.6148043, 38.5881136 ], [ -6.6148372, 38.5881336 ], [ -6.615203, 38.5881043 ], [ -6.6156253, 38.5880704 ], [ -6.6180816, 38.5881527 ], [ -6.6182257, 38.5881432 ], [ -6.6184073, 38.5881493 ], [ -6.6201212, 38.5880356 ], [ -6.6208762, 38.5880392 ], [ -6.6219872, 38.5882209 ], [ -6.6228148, 38.5884745 ], [ -6.6269372, 38.5901123 ], [ -6.6295349, 38.5913288 ], [ -6.6304657, 38.5915791 ], [ -6.6306616, 38.5915407 ], [ -6.6307914, 38.5915756 ], [ -6.6327008, 38.591201 ], [ -6.6340339, 38.5907812 ], [ -6.6351562, 38.5902779 ], [ -6.6361722, 38.5897148 ], [ -6.6385061, 38.5888856 ], [ -6.6395631, 38.5886815 ], [ -6.6407778, 38.5886437 ], [ -6.6418495, 38.5885022 ], [ -6.6429862, 38.5882867 ], [ -6.6454854, 38.5875512 ], [ -6.6464866, 38.5871507 ], [ -6.6471586, 38.5868246 ], [ -6.6468554, 38.5868173 ], [ -6.6465215, 38.5861161 ], [ -6.6451856, 38.5844373 ], [ -6.644366, 38.5834359 ], [ -6.6438534, 38.5828304 ], [ -6.642944, 38.5818679 ], [ -6.6411637, 38.5802479 ], [ -6.6395421, 38.5792715 ], [ -6.6370872, 38.5781498 ], [ -6.6361464, 38.5779269 ], [ -6.6358686, 38.5771969 ], [ -6.6352632, 38.576342 ], [ -6.6348647, 38.575949 ], [ -6.6342943, 38.5755613 ], [ -6.6329208, 38.5749465 ], [ -6.6318354, 38.5745839 ], [ -6.6313157, 38.5745189 ], [ -6.630281, 38.574479 ], [ -6.6297652, 38.573351 ], [ -6.6292093, 38.5725666 ], [ -6.628242, 38.5709031 ], [ -6.6275139, 38.570115 ], [ -6.6278407, 38.5663486 ], [ -6.627801, 38.5660165 ], [ -6.6276816, 38.565696 ], [ -6.6268233, 38.565056 ], [ -6.6259759, 38.5646319 ], [ -6.625408, 38.5642892 ], [ -6.62513, 38.5640095 ], [ -6.624442, 38.5628779 ], [ -6.6240689, 38.5625291 ], [ -6.6204313, 38.5600025 ], [ -6.6193101, 38.5593796 ], [ -6.6188589, 38.5593035 ], [ -6.6170698, 38.5593139 ], [ -6.6163386, 38.5593725 ], [ -6.615704, 38.559302 ], [ -6.6152615, 38.5591716 ], [ -6.6145746, 38.5587424 ], [ -6.6138549, 38.5581161 ], [ -6.6140841, 38.5578838 ], [ -6.6151255, 38.5573742 ], [ -6.6178194, 38.5557325 ], [ -6.6186378, 38.5553559 ], [ -6.6197872, 38.554942 ], [ -6.6215241, 38.5541226 ], [ -6.6226118, 38.5533952 ], [ -6.6235047, 38.552674 ], [ -6.6268594, 38.550264 ], [ -6.629126, 38.5488065 ], [ -6.6316984, 38.5470422 ], [ -6.633422, 38.5457365 ], [ -6.634698, 38.5451114 ], [ -6.6367853, 38.5437403 ], [ -6.6393845, 38.5416057 ], [ -6.640128, 38.5413394 ], [ -6.6404638, 38.5411758 ], [ -6.6406878, 38.5410697 ], [ -6.6419957, 38.5397138 ], [ -6.6442189, 38.5378611 ], [ -6.6461621, 38.5361431 ], [ -6.64689, 38.5355709 ], [ -6.6475096, 38.534894 ], [ -6.6476558, 38.5346102 ], [ -6.6477723, 38.5341922 ], [ -6.6487652, 38.532738 ], [ -6.6495899, 38.5318115 ], [ -6.6503353, 38.5311307 ], [ -6.6515901, 38.5300916 ], [ -6.6521765, 38.5294428 ], [ -6.6525811, 38.5288266 ], [ -6.6528505, 38.5282597 ], [ -6.6555125, 38.5289692 ], [ -6.6574399, 38.5296656 ], [ -6.6578166, 38.5303114 ], [ -6.6600441, 38.5308183 ], [ -6.6605011, 38.5310111 ], [ -6.6610007, 38.5313648 ], [ -6.6640003, 38.532622 ], [ -6.6642703, 38.5336495 ], [ -6.6644686, 38.5339405 ], [ -6.6652128, 38.5345928 ], [ -6.6664749, 38.5355081 ], [ -6.6678873, 38.5364456 ], [ -6.669286, 38.5371133 ], [ -6.6705941, 38.5371264 ], [ -6.6709697, 38.5370695 ], [ -6.6725159, 38.53703 ], [ -6.6733216, 38.5373109 ], [ -6.6736302, 38.5375175 ], [ -6.6738387, 38.5377811 ], [ -6.6739573, 38.5380837 ], [ -6.6739302, 38.5393546 ], [ -6.6741725, 38.5398334 ], [ -6.6749462, 38.5403856 ], [ -6.6769822, 38.5409522 ], [ -6.6786856, 38.5412949 ], [ -6.6798838, 38.5416265 ], [ -6.6815475, 38.5423128 ], [ -6.6826474, 38.5429628 ], [ -6.6827939, 38.5424628 ], [ -6.6839583, 38.5403363 ], [ -6.6844667, 38.5392844 ], [ -6.6858907, 38.5373028 ], [ -6.6865597, 38.5364801 ], [ -6.6872448, 38.5357469 ], [ -6.6872448, 38.5357469 ], [ -6.6876488, 38.5357972 ], [ -6.6883656, 38.5359097 ], [ -6.6884846, 38.5358735 ], [ -6.687974, 38.5357933 ], [ -6.68757, 38.535743 ], [ -6.6872234, 38.5353267 ], [ -6.6860061, 38.5338647 ], [ -6.6860931, 38.5335467 ], [ -6.6860384, 38.5327017 ], [ -6.6859183, 38.532147 ], [ -6.6849214, 38.5296922 ], [ -6.6839731, 38.5268396 ], [ -6.6837179, 38.5261091 ], [ -6.6837256, 38.5253612 ], [ -6.6836427, 38.5250845 ], [ -6.6829708, 38.5240518 ], [ -6.6824024, 38.5230248 ], [ -6.6819801, 38.5223895 ], [ -6.6796675, 38.5199852 ], [ -6.6777974, 38.5186118 ], [ -6.6758784, 38.517402 ], [ -6.673996, 38.5166865 ], [ -6.67342, 38.5164073 ], [ -6.672426, 38.5153486 ], [ -6.6718111, 38.5149806 ], [ -6.6709993, 38.5145737 ], [ -6.6687903, 38.5128414 ], [ -6.6681374, 38.5124025 ], [ -6.667621, 38.5121665 ], [ -6.6653606, 38.5119041 ], [ -6.6633384, 38.5109135 ], [ -6.6611721, 38.5095671 ], [ -6.6596276, 38.5087237 ], [ -6.6551255, 38.5062972 ], [ -6.653826, 38.5055361 ], [ -6.6504656, 38.5030107 ], [ -6.6495508, 38.5021475 ], [ -6.6490886, 38.5016214 ], [ -6.64829, 38.5010158 ], [ -6.6475606, 38.5001918 ], [ -6.6459374, 38.4989182 ], [ -6.6448626, 38.4978348 ], [ -6.643574, 38.49683 ], [ -6.6417887, 38.4948408 ], [ -6.6403242, 38.493301 ], [ -6.6393136, 38.4923506 ], [ -6.6374533, 38.4909131 ], [ -6.6348146, 38.4883558 ], [ -6.6327435, 38.4861411 ], [ -6.6276656, 38.4804166 ], [ -6.6274516, 38.4802611 ], [ -6.6256575, 38.4796771 ], [ -6.6256596, 38.479787 ], [ -6.6253328, 38.4796806 ], [ -6.6253539, 38.4807879 ], [ -6.6252425, 38.4810796 ], [ -6.6238663, 38.4822032 ], [ -6.622086, 38.4832672 ], [ -6.6211983, 38.4836189 ], [ -6.6201008, 38.4841304 ], [ -6.619808, 38.4841559 ], [ -6.6195088, 38.4841282 ], [ -6.6191258, 38.484032 ], [ -6.6181126, 38.4832526 ], [ -6.6176913, 38.4830765 ], [ -6.6164308, 38.4830794 ], [ -6.6164175, 38.4830821 ], [ -6.6161061, 38.4830828 ], [ -6.6156863, 38.4831679 ], [ -6.6149399, 38.4835963 ], [ -6.6143485, 38.484146 ], [ -6.6139905, 38.4843192 ], [ -6.6136266, 38.4843755 ], [ -6.6130086, 38.4843945 ], [ -6.6122277, 38.4845899 ], [ -6.6118589, 38.4846283 ], [ -6.6115912, 38.4846161 ], [ -6.6111931, 38.4844482 ], [ -6.6107431, 38.4841558 ], [ -6.6102892, 38.4840167 ], [ -6.6098301, 38.4840039 ], [ -6.6097917, 38.4840153 ], [ -6.6095053, 38.4840073 ], [ -6.6090649, 38.4841379 ], [ -6.6082155, 38.4845695 ], [ -6.6061679, 38.4853353 ], [ -6.6057988, 38.4855178 ], [ -6.6054008, 38.4858093 ], [ -6.6044761, 38.4868016 ], [ -6.60422, 38.4868974 ], [ -6.6041293, 38.486891 ], [ -6.603906, 38.4867808 ], [ -6.6037597, 38.4866051 ], [ -6.603246, 38.4850355 ], [ -6.6030266, 38.4847721 ], [ -6.6025276, 38.4844181 ], [ -6.6023414, 38.4843608 ], [ -6.6021893, 38.4844173 ], [ -6.6020166, 38.4843641 ], [ -6.6008014, 38.4848159 ], [ -6.6002668, 38.4849715 ], [ -6.5999832, 38.4848747 ], [ -6.5997043, 38.484568 ], [ -6.5996799, 38.4843076 ], [ -6.5999672, 38.4831727 ], [ -6.5999675, 38.4829475 ], [ -6.5998845, 38.4826618 ], [ -6.5992985, 38.4819412 ], [ -6.5992265, 38.4816462 ], [ -6.5993935, 38.4813167 ], [ -6.6000946, 38.4808988 ], [ -6.6003373, 38.4808722 ], [ -6.6007809, 38.4809522 ], [ -6.6012924, 38.4810985 ], [ -6.6015961, 38.4810892 ], [ -6.6016171, 38.4810952 ], [ -6.6019947, 38.4810835 ], [ -6.602263, 38.4809491 ], [ -6.6023997, 38.4807017 ], [ -6.6027017, 38.4794043 ], [ -6.602673, 38.4792881 ], [ -6.6023794, 38.479144 ], [ -6.6011614, 38.4788482 ], [ -6.6007749, 38.47868 ], [ -6.6005133, 38.4784898 ], [ -6.6002235, 38.4781924 ], [ -6.5996947, 38.4774701 ], [ -6.5993429, 38.4773098 ], [ -6.599104, 38.4773441 ], [ -6.599097, 38.477349 ], [ -6.5990183, 38.477313 ], [ -6.5987793, 38.4773475 ], [ -6.5985467, 38.4775077 ], [ -6.5983445, 38.4778202 ], [ -6.5980503, 38.4785859 ], [ -6.5977534, 38.4788383 ], [ -6.5974614, 38.4789554 ], [ -6.5969608, 38.4789652 ], [ -6.5964516, 38.4788489 ], [ -6.596286, 38.4787459 ], [ -6.5962176, 38.4785228 ], [ -6.5962459, 38.4781706 ], [ -6.5964942, 38.4776316 ], [ -6.5965326, 38.477252 ], [ -6.5964559, 38.4770922 ], [ -6.5962547, 38.4769633 ], [ -6.595701, 38.4764309 ], [ -6.5953594, 38.4762431 ], [ -6.5950254, 38.4762084 ], [ -6.5948563, 38.4762279 ], [ -6.5947294, 38.4762147 ], [ -6.5947007, 38.4762117 ], [ -6.5943817, 38.4762485 ], [ -6.593987, 38.4763777 ], [ -6.5933318, 38.4770284 ], [ -6.5928764, 38.4772026 ], [ -6.5928631, 38.4772026 ], [ -6.5924423, 38.4770354 ], [ -6.5920152, 38.4767422 ], [ -6.5917831, 38.4764521 ], [ -6.5915947, 38.4758904 ], [ -6.5914366, 38.475706 ], [ -6.5913114, 38.4756675 ], [ -6.5912504, 38.4756487 ], [ -6.5910069, 38.4756768 ], [ -6.5910065, 38.4756769 ], [ -6.5909314, 38.4756855 ], [ -6.5902699, 38.4762103 ], [ -6.5899558, 38.476346 ], [ -6.5895338, 38.476386 ], [ -6.5883889, 38.4766373 ], [ -6.5882121, 38.4767688 ], [ -6.5879348, 38.4774169 ], [ -6.5877231, 38.4779999 ], [ -6.5876737, 38.4783888 ], [ -6.5877357, 38.4789454 ], [ -6.5880883, 38.4798173 ], [ -6.5881241, 38.4800774 ], [ -6.5880354, 38.4815215 ], [ -6.5877706, 38.4824214 ], [ -6.5876097, 38.4826425 ], [ -6.5862089, 38.4828206 ], [ -6.5843026, 38.4832032 ], [ -6.5830821, 38.4844747 ], [ -6.5816264, 38.4863209 ], [ -6.5785307, 38.4867579 ], [ -6.5771731, 38.4887362 ], [ -6.5774576, 38.4898535 ], [ -6.5776696, 38.4904325 ], [ -6.5777017, 38.4910801 ], [ -6.5781041, 38.4927253 ], [ -6.5786793, 38.494158 ], [ -6.5787857, 38.4946862 ], [ -6.5787717, 38.4955604 ], [ -6.5785551, 38.4962786 ], [ -6.5780836, 38.4969416 ], [ -6.5776207, 38.4973161 ], [ -6.5789461, 38.4986178 ], [ -6.5795994, 38.4986158 ], [ -6.5798243, 38.5001493 ], [ -6.5800543, 38.5010881 ], [ -6.5797996, 38.5028885 ], [ -6.5798051, 38.5032306 ], [ -6.5799212, 38.5037225 ], [ -6.5801472, 38.5041209 ], [ -6.5806815, 38.5051855 ], [ -6.5798273, 38.5071484 ], [ -6.5796415, 38.5077936 ], [ -6.5793991, 38.5082244 ], [ -6.5791055, 38.5090081 ], [ -6.5793396, 38.5095685 ], [ -6.5794822, 38.5101316 ], [ -6.5797031, 38.5106563 ], [ -6.5801605, 38.5113269 ], [ -6.5813899, 38.5127666 ], [ -6.5826239, 38.5138368 ], [ -6.5839915, 38.5145966 ], [ -6.5848072, 38.5148599 ], [ -6.585278, 38.5151067 ], [ -6.5858645, 38.5156022 ], [ -6.5865704, 38.5164273 ], [ -6.5881635, 38.5175675 ], [ -6.5889044, 38.5179411 ], [ -6.5894711, 38.5185002 ], [ -6.5893972, 38.5186285 ], [ -6.5885014, 38.5195208 ], [ -6.588299, 38.5198333 ], [ -6.5882313, 38.520547 ], [ -6.5883369, 38.5210572 ], [ -6.5883416, 38.5213814 ], [ -6.5878861, 38.5223682 ], [ -6.5876811, 38.5226267 ], [ -6.5872401, 38.5229825 ], [ -6.5863252, 38.5232628 ], [ -6.5848963, 38.5233517 ], [ -6.5844098, 38.5234837 ], [ -6.5835272, 38.5239521 ], [ -6.5831481, 38.5246303 ], [ -6.5826566, 38.525357 ], [ -6.5824509, 38.5258317 ], [ -6.5824212, 38.5260974 ], [ -6.5823874, 38.5264012 ], [ -6.5823822, 38.5272211 ], [ -6.5822802, 38.5274764 ], [ -6.5817978, 38.5279235 ], [ -6.5813761, 38.5282067 ], [ -6.5807483, 38.5284962 ], [ -6.580286, 38.5286545 ], [ -6.5799113, 38.528729 ], [ -6.5797662, 38.5286964 ], [ -6.5795861, 38.5287322 ], [ -6.5779974, 38.5283755 ], [ -6.5775315, 38.5283314 ], [ -6.5771977, 38.5283526 ], [ -6.5768922, 38.528434 ], [ -6.5765342, 38.5286161 ], [ -6.5762802, 38.528813 ], [ -6.5758674, 38.529276 ], [ -6.5753948, 38.529921 ], [ -6.5750857, 38.5308583 ], [ -6.5734941, 38.530907 ], [ -6.5715818, 38.531659 ], [ -6.5687857, 38.5328613 ], [ -6.5674353, 38.5336141 ], [ -6.5668479, 38.5340284 ], [ -6.5652098, 38.534763 ], [ -6.5635267, 38.5352827 ], [ -6.562967, 38.535561 ], [ -6.561967, 38.536213 ], [ -6.561224, 38.5362626 ], [ -6.5611274, 38.5362505 ], [ -6.5608987, 38.5362658 ], [ -6.5598024, 38.536128 ], [ -6.5584635, 38.5360594 ], [ -6.5582968, 38.5364418 ], [ -6.5578402, 38.5367169 ], [ -6.5544666, 38.5380807 ], [ -6.5533128, 38.538404 ], [ -6.5523103, 38.5385425 ], [ -6.551166, 38.5385953 ], [ -6.5518383, 38.5394396 ], [ -6.5512312, 38.5406201 ], [ -6.5508571, 38.5416403 ], [ -6.5506127, 38.5422693 ], [ -6.5502708, 38.5434778 ], [ -6.5499373, 38.5453255 ], [ -6.5493282, 38.5476321 ], [ -6.5492695, 38.5487939 ], [ -6.5492585, 38.5490124 ], [ -6.5487603, 38.5510093 ], [ -6.5488356, 38.5513764 ], [ -6.5490437, 38.5518745 ], [ -6.5489588, 38.5522464 ], [ -6.5486641, 38.5525526 ], [ -6.547818, 38.5533079 ], [ -6.5490596, 38.5538287 ], [ -6.5497942, 38.5543019 ], [ -6.5514299, 38.5556034 ], [ -6.5523518, 38.5566203 ], [ -6.5535, 38.5580358 ], [ -6.5541507, 38.5585176 ], [ -6.5553813, 38.5594289 ], [ -6.5570742, 38.5609538 ], [ -6.5586662, 38.5625268 ], [ -6.560313, 38.5642783 ], [ -6.5615519, 38.565898 ], [ -6.5626897, 38.5670974 ], [ -6.5628206, 38.5671925 ], [ -6.5635762, 38.5678541 ], [ -6.5659031, 38.5694316 ], [ -6.5675117, 38.5708689 ], [ -6.5684835, 38.5719562 ], [ -6.5704632, 38.573238 ], [ -6.5715667, 38.5739699 ], [ -6.5737758, 38.5761724 ], [ -6.5745331, 38.5770951 ], [ -6.5760839, 38.5792096 ], [ -6.5775255, 38.5810299 ], [ -6.5772852, 38.5811408 ], [ -6.5777294, 38.5817018 ], [ -6.5790096, 38.5834462 ], [ -6.579959, 38.5847683 ], [ -6.5811896, 38.5866673 ], [ -6.5827611, 38.588727 ], [ -6.5834029, 38.5894009 ], [ -6.5847692, 38.5910255 ], [ -6.5850674, 38.5912506 ], [ -6.5859707, 38.591412 ], [ -6.5868346, 38.5914756 ], [ -6.5869541, 38.5914572 ], [ -6.5871603, 38.5914723 ], [ -6.5881057, 38.5913262 ], [ -6.5899411, 38.5908465 ], [ -6.5922918, 38.5903913 ], [ -6.5931413, 38.5904352 ], [ -6.5932177, 38.590419 ], [ -6.593467, 38.5904319 ], [ -6.5961019, 38.5898735 ], [ -6.6000507, 38.5885088 ], [ -6.6014989, 38.588104 ], [ -6.6014995, 38.5881039 ], [ -6.6022784, 38.5878457 ], [ -6.6027305, 38.5877057 ], [ -6.6027521, 38.5876974 ] ] ] } }
]
}
