{
"type": "FeatureCollection",
"name": "06123",
"features": [
{ "type": "Feature", "properties": { "CCAA": "11 - Extremadura", "PROVINCIA": "06 - Badajoz", "MUNICIPIO": "06123 - San Vicente de Alcántara", "COD_MUNICIPIO": "06123", "DISTRITO": "03", "SECCION": "0612303001", "V1_H": 78.9, "V1_M": 84.87, "V2_H": 79.02373168, "V2_M": 85.07467156, "V3_H": 78.82484982, "V3_M": 84.79604014 }, "geometry": { "type": "MultiPolygon", "coordinates": [ [ [ [ -7.094419, 39.3805221 ], [ -7.0985204, 39.3847634 ], [ -7.0991101, 39.3851209 ], [ -7.099536, 39.385259 ], [ -7.1012659, 39.3854681 ], [ -7.1025463, 39.385531 ], [ -7.103377, 39.3856457 ], [ -7.1047179, 39.3859496 ], [ -7.1049453, 39.3859542 ], [ -7.1052059, 39.3859594 ], [ -7.1087936, 39.3853912 ], [ -7.1099971, 39.3851325 ], [ -7.1115, 39.384638 ], [ -7.1131693, 39.3844078 ], [ -7.1145553, 39.3840976 ], [ -7.1174096, 39.3836902 ], [ -7.1192062, 39.3836536 ], [ -7.1207526, 39.3829143 ], [ -7.1225723, 39.3822823 ], [ -7.1236355, 39.3818123 ], [ -7.1250325, 39.3814925 ], [ -7.1258733, 39.3811925 ], [ -7.1258735, 39.3811925 ], [ -7.1260694, 39.3811675 ], [ -7.1265409, 39.3808986 ], [ -7.1269366, 39.3805243 ], [ -7.1288817, 39.3782847 ], [ -7.1296573, 39.3776628 ], [ -7.1310124, 39.376831 ], [ -7.1316953, 39.3762123 ], [ -7.1339564, 39.3748445 ], [ -7.1341154, 39.3747483 ], [ -7.1362698, 39.3758605 ], [ -7.137433, 39.3766918 ], [ -7.1375542, 39.3767784 ], [ -7.1391376, 39.3760825 ], [ -7.1417019, 39.3749014 ], [ -7.1426736, 39.3742634 ], [ -7.144343, 39.3730601 ], [ -7.1471422, 39.371341 ], [ -7.1472939, 39.3697412 ], [ -7.145673, 39.3697418 ], [ -7.1441031, 39.3677009 ], [ -7.1415049, 39.3652963 ], [ -7.1398842, 39.3673748 ], [ -7.1389893, 39.3667776 ], [ -7.1385217, 39.3663462 ], [ -7.1376689, 39.3661479 ], [ -7.1374663, 39.3659406 ], [ -7.1365681, 39.3663253 ], [ -7.1361035, 39.3661512 ], [ -7.1350985, 39.3659773 ], [ -7.1341221, 39.3658691 ], [ -7.1340572, 39.3650624 ], [ -7.1316337, 39.3650068 ], [ -7.1305775, 39.3645868 ], [ -7.1288986, 39.3646188 ], [ -7.1288189, 39.3643861 ], [ -7.1291459, 39.3618104 ], [ -7.1297165, 39.361752 ], [ -7.1300654, 39.3617349 ], [ -7.1308121, 39.3617688 ], [ -7.1308425, 39.3616636 ], [ -7.1319277, 39.3618736 ], [ -7.1320814, 39.3618776 ], [ -7.1319888, 39.3616617 ], [ -7.1319946, 39.361447 ], [ -7.1320428, 39.361431 ], [ -7.1321941, 39.3610825 ], [ -7.1322892, 39.3608218 ], [ -7.1323039, 39.3604539 ], [ -7.1329483, 39.3605994 ], [ -7.1337519, 39.3607447 ], [ -7.1343262, 39.3609054 ], [ -7.1348445, 39.3610013 ], [ -7.1349395, 39.3607382 ], [ -7.1349857, 39.3606889 ], [ -7.1348037, 39.3606215 ], [ -7.1346004, 39.3606097 ], [ -7.1338834, 39.3604231 ], [ -7.1343659, 39.3603297 ], [ -7.1343728, 39.3601865 ], [ -7.1343101, 39.3601124 ], [ -7.1342673, 39.3600115 ], [ -7.1342543, 39.3597905 ], [ -7.1343109, 39.3597173 ], [ -7.134348, 39.3596552 ], [ -7.1343712, 39.3596354 ], [ -7.1345164, 39.3596303 ], [ -7.1346361, 39.3596172 ], [ -7.1347433, 39.3595862 ], [ -7.134906, 39.3595361 ], [ -7.1349353, 39.3595239 ], [ -7.1349642, 39.3594063 ], [ -7.1349634, 39.3593135 ], [ -7.1349835, 39.3592862 ], [ -7.1351808, 39.3593873 ], [ -7.1352713, 39.359444 ], [ -7.1353824, 39.3595086 ], [ -7.1355279, 39.3596163 ], [ -7.1357115, 39.3597474 ], [ -7.1357491, 39.3597815 ], [ -7.136071, 39.3596268 ], [ -7.1363855, 39.3595989 ], [ -7.1368433, 39.3595016 ], [ -7.1368388, 39.3594887 ], [ -7.1368397, 39.3594889 ], [ -7.1367436, 39.359218 ], [ -7.1370612, 39.3588779 ], [ -7.1372638, 39.358941 ], [ -7.1372568, 39.3589215 ], [ -7.1372804, 39.35891 ], [ -7.1372866, 39.3588926 ], [ -7.1372872, 39.3588373 ], [ -7.1372873, 39.3587714 ], [ -7.1372757, 39.3586638 ], [ -7.1372739, 39.3585796 ], [ -7.1372815, 39.3584141 ], [ -7.137291, 39.3583614 ], [ -7.1373088, 39.3582952 ], [ -7.1374395, 39.3580977 ], [ -7.1375006, 39.3579832 ], [ -7.137569, 39.3577457 ], [ -7.137601, 39.3576333 ], [ -7.1376427, 39.357428 ], [ -7.1376422, 39.3573225 ], [ -7.1376199, 39.3571928 ], [ -7.1376205, 39.3571112 ], [ -7.1376629, 39.3568494 ], [ -7.1375214, 39.3567091 ], [ -7.1374101, 39.3565316 ], [ -7.1373103, 39.3563993 ], [ -7.1372104, 39.3562771 ], [ -7.1370909, 39.3561648 ], [ -7.136922, 39.3560239 ], [ -7.136678, 39.355922 ], [ -7.1366327, 39.3558058 ], [ -7.1366009, 39.3556672 ], [ -7.136573, 39.3554733 ], [ -7.1365698, 39.3554142 ], [ -7.1365758, 39.3553678 ], [ -7.1366364, 39.3552721 ], [ -7.1367519, 39.3551147 ], [ -7.1391386, 39.3553368 ], [ -7.1412169, 39.3551865 ], [ -7.1429527, 39.3558871 ], [ -7.1439007, 39.3561392 ], [ -7.1444065, 39.3563881 ], [ -7.1454217, 39.3566372 ], [ -7.1453466, 39.3566682 ], [ -7.1452354, 39.3567393 ], [ -7.1451622, 39.3568185 ], [ -7.1449781, 39.3571056 ], [ -7.1448975, 39.3572274 ], [ -7.1448245, 39.3573066 ], [ -7.1447025, 39.3574077 ], [ -7.1445723, 39.3575049 ], [ -7.1496231, 39.3603004 ], [ -7.1510357, 39.3605168 ], [ -7.1521421, 39.3609539 ], [ -7.1521123, 39.361279 ], [ -7.1533657, 39.3617108 ], [ -7.1533024, 39.3618846 ], [ -7.1521795, 39.3632401 ], [ -7.1506722, 39.3630843 ], [ -7.150261, 39.3644334 ], [ -7.1519861, 39.365363 ], [ -7.1510037, 39.3670185 ], [ -7.1499314, 39.3675715 ], [ -7.151053, 39.3687634 ], [ -7.1546306, 39.3675052 ], [ -7.1565717, 39.3658057 ], [ -7.1590685, 39.3640862 ], [ -7.1596191, 39.3635891 ], [ -7.1601353, 39.3629042 ], [ -7.1615617, 39.3613311 ], [ -7.1617986, 39.3608273 ], [ -7.1620408, 39.359828 ], [ -7.1620157, 39.3594056 ], [ -7.1617466, 39.3580013 ], [ -7.1618062, 39.3570535 ], [ -7.16194, 39.3565714 ], [ -7.1622611, 39.3561186 ], [ -7.1630198, 39.3548306 ], [ -7.1641469, 39.353106 ], [ -7.1650784, 39.3521901 ], [ -7.1653202, 39.3513799 ], [ -7.1657021, 39.3505827 ], [ -7.1664122, 39.3498457 ], [ -7.1668729, 39.349595 ], [ -7.1677278, 39.348952 ], [ -7.1679764, 39.3486459 ], [ -7.1684639, 39.3478718 ], [ -7.1686186, 39.347353 ], [ -7.1687006, 39.3467827 ], [ -7.168951, 39.3461266 ], [ -7.1689515, 39.3461252 ], [ -7.1698202, 39.3451304 ], [ -7.1710078, 39.3442322 ], [ -7.1714138, 39.3440375 ], [ -7.1720964, 39.3438149 ], [ -7.1725165, 39.3434666 ], [ -7.1730046, 39.3428997 ], [ -7.174739, 39.3412523 ], [ -7.1747451, 39.3405766 ], [ -7.1749198, 39.340003 ], [ -7.1751184, 39.3398337 ], [ -7.1762557, 39.3392615 ], [ -7.1766778, 39.3379765 ], [ -7.1767839, 39.3378106 ], [ -7.1775117, 39.3375683 ], [ -7.1769902, 39.3344619 ], [ -7.1769484, 39.3337609 ], [ -7.1770774, 39.3333961 ], [ -7.1771463, 39.3333846 ], [ -7.1777338, 39.3333184 ], [ -7.178165, 39.3312135 ], [ -7.1781392, 39.3307822 ], [ -7.1775941, 39.3286403 ], [ -7.1770573, 39.3274168 ], [ -7.1758279, 39.3272178 ], [ -7.1752117, 39.3269968 ], [ -7.1749244, 39.326845 ], [ -7.1746501, 39.3261344 ], [ -7.174382, 39.3257207 ], [ -7.1735197, 39.3250672 ], [ -7.1730063, 39.3244282 ], [ -7.1725572, 39.3235077 ], [ -7.1722385, 39.3230238 ], [ -7.1717907, 39.3227066 ], [ -7.1707799, 39.3222836 ], [ -7.1701068, 39.3218845 ], [ -7.1696724, 39.3214048 ], [ -7.1688439, 39.3201466 ], [ -7.1686559, 39.3203724 ], [ -7.1685192, 39.3205365 ], [ -7.167956, 39.3221778 ], [ -7.1667815, 39.3232916 ], [ -7.1661928, 39.3260686 ], [ -7.1648053, 39.3273071 ], [ -7.1628583, 39.327521 ], [ -7.1622471, 39.3281643 ], [ -7.1613844, 39.3292579 ], [ -7.1605217, 39.3305496 ], [ -7.1596245, 39.3306718 ], [ -7.1593759, 39.3306669 ], [ -7.1591368, 39.3306623 ], [ -7.1582802, 39.3302966 ], [ -7.1580224, 39.330335 ], [ -7.1573261, 39.3304389 ], [ -7.1572593, 39.3304058 ], [ -7.155749, 39.3296577 ], [ -7.1553009, 39.3289442 ], [ -7.1548588, 39.3279423 ], [ -7.1546203, 39.3270503 ], [ -7.1540169, 39.3254777 ], [ -7.1545961, 39.3248806 ], [ -7.1541548, 39.3240859 ], [ -7.1530737, 39.3238453 ], [ -7.1523641, 39.3222406 ], [ -7.1523535, 39.3214755 ], [ -7.1523535, 39.3214754 ], [ -7.1523536, 39.3214753 ], [ -7.1541394, 39.3197184 ], [ -7.1555837, 39.3176765 ], [ -7.1558548, 39.3173606 ], [ -7.1559217, 39.3167278 ], [ -7.1558851, 39.3157204 ], [ -7.1555313, 39.3144452 ], [ -7.1570358, 39.3136168 ], [ -7.1579726, 39.3131871 ], [ -7.1588269, 39.3129313 ], [ -7.1607315, 39.312593 ], [ -7.1616776, 39.3121269 ], [ -7.1634426, 39.3110009 ], [ -7.1644421, 39.3102626 ], [ -7.1659749, 39.3089378 ], [ -7.1695341, 39.3064056 ], [ -7.1700831, 39.3058906 ], [ -7.1705196, 39.3042628 ], [ -7.1710558, 39.3025594 ], [ -7.1715735, 39.2989835 ], [ -7.1720434, 39.2977238 ], [ -7.1725457, 39.2968141 ], [ -7.1735033, 39.2959602 ], [ -7.175021, 39.2947799 ], [ -7.1758601, 39.2942725 ], [ -7.1771839, 39.2937296 ], [ -7.1788998, 39.2931545 ], [ -7.1800323, 39.2927086 ], [ -7.1810532, 39.2917532 ], [ -7.1842527, 39.288459 ], [ -7.1862487, 39.2865589 ], [ -7.1870365, 39.2859721 ], [ -7.1879859, 39.2855687 ], [ -7.1890016, 39.2847215 ], [ -7.1902094, 39.2837954 ], [ -7.1907428, 39.2832178 ], [ -7.1917111, 39.2819671 ], [ -7.1925385, 39.2806854 ], [ -7.1931684, 39.279591 ], [ -7.1941707, 39.27833 ], [ -7.1944561, 39.2778694 ], [ -7.1946977, 39.2772573 ], [ -7.1946521, 39.2757189 ], [ -7.1946995, 39.2753479 ], [ -7.1955135, 39.2740397 ], [ -7.1967343, 39.2727528 ], [ -7.1972657, 39.2723373 ], [ -7.1982754, 39.2708149 ], [ -7.1987132, 39.2703848 ], [ -7.2007655, 39.2692479 ], [ -7.2013078, 39.2688231 ], [ -7.2026914, 39.267161 ], [ -7.2036923, 39.2662692 ], [ -7.2040894, 39.26581 ], [ -7.2041901, 39.2656935 ], [ -7.2041907, 39.2656928 ], [ -7.203396, 39.2651902 ], [ -7.2014383, 39.2642253 ], [ -7.2006577, 39.2639309 ], [ -7.1994114, 39.2634609 ], [ -7.1988929, 39.2631194 ], [ -7.1984555, 39.26271 ], [ -7.1979479, 39.2622349 ], [ -7.1979388, 39.2622314 ], [ -7.1958854, 39.2614538 ], [ -7.1953265, 39.2612128 ], [ -7.1946656, 39.2607789 ], [ -7.1946633, 39.2607774 ], [ -7.1935287, 39.2598187 ], [ -7.1927479, 39.2593515 ], [ -7.1918794, 39.2589163 ], [ -7.1918761, 39.2589146 ], [ -7.1897775, 39.2581077 ], [ -7.1881769, 39.2574138 ], [ -7.1879937, 39.2573343 ], [ -7.1862767, 39.2561263 ], [ -7.1862365, 39.2561046 ], [ -7.1826501, 39.2541674 ], [ -7.1816285, 39.2535529 ], [ -7.1811243, 39.2532497 ], [ -7.1803352, 39.2528367 ], [ -7.1803343, 39.2528364 ], [ -7.1765189, 39.2515779 ], [ -7.1744792, 39.2509757 ], [ -7.1737177, 39.250823 ], [ -7.1737172, 39.2508229 ], [ -7.1701231, 39.2505736 ], [ -7.1677415, 39.2500646 ], [ -7.1668035, 39.2498731 ], [ -7.163377, 39.2495185 ], [ -7.1618983, 39.2491932 ], [ -7.1595293, 39.2485034 ], [ -7.1569546, 39.2474697 ], [ -7.1565519, 39.2471239 ], [ -7.1560377, 39.2472413 ], [ -7.1552952, 39.2472228 ], [ -7.1539853, 39.2470084 ], [ -7.1531099, 39.2468956 ], [ -7.151327, 39.2473015 ], [ -7.1512571, 39.247295 ], [ -7.1505819, 39.247238 ], [ -7.1503292, 39.2472741 ], [ -7.1499233, 39.2476578 ], [ -7.1470708, 39.24839 ], [ -7.1455253, 39.2488955 ], [ -7.144215, 39.2490683 ], [ -7.1427581, 39.2491112 ], [ -7.1414077, 39.2489972 ], [ -7.1382487, 39.248263 ], [ -7.1375847, 39.2474131 ], [ -7.1359672, 39.2464979 ], [ -7.134793, 39.2454409 ], [ -7.1336706, 39.2450665 ], [ -7.1326781, 39.2449307 ], [ -7.1324664, 39.2446771 ], [ -7.1321966, 39.2440292 ], [ -7.1321007, 39.2429879 ], [ -7.1318539, 39.2417448 ], [ -7.1316221, 39.2415459 ], [ -7.1311372, 39.241374 ], [ -7.1297165, 39.2412443 ], [ -7.1266111, 39.2412195 ], [ -7.1236865, 39.2413142 ], [ -7.1221324, 39.2412792 ], [ -7.1210659, 39.2410648 ], [ -7.1197503, 39.2405531 ], [ -7.1164894, 39.2394527 ], [ -7.1151749, 39.239157 ], [ -7.1125807, 39.2391587 ], [ -7.1117774, 39.2394843 ], [ -7.1088807, 39.241442 ], [ -7.1074805, 39.2426533 ], [ -7.1053573, 39.2447727 ], [ -7.1034164, 39.2468406 ], [ -7.1018646, 39.249228 ], [ -7.1015671, 39.2500851 ], [ -7.1012292, 39.2510426 ], [ -7.1009794, 39.2527176 ], [ -7.1009945, 39.2535727 ], [ -7.1009981, 39.2544281 ], [ -7.1012707, 39.2557244 ], [ -7.1020109, 39.258085 ], [ -7.1033559, 39.2628649 ], [ -7.1032002, 39.2639691 ], [ -7.1029053, 39.2670507 ], [ -7.1028732, 39.267295 ], [ -7.1025625, 39.2683237 ], [ -7.1016952, 39.2699394 ], [ -7.1006911, 39.2721904 ], [ -7.1002668, 39.2734572 ], [ -7.1002941, 39.2743208 ], [ -7.1008106, 39.2760228 ], [ -7.1017797, 39.2795191 ], [ -7.101993, 39.2807904 ], [ -7.1019509, 39.2820528 ], [ -7.1016748, 39.2830802 ], [ -7.1015579, 39.2862365 ], [ -7.1013255, 39.2872174 ], [ -7.1003155, 39.2885769 ], [ -7.098683, 39.2901926 ], [ -7.0977518, 39.2913152 ], [ -7.0970461, 39.2919345 ], [ -7.096237, 39.2923683 ], [ -7.0951275, 39.2932179 ], [ -7.0944692, 39.2938535 ], [ -7.094152, 39.2945762 ], [ -7.0938268, 39.2959566 ], [ -7.0939124, 39.2968272 ], [ -7.0938444, 39.2982436 ], [ -7.0936501, 39.2998805 ], [ -7.093276, 39.3014157 ], [ -7.0928809, 39.3025915 ], [ -7.0920369, 39.3030265 ], [ -7.088932, 39.3044506 ], [ -7.088038, 39.3050225 ], [ -7.0872481, 39.3053925 ], [ -7.0863293, 39.30574 ], [ -7.0855077, 39.3061651 ], [ -7.0843445, 39.3062961 ], [ -7.0837444, 39.3065424 ], [ -7.0815763, 39.3083297 ], [ -7.0807951, 39.3088525 ], [ -7.0774984, 39.310175 ], [ -7.0790448, 39.3108502 ], [ -7.0798992, 39.3113877 ], [ -7.0809008, 39.3122621 ], [ -7.0816878, 39.3132342 ], [ -7.0820588, 39.3140317 ], [ -7.0824366, 39.3151442 ], [ -7.0833945, 39.3184519 ], [ -7.083708, 39.3202511 ], [ -7.0845988, 39.3230028 ], [ -7.0845849, 39.3237598 ], [ -7.0843213, 39.3244085 ], [ -7.0841748, 39.3252783 ], [ -7.0842855, 39.326184 ], [ -7.0842448, 39.3272752 ], [ -7.0840972, 39.328127 ], [ -7.0832563, 39.3296155 ], [ -7.0832378, 39.3298954 ], [ -7.0834497, 39.3303472 ], [ -7.083668, 39.3323029 ], [ -7.0841154, 39.333413 ], [ -7.0841427, 39.3334841 ], [ -7.0842052, 39.3339592 ], [ -7.0837568, 39.3346234 ], [ -7.0830785, 39.3353227 ], [ -7.0831852, 39.3355621 ], [ -7.0836892, 39.3358506 ], [ -7.0843471, 39.336593 ], [ -7.0857146, 39.3383642 ], [ -7.0864794, 39.3391479 ], [ -7.0870727, 39.3395773 ], [ -7.0878392, 39.3399917 ], [ -7.0886714, 39.3403407 ], [ -7.0908537, 39.3409664 ], [ -7.0913067, 39.3411756 ], [ -7.0917523, 39.3414571 ], [ -7.0923452, 39.3414812 ], [ -7.0941529, 39.3418499 ], [ -7.0951746, 39.3422642 ], [ -7.0974526, 39.3441292 ], [ -7.0986202, 39.3448536 ], [ -7.0999324, 39.3454737 ], [ -7.1021001, 39.3460457 ], [ -7.1024322, 39.3463672 ], [ -7.1026158, 39.34673 ], [ -7.1026111, 39.3472435 ], [ -7.1022312, 39.3482836 ], [ -7.1023702, 39.3494675 ], [ -7.1025932, 39.3501081 ], [ -7.1031531, 39.3507548 ], [ -7.1034947, 39.3516343 ], [ -7.1035716, 39.3535409 ], [ -7.1033759, 39.3545565 ], [ -7.1031197, 39.3553311 ], [ -7.1027461, 39.3558846 ], [ -7.1022646, 39.3563789 ], [ -7.1015442, 39.3569538 ], [ -7.100587, 39.3578431 ], [ -7.0989214, 39.3591177 ], [ -7.098657, 39.3590717 ], [ -7.0984056, 39.3590279 ], [ -7.0962122, 39.3584207 ], [ -7.0942041, 39.357807 ], [ -7.0928265, 39.3574593 ], [ -7.0908584, 39.3565379 ], [ -7.0878485, 39.355455 ], [ -7.0861926, 39.3545136 ], [ -7.0840396, 39.3534004 ], [ -7.0820107, 39.3526252 ], [ -7.0794573, 39.3514089 ], [ -7.0793898, 39.3515413 ], [ -7.0789992, 39.3523076 ], [ -7.0787375, 39.3531904 ], [ -7.0782414, 39.3544326 ], [ -7.0766513, 39.3568121 ], [ -7.0747786, 39.3591203 ], [ -7.0737921, 39.3601096 ], [ -7.0728664, 39.3613488 ], [ -7.0721957, 39.3619848 ], [ -7.0715629, 39.3624753 ], [ -7.0711417, 39.3630124 ], [ -7.0707277, 39.3636754 ], [ -7.0696702, 39.3666394 ], [ -7.0673599, 39.3684135 ], [ -7.0653035, 39.3705659 ], [ -7.0643893, 39.3714084 ], [ -7.063302, 39.3722661 ], [ -7.064252, 39.37244 ], [ -7.0651857, 39.3727315 ], [ -7.0669276, 39.3735532 ], [ -7.0694655, 39.3740948 ], [ -7.0705403, 39.3742192 ], [ -7.0709459, 39.3748084 ], [ -7.0715539, 39.3762821 ], [ -7.0731317, 39.3786676 ], [ -7.0742055, 39.3812077 ], [ -7.0742084, 39.3812145 ], [ -7.0763505, 39.3811304 ], [ -7.0768838, 39.3809226 ], [ -7.0794426, 39.3796259 ], [ -7.0801675, 39.3793213 ], [ -7.0802778, 39.379311 ], [ -7.0804792, 39.3792923 ], [ -7.0835018, 39.3795824 ], [ -7.0861922, 39.3801453 ], [ -7.087235, 39.3803157 ], [ -7.08845, 39.3804531 ], [ -7.0888077, 39.3804603 ], [ -7.0891006, 39.3804662 ], [ -7.0902525, 39.3801195 ], [ -7.091308, 39.3799112 ], [ -7.092191, 39.3798801 ], [ -7.0924777, 39.37987 ], [ -7.0935273, 39.3799591 ], [ -7.0941527, 39.3801352 ], [ -7.094419, 39.3805221 ] ] ], [ [ [ -7.0322356, 39.4305327 ], [ -7.0324472, 39.4305833 ], [ -7.0330246, 39.4307215 ], [ -7.035559, 39.4315701 ], [ -7.0365026, 39.4320236 ], [ -7.038804, 39.4332585 ], [ -7.0406606, 39.4338334 ], [ -7.0419306, 39.4341044 ], [ -7.0429109, 39.4343855 ], [ -7.0458024, 39.4355817 ], [ -7.0478187, 39.436304 ], [ -7.0493848, 39.4366727 ], [ -7.0494415, 39.4366016 ], [ -7.0510414, 39.4345975 ], [ -7.0517999, 39.433058 ], [ -7.0520905, 39.4326606 ], [ -7.0527456, 39.4321424 ], [ -7.0532517, 39.4316565 ], [ -7.0541706, 39.4304806 ], [ -7.0546104, 39.4296547 ], [ -7.0555988, 39.4284764 ], [ -7.0567744, 39.4267241 ], [ -7.0577227, 39.4256553 ], [ -7.0579883, 39.4254299 ], [ -7.0591481, 39.4236061 ], [ -7.0601224, 39.421987 ], [ -7.0614696, 39.4201926 ], [ -7.0622518, 39.4188684 ], [ -7.0634203, 39.4171974 ], [ -7.063855, 39.416885 ], [ -7.0640905, 39.4167416 ], [ -7.0650114, 39.4162051 ], [ -7.0655656, 39.4159515 ], [ -7.0662458, 39.4154684 ], [ -7.0667975, 39.4147736 ], [ -7.0670252, 39.4142973 ], [ -7.065724, 39.4136854 ], [ -7.0651106, 39.4133196 ], [ -7.064691, 39.412893 ], [ -7.062353, 39.4110204 ], [ -7.0616064, 39.4105602 ], [ -7.0591992, 39.4092934 ], [ -7.0579624, 39.4085891 ], [ -7.0556882, 39.4070114 ], [ -7.0543129, 39.4057175 ], [ -7.0534444, 39.4051533 ], [ -7.0521316, 39.4041364 ], [ -7.0507958, 39.4029222 ], [ -7.0502659, 39.4023913 ], [ -7.0496943, 39.4019428 ], [ -7.0481422, 39.4014025 ], [ -7.0470788, 39.4010793 ], [ -7.0462576, 39.4007297 ], [ -7.0450384, 39.4001237 ], [ -7.0443226, 39.3995902 ], [ -7.0421668, 39.3982422 ], [ -7.0410641, 39.3976412 ], [ -7.0398246, 39.3970809 ], [ -7.0382322, 39.3964428 ], [ -7.0365308, 39.3959255 ], [ -7.0334748, 39.3952661 ], [ -7.0319845, 39.3947865 ], [ -7.0314384, 39.3946941 ], [ -7.0314101, 39.3946893 ], [ -7.0310947, 39.3947002 ], [ -7.0307846, 39.394711 ], [ -7.0302522, 39.3945961 ], [ -7.0301734, 39.3945791 ], [ -7.0292621, 39.394661 ], [ -7.0290302, 39.3946818 ], [ -7.0278322, 39.3945039 ], [ -7.0278008, 39.3944993 ], [ -7.027185, 39.3945206 ], [ -7.0268741, 39.3945314 ], [ -7.0241693, 39.3939226 ], [ -7.0233987, 39.3936431 ], [ -7.0225409, 39.3932585 ], [ -7.0205974, 39.3927674 ], [ -7.0198614, 39.3926848 ], [ -7.0183685, 39.3923582 ], [ -7.0175233, 39.3919911 ], [ -7.0164425, 39.391362 ], [ -7.0146029, 39.390453 ], [ -7.0140237, 39.3900677 ], [ -7.0126297, 39.3894404 ], [ -7.0116224, 39.3890789 ], [ -7.0096585, 39.3886333 ], [ -7.0092669, 39.3884847 ], [ -7.010624, 39.3874562 ], [ -7.0129913, 39.3860325 ], [ -7.0147544, 39.385206 ], [ -7.0157245, 39.3849203 ], [ -7.0171342, 39.3842051 ], [ -7.0187855, 39.3830492 ], [ -7.0193326, 39.3824719 ], [ -7.0196017, 39.3819042 ], [ -7.0195149, 39.3814029 ], [ -7.0192177, 39.3806746 ], [ -7.0183285, 39.3789311 ], [ -7.0182509, 39.3785916 ], [ -7.0186005, 39.3772015 ], [ -7.0203175, 39.3731523 ], [ -7.0213722, 39.3713145 ], [ -7.0223457, 39.3706864 ], [ -7.023787, 39.3701231 ], [ -7.0253407, 39.3697001 ], [ -7.0264252, 39.3695904 ], [ -7.029226, 39.3694663 ], [ -7.029892, 39.3693442 ], [ -7.0311021, 39.3687978 ], [ -7.0324024, 39.3680052 ], [ -7.0326133, 39.3676376 ], [ -7.0324748, 39.3666427 ], [ -7.0322617, 39.3659656 ], [ -7.0316469, 39.3649602 ], [ -7.0311097, 39.3642944 ], [ -7.0302806, 39.3621887 ], [ -7.030154, 39.3609952 ], [ -7.0297559, 39.3601264 ], [ -7.0294732, 39.3596498 ], [ -7.0293748, 39.3591489 ], [ -7.0293525, 39.3583571 ], [ -7.0294496, 39.3580295 ], [ -7.0297153, 39.357606 ], [ -7.029813, 39.3572874 ], [ -7.0297724, 39.3567844 ], [ -7.02958, 39.3560616 ], [ -7.0295013, 39.3552988 ], [ -7.0298282, 39.3515048 ], [ -7.0300115, 39.350859 ], [ -7.0306109, 39.3497845 ], [ -7.0314736, 39.3484486 ], [ -7.0347107, 39.3452381 ], [ -7.0356437, 39.3445212 ], [ -7.0363744, 39.3441176 ], [ -7.0370541, 39.3436347 ], [ -7.0375595, 39.3433469 ], [ -7.0393496, 39.3426092 ], [ -7.0398413, 39.3422859 ], [ -7.0406043, 39.341638 ], [ -7.0413733, 39.3406926 ], [ -7.0419987, 39.3396712 ], [ -7.0436665, 39.3378209 ], [ -7.0449728, 39.3365415 ], [ -7.0461705, 39.3355902 ], [ -7.0465613, 39.3349281 ], [ -7.047231, 39.3342744 ], [ -7.0480218, 39.3335083 ], [ -7.048074, 39.3334074 ], [ -7.0484033, 39.3326845 ], [ -7.0487613, 39.3316543 ], [ -7.0488967, 39.330785 ], [ -7.0489126, 39.3298567 ], [ -7.0487915, 39.3293656 ], [ -7.048363, 39.3289753 ], [ -7.0467945, 39.3281202 ], [ -7.044128, 39.3269251 ], [ -7.0442407, 39.3267991 ], [ -7.0435624, 39.3264281 ], [ -7.0419115, 39.3253508 ], [ -7.0388481, 39.3235029 ], [ -7.0381712, 39.3228239 ], [ -7.0376702, 39.3219767 ], [ -7.0372844, 39.3205131 ], [ -7.0368057, 39.3194489 ], [ -7.0362859, 39.3184763 ], [ -7.0362556, 39.3171444 ], [ -7.0351319, 39.3157514 ], [ -7.0346073, 39.314896 ], [ -7.034239, 39.3145395 ], [ -7.0334873, 39.3141693 ], [ -7.0320068, 39.3136263 ], [ -7.0306168, 39.313044 ], [ -7.0294472, 39.3124631 ], [ -7.0280073, 39.3118195 ], [ -7.026286, 39.3109155 ], [ -7.0251578, 39.3104502 ], [ -7.0243858, 39.3099275 ], [ -7.0236892, 39.3093032 ], [ -7.0227656, 39.3089659 ], [ -7.0150847, 39.3064305 ], [ -7.0121516, 39.3058202 ], [ -7.0102428, 39.3052827 ], [ -7.0084585, 39.3048939 ], [ -7.007154, 39.3043805 ], [ -7.0057157, 39.3039617 ], [ -7.0044138, 39.3038985 ], [ -7.0033643, 39.3037906 ], [ -7.0025043, 39.3035499 ], [ -7.0008456, 39.3029226 ], [ -6.998576, 39.302154 ], [ -6.9965885, 39.301655 ], [ -6.9941896, 39.3012601 ], [ -6.9941895, 39.3012601 ], [ -6.9941895, 39.3012601 ], [ -6.993007, 39.3008152 ], [ -6.993005, 39.3008145 ], [ -6.9921383, 39.3002498 ], [ -6.990579, 39.2993306 ], [ -6.9895171, 39.2987997 ], [ -6.9868096, 39.2972534 ], [ -6.9849085, 39.2958235 ], [ -6.9835396, 39.2949877 ], [ -6.9825944, 39.2942636 ], [ -6.9816203, 39.2932342 ], [ -6.9803181, 39.2925493 ], [ -6.9787336, 39.2917929 ], [ -6.9780146, 39.2913762 ], [ -6.9763962, 39.2902247 ], [ -6.9749599, 39.2890129 ], [ -6.973487, 39.2879735 ], [ -6.9719489, 39.2870083 ], [ -6.9706242, 39.286333 ], [ -6.9700612, 39.286094 ], [ -6.9690924, 39.2856828 ], [ -6.9672997, 39.2853387 ], [ -6.9642514, 39.2853346 ], [ -6.9618533, 39.2851461 ], [ -6.9608274, 39.2852441 ], [ -6.9576256, 39.2849839 ], [ -6.9543382, 39.2846454 ], [ -6.9532931, 39.2846089 ], [ -6.9521872, 39.2847276 ], [ -6.9505574, 39.2852153 ], [ -6.9486631, 39.2861533 ], [ -6.9448265, 39.2880038 ], [ -6.9435466, 39.2885336 ], [ -6.9410832, 39.2892476 ], [ -6.9360643, 39.291309 ], [ -6.9349915, 39.2918136 ], [ -6.9333845, 39.2923004 ], [ -6.9306804, 39.2932745 ], [ -6.9294722, 39.2936396 ], [ -6.9278857, 39.2942876 ], [ -6.9250059, 39.295853 ], [ -6.9241302, 39.2961527 ], [ -6.9221486, 39.2969942 ], [ -6.9208719, 39.2973795 ], [ -6.9192134, 39.2975705 ], [ -6.9181871, 39.2978753 ], [ -6.9160942, 39.2994229 ], [ -6.9156701, 39.2999236 ], [ -6.9153173, 39.3008722 ], [ -6.9146415, 39.3018496 ], [ -6.9139643, 39.3023858 ], [ -6.9128101, 39.3031002 ], [ -6.911189, 39.3039653 ], [ -6.9104976, 39.3046641 ], [ -6.908443, 39.3062823 ], [ -6.9071326, 39.3056509 ], [ -6.9052829, 39.3049114 ], [ -6.9038935, 39.3045258 ], [ -6.9027451, 39.304096 ], [ -6.9000724, 39.3033571 ], [ -6.8978314, 39.3026667 ], [ -6.8964903, 39.3025225 ], [ -6.8955993, 39.3025524 ], [ -6.8945485, 39.3024164 ], [ -6.8935097, 39.302082 ], [ -6.89229, 39.3016184 ], [ -6.8911943, 39.301511 ], [ -6.8903189, 39.3016124 ], [ -6.8895213, 39.3020714 ], [ -6.8895206, 39.3020715 ], [ -6.8888864, 39.3021197 ], [ -6.8878069, 39.3018856 ], [ -6.8868501, 39.3017734 ], [ -6.8856311, 39.3017422 ], [ -6.8844199, 39.3014314 ], [ -6.8840841, 39.3017107 ], [ -6.882547, 39.3029891 ], [ -6.8818487, 39.303778 ], [ -6.8794434, 39.3059838 ], [ -6.8796784, 39.3066696 ], [ -6.8795393, 39.3070885 ], [ -6.8787709, 39.3080779 ], [ -6.8784137, 39.3087472 ], [ -6.8770083, 39.3103793 ], [ -6.8763999, 39.3113273 ], [ -6.8754753, 39.3124299 ], [ -6.8747686, 39.3147503 ], [ -6.8741288, 39.3178609 ], [ -6.8741433, 39.3208506 ], [ -6.8740262, 39.3220884 ], [ -6.8738171, 39.3231312 ], [ -6.8738618, 39.3245708 ], [ -6.8738312, 39.3259048 ], [ -6.8740348, 39.3274922 ], [ -6.875266, 39.3279465 ], [ -6.875862, 39.3284491 ], [ -6.8759466, 39.3291398 ], [ -6.8765142, 39.3308051 ], [ -6.8765756, 39.3314966 ], [ -6.8765537, 39.3334067 ], [ -6.8765933, 39.3343331 ], [ -6.8772261, 39.3371761 ], [ -6.8772947, 39.3377863 ], [ -6.8771304, 39.3388005 ], [ -6.8770405, 39.3392719 ], [ -6.876365, 39.3415281 ], [ -6.8762265, 39.3423794 ], [ -6.8761608, 39.3434983 ], [ -6.8765813, 39.3456459 ], [ -6.8768635, 39.3465552 ], [ -6.8770359, 39.3471529 ], [ -6.8772843, 39.3482885 ], [ -6.8774648, 39.3494533 ], [ -6.8777797, 39.3499022 ], [ -6.8782822, 39.352065 ], [ -6.8788261, 39.3526683 ], [ -6.8798812, 39.3537049 ], [ -6.8802172, 39.354117 ], [ -6.8803917, 39.3545435 ], [ -6.8803642, 39.3550938 ], [ -6.8800919, 39.3558324 ], [ -6.8799747, 39.3564398 ], [ -6.880054, 39.3576621 ], [ -6.8804571, 39.3588645 ], [ -6.8805188, 39.3593488 ], [ -6.8804727, 39.3597737 ], [ -6.8799197, 39.3617286 ], [ -6.8797158, 39.3632846 ], [ -6.8795065, 39.363904 ], [ -6.8782874, 39.3647283 ], [ -6.8781922, 39.3648936 ], [ -6.877862, 39.365427 ], [ -6.8774874, 39.366205 ], [ -6.8774256, 39.3667656 ], [ -6.8775175, 39.3671678 ], [ -6.8786867, 39.3690021 ], [ -6.8792063, 39.3691649 ], [ -6.8788292, 39.3698981 ], [ -6.8786455, 39.3705617 ], [ -6.8786028, 39.3710495 ], [ -6.8793607, 39.3727895 ], [ -6.8804689, 39.3749861 ], [ -6.8809687, 39.3764645 ], [ -6.8814069, 39.3772515 ], [ -6.8819309, 39.3785399 ], [ -6.8822374, 39.3790431 ], [ -6.8829291, 39.3806322 ], [ -6.8831297, 39.3811118 ], [ -6.8834018, 39.3818323 ], [ -6.8835575, 39.3827548 ], [ -6.8845691, 39.3832073 ], [ -6.8856103, 39.3839229 ], [ -6.886559, 39.3844946 ], [ -6.8884766, 39.3853762 ], [ -6.8903287, 39.3863319 ], [ -6.892729, 39.3881699 ], [ -6.8956054, 39.3889652 ], [ -6.8970378, 39.3894666 ], [ -6.8997688, 39.3897351 ], [ -6.9003143, 39.3897348 ], [ -6.9003449, 39.3897299 ], [ -6.9043638, 39.3890855 ], [ -6.9067232, 39.3889341 ], [ -6.906967, 39.3889347 ], [ -6.9077215, 39.3889365 ], [ -6.9084337, 39.3890117 ], [ -6.9089726, 39.3893088 ], [ -6.9096349, 39.389944 ], [ -6.9101702, 39.3905924 ], [ -6.9105742, 39.390759 ], [ -6.9115368, 39.3909517 ], [ -6.9143066, 39.3912908 ], [ -6.9177758, 39.3918853 ], [ -6.9194154, 39.3921453 ], [ -6.919917, 39.3926057 ], [ -6.9207416, 39.3930281 ], [ -6.9220811, 39.3935233 ], [ -6.9229763, 39.3939615 ], [ -6.9239863, 39.3945848 ], [ -6.9260003, 39.3951022 ], [ -6.9272098, 39.3953496 ], [ -6.9305718, 39.3958933 ], [ -6.9315466, 39.3960945 ], [ -6.9323154, 39.3963477 ], [ -6.9331123, 39.3964828 ], [ -6.9346593, 39.3965385 ], [ -6.935814, 39.3968417 ], [ -6.9374896, 39.3973253 ], [ -6.939402, 39.398098 ], [ -6.9403685, 39.3987678 ], [ -6.9425652, 39.3998461 ], [ -6.9434066, 39.4001508 ], [ -6.9437593, 39.4002289 ], [ -6.9450888, 39.4003368 ], [ -6.9468083, 39.4007738 ], [ -6.9483341, 39.4014785 ], [ -6.9518722, 39.4028713 ], [ -6.9539533, 39.4037461 ], [ -6.9548372, 39.4041844 ], [ -6.9563335, 39.4051871 ], [ -6.9569966, 39.4054168 ], [ -6.9596667, 39.4060282 ], [ -6.9605627, 39.4064751 ], [ -6.9631068, 39.4079374 ], [ -6.9640249, 39.4079511 ], [ -6.9668967, 39.4088438 ], [ -6.9680745, 39.4093439 ], [ -6.9688299, 39.4095613 ], [ -6.9695812, 39.4097067 ], [ -6.9704637, 39.4101179 ], [ -6.9724684, 39.4112742 ], [ -6.9737732, 39.411761 ], [ -6.9748621, 39.4119219 ], [ -6.9764267, 39.4120755 ], [ -6.9777627, 39.4124981 ], [ -6.9787488, 39.4130947 ], [ -6.9793548, 39.4135423 ], [ -6.9803, 39.4140323 ], [ -6.9806746, 39.4142897 ], [ -6.9805259, 39.4153485 ], [ -6.9805312, 39.4156455 ], [ -6.9809655, 39.4167474 ], [ -6.9813878, 39.4178408 ], [ -6.9817213, 39.4183967 ], [ -6.9825905, 39.4193847 ], [ -6.9832637, 39.4193796 ], [ -6.9843265, 39.4194872 ], [ -6.9878243, 39.4197365 ], [ -6.9894393, 39.4197531 ], [ -6.9925013, 39.4215211 ], [ -6.9933862, 39.4219681 ], [ -6.994125, 39.4225011 ], [ -6.9950033, 39.4238488 ], [ -6.9953811, 39.4245654 ], [ -6.9989556, 39.4251358 ], [ -7.0020364, 39.4258042 ], [ -7.003386, 39.4258478 ], [ -7.005663, 39.4260665 ], [ -7.0064136, 39.4261937 ], [ -7.0081287, 39.4271432 ], [ -7.0088996, 39.4274228 ], [ -7.0098502, 39.4275972 ], [ -7.0118098, 39.4277457 ], [ -7.0154758, 39.4282854 ], [ -7.0210069, 39.4295531 ], [ -7.0218665, 39.4297575 ], [ -7.0230985, 39.429976 ], [ -7.0258619, 39.4307719 ], [ -7.0295888, 39.4317594 ], [ -7.0297181, 39.4316995 ], [ -7.0322356, 39.4305327 ] ] ] ] } },
{ "type": "Feature", "properties": { "CCAA": "11 - Extremadura", "PROVINCIA": "06 - Badajoz", "MUNICIPIO": "06123 - San Vicente de Alcántara", "COD_MUNICIPIO": "06123", "DISTRITO": "01", "SECCION": "0612301002", "V1_H": 79.16, "V1_M": 85.0, "V2_H": 79.432337, "V2_M": 85.16926182, "V3_H": 78.95181978, "V3_M": 84.90024095 }, "geometry": { "type": "Polygon", "coordinates": [ [ [ -7.1368397, 39.3594889 ], [ -7.1374566, 39.3596304 ], [ -7.1374513, 39.3596442 ], [ -7.1373916, 39.3597111 ], [ -7.1372334, 39.3598968 ], [ -7.1372411, 39.3599146 ], [ -7.1372758, 39.3599402 ], [ -7.1374019, 39.3600056 ], [ -7.1374879, 39.3600145 ], [ -7.1376805, 39.3599899 ], [ -7.1377865, 39.3599728 ], [ -7.1378009, 39.3599768 ], [ -7.1378183, 39.3599909 ], [ -7.1378384, 39.3600239 ], [ -7.1378735, 39.3600985 ], [ -7.1380515, 39.3603173 ], [ -7.1382573, 39.3605517 ], [ -7.1385239, 39.3607757 ], [ -7.1387391, 39.3609311 ], [ -7.139003, 39.3611099 ], [ -7.1392842, 39.3612664 ], [ -7.1396859, 39.3614435 ], [ -7.1400454, 39.3615987 ], [ -7.1400481, 39.3616213 ], [ -7.1400408, 39.3616476 ], [ -7.1400275, 39.3616662 ], [ -7.1400156, 39.3616899 ], [ -7.1400116, 39.3617187 ], [ -7.1400127, 39.3617351 ], [ -7.1400316, 39.3617555 ], [ -7.1400714, 39.3617749 ], [ -7.1403856, 39.3618414 ], [ -7.140405, 39.3618405 ], [ -7.1404297, 39.3618196 ], [ -7.1404465, 39.361796 ], [ -7.1404637, 39.3617548 ], [ -7.1404897, 39.3616874 ], [ -7.1405325, 39.3615952 ], [ -7.1405892, 39.3614643 ], [ -7.140638, 39.361386 ], [ -7.1407208, 39.3612547 ], [ -7.1408012, 39.3611386 ], [ -7.1408914, 39.3610271 ], [ -7.1410117, 39.3608658 ], [ -7.1412079, 39.3606153 ], [ -7.1412991, 39.3604573 ], [ -7.1413698, 39.3603429 ], [ -7.1415186, 39.3601456 ], [ -7.1415879, 39.360055 ], [ -7.1416707, 39.3599735 ], [ -7.1418446, 39.3598645 ], [ -7.1420955, 39.3598234 ], [ -7.1423082, 39.3597739 ], [ -7.1424006, 39.3597491 ], [ -7.1424934, 39.359718 ], [ -7.1425558, 39.3596763 ], [ -7.1426289, 39.359592 ], [ -7.1429776, 39.3592134 ], [ -7.1431698, 39.3590231 ], [ -7.1435635, 39.3585848 ], [ -7.1437461, 39.3583894 ], [ -7.1438329, 39.3582802 ], [ -7.1439664, 39.3581041 ], [ -7.1441475, 39.357906 ], [ -7.144376, 39.3576762 ], [ -7.1445248, 39.3575404 ], [ -7.1445723, 39.3575049 ], [ -7.1447025, 39.3574077 ], [ -7.1448245, 39.3573066 ], [ -7.1448975, 39.3572274 ], [ -7.1449781, 39.3571056 ], [ -7.1451622, 39.3568185 ], [ -7.1452354, 39.3567393 ], [ -7.1453466, 39.3566682 ], [ -7.1454217, 39.3566372 ], [ -7.1444065, 39.3563881 ], [ -7.1439007, 39.3561392 ], [ -7.1429527, 39.3558871 ], [ -7.1412169, 39.3551865 ], [ -7.1391386, 39.3553368 ], [ -7.1367519, 39.3551147 ], [ -7.1366364, 39.3552721 ], [ -7.1365758, 39.3553678 ], [ -7.1365698, 39.3554142 ], [ -7.136573, 39.3554733 ], [ -7.1366009, 39.3556672 ], [ -7.1366327, 39.3558058 ], [ -7.136678, 39.355922 ], [ -7.136922, 39.3560239 ], [ -7.1370909, 39.3561648 ], [ -7.1372104, 39.3562771 ], [ -7.1373103, 39.3563993 ], [ -7.1374101, 39.3565316 ], [ -7.1375214, 39.3567091 ], [ -7.1376629, 39.3568494 ], [ -7.1376205, 39.3571112 ], [ -7.1376199, 39.3571928 ], [ -7.1376422, 39.3573225 ], [ -7.1376427, 39.357428 ], [ -7.137601, 39.3576333 ], [ -7.137569, 39.3577457 ], [ -7.1375006, 39.3579832 ], [ -7.1374395, 39.3580977 ], [ -7.1373088, 39.3582952 ], [ -7.137291, 39.3583614 ], [ -7.1372815, 39.3584141 ], [ -7.1372739, 39.3585796 ], [ -7.1372757, 39.3586638 ], [ -7.1372873, 39.3587714 ], [ -7.1372872, 39.3588373 ], [ -7.1372866, 39.3588926 ], [ -7.1372804, 39.35891 ], [ -7.1372568, 39.3589215 ], [ -7.1372638, 39.358941 ], [ -7.1370612, 39.3588779 ], [ -7.1367436, 39.359218 ], [ -7.1368397, 39.3594889 ] ] ] } },
{ "type": "Feature", "properties": { "CCAA": "11 - Extremadura", "PROVINCIA": "06 - Badajoz", "MUNICIPIO": "06123 - San Vicente de Alcántara", "COD_MUNICIPIO": "06123", "DISTRITO": "01", "SECCION": "0612301001", "V1_H": 79.68, "V1_M": 85.47, "V2_H": 79.93758061, "V2_M": 85.65037312, "V3_H": 79.53414521000001, "V3_M": 85.4025844 }, "geometry": { "type": "Polygon", "coordinates": [ [ [ -7.1340572, 39.3650624 ], [ -7.1341221, 39.3658691 ], [ -7.1350985, 39.3659773 ], [ -7.1361035, 39.3661512 ], [ -7.1365681, 39.3663253 ], [ -7.1374663, 39.3659406 ], [ -7.1376689, 39.3661479 ], [ -7.1385217, 39.3663462 ], [ -7.1389893, 39.3667776 ], [ -7.1398842, 39.3673748 ], [ -7.1415049, 39.3652963 ], [ -7.1441031, 39.3677009 ], [ -7.145673, 39.3697418 ], [ -7.1472939, 39.3697412 ], [ -7.1471422, 39.371341 ], [ -7.1473324, 39.3712242 ], [ -7.1490934, 39.3703958 ], [ -7.149752, 39.369958 ], [ -7.1502001, 39.3694917 ], [ -7.151039, 39.3687683 ], [ -7.151053, 39.3687634 ], [ -7.1499314, 39.3675715 ], [ -7.1510037, 39.3670185 ], [ -7.1519861, 39.365363 ], [ -7.150261, 39.3644334 ], [ -7.1506722, 39.3630843 ], [ -7.1521795, 39.3632401 ], [ -7.1533024, 39.3618846 ], [ -7.1533657, 39.3617108 ], [ -7.1521123, 39.361279 ], [ -7.1521421, 39.3609539 ], [ -7.1510357, 39.3605168 ], [ -7.1496231, 39.3603004 ], [ -7.1445723, 39.3575049 ], [ -7.1445248, 39.3575404 ], [ -7.144376, 39.3576762 ], [ -7.1441475, 39.357906 ], [ -7.1439664, 39.3581041 ], [ -7.1438329, 39.3582802 ], [ -7.1437461, 39.3583894 ], [ -7.1435635, 39.3585848 ], [ -7.1431698, 39.3590231 ], [ -7.1429776, 39.3592134 ], [ -7.1426289, 39.359592 ], [ -7.1425558, 39.3596763 ], [ -7.1424934, 39.359718 ], [ -7.1424006, 39.3597491 ], [ -7.1423082, 39.3597739 ], [ -7.1420955, 39.3598234 ], [ -7.1418446, 39.3598645 ], [ -7.1416707, 39.3599735 ], [ -7.1415879, 39.360055 ], [ -7.1415186, 39.3601456 ], [ -7.1413698, 39.3603429 ], [ -7.1412991, 39.3604573 ], [ -7.1412079, 39.3606153 ], [ -7.1410117, 39.3608658 ], [ -7.1408914, 39.3610271 ], [ -7.1408012, 39.3611386 ], [ -7.1407208, 39.3612547 ], [ -7.140638, 39.361386 ], [ -7.1405892, 39.3614643 ], [ -7.1405325, 39.3615952 ], [ -7.1404897, 39.3616874 ], [ -7.1404637, 39.3617548 ], [ -7.1404465, 39.361796 ], [ -7.1404297, 39.3618196 ], [ -7.140405, 39.3618405 ], [ -7.1403856, 39.3618414 ], [ -7.1400714, 39.3617749 ], [ -7.1400316, 39.3617555 ], [ -7.1400127, 39.3617351 ], [ -7.1400116, 39.3617187 ], [ -7.1400156, 39.3616899 ], [ -7.1400275, 39.3616662 ], [ -7.1400408, 39.3616476 ], [ -7.1400481, 39.3616213 ], [ -7.1400454, 39.3615987 ], [ -7.1396859, 39.3614435 ], [ -7.1392842, 39.3612664 ], [ -7.139003, 39.3611099 ], [ -7.1387391, 39.3609311 ], [ -7.1385239, 39.3607757 ], [ -7.1382573, 39.3605517 ], [ -7.1380515, 39.3603173 ], [ -7.1378735, 39.3600985 ], [ -7.1378384, 39.3600239 ], [ -7.1378183, 39.3599909 ], [ -7.1378009, 39.3599768 ], [ -7.1377865, 39.3599728 ], [ -7.1376805, 39.3599899 ], [ -7.1374879, 39.3600145 ], [ -7.1374019, 39.3600056 ], [ -7.1372758, 39.3599402 ], [ -7.1372411, 39.3599146 ], [ -7.1372334, 39.3598968 ], [ -7.1373916, 39.3597111 ], [ -7.1374513, 39.3596442 ], [ -7.1374566, 39.3596304 ], [ -7.1368397, 39.3594889 ], [ -7.1368388, 39.3594887 ], [ -7.1368433, 39.3595016 ], [ -7.1363855, 39.3595989 ], [ -7.136071, 39.3596268 ], [ -7.1357491, 39.3597815 ], [ -7.135765, 39.359796 ], [ -7.136, 39.3600534 ], [ -7.1362703, 39.3601984 ], [ -7.136562, 39.3603888 ], [ -7.1367024, 39.3604777 ], [ -7.1369017, 39.3606241 ], [ -7.1371325, 39.3607985 ], [ -7.1372878, 39.360904 ], [ -7.1377399, 39.3611247 ], [ -7.1378913, 39.3613154 ], [ -7.1379443, 39.361384 ], [ -7.1380457, 39.3614799 ], [ -7.1382111, 39.3616295 ], [ -7.1383206, 39.3617567 ], [ -7.1383891, 39.3618483 ], [ -7.138482, 39.3619654 ], [ -7.1386218, 39.3621045 ], [ -7.1388578, 39.3623255 ], [ -7.1395649, 39.3629621 ], [ -7.1396287, 39.3630297 ], [ -7.1396305, 39.3630775 ], [ -7.1394199, 39.3632398 ], [ -7.1392882, 39.3633382 ], [ -7.1392283, 39.363405 ], [ -7.139162, 39.3634742 ], [ -7.1391555, 39.3635074 ], [ -7.1383846, 39.3639742 ], [ -7.1377655, 39.3639915 ], [ -7.1366355, 39.3637267 ], [ -7.1355876, 39.363552 ], [ -7.1334526, 39.3632657 ], [ -7.1334066, 39.3634735 ], [ -7.1337164, 39.3643013 ], [ -7.1340296, 39.364719 ], [ -7.1340572, 39.3650624 ] ] ] } },
{ "type": "Feature", "properties": { "CCAA": "11 - Extremadura", "PROVINCIA": "06 - Badajoz", "MUNICIPIO": "06123 - San Vicente de Alcántara", "COD_MUNICIPIO": "06123", "DISTRITO": "02", "SECCION": "0612302001", "V1_H": 79.2, "V1_M": 85.22, "V2_H": 79.18248439, "V2_M": 85.25623492, "V3_H": 79.42953696, "V3_M": 85.41396632 }, "geometry": { "type": "Polygon", "coordinates": [ [ [ -7.1357491, 39.3597815 ], [ -7.1357115, 39.3597474 ], [ -7.1355279, 39.3596163 ], [ -7.1353824, 39.3595086 ], [ -7.1352713, 39.359444 ], [ -7.1351808, 39.3593873 ], [ -7.1349835, 39.3592862 ], [ -7.1349634, 39.3593135 ], [ -7.1349642, 39.3594063 ], [ -7.1349353, 39.3595239 ], [ -7.134906, 39.3595361 ], [ -7.1347433, 39.3595862 ], [ -7.1346361, 39.3596172 ], [ -7.1345164, 39.3596303 ], [ -7.1343712, 39.3596354 ], [ -7.134348, 39.3596552 ], [ -7.1343109, 39.3597173 ], [ -7.1342543, 39.3597905 ], [ -7.1342673, 39.3600115 ], [ -7.1343101, 39.3601124 ], [ -7.1343728, 39.3601865 ], [ -7.1343659, 39.3603297 ], [ -7.1338834, 39.3604231 ], [ -7.1346004, 39.3606097 ], [ -7.1348037, 39.3606215 ], [ -7.1349857, 39.3606889 ], [ -7.1349395, 39.3607382 ], [ -7.1348445, 39.3610013 ], [ -7.1343262, 39.3609054 ], [ -7.1337519, 39.3607447 ], [ -7.1329483, 39.3605994 ], [ -7.1323039, 39.3604539 ], [ -7.1322892, 39.3608218 ], [ -7.1321941, 39.3610825 ], [ -7.1320428, 39.361431 ], [ -7.1319946, 39.361447 ], [ -7.1319888, 39.3616617 ], [ -7.1320814, 39.3618776 ], [ -7.1319277, 39.3618736 ], [ -7.1308425, 39.3616636 ], [ -7.1308121, 39.3617688 ], [ -7.1300654, 39.3617349 ], [ -7.1297165, 39.361752 ], [ -7.1291459, 39.3618104 ], [ -7.1288189, 39.3643861 ], [ -7.1288986, 39.3646188 ], [ -7.1305775, 39.3645868 ], [ -7.1316337, 39.3650068 ], [ -7.1340572, 39.3650624 ], [ -7.1340296, 39.364719 ], [ -7.1337164, 39.3643013 ], [ -7.1334066, 39.3634735 ], [ -7.1334526, 39.3632657 ], [ -7.1355876, 39.363552 ], [ -7.1366355, 39.3637267 ], [ -7.1377655, 39.3639915 ], [ -7.1383846, 39.3639742 ], [ -7.1391555, 39.3635074 ], [ -7.139162, 39.3634742 ], [ -7.1392283, 39.363405 ], [ -7.1392882, 39.3633382 ], [ -7.1394199, 39.3632398 ], [ -7.1396305, 39.3630775 ], [ -7.1396287, 39.3630297 ], [ -7.1395649, 39.3629621 ], [ -7.1388578, 39.3623255 ], [ -7.1386218, 39.3621045 ], [ -7.138482, 39.3619654 ], [ -7.1383891, 39.3618483 ], [ -7.1383206, 39.3617567 ], [ -7.1382111, 39.3616295 ], [ -7.1380457, 39.3614799 ], [ -7.1379443, 39.361384 ], [ -7.1378913, 39.3613154 ], [ -7.1377399, 39.3611247 ], [ -7.1372878, 39.360904 ], [ -7.1371325, 39.3607985 ], [ -7.1369017, 39.3606241 ], [ -7.1367024, 39.3604777 ], [ -7.136562, 39.3603888 ], [ -7.1362703, 39.3601984 ], [ -7.136, 39.3600534 ], [ -7.135765, 39.359796 ], [ -7.1357491, 39.3597815 ] ] ] } }
]
}
