{
"type": "FeatureCollection",
"name": "07007",
"features": [
{ "type": "Feature", "properties": { "CCAA": "04 - Illes Balears", "PROVINCIA": "07 - Balears, Illes", "MUNICIPIO": "07007 - Banyalbufar", "COD_MUNICIPIO": "07007", "DISTRITO": "01", "SECCION": "0700701001", "V1_H": 81.4, "V1_M": 86.8, "V2_H": 81.08162797, "V2_M": 86.57651574, "V3_H": 81.67802952, "V3_M": 87.10412253 }, "geometry": { "type": "Polygon", "coordinates": [ [ [ 2.5557351, 39.7002856 ], [ 2.5555491, 39.7001948 ], [ 2.5554566, 39.7000503 ], [ 2.5548984, 39.6998049 ], [ 2.5545367, 39.6998125 ], [ 2.5544419, 39.7000464 ], [ 2.5543127, 39.7001901 ], [ 2.5541706, 39.7005139 ], [ 2.5538081, 39.7006656 ], [ 2.5532011, 39.7007354 ], [ 2.5531202, 39.700618 ], [ 2.5531572, 39.7003118 ], [ 2.5531236, 39.7000864 ], [ 2.5529488, 39.7000677 ], [ 2.5527841, 39.7002743 ], [ 2.5527478, 39.7004904 ], [ 2.5526191, 39.700544 ], [ 2.5522584, 39.7004074 ], [ 2.5521559, 39.7000196 ], [ 2.5519127, 39.6997483 ], [ 2.5513893, 39.6995211 ], [ 2.5513791, 39.6993048 ], [ 2.551662, 39.6988463 ], [ 2.5516166, 39.698648 ], [ 2.5515004, 39.6985754 ], [ 2.5512317, 39.6986465 ], [ 2.5513359, 39.698773 ], [ 2.5513929, 39.6989625 ], [ 2.55124, 39.6991601 ], [ 2.5507954, 39.6993746 ], [ 2.5505738, 39.6993737 ], [ 2.5502479, 39.6992644 ], [ 2.5493851, 39.699216 ], [ 2.549151, 39.6993412 ], [ 2.5488917, 39.6997457 ], [ 2.5485764, 39.6998075 ], [ 2.5482737, 39.6997252 ], [ 2.548147, 39.6994815 ], [ 2.5478796, 39.6993453 ], [ 2.5476929, 39.6993536 ], [ 2.5473878, 39.6996317 ], [ 2.547142, 39.6997659 ], [ 2.546967, 39.6997742 ], [ 2.5469452, 39.6995489 ], [ 2.5470175, 39.6991888 ], [ 2.5469371, 39.6989992 ], [ 2.5466815, 39.6988541 ], [ 2.5459936, 39.6987973 ], [ 2.545316, 39.6989749 ], [ 2.5442896, 39.6989709 ], [ 2.543949, 39.6993299 ], [ 2.5437967, 39.6994285 ], [ 2.5437111, 39.7000228 ], [ 2.5433349, 39.7004628 ], [ 2.5432873, 39.7006158 ], [ 2.5430189, 39.7006418 ], [ 2.5430437, 39.7004076 ], [ 2.542882, 39.7001637 ], [ 2.542731, 39.700064 ], [ 2.5428857, 39.6996051 ], [ 2.5427235, 39.6994333 ], [ 2.5423625, 39.6993508 ], [ 2.5421322, 39.6988994 ], [ 2.5419925, 39.6988537 ], [ 2.5419002, 39.6987092 ], [ 2.5416321, 39.6986901 ], [ 2.5413513, 39.6988062 ], [ 2.5405462, 39.698857 ], [ 2.5398922, 39.6989806 ], [ 2.5396461, 39.6991598 ], [ 2.5394342, 39.6994473 ], [ 2.5391065, 39.6996172 ], [ 2.5387094, 39.6996967 ], [ 2.5381361, 39.6999557 ], [ 2.537552, 39.7000976 ], [ 2.536619, 39.7000759 ], [ 2.5361415, 39.6999659 ], [ 2.5358381, 39.6999917 ], [ 2.5355808, 39.7000898 ], [ 2.5352777, 39.7000525 ], [ 2.5349524, 39.699871 ], [ 2.5346497, 39.6997887 ], [ 2.5332475, 39.7001615 ], [ 2.5323706, 39.7004643 ], [ 2.5318904, 39.7007597 ], [ 2.5314323, 39.7012264 ], [ 2.5306256, 39.7015025 ], [ 2.5303331, 39.7016454 ], [ 2.52954, 39.7016332 ], [ 2.5291663, 39.7016948 ], [ 2.5288286, 39.7016034 ], [ 2.5284086, 39.7016197 ], [ 2.5280472, 39.7015821 ], [ 2.5274071, 39.7013813 ], [ 2.5267011, 39.7005766 ], [ 2.5263177, 39.7003497 ], [ 2.5259803, 39.7002132 ], [ 2.5255389, 39.6999591 ], [ 2.5248923, 39.6989924 ], [ 2.524707, 39.6988024 ], [ 2.524511, 39.6984683 ], [ 2.5236398, 39.6979421 ], [ 2.5235009, 39.6977884 ], [ 2.5234563, 39.6974818 ], [ 2.5227388, 39.696668 ], [ 2.522076, 39.6963679 ], [ 2.5218225, 39.6959254 ], [ 2.52144, 39.6955814 ], [ 2.5210335, 39.6953185 ], [ 2.5209908, 39.6947506 ], [ 2.520689, 39.6945422 ], [ 2.5204928, 39.694244 ], [ 2.5201218, 39.6939271 ], [ 2.519865, 39.6939531 ], [ 2.5197233, 39.6942048 ], [ 2.5195708, 39.6943303 ], [ 2.5194549, 39.6942307 ], [ 2.5195382, 39.6939878 ], [ 2.5195173, 39.6936453 ], [ 2.5191927, 39.6933557 ], [ 2.5188321, 39.693219 ], [ 2.5184008, 39.6931812 ], [ 2.5180984, 39.6930628 ], [ 2.5179343, 39.6931703 ], [ 2.5177475, 39.6932055 ], [ 2.5174698, 39.692898 ], [ 2.517449, 39.6925285 ], [ 2.5175911, 39.6922228 ], [ 2.5174762, 39.69197 ], [ 2.5170345, 39.6917609 ], [ 2.5167918, 39.6914446 ], [ 2.5166776, 39.6910837 ], [ 2.516389, 39.690668 ], [ 2.5161336, 39.6904958 ], [ 2.5157596, 39.6906113 ], [ 2.515455, 39.6908083 ], [ 2.5151576, 39.691645 ], [ 2.5147718, 39.6917785 ], [ 2.5141647, 39.6918661 ], [ 2.5134889, 39.6917732 ], [ 2.5132918, 39.6916012 ], [ 2.5131537, 39.6913483 ], [ 2.512933, 39.6912213 ], [ 2.5127016, 39.69095 ], [ 2.5124631, 39.6900389 ], [ 2.512253, 39.6900741 ], [ 2.5121346, 39.6903169 ], [ 2.5120291, 39.6903976 ], [ 2.5119367, 39.690271 ], [ 2.5115756, 39.6902154 ], [ 2.5116233, 39.6900625 ], [ 2.5112853, 39.690025 ], [ 2.5108635, 39.6903116 ], [ 2.5108973, 39.6904739 ], [ 2.5106407, 39.6904818 ], [ 2.5104242, 39.6897601 ], [ 2.5103313, 39.6896966 ], [ 2.5101011, 39.6892722 ], [ 2.5099725, 39.6893167 ], [ 2.5099245, 39.6895057 ], [ 2.5098307, 39.6895774 ], [ 2.5093194, 39.6893139 ], [ 2.5088762, 39.6893211 ], [ 2.5084441, 39.6894094 ], [ 2.5082214, 39.6895526 ], [ 2.5080921, 39.6897142 ], [ 2.5079165, 39.6897946 ], [ 2.5077493, 39.6903435 ], [ 2.5075515, 39.6902796 ], [ 2.5073363, 39.6893776 ], [ 2.5066519, 39.6888702 ], [ 2.5064426, 39.6887792 ], [ 2.5061876, 39.6885619 ], [ 2.5057458, 39.6883708 ], [ 2.5052262, 39.6876387 ], [ 2.5047394, 39.6872222 ], [ 2.5043324, 39.6870583 ], [ 2.5037637, 39.6866774 ], [ 2.5036352, 39.6867039 ], [ 2.5034377, 39.6866039 ], [ 2.5031603, 39.6862514 ], [ 2.5030558, 39.6861969 ], [ 2.5025077, 39.6861855 ], [ 2.5022523, 39.6860312 ], [ 2.5015999, 39.6859293 ], [ 2.5011, 39.68572 ], [ 2.5007054, 39.6854479 ], [ 2.5005307, 39.6854202 ], [ 2.5003337, 39.6852481 ], [ 2.5001241, 39.6852022 ], [ 2.4997991, 39.6849935 ], [ 2.4996616, 39.6846506 ], [ 2.4994762, 39.6844876 ], [ 2.499126, 39.6845491 ], [ 2.4989967, 39.6846837 ], [ 2.4987045, 39.6847816 ], [ 2.4982963, 39.6847889 ], [ 2.4980061, 39.6845894 ], [ 2.4977074, 39.6839754 ], [ 2.4970607, 39.6830986 ], [ 2.496799, 39.6822055 ], [ 2.4965439, 39.6820062 ], [ 2.4959042, 39.6817781 ], [ 2.4952418, 39.6814689 ], [ 2.495103, 39.6813061 ], [ 2.4946503, 39.6810249 ], [ 2.4942217, 39.6806265 ], [ 2.4939682, 39.680211 ], [ 2.494041, 39.6798238 ], [ 2.4941944, 39.6795812 ], [ 2.4941143, 39.6793647 ], [ 2.4938477, 39.6791472 ], [ 2.4938489, 39.6789941 ], [ 2.4941409, 39.6789143 ], [ 2.4944691, 39.6786904 ], [ 2.494658, 39.6783669 ], [ 2.4945551, 39.6780781 ], [ 2.4945, 39.6776544 ], [ 2.4943392, 39.6773113 ], [ 2.4941075, 39.6771121 ], [ 2.4939598, 39.6765708 ], [ 2.4935653, 39.6763078 ], [ 2.4931722, 39.6758376 ], [ 2.4927665, 39.6755204 ], [ 2.4921185, 39.6748418 ], [ 2.4918644, 39.6745073 ], [ 2.4915391, 39.6743528 ], [ 2.4913312, 39.6740816 ], [ 2.4911715, 39.6736033 ], [ 2.4907092, 39.6730426 ], [ 2.4901747, 39.672788 ], [ 2.4896968, 39.6727769 ], [ 2.4893835, 39.6725593 ], [ 2.4890478, 39.6722335 ], [ 2.488746, 39.6720519 ], [ 2.4883404, 39.6717168 ], [ 2.4879335, 39.6715618 ], [ 2.4876068, 39.6715874 ], [ 2.4873212, 39.6707932 ], [ 2.4872887, 39.6704597 ], [ 2.4872688, 39.6700001 ], [ 2.4873566, 39.6691625 ], [ 2.4875571, 39.6688481 ], [ 2.4881195, 39.6684811 ], [ 2.489102, 39.6680439 ], [ 2.4898405, 39.6674976 ], [ 2.4903102, 39.6670401 ], [ 2.4906258, 39.6669334 ], [ 2.4911275, 39.6668815 ], [ 2.4916182, 39.6667395 ], [ 2.4920161, 39.666534 ], [ 2.4923331, 39.66622 ], [ 2.4931992, 39.6657643 ], [ 2.4936689, 39.6652978 ], [ 2.4940674, 39.6650022 ], [ 2.4943025, 39.6647509 ], [ 2.4960669, 39.6641819 ], [ 2.4973547, 39.6634396 ], [ 2.4993018, 39.6617992 ], [ 2.5001496, 39.6606135 ], [ 2.5018642, 39.6588638 ], [ 2.503007, 39.6571658 ], [ 2.5033119, 39.6569238 ], [ 2.5051665, 39.6567515 ], [ 2.505669, 39.6565734 ], [ 2.50736, 39.6548326 ], [ 2.507568, 39.6550768 ], [ 2.5088103, 39.6557848 ], [ 2.5089831, 39.6560739 ], [ 2.5093502, 39.6569134 ], [ 2.5097143, 39.6581763 ], [ 2.5101885, 39.6587099 ], [ 2.5103249, 39.6591971 ], [ 2.5105672, 39.6595585 ], [ 2.5123304, 39.6607913 ], [ 2.5130028, 39.6613347 ], [ 2.5142562, 39.6621329 ], [ 2.5146846, 39.6625581 ], [ 2.5151952, 39.6628846 ], [ 2.5158112, 39.6631575 ], [ 2.5164044, 39.6633582 ], [ 2.517068, 39.6634781 ], [ 2.5180824, 39.6634643 ], [ 2.5189906, 39.6636212 ], [ 2.519502, 39.6638396 ], [ 2.5200479, 39.6641482 ], [ 2.5210201, 39.6651613 ], [ 2.5220705, 39.6666793 ], [ 2.5229042, 39.6675117 ], [ 2.5238298, 39.6685517 ], [ 2.5252331, 39.6696476 ], [ 2.526891, 39.6710059 ], [ 2.5286206, 39.6721392 ], [ 2.5295367, 39.6728727 ], [ 2.5322858, 39.6732442 ], [ 2.5341361, 39.6755132 ], [ 2.537174, 39.6745793 ], [ 2.5418816, 39.6750304 ], [ 2.5464352, 39.6740752 ], [ 2.5474633, 39.6737548 ], [ 2.548684, 39.6725161 ], [ 2.5545519, 39.6720161 ], [ 2.5583186, 39.6737335 ], [ 2.5589115, 39.674006 ], [ 2.5597143, 39.6742793 ], [ 2.5614819, 39.6750249 ], [ 2.5624932, 39.6755062 ], [ 2.5633182, 39.6759688 ], [ 2.5626719, 39.6767683 ], [ 2.5624353, 39.6791551 ], [ 2.561849, 39.6796755 ], [ 2.5615905, 39.6799719 ], [ 2.56152, 39.6800707 ], [ 2.5611642, 39.6810154 ], [ 2.5607471, 39.6824194 ], [ 2.5604998, 39.682806 ], [ 2.5585727, 39.6851143 ], [ 2.5589306, 39.6856743 ], [ 2.559442, 39.6859465 ], [ 2.5601199, 39.6857148 ], [ 2.5613908, 39.6857466 ], [ 2.5624247, 39.6863722 ], [ 2.5647988, 39.687156 ], [ 2.5648548, 39.6912469 ], [ 2.5650111, 39.6923647 ], [ 2.5662005, 39.6942613 ], [ 2.5661992, 39.6944775 ], [ 2.5630063, 39.6958711 ], [ 2.5589224, 39.6979731 ], [ 2.5577846, 39.6989869 ], [ 2.5569295, 39.6995603 ], [ 2.5559229, 39.7000971 ], [ 2.5557351, 39.7002856 ] ] ] } }
]
}
