{
"type": "FeatureCollection",
"name": "07049",
"features": [
{ "type": "Feature", "properties": { "CCAA": "04 - Illes Balears", "PROVINCIA": "07 - Balears, Illes", "MUNICIPIO": "07049 - Sant Joan", "COD_MUNICIPIO": "07049", "DISTRITO": "02", "SECCION": "0704902001", "V1_H": 80.72, "V1_M": 86.56, "V2_H": 80.63016227, "V2_M": 86.55369361, "V3_H": 80.94352394000001, "V3_M": 86.74641221 }, "geometry": { "type": "Polygon", "coordinates": [ [ [ 3.0636833, 39.6216822 ], [ 3.063182, 39.621322 ], [ 3.0629955, 39.621187 ], [ 3.0628671, 39.6209347 ], [ 3.0626572, 39.6207186 ], [ 3.0622493, 39.6206197 ], [ 3.0617248, 39.6204128 ], [ 3.0613635, 39.6201517 ], [ 3.0610836, 39.6199536 ], [ 3.0577609, 39.6172162 ], [ 3.0568043, 39.6156128 ], [ 3.0565248, 39.6157751 ], [ 3.0533339, 39.6171732 ], [ 3.0500496, 39.6186794 ], [ 3.0473713, 39.6204555 ], [ 3.0460555, 39.6215463 ], [ 3.0448677, 39.6225559 ], [ 3.042236, 39.6248635 ], [ 3.0402895, 39.6236478 ], [ 3.0400799, 39.6238101 ], [ 3.0373759, 39.622081 ], [ 3.0333086, 39.6198116 ], [ 3.0334133, 39.6196134 ], [ 3.0324461, 39.618992 ], [ 3.0322364, 39.6191272 ], [ 3.0307098, 39.6180464 ], [ 3.0291366, 39.6171367 ], [ 3.0291831, 39.6169115 ], [ 3.027878, 39.6161459 ], [ 3.0274236, 39.6159838 ], [ 3.0268642, 39.6154524 ], [ 3.0265378, 39.6149839 ], [ 3.0262463, 39.6143443 ], [ 3.0260133, 39.614083 ], [ 3.0257336, 39.6138578 ], [ 3.0263043, 39.6135333 ], [ 3.0283656, 39.6121092 ], [ 3.0264782, 39.6113889 ], [ 3.0260355, 39.6112988 ], [ 3.0252201, 39.6113171 ], [ 3.0249172, 39.611227 ], [ 3.0246492, 39.6110108 ], [ 3.0244626, 39.6106504 ], [ 3.0240194, 39.6089836 ], [ 3.0239493, 39.6083169 ], [ 3.023984, 39.6078934 ], [ 3.0239953, 39.606632 ], [ 3.0239136, 39.6061365 ], [ 3.023273, 39.6065781 ], [ 3.0232032, 39.6066412 ], [ 3.0225675, 39.6069874 ], [ 3.0225899, 39.6067044 ], [ 3.0227681, 39.6064295 ], [ 3.0233594, 39.6058347 ], [ 3.0234489, 39.6056861 ], [ 3.0233706, 39.6055149 ], [ 3.0232592, 39.6053932 ], [ 3.0232031, 39.6052806 ], [ 3.0233034, 39.6050463 ], [ 3.0233482, 39.6049067 ], [ 3.0236268, 39.604366 ], [ 3.0238389, 39.603992 ], [ 3.0238945, 39.6037938 ], [ 3.0240509, 39.603501 ], [ 3.0242182, 39.6029918 ], [ 3.0244076, 39.6023791 ], [ 3.0246644, 39.601924 ], [ 3.0249432, 39.6017258 ], [ 3.0252445, 39.6015635 ], [ 3.0257578, 39.6010363 ], [ 3.0260926, 39.6007254 ], [ 3.0263604, 39.6005181 ], [ 3.0266838, 39.6001531 ], [ 3.027108, 39.5995313 ], [ 3.0275205, 39.5990311 ], [ 3.0282123, 39.5980804 ], [ 3.0285579, 39.5974721 ], [ 3.0286473, 39.5971973 ], [ 3.0288255, 39.5968954 ], [ 3.029071, 39.5963953 ], [ 3.0291043, 39.5960934 ], [ 3.0292268, 39.5957194 ], [ 3.0300526, 39.5957192 ], [ 3.0332449, 39.59584 ], [ 3.03319, 39.5973447 ], [ 3.0358918, 39.5990018 ], [ 3.0364307, 39.5988439 ], [ 3.0370894, 39.5985194 ], [ 3.037145, 39.5985014 ], [ 3.0373572, 39.5984923 ], [ 3.0376361, 39.5986634 ], [ 3.037826, 39.598411 ], [ 3.038138, 39.5979424 ], [ 3.0395657, 39.5958786 ], [ 3.0399853, 39.5952116 ], [ 3.0400242, 39.5951936 ], [ 3.0412802, 39.5933956 ], [ 3.0407444, 39.5931796 ], [ 3.0419378, 39.5919673 ], [ 3.0446032, 39.5891281 ], [ 3.0452501, 39.5884386 ], [ 3.0459079, 39.5875733 ], [ 3.0464319, 39.587019 ], [ 3.0469449, 39.5862484 ], [ 3.0470786, 39.5859825 ], [ 3.0475239, 39.5848155 ], [ 3.0478582, 39.5840811 ], [ 3.0479476, 39.5839413 ], [ 3.0483264, 39.5833285 ], [ 3.0485048, 39.5829139 ], [ 3.0486494, 39.582112 ], [ 3.049028, 39.5813099 ], [ 3.0496298, 39.580341 ], [ 3.0500423, 39.5795795 ], [ 3.0502543, 39.5792866 ], [ 3.0504103, 39.5791829 ], [ 3.0507558, 39.5790431 ], [ 3.0513251, 39.5788536 ], [ 3.051626, 39.5787318 ], [ 3.0517824, 39.5786552 ], [ 3.053466, 39.5772353 ], [ 3.0540125, 39.5768296 ], [ 3.0544027, 39.5765636 ], [ 3.0548489, 39.5762616 ], [ 3.0562093, 39.5752653 ], [ 3.0565773, 39.5750308 ], [ 3.0572465, 39.5746971 ], [ 3.0588191, 39.5738719 ], [ 3.0590533, 39.5737276 ], [ 3.0593653, 39.5735878 ], [ 3.059845, 39.5733803 ], [ 3.0603579, 39.5731728 ], [ 3.0622318, 39.5725591 ], [ 3.0623657, 39.572505 ], [ 3.0639941, 39.5720581 ], [ 3.065433, 39.5716653 ], [ 3.0661245, 39.5714847 ], [ 3.0680207, 39.5709565 ], [ 3.068612, 39.5707084 ], [ 3.0688905, 39.5706091 ], [ 3.0693928, 39.5707214 ], [ 3.0700736, 39.5709057 ], [ 3.0706206, 39.570991 ], [ 3.071011, 39.5710313 ], [ 3.072227, 39.5710846 ], [ 3.0726733, 39.5710573 ], [ 3.0734988, 39.5709802 ], [ 3.0738447, 39.5708854 ], [ 3.0742461, 39.5707049 ], [ 3.0745472, 39.570502 ], [ 3.0748816, 39.5701819 ], [ 3.0751266, 39.5700196 ], [ 3.0753833, 39.5698707 ], [ 3.0757401, 39.5697624 ], [ 3.0761304, 39.56969 ], [ 3.0791533, 39.5693501 ], [ 3.0796208, 39.5693363 ], [ 3.079986, 39.569327 ], [ 3.0808538, 39.569367 ], [ 3.0808425, 39.5694178 ], [ 3.0806685, 39.570196 ], [ 3.0800998, 39.5717462 ], [ 3.0799491, 39.5722959 ], [ 3.0797413, 39.5738098 ], [ 3.0795905, 39.5743505 ], [ 3.0816983, 39.5746734 ], [ 3.0821416, 39.5753939 ], [ 3.0844938, 39.5756806 ], [ 3.0844476, 39.5759419 ], [ 3.0857751, 39.5760941 ], [ 3.0890821, 39.5763349 ], [ 3.0890246, 39.5768395 ], [ 3.0902363, 39.5774513 ], [ 3.0905976, 39.5777664 ], [ 3.0912851, 39.5781893 ], [ 3.0910991, 39.5784147 ], [ 3.0934065, 39.5798455 ], [ 3.0949916, 39.5809345 ], [ 3.0943406, 39.5817549 ], [ 3.094015, 39.5820706 ], [ 3.092212, 39.5834145 ], [ 3.0915488, 39.5838115 ], [ 3.0911765, 39.5841452 ], [ 3.0901764, 39.5851551 ], [ 3.0885361, 39.5864088 ], [ 3.0861398, 39.5884379 ], [ 3.0852314, 39.5884566 ], [ 3.0842068, 39.5885745 ], [ 3.0827529, 39.5900712 ], [ 3.0772246, 39.5930755 ], [ 3.0715798, 39.596503 ], [ 3.07062, 39.5971838 ], [ 3.0704626, 39.5972966 ], [ 3.0701146, 39.5975987 ], [ 3.0694967, 39.5981351 ], [ 3.0692176, 39.5985137 ], [ 3.0682167, 39.5992711 ], [ 3.0674837, 39.6000825 ], [ 3.0662263, 39.6005518 ], [ 3.0661916, 39.6008761 ], [ 3.0650625, 39.6016066 ], [ 3.0631423, 39.6034007 ], [ 3.0650312, 39.6054269 ], [ 3.0651244, 39.605472 ], [ 3.066512, 39.6070299 ], [ 3.0687154, 39.6088848 ], [ 3.0693221, 39.6098124 ], [ 3.070115, 39.6105778 ], [ 3.0709649, 39.6101178 ], [ 3.0713146, 39.6103158 ], [ 3.069709, 39.612299 ], [ 3.0713874, 39.613136 ], [ 3.070817, 39.6135418 ], [ 3.0695478, 39.6142093 ], [ 3.070294, 39.6147675 ], [ 3.0683726, 39.6156336 ], [ 3.0658695, 39.617338 ], [ 3.0645425, 39.6185011 ], [ 3.0658834, 39.6195906 ], [ 3.0649859, 39.6204425 ], [ 3.0643159, 39.6210826 ], [ 3.0636833, 39.6216822 ] ] ] } },
{ "type": "Feature", "properties": { "CCAA": "04 - Illes Balears", "PROVINCIA": "07 - Balears, Illes", "MUNICIPIO": "07049 - Sant Joan", "COD_MUNICIPIO": "07049", "DISTRITO": "01", "SECCION": "0704901001", "V1_H": 80.8, "V1_M": 86.5, "V2_H": 80.66727015, "V2_M": 86.4570773, "V3_H": 81.13875257, "V3_M": 86.68010657000001 }, "geometry": { "type": "Polygon", "coordinates": [ [ [ 3.0225675, 39.6069874 ], [ 3.0222599, 39.6071549 ], [ 3.0205128, 39.6079121 ], [ 3.0168089, 39.6092282 ], [ 3.0139784, 39.6098052 ], [ 3.0140717, 39.6100485 ], [ 3.011579, 39.6107426 ], [ 3.0105769, 39.6092289 ], [ 3.0102623, 39.6088505 ], [ 3.0084682, 39.6071387 ], [ 3.0075129, 39.6059675 ], [ 3.0068722, 39.6058144 ], [ 2.9998834, 39.6073823 ], [ 2.9991262, 39.6063732 ], [ 2.9967383, 39.6059317 ], [ 2.9953871, 39.6056343 ], [ 2.9947931, 39.6053549 ], [ 2.9945136, 39.6050756 ], [ 2.9922423, 39.6047331 ], [ 2.9914618, 39.6048321 ], [ 2.9901456, 39.6046428 ], [ 2.988643, 39.6050031 ], [ 2.9881773, 39.6037867 ], [ 2.9870008, 39.6039848 ], [ 2.986663, 39.6040478 ], [ 2.9840888, 39.6040655 ], [ 2.9830641, 39.6027859 ], [ 2.9824356, 39.6009388 ], [ 2.9815506, 39.6000286 ], [ 2.9812128, 39.6000916 ], [ 2.9811547, 39.5994789 ], [ 2.9809101, 39.5995329 ], [ 2.9806425, 39.5984517 ], [ 2.9817373, 39.5983077 ], [ 2.9860234, 39.5983263 ], [ 2.9860931, 39.5997139 ], [ 2.9862445, 39.5995877 ], [ 2.9886441, 39.5976598 ], [ 2.9870952, 39.5967316 ], [ 2.986839, 39.596236 ], [ 2.9875379, 39.5956054 ], [ 2.987969, 39.5951549 ], [ 2.9883767, 39.5945513 ], [ 2.9890988, 39.5940738 ], [ 2.9895065, 39.593335 ], [ 2.9899491, 39.5931728 ], [ 2.9904964, 39.5930378 ], [ 2.9911137, 39.5930468 ], [ 2.9913583, 39.5930649 ], [ 2.9924763, 39.5928487 ], [ 2.9930003, 39.5928397 ], [ 2.9938738, 39.5929479 ], [ 2.9954576, 39.5932182 ], [ 2.9965291, 39.5931913 ], [ 2.9976588, 39.5930651 ], [ 2.9984391, 39.5924434 ], [ 2.9991378, 39.592056 ], [ 2.9994406, 39.5917227 ], [ 3.0000462, 39.5914523 ], [ 3.0008847, 39.5908847 ], [ 3.0014436, 39.5913532 ], [ 3.0019677, 39.5915424 ], [ 3.0032255, 39.5913712 ], [ 3.003866, 39.591254 ], [ 3.0064629, 39.5910197 ], [ 3.0076391, 39.5907583 ], [ 3.0080001, 39.5905691 ], [ 3.0089316, 39.5896499 ], [ 3.0108412, 39.5880369 ], [ 3.0102938, 39.5874063 ], [ 3.0089195, 39.5860819 ], [ 3.0077199, 39.5847755 ], [ 3.0072191, 39.5841358 ], [ 3.0065204, 39.5836133 ], [ 3.0063919, 39.58073 ], [ 3.0066247, 39.5795947 ], [ 3.0058445, 39.5790001 ], [ 3.0060657, 39.5787208 ], [ 3.0064616, 39.5786036 ], [ 3.0071835, 39.5784954 ], [ 3.0073931, 39.5784684 ], [ 3.0086506, 39.5783782 ], [ 3.0101526, 39.5781348 ], [ 3.0109909, 39.5779095 ], [ 3.0129584, 39.5770713 ], [ 3.0141693, 39.5766747 ], [ 3.0146233, 39.5764674 ], [ 3.0157063, 39.577107 ], [ 3.0161606, 39.5779809 ], [ 3.0165685, 39.5793594 ], [ 3.0181526, 39.5815667 ], [ 3.0186652, 39.5824406 ], [ 3.0190146, 39.5825577 ], [ 3.0195501, 39.5822783 ], [ 3.0210171, 39.5817554 ], [ 3.0252321, 39.5809887 ], [ 3.0260123, 39.5813309 ], [ 3.0260818, 39.5804749 ], [ 3.0269902, 39.5807721 ], [ 3.027654, 39.580916 ], [ 3.0276539, 39.5806998 ], [ 3.0278633, 39.5802853 ], [ 3.0280492, 39.5793301 ], [ 3.0280838, 39.5784652 ], [ 3.0286068, 39.5761674 ], [ 3.0294567, 39.5760231 ], [ 3.02842, 39.5751583 ], [ 3.0283265, 39.5741222 ], [ 3.0284776, 39.5735635 ], [ 3.0293618, 39.5720586 ], [ 3.0295828, 39.5715089 ], [ 3.0298733, 39.5702564 ], [ 3.032038, 39.56867 ], [ 3.0329923, 39.56803 ], [ 3.0339467, 39.5674981 ], [ 3.0361812, 39.5660918 ], [ 3.0371355, 39.5654247 ], [ 3.0376824, 39.5651092 ], [ 3.037578, 39.565776 ], [ 3.0376016, 39.5663257 ], [ 3.0376833, 39.5667491 ], [ 3.0382884, 39.5662353 ], [ 3.0398944, 39.5652977 ], [ 3.0409535, 39.5647657 ], [ 3.0414073, 39.5645493 ], [ 3.0423966, 39.5642606 ], [ 3.0417677, 39.5637472 ], [ 3.0414298, 39.5632428 ], [ 3.0413128, 39.5622607 ], [ 3.0417196, 39.5611794 ], [ 3.0413115, 39.5600713 ], [ 3.0423009, 39.5599898 ], [ 3.0422772, 39.559305 ], [ 3.0425446, 39.5587103 ], [ 3.0429741, 39.556917 ], [ 3.0431486, 39.5567007 ], [ 3.0431949, 39.5562952 ], [ 3.0435785, 39.5554752 ], [ 3.0438922, 39.5546191 ], [ 3.0440896, 39.553781 ], [ 3.0443103, 39.5532133 ], [ 3.0445313, 39.5528258 ], [ 3.0443683, 39.5527538 ], [ 3.0446473, 39.552222 ], [ 3.0470568, 39.5526265 ], [ 3.050072, 39.5533281 ], [ 3.0535996, 39.5543987 ], [ 3.0543559, 39.554119 ], [ 3.0578586, 39.5531442 ], [ 3.0622453, 39.5516462 ], [ 3.063432, 39.5510869 ], [ 3.0637116, 39.5513481 ], [ 3.0640489, 39.5510776 ], [ 3.0644094, 39.5507079 ], [ 3.0664922, 39.5501661 ], [ 3.0716386, 39.5520822 ], [ 3.0750269, 39.5532785 ], [ 3.0787765, 39.5547177 ], [ 3.0791043, 39.5563483 ], [ 3.0798276, 39.5577804 ], [ 3.0808664, 39.5601855 ], [ 3.0836878, 39.5638506 ], [ 3.0832691, 39.5641483 ], [ 3.0829784, 39.5644639 ], [ 3.0828274, 39.5647343 ], [ 3.0838868, 39.5647605 ], [ 3.0844574, 39.5648502 ], [ 3.0845673, 39.5650962 ], [ 3.0845741, 39.5651115 ], [ 3.0848304, 39.5652825 ], [ 3.0845163, 39.5654359 ], [ 3.084144, 39.5656434 ], [ 3.0838665, 39.5671663 ], [ 3.0837039, 39.5675178 ], [ 3.0826462, 39.5689782 ], [ 3.0824835, 39.5692126 ], [ 3.0819478, 39.5690869 ], [ 3.0817619, 39.5693303 ], [ 3.0808538, 39.569367 ], [ 3.079986, 39.569327 ], [ 3.0796208, 39.5693363 ], [ 3.0791533, 39.5693501 ], [ 3.0761304, 39.56969 ], [ 3.0757401, 39.5697624 ], [ 3.0753833, 39.5698707 ], [ 3.0751266, 39.5700196 ], [ 3.0748816, 39.5701819 ], [ 3.0745472, 39.570502 ], [ 3.0742461, 39.5707049 ], [ 3.0738447, 39.5708854 ], [ 3.0734988, 39.5709802 ], [ 3.0726733, 39.5710573 ], [ 3.072227, 39.5710846 ], [ 3.071011, 39.5710313 ], [ 3.0706206, 39.570991 ], [ 3.0700736, 39.5709057 ], [ 3.0693928, 39.5707214 ], [ 3.0688905, 39.5706091 ], [ 3.068612, 39.5707084 ], [ 3.0680207, 39.5709565 ], [ 3.0661245, 39.5714847 ], [ 3.065433, 39.5716653 ], [ 3.0639941, 39.5720581 ], [ 3.0623657, 39.572505 ], [ 3.0622318, 39.5725591 ], [ 3.0603579, 39.5731728 ], [ 3.059845, 39.5733803 ], [ 3.0593653, 39.5735878 ], [ 3.0590533, 39.5737276 ], [ 3.0588191, 39.5738719 ], [ 3.0572465, 39.5746971 ], [ 3.0565773, 39.5750308 ], [ 3.0562093, 39.5752653 ], [ 3.0548489, 39.5762616 ], [ 3.0544027, 39.5765636 ], [ 3.0540125, 39.5768296 ], [ 3.053466, 39.5772353 ], [ 3.0517824, 39.5786552 ], [ 3.051626, 39.5787318 ], [ 3.0513251, 39.5788536 ], [ 3.0507558, 39.5790431 ], [ 3.0504103, 39.5791829 ], [ 3.0502543, 39.5792866 ], [ 3.0500423, 39.5795795 ], [ 3.0496298, 39.580341 ], [ 3.049028, 39.5813099 ], [ 3.0486494, 39.582112 ], [ 3.0485048, 39.5829139 ], [ 3.0483264, 39.5833285 ], [ 3.0479476, 39.5839413 ], [ 3.0478582, 39.5840811 ], [ 3.0475239, 39.5848155 ], [ 3.0470786, 39.5859825 ], [ 3.0469449, 39.5862484 ], [ 3.0464319, 39.587019 ], [ 3.0459079, 39.5875733 ], [ 3.0452501, 39.5884386 ], [ 3.0446032, 39.5891281 ], [ 3.0419378, 39.5919673 ], [ 3.0407444, 39.5931796 ], [ 3.0412802, 39.5933956 ], [ 3.0400242, 39.5951936 ], [ 3.0399853, 39.5952116 ], [ 3.0395657, 39.5958786 ], [ 3.038138, 39.5979424 ], [ 3.037826, 39.598411 ], [ 3.0376361, 39.5986634 ], [ 3.0373572, 39.5984923 ], [ 3.037145, 39.5985014 ], [ 3.0370894, 39.5985194 ], [ 3.0364307, 39.5988439 ], [ 3.0358918, 39.5990018 ], [ 3.03319, 39.5973447 ], [ 3.0332449, 39.59584 ], [ 3.0300526, 39.5957192 ], [ 3.0292268, 39.5957194 ], [ 3.0291043, 39.5960934 ], [ 3.029071, 39.5963953 ], [ 3.0288255, 39.5968954 ], [ 3.0286473, 39.5971973 ], [ 3.0285579, 39.5974721 ], [ 3.0282123, 39.5980804 ], [ 3.0275205, 39.5990311 ], [ 3.027108, 39.5995313 ], [ 3.0266838, 39.6001531 ], [ 3.0263604, 39.6005181 ], [ 3.0260926, 39.6007254 ], [ 3.0257578, 39.6010363 ], [ 3.0252445, 39.6015635 ], [ 3.0249432, 39.6017258 ], [ 3.0246644, 39.601924 ], [ 3.0244076, 39.6023791 ], [ 3.0242182, 39.6029918 ], [ 3.0240509, 39.603501 ], [ 3.0238945, 39.6037938 ], [ 3.0238389, 39.603992 ], [ 3.0236268, 39.604366 ], [ 3.0233482, 39.6049067 ], [ 3.0233034, 39.6050463 ], [ 3.0232031, 39.6052806 ], [ 3.0232592, 39.6053932 ], [ 3.0233706, 39.6055149 ], [ 3.0234489, 39.6056861 ], [ 3.0233594, 39.6058347 ], [ 3.0227681, 39.6064295 ], [ 3.0225899, 39.6067044 ], [ 3.0225675, 39.6069874 ] ] ] } }
]
}
