{
"type": "FeatureCollection",
"name": "07061",
"features": [
{ "type": "Feature", "properties": { "CCAA": "04 - Illes Balears", "PROVINCIA": "07 - Balears, Illes", "MUNICIPIO": "07061 - Sóller", "COD_MUNICIPIO": "07061", "DISTRITO": "02", "SECCION": "0706102002", "V1_H": 81.04, "V1_M": 86.55, "V2_H": 80.90626992, "V2_M": 86.32523903000001, "V3_H": 81.22678782, "V3_M": 86.81274177 }, "geometry": { "type": "Polygon", "coordinates": [ [ [ 2.7303964, 39.7460976 ], [ 2.7307052, 39.7463056 ], [ 2.731646, 39.7475962 ], [ 2.7315757, 39.7485151 ], [ 2.7317524, 39.7490471 ], [ 2.7316978, 39.7496912 ], [ 2.7317328, 39.7502589 ], [ 2.7316356, 39.7507632 ], [ 2.7317462, 39.7513086 ], [ 2.7313308, 39.7521276 ], [ 2.7309269, 39.7525456 ], [ 2.7299859, 39.7531471 ], [ 2.7294247, 39.7538666 ], [ 2.7287752, 39.7542706 ], [ 2.7286738, 39.7553831 ], [ 2.7279992, 39.7565168 ], [ 2.7271364, 39.7570779 ], [ 2.7262692, 39.7579453 ], [ 2.7262675, 39.7586571 ], [ 2.7259739, 39.759188 ], [ 2.7254547, 39.7598355 ], [ 2.7248752, 39.7606946 ], [ 2.7248041, 39.7610729 ], [ 2.7245761, 39.7613201 ], [ 2.7243251, 39.7616935 ], [ 2.7239753, 39.7618773 ], [ 2.7236435, 39.7619171 ], [ 2.7231273, 39.7620825 ], [ 2.722756, 39.7619645 ], [ 2.7225727, 39.7620857 ], [ 2.7223642, 39.7621348 ], [ 2.7222179, 39.762238 ], [ 2.7216467, 39.7623763 ], [ 2.720986, 39.7621945 ], [ 2.7206305, 39.7625946 ], [ 2.7204921, 39.7626258 ], [ 2.7201161, 39.7632196 ], [ 2.7195234, 39.7641732 ], [ 2.7192349, 39.7645149 ], [ 2.7188007, 39.7650635 ], [ 2.7182694, 39.7656253 ], [ 2.7180217, 39.7660527 ], [ 2.7176939, 39.7666511 ], [ 2.7174718, 39.7666055 ], [ 2.7173206, 39.7668259 ], [ 2.7169867, 39.7674648 ], [ 2.7166818, 39.7673469 ], [ 2.7161181, 39.7669986 ], [ 2.7157278, 39.7666958 ], [ 2.7155032, 39.7665781 ], [ 2.7148156, 39.766171 ], [ 2.7148056, 39.7655043 ], [ 2.7149355, 39.764973 ], [ 2.71488, 39.764725 ], [ 2.7143886, 39.7646202 ], [ 2.7140264, 39.764331 ], [ 2.713898, 39.7638892 ], [ 2.7140466, 39.7635021 ], [ 2.7141878, 39.7632367 ], [ 2.7140878, 39.7629751 ], [ 2.7130961, 39.7621122 ], [ 2.7127358, 39.7618275 ], [ 2.7123725, 39.7615428 ], [ 2.7123375, 39.7612679 ], [ 2.7124917, 39.7608628 ], [ 2.7123119, 39.760056 ], [ 2.7122065, 39.758988 ], [ 2.7117152, 39.7584507 ], [ 2.7115643, 39.7582206 ], [ 2.711533, 39.7579457 ], [ 2.7115201, 39.7572924 ], [ 2.7110058, 39.7566559 ], [ 2.7106868, 39.7564344 ], [ 2.7101837, 39.7564331 ], [ 2.7098961, 39.7563063 ], [ 2.7101264, 39.7560095 ], [ 2.710957, 39.7552367 ], [ 2.7110467, 39.7550792 ], [ 2.7110379, 39.754462 ], [ 2.7109713, 39.7541781 ], [ 2.7109577, 39.7540068 ], [ 2.7111423, 39.7538586 ], [ 2.7112456, 39.7534759 ], [ 2.7113108, 39.7527147 ], [ 2.7115422, 39.7521432 ], [ 2.7116043, 39.7517739 ], [ 2.7117404, 39.751585 ], [ 2.7118973, 39.7509773 ], [ 2.7120812, 39.7507029 ], [ 2.7121883, 39.7503743 ], [ 2.7127259, 39.750209 ], [ 2.7144075, 39.7500419 ], [ 2.7151901, 39.7499177 ], [ 2.7161353, 39.749965 ], [ 2.7168819, 39.750093 ], [ 2.7166504, 39.7467497 ], [ 2.7211218, 39.7465082 ], [ 2.7254534, 39.7461852 ], [ 2.7280288, 39.7472003 ], [ 2.7303964, 39.7460976 ] ] ] } },
{ "type": "Feature", "properties": { "CCAA": "04 - Illes Balears", "PROVINCIA": "07 - Balears, Illes", "MUNICIPIO": "07061 - Sóller", "COD_MUNICIPIO": "07061", "DISTRITO": "02", "SECCION": "0706102004", "V1_H": 81.37, "V1_M": 86.85, "V2_H": 81.08688328, "V2_M": 86.76748373, "V3_H": 81.75507894, "V3_M": 87.07522296 }, "geometry": { "type": "Polygon", "coordinates": [ [ [ 2.7540974, 39.7722076 ], [ 2.7535255, 39.7721253 ], [ 2.7524974, 39.7722853 ], [ 2.7519953, 39.7723113 ], [ 2.7515752, 39.7722293 ], [ 2.7511788, 39.7720663 ], [ 2.7503168, 39.7715058 ], [ 2.7489998, 39.7708272 ], [ 2.7478342, 39.770284 ], [ 2.7475547, 39.7700852 ], [ 2.7473686, 39.7698685 ], [ 2.7471124, 39.7696968 ], [ 2.746519, 39.7691279 ], [ 2.7452133, 39.7685934 ], [ 2.7443978, 39.7681051 ], [ 2.7440019, 39.7678249 ], [ 2.7430927, 39.7674264 ], [ 2.7417606, 39.7677118 ], [ 2.7413519, 39.7677199 ], [ 2.7409201, 39.7676648 ], [ 2.7408149, 39.7677007 ], [ 2.7404165, 39.7680782 ], [ 2.740241, 39.7681679 ], [ 2.7385584, 39.7685155 ], [ 2.7384061, 39.7686413 ], [ 2.7381355, 39.7691993 ], [ 2.7379007, 39.7695412 ], [ 2.7373148, 39.7700805 ], [ 2.7362596, 39.7712404 ], [ 2.7356838, 39.7722122 ], [ 2.7357409, 39.7725457 ], [ 2.7362292, 39.7730964 ], [ 2.7362634, 39.7733037 ], [ 2.736192, 39.773664 ], [ 2.7357455, 39.7743927 ], [ 2.7358601, 39.7749516 ], [ 2.7360324, 39.7757179 ], [ 2.7357402, 39.7757803 ], [ 2.7353785, 39.7757164 ], [ 2.7346208, 39.7753633 ], [ 2.7341901, 39.7750199 ], [ 2.7334676, 39.7746489 ], [ 2.7327563, 39.7743859 ], [ 2.7312631, 39.7740221 ], [ 2.7308083, 39.7738588 ], [ 2.730446, 39.7739571 ], [ 2.7299779, 39.7741993 ], [ 2.7299456, 39.7742578 ], [ 2.7295307, 39.7742703 ], [ 2.7287689, 39.7740703 ], [ 2.7279622, 39.7740369 ], [ 2.7268566, 39.7742956 ], [ 2.7253256, 39.7746389 ], [ 2.7249133, 39.7745432 ], [ 2.7242202, 39.7737577 ], [ 2.7240089, 39.7734869 ], [ 2.7233376, 39.7730889 ], [ 2.7217389, 39.77304 ], [ 2.7202978, 39.772514 ], [ 2.7198998, 39.7723373 ], [ 2.7194931, 39.7723003 ], [ 2.719559, 39.7722419 ], [ 2.7197759, 39.7721974 ], [ 2.720063, 39.7720223 ], [ 2.7199935, 39.7719952 ], [ 2.7199446, 39.7719004 ], [ 2.7200326, 39.7716168 ], [ 2.7201366, 39.7713468 ], [ 2.7202362, 39.7711578 ], [ 2.7204462, 39.7707573 ], [ 2.7205686, 39.7705189 ], [ 2.7205935, 39.7704288 ], [ 2.7205058, 39.7702709 ], [ 2.7203287, 39.770203 ], [ 2.7199616, 39.77013 ], [ 2.7197971, 39.7702782 ], [ 2.719308, 39.7703401 ], [ 2.7190354, 39.7700917 ], [ 2.7188617, 39.7698885 ], [ 2.7188795, 39.7696453 ], [ 2.7188678, 39.7694696 ], [ 2.7184042, 39.7692657 ], [ 2.7182623, 39.7691753 ], [ 2.7182292, 39.7690581 ], [ 2.7183134, 39.7689817 ], [ 2.7185229, 39.7690543 ], [ 2.7186997, 39.7690097 ], [ 2.7190163, 39.7687536 ], [ 2.7192798, 39.7687318 ], [ 2.7193056, 39.7685741 ], [ 2.7193768, 39.7684797 ], [ 2.7194572, 39.7683448 ], [ 2.7197286, 39.7678498 ], [ 2.7203673, 39.7675991 ], [ 2.7205028, 39.7673156 ], [ 2.7215305, 39.7664261 ], [ 2.7218055, 39.7660663 ], [ 2.7224007, 39.766239 ], [ 2.7233487, 39.7652096 ], [ 2.7230226, 39.7647357 ], [ 2.7233702, 39.7643041 ], [ 2.7242279, 39.7636845 ], [ 2.7249945, 39.7630015 ], [ 2.7250279, 39.7628574 ], [ 2.7253507, 39.7624257 ], [ 2.7256156, 39.7624263 ], [ 2.7257799, 39.7623006 ], [ 2.7264023, 39.7622795 ], [ 2.726723, 39.7620235 ], [ 2.7272465, 39.7614706 ], [ 2.7275628, 39.7612956 ], [ 2.7276714, 39.7603768 ], [ 2.7284103, 39.7595947 ], [ 2.7296677, 39.7591877 ], [ 2.7303391, 39.7591262 ], [ 2.7313029, 39.7588806 ], [ 2.7325459, 39.758469 ], [ 2.7337473, 39.7580618 ], [ 2.7339054, 39.7579406 ], [ 2.7339775, 39.7578866 ], [ 2.7343284, 39.7583695 ], [ 2.7348, 39.7587805 ], [ 2.7353643, 39.7587098 ], [ 2.7358757, 39.7582334 ], [ 2.7359497, 39.7578551 ], [ 2.7360779, 39.7576302 ], [ 2.7374163, 39.7570836 ], [ 2.7379734, 39.7571704 ], [ 2.7387256, 39.7566991 ], [ 2.7390422, 39.7567043 ], [ 2.7400633, 39.7561074 ], [ 2.7406986, 39.755771 ], [ 2.7411177, 39.7553935 ], [ 2.7417785, 39.7553409 ], [ 2.7424028, 39.7549233 ], [ 2.7431799, 39.7552944 ], [ 2.7438485, 39.7555257 ], [ 2.7446641, 39.7552256 ], [ 2.7448487, 39.7545322 ], [ 2.7449049, 39.753334 ], [ 2.7458783, 39.7530028 ], [ 2.7458892, 39.7530073 ], [ 2.7464074, 39.7549637 ], [ 2.7474818, 39.7580475 ], [ 2.7474171, 39.7597773 ], [ 2.7503833, 39.7595044 ], [ 2.7522384, 39.7598147 ], [ 2.7525762, 39.7600497 ], [ 2.7530879, 39.7605914 ], [ 2.7541588, 39.7614857 ], [ 2.756908, 39.7631944 ], [ 2.7583108, 39.7626567 ], [ 2.7592755, 39.7638751 ], [ 2.7602094, 39.7673009 ], [ 2.7590357, 39.7690735 ], [ 2.7558923, 39.7698057 ], [ 2.7540974, 39.7722076 ] ] ] } },
{ "type": "Feature", "properties": { "CCAA": "04 - Illes Balears", "PROVINCIA": "07 - Balears, Illes", "MUNICIPIO": "07061 - Sóller", "COD_MUNICIPIO": "07061", "DISTRITO": "02", "SECCION": "0706102001", "V1_H": 81.18, "V1_M": 86.79, "V2_H": 80.97904731, "V2_M": 86.77314473, "V3_H": 81.44010912, "V3_M": 86.96351832000001 }, "geometry": { "type": "Polygon", "coordinates": [ [ [ 2.7299456, 39.7742578 ], [ 2.7298839, 39.7743702 ], [ 2.7299285, 39.774902 ], [ 2.7304599, 39.7763899 ], [ 2.730307, 39.7766508 ], [ 2.729652, 39.7769466 ], [ 2.728775, 39.7772419 ], [ 2.7287043, 39.7774039 ], [ 2.7288787, 39.7775935 ], [ 2.7289008, 39.777927 ], [ 2.7290395, 39.7782786 ], [ 2.7273949, 39.7837079 ], [ 2.7266251, 39.7834898 ], [ 2.7262516, 39.7834439 ], [ 2.725901, 39.7834791 ], [ 2.7249185, 39.7838732 ], [ 2.724007, 39.7840152 ], [ 2.7236797, 39.7841136 ], [ 2.7235274, 39.7842213 ], [ 2.7234447, 39.7844464 ], [ 2.7234392, 39.784559 ], [ 2.7214385, 39.7835811 ], [ 2.7202191, 39.7835016 ], [ 2.7196747, 39.782392 ], [ 2.7194402, 39.7819139 ], [ 2.719387, 39.7818057 ], [ 2.7193508, 39.781738 ], [ 2.7191746, 39.781188 ], [ 2.7191114, 39.7809986 ], [ 2.718675, 39.7799163 ], [ 2.7186289, 39.7786999 ], [ 2.7184441, 39.7784787 ], [ 2.7180066, 39.778365 ], [ 2.7179028, 39.7781485 ], [ 2.7179781, 39.7778423 ], [ 2.7178377, 39.7775356 ], [ 2.7176183, 39.7772873 ], [ 2.717433, 39.7771021 ], [ 2.7174245, 39.776949 ], [ 2.7173325, 39.7767775 ], [ 2.7174694, 39.7765166 ], [ 2.7175404, 39.7756518 ], [ 2.7174741, 39.7753633 ], [ 2.7174005, 39.7752325 ], [ 2.7173347, 39.7751647 ], [ 2.7170336, 39.7748261 ], [ 2.7168563, 39.7745464 ], [ 2.7166291, 39.7743431 ], [ 2.7162228, 39.7741259 ], [ 2.7160422, 39.7740354 ], [ 2.7158394, 39.7739177 ], [ 2.7159255, 39.7738233 ], [ 2.7161026, 39.7734408 ], [ 2.7161109, 39.7732877 ], [ 2.7160411, 39.7730577 ], [ 2.7160256, 39.772918 ], [ 2.7158911, 39.7729583 ], [ 2.715537, 39.773106 ], [ 2.7150955, 39.7732627 ], [ 2.7143529, 39.77345 ], [ 2.7141197, 39.7736296 ], [ 2.7138166, 39.7738857 ], [ 2.7133404, 39.7742314 ], [ 2.7132138, 39.7743212 ], [ 2.7130938, 39.7743795 ], [ 2.7126937, 39.7745226 ], [ 2.7123791, 39.7746075 ], [ 2.7117629, 39.7747636 ], [ 2.7116563, 39.7747813 ], [ 2.711286, 39.7748435 ], [ 2.7111398, 39.7749062 ], [ 2.7110486, 39.7748159 ], [ 2.7108295, 39.7747568 ], [ 2.7100152, 39.7746421 ], [ 2.7098854, 39.7747094 ], [ 2.7095769, 39.7748392 ], [ 2.7094742, 39.7747849 ], [ 2.709002, 39.7742656 ], [ 2.7088989, 39.7741347 ], [ 2.7085664, 39.7737239 ], [ 2.7085264, 39.7736743 ], [ 2.7082611, 39.7734349 ], [ 2.7083488, 39.7733225 ], [ 2.7083784, 39.7732234 ], [ 2.7083523, 39.7730927 ], [ 2.7082384, 39.7730338 ], [ 2.7088631, 39.7727516 ], [ 2.7091935, 39.7725452 ], [ 2.7095733, 39.7722038 ], [ 2.7104151, 39.7715031 ], [ 2.7108972, 39.771216 ], [ 2.7112988, 39.7708971 ], [ 2.7115073, 39.7706093 ], [ 2.7117305, 39.7703531 ], [ 2.7122022, 39.7704894 ], [ 2.7126027, 39.7706706 ], [ 2.7126473, 39.7706752 ], [ 2.7131512, 39.7707485 ], [ 2.7135744, 39.7707586 ], [ 2.713977, 39.7706425 ], [ 2.714483, 39.770495 ], [ 2.7149146, 39.7704015 ], [ 2.7150186, 39.7702215 ], [ 2.7149809, 39.7699827 ], [ 2.7149821, 39.7696989 ], [ 2.7150061, 39.7695503 ], [ 2.715122, 39.7693884 ], [ 2.7153907, 39.7692764 ], [ 2.7155679, 39.7690245 ], [ 2.7155533, 39.7688488 ], [ 2.7153783, 39.7685511 ], [ 2.715128, 39.7684558 ], [ 2.7149169, 39.7682706 ], [ 2.7148551, 39.7678515 ], [ 2.7148768, 39.7675227 ], [ 2.7147394, 39.7673151 ], [ 2.7143885, 39.7671295 ], [ 2.7141608, 39.7669488 ], [ 2.7142682, 39.7667508 ], [ 2.7145108, 39.7665847 ], [ 2.7146844, 39.766495 ], [ 2.7148156, 39.766171 ], [ 2.7155032, 39.7665781 ], [ 2.7157278, 39.7666958 ], [ 2.7161181, 39.7669986 ], [ 2.7166818, 39.7673469 ], [ 2.7169867, 39.7674648 ], [ 2.7177738, 39.7678181 ], [ 2.7180878, 39.767918 ], [ 2.7187375, 39.7679511 ], [ 2.7197286, 39.7678498 ], [ 2.7194572, 39.7683448 ], [ 2.7193768, 39.7684797 ], [ 2.7193056, 39.7685741 ], [ 2.7192798, 39.7687318 ], [ 2.7190163, 39.7687536 ], [ 2.7186997, 39.7690097 ], [ 2.7185229, 39.7690543 ], [ 2.7183134, 39.7689817 ], [ 2.7182292, 39.7690581 ], [ 2.7182623, 39.7691753 ], [ 2.7184042, 39.7692657 ], [ 2.7188678, 39.7694696 ], [ 2.7188795, 39.7696453 ], [ 2.7188617, 39.7698885 ], [ 2.7190354, 39.7700917 ], [ 2.719308, 39.7703401 ], [ 2.7197971, 39.7702782 ], [ 2.7199616, 39.77013 ], [ 2.7203287, 39.770203 ], [ 2.7205058, 39.7702709 ], [ 2.7205935, 39.7704288 ], [ 2.7205686, 39.7705189 ], [ 2.7204462, 39.7707573 ], [ 2.7202362, 39.7711578 ], [ 2.7201366, 39.7713468 ], [ 2.7200326, 39.7716168 ], [ 2.7199446, 39.7719004 ], [ 2.7199935, 39.7719952 ], [ 2.720063, 39.7720223 ], [ 2.7197759, 39.7721974 ], [ 2.719559, 39.7722419 ], [ 2.7194931, 39.7723003 ], [ 2.7198998, 39.7723373 ], [ 2.7202978, 39.772514 ], [ 2.7217389, 39.77304 ], [ 2.7233376, 39.7730889 ], [ 2.7240089, 39.7734869 ], [ 2.7242202, 39.7737577 ], [ 2.7249133, 39.7745432 ], [ 2.7253256, 39.7746389 ], [ 2.7268566, 39.7742956 ], [ 2.7279622, 39.7740369 ], [ 2.7287689, 39.7740703 ], [ 2.7295307, 39.7742703 ], [ 2.7299456, 39.7742578 ] ] ] } },
{ "type": "Feature", "properties": { "CCAA": "04 - Illes Balears", "PROVINCIA": "07 - Balears, Illes", "MUNICIPIO": "07061 - Sóller", "COD_MUNICIPIO": "07061", "DISTRITO": "02", "SECCION": "0706102003", "V1_H": 81.02, "V1_M": 86.64, "V2_H": 80.81080237, "V2_M": 86.47452022, "V3_H": 81.32513937, "V3_M": 86.89244175 }, "geometry": { "type": "Polygon", "coordinates": [ [ [ 2.7197286, 39.7678498 ], [ 2.7187375, 39.7679511 ], [ 2.7180878, 39.767918 ], [ 2.7177738, 39.7678181 ], [ 2.7169867, 39.7674648 ], [ 2.7173206, 39.7668259 ], [ 2.7174718, 39.7666055 ], [ 2.7176939, 39.7666511 ], [ 2.7180217, 39.7660527 ], [ 2.7182694, 39.7656253 ], [ 2.7188007, 39.7650635 ], [ 2.7192349, 39.7645149 ], [ 2.7195234, 39.7641732 ], [ 2.7201161, 39.7632196 ], [ 2.7204921, 39.7626258 ], [ 2.7206305, 39.7625946 ], [ 2.720986, 39.7621945 ], [ 2.7216467, 39.7623763 ], [ 2.7222179, 39.762238 ], [ 2.7223642, 39.7621348 ], [ 2.7225727, 39.7620857 ], [ 2.722756, 39.7619645 ], [ 2.7231273, 39.7620825 ], [ 2.7236435, 39.7619171 ], [ 2.7239753, 39.7618773 ], [ 2.7243251, 39.7616935 ], [ 2.7245761, 39.7613201 ], [ 2.7248041, 39.7610729 ], [ 2.7248752, 39.7606946 ], [ 2.7254547, 39.7598355 ], [ 2.7259739, 39.759188 ], [ 2.7262675, 39.7586571 ], [ 2.7262692, 39.7579453 ], [ 2.7271364, 39.7570779 ], [ 2.7279992, 39.7565168 ], [ 2.7286738, 39.7553831 ], [ 2.7287752, 39.7542706 ], [ 2.7294247, 39.7538666 ], [ 2.7299859, 39.7531471 ], [ 2.7309269, 39.7525456 ], [ 2.7313308, 39.7521276 ], [ 2.7317462, 39.7513086 ], [ 2.7316356, 39.7507632 ], [ 2.7317328, 39.7502589 ], [ 2.7316978, 39.7496912 ], [ 2.7317524, 39.7490471 ], [ 2.7315757, 39.7485151 ], [ 2.731646, 39.7475962 ], [ 2.7307052, 39.7463056 ], [ 2.7303964, 39.7460976 ], [ 2.7337234, 39.7445465 ], [ 2.7354748, 39.7443793 ], [ 2.7356841, 39.744578 ], [ 2.7367905, 39.7452113 ], [ 2.7379328, 39.7455923 ], [ 2.7385043, 39.7457197 ], [ 2.7387722, 39.7458735 ], [ 2.7393415, 39.7465866 ], [ 2.7395374, 39.7472357 ], [ 2.7397469, 39.7473894 ], [ 2.7401063, 39.7480389 ], [ 2.7406534, 39.7484366 ], [ 2.7413048, 39.7490417 ], [ 2.7418158, 39.7497457 ], [ 2.7418384, 39.7499529 ], [ 2.7424771, 39.7508283 ], [ 2.7426747, 39.751063 ], [ 2.7458783, 39.7530028 ], [ 2.7449049, 39.753334 ], [ 2.7448487, 39.7545322 ], [ 2.7446641, 39.7552256 ], [ 2.7438485, 39.7555257 ], [ 2.7431799, 39.7552944 ], [ 2.7424028, 39.7549233 ], [ 2.7417785, 39.7553409 ], [ 2.7411177, 39.7553935 ], [ 2.7406986, 39.755771 ], [ 2.7400633, 39.7561074 ], [ 2.7390422, 39.7567043 ], [ 2.7387256, 39.7566991 ], [ 2.7379734, 39.7571704 ], [ 2.7374163, 39.7570836 ], [ 2.7360779, 39.7576302 ], [ 2.7359497, 39.7578551 ], [ 2.7358757, 39.7582334 ], [ 2.7353643, 39.7587098 ], [ 2.7348, 39.7587805 ], [ 2.7343284, 39.7583695 ], [ 2.7339775, 39.7578866 ], [ 2.7339054, 39.7579406 ], [ 2.7337473, 39.7580618 ], [ 2.7325459, 39.758469 ], [ 2.7313029, 39.7588806 ], [ 2.7303391, 39.7591262 ], [ 2.7296677, 39.7591877 ], [ 2.7284103, 39.7595947 ], [ 2.7276714, 39.7603768 ], [ 2.7275628, 39.7612956 ], [ 2.7272465, 39.7614706 ], [ 2.726723, 39.7620235 ], [ 2.7264023, 39.7622795 ], [ 2.7257799, 39.7623006 ], [ 2.7256156, 39.7624263 ], [ 2.7253507, 39.7624257 ], [ 2.7250279, 39.7628574 ], [ 2.7249945, 39.7630015 ], [ 2.7242279, 39.7636845 ], [ 2.7233702, 39.7643041 ], [ 2.7230226, 39.7647357 ], [ 2.7233487, 39.7652096 ], [ 2.7224007, 39.766239 ], [ 2.7218055, 39.7660663 ], [ 2.7215305, 39.7664261 ], [ 2.7205028, 39.7673156 ], [ 2.7203673, 39.7675991 ], [ 2.7197286, 39.7678498 ] ] ] } },
{ "type": "Feature", "properties": { "CCAA": "04 - Illes Balears", "PROVINCIA": "07 - Balears, Illes", "MUNICIPIO": "07061 - Sóller", "COD_MUNICIPIO": "07061", "DISTRITO": "03", "SECCION": "0706103001", "V1_H": 81.18, "V1_M": 86.79, "V2_H": 80.97904731, "V2_M": 86.77314473, "V3_H": 81.44010912, "V3_M": 86.96351832000001 }, "geometry": { "type": "MultiPolygon", "coordinates": [ [ [ [ 2.7299051, 39.819727 ], [ 2.7297178, 39.8198167 ], [ 2.72946, 39.8200323 ], [ 2.7286945, 39.8215442 ], [ 2.728528, 39.8222826 ], [ 2.7285029, 39.822724 ], [ 2.7283385, 39.8231201 ], [ 2.7283374, 39.8231203 ], [ 2.728287, 39.823129 ], [ 2.728317, 39.823102 ], [ 2.7271499, 39.8220947 ], [ 2.7259343, 39.8204475 ], [ 2.7239097, 39.8177036 ], [ 2.7213542, 39.8142421 ], [ 2.7191269, 39.8112229 ], [ 2.7170592, 39.8070012 ], [ 2.7159681, 39.8039441 ], [ 2.7151994, 39.8017888 ], [ 2.7145325, 39.8001969 ], [ 2.7141518, 39.799313 ], [ 2.7140621, 39.7991055 ], [ 2.7132855, 39.7981891 ], [ 2.7133656, 39.7971081 ], [ 2.7140311, 39.7957627 ], [ 2.7126294, 39.7947186 ], [ 2.7054362, 39.7961016 ], [ 2.7034049, 39.7969524 ], [ 2.703604, 39.7939345 ], [ 2.7016551, 39.7894155 ], [ 2.7003185, 39.786245 ], [ 2.700409, 39.7853172 ], [ 2.7000379, 39.783352 ], [ 2.6978731, 39.7829319 ], [ 2.6974797, 39.7828543 ], [ 2.6961608, 39.7827653 ], [ 2.6932152, 39.7825548 ], [ 2.6883948, 39.7820644 ], [ 2.6861873, 39.7811665 ], [ 2.6838175, 39.7791779 ], [ 2.6822618, 39.7777545 ], [ 2.6814497, 39.777 ], [ 2.6806749, 39.7760788 ], [ 2.6791913, 39.7747953 ], [ 2.6782762, 39.7743873 ], [ 2.6772563, 39.7739159 ], [ 2.6769107, 39.7740096 ], [ 2.6768031, 39.7743742 ], [ 2.6762661, 39.774679 ], [ 2.6763138, 39.7746116 ], [ 2.6763377, 39.7740305 ], [ 2.6765553, 39.7737788 ], [ 2.6766199, 39.7725131 ], [ 2.6767555, 39.7723919 ], [ 2.6770723, 39.7723612 ], [ 2.677561, 39.7725022 ], [ 2.6781249, 39.7725398 ], [ 2.6785771, 39.7726042 ], [ 2.6787878, 39.7726452 ], [ 2.6790384, 39.772664 ], [ 2.6792934, 39.7726827 ], [ 2.6798323, 39.7726797 ], [ 2.6799903, 39.7727612 ], [ 2.6800887, 39.7730138 ], [ 2.6803473, 39.7731316 ], [ 2.6805339, 39.7730961 ], [ 2.6807401, 39.7730831 ], [ 2.680957, 39.7732954 ], [ 2.6812194, 39.7732827 ], [ 2.6817681, 39.7732346 ], [ 2.6819887, 39.7733388 ], [ 2.6826087, 39.7733991 ], [ 2.6832744, 39.7735361 ], [ 2.6833394, 39.7735993 ], [ 2.6834397, 39.7737708 ], [ 2.6835113, 39.7738205 ], [ 2.6838525, 39.7739836 ], [ 2.6847189, 39.7739454 ], [ 2.6850646, 39.7740004 ], [ 2.6852131, 39.774091 ], [ 2.6854748, 39.7743079 ], [ 2.6856247, 39.7743354 ], [ 2.6857658, 39.7742681 ], [ 2.6858181, 39.7740881 ], [ 2.6859538, 39.7740073 ], [ 2.6860745, 39.7741158 ], [ 2.6859863, 39.774494 ], [ 2.6859096, 39.7745884 ], [ 2.6855502, 39.7745153 ], [ 2.6853564, 39.7745103 ], [ 2.6850147, 39.7746355 ], [ 2.6843893, 39.7746248 ], [ 2.6840293, 39.7745788 ], [ 2.6838804, 39.7745063 ], [ 2.6836777, 39.7743886 ], [ 2.6835658, 39.7744334 ], [ 2.6835377, 39.7745234 ], [ 2.6837138, 39.7746455 ], [ 2.6840337, 39.774732 ], [ 2.6843109, 39.7748454 ], [ 2.6844353, 39.7749358 ], [ 2.6850179, 39.7749644 ], [ 2.685104, 39.7749646 ], [ 2.685258, 39.7749651 ], [ 2.6854735, 39.7749972 ], [ 2.6858047, 39.7751107 ], [ 2.6860889, 39.7752916 ], [ 2.6864055, 39.7754727 ], [ 2.686523, 39.775482 ], [ 2.6866585, 39.7754599 ], [ 2.6869319, 39.7753435 ], [ 2.6870021, 39.7751455 ], [ 2.6870027, 39.7750148 ], [ 2.6870249, 39.7748617 ], [ 2.6872215, 39.7744928 ], [ 2.6874693, 39.7739979 ], [ 2.6875892, 39.7738721 ], [ 2.6878002, 39.7738412 ], [ 2.6879308, 39.7738595 ], [ 2.6881339, 39.7742926 ], [ 2.6882306, 39.7743739 ], [ 2.68839, 39.7743743 ], [ 2.6884972, 39.7744016 ], [ 2.6889584, 39.7743263 ], [ 2.6890996, 39.7743267 ], [ 2.6898941, 39.7746171 ], [ 2.6901563, 39.7748296 ], [ 2.6903009, 39.7749651 ], [ 2.690391, 39.7754564 ], [ 2.6904734, 39.7755693 ], [ 2.6907668, 39.7756421 ], [ 2.6913189, 39.7757156 ], [ 2.6916128, 39.7756083 ], [ 2.6917523, 39.775496 ], [ 2.6920323, 39.775231 ], [ 2.6920861, 39.7751771 ], [ 2.6923194, 39.7749029 ], [ 2.6923134, 39.7744614 ], [ 2.6922633, 39.7743126 ], [ 2.6922216, 39.7740962 ], [ 2.6922594, 39.7740423 ], [ 2.6924546, 39.7740428 ], [ 2.6925757, 39.7740566 ], [ 2.6927107, 39.774066 ], [ 2.6928632, 39.7739988 ], [ 2.6929088, 39.7738097 ], [ 2.6930961, 39.7737021 ], [ 2.6931826, 39.7737068 ], [ 2.6933582, 39.7739325 ], [ 2.6935454, 39.7740952 ], [ 2.6936315, 39.7741721 ], [ 2.6938349, 39.7743978 ], [ 2.6940832, 39.7745336 ], [ 2.6944146, 39.7746651 ], [ 2.6945837, 39.7747962 ], [ 2.6948107, 39.7751257 ], [ 2.6953031, 39.7753387 ], [ 2.6955048, 39.7753663 ], [ 2.6957093, 39.7753263 ], [ 2.6958341, 39.775223 ], [ 2.6959953, 39.7747639 ], [ 2.6960858, 39.7746605 ], [ 2.6962936, 39.774634 ], [ 2.6964671, 39.7746705 ], [ 2.6966376, 39.7747521 ], [ 2.6967029, 39.7747477 ], [ 2.6969637, 39.7746944 ], [ 2.6971664, 39.7746543 ], [ 2.6972944, 39.7746592 ], [ 2.6974255, 39.7747091 ], [ 2.6976333, 39.7746916 ], [ 2.6977857, 39.7746199 ], [ 2.6979279, 39.7744851 ], [ 2.6980722, 39.774436 ], [ 2.698211, 39.7744183 ], [ 2.6983704, 39.7744367 ], [ 2.6984782, 39.774392 ], [ 2.6985943, 39.7742841 ], [ 2.6987404, 39.7742665 ], [ 2.698776, 39.7743837 ], [ 2.6986441, 39.774505 ], [ 2.6983065, 39.7746122 ], [ 2.6981566, 39.7746659 ], [ 2.6979014, 39.7747824 ], [ 2.6974855, 39.7749435 ], [ 2.6971087, 39.7749965 ], [ 2.6970641, 39.7750911 ], [ 2.6971711, 39.7751544 ], [ 2.6976394, 39.7751061 ], [ 2.6981526, 39.7749182 ], [ 2.69839, 39.7748602 ], [ 2.6986608, 39.7748655 ], [ 2.6990094, 39.7748258 ], [ 2.6993393, 39.7745834 ], [ 2.699534, 39.7743722 ], [ 2.6995867, 39.7741516 ], [ 2.699828, 39.773954 ], [ 2.7001363, 39.7737926 ], [ 2.7003134, 39.7735903 ], [ 2.7004226, 39.7735095 ], [ 2.7006995, 39.7734336 ], [ 2.7011731, 39.7731781 ], [ 2.7013646, 39.7729533 ], [ 2.7014728, 39.7728094 ], [ 2.7018556, 39.7722878 ], [ 2.7019481, 39.7721574 ], [ 2.7025717, 39.7719157 ], [ 2.7028459, 39.7717768 ], [ 2.7028789, 39.7717589 ], [ 2.7034128, 39.771562 ], [ 2.7037183, 39.7714501 ], [ 2.703787, 39.7714233 ], [ 2.703969, 39.7713426 ], [ 2.7042867, 39.7712038 ], [ 2.7044863, 39.7711323 ], [ 2.7046354, 39.7710786 ], [ 2.7052026, 39.7708502 ], [ 2.7055731, 39.7707386 ], [ 2.7057875, 39.7708562 ], [ 2.7060365, 39.7710866 ], [ 2.706197, 39.7712627 ], [ 2.7064224, 39.771457 ], [ 2.7071721, 39.7721031 ], [ 2.7078694, 39.7727118 ], [ 2.7082384, 39.7730338 ], [ 2.7083523, 39.7730927 ], [ 2.7083784, 39.7732234 ], [ 2.7083488, 39.7733225 ], [ 2.7082611, 39.7734349 ], [ 2.7085264, 39.7736743 ], [ 2.7085664, 39.7737239 ], [ 2.7088989, 39.7741347 ], [ 2.709002, 39.7742656 ], [ 2.7094742, 39.7747849 ], [ 2.7095769, 39.7748392 ], [ 2.7098854, 39.7747094 ], [ 2.7100152, 39.7746421 ], [ 2.7108295, 39.7747568 ], [ 2.7110486, 39.7748159 ], [ 2.7111398, 39.7749062 ], [ 2.711286, 39.7748435 ], [ 2.7116563, 39.7747813 ], [ 2.7117629, 39.7747636 ], [ 2.7123791, 39.7746075 ], [ 2.7126937, 39.7745226 ], [ 2.7130938, 39.7743795 ], [ 2.7132138, 39.7743212 ], [ 2.7133404, 39.7742314 ], [ 2.7138166, 39.7738857 ], [ 2.7141197, 39.7736296 ], [ 2.7143529, 39.77345 ], [ 2.7150955, 39.7732627 ], [ 2.715537, 39.773106 ], [ 2.7158911, 39.7729583 ], [ 2.7160256, 39.772918 ], [ 2.7160411, 39.7730577 ], [ 2.7161109, 39.7732877 ], [ 2.7161026, 39.7734408 ], [ 2.7159255, 39.7738233 ], [ 2.7158394, 39.7739177 ], [ 2.7160422, 39.7740354 ], [ 2.7162228, 39.7741259 ], [ 2.7166291, 39.7743431 ], [ 2.7168563, 39.7745464 ], [ 2.7170336, 39.7748261 ], [ 2.7173347, 39.7751647 ], [ 2.7174005, 39.7752325 ], [ 2.7174741, 39.7753633 ], [ 2.7175404, 39.7756518 ], [ 2.7174694, 39.7765166 ], [ 2.7173325, 39.7767775 ], [ 2.7174245, 39.776949 ], [ 2.717433, 39.7771021 ], [ 2.7176183, 39.7772873 ], [ 2.7178377, 39.7775356 ], [ 2.7179781, 39.7778423 ], [ 2.7179028, 39.7781485 ], [ 2.7180066, 39.778365 ], [ 2.7184441, 39.7784787 ], [ 2.7186289, 39.7786999 ], [ 2.718675, 39.7799163 ], [ 2.7191114, 39.7809986 ], [ 2.7191746, 39.781188 ], [ 2.7193508, 39.781738 ], [ 2.719387, 39.7818057 ], [ 2.7194402, 39.7819139 ], [ 2.7196747, 39.782392 ], [ 2.7202191, 39.7835016 ], [ 2.7214385, 39.7835811 ], [ 2.7234392, 39.784559 ], [ 2.723432, 39.7847076 ], [ 2.7238037, 39.7852221 ], [ 2.7238714, 39.7858079 ], [ 2.7238229, 39.7862493 ], [ 2.7236452, 39.7868886 ], [ 2.7234449, 39.7873386 ], [ 2.7234441, 39.7875278 ], [ 2.723712, 39.7876997 ], [ 2.7239447, 39.7879345 ], [ 2.7241045, 39.7888539 ], [ 2.724197, 39.7890883 ], [ 2.7244413, 39.7893322 ], [ 2.7254789, 39.7897942 ], [ 2.7255247, 39.7900286 ], [ 2.7250556, 39.790496 ], [ 2.7249259, 39.79082 ], [ 2.7250534, 39.7910636 ], [ 2.7252163, 39.7912171 ], [ 2.7260784, 39.7917688 ], [ 2.7265779, 39.7924548 ], [ 2.7269015, 39.7933295 ], [ 2.7267829, 39.7937707 ], [ 2.7265834, 39.7940135 ], [ 2.726056, 39.7944808 ], [ 2.7259968, 39.7946789 ], [ 2.7260412, 39.7952556 ], [ 2.7262958, 39.7958599 ], [ 2.7276635, 39.7955658 ], [ 2.7282015, 39.7954049 ], [ 2.7294539, 39.794732 ], [ 2.7297577, 39.7947057 ], [ 2.7303979, 39.7952658 ], [ 2.7307477, 39.7954288 ], [ 2.7319731, 39.795693 ], [ 2.7322997, 39.7958108 ], [ 2.7324275, 39.7959914 ], [ 2.7324495, 39.7963428 ], [ 2.732328, 39.7975409 ], [ 2.7324765, 39.7984061 ], [ 2.7326391, 39.7986498 ], [ 2.7338612, 39.7998059 ], [ 2.7344528, 39.8008615 ], [ 2.7345794, 39.8013573 ], [ 2.7346887, 39.8033307 ], [ 2.7385265, 39.804754 ], [ 2.7400156, 39.8064062 ], [ 2.7381862, 39.8082402 ], [ 2.7380794, 39.8086904 ], [ 2.7376911, 39.8094193 ], [ 2.737339, 39.809824 ], [ 2.7366437, 39.8114262 ], [ 2.7365595, 39.8120567 ], [ 2.7383906, 39.8128718 ], [ 2.7373307, 39.8150768 ], [ 2.7364962, 39.8163904 ], [ 2.7362735, 39.8165881 ], [ 2.7353725, 39.8169285 ], [ 2.7349972, 39.817297 ], [ 2.7339086, 39.8177991 ], [ 2.7308051, 39.819666 ], [ 2.7305129, 39.8197014 ], [ 2.7299051, 39.819727 ] ] ], [ [ [ 2.7107173, 39.8170723 ], [ 2.7107005, 39.8170812 ], [ 2.7106906, 39.8170947 ], [ 2.7106882, 39.8171262 ], [ 2.7107108, 39.8172299 ], [ 2.7107015, 39.8173515 ], [ 2.7106859, 39.8174101 ], [ 2.7106026, 39.8176171 ], [ 2.7104725, 39.8179817 ], [ 2.7103137, 39.8184228 ], [ 2.7102871, 39.8184813 ], [ 2.7102162, 39.8185937 ], [ 2.7101654, 39.8186747 ], [ 2.7100773, 39.8188772 ], [ 2.7099811, 39.8190121 ], [ 2.7099095, 39.8190975 ], [ 2.7098637, 39.8191334 ], [ 2.7098381, 39.8191379 ], [ 2.7097805, 39.8191242 ], [ 2.7096667, 39.8190924 ], [ 2.7096271, 39.8190608 ], [ 2.7096197, 39.8189977 ], [ 2.709625, 39.8187814 ], [ 2.709628, 39.8185787 ], [ 2.7096169, 39.8184526 ], [ 2.7095988, 39.8183939 ], [ 2.7095507, 39.8183037 ], [ 2.7095234, 39.8182721 ], [ 2.7094579, 39.8182224 ], [ 2.7093104, 39.8181229 ], [ 2.7092194, 39.8180686 ], [ 2.7091881, 39.8180325 ], [ 2.7091626, 39.8179424 ], [ 2.7091489, 39.8177982 ], [ 2.709137, 39.8177711 ], [ 2.7091022, 39.817717 ], [ 2.7090881, 39.8176764 ], [ 2.7090901, 39.8173835 ], [ 2.7090802, 39.8171222 ], [ 2.7090704, 39.8170997 ], [ 2.7090298, 39.817059 ], [ 2.7090029, 39.8170274 ], [ 2.7089541, 39.8169057 ], [ 2.7089511, 39.8167525 ], [ 2.7089699, 39.8166264 ], [ 2.7090118, 39.8165544 ], [ 2.7090521, 39.8165095 ], [ 2.7091544, 39.8164332 ], [ 2.7093515, 39.8163345 ], [ 2.7095319, 39.8162449 ], [ 2.7096526, 39.8162001 ], [ 2.7098106, 39.8161285 ], [ 2.7099976, 39.8160478 ], [ 2.7101454, 39.8159671 ], [ 2.710368, 39.8158415 ], [ 2.7104567, 39.8158237 ], [ 2.7105231, 39.8158284 ], [ 2.7105701, 39.8158601 ], [ 2.7106057, 39.8159187 ], [ 2.7106677, 39.816027 ], [ 2.7107562, 39.816248 ], [ 2.7107743, 39.8163742 ], [ 2.71074, 39.8164371 ], [ 2.710711, 39.8165587 ], [ 2.7107157, 39.8166578 ], [ 2.7107272, 39.8167119 ], [ 2.7107594, 39.8167841 ], [ 2.7108208, 39.8168653 ], [ 2.7108736, 39.8169645 ], [ 2.7108789, 39.8170321 ], [ 2.7108674, 39.8170636 ], [ 2.7108314, 39.8171086 ], [ 2.7108157, 39.8171131 ], [ 2.7107812, 39.817086 ], [ 2.7107538, 39.8170724 ], [ 2.7107173, 39.8170723 ] ] ] ] } },
{ "type": "Feature", "properties": { "CCAA": "04 - Illes Balears", "PROVINCIA": "07 - Balears, Illes", "MUNICIPIO": "07061 - Sóller", "COD_MUNICIPIO": "07061", "DISTRITO": "01", "SECCION": "0706101001", "V1_H": 81.0, "V1_M": 86.46, "V2_H": 80.73228769000001, "V2_M": 86.26471443, "V3_H": 81.28044537, "V3_M": 86.73149122 }, "geometry": { "type": "Polygon", "coordinates": [ [ [ 2.6832744, 39.7735361 ], [ 2.6826087, 39.7733991 ], [ 2.6819887, 39.7733388 ], [ 2.6817681, 39.7732346 ], [ 2.6812194, 39.7732827 ], [ 2.680957, 39.7732954 ], [ 2.6807401, 39.7730831 ], [ 2.6805339, 39.7730961 ], [ 2.6803473, 39.7731316 ], [ 2.6800887, 39.7730138 ], [ 2.6799903, 39.7727612 ], [ 2.6798323, 39.7726797 ], [ 2.6792934, 39.7726827 ], [ 2.6790384, 39.772664 ], [ 2.6787878, 39.7726452 ], [ 2.6785771, 39.7726042 ], [ 2.6781249, 39.7725398 ], [ 2.677561, 39.7725022 ], [ 2.6770723, 39.7723612 ], [ 2.6767555, 39.7723919 ], [ 2.6766199, 39.7725131 ], [ 2.6765553, 39.7737788 ], [ 2.6763377, 39.7740305 ], [ 2.6763138, 39.7746116 ], [ 2.6762661, 39.774679 ], [ 2.6761289, 39.7745976 ], [ 2.676038, 39.7742009 ], [ 2.6758348, 39.7741327 ], [ 2.6750722, 39.7742747 ], [ 2.6746379, 39.7742961 ], [ 2.6743628, 39.774444 ], [ 2.6738941, 39.7744652 ], [ 2.6734258, 39.7744188 ], [ 2.6731686, 39.7743415 ], [ 2.6729521, 39.7741292 ], [ 2.6719147, 39.773901 ], [ 2.671616, 39.773729 ], [ 2.6711078, 39.7736915 ], [ 2.6708404, 39.7735285 ], [ 2.6706137, 39.7734738 ], [ 2.6703408, 39.773464 ], [ 2.6698665, 39.7733095 ], [ 2.6696913, 39.7730838 ], [ 2.6696343, 39.7728718 ], [ 2.6688851, 39.7722751 ], [ 2.6682898, 39.7715526 ], [ 2.6682745, 39.7711786 ], [ 2.6679988, 39.770903 ], [ 2.6678714, 39.7706954 ], [ 2.6679569, 39.7704434 ], [ 2.6679529, 39.7702947 ], [ 2.6675222, 39.7701763 ], [ 2.6672187, 39.7702295 ], [ 2.6668954, 39.7705304 ], [ 2.6666653, 39.7708046 ], [ 2.666427, 39.7709706 ], [ 2.6659169, 39.7710457 ], [ 2.6644603, 39.7709739 ], [ 2.6643643, 39.7707439 ], [ 2.6641887, 39.7706127 ], [ 2.6640496, 39.770342 ], [ 2.6638476, 39.7702243 ], [ 2.6637756, 39.7701205 ], [ 2.6637453, 39.7700043 ], [ 2.6637451, 39.7700033 ], [ 2.6662594, 39.7667624 ], [ 2.6678693, 39.7645866 ], [ 2.6720062, 39.7612917 ], [ 2.673041, 39.7596998 ], [ 2.674028, 39.7583691 ], [ 2.6745846, 39.7566767 ], [ 2.6755845, 39.7525619 ], [ 2.6768299, 39.7508264 ], [ 2.6776516, 39.7498286 ], [ 2.6761649, 39.7482567 ], [ 2.6740888, 39.7454487 ], [ 2.6721501, 39.7432268 ], [ 2.669818, 39.7403279 ], [ 2.6684982, 39.7380897 ], [ 2.6796537, 39.7384273 ], [ 2.6831122, 39.7375448 ], [ 2.6861614, 39.7368323 ], [ 2.6886381, 39.7362623 ], [ 2.6912591, 39.7347105 ], [ 2.6932014, 39.7335714 ], [ 2.6938407, 39.7341407 ], [ 2.6949813, 39.7348194 ], [ 2.6955734, 39.7355418 ], [ 2.6958175, 39.7357587 ], [ 2.6968182, 39.736419 ], [ 2.6973531, 39.7368619 ], [ 2.6982475, 39.7378374 ], [ 2.6986424, 39.7382619 ], [ 2.6989087, 39.7387491 ], [ 2.6990342, 39.7394162 ], [ 2.6993231, 39.7400747 ], [ 2.6996595, 39.7405621 ], [ 2.7010762, 39.7422056 ], [ 2.7024707, 39.7436237 ], [ 2.703065, 39.7438235 ], [ 2.7036934, 39.7442846 ], [ 2.7039954, 39.7446278 ], [ 2.7044609, 39.7449263 ], [ 2.7052966, 39.7460186 ], [ 2.7055051, 39.7464066 ], [ 2.7058269, 39.7475967 ], [ 2.7062911, 39.7482196 ], [ 2.7090465, 39.7508305 ], [ 2.7093021, 39.7511194 ], [ 2.7106572, 39.7508435 ], [ 2.7121883, 39.7503743 ], [ 2.7120812, 39.7507029 ], [ 2.7118973, 39.7509773 ], [ 2.7117404, 39.751585 ], [ 2.7116043, 39.7517739 ], [ 2.7115422, 39.7521432 ], [ 2.7113108, 39.7527147 ], [ 2.7112456, 39.7534759 ], [ 2.7111423, 39.7538586 ], [ 2.7109577, 39.7540068 ], [ 2.7109713, 39.7541781 ], [ 2.7110379, 39.754462 ], [ 2.7110467, 39.7550792 ], [ 2.710957, 39.7552367 ], [ 2.7101264, 39.7560095 ], [ 2.7098961, 39.7563063 ], [ 2.7101837, 39.7564331 ], [ 2.7106868, 39.7564344 ], [ 2.7110058, 39.7566559 ], [ 2.7115201, 39.7572924 ], [ 2.711533, 39.7579457 ], [ 2.7115643, 39.7582206 ], [ 2.7117152, 39.7584507 ], [ 2.7122065, 39.758988 ], [ 2.7123119, 39.760056 ], [ 2.7124917, 39.7608628 ], [ 2.7123375, 39.7612679 ], [ 2.7123725, 39.7615428 ], [ 2.7127358, 39.7618275 ], [ 2.7130961, 39.7621122 ], [ 2.7140878, 39.7629751 ], [ 2.7141878, 39.7632367 ], [ 2.7140466, 39.7635021 ], [ 2.713898, 39.7638892 ], [ 2.7140264, 39.764331 ], [ 2.7143886, 39.7646202 ], [ 2.71488, 39.764725 ], [ 2.7149355, 39.764973 ], [ 2.7148056, 39.7655043 ], [ 2.7148156, 39.766171 ], [ 2.7146844, 39.766495 ], [ 2.714289, 39.7663949 ], [ 2.7139568, 39.7662545 ], [ 2.7138421, 39.7661911 ], [ 2.7134537, 39.7659784 ], [ 2.713029, 39.7659864 ], [ 2.7130035, 39.7659743 ], [ 2.7126579, 39.7658098 ], [ 2.7125448, 39.7657374 ], [ 2.712329, 39.7655972 ], [ 2.7124019, 39.7655253 ], [ 2.712082, 39.7653218 ], [ 2.7119402, 39.7653845 ], [ 2.7112741, 39.7652837 ], [ 2.710999, 39.7653687 ], [ 2.7106165, 39.7654038 ], [ 2.7105939, 39.7653992 ], [ 2.7100072, 39.7652986 ], [ 2.7096159, 39.7655229 ], [ 2.708427, 39.7656731 ], [ 2.7082158, 39.7657356 ], [ 2.7076234, 39.7658062 ], [ 2.7074541, 39.7658013 ], [ 2.7070492, 39.7657958 ], [ 2.7066992, 39.7661508 ], [ 2.7065088, 39.7662269 ], [ 2.7061, 39.7666944 ], [ 2.7057345, 39.7669187 ], [ 2.7053545, 39.7670619 ], [ 2.7051525, 39.7671199 ], [ 2.7045539, 39.7673527 ], [ 2.704211, 39.767505 ], [ 2.7033156, 39.7676739 ], [ 2.7031557, 39.7676915 ], [ 2.7027447, 39.7678166 ], [ 2.7023564, 39.7678336 ], [ 2.7020268, 39.7678643 ], [ 2.7010128, 39.7679743 ], [ 2.7006956, 39.7680681 ], [ 2.7001021, 39.7680396 ], [ 2.6996634, 39.7682502 ], [ 2.6990259, 39.7685188 ], [ 2.6988958, 39.7686491 ], [ 2.6987836, 39.7685407 ], [ 2.6984249, 39.768702 ], [ 2.6982762, 39.7689223 ], [ 2.6980968, 39.7689083 ], [ 2.6976529, 39.7691054 ], [ 2.6974163, 39.7694697 ], [ 2.697429, 39.7696634 ], [ 2.6977273, 39.7699616 ], [ 2.6977458, 39.7701418 ], [ 2.6973129, 39.7702713 ], [ 2.6971726, 39.7702304 ], [ 2.6969667, 39.7703335 ], [ 2.6967642, 39.7703375 ], [ 2.6964927, 39.7704314 ], [ 2.6961559, 39.7705071 ], [ 2.6953477, 39.7709239 ], [ 2.6950885, 39.7710539 ], [ 2.6949616, 39.7711076 ], [ 2.6947415, 39.7711971 ], [ 2.6935985, 39.7716672 ], [ 2.6934557, 39.7716082 ], [ 2.6934345, 39.771527 ], [ 2.6929827, 39.7713907 ], [ 2.6923953, 39.7710423 ], [ 2.6916764, 39.7709187 ], [ 2.6916165, 39.770842 ], [ 2.6910888, 39.7706198 ], [ 2.6910374, 39.7705206 ], [ 2.6908392, 39.7704435 ], [ 2.6906421, 39.770461 ], [ 2.6905766, 39.7705104 ], [ 2.6907115, 39.7709387 ], [ 2.6901461, 39.7709011 ], [ 2.6900571, 39.7709144 ], [ 2.6899737, 39.7709457 ], [ 2.6898743, 39.7710581 ], [ 2.6898274, 39.7711976 ], [ 2.6896808, 39.7714045 ], [ 2.6894766, 39.7716337 ], [ 2.6892828, 39.7717188 ], [ 2.6889575, 39.7717629 ], [ 2.6888041, 39.7717941 ], [ 2.6884604, 39.7718787 ], [ 2.6875547, 39.7718853 ], [ 2.6874759, 39.771795 ], [ 2.6874211, 39.7718129 ], [ 2.6872538, 39.7717043 ], [ 2.6872268, 39.7716141 ], [ 2.6868229, 39.7714554 ], [ 2.686592, 39.7714502 ], [ 2.6862775, 39.7715215 ], [ 2.6859659, 39.7715161 ], [ 2.6854102, 39.7716768 ], [ 2.6851732, 39.7716987 ], [ 2.6848726, 39.7721754 ], [ 2.6846921, 39.7724046 ], [ 2.6846261, 39.7725441 ], [ 2.6847022, 39.7728237 ], [ 2.6848262, 39.7728961 ], [ 2.6847789, 39.7729635 ], [ 2.6846049, 39.7728685 ], [ 2.6845827, 39.772927 ], [ 2.6848558, 39.7730719 ], [ 2.6852232, 39.7731494 ], [ 2.6852714, 39.7732306 ], [ 2.6843553, 39.7731966 ], [ 2.6842718, 39.7730162 ], [ 2.6841897, 39.7730115 ], [ 2.6841999, 39.7733359 ], [ 2.6841284, 39.7733492 ], [ 2.684087, 39.773304 ], [ 2.6840931, 39.7732364 ], [ 2.6839835, 39.7731866 ], [ 2.6837341, 39.7736229 ], [ 2.6836925, 39.7737174 ], [ 2.6835733, 39.773681 ], [ 2.683455, 39.7735411 ], [ 2.6832744, 39.7735361 ] ] ] } },
{ "type": "Feature", "properties": { "CCAA": "04 - Illes Balears", "PROVINCIA": "07 - Balears, Illes", "MUNICIPIO": "07061 - Sóller", "COD_MUNICIPIO": "07061", "DISTRITO": "01", "SECCION": "0706101003", "V1_H": 80.65, "V1_M": 86.4, "V2_H": 80.41087182, "V2_M": 86.2775211, "V3_H": 80.94660094, "V3_M": 86.57847437 }, "geometry": { "type": "Polygon", "coordinates": [ [ [ 2.7146844, 39.766495 ], [ 2.7145108, 39.7665847 ], [ 2.7142682, 39.7667508 ], [ 2.7141608, 39.7669488 ], [ 2.7143885, 39.7671295 ], [ 2.7147394, 39.7673151 ], [ 2.7148768, 39.7675227 ], [ 2.7148551, 39.7678515 ], [ 2.7149169, 39.7682706 ], [ 2.715128, 39.7684558 ], [ 2.7153783, 39.7685511 ], [ 2.7155533, 39.7688488 ], [ 2.7155679, 39.7690245 ], [ 2.7153907, 39.7692764 ], [ 2.715122, 39.7693884 ], [ 2.7150061, 39.7695503 ], [ 2.7149821, 39.7696989 ], [ 2.7149809, 39.7699827 ], [ 2.7150186, 39.7702215 ], [ 2.7149146, 39.7704015 ], [ 2.714483, 39.770495 ], [ 2.713977, 39.7706425 ], [ 2.7135744, 39.7707586 ], [ 2.7131512, 39.7707485 ], [ 2.7126473, 39.7706752 ], [ 2.7126027, 39.7706706 ], [ 2.7122022, 39.7704894 ], [ 2.7117305, 39.7703531 ], [ 2.7115073, 39.7706093 ], [ 2.7112988, 39.7708971 ], [ 2.7108972, 39.771216 ], [ 2.7104151, 39.7715031 ], [ 2.7095733, 39.7722038 ], [ 2.7091935, 39.7725452 ], [ 2.7088631, 39.7727516 ], [ 2.7082384, 39.7730338 ], [ 2.7078694, 39.7727118 ], [ 2.7079892, 39.7725327 ], [ 2.7082349, 39.7722732 ], [ 2.708602, 39.7719134 ], [ 2.7092154, 39.7712999 ], [ 2.7099431, 39.7705924 ], [ 2.7105005, 39.7700405 ], [ 2.7113135, 39.7692581 ], [ 2.7108715, 39.7689912 ], [ 2.7114322, 39.7682036 ], [ 2.7116872, 39.7678729 ], [ 2.712502, 39.7667428 ], [ 2.7129409, 39.7661437 ], [ 2.7129929, 39.7660351 ], [ 2.7130035, 39.7659743 ], [ 2.713029, 39.7659864 ], [ 2.7134537, 39.7659784 ], [ 2.7138421, 39.7661911 ], [ 2.7139568, 39.7662545 ], [ 2.714289, 39.7663949 ], [ 2.7146844, 39.766495 ] ] ] } },
{ "type": "Feature", "properties": { "CCAA": "04 - Illes Balears", "PROVINCIA": "07 - Balears, Illes", "MUNICIPIO": "07061 - Sóller", "COD_MUNICIPIO": "07061", "DISTRITO": "01", "SECCION": "0706101002", "V1_H": 80.91, "V1_M": 86.64, "V2_H": 80.44720226, "V2_M": 86.54313262, "V3_H": 81.45534141, "V3_M": 86.89844934 }, "geometry": { "type": "Polygon", "coordinates": [ [ [ 2.7078694, 39.7727118 ], [ 2.7071721, 39.7721031 ], [ 2.7064224, 39.771457 ], [ 2.706197, 39.7712627 ], [ 2.7060365, 39.7710866 ], [ 2.7057875, 39.7708562 ], [ 2.7055731, 39.7707386 ], [ 2.7052026, 39.7708502 ], [ 2.7046354, 39.7710786 ], [ 2.7044863, 39.7711323 ], [ 2.7042867, 39.7712038 ], [ 2.703969, 39.7713426 ], [ 2.703787, 39.7714233 ], [ 2.7037183, 39.7714501 ], [ 2.7034128, 39.771562 ], [ 2.7028789, 39.7717589 ], [ 2.7028459, 39.7717768 ], [ 2.7025717, 39.7719157 ], [ 2.7019481, 39.7721574 ], [ 2.7018556, 39.7722878 ], [ 2.7014728, 39.7728094 ], [ 2.7013646, 39.7729533 ], [ 2.7011731, 39.7731781 ], [ 2.7006995, 39.7734336 ], [ 2.7004226, 39.7735095 ], [ 2.7003134, 39.7735903 ], [ 2.7001363, 39.7737926 ], [ 2.699828, 39.773954 ], [ 2.6995867, 39.7741516 ], [ 2.699534, 39.7743722 ], [ 2.6993393, 39.7745834 ], [ 2.6990094, 39.7748258 ], [ 2.6986608, 39.7748655 ], [ 2.69839, 39.7748602 ], [ 2.6981526, 39.7749182 ], [ 2.6976394, 39.7751061 ], [ 2.6971711, 39.7751544 ], [ 2.6970641, 39.7750911 ], [ 2.6971087, 39.7749965 ], [ 2.6974855, 39.7749435 ], [ 2.6979014, 39.7747824 ], [ 2.6981566, 39.7746659 ], [ 2.6983065, 39.7746122 ], [ 2.6986441, 39.774505 ], [ 2.698776, 39.7743837 ], [ 2.6987404, 39.7742665 ], [ 2.6985943, 39.7742841 ], [ 2.6984782, 39.774392 ], [ 2.6983704, 39.7744367 ], [ 2.698211, 39.7744183 ], [ 2.6980722, 39.774436 ], [ 2.6979279, 39.7744851 ], [ 2.6977857, 39.7746199 ], [ 2.6976333, 39.7746916 ], [ 2.6974255, 39.7747091 ], [ 2.6972944, 39.7746592 ], [ 2.6971664, 39.7746543 ], [ 2.6969637, 39.7746944 ], [ 2.6967029, 39.7747477 ], [ 2.6966376, 39.7747521 ], [ 2.6964671, 39.7746705 ], [ 2.6962936, 39.774634 ], [ 2.6960858, 39.7746605 ], [ 2.6959953, 39.7747639 ], [ 2.6958341, 39.775223 ], [ 2.6957093, 39.7753263 ], [ 2.6955048, 39.7753663 ], [ 2.6953031, 39.7753387 ], [ 2.6948107, 39.7751257 ], [ 2.6945837, 39.7747962 ], [ 2.6944146, 39.7746651 ], [ 2.6940832, 39.7745336 ], [ 2.6938349, 39.7743978 ], [ 2.6936315, 39.7741721 ], [ 2.6935454, 39.7740952 ], [ 2.6933582, 39.7739325 ], [ 2.6931826, 39.7737068 ], [ 2.6930961, 39.7737021 ], [ 2.6929088, 39.7738097 ], [ 2.6928632, 39.7739988 ], [ 2.6927107, 39.774066 ], [ 2.6925757, 39.7740566 ], [ 2.6924546, 39.7740428 ], [ 2.6922594, 39.7740423 ], [ 2.6922216, 39.7740962 ], [ 2.6922633, 39.7743126 ], [ 2.6923134, 39.7744614 ], [ 2.6923194, 39.7749029 ], [ 2.6920861, 39.7751771 ], [ 2.6920323, 39.775231 ], [ 2.6917523, 39.775496 ], [ 2.6916128, 39.7756083 ], [ 2.6913189, 39.7757156 ], [ 2.6907668, 39.7756421 ], [ 2.6904734, 39.7755693 ], [ 2.690391, 39.7754564 ], [ 2.6903009, 39.7749651 ], [ 2.6901563, 39.7748296 ], [ 2.6898941, 39.7746171 ], [ 2.6890996, 39.7743267 ], [ 2.6889584, 39.7743263 ], [ 2.6884972, 39.7744016 ], [ 2.68839, 39.7743743 ], [ 2.6882306, 39.7743739 ], [ 2.6881339, 39.7742926 ], [ 2.6879308, 39.7738595 ], [ 2.6878002, 39.7738412 ], [ 2.6875892, 39.7738721 ], [ 2.6874693, 39.7739979 ], [ 2.6872215, 39.7744928 ], [ 2.6870249, 39.7748617 ], [ 2.6870027, 39.7750148 ], [ 2.6870021, 39.7751455 ], [ 2.6869319, 39.7753435 ], [ 2.6866585, 39.7754599 ], [ 2.686523, 39.775482 ], [ 2.6864055, 39.7754727 ], [ 2.6860889, 39.7752916 ], [ 2.6858047, 39.7751107 ], [ 2.6854735, 39.7749972 ], [ 2.685258, 39.7749651 ], [ 2.685104, 39.7749646 ], [ 2.6850179, 39.7749644 ], [ 2.6844353, 39.7749358 ], [ 2.6843109, 39.7748454 ], [ 2.6840337, 39.774732 ], [ 2.6837138, 39.7746455 ], [ 2.6835377, 39.7745234 ], [ 2.6835658, 39.7744334 ], [ 2.6836777, 39.7743886 ], [ 2.6838804, 39.7745063 ], [ 2.6840293, 39.7745788 ], [ 2.6843893, 39.7746248 ], [ 2.6850147, 39.7746355 ], [ 2.6853564, 39.7745103 ], [ 2.6855502, 39.7745153 ], [ 2.6859096, 39.7745884 ], [ 2.6859863, 39.774494 ], [ 2.6860745, 39.7741158 ], [ 2.6859538, 39.7740073 ], [ 2.6858181, 39.7740881 ], [ 2.6857658, 39.7742681 ], [ 2.6856247, 39.7743354 ], [ 2.6854748, 39.7743079 ], [ 2.6852131, 39.774091 ], [ 2.6850646, 39.7740004 ], [ 2.6847189, 39.7739454 ], [ 2.6838525, 39.7739836 ], [ 2.6835113, 39.7738205 ], [ 2.6834397, 39.7737708 ], [ 2.6833394, 39.7735993 ], [ 2.6832744, 39.7735361 ], [ 2.683455, 39.7735411 ], [ 2.6835733, 39.773681 ], [ 2.6836925, 39.7737174 ], [ 2.6837341, 39.7736229 ], [ 2.6839835, 39.7731866 ], [ 2.6840931, 39.7732364 ], [ 2.684087, 39.773304 ], [ 2.6841284, 39.7733492 ], [ 2.6841999, 39.7733359 ], [ 2.6841897, 39.7730115 ], [ 2.6842718, 39.7730162 ], [ 2.6843553, 39.7731966 ], [ 2.6852714, 39.7732306 ], [ 2.6852232, 39.7731494 ], [ 2.6848558, 39.7730719 ], [ 2.6845827, 39.772927 ], [ 2.6846049, 39.7728685 ], [ 2.6847789, 39.7729635 ], [ 2.6848262, 39.7728961 ], [ 2.6847022, 39.7728237 ], [ 2.6846261, 39.7725441 ], [ 2.6846921, 39.7724046 ], [ 2.6848726, 39.7721754 ], [ 2.6851732, 39.7716987 ], [ 2.6854102, 39.7716768 ], [ 2.6859659, 39.7715161 ], [ 2.6862775, 39.7715215 ], [ 2.686592, 39.7714502 ], [ 2.6868229, 39.7714554 ], [ 2.6872268, 39.7716141 ], [ 2.6872538, 39.7717043 ], [ 2.6874211, 39.7718129 ], [ 2.6874759, 39.771795 ], [ 2.6875547, 39.7718853 ], [ 2.6884604, 39.7718787 ], [ 2.6888041, 39.7717941 ], [ 2.6889575, 39.7717629 ], [ 2.6892828, 39.7717188 ], [ 2.6894766, 39.7716337 ], [ 2.6896808, 39.7714045 ], [ 2.6898274, 39.7711976 ], [ 2.6898743, 39.7710581 ], [ 2.6899737, 39.7709457 ], [ 2.6900571, 39.7709144 ], [ 2.6901461, 39.7709011 ], [ 2.6907115, 39.7709387 ], [ 2.6905766, 39.7705104 ], [ 2.6906421, 39.770461 ], [ 2.6908392, 39.7704435 ], [ 2.6910374, 39.7705206 ], [ 2.6910888, 39.7706198 ], [ 2.6916165, 39.770842 ], [ 2.6916764, 39.7709187 ], [ 2.6923953, 39.7710423 ], [ 2.6929827, 39.7713907 ], [ 2.6934345, 39.771527 ], [ 2.6934557, 39.7716082 ], [ 2.6935985, 39.7716672 ], [ 2.6947415, 39.7711971 ], [ 2.6949616, 39.7711076 ], [ 2.6950885, 39.7710539 ], [ 2.6953477, 39.7709239 ], [ 2.6961559, 39.7705071 ], [ 2.6964927, 39.7704314 ], [ 2.6967642, 39.7703375 ], [ 2.6969667, 39.7703335 ], [ 2.6971726, 39.7702304 ], [ 2.6973129, 39.7702713 ], [ 2.6977458, 39.7701418 ], [ 2.6977273, 39.7699616 ], [ 2.697429, 39.7696634 ], [ 2.6974163, 39.7694697 ], [ 2.6976529, 39.7691054 ], [ 2.6980968, 39.7689083 ], [ 2.6982762, 39.7689223 ], [ 2.6984249, 39.768702 ], [ 2.6987836, 39.7685407 ], [ 2.6988958, 39.7686491 ], [ 2.6990259, 39.7685188 ], [ 2.6996634, 39.7682502 ], [ 2.7001021, 39.7680396 ], [ 2.7006956, 39.7680681 ], [ 2.7010128, 39.7679743 ], [ 2.7020268, 39.7678643 ], [ 2.7023564, 39.7678336 ], [ 2.7027447, 39.7678166 ], [ 2.7031557, 39.7676915 ], [ 2.7033156, 39.7676739 ], [ 2.704211, 39.767505 ], [ 2.7045539, 39.7673527 ], [ 2.7051525, 39.7671199 ], [ 2.7053545, 39.7670619 ], [ 2.7057345, 39.7669187 ], [ 2.7061, 39.7666944 ], [ 2.7065088, 39.7662269 ], [ 2.7066992, 39.7661508 ], [ 2.7070492, 39.7657958 ], [ 2.7074541, 39.7658013 ], [ 2.7076234, 39.7658062 ], [ 2.7082158, 39.7657356 ], [ 2.708427, 39.7656731 ], [ 2.7096159, 39.7655229 ], [ 2.7100072, 39.7652986 ], [ 2.7105939, 39.7653992 ], [ 2.7106165, 39.7654038 ], [ 2.710999, 39.7653687 ], [ 2.7112741, 39.7652837 ], [ 2.7119402, 39.7653845 ], [ 2.712082, 39.7653218 ], [ 2.7124019, 39.7655253 ], [ 2.712329, 39.7655972 ], [ 2.7125448, 39.7657374 ], [ 2.7126579, 39.7658098 ], [ 2.7130035, 39.7659743 ], [ 2.7129929, 39.7660351 ], [ 2.7129409, 39.7661437 ], [ 2.712502, 39.7667428 ], [ 2.7116872, 39.7678729 ], [ 2.7114322, 39.7682036 ], [ 2.7108715, 39.7689912 ], [ 2.7113135, 39.7692581 ], [ 2.7105005, 39.7700405 ], [ 2.7099431, 39.7705924 ], [ 2.7092154, 39.7712999 ], [ 2.708602, 39.7719134 ], [ 2.7082349, 39.7722732 ], [ 2.7079892, 39.7725327 ], [ 2.7078694, 39.7727118 ] ] ] } },
{ "type": "Feature", "properties": { "CCAA": "04 - Illes Balears", "PROVINCIA": "07 - Balears, Illes", "MUNICIPIO": "07061 - Sóller", "COD_MUNICIPIO": "07061", "DISTRITO": "03", "SECCION": "0706103002", "V1_H": 81.68, "V1_M": 87.08, "V2_H": 81.12537096, "V2_M": 86.91948792, "V3_H": 82.31095034000001, "V3_M": 87.32789848 }, "geometry": { "type": "Polygon", "coordinates": [ [ [ 2.728287, 39.823129 ], [ 2.7282577, 39.823156 ], [ 2.7281073, 39.8232277 ], [ 2.7279573, 39.8232949 ], [ 2.7278073, 39.8233666 ], [ 2.7276939, 39.8234204 ], [ 2.7272426, 39.8233112 ], [ 2.7265434, 39.8231339 ], [ 2.7263558, 39.8230839 ], [ 2.7262676, 39.8230476 ], [ 2.7261532, 39.8229753 ], [ 2.7260998, 39.8229166 ], [ 2.7259817, 39.8227677 ], [ 2.7259043, 39.8226819 ], [ 2.7258606, 39.8226367 ], [ 2.7257569, 39.8225464 ], [ 2.7256112, 39.8224604 ], [ 2.7255981, 39.8224514 ], [ 2.7254643, 39.822397 ], [ 2.7254136, 39.8223744 ], [ 2.7253823, 39.8223653 ], [ 2.7252767, 39.8223605 ], [ 2.7252307, 39.8223604 ], [ 2.7252063, 39.8223559 ], [ 2.7250665, 39.8223555 ], [ 2.7249829, 39.8223508 ], [ 2.7249219, 39.8223417 ], [ 2.7248406, 39.82231 ], [ 2.7246986, 39.8222195 ], [ 2.7246105, 39.8221382 ], [ 2.7245928, 39.8220886 ], [ 2.724589, 39.8218589 ], [ 2.7245883, 39.8218408 ], [ 2.7245782, 39.8218138 ], [ 2.7245739, 39.8218048 ], [ 2.7245539, 39.8217822 ], [ 2.7245207, 39.8217596 ], [ 2.7244139, 39.8217143 ], [ 2.7241888, 39.8216597 ], [ 2.7240728, 39.8216414 ], [ 2.7240151, 39.8216412 ], [ 2.7239409, 39.8216546 ], [ 2.7239077, 39.8216725 ], [ 2.7238061, 39.8217534 ], [ 2.7237266, 39.8218252 ], [ 2.7237065, 39.8218342 ], [ 2.723662, 39.8218251 ], [ 2.7235982, 39.8217214 ], [ 2.7235046, 39.8216581 ], [ 2.7233626, 39.8215451 ], [ 2.723315, 39.8214954 ], [ 2.7233056, 39.8214684 ], [ 2.7233335, 39.8214144 ], [ 2.7233739, 39.8213694 ], [ 2.7233743, 39.8213559 ], [ 2.7233489, 39.8213243 ], [ 2.7232811, 39.8212971 ], [ 2.7230201, 39.8212785 ], [ 2.7227218, 39.8212688 ], [ 2.7226605, 39.8212596 ], [ 2.7226441, 39.821246 ], [ 2.7226315, 39.8212145 ], [ 2.7226376, 39.8211379 ], [ 2.7226282, 39.8211064 ], [ 2.7225135, 39.8209439 ], [ 2.7224463, 39.8208671 ], [ 2.7223182, 39.8207677 ], [ 2.7222407, 39.8207631 ], [ 2.7221135, 39.8207943 ], [ 2.7220686, 39.8207942 ], [ 2.7219774, 39.8207714 ], [ 2.7218553, 39.8207306 ], [ 2.7217943, 39.8207169 ], [ 2.7217341, 39.8207213 ], [ 2.7217041, 39.8207302 ], [ 2.7216623, 39.8207662 ], [ 2.7216528, 39.8207887 ], [ 2.7216457, 39.8208247 ], [ 2.7216325, 39.8208382 ], [ 2.7215951, 39.8208606 ], [ 2.7215155, 39.8208784 ], [ 2.7214217, 39.8208647 ], [ 2.721375, 39.8208511 ], [ 2.7213044, 39.8207968 ], [ 2.7212801, 39.8207472 ], [ 2.7212788, 39.8207202 ], [ 2.7212949, 39.8206887 ], [ 2.7213572, 39.8206483 ], [ 2.7214372, 39.820626 ], [ 2.721445, 39.8205989 ], [ 2.7214142, 39.8205538 ], [ 2.7213901, 39.8205402 ], [ 2.7213244, 39.8205446 ], [ 2.7212719, 39.8205264 ], [ 2.7212137, 39.8204587 ], [ 2.7211634, 39.8204496 ], [ 2.7210582, 39.8204629 ], [ 2.7210293, 39.8204763 ], [ 2.7209912, 39.8204988 ], [ 2.7209729, 39.8204942 ], [ 2.7208097, 39.8204082 ], [ 2.7206986, 39.8203449 ], [ 2.7204946, 39.8202272 ], [ 2.7204815, 39.8202227 ], [ 2.7204086, 39.820191 ], [ 2.7201927, 39.8201184 ], [ 2.7196451, 39.8199008 ], [ 2.7196115, 39.8199052 ], [ 2.7195654, 39.8199277 ], [ 2.7195432, 39.8199276 ], [ 2.7194921, 39.8199005 ], [ 2.7194022, 39.8198417 ], [ 2.7193189, 39.8197649 ], [ 2.7192742, 39.8197963 ], [ 2.7191704, 39.8197285 ], [ 2.7191709, 39.8197105 ], [ 2.7191961, 39.8196925 ], [ 2.7192017, 39.819679 ], [ 2.7191812, 39.8195979 ], [ 2.7191482, 39.8195527 ], [ 2.7191197, 39.8195392 ], [ 2.7190599, 39.8195345 ], [ 2.7189602, 39.8196154 ], [ 2.7189077, 39.8196062 ], [ 2.7188831, 39.8196287 ], [ 2.7188548, 39.8196737 ], [ 2.7188413, 39.8196691 ], [ 2.7188036, 39.8196105 ], [ 2.7188139, 39.819588 ], [ 2.7188513, 39.8195565 ], [ 2.7188575, 39.819543 ], [ 2.7188315, 39.8194844 ], [ 2.7188013, 39.8194573 ], [ 2.718763, 39.8194392 ], [ 2.7186856, 39.81943 ], [ 2.7186352, 39.8194389 ], [ 2.7185963, 39.8194163 ], [ 2.7185988, 39.8194028 ], [ 2.7186267, 39.8193758 ], [ 2.7186301, 39.8193668 ], [ 2.7185852, 39.8193442 ], [ 2.7185966, 39.8192496 ], [ 2.7186099, 39.8192 ], [ 2.718628, 39.8191415 ], [ 2.7186285, 39.81911 ], [ 2.7185946, 39.8190243 ], [ 2.7184619, 39.8188573 ], [ 2.7182868, 39.8186632 ], [ 2.7182172, 39.8186269 ], [ 2.7181118, 39.8185862 ], [ 2.7180718, 39.8185545 ], [ 2.71801, 39.8184778 ], [ 2.7177758, 39.8181709 ], [ 2.7176733, 39.8180535 ], [ 2.7174424, 39.8178277 ], [ 2.7172687, 39.8176876 ], [ 2.7171744, 39.8176243 ], [ 2.71704, 39.8175429 ], [ 2.7170288, 39.8175384 ], [ 2.7169492, 39.8175336 ], [ 2.7168378, 39.8175289 ], [ 2.7167477, 39.8175241 ], [ 2.7167283, 39.8175331 ], [ 2.7167188, 39.8175376 ], [ 2.7167134, 39.8175961 ], [ 2.7167161, 39.8176322 ], [ 2.7166988, 39.8177808 ], [ 2.7166769, 39.8178528 ], [ 2.7166169, 39.8179743 ], [ 2.7165651, 39.8180508 ], [ 2.7164411, 39.8181992 ], [ 2.7163828, 39.8182531 ], [ 2.7163462, 39.818271 ], [ 2.7162845, 39.8182844 ], [ 2.7162406, 39.8182842 ], [ 2.7161571, 39.8182706 ], [ 2.7159651, 39.8181845 ], [ 2.7158315, 39.8181661 ], [ 2.7157646, 39.8181659 ], [ 2.7154468, 39.8182147 ], [ 2.7152556, 39.8182548 ], [ 2.7151647, 39.8182591 ], [ 2.715103, 39.8182545 ], [ 2.7149805, 39.8182271 ], [ 2.7148839, 39.8181863 ], [ 2.7148427, 39.8181592 ], [ 2.7147889, 39.818105 ], [ 2.7146013, 39.8179108 ], [ 2.7145095, 39.8177844 ], [ 2.7145011, 39.8177664 ], [ 2.7144841, 39.8177258 ], [ 2.7144436, 39.8176356 ], [ 2.7144089, 39.817559 ], [ 2.7144047, 39.8175004 ], [ 2.7144016, 39.8174553 ], [ 2.7144017, 39.8174328 ], [ 2.7143932, 39.8173787 ], [ 2.7143893, 39.8173427 ], [ 2.7143819, 39.8172886 ], [ 2.714374, 39.817248 ], [ 2.7143651, 39.8172074 ], [ 2.714313, 39.8170046 ], [ 2.7142682, 39.8168693 ], [ 2.7142563, 39.8168333 ], [ 2.7142477, 39.8168017 ], [ 2.7142391, 39.8167702 ], [ 2.7142092, 39.8167521 ], [ 2.714172, 39.816743 ], [ 2.714157, 39.8167519 ], [ 2.7141268, 39.8168014 ], [ 2.7140947, 39.8168869 ], [ 2.7140629, 39.8169184 ], [ 2.7140405, 39.8169228 ], [ 2.7139639, 39.8169227 ], [ 2.7139358, 39.8169181 ], [ 2.7138982, 39.816918 ], [ 2.7138796, 39.8169179 ], [ 2.7138736, 39.8169404 ], [ 2.7138577, 39.8169765 ], [ 2.7138288, 39.8170124 ], [ 2.7137926, 39.8170168 ], [ 2.713778, 39.8170123 ], [ 2.7137592, 39.8169762 ], [ 2.7137319, 39.8169401 ], [ 2.7137028, 39.816931 ], [ 2.7136568, 39.8169309 ], [ 2.7136356, 39.8169263 ], [ 2.7135041, 39.8168674 ], [ 2.7134581, 39.8168448 ], [ 2.7134491, 39.8168268 ], [ 2.7134694, 39.8167818 ], [ 2.7135087, 39.8167143 ], [ 2.7135158, 39.8166738 ], [ 2.7135005, 39.8165836 ], [ 2.7134876, 39.816525 ], [ 2.7134684, 39.8164979 ], [ 2.7134381, 39.8164799 ], [ 2.7133907, 39.8164662 ], [ 2.7133696, 39.8164572 ], [ 2.7132792, 39.8163984 ], [ 2.713084, 39.8162853 ], [ 2.7129183, 39.8161813 ], [ 2.7128608, 39.8161496 ], [ 2.7127364, 39.8160997 ], [ 2.7126142, 39.8160904 ], [ 2.7125027, 39.8160451 ], [ 2.7124539, 39.8160134 ], [ 2.7123906, 39.8159547 ], [ 2.7123025, 39.8157923 ], [ 2.7122211, 39.815711 ], [ 2.7121559, 39.8156748 ], [ 2.7121212, 39.8156702 ], [ 2.7120818, 39.8156701 ], [ 2.7120017, 39.8156969 ], [ 2.7118572, 39.8157731 ], [ 2.7118004, 39.8158226 ], [ 2.7117343, 39.815908 ], [ 2.7117035, 39.815953 ], [ 2.7116653, 39.8159844 ], [ 2.7116225, 39.8159978 ], [ 2.7116014, 39.8159978 ], [ 2.7115219, 39.8159705 ], [ 2.7114042, 39.8159072 ], [ 2.7113744, 39.8158801 ], [ 2.7113382, 39.8158124 ], [ 2.7113238, 39.8157583 ], [ 2.7113198, 39.8156502 ], [ 2.7113512, 39.8155692 ], [ 2.7113356, 39.8155511 ], [ 2.7113097, 39.8155466 ], [ 2.711275, 39.815551 ], [ 2.7112579, 39.8155509 ], [ 2.7112031, 39.8155418 ], [ 2.7111762, 39.8155327 ], [ 2.711135, 39.8154921 ], [ 2.7111024, 39.8154424 ], [ 2.7110956, 39.8154154 ], [ 2.7110972, 39.8153658 ], [ 2.7111269, 39.8152668 ], [ 2.7111654, 39.8152083 ], [ 2.7111426, 39.8151587 ], [ 2.7110654, 39.8150414 ], [ 2.7110297, 39.8150097 ], [ 2.7110056, 39.8150007 ], [ 2.7109133, 39.8150004 ], [ 2.7107898, 39.8150136 ], [ 2.7107036, 39.8150179 ], [ 2.7106606, 39.8149998 ], [ 2.7106046, 39.8149546 ], [ 2.7105839, 39.8149185 ], [ 2.7105638, 39.8148419 ], [ 2.7105523, 39.8146977 ], [ 2.7105209, 39.8145355 ], [ 2.7104727, 39.8144588 ], [ 2.7104348, 39.8144316 ], [ 2.7103437, 39.8143954 ], [ 2.7102503, 39.8143681 ], [ 2.7102259, 39.81435 ], [ 2.7102076, 39.8142914 ], [ 2.7102256, 39.8142554 ], [ 2.7102166, 39.8141383 ], [ 2.7102251, 39.8140257 ], [ 2.7102018, 39.813922 ], [ 2.7101809, 39.8138543 ], [ 2.7101617, 39.8138273 ], [ 2.710141, 39.8138092 ], [ 2.7100867, 39.8137865 ], [ 2.7100411, 39.8137774 ], [ 2.7100199, 39.8137818 ], [ 2.7099342, 39.8138267 ], [ 2.7098296, 39.8138715 ], [ 2.7097279, 39.8139163 ], [ 2.7096325, 39.8139386 ], [ 2.7095674, 39.8139834 ], [ 2.709502, 39.8139833 ], [ 2.7094404, 39.8139516 ], [ 2.7094016, 39.813911 ], [ 2.7094017, 39.8138884 ], [ 2.7094201, 39.8138524 ], [ 2.7094516, 39.813821 ], [ 2.7094999, 39.8137806 ], [ 2.7095132, 39.8137581 ], [ 2.709517, 39.8137085 ], [ 2.7094809, 39.8136048 ], [ 2.7093677, 39.8134469 ], [ 2.7093241, 39.8133206 ], [ 2.7093198, 39.8133071 ], [ 2.7093691, 39.8132081 ], [ 2.70944, 39.8130956 ], [ 2.7094546, 39.8130326 ], [ 2.7094434, 39.813001 ], [ 2.7094186, 39.812974 ], [ 2.7093527, 39.8129287 ], [ 2.7092744, 39.8128925 ], [ 2.7091687, 39.8128472 ], [ 2.709125, 39.81282 ], [ 2.7088992, 39.8125987 ], [ 2.7087135, 39.8124091 ], [ 2.7086159, 39.8123458 ], [ 2.7084698, 39.8122688 ], [ 2.708413, 39.8122191 ], [ 2.7083891, 39.8121785 ], [ 2.708364, 39.8120928 ], [ 2.7083544, 39.8120117 ], [ 2.7083465, 39.8119036 ], [ 2.7083299, 39.811854 ], [ 2.7082951, 39.8117953 ], [ 2.7082032, 39.8116824 ], [ 2.7080662, 39.811538 ], [ 2.7079854, 39.8114747 ], [ 2.7078906, 39.8114339 ], [ 2.707748, 39.811402 ], [ 2.7076846, 39.8113793 ], [ 2.7074137, 39.8111984 ], [ 2.7071437, 39.8110671 ], [ 2.7070297, 39.8110083 ], [ 2.7069788, 39.8109721 ], [ 2.7069297, 39.8109224 ], [ 2.7068473, 39.8108186 ], [ 2.7067892, 39.8107239 ], [ 2.7067116, 39.8105975 ], [ 2.7066444, 39.8105343 ], [ 2.7065777, 39.8105071 ], [ 2.7065437, 39.810507 ], [ 2.7063815, 39.8105516 ], [ 2.7062565, 39.8105873 ], [ 2.7062235, 39.8105918 ], [ 2.7061586, 39.8105871 ], [ 2.7060933, 39.8105644 ], [ 2.7059636, 39.810501 ], [ 2.705819, 39.8104331 ], [ 2.7057567, 39.8103969 ], [ 2.7056854, 39.8103201 ], [ 2.7056453, 39.8102344 ], [ 2.705607, 39.8100631 ], [ 2.7055882, 39.8099234 ], [ 2.7055736, 39.8098468 ], [ 2.7055551, 39.8098062 ], [ 2.70553, 39.8097791 ], [ 2.7054672, 39.8097249 ], [ 2.705391, 39.8096886 ], [ 2.7052226, 39.8096297 ], [ 2.705015, 39.8095796 ], [ 2.7048047, 39.809507 ], [ 2.7047628, 39.8094843 ], [ 2.7046984, 39.8094256 ], [ 2.7046727, 39.8093715 ], [ 2.7046459, 39.8091687 ], [ 2.7046491, 39.8091011 ], [ 2.704652, 39.8090155 ], [ 2.7046365, 39.8089704 ], [ 2.7045973, 39.8089162 ], [ 2.7045054, 39.8088214 ], [ 2.7043615, 39.8086634 ], [ 2.7043124, 39.8086182 ], [ 2.7042334, 39.8085639 ], [ 2.7041915, 39.8085368 ], [ 2.7040946, 39.808496 ], [ 2.7038955, 39.8084505 ], [ 2.7038666, 39.8084504 ], [ 2.7038077, 39.8084637 ], [ 2.7036897, 39.8084995 ], [ 2.7036338, 39.8084948 ], [ 2.7034459, 39.8083907 ], [ 2.7033036, 39.8083003 ], [ 2.7032456, 39.8082821 ], [ 2.7031237, 39.8082728 ], [ 2.7029894, 39.8082679 ], [ 2.7029156, 39.8082677 ], [ 2.7028326, 39.8083081 ], [ 2.7025952, 39.8084156 ], [ 2.702488, 39.8084604 ], [ 2.7024169, 39.8085187 ], [ 2.7023272, 39.8086717 ], [ 2.702218, 39.8088651 ], [ 2.7021979, 39.8089372 ], [ 2.7021973, 39.8089912 ], [ 2.7022235, 39.8090904 ], [ 2.7022453, 39.809122 ], [ 2.7022639, 39.809131 ], [ 2.7023121, 39.8091402 ], [ 2.7023774, 39.8091403 ], [ 2.7024095, 39.8091449 ], [ 2.7025058, 39.8091632 ], [ 2.7025525, 39.8091813 ], [ 2.7025721, 39.8091949 ], [ 2.7025928, 39.8092355 ], [ 2.7025845, 39.809285 ], [ 2.7025563, 39.809303 ], [ 2.7025095, 39.8093254 ], [ 2.7025021, 39.8093389 ], [ 2.7025214, 39.8094516 ], [ 2.7025646, 39.8096724 ], [ 2.7025973, 39.8097941 ], [ 2.702588, 39.8098437 ], [ 2.7025581, 39.8099067 ], [ 2.7025473, 39.8099382 ], [ 2.7025253, 39.8100507 ], [ 2.702514, 39.8101273 ], [ 2.7025052, 39.8101453 ], [ 2.7024686, 39.8101722 ], [ 2.7024149, 39.8101856 ], [ 2.7023357, 39.8101719 ], [ 2.7023044, 39.8101538 ], [ 2.7022437, 39.8100906 ], [ 2.7022267, 39.81005 ], [ 2.7021595, 39.8098156 ], [ 2.7021318, 39.8097073 ], [ 2.7021206, 39.8096938 ], [ 2.7020819, 39.8096757 ], [ 2.7020402, 39.8096891 ], [ 2.701931, 39.8098014 ], [ 2.7018844, 39.8098374 ], [ 2.701848, 39.8098373 ], [ 2.7017715, 39.8097785 ], [ 2.7017573, 39.8097605 ], [ 2.7017477, 39.8097244 ], [ 2.7017614, 39.8096794 ], [ 2.7017959, 39.8096254 ], [ 2.7017986, 39.8095939 ], [ 2.701759, 39.8095352 ], [ 2.701683, 39.8094719 ], [ 2.7016477, 39.8094673 ], [ 2.7015938, 39.8095078 ], [ 2.7015078, 39.8096292 ], [ 2.701431, 39.8098317 ], [ 2.7013696, 39.8099351 ], [ 2.7013368, 39.8101783 ], [ 2.7013272, 39.8102999 ], [ 2.7012795, 39.8106017 ], [ 2.7012812, 39.8107008 ], [ 2.701311, 39.8109036 ], [ 2.7014148, 39.8113814 ], [ 2.701436, 39.8115571 ], [ 2.7014763, 39.8116969 ], [ 2.7014814, 39.8117735 ], [ 2.7014722, 39.8118005 ], [ 2.7014259, 39.8118499 ], [ 2.701381, 39.8118588 ], [ 2.7013613, 39.8118542 ], [ 2.7012683, 39.8117549 ], [ 2.7012327, 39.8117008 ], [ 2.7010622, 39.8113715 ], [ 2.7008341, 39.8110195 ], [ 2.700741, 39.8108436 ], [ 2.7007011, 39.8107038 ], [ 2.7006652, 39.8106406 ], [ 2.7006434, 39.8106315 ], [ 2.7006075, 39.8106585 ], [ 2.700559, 39.810708 ], [ 2.7005341, 39.8107349 ], [ 2.7004645, 39.8107933 ], [ 2.70041, 39.8108202 ], [ 2.7003789, 39.8108291 ], [ 2.7003377, 39.8108245 ], [ 2.700293, 39.8107748 ], [ 2.7002563, 39.8106531 ], [ 2.7002218, 39.8106079 ], [ 2.7001309, 39.8105311 ], [ 2.7000689, 39.810513 ], [ 2.7000565, 39.8104994 ], [ 2.7000519, 39.8104634 ], [ 2.7000817, 39.8104004 ], [ 2.7000953, 39.8103103 ], [ 2.7001002, 39.8101932 ], [ 2.700105, 39.8101752 ], [ 2.7001117, 39.8101527 ], [ 2.7001081, 39.8101392 ], [ 2.7000885, 39.8101165 ], [ 2.7000187, 39.810202 ], [ 2.6999439, 39.8102964 ], [ 2.699864, 39.8103592 ], [ 2.699795, 39.8104356 ], [ 2.6997569, 39.8104851 ], [ 2.6997545, 39.8105122 ], [ 2.6998094, 39.8106519 ], [ 2.6998437, 39.8107466 ], [ 2.6998392, 39.8107646 ], [ 2.6997997, 39.8107961 ], [ 2.6996606, 39.8108858 ], [ 2.6995783, 39.8109036 ], [ 2.6995346, 39.810899 ], [ 2.6995002, 39.8108854 ], [ 2.6994894, 39.8108718 ], [ 2.6994804, 39.8108403 ], [ 2.6994946, 39.8107728 ], [ 2.6995208, 39.8106872 ], [ 2.6995309, 39.8105521 ], [ 2.6995574, 39.8105161 ], [ 2.6996076, 39.8104712 ], [ 2.6996139, 39.8104487 ], [ 2.6995802, 39.8103856 ], [ 2.6995123, 39.8102953 ], [ 2.6994892, 39.8102501 ], [ 2.6993754, 39.8098895 ], [ 2.6993321, 39.8097587 ], [ 2.6993198, 39.8097407 ], [ 2.6992783, 39.8097045 ], [ 2.6992215, 39.8096774 ], [ 2.699092, 39.8096455 ], [ 2.698846, 39.8096268 ], [ 2.6987468, 39.809613 ], [ 2.6986994, 39.8095994 ], [ 2.6986033, 39.809527 ], [ 2.6984657, 39.80936 ], [ 2.6983778, 39.8092517 ], [ 2.6983438, 39.809193 ], [ 2.6983501, 39.8091615 ], [ 2.698388, 39.809112 ], [ 2.6983961, 39.8090895 ], [ 2.6983731, 39.8089949 ], [ 2.6983477, 39.8089678 ], [ 2.6983069, 39.8089361 ], [ 2.6982979, 39.8089136 ], [ 2.6982988, 39.8088775 ], [ 2.6983254, 39.8087965 ], [ 2.6983858, 39.808675 ], [ 2.6984273, 39.8086166 ], [ 2.6986023, 39.8084368 ], [ 2.6987126, 39.8083335 ], [ 2.6987234, 39.8082975 ], [ 2.6987143, 39.808275 ], [ 2.6986758, 39.8082253 ], [ 2.6985924, 39.8081845 ], [ 2.698547, 39.8081258 ], [ 2.6985373, 39.8080943 ], [ 2.6984973, 39.8079816 ], [ 2.6984577, 39.8079274 ], [ 2.6983432, 39.807819 ], [ 2.6982788, 39.8077693 ], [ 2.6981684, 39.8077149 ], [ 2.6978024, 39.8075923 ], [ 2.6976188, 39.8075153 ], [ 2.6973742, 39.8074155 ], [ 2.6972478, 39.8073746 ], [ 2.6967529, 39.8072472 ], [ 2.6965618, 39.8071972 ], [ 2.6964689, 39.8071654 ], [ 2.6964248, 39.8071427 ], [ 2.6963509, 39.807084 ], [ 2.6961795, 39.8068763 ], [ 2.6959501, 39.8065964 ], [ 2.6958395, 39.8065105 ], [ 2.6956701, 39.8064154 ], [ 2.6955963, 39.8063567 ], [ 2.6955276, 39.8062844 ], [ 2.695414, 39.8061264 ], [ 2.6953121, 39.8058964 ], [ 2.6951569, 39.8057518 ], [ 2.6951059, 39.8056436 ], [ 2.6950933, 39.8055895 ], [ 2.6950863, 39.8053507 ], [ 2.6951182, 39.8051706 ], [ 2.6951114, 39.8051211 ], [ 2.6950966, 39.8050985 ], [ 2.6950533, 39.8050713 ], [ 2.6950168, 39.8050622 ], [ 2.6949507, 39.8050621 ], [ 2.6948587, 39.8051474 ], [ 2.6947728, 39.8051742 ], [ 2.6947312, 39.8051651 ], [ 2.6946858, 39.8051289 ], [ 2.6946292, 39.8050432 ], [ 2.6946345, 39.8049937 ], [ 2.6946655, 39.8049217 ], [ 2.6946605, 39.8048901 ], [ 2.6946028, 39.8048179 ], [ 2.6945541, 39.8047727 ], [ 2.6944413, 39.8046958 ], [ 2.6944004, 39.8046912 ], [ 2.6943442, 39.8046865 ], [ 2.6943329, 39.804673 ], [ 2.6943309, 39.8044838 ], [ 2.6943345, 39.804236 ], [ 2.6943451, 39.8039838 ], [ 2.6943446, 39.803781 ], [ 2.6943038, 39.803416 ], [ 2.6942796, 39.8032853 ], [ 2.6942978, 39.8032178 ], [ 2.6943467, 39.8031368 ], [ 2.6943669, 39.8030918 ], [ 2.6944189, 39.8029117 ], [ 2.6944398, 39.8028758 ], [ 2.6945037, 39.8028038 ], [ 2.6945333, 39.8027949 ], [ 2.6945804, 39.802786 ], [ 2.694598, 39.8027771 ], [ 2.6946259, 39.8027321 ], [ 2.6946453, 39.8026421 ], [ 2.6946384, 39.8025339 ], [ 2.694619, 39.8024798 ], [ 2.694491, 39.8022902 ], [ 2.6944211, 39.8021594 ], [ 2.6943201, 39.802051 ], [ 2.6942775, 39.8020194 ], [ 2.6941791, 39.8019831 ], [ 2.6940945, 39.8019739 ], [ 2.6939779, 39.8019871 ], [ 2.6939213, 39.8020049 ], [ 2.6938313, 39.8020498 ], [ 2.6938012, 39.8020812 ], [ 2.6938014, 39.8021263 ], [ 2.6938141, 39.8021533 ], [ 2.6938343, 39.8021894 ], [ 2.6938342, 39.8022074 ], [ 2.6937906, 39.8022569 ], [ 2.6937566, 39.8022658 ], [ 2.693676, 39.8022566 ], [ 2.693572, 39.8022473 ], [ 2.6935213, 39.8022336 ], [ 2.6934314, 39.8021748 ], [ 2.693308, 39.8020168 ], [ 2.6932009, 39.8018859 ], [ 2.6931636, 39.8018182 ], [ 2.6931574, 39.8017416 ], [ 2.6931722, 39.8016921 ], [ 2.6932277, 39.8015932 ], [ 2.6934006, 39.8013729 ], [ 2.6935213, 39.8012515 ], [ 2.6935228, 39.8012335 ], [ 2.6934981, 39.8012019 ], [ 2.6934398, 39.8011792 ], [ 2.6934174, 39.8011251 ], [ 2.6934173, 39.8010891 ], [ 2.6934427, 39.8010171 ], [ 2.6934793, 39.8009991 ], [ 2.6935415, 39.8009768 ], [ 2.6935562, 39.8009588 ], [ 2.6935623, 39.8008823 ], [ 2.6935455, 39.8007335 ], [ 2.6935119, 39.8006478 ], [ 2.6934646, 39.8005396 ], [ 2.6934699, 39.8004855 ], [ 2.6935794, 39.8003282 ], [ 2.6936147, 39.8002787 ], [ 2.6936195, 39.8002562 ], [ 2.6935818, 39.800202 ], [ 2.6934942, 39.8001297 ], [ 2.6934545, 39.8000936 ], [ 2.6932744, 39.7998859 ], [ 2.6931665, 39.7997549 ], [ 2.6931382, 39.7997278 ], [ 2.6930661, 39.7996826 ], [ 2.6930315, 39.7996825 ], [ 2.692981, 39.7997004 ], [ 2.6929566, 39.7997003 ], [ 2.6928749, 39.7996641 ], [ 2.6928418, 39.7996369 ], [ 2.692847, 39.7996144 ], [ 2.6928881, 39.7995785 ], [ 2.6928929, 39.7995605 ], [ 2.6928375, 39.7994703 ], [ 2.6927928, 39.7994251 ], [ 2.6927341, 39.7993979 ], [ 2.6926765, 39.7993797 ], [ 2.6926511, 39.7993571 ], [ 2.6925022, 39.799181 ], [ 2.6923628, 39.799005 ], [ 2.6922834, 39.7988967 ], [ 2.69222, 39.7987793 ], [ 2.6921521, 39.7986215 ], [ 2.6921108, 39.7985403 ], [ 2.6920071, 39.7983913 ], [ 2.6919468, 39.7983236 ], [ 2.6918443, 39.7982242 ], [ 2.6916569, 39.7980931 ], [ 2.6915874, 39.7980523 ], [ 2.6914442, 39.7979889 ], [ 2.6912962, 39.7979435 ], [ 2.6909884, 39.7978751 ], [ 2.6908232, 39.7978521 ], [ 2.6907399, 39.7978519 ], [ 2.6906202, 39.7978651 ], [ 2.6904234, 39.7979502 ], [ 2.6901767, 39.7980306 ], [ 2.6900506, 39.7980482 ], [ 2.6898883, 39.7980298 ], [ 2.6896707, 39.7979751 ], [ 2.6895615, 39.7979568 ], [ 2.6894525, 39.7979386 ], [ 2.6893988, 39.7979429 ], [ 2.6893319, 39.7979878 ], [ 2.6891918, 39.7980414 ], [ 2.6891387, 39.7980683 ], [ 2.6891172, 39.7980638 ], [ 2.6890904, 39.7980232 ], [ 2.6891102, 39.7979196 ], [ 2.6891784, 39.797699 ], [ 2.6892067, 39.7975685 ], [ 2.6892451, 39.7973028 ], [ 2.6892506, 39.7971451 ], [ 2.6892392, 39.7970685 ], [ 2.6892219, 39.7970279 ], [ 2.6891481, 39.7969556 ], [ 2.6891247, 39.7968835 ], [ 2.6890607, 39.7967482 ], [ 2.6890009, 39.7966624 ], [ 2.6890026, 39.7966174 ], [ 2.6890217, 39.7965859 ], [ 2.6890928, 39.7965275 ], [ 2.6891235, 39.7965141 ], [ 2.6891848, 39.7965097 ], [ 2.689308, 39.7965416 ], [ 2.6893697, 39.7965508 ], [ 2.6894424, 39.7965465 ], [ 2.6895391, 39.7965422 ], [ 2.6895857, 39.7965558 ], [ 2.6896393, 39.796583 ], [ 2.6896954, 39.7966147 ], [ 2.6897687, 39.7966284 ], [ 2.6898219, 39.7966286 ], [ 2.6899257, 39.7966063 ], [ 2.6901644, 39.7965304 ], [ 2.6903963, 39.7964364 ], [ 2.6904358, 39.796414 ], [ 2.6904967, 39.7963465 ], [ 2.6906097, 39.7962027 ], [ 2.6906579, 39.7961262 ], [ 2.6907875, 39.7958833 ], [ 2.6909002, 39.7956403 ], [ 2.6909533, 39.7955188 ], [ 2.6909777, 39.7954738 ], [ 2.6910445, 39.795393 ], [ 2.6910906, 39.795357 ], [ 2.6911195, 39.7953436 ], [ 2.6911768, 39.7953347 ], [ 2.6912173, 39.7953348 ], [ 2.6912939, 39.795353 ], [ 2.6913923, 39.7953939 ], [ 2.6914995, 39.7954212 ], [ 2.6916036, 39.7952232 ], [ 2.6916845, 39.795255 ], [ 2.6913998, 39.7958309 ], [ 2.6910968, 39.7964202 ], [ 2.6918016, 39.7965167 ], [ 2.6926422, 39.7961135 ], [ 2.6926226, 39.7960864 ], [ 2.6926253, 39.7960503 ], [ 2.692651, 39.7960234 ], [ 2.6927992, 39.7960193 ], [ 2.6928757, 39.796042 ], [ 2.6929091, 39.7960827 ], [ 2.6928791, 39.7961051 ], [ 2.6930912, 39.7963489 ], [ 2.6932551, 39.7962638 ], [ 2.6932812, 39.7962999 ], [ 2.6929066, 39.7964836 ], [ 2.6922071, 39.7968286 ], [ 2.6927765, 39.7974158 ], [ 2.6931925, 39.7978539 ], [ 2.6941073, 39.7980005 ], [ 2.6942683, 39.7979153 ], [ 2.6939605, 39.7975315 ], [ 2.6939876, 39.7975181 ], [ 2.6943074, 39.7978974 ], [ 2.6944026, 39.7978526 ], [ 2.6944756, 39.7979293 ], [ 2.6948338, 39.797741 ], [ 2.6943444, 39.7971406 ], [ 2.6948483, 39.796759 ], [ 2.6949706, 39.7968539 ], [ 2.6946146, 39.7971278 ], [ 2.6950513, 39.7976605 ], [ 2.6955185, 39.7973419 ], [ 2.6955474, 39.797324 ], [ 2.6956328, 39.7972476 ], [ 2.6957539, 39.7971894 ], [ 2.6957084, 39.7971487 ], [ 2.6958629, 39.7968653 ], [ 2.695423, 39.7966569 ], [ 2.6954013, 39.7966749 ], [ 2.6952885, 39.796616 ], [ 2.6952732, 39.7966025 ], [ 2.6952645, 39.7965709 ], [ 2.6952734, 39.7965439 ], [ 2.6953002, 39.7965079 ], [ 2.6949999, 39.7960116 ], [ 2.6950221, 39.7960026 ], [ 2.6953309, 39.7965035 ], [ 2.6954396, 39.7965218 ], [ 2.6954942, 39.7965535 ], [ 2.6955725, 39.7966033 ], [ 2.6957469, 39.7966938 ], [ 2.6958104, 39.796712 ], [ 2.6958896, 39.7966942 ], [ 2.695998, 39.7966179 ], [ 2.6962788, 39.7961726 ], [ 2.6964253, 39.7958126 ], [ 2.6964904, 39.795547 ], [ 2.6966058, 39.7952139 ], [ 2.6966899, 39.7948402 ], [ 2.6967058, 39.7945474 ], [ 2.6967078, 39.7942546 ], [ 2.6966638, 39.7939661 ], [ 2.6966193, 39.7937813 ], [ 2.6965362, 39.7935198 ], [ 2.6964323, 39.7933123 ], [ 2.6962783, 39.7930732 ], [ 2.6962605, 39.7930551 ], [ 2.6962364, 39.7930415 ], [ 2.6962123, 39.7930414 ], [ 2.6961963, 39.7930414 ], [ 2.6959506, 39.7931399 ], [ 2.6957981, 39.7932115 ], [ 2.6957799, 39.7931799 ], [ 2.6959357, 39.7931173 ], [ 2.695931, 39.7931083 ], [ 2.6960228, 39.7930679 ], [ 2.6959253, 39.7928244 ], [ 2.6957528, 39.7925537 ], [ 2.6956961, 39.7924859 ], [ 2.6955008, 39.7922512 ], [ 2.6951284, 39.7918583 ], [ 2.6948391, 39.7915827 ], [ 2.6946853, 39.7914516 ], [ 2.6945736, 39.7913658 ], [ 2.6943275, 39.791221 ], [ 2.6940143, 39.7910805 ], [ 2.6938342, 39.7910214 ], [ 2.6937556, 39.7910573 ], [ 2.6936528, 39.7910345 ], [ 2.6935183, 39.7909801 ], [ 2.6934739, 39.7909709 ], [ 2.6934584, 39.7910024 ], [ 2.6934322, 39.7910564 ], [ 2.693423, 39.7910744 ], [ 2.6933891, 39.7911419 ], [ 2.6933773, 39.7911689 ], [ 2.6933649, 39.7911779 ], [ 2.6933605, 39.7911914 ], [ 2.6933502, 39.7911958 ], [ 2.6933323, 39.7911913 ], [ 2.6933338, 39.7911823 ], [ 2.6933384, 39.7911553 ], [ 2.6933631, 39.7910968 ], [ 2.6934044, 39.7909978 ], [ 2.6934235, 39.7909573 ], [ 2.6934014, 39.7909302 ], [ 2.693319, 39.7908264 ], [ 2.6932899, 39.7907992 ], [ 2.6932153, 39.7907495 ], [ 2.693126, 39.7907177 ], [ 2.692935, 39.7906632 ], [ 2.6925861, 39.7905812 ], [ 2.6922189, 39.7905171 ], [ 2.6920857, 39.7905078 ], [ 2.6918193, 39.790498 ], [ 2.6914641, 39.7905106 ], [ 2.6912162, 39.7905325 ], [ 2.6910931, 39.7905546 ], [ 2.6910094, 39.790577 ], [ 2.6908568, 39.7906531 ], [ 2.6907412, 39.7907294 ], [ 2.6906947, 39.7907743 ], [ 2.6906545, 39.7908463 ], [ 2.690663, 39.7909139 ], [ 2.6907053, 39.7910087 ], [ 2.6907175, 39.7910537 ], [ 2.69072, 39.7911348 ], [ 2.6906997, 39.7911933 ], [ 2.6906614, 39.7912698 ], [ 2.6906532, 39.7913103 ], [ 2.6906625, 39.7915131 ], [ 2.6906591, 39.7916212 ], [ 2.690678, 39.7916392 ], [ 2.6907243, 39.7916574 ], [ 2.6907436, 39.7916665 ], [ 2.6907705, 39.7916981 ], [ 2.6907742, 39.7917566 ], [ 2.6907408, 39.7918827 ], [ 2.6907042, 39.7920583 ], [ 2.6906034, 39.7922518 ], [ 2.6904737, 39.7925893 ], [ 2.6903599, 39.7928232 ], [ 2.6902637, 39.7930302 ], [ 2.690171, 39.7931877 ], [ 2.689997, 39.7934214 ], [ 2.6898729, 39.7935022 ], [ 2.6897161, 39.7935468 ], [ 2.6895948, 39.7935781 ], [ 2.6895107, 39.7936048 ], [ 2.6892472, 39.7936762 ], [ 2.6890325, 39.7936937 ], [ 2.6888042, 39.7936615 ], [ 2.6887443, 39.7936614 ], [ 2.6886735, 39.7936657 ], [ 2.6886162, 39.793652 ], [ 2.6885451, 39.7936383 ], [ 2.6884499, 39.7936245 ], [ 2.6883985, 39.7936064 ], [ 2.6883621, 39.7935793 ], [ 2.6883331, 39.7935431 ], [ 2.6883165, 39.7935161 ], [ 2.6882048, 39.7935113 ], [ 2.6881423, 39.7935336 ], [ 2.6880831, 39.7935379 ], [ 2.6880499, 39.7935334 ], [ 2.6880136, 39.7935062 ], [ 2.6879736, 39.7934611 ], [ 2.6878559, 39.7934202 ], [ 2.6878033, 39.7934246 ], [ 2.6877693, 39.793438 ], [ 2.6876783, 39.7934603 ], [ 2.6876097, 39.7934601 ], [ 2.6875254, 39.7934599 ], [ 2.6874342, 39.7934551 ], [ 2.6873349, 39.7934549 ], [ 2.6872582, 39.7934637 ], [ 2.6871753, 39.7934724 ], [ 2.6870607, 39.7934721 ], [ 2.6869756, 39.7934899 ], [ 2.6868816, 39.7935212 ], [ 2.6867866, 39.7935435 ], [ 2.6866463, 39.7935656 ], [ 2.6865689, 39.7935879 ], [ 2.686491, 39.7936192 ], [ 2.6864342, 39.7936641 ], [ 2.6864025, 39.7936731 ], [ 2.6863642, 39.7936685 ], [ 2.686346, 39.7936504 ], [ 2.6863231, 39.7936233 ], [ 2.6862819, 39.7936007 ], [ 2.686243, 39.7935825 ], [ 2.6862075, 39.7935915 ], [ 2.6861567, 39.7936048 ], [ 2.6860562, 39.7936316 ], [ 2.6859627, 39.7936584 ], [ 2.6858838, 39.7936627 ], [ 2.6857521, 39.7936578 ], [ 2.68564, 39.7936665 ], [ 2.6855373, 39.7936933 ], [ 2.685435, 39.793711 ], [ 2.685316, 39.7937332 ], [ 2.6851892, 39.7937554 ], [ 2.6850866, 39.7937596 ], [ 2.6849778, 39.7937548 ], [ 2.6848621, 39.7937635 ], [ 2.6847705, 39.7937633 ], [ 2.6847212, 39.7937631 ], [ 2.6846977, 39.7937946 ], [ 2.6846413, 39.793826 ], [ 2.6845416, 39.7938482 ], [ 2.68447, 39.7938661 ], [ 2.6843877, 39.7938884 ], [ 2.684298, 39.7938881 ], [ 2.6842114, 39.7939014 ], [ 2.6841598, 39.7939373 ], [ 2.6841041, 39.7939777 ], [ 2.6840462, 39.7940271 ], [ 2.6840039, 39.794027 ], [ 2.6839536, 39.7940088 ], [ 2.6839103, 39.7939772 ], [ 2.6838553, 39.793959 ], [ 2.6837765, 39.7939588 ], [ 2.6837141, 39.7939316 ], [ 2.6836853, 39.7939225 ], [ 2.6836739, 39.793945 ], [ 2.6837012, 39.7939766 ], [ 2.6837145, 39.7940037 ], [ 2.6837132, 39.7940532 ], [ 2.683713, 39.7941028 ], [ 2.6837291, 39.7941659 ], [ 2.6837617, 39.79422 ], [ 2.6838002, 39.7942652 ], [ 2.6838463, 39.7943149 ], [ 2.6838895, 39.7943826 ], [ 2.6839278, 39.7944548 ], [ 2.683972, 39.794536 ], [ 2.6839942, 39.7946216 ], [ 2.6840416, 39.7947254 ], [ 2.6840878, 39.7948336 ], [ 2.6841267, 39.7949283 ], [ 2.6841263, 39.795032 ], [ 2.6841516, 39.7950906 ], [ 2.68419, 39.7951492 ], [ 2.6842237, 39.7952034 ], [ 2.684256, 39.795253 ], [ 2.6842612, 39.7952981 ], [ 2.6842592, 39.7953431 ], [ 2.6842499, 39.7953882 ], [ 2.6842209, 39.7954197 ], [ 2.6842141, 39.7954692 ], [ 2.6841905, 39.7955277 ], [ 2.6841617, 39.7955952 ], [ 2.684134, 39.7956627 ], [ 2.684115, 39.7957572 ], [ 2.6840882, 39.7958517 ], [ 2.6840601, 39.7959373 ], [ 2.6840406, 39.7960498 ], [ 2.6840418, 39.7961805 ], [ 2.6840376, 39.7963111 ], [ 2.6840251, 39.7964102 ], [ 2.6840191, 39.7965228 ], [ 2.6840151, 39.7965994 ], [ 2.6840109, 39.7966399 ], [ 2.6839896, 39.7966714 ], [ 2.6839397, 39.7967208 ], [ 2.6839183, 39.7967748 ], [ 2.6839159, 39.7968289 ], [ 2.683924, 39.7968829 ], [ 2.6839313, 39.7969596 ], [ 2.6839288, 39.7970452 ], [ 2.6839266, 39.7971172 ], [ 2.6838791, 39.7972027 ], [ 2.6838059, 39.7972385 ], [ 2.6837195, 39.7973059 ], [ 2.6836615, 39.7973733 ], [ 2.6835565, 39.7974271 ], [ 2.6834619, 39.7974403 ], [ 2.6833476, 39.7974535 ], [ 2.6832734, 39.7974669 ], [ 2.6831748, 39.7974891 ], [ 2.6830412, 39.7974932 ], [ 2.6829476, 39.7975245 ], [ 2.6828616, 39.7975603 ], [ 2.6827501, 39.7976096 ], [ 2.6826415, 39.7976453 ], [ 2.682538, 39.7976811 ], [ 2.682438, 39.7976808 ], [ 2.6823588, 39.7976806 ], [ 2.6822738, 39.7976804 ], [ 2.6821879, 39.7976936 ], [ 2.6820702, 39.7977384 ], [ 2.6819648, 39.7977831 ], [ 2.6818133, 39.7978683 ], [ 2.6817371, 39.7979357 ], [ 2.6816773, 39.7979986 ], [ 2.6816153, 39.7980795 ], [ 2.6815583, 39.7981559 ], [ 2.6815124, 39.7982234 ], [ 2.6814607, 39.7982683 ], [ 2.6813741, 39.7982996 ], [ 2.6813064, 39.7983354 ], [ 2.6812635, 39.7983714 ], [ 2.6812527, 39.7984074 ], [ 2.6812172, 39.7985109 ], [ 2.681149, 39.7985738 ], [ 2.6810488, 39.7986095 ], [ 2.6809282, 39.7986542 ], [ 2.6808211, 39.7986765 ], [ 2.6806429, 39.7986895 ], [ 2.6804702, 39.7986936 ], [ 2.680329, 39.7986887 ], [ 2.6801982, 39.7987063 ], [ 2.6801113, 39.7987286 ], [ 2.6800115, 39.7987599 ], [ 2.6799246, 39.7987596 ], [ 2.6798399, 39.7987549 ], [ 2.6797577, 39.7987096 ], [ 2.6796535, 39.7986642 ], [ 2.6795652, 39.7986415 ], [ 2.67945, 39.7986277 ], [ 2.6793461, 39.7985958 ], [ 2.6792434, 39.798555 ], [ 2.67911, 39.7985006 ], [ 2.6789368, 39.798455 ], [ 2.6788156, 39.7984502 ], [ 2.6786937, 39.7984499 ], [ 2.6786149, 39.7984496 ], [ 2.6785689, 39.798445 ], [ 2.6785179, 39.7984314 ], [ 2.6784652, 39.7983817 ], [ 2.6783972, 39.7983274 ], [ 2.6782971, 39.7982595 ], [ 2.6782167, 39.7982098 ], [ 2.6781621, 39.7981736 ], [ 2.6781141, 39.7981374 ], [ 2.678052, 39.7980651 ], [ 2.6779844, 39.7980019 ], [ 2.6779146, 39.7979476 ], [ 2.6778425, 39.7979069 ], [ 2.6777714, 39.7978842 ], [ 2.6777037, 39.7978435 ], [ 2.6776597, 39.7978028 ], [ 2.6776257, 39.7977396 ], [ 2.6776184, 39.797654 ], [ 2.6775783, 39.7975773 ], [ 2.6775184, 39.797505 ], [ 2.6774962, 39.797487 ], [ 2.6774622, 39.7974193 ], [ 2.6774294, 39.7973336 ], [ 2.6774112, 39.797248 ], [ 2.6773948, 39.7971668 ], [ 2.6773633, 39.7970947 ], [ 2.677318, 39.7970315 ], [ 2.6772764, 39.7969593 ], [ 2.6772388, 39.7968736 ], [ 2.6771799, 39.7968194 ], [ 2.6770778, 39.7968056 ], [ 2.6769768, 39.7967692 ], [ 2.6768836, 39.7967329 ], [ 2.6768119, 39.7966922 ], [ 2.6767639, 39.7966425 ], [ 2.6767335, 39.7965838 ], [ 2.6766873, 39.7964936 ], [ 2.676643, 39.7964259 ], [ 2.6765376, 39.796322 ], [ 2.6764588, 39.7962497 ], [ 2.6764014, 39.796191 ], [ 2.6763443, 39.7961413 ], [ 2.6762841, 39.796069 ], [ 2.6762202, 39.7959833 ], [ 2.676153, 39.7959245 ], [ 2.6760389, 39.7958791 ], [ 2.6758861, 39.7958562 ], [ 2.675748, 39.7958152 ], [ 2.6756229, 39.7957879 ], [ 2.6754898, 39.7957514 ], [ 2.67537, 39.7957061 ], [ 2.6751803, 39.795674 ], [ 2.6750343, 39.7956691 ], [ 2.674934, 39.7956688 ], [ 2.6748566, 39.7956686 ], [ 2.6748056, 39.7956414 ], [ 2.6747283, 39.7956187 ], [ 2.6746832, 39.7955825 ], [ 2.6746466, 39.7955374 ], [ 2.6746154, 39.7954922 ], [ 2.6745682, 39.795429 ], [ 2.6745176, 39.7953298 ], [ 2.6744632, 39.795253 ], [ 2.6743747, 39.7952212 ], [ 2.6742506, 39.7952164 ], [ 2.6741592, 39.7952387 ], [ 2.6740753, 39.7952339 ], [ 2.6740224, 39.7952248 ], [ 2.6739801, 39.7952111 ], [ 2.6739752, 39.7951841 ], [ 2.6739786, 39.7951436 ], [ 2.6740113, 39.7950986 ], [ 2.6740196, 39.7950536 ], [ 2.6740158, 39.7950085 ], [ 2.6739722, 39.7949723 ], [ 2.6739643, 39.7949318 ], [ 2.6739462, 39.7949002 ], [ 2.6739295, 39.7948911 ], [ 2.6738951, 39.7948955 ], [ 2.6738684, 39.7949225 ], [ 2.6738419, 39.794972 ], [ 2.6737734, 39.7950123 ], [ 2.6737023, 39.7950121 ], [ 2.6736376, 39.795012 ], [ 2.6735168, 39.7950071 ], [ 2.6734435, 39.7949934 ], [ 2.673382, 39.7949707 ], [ 2.6733526, 39.794921 ], [ 2.6733369, 39.7948579 ], [ 2.6733, 39.7947812 ], [ 2.6732752, 39.7946956 ], [ 2.673208, 39.7946278 ], [ 2.6730871, 39.7945734 ], [ 2.6729874, 39.7945101 ], [ 2.6729102, 39.7944738 ], [ 2.6728389, 39.7944196 ], [ 2.6727961, 39.7943564 ], [ 2.6727359, 39.7942841 ], [ 2.6726576, 39.7942433 ], [ 2.6725895, 39.7941981 ], [ 2.6725311, 39.7941394 ], [ 2.6724846, 39.7940896 ], [ 2.6724029, 39.7940669 ], [ 2.6723118, 39.7940351 ], [ 2.6722292, 39.7939943 ], [ 2.6721148, 39.793949 ], [ 2.6719788, 39.7939261 ], [ 2.67185, 39.7939032 ], [ 2.671757, 39.7938984 ], [ 2.6716834, 39.7938577 ], [ 2.6716248, 39.7938214 ], [ 2.6716214, 39.7937719 ], [ 2.6716251, 39.7936863 ], [ 2.6716633, 39.7936323 ], [ 2.671665, 39.7935828 ], [ 2.6716444, 39.7935422 ], [ 2.671581, 39.793524 ], [ 2.6715168, 39.7935148 ], [ 2.6714621, 39.7935011 ], [ 2.6714317, 39.7934515 ], [ 2.6713661, 39.7934153 ], [ 2.6712999, 39.7933835 ], [ 2.6712095, 39.7933427 ], [ 2.6711299, 39.793284 ], [ 2.6710181, 39.7932341 ], [ 2.6709811, 39.7931799 ], [ 2.6709292, 39.7931167 ], [ 2.6708602, 39.7930489 ], [ 2.6707926, 39.7929856 ], [ 2.6706971, 39.7929494 ], [ 2.670598, 39.792922 ], [ 2.6705064, 39.7929173 ], [ 2.6704225, 39.792917 ], [ 2.6703327, 39.7929123 ], [ 2.6702324, 39.7928895 ], [ 2.6701228, 39.7928441 ], [ 2.6700208, 39.7927988 ], [ 2.6699856, 39.7927491 ], [ 2.6699604, 39.792686 ], [ 2.6699256, 39.7926273 ], [ 2.669857, 39.7925641 ], [ 2.6697955, 39.7925008 ], [ 2.6697821, 39.7924872 ], [ 2.6697429, 39.7924511 ], [ 2.6696878, 39.7924329 ], [ 2.6696524, 39.7924328 ], [ 2.6696308, 39.7924463 ], [ 2.6695742, 39.7924596 ], [ 2.6695483, 39.7924685 ], [ 2.6695012, 39.7924594 ], [ 2.6694072, 39.7924231 ], [ 2.6693515, 39.7923959 ], [ 2.6693293, 39.7923778 ], [ 2.669307, 39.7923192 ], [ 2.6692613, 39.792247 ], [ 2.6692057, 39.7922063 ], [ 2.6691234, 39.79217 ], [ 2.6690803, 39.7921068 ], [ 2.6689728, 39.7919713 ], [ 2.6688543, 39.7918764 ], [ 2.6686308, 39.7916866 ], [ 2.6685911, 39.7916504 ], [ 2.6685277, 39.7915601 ], [ 2.6684931, 39.7914789 ], [ 2.6684948, 39.7914204 ], [ 2.668506, 39.7913618 ], [ 2.6685292, 39.7913304 ], [ 2.6685723, 39.7913125 ], [ 2.6686064, 39.791281 ], [ 2.6686085, 39.7912315 ], [ 2.6686065, 39.7911819 ], [ 2.668592, 39.7911639 ], [ 2.6685374, 39.7911367 ], [ 2.6684164, 39.7911003 ], [ 2.6683202, 39.791073 ], [ 2.6682091, 39.7910276 ], [ 2.6681923, 39.7910141 ], [ 2.6681765, 39.7909825 ], [ 2.6681056, 39.7909147 ], [ 2.6679994, 39.7908288 ], [ 2.6679773, 39.7907972 ], [ 2.6679587, 39.7907341 ], [ 2.667958, 39.790635 ], [ 2.6679714, 39.7904503 ], [ 2.6679745, 39.7903242 ], [ 2.6679673, 39.7902881 ], [ 2.6679333, 39.7902294 ], [ 2.6679131, 39.7901798 ], [ 2.6679007, 39.7900356 ], [ 2.6679135, 39.7899546 ], [ 2.667929, 39.7899141 ], [ 2.6680024, 39.7897746 ], [ 2.6680727, 39.7896397 ], [ 2.668116, 39.7895092 ], [ 2.6681466, 39.7893651 ], [ 2.6681462, 39.789302 ], [ 2.6681318, 39.7892704 ], [ 2.6680615, 39.7892342 ], [ 2.6680118, 39.789162 ], [ 2.6679522, 39.7891167 ], [ 2.6679147, 39.7890986 ], [ 2.6678593, 39.7890895 ], [ 2.6677764, 39.7891027 ], [ 2.6677245, 39.7891026 ], [ 2.6676681, 39.7890754 ], [ 2.6676136, 39.7890302 ], [ 2.6675885, 39.788931 ], [ 2.6675837, 39.7887103 ], [ 2.6675394, 39.7885254 ], [ 2.6675188, 39.7884803 ], [ 2.6674574, 39.7884035 ], [ 2.6673524, 39.7883131 ], [ 2.6672895, 39.7882769 ], [ 2.6672616, 39.7882273 ], [ 2.6672266, 39.7881326 ], [ 2.6672238, 39.7879749 ], [ 2.6671891, 39.7878892 ], [ 2.6670968, 39.7877312 ], [ 2.6670523, 39.787668 ], [ 2.6669546, 39.7875552 ], [ 2.6668941, 39.7874649 ], [ 2.6667199, 39.7870319 ], [ 2.6666801, 39.7869552 ], [ 2.6665922, 39.7868018 ], [ 2.6665424, 39.78668 ], [ 2.6665196, 39.7865718 ], [ 2.6664995, 39.786351 ], [ 2.6664802, 39.7860266 ], [ 2.6664902, 39.7859365 ], [ 2.6665301, 39.7857519 ], [ 2.6665891, 39.7855403 ], [ 2.666595, 39.7853872 ], [ 2.6666295, 39.7852792 ], [ 2.666656, 39.7852252 ], [ 2.6667093, 39.7851488 ], [ 2.6669693, 39.7848837 ], [ 2.6670166, 39.7848433 ], [ 2.6671166, 39.784767 ], [ 2.6671709, 39.7846996 ], [ 2.6672694, 39.7844881 ], [ 2.6673453, 39.7843261 ], [ 2.6673498, 39.7843036 ], [ 2.6673369, 39.7842631 ], [ 2.667297, 39.7842134 ], [ 2.6672657, 39.7841953 ], [ 2.6671913, 39.784186 ], [ 2.6671705, 39.7841905 ], [ 2.6671288, 39.7841994 ], [ 2.6670978, 39.7841993 ], [ 2.6670574, 39.7841767 ], [ 2.6669952, 39.7841224 ], [ 2.6669026, 39.7840231 ], [ 2.6668719, 39.7839644 ], [ 2.6668692, 39.7839328 ], [ 2.666898, 39.7838609 ], [ 2.6669132, 39.7838113 ], [ 2.6669092, 39.7837302 ], [ 2.6668827, 39.7836896 ], [ 2.6668551, 39.783667 ], [ 2.6667931, 39.7836533 ], [ 2.6666908, 39.7836755 ], [ 2.6666211, 39.7836844 ], [ 2.6665875, 39.7836798 ], [ 2.6665613, 39.7836707 ], [ 2.6665166, 39.783639 ], [ 2.6664831, 39.7836119 ], [ 2.6663822, 39.783571 ], [ 2.6663765, 39.783562 ], [ 2.6663857, 39.783535 ], [ 2.6663877, 39.7835125 ], [ 2.6663529, 39.7834538 ], [ 2.666322, 39.7834267 ], [ 2.6662994, 39.7834221 ], [ 2.6662531, 39.783422 ], [ 2.6661854, 39.7834624 ], [ 2.6661303, 39.7834442 ], [ 2.666118, 39.7834306 ], [ 2.6661526, 39.7833586 ], [ 2.6662215, 39.7832282 ], [ 2.6663223, 39.7831249 ], [ 2.6663097, 39.7830888 ], [ 2.666289, 39.7830752 ], [ 2.6661425, 39.7830298 ], [ 2.6659002, 39.782957 ], [ 2.6658374, 39.7829658 ], [ 2.6657899, 39.7829657 ], [ 2.6656981, 39.7829429 ], [ 2.6656311, 39.7829066 ], [ 2.6655752, 39.7828569 ], [ 2.6655632, 39.7828299 ], [ 2.6655606, 39.7827668 ], [ 2.665558, 39.7826992 ], [ 2.6655878, 39.7826542 ], [ 2.6655851, 39.7826047 ], [ 2.6655452, 39.7825685 ], [ 2.6654858, 39.7825458 ], [ 2.6654451, 39.7825052 ], [ 2.6654194, 39.7824735 ], [ 2.6654174, 39.7824285 ], [ 2.6654381, 39.78237 ], [ 2.6654484, 39.7822844 ], [ 2.6654454, 39.7822213 ], [ 2.6654362, 39.7821628 ], [ 2.665417, 39.7821357 ], [ 2.6653584, 39.782095 ], [ 2.6652296, 39.782018 ], [ 2.6651628, 39.7819502 ], [ 2.6650613, 39.7818103 ], [ 2.6649607, 39.7816974 ], [ 2.6648973, 39.7816206 ], [ 2.6648745, 39.78158 ], [ 2.6648388, 39.7814853 ], [ 2.6648089, 39.7814041 ], [ 2.6647839, 39.781368 ], [ 2.6647398, 39.7813588 ], [ 2.6647059, 39.7813497 ], [ 2.6646884, 39.7813452 ], [ 2.6646874, 39.7813226 ], [ 2.664689, 39.7812956 ], [ 2.6646903, 39.7812596 ], [ 2.6646973, 39.7812371 ], [ 2.6647353, 39.7812327 ], [ 2.6647747, 39.7812373 ], [ 2.6648185, 39.7812419 ], [ 2.6648579, 39.7812421 ], [ 2.6649061, 39.7812422 ], [ 2.6649352, 39.7812423 ], [ 2.6649475, 39.7812649 ], [ 2.6649967, 39.781283 ], [ 2.6650438, 39.7812831 ], [ 2.6651029, 39.7812698 ], [ 2.6651243, 39.7812383 ], [ 2.6651171, 39.7812158 ], [ 2.665095, 39.7811842 ], [ 2.6650579, 39.781157 ], [ 2.6649756, 39.7811162 ], [ 2.6649546, 39.7810802 ], [ 2.6649537, 39.7810486 ], [ 2.6649597, 39.7810081 ], [ 2.6649975, 39.7809676 ], [ 2.6650148, 39.7809407 ], [ 2.6650551, 39.7809002 ], [ 2.6650552, 39.7808732 ], [ 2.6650543, 39.7808462 ], [ 2.6650661, 39.7808147 ], [ 2.6650819, 39.7807967 ], [ 2.6650941, 39.7807742 ], [ 2.6650975, 39.7807427 ], [ 2.6650895, 39.7807291 ], [ 2.66504, 39.7807065 ], [ 2.6649868, 39.7806883 ], [ 2.6649251, 39.7806881 ], [ 2.6648685, 39.7806925 ], [ 2.6648212, 39.7806743 ], [ 2.6647943, 39.7806517 ], [ 2.6647853, 39.7806202 ], [ 2.6647843, 39.7805976 ], [ 2.6648166, 39.7805797 ], [ 2.664875, 39.7805619 ], [ 2.6649298, 39.7805485 ], [ 2.664947, 39.7805395 ], [ 2.6649654, 39.7805081 ], [ 2.6649678, 39.7804675 ], [ 2.6649622, 39.7804269 ], [ 2.6649357, 39.7803953 ], [ 2.664884, 39.7803682 ], [ 2.6648555, 39.7803636 ], [ 2.6648001, 39.7803679 ], [ 2.6647635, 39.7803903 ], [ 2.6647246, 39.7804217 ], [ 2.6646895, 39.7804442 ], [ 2.6646705, 39.7804486 ], [ 2.66463, 39.780435 ], [ 2.6646217, 39.7804214 ], [ 2.6646207, 39.7804034 ], [ 2.6646259, 39.7803809 ], [ 2.6646345, 39.7803584 ], [ 2.6646328, 39.7803314 ], [ 2.6645959, 39.7803313 ], [ 2.664555, 39.7803357 ], [ 2.6645352, 39.7803627 ], [ 2.664516, 39.7804076 ], [ 2.6644643, 39.780439 ], [ 2.6644219, 39.7804704 ], [ 2.6643823, 39.7805064 ], [ 2.6643296, 39.7805332 ], [ 2.6642448, 39.780551 ], [ 2.664178, 39.7805599 ], [ 2.6641202, 39.7805867 ], [ 2.6640476, 39.780591 ], [ 2.6639706, 39.7805953 ], [ 2.663898, 39.780586 ], [ 2.6638345, 39.7805859 ], [ 2.6637798, 39.7805857 ], [ 2.6637411, 39.7805766 ], [ 2.6637087, 39.7805585 ], [ 2.6636812, 39.7805178 ], [ 2.6636444, 39.7804997 ], [ 2.6636205, 39.7804726 ], [ 2.6635992, 39.780423 ], [ 2.6635972, 39.7803779 ], [ 2.6635956, 39.7803374 ], [ 2.6635808, 39.7802968 ], [ 2.6635785, 39.7802608 ], [ 2.6635797, 39.7802247 ], [ 2.6636003, 39.7801977 ], [ 2.6636351, 39.7801798 ], [ 2.6636529, 39.7801754 ], [ 2.6636916, 39.7801755 ], [ 2.6637183, 39.780162 ], [ 2.6637389, 39.7801306 ], [ 2.6637364, 39.7801171 ], [ 2.6637288, 39.7801035 ], [ 2.6637046, 39.7800584 ], [ 2.6637057, 39.7800449 ], [ 2.6637051, 39.7800314 ], [ 2.6637004, 39.7800133 ], [ 2.6636939, 39.7799998 ], [ 2.6636889, 39.7799908 ], [ 2.6636711, 39.7799682 ], [ 2.6636577, 39.7799591 ], [ 2.6636453, 39.7799456 ], [ 2.6636461, 39.7799321 ], [ 2.6636516, 39.7799231 ], [ 2.6636656, 39.7799006 ], [ 2.6636726, 39.7798916 ], [ 2.663688, 39.7798736 ], [ 2.6637005, 39.7798557 ], [ 2.6637035, 39.7798466 ], [ 2.6637039, 39.7798286 ], [ 2.6637003, 39.7798196 ], [ 2.6637242, 39.7797882 ], [ 2.6637575, 39.7797612 ], [ 2.663783, 39.7797613 ], [ 2.6638268, 39.7797614 ], [ 2.6638775, 39.7797661 ], [ 2.6639036, 39.7797391 ], [ 2.6639569, 39.7797213 ], [ 2.6640566, 39.7797216 ], [ 2.6641511, 39.7797173 ], [ 2.6642475, 39.7797131 ], [ 2.6643252, 39.7797133 ], [ 2.6643683, 39.7796909 ], [ 2.6644293, 39.7796866 ], [ 2.6644881, 39.7796732 ], [ 2.6645368, 39.7796418 ], [ 2.664587, 39.7796104 ], [ 2.6646437, 39.7795791 ], [ 2.6646977, 39.7795702 ], [ 2.6647539, 39.7795839 ], [ 2.664814, 39.7795976 ], [ 2.6648384, 39.7796022 ], [ 2.6648881, 39.7795933 ], [ 2.6649357, 39.7795619 ], [ 2.6649483, 39.7795214 ], [ 2.6649475, 39.7794673 ], [ 2.6649747, 39.7794179 ], [ 2.6650089, 39.7793684 ], [ 2.6650366, 39.7793009 ], [ 2.6650614, 39.7792379 ], [ 2.6651008, 39.7791614 ], [ 2.6651481, 39.7790985 ], [ 2.6651982, 39.7790221 ], [ 2.6652437, 39.7789546 ], [ 2.6652604, 39.7789006 ], [ 2.6652533, 39.77886 ], [ 2.6652188, 39.7788239 ], [ 2.6651704, 39.7788012 ], [ 2.6651545, 39.7787651 ], [ 2.6651522, 39.7787156 ], [ 2.6651495, 39.7786705 ], [ 2.6651293, 39.7786299 ], [ 2.6650959, 39.7785938 ], [ 2.6650661, 39.7785666 ], [ 2.6650176, 39.778553 ], [ 2.6649698, 39.7785393 ], [ 2.664955, 39.7785213 ], [ 2.6649529, 39.7784942 ], [ 2.6649604, 39.7784582 ], [ 2.6649981, 39.7784403 ], [ 2.6650456, 39.7784179 ], [ 2.665134, 39.7784047 ], [ 2.6652111, 39.7783824 ], [ 2.6652455, 39.7783599 ], [ 2.665261, 39.778324 ], [ 2.6652587, 39.7782699 ], [ 2.6652491, 39.7782203 ], [ 2.665227, 39.7781932 ], [ 2.6651847, 39.7781795 ], [ 2.6651727, 39.7781795 ], [ 2.6651471, 39.7781794 ], [ 2.6651297, 39.7781749 ], [ 2.6651236, 39.7781479 ], [ 2.6651314, 39.7781028 ], [ 2.6651474, 39.7780533 ], [ 2.6651392, 39.7780218 ], [ 2.6651368, 39.7779677 ], [ 2.6651501, 39.7779362 ], [ 2.665175, 39.7779182 ], [ 2.6652036, 39.7778958 ], [ 2.6652246, 39.7778598 ], [ 2.6652174, 39.7778238 ], [ 2.6651944, 39.7777606 ], [ 2.6651812, 39.7777065 ], [ 2.6651553, 39.7776119 ], [ 2.6651469, 39.7775442 ], [ 2.6651443, 39.7774812 ], [ 2.6651427, 39.7774451 ], [ 2.66513, 39.7774135 ], [ 2.6651185, 39.777391 ], [ 2.6651172, 39.777355 ], [ 2.6651556, 39.777337 ], [ 2.6651757, 39.7773236 ], [ 2.6651711, 39.7772965 ], [ 2.6651377, 39.7772694 ], [ 2.6650913, 39.7772693 ], [ 2.665056, 39.7772466 ], [ 2.6650446, 39.7772016 ], [ 2.6650068, 39.7771654 ], [ 2.6649617, 39.7771337 ], [ 2.6649582, 39.7771022 ], [ 2.6649573, 39.7770662 ], [ 2.6649698, 39.7770617 ], [ 2.6650048, 39.7770573 ], [ 2.6650635, 39.777053 ], [ 2.6651723, 39.7770443 ], [ 2.6652162, 39.7770354 ], [ 2.6652352, 39.7770219 ], [ 2.6652521, 39.7769994 ], [ 2.6652618, 39.7769544 ], [ 2.6652639, 39.7769049 ], [ 2.6652867, 39.7768644 ], [ 2.6653405, 39.776824 ], [ 2.6654085, 39.7767972 ], [ 2.6654857, 39.7767658 ], [ 2.6655417, 39.77673 ], [ 2.6655686, 39.7766805 ], [ 2.6656158, 39.7766356 ], [ 2.6656566, 39.7765907 ], [ 2.665662, 39.7765321 ], [ 2.6656593, 39.7764735 ], [ 2.6656769, 39.7764015 ], [ 2.6657012, 39.7763295 ], [ 2.665699, 39.7762754 ], [ 2.6656902, 39.7762123 ], [ 2.6656666, 39.7761762 ], [ 2.6656227, 39.776131 ], [ 2.6656027, 39.7760994 ], [ 2.6655942, 39.7760589 ], [ 2.6656207, 39.7760274 ], [ 2.6656562, 39.775987 ], [ 2.6657068, 39.7759375 ], [ 2.6657399, 39.7758881 ], [ 2.665777, 39.7758432 ], [ 2.6657954, 39.7757936 ], [ 2.6657883, 39.7757576 ], [ 2.66577, 39.7757035 ], [ 2.665752, 39.7756584 ], [ 2.665723, 39.7756132 ], [ 2.6656776, 39.7755636 ], [ 2.6656384, 39.7755139 ], [ 2.665597, 39.7754732 ], [ 2.6655541, 39.7754416 ], [ 2.6655082, 39.7754324 ], [ 2.6654859, 39.7754369 ], [ 2.6654391, 39.7754593 ], [ 2.665374, 39.7754996 ], [ 2.6653389, 39.775504 ], [ 2.665309, 39.7754949 ], [ 2.6652631, 39.7754677 ], [ 2.6652173, 39.7754361 ], [ 2.6651653, 39.7754089 ], [ 2.6651177, 39.7753682 ], [ 2.6650996, 39.7753231 ], [ 2.6650963, 39.77526 ], [ 2.6650961, 39.7752195 ], [ 2.6651171, 39.775197 ], [ 2.6651767, 39.7751702 ], [ 2.665226, 39.7751658 ], [ 2.6652658, 39.7751389 ], [ 2.6652759, 39.7750984 ], [ 2.6652705, 39.7750803 ], [ 2.6652368, 39.7750262 ], [ 2.6651865, 39.774963 ], [ 2.6651298, 39.7749132 ], [ 2.6650789, 39.7748636 ], [ 2.6650418, 39.7748319 ], [ 2.6650077, 39.7747913 ], [ 2.664979, 39.7747596 ], [ 2.6649258, 39.774746 ], [ 2.6648821, 39.7747278 ], [ 2.6648325, 39.7746646 ], [ 2.6647908, 39.7746059 ], [ 2.6647385, 39.7745472 ], [ 2.6646621, 39.7745065 ], [ 2.6645911, 39.7744657 ], [ 2.6645224, 39.774425 ], [ 2.6644586, 39.7744158 ], [ 2.6643991, 39.7744156 ], [ 2.6643704, 39.7743885 ], [ 2.6643327, 39.7743343 ], [ 2.6643268, 39.7742757 ], [ 2.6642938, 39.7742261 ], [ 2.6642553, 39.7741809 ], [ 2.6642308, 39.7741178 ], [ 2.6641994, 39.7740636 ], [ 2.6641761, 39.773978 ], [ 2.6641298, 39.7738742 ], [ 2.6640826, 39.773829 ], [ 2.6640426, 39.7737974 ], [ 2.6639968, 39.7737837 ], [ 2.6639358, 39.7737835 ], [ 2.6638936, 39.7737654 ], [ 2.663878, 39.7737518 ], [ 2.663874, 39.7737338 ], [ 2.6638774, 39.7737068 ], [ 2.6638831, 39.7736663 ], [ 2.6639154, 39.7736303 ], [ 2.6639456, 39.7735809 ], [ 2.6639436, 39.7735358 ], [ 2.6639098, 39.7735041 ], [ 2.6638982, 39.7734726 ], [ 2.6638738, 39.7734184 ], [ 2.663833, 39.7733868 ], [ 2.6637653, 39.7733596 ], [ 2.6636934, 39.7733549 ], [ 2.6636372, 39.7733547 ], [ 2.6635862, 39.7733455 ], [ 2.6635571, 39.7733229 ], [ 2.6635416, 39.7732959 ], [ 2.6635304, 39.7732643 ], [ 2.6635225, 39.7732417 ], [ 2.6635207, 39.7732192 ], [ 2.6634996, 39.7732101 ], [ 2.6634522, 39.7732145 ], [ 2.6633877, 39.7731828 ], [ 2.6633372, 39.7731511 ], [ 2.6633245, 39.7731286 ], [ 2.6633258, 39.7730835 ], [ 2.6633555, 39.7730566 ], [ 2.6633877, 39.7730386 ], [ 2.6634345, 39.7730297 ], [ 2.6634893, 39.7730164 ], [ 2.663524, 39.773003 ], [ 2.6635452, 39.7729895 ], [ 2.6635442, 39.7729715 ], [ 2.663526, 39.7729579 ], [ 2.6634848, 39.7729578 ], [ 2.6634432, 39.7729577 ], [ 2.6633937, 39.7729395 ], [ 2.6633673, 39.7728989 ], [ 2.6633831, 39.7728719 ], [ 2.6634224, 39.772809 ], [ 2.6634161, 39.7727504 ], [ 2.6634058, 39.7726963 ], [ 2.6634029, 39.7726242 ], [ 2.6634086, 39.7725792 ], [ 2.6633577, 39.772543 ], [ 2.6632999, 39.7724933 ], [ 2.663252, 39.7724301 ], [ 2.6631848, 39.7723758 ], [ 2.6631087, 39.7723305 ], [ 2.6630205, 39.7723258 ], [ 2.6629411, 39.772294 ], [ 2.6628904, 39.7722758 ], [ 2.6628399, 39.7722442 ], [ 2.6627581, 39.7722394 ], [ 2.6626797, 39.7722482 ], [ 2.6626015, 39.7722705 ], [ 2.6625201, 39.7722702 ], [ 2.6624519, 39.7722565 ], [ 2.6623549, 39.7722608 ], [ 2.6622724, 39.772265 ], [ 2.6621726, 39.7723008 ], [ 2.6621258, 39.7723051 ], [ 2.6621463, 39.7722376 ], [ 2.6629929, 39.7710147 ], [ 2.6633104, 39.7705651 ], [ 2.6637451, 39.7700033 ], [ 2.6637453, 39.7700043 ], [ 2.6637756, 39.7701205 ], [ 2.6638476, 39.7702243 ], [ 2.6640496, 39.770342 ], [ 2.6641887, 39.7706127 ], [ 2.6643643, 39.7707439 ], [ 2.6644603, 39.7709739 ], [ 2.6659169, 39.7710457 ], [ 2.666427, 39.7709706 ], [ 2.6666653, 39.7708046 ], [ 2.6668954, 39.7705304 ], [ 2.6672187, 39.7702295 ], [ 2.6675222, 39.7701763 ], [ 2.6679529, 39.7702947 ], [ 2.6679569, 39.7704434 ], [ 2.6678714, 39.7706954 ], [ 2.6679988, 39.770903 ], [ 2.6682745, 39.7711786 ], [ 2.6682898, 39.7715526 ], [ 2.6688851, 39.7722751 ], [ 2.6696343, 39.7728718 ], [ 2.6696913, 39.7730838 ], [ 2.6698665, 39.7733095 ], [ 2.6703408, 39.773464 ], [ 2.6706137, 39.7734738 ], [ 2.6708404, 39.7735285 ], [ 2.6711078, 39.7736915 ], [ 2.671616, 39.773729 ], [ 2.6719147, 39.773901 ], [ 2.6729521, 39.7741292 ], [ 2.6731686, 39.7743415 ], [ 2.6734258, 39.7744188 ], [ 2.6738941, 39.7744652 ], [ 2.6743628, 39.774444 ], [ 2.6746379, 39.7742961 ], [ 2.6750722, 39.7742747 ], [ 2.6758348, 39.7741327 ], [ 2.676038, 39.7742009 ], [ 2.6761289, 39.7745976 ], [ 2.6762661, 39.774679 ], [ 2.6768031, 39.7743742 ], [ 2.6769107, 39.7740096 ], [ 2.6772563, 39.7739159 ], [ 2.6782762, 39.7743873 ], [ 2.6791913, 39.7747953 ], [ 2.6806749, 39.7760788 ], [ 2.6814497, 39.777 ], [ 2.6822618, 39.7777545 ], [ 2.6838175, 39.7791779 ], [ 2.6861873, 39.7811665 ], [ 2.6883948, 39.7820644 ], [ 2.6932152, 39.7825548 ], [ 2.6961608, 39.7827653 ], [ 2.6974797, 39.7828543 ], [ 2.6978731, 39.7829319 ], [ 2.7000379, 39.783352 ], [ 2.700409, 39.7853172 ], [ 2.7003185, 39.786245 ], [ 2.7016551, 39.7894155 ], [ 2.703604, 39.7939345 ], [ 2.7034049, 39.7969524 ], [ 2.7054362, 39.7961016 ], [ 2.7126294, 39.7947186 ], [ 2.7140311, 39.7957627 ], [ 2.7133656, 39.7971081 ], [ 2.7132855, 39.7981891 ], [ 2.7140621, 39.7991055 ], [ 2.7141518, 39.799313 ], [ 2.7145325, 39.8001969 ], [ 2.7151994, 39.8017888 ], [ 2.7159681, 39.8039441 ], [ 2.7170592, 39.8070012 ], [ 2.7191269, 39.8112229 ], [ 2.7213542, 39.8142421 ], [ 2.7239097, 39.8177036 ], [ 2.7259343, 39.8204475 ], [ 2.7271499, 39.8220947 ], [ 2.728317, 39.823102 ], [ 2.728287, 39.823129 ] ] ] } }
]
}
