{
"type": "FeatureCollection",
"name": "08027",
"features": [
{ "type": "Feature", "properties": { "CCAA": "09 - Cataluña", "PROVINCIA": "08 - Barcelona", "MUNICIPIO": "08027 - Cabanyes, Les", "COD_MUNICIPIO": "08027", "DISTRITO": "01", "SECCION": "0802701001", "V1_H": 81.4, "V1_M": 86.8, "V2_H": 81.08162797, "V2_M": 86.57651574, "V3_H": 81.67802952, "V3_M": 87.10412253 }, "geometry": { "type": "Polygon", "coordinates": [ [ [ 1.6981825, 41.3773511 ], [ 1.6967051, 41.3779158 ], [ 1.6959375, 41.3780462 ], [ 1.692987, 41.3789051 ], [ 1.6915232, 41.379163 ], [ 1.6911907, 41.3777 ], [ 1.6908521, 41.3771466 ], [ 1.6898529, 41.3760529 ], [ 1.6873805, 41.3754155 ], [ 1.685822, 41.37502 ], [ 1.6844758, 41.3750839 ], [ 1.6844776, 41.3741114 ], [ 1.684798, 41.373414 ], [ 1.6848045, 41.3731707 ], [ 1.6850051, 41.3728023 ], [ 1.6852933, 41.3726555 ], [ 1.6863491, 41.3723783 ], [ 1.6877354, 41.3713763 ], [ 1.6877688, 41.3711769 ], [ 1.6872563, 41.3708646 ], [ 1.6860925, 41.370471 ], [ 1.6826923, 41.3697273 ], [ 1.6802939, 41.3689517 ], [ 1.6798078, 41.3686743 ], [ 1.6827967, 41.3670218 ], [ 1.6881474, 41.3643095 ], [ 1.6881474, 41.3643095 ], [ 1.6901049, 41.3657692 ], [ 1.692021, 41.3670064 ], [ 1.6935017, 41.3679624 ], [ 1.6937247, 41.3681064 ], [ 1.6963221, 41.369783 ], [ 1.6960503, 41.3699921 ], [ 1.6954267, 41.370792 ], [ 1.6946906, 41.3715244 ], [ 1.694444, 41.3720837 ], [ 1.6959884, 41.3729479 ], [ 1.6962436, 41.3731716 ], [ 1.6981825, 41.3773511 ] ] ] } }
]
}
