{
"type": "FeatureCollection",
"name": "08035",
"features": [
{ "type": "Feature", "properties": { "CCAA": "09 - Cataluña", "PROVINCIA": "08 - Barcelona", "MUNICIPIO": "08035 - Calella", "COD_MUNICIPIO": "08035", "DISTRITO": "02", "SECCION": "0803502001", "V1_H": 81.13, "V1_M": 86.76, "V2_H": 80.8252038, "V2_M": 86.73512652, "V3_H": 81.48774648, "V3_M": 86.92091474 }, "geometry": { "type": "Polygon", "coordinates": [ [ [ 2.6585331, 41.6179199 ], [ 2.6571655, 41.6188173 ], [ 2.6571736, 41.6187715 ], [ 2.657211, 41.6186045 ], [ 2.6568021, 41.6163059 ], [ 2.657939, 41.6153492 ], [ 2.6579771, 41.6151786 ], [ 2.6581057, 41.6149572 ], [ 2.6584415, 41.6145881 ], [ 2.6590799, 41.6137611 ], [ 2.6589158, 41.6136263 ], [ 2.6590183, 41.6134926 ], [ 2.6592567, 41.6131712 ], [ 2.6593703, 41.6129465 ], [ 2.6598439, 41.6123446 ], [ 2.6599315, 41.6122131 ], [ 2.6602658, 41.6117109 ], [ 2.6623151, 41.6121966 ], [ 2.6613536, 41.6136153 ], [ 2.661335, 41.613641 ], [ 2.6609216, 41.6142177 ], [ 2.6608516, 41.6143219 ], [ 2.6608272, 41.6143582 ], [ 2.6605412, 41.6147622 ], [ 2.6605145, 41.6147981 ], [ 2.660279, 41.6151142 ], [ 2.6599089, 41.6156338 ], [ 2.6596711, 41.6159494 ], [ 2.6591943, 41.6167406 ], [ 2.6592165, 41.6167539 ], [ 2.6591796, 41.6167792 ], [ 2.6584907, 41.6178993 ], [ 2.6585331, 41.6179199 ] ] ] } },
{ "type": "Feature", "properties": { "CCAA": "09 - Cataluña", "PROVINCIA": "08 - Barcelona", "MUNICIPIO": "08035 - Calella", "COD_MUNICIPIO": "08035", "DISTRITO": "03", "SECCION": "0803503004", "V1_H": 80.85, "V1_M": 86.44, "V2_H": 80.47892397, "V2_M": 86.23437891, "V3_H": 81.22204479, "V3_M": 86.80010662 }, "geometry": { "type": "Polygon", "coordinates": [ [ [ 2.6615065, 41.6250238 ], [ 2.6603874, 41.6268297 ], [ 2.6584876, 41.6284639 ], [ 2.658465, 41.6285574 ], [ 2.6584403, 41.6286455 ], [ 2.658316, 41.6286883 ], [ 2.6582394, 41.628718 ], [ 2.6581937, 41.6287766 ], [ 2.6581869, 41.6288837 ], [ 2.6581951, 41.628954 ], [ 2.6571773, 41.6293663 ], [ 2.6556594, 41.6300129 ], [ 2.6539906, 41.6307374 ], [ 2.6531151, 41.6310951 ], [ 2.650779, 41.6321027 ], [ 2.6499876, 41.6324323 ], [ 2.6493051, 41.6327566 ], [ 2.6493059, 41.6330779 ], [ 2.6493976, 41.634037 ], [ 2.6494111, 41.6352709 ], [ 2.6493961, 41.6372583 ], [ 2.6496358, 41.6393467 ], [ 2.6496253, 41.6407379 ], [ 2.646453, 41.6401564 ], [ 2.6458176, 41.6402444 ], [ 2.6434334, 41.6400213 ], [ 2.6417135, 41.6398222 ], [ 2.641103, 41.6400343 ], [ 2.6417956, 41.6392787 ], [ 2.6429272, 41.6389899 ], [ 2.6438235, 41.6389634 ], [ 2.6444484, 41.6387022 ], [ 2.6450737, 41.6383534 ], [ 2.6451152, 41.6378859 ], [ 2.6447685, 41.637154 ], [ 2.6450818, 41.6368627 ], [ 2.6454341, 41.6365715 ], [ 2.6454774, 41.6357824 ], [ 2.6455965, 41.6353736 ], [ 2.645989, 41.6348486 ], [ 2.6463029, 41.6344404 ], [ 2.6460711, 41.6340889 ], [ 2.645801, 41.6335912 ], [ 2.6458033, 41.633182 ], [ 2.6458438, 41.6328898 ], [ 2.6465451, 41.6328919 ], [ 2.6468562, 41.6330098 ], [ 2.6473617, 41.6331867 ], [ 2.6479458, 41.633247 ], [ 2.6484939, 41.6327517 ], [ 2.6490267, 41.6327355 ], [ 2.6491544, 41.6326795 ], [ 2.6489038, 41.6325299 ], [ 2.6509134, 41.631116 ], [ 2.6521794, 41.6310726 ], [ 2.6529488, 41.6305774 ], [ 2.6538608, 41.6297742 ], [ 2.6539047, 41.6296831 ], [ 2.6539223, 41.6294508 ], [ 2.654008, 41.6286561 ], [ 2.6541252, 41.6280694 ], [ 2.6543708, 41.6278745 ], [ 2.6544857, 41.6277281 ], [ 2.6544748, 41.626713 ], [ 2.6549359, 41.6258216 ], [ 2.6549366, 41.6256993 ], [ 2.6549862, 41.6255649 ], [ 2.6551492, 41.6255654 ], [ 2.6553936, 41.6255783 ], [ 2.6556059, 41.6255056 ], [ 2.6559173, 41.6251763 ], [ 2.6559665, 41.6251275 ], [ 2.6562286, 41.6248715 ], [ 2.6564088, 41.6247008 ], [ 2.6566377, 41.6245792 ], [ 2.6569322, 41.6243721 ], [ 2.6567534, 41.6242738 ], [ 2.6567706, 41.6241026 ], [ 2.6574271, 41.6232362 ], [ 2.6576898, 41.6228823 ], [ 2.6573827, 41.62238 ], [ 2.6568354, 41.6210942 ], [ 2.6566102, 41.620531 ], [ 2.656595, 41.6203108 ], [ 2.6566286, 41.6201275 ], [ 2.6567927, 41.6199078 ], [ 2.6570224, 41.6196272 ], [ 2.6571655, 41.6188173 ], [ 2.6585331, 41.6179199 ], [ 2.659525, 41.6184008 ], [ 2.6611654, 41.6185516 ], [ 2.6611983, 41.6185547 ], [ 2.6611829, 41.6185733 ], [ 2.6627133, 41.618904 ], [ 2.6627617, 41.6189145 ], [ 2.6633926, 41.6193167 ], [ 2.6640379, 41.6187793 ], [ 2.6640629, 41.618741 ], [ 2.6654489, 41.6197359 ], [ 2.6660273, 41.6189856 ], [ 2.6660836, 41.61894 ], [ 2.666137, 41.6189095 ], [ 2.6662085, 41.6189469 ], [ 2.6669569, 41.6193005 ], [ 2.6677141, 41.6196823 ], [ 2.6680247, 41.6198325 ], [ 2.6673305, 41.6207012 ], [ 2.6671286, 41.6208789 ], [ 2.6670354, 41.6209609 ], [ 2.6668748, 41.6210206 ], [ 2.6663672, 41.6210191 ], [ 2.6659395, 41.621078 ], [ 2.6647618, 41.6214967 ], [ 2.6646178, 41.6215699 ], [ 2.6623198, 41.6227367 ], [ 2.6620689, 41.6241163 ], [ 2.6615065, 41.6250238 ] ] ] } },
{ "type": "Feature", "properties": { "CCAA": "09 - Cataluña", "PROVINCIA": "08 - Barcelona", "MUNICIPIO": "08035 - Calella", "COD_MUNICIPIO": "08035", "DISTRITO": "01", "SECCION": "0803501003", "V1_H": 80.31, "V1_M": 85.98, "V2_H": 80.51251293, "V2_M": 86.22129475, "V3_H": 80.221823, "V3_M": 85.87405604 }, "geometry": { "type": "Polygon", "coordinates": [ [ [ 2.6377946, 41.6402337 ], [ 2.6371952, 41.6402698 ], [ 2.6325812, 41.6400721 ], [ 2.6305487, 41.6385066 ], [ 2.628538, 41.6381553 ], [ 2.6285384, 41.6381583 ], [ 2.6285379, 41.6381565 ], [ 2.6284965, 41.6379266 ], [ 2.6284913, 41.6378977 ], [ 2.6287871, 41.6372352 ], [ 2.6289229, 41.6369313 ], [ 2.6291132, 41.6360381 ], [ 2.6291187, 41.6360125 ], [ 2.6291185, 41.6360118 ], [ 2.6291178, 41.6360098 ], [ 2.628616, 41.6345158 ], [ 2.6281628, 41.6341614 ], [ 2.62814, 41.6341435 ], [ 2.6281398, 41.6341434 ], [ 2.6281395, 41.6341431 ], [ 2.6281398, 41.6341429 ], [ 2.6281412, 41.6341415 ], [ 2.6283827, 41.6339061 ], [ 2.6287824, 41.6335354 ], [ 2.6289746, 41.6328508 ], [ 2.6293975, 41.6320864 ], [ 2.6293995, 41.6320827 ], [ 2.6293995, 41.6320821 ], [ 2.6293994, 41.632081 ], [ 2.6293856, 41.6317863 ], [ 2.6289909, 41.6313832 ], [ 2.6289904, 41.6313827 ], [ 2.6288483, 41.6310778 ], [ 2.6288427, 41.6310658 ], [ 2.6290284, 41.630133 ], [ 2.6290346, 41.6301022 ], [ 2.6289486, 41.6299489 ], [ 2.6286578, 41.6294303 ], [ 2.6286369, 41.6293931 ], [ 2.6298759, 41.6291607 ], [ 2.6332406, 41.6274283 ], [ 2.6338674, 41.6236725 ], [ 2.6338706, 41.623653 ], [ 2.6333889, 41.62018 ], [ 2.6333846, 41.6201492 ], [ 2.6338392, 41.6191109 ], [ 2.6348105, 41.6168923 ], [ 2.63551, 41.6152946 ], [ 2.635527, 41.6152557 ], [ 2.6362645, 41.613571 ], [ 2.6359635, 41.6116391 ], [ 2.6386059, 41.6069191 ], [ 2.6397821, 41.6048178 ], [ 2.6418971, 41.6059655 ], [ 2.6427896, 41.6058849 ], [ 2.6457288, 41.6072621 ], [ 2.6462958, 41.607296 ], [ 2.6476094, 41.6079148 ], [ 2.6512606, 41.6094817 ], [ 2.6555554, 41.6105834 ], [ 2.6556249, 41.6109728 ], [ 2.6552182, 41.6114861 ], [ 2.655092, 41.6116454 ], [ 2.6548823, 41.6118942 ], [ 2.6548001, 41.6119918 ], [ 2.6546209, 41.61219 ], [ 2.6544591, 41.6123941 ], [ 2.6541618, 41.6127482 ], [ 2.6541466, 41.6127665 ], [ 2.6541215, 41.6128001 ], [ 2.654115, 41.612809 ], [ 2.6538004, 41.6132337 ], [ 2.653621, 41.613538 ], [ 2.6534282, 41.6138883 ], [ 2.6534111, 41.6139295 ], [ 2.6533406, 41.6140995 ], [ 2.653192, 41.6144571 ], [ 2.6531713, 41.6145067 ], [ 2.6531111, 41.6146516 ], [ 2.6530304, 41.6151956 ], [ 2.6530263, 41.6152103 ], [ 2.6530121, 41.6152629 ], [ 2.6529988, 41.6153158 ], [ 2.6529866, 41.6153687 ], [ 2.6529753, 41.6154217 ], [ 2.652965, 41.6154748 ], [ 2.6529556, 41.6155281 ], [ 2.6529471, 41.6155814 ], [ 2.6529395, 41.6156348 ], [ 2.652933, 41.6156883 ], [ 2.6529274, 41.6157419 ], [ 2.6529228, 41.6157954 ], [ 2.652919, 41.6158491 ], [ 2.6529164, 41.6159028 ], [ 2.6529146, 41.6159565 ], [ 2.6529141, 41.6159921 ], [ 2.6529139, 41.6160102 ], [ 2.652914, 41.6160639 ], [ 2.6529151, 41.6161176 ], [ 2.6529172, 41.6161713 ], [ 2.6529202, 41.616225 ], [ 2.6529242, 41.6162786 ], [ 2.6529292, 41.6163321 ], [ 2.652943, 41.6164153 ], [ 2.6529458, 41.6164255 ], [ 2.6529561, 41.6164603 ], [ 2.6529673, 41.616495 ], [ 2.6529796, 41.6165296 ], [ 2.6529927, 41.616564 ], [ 2.6530069, 41.616598 ], [ 2.653021, 41.6166302 ], [ 2.6530218, 41.6166319 ], [ 2.6530377, 41.6166657 ], [ 2.6530546, 41.6166991 ], [ 2.6530723, 41.6167323 ], [ 2.6530908, 41.6167652 ], [ 2.6530931, 41.6167689 ], [ 2.6531102, 41.6167978 ], [ 2.6531306, 41.6168301 ], [ 2.6531518, 41.6168621 ], [ 2.6531739, 41.6168938 ], [ 2.6532656, 41.6170129 ], [ 2.6533053, 41.6170845 ], [ 2.6533441, 41.6171565 ], [ 2.653382, 41.6172287 ], [ 2.6534189, 41.6173011 ], [ 2.653455, 41.6173738 ], [ 2.6534902, 41.6174467 ], [ 2.6535244, 41.61752 ], [ 2.6535578, 41.6175934 ], [ 2.6535903, 41.6176671 ], [ 2.6536218, 41.6177409 ], [ 2.6536525, 41.6178151 ], [ 2.6536822, 41.6178894 ], [ 2.6536881, 41.6179189 ], [ 2.6536977, 41.6179635 ], [ 2.6537083, 41.618008 ], [ 2.6537198, 41.6180522 ], [ 2.6537323, 41.6180964 ], [ 2.6537457, 41.6181404 ], [ 2.65376, 41.6181843 ], [ 2.6537752, 41.618228 ], [ 2.6537915, 41.6182714 ], [ 2.6538086, 41.6183147 ], [ 2.6538267, 41.6183578 ], [ 2.6538457, 41.6184006 ], [ 2.6538655, 41.6184432 ], [ 2.6538862, 41.6184856 ], [ 2.6539079, 41.6185277 ], [ 2.6539305, 41.6185696 ], [ 2.653954, 41.6186112 ], [ 2.6539652, 41.6186333 ], [ 2.6539761, 41.6186569 ], [ 2.653986, 41.6186808 ], [ 2.6539951, 41.6187049 ], [ 2.6540033, 41.6187292 ], [ 2.6540106, 41.6187537 ], [ 2.6540169, 41.6187783 ], [ 2.6540222, 41.618803 ], [ 2.6540267, 41.6188278 ], [ 2.6540301, 41.6188527 ], [ 2.6540326, 41.6188777 ], [ 2.654034, 41.6189026 ], [ 2.6540346, 41.6189277 ], [ 2.6540342, 41.6189527 ], [ 2.654033, 41.6189777 ], [ 2.6540307, 41.6190028 ], [ 2.6540274, 41.6190276 ], [ 2.6540232, 41.6190525 ], [ 2.654018, 41.6190772 ], [ 2.6540139, 41.6190935 ], [ 2.6539402, 41.6193491 ], [ 2.6539198, 41.6194391 ], [ 2.6538983, 41.6195291 ], [ 2.653876, 41.6196189 ], [ 2.6538527, 41.6197086 ], [ 2.6538285, 41.6197982 ], [ 2.6538033, 41.6198876 ], [ 2.6537772, 41.6199768 ], [ 2.6537501, 41.6200659 ], [ 2.6537222, 41.6201549 ], [ 2.6536932, 41.6202436 ], [ 2.6536633, 41.6203322 ], [ 2.6536326, 41.6204206 ], [ 2.6536009, 41.6205089 ], [ 2.6535683, 41.6205969 ], [ 2.6535347, 41.6206847 ], [ 2.6535003, 41.6207724 ], [ 2.6534963, 41.6207787 ], [ 2.6534783, 41.6208065 ], [ 2.6534595, 41.6208341 ], [ 2.6534399, 41.6208614 ], [ 2.6534194, 41.6208884 ], [ 2.6533981, 41.6209149 ], [ 2.6533758, 41.6209412 ], [ 2.6533529, 41.6209669 ], [ 2.6533291, 41.6209923 ], [ 2.6533046, 41.6210172 ], [ 2.6532793, 41.6210417 ], [ 2.6532533, 41.6210659 ], [ 2.6532264, 41.6210895 ], [ 2.653199, 41.6211127 ], [ 2.6531896, 41.6211202 ], [ 2.6531708, 41.6211353 ], [ 2.6531418, 41.6211574 ], [ 2.6531123, 41.6211791 ], [ 2.6530821, 41.6212002 ], [ 2.6530511, 41.6212208 ], [ 2.6530196, 41.6212408 ], [ 2.6529874, 41.6212604 ], [ 2.6529547, 41.6212793 ], [ 2.6529279, 41.6212941 ], [ 2.653028, 41.6213415 ], [ 2.6529661, 41.6213968 ], [ 2.6529233, 41.6214371 ], [ 2.6528131, 41.621577 ], [ 2.652786, 41.6216133 ], [ 2.6527924, 41.621617 ], [ 2.6517448, 41.6226339 ], [ 2.6498962, 41.6235634 ], [ 2.6454138, 41.6251563 ], [ 2.6442632, 41.625937 ], [ 2.643503, 41.6271178 ], [ 2.6421367, 41.6277567 ], [ 2.6410514, 41.6275433 ], [ 2.6405117, 41.6277605 ], [ 2.639021, 41.6281387 ], [ 2.6387093, 41.6292211 ], [ 2.6383611, 41.6298861 ], [ 2.6375344, 41.6303079 ], [ 2.6357326, 41.6381708 ], [ 2.6377946, 41.6402337 ] ] ] } },
{ "type": "Feature", "properties": { "CCAA": "09 - Cataluña", "PROVINCIA": "08 - Barcelona", "MUNICIPIO": "08035 - Calella", "COD_MUNICIPIO": "08035", "DISTRITO": "02", "SECCION": "0803502002", "V1_H": 80.56, "V1_M": 86.09, "V2_H": 80.29410508, "V2_M": 85.89209003000001, "V3_H": 80.91212464, "V3_M": 86.35342073 }, "geometry": { "type": "Polygon", "coordinates": [ [ [ 2.6652493, 41.6128919 ], [ 2.6643744, 41.6140568 ], [ 2.6640693, 41.6145578 ], [ 2.6636131, 41.6152187 ], [ 2.6632375, 41.6157851 ], [ 2.6627522, 41.6165474 ], [ 2.6626382, 41.6167674 ], [ 2.6625436, 41.6169197 ], [ 2.6623566, 41.6172481 ], [ 2.6621853, 41.6174662 ], [ 2.6618521, 41.6177923 ], [ 2.6615303, 41.6181036 ], [ 2.6611654, 41.6185516 ], [ 2.659525, 41.6184008 ], [ 2.6585331, 41.6179199 ], [ 2.6584907, 41.6178993 ], [ 2.6591796, 41.6167792 ], [ 2.6592165, 41.6167539 ], [ 2.6591943, 41.6167406 ], [ 2.6596711, 41.6159494 ], [ 2.6599089, 41.6156338 ], [ 2.660279, 41.6151142 ], [ 2.6605145, 41.6147981 ], [ 2.6605412, 41.6147622 ], [ 2.6608272, 41.6143582 ], [ 2.6608516, 41.6143219 ], [ 2.6609216, 41.6142177 ], [ 2.661335, 41.613641 ], [ 2.6613536, 41.6136153 ], [ 2.6623151, 41.6121966 ], [ 2.6652493, 41.6128919 ] ] ] } },
{ "type": "Feature", "properties": { "CCAA": "09 - Cataluña", "PROVINCIA": "08 - Barcelona", "MUNICIPIO": "08035 - Calella", "COD_MUNICIPIO": "08035", "DISTRITO": "03", "SECCION": "0803503002", "V1_H": 80.31, "V1_M": 86.3, "V2_H": 80.10187432, "V2_M": 86.1135989, "V3_H": 80.75259804, "V3_M": 86.72412179 }, "geometry": { "type": "Polygon", "coordinates": [ [ [ 2.666137, 41.6189095 ], [ 2.6660836, 41.61894 ], [ 2.6660273, 41.6189856 ], [ 2.6654489, 41.6197359 ], [ 2.6640629, 41.618741 ], [ 2.6642114, 41.6184188 ], [ 2.6645474, 41.6179068 ], [ 2.6647344, 41.6175784 ], [ 2.6648875, 41.6173708 ], [ 2.6649977, 41.6171795 ], [ 2.6651197, 41.6169782 ], [ 2.6653822, 41.6165698 ], [ 2.6655654, 41.6162702 ], [ 2.6657405, 41.6159519 ], [ 2.6659659, 41.6156264 ], [ 2.6661887, 41.6152724 ], [ 2.6673734, 41.61345 ], [ 2.6694294, 41.6141749 ], [ 2.6689893, 41.6148734 ], [ 2.6685571, 41.6155903 ], [ 2.6682639, 41.6160097 ], [ 2.6681331, 41.6161829 ], [ 2.6678736, 41.6165173 ], [ 2.6673766, 41.6171826 ], [ 2.6669592, 41.6177415 ], [ 2.6664035, 41.6184914 ], [ 2.666137, 41.6189095 ] ] ] } },
{ "type": "Feature", "properties": { "CCAA": "09 - Cataluña", "PROVINCIA": "08 - Barcelona", "MUNICIPIO": "08035 - Calella", "COD_MUNICIPIO": "08035", "DISTRITO": "03", "SECCION": "0803503001", "V1_H": 80.27, "V1_M": 86.36, "V2_H": 80.04050342, "V2_M": 86.25745667, "V3_H": 80.55487256000001, "V3_M": 86.64917866 }, "geometry": { "type": "Polygon", "coordinates": [ [ [ 2.6640629, 41.618741 ], [ 2.6640379, 41.6187793 ], [ 2.6633926, 41.6193167 ], [ 2.6627617, 41.6189145 ], [ 2.6627133, 41.618904 ], [ 2.6611829, 41.6185733 ], [ 2.6611983, 41.6185547 ], [ 2.6611654, 41.6185516 ], [ 2.6615303, 41.6181036 ], [ 2.6618521, 41.6177923 ], [ 2.6621853, 41.6174662 ], [ 2.6623566, 41.6172481 ], [ 2.6625436, 41.6169197 ], [ 2.6626382, 41.6167674 ], [ 2.6627522, 41.6165474 ], [ 2.6632375, 41.6157851 ], [ 2.6636131, 41.6152187 ], [ 2.6640693, 41.6145578 ], [ 2.6643744, 41.6140568 ], [ 2.6652493, 41.6128919 ], [ 2.6669002, 41.6132831 ], [ 2.6673734, 41.61345 ], [ 2.6661887, 41.6152724 ], [ 2.6659659, 41.6156264 ], [ 2.6657405, 41.6159519 ], [ 2.6655654, 41.6162702 ], [ 2.6653822, 41.6165698 ], [ 2.6651197, 41.6169782 ], [ 2.6649977, 41.6171795 ], [ 2.6648875, 41.6173708 ], [ 2.6647344, 41.6175784 ], [ 2.6645474, 41.6179068 ], [ 2.6642114, 41.6184188 ], [ 2.6640629, 41.618741 ] ] ] } },
{ "type": "Feature", "properties": { "CCAA": "09 - Cataluña", "PROVINCIA": "08 - Barcelona", "MUNICIPIO": "08035 - Calella", "COD_MUNICIPIO": "08035", "DISTRITO": "03", "SECCION": "0803503003", "V1_H": 80.53, "V1_M": 86.43, "V2_H": 80.43347749, "V2_M": 86.30479166000001, "V3_H": 80.8868878, "V3_M": 86.74881461 }, "geometry": { "type": "Polygon", "coordinates": [ [ [ 2.6684597, 41.6192882 ], [ 2.6684278, 41.6193281 ], [ 2.6680247, 41.6198325 ], [ 2.6677141, 41.6196823 ], [ 2.6669569, 41.6193005 ], [ 2.6662085, 41.6189469 ], [ 2.666137, 41.6189095 ], [ 2.6664035, 41.6184914 ], [ 2.6669592, 41.6177415 ], [ 2.6673766, 41.6171826 ], [ 2.6678736, 41.6165173 ], [ 2.6681331, 41.6161829 ], [ 2.6682639, 41.6160097 ], [ 2.6685571, 41.6155903 ], [ 2.6689893, 41.6148734 ], [ 2.6694294, 41.6141749 ], [ 2.6696679, 41.614259 ], [ 2.671084, 41.6147582 ], [ 2.6706819, 41.6153143 ], [ 2.6713103, 41.615521 ], [ 2.6698841, 41.6174623 ], [ 2.6684597, 41.6192882 ] ] ] } },
{ "type": "Feature", "properties": { "CCAA": "09 - Cataluña", "PROVINCIA": "08 - Barcelona", "MUNICIPIO": "08035 - Calella", "COD_MUNICIPIO": "08035", "DISTRITO": "01", "SECCION": "0803501002", "V1_H": 81.0, "V1_M": 86.46, "V2_H": 80.73228769000001, "V2_M": 86.26471443, "V3_H": 81.28044537, "V3_M": 86.73149122 }, "geometry": { "type": "Polygon", "coordinates": [ [ [ 2.6581895, 41.6112601 ], [ 2.6582103, 41.6112238 ], [ 2.6602658, 41.6117109 ], [ 2.6599315, 41.6122131 ], [ 2.6598439, 41.6123446 ], [ 2.6593703, 41.6129465 ], [ 2.6592567, 41.6131712 ], [ 2.6590183, 41.6134926 ], [ 2.6589158, 41.6136263 ], [ 2.6590799, 41.6137611 ], [ 2.6584415, 41.6145881 ], [ 2.6581057, 41.6149572 ], [ 2.6579771, 41.6151786 ], [ 2.657939, 41.6153492 ], [ 2.6568021, 41.6163059 ], [ 2.657211, 41.6186045 ], [ 2.6571736, 41.6187715 ], [ 2.6571655, 41.6188173 ], [ 2.6570224, 41.6196272 ], [ 2.6567927, 41.6199078 ], [ 2.6566286, 41.6201275 ], [ 2.656595, 41.6203108 ], [ 2.6566102, 41.620531 ], [ 2.6568354, 41.6210942 ], [ 2.6573827, 41.62238 ], [ 2.6576898, 41.6228823 ], [ 2.6574271, 41.6232362 ], [ 2.6567706, 41.6241026 ], [ 2.6567534, 41.6242738 ], [ 2.6569322, 41.6243721 ], [ 2.6566377, 41.6245792 ], [ 2.6564088, 41.6247008 ], [ 2.6562286, 41.6248715 ], [ 2.6559665, 41.6251275 ], [ 2.6559173, 41.6251763 ], [ 2.6556059, 41.6255056 ], [ 2.6553936, 41.6255783 ], [ 2.6551492, 41.6255654 ], [ 2.6549862, 41.6255649 ], [ 2.6549366, 41.6256993 ], [ 2.6549359, 41.6258216 ], [ 2.6544748, 41.626713 ], [ 2.6544857, 41.6277281 ], [ 2.6543708, 41.6278745 ], [ 2.6541252, 41.6280694 ], [ 2.654008, 41.6286561 ], [ 2.6539223, 41.6294508 ], [ 2.6539047, 41.6296831 ], [ 2.6538608, 41.6297742 ], [ 2.6529488, 41.6305774 ], [ 2.6521794, 41.6310726 ], [ 2.6509134, 41.631116 ], [ 2.6489038, 41.6325299 ], [ 2.6491544, 41.6326795 ], [ 2.6490267, 41.6327355 ], [ 2.6484939, 41.6327517 ], [ 2.6479458, 41.633247 ], [ 2.6473617, 41.6331867 ], [ 2.6468562, 41.6330098 ], [ 2.6465451, 41.6328919 ], [ 2.6458438, 41.6328898 ], [ 2.6458033, 41.633182 ], [ 2.645801, 41.6335912 ], [ 2.6460711, 41.6340889 ], [ 2.6463029, 41.6344404 ], [ 2.645989, 41.6348486 ], [ 2.6455965, 41.6353736 ], [ 2.6454774, 41.6357824 ], [ 2.6454341, 41.6365715 ], [ 2.6450818, 41.6368627 ], [ 2.6447685, 41.637154 ], [ 2.6451152, 41.6378859 ], [ 2.6450737, 41.6383534 ], [ 2.6444484, 41.6387022 ], [ 2.6438235, 41.6389634 ], [ 2.6429272, 41.6389899 ], [ 2.6417956, 41.6392787 ], [ 2.641103, 41.6400343 ], [ 2.6405695, 41.6400664 ], [ 2.6405764, 41.6379945 ], [ 2.6405766, 41.6379539 ], [ 2.6406795, 41.6373669 ], [ 2.6411559, 41.6335669 ], [ 2.6411864, 41.633204 ], [ 2.6413152, 41.6330869 ], [ 2.6415013, 41.6328846 ], [ 2.6417449, 41.632597 ], [ 2.6419314, 41.6323306 ], [ 2.6423599, 41.6320543 ], [ 2.6425593, 41.631853 ], [ 2.6425603, 41.6318521 ], [ 2.6425494, 41.6312327 ], [ 2.6424993, 41.6305995 ], [ 2.6424962, 41.6305598 ], [ 2.6435378, 41.6300932 ], [ 2.6438806, 41.6298593 ], [ 2.6439243, 41.6296886 ], [ 2.6440105, 41.6295394 ], [ 2.6441966, 41.629337 ], [ 2.6444114, 41.6291028 ], [ 2.6446262, 41.6288578 ], [ 2.6449268, 41.6285491 ], [ 2.6451555, 41.6283576 ], [ 2.6455126, 41.6281344 ], [ 2.6459124, 41.6278901 ], [ 2.6463262, 41.6276991 ], [ 2.646868, 41.6275086 ], [ 2.6473384, 41.6273819 ], [ 2.6477519, 41.6272443 ], [ 2.6480797, 41.6271492 ], [ 2.648486, 41.6269699 ], [ 2.6489574, 41.6267704 ], [ 2.6490788, 41.626629 ], [ 2.649716, 41.6258636 ], [ 2.6499349, 41.6259338 ], [ 2.6501891, 41.6259737 ], [ 2.650728, 41.6260733 ], [ 2.6509743, 41.6261329 ], [ 2.6512306, 41.626123 ], [ 2.6514586, 41.6260596 ], [ 2.6516447, 41.6258679 ], [ 2.6519028, 41.6255057 ], [ 2.6520752, 41.6252072 ], [ 2.6523041, 41.6249729 ], [ 2.6524615, 41.6248132 ], [ 2.6528329, 41.6245581 ], [ 2.6530755, 41.6244414 ], [ 2.653275, 41.6243992 ], [ 2.6535026, 41.6244106 ], [ 2.6538873, 41.6243263 ], [ 2.6540872, 41.6241988 ], [ 2.6541542, 41.6239428 ], [ 2.6541599, 41.6239214 ], [ 2.6540901, 41.6236649 ], [ 2.6540487, 41.6234085 ], [ 2.6539931, 41.6231627 ], [ 2.6539823, 41.6229862 ], [ 2.65398, 41.6229491 ], [ 2.6542097, 41.6225761 ], [ 2.6542991, 41.6224725 ], [ 2.6543151, 41.6224813 ], [ 2.6543401, 41.6224659 ], [ 2.6543402, 41.6224659 ], [ 2.654431, 41.6223841 ], [ 2.6545217, 41.6223249 ], [ 2.6546124, 41.6222771 ], [ 2.654933, 41.6221791 ], [ 2.6550235, 41.6221623 ], [ 2.6551139, 41.6221598 ], [ 2.6552269, 41.62218 ], [ 2.6552685, 41.6221968 ], [ 2.6553132, 41.622217 ], [ 2.6554524, 41.6222882 ], [ 2.6556025, 41.6223876 ], [ 2.6556926, 41.6224389 ], [ 2.6557828, 41.6224731 ], [ 2.6558274, 41.6224834 ], [ 2.6558844, 41.6224903 ], [ 2.6559164, 41.6224928 ], [ 2.6559655, 41.6224931 ], [ 2.6560407, 41.6224858 ], [ 2.6561041, 41.6224676 ], [ 2.6561822, 41.6224386 ], [ 2.6562002, 41.6224244 ], [ 2.6562131, 41.6224113 ], [ 2.6562263, 41.6223948 ], [ 2.656251, 41.622318 ], [ 2.6562612, 41.6222302 ], [ 2.6562593, 41.6222079 ], [ 2.6562548, 41.622158 ], [ 2.6562375, 41.6221057 ], [ 2.6561847, 41.621981 ], [ 2.6561122, 41.6218564 ], [ 2.6560348, 41.6217317 ], [ 2.6559721, 41.6216217 ], [ 2.655924, 41.6215081 ], [ 2.6559048, 41.6214385 ], [ 2.655893, 41.6214055 ], [ 2.6558813, 41.6213729 ], [ 2.6558705, 41.6213401 ], [ 2.6558608, 41.6213071 ], [ 2.6558519, 41.6212741 ], [ 2.6558441, 41.6212409 ], [ 2.6558372, 41.6212075 ], [ 2.6558354, 41.6211938 ], [ 2.6558352, 41.6211885 ], [ 2.6558338, 41.621177 ], [ 2.6558314, 41.6211656 ], [ 2.655828, 41.6211543 ], [ 2.6558238, 41.6211431 ], [ 2.6558187, 41.6211322 ], [ 2.6558126, 41.6211216 ], [ 2.6558056, 41.6211112 ], [ 2.6557979, 41.6211012 ], [ 2.6557892, 41.6210916 ], [ 2.6557798, 41.6210824 ], [ 2.6557698, 41.6210736 ], [ 2.6557589, 41.6210654 ], [ 2.6557474, 41.6210577 ], [ 2.6557353, 41.6210504 ], [ 2.6557227, 41.6210438 ], [ 2.6557095, 41.6210379 ], [ 2.6556958, 41.6210325 ], [ 2.6556817, 41.6210278 ], [ 2.6556673, 41.6210237 ], [ 2.6556525, 41.6210203 ], [ 2.6556375, 41.6210176 ], [ 2.6556222, 41.6210157 ], [ 2.655607, 41.6210144 ], [ 2.655597, 41.621014 ], [ 2.6555283, 41.621005 ], [ 2.6554532, 41.6209982 ], [ 2.6553903, 41.6209892 ], [ 2.6553757, 41.6209877 ], [ 2.6553575, 41.6209824 ], [ 2.6553397, 41.6209766 ], [ 2.6553224, 41.62097 ], [ 2.6553055, 41.6209629 ], [ 2.655289, 41.6209552 ], [ 2.6552733, 41.6209467 ], [ 2.655258, 41.6209378 ], [ 2.6552432, 41.6209284 ], [ 2.6552293, 41.6209183 ], [ 2.6552158, 41.6209077 ], [ 2.6552032, 41.6208967 ], [ 2.6551912, 41.6208852 ], [ 2.6551801, 41.6208733 ], [ 2.6551698, 41.620861 ], [ 2.6551603, 41.6208483 ], [ 2.6551517, 41.6208353 ], [ 2.6551438, 41.620822 ], [ 2.6551369, 41.6208084 ], [ 2.6551309, 41.6207945 ], [ 2.6551258, 41.6207805 ], [ 2.6551216, 41.6207663 ], [ 2.6551185, 41.6207519 ], [ 2.6551161, 41.6207375 ], [ 2.6551149, 41.620723 ], [ 2.6551148, 41.6207205 ], [ 2.6551159, 41.6206903 ], [ 2.6551174, 41.6206452 ], [ 2.6551236, 41.6205811 ], [ 2.655126, 41.6205446 ], [ 2.6551293, 41.6205083 ], [ 2.6551335, 41.6204719 ], [ 2.6551388, 41.6204356 ], [ 2.655145, 41.6203994 ], [ 2.6551521, 41.6203633 ], [ 2.6551602, 41.6203272 ], [ 2.6551692, 41.6202914 ], [ 2.6551792, 41.6202557 ], [ 2.6551901, 41.6202201 ], [ 2.6552011, 41.6201873 ], [ 2.6552101, 41.6201654 ], [ 2.65522, 41.6201437 ], [ 2.655231, 41.6201223 ], [ 2.6552427, 41.6201011 ], [ 2.6552553, 41.6200802 ], [ 2.6552689, 41.6200596 ], [ 2.6552832, 41.6200394 ], [ 2.6552983, 41.6200195 ], [ 2.6553144, 41.6199999 ], [ 2.6553313, 41.6199808 ], [ 2.6553489, 41.6199621 ], [ 2.6553673, 41.6199438 ], [ 2.6553865, 41.6199259 ], [ 2.6554064, 41.6199085 ], [ 2.655427, 41.6198915 ], [ 2.6554483, 41.6198751 ], [ 2.6554669, 41.6198618 ], [ 2.6554804, 41.6198524 ], [ 2.6554933, 41.6198427 ], [ 2.6555055, 41.6198324 ], [ 2.6555169, 41.6198217 ], [ 2.6555275, 41.6198105 ], [ 2.6555374, 41.6197989 ], [ 2.6555465, 41.619787 ], [ 2.6555547, 41.6197747 ], [ 2.6555621, 41.6197622 ], [ 2.6555686, 41.6197493 ], [ 2.6555741, 41.6197362 ], [ 2.6555788, 41.619723 ], [ 2.6555825, 41.6197094 ], [ 2.6555853, 41.6196958 ], [ 2.655587, 41.6196822 ], [ 2.6555879, 41.6196685 ], [ 2.6555878, 41.6196547 ], [ 2.6555869, 41.6196437 ], [ 2.6555867, 41.619641 ], [ 2.6555847, 41.6196273 ], [ 2.6555816, 41.6196138 ], [ 2.6555778, 41.6196003 ], [ 2.6555729, 41.6195871 ], [ 2.6555671, 41.619574 ], [ 2.6555604, 41.6195612 ], [ 2.6555584, 41.6195579 ], [ 2.6555388, 41.6195411 ], [ 2.6555185, 41.6195249 ], [ 2.6554976, 41.6195093 ], [ 2.6554759, 41.6194941 ], [ 2.6554537, 41.6194795 ], [ 2.6554308, 41.6194654 ], [ 2.6554073, 41.6194519 ], [ 2.6553832, 41.619439 ], [ 2.6553586, 41.6194267 ], [ 2.6553449, 41.6194201 ], [ 2.6553261, 41.6194132 ], [ 2.6553078, 41.6194057 ], [ 2.6552899, 41.6193975 ], [ 2.6552725, 41.6193887 ], [ 2.6552558, 41.6193795 ], [ 2.6552396, 41.6193695 ], [ 2.655224, 41.619359 ], [ 2.6552091, 41.619348 ], [ 2.6551949, 41.6193366 ], [ 2.6551814, 41.6193245 ], [ 2.6551688, 41.6193121 ], [ 2.6551567, 41.6192992 ], [ 2.6551456, 41.619286 ], [ 2.6551352, 41.6192724 ], [ 2.6551257, 41.6192584 ], [ 2.6551171, 41.6192442 ], [ 2.6551093, 41.6192296 ], [ 2.6551025, 41.6192148 ], [ 2.6550965, 41.6191997 ], [ 2.6550915, 41.6191845 ], [ 2.6550874, 41.6191692 ], [ 2.6550844, 41.6191536 ], [ 2.6550822, 41.6191381 ], [ 2.6550809, 41.6191224 ], [ 2.6550807, 41.6191067 ], [ 2.6550813, 41.619091 ], [ 2.6550817, 41.6190879 ], [ 2.655083, 41.6190755 ], [ 2.6550856, 41.6190599 ], [ 2.6550874, 41.6190518 ], [ 2.6550917, 41.6190382 ], [ 2.6550969, 41.619025 ], [ 2.6551031, 41.6190119 ], [ 2.6551103, 41.618999 ], [ 2.6551183, 41.6189865 ], [ 2.655127, 41.6189743 ], [ 2.6551366, 41.6189624 ], [ 2.6551471, 41.618951 ], [ 2.6551584, 41.61894 ], [ 2.6551703, 41.6189294 ], [ 2.655183, 41.6189192 ], [ 2.6551963, 41.6189096 ], [ 2.6552104, 41.6189006 ], [ 2.655225, 41.6188921 ], [ 2.6552403, 41.6188842 ], [ 2.6552559, 41.6188768 ], [ 2.6552722, 41.6188701 ], [ 2.6552888, 41.6188641 ], [ 2.6553058, 41.6188586 ], [ 2.6553232, 41.6188539 ], [ 2.6553409, 41.6188499 ], [ 2.6553589, 41.6188465 ], [ 2.6553771, 41.6188439 ], [ 2.6553953, 41.6188419 ], [ 2.6554074, 41.6188411 ], [ 2.6554268, 41.6188426 ], [ 2.6554462, 41.6188433 ], [ 2.6554658, 41.6188434 ], [ 2.6554854, 41.6188427 ], [ 2.6555049, 41.6188414 ], [ 2.6555243, 41.6188393 ], [ 2.6555434, 41.6188365 ], [ 2.6555625, 41.618833 ], [ 2.6555812, 41.6188288 ], [ 2.6555996, 41.618824 ], [ 2.6556178, 41.6188184 ], [ 2.6556354, 41.6188122 ], [ 2.6556528, 41.6188053 ], [ 2.6556696, 41.6187979 ], [ 2.6556858, 41.6187898 ], [ 2.6557016, 41.6187811 ], [ 2.6557168, 41.6187718 ], [ 2.6557314, 41.6187621 ], [ 2.6557452, 41.6187517 ], [ 2.6557585, 41.6187409 ], [ 2.6557638, 41.6187363 ], [ 2.6557707, 41.6187243 ], [ 2.6557769, 41.6187122 ], [ 2.655782, 41.6186999 ], [ 2.6557863, 41.6186873 ], [ 2.6557896, 41.6186745 ], [ 2.655792, 41.6186617 ], [ 2.6557934, 41.6186487 ], [ 2.655794, 41.6186358 ], [ 2.6557935, 41.6186228 ], [ 2.6557927, 41.6186162 ], [ 2.655792, 41.6186099 ], [ 2.6557896, 41.618597 ], [ 2.6557862, 41.6185842 ], [ 2.655782, 41.6185717 ], [ 2.6557768, 41.6185593 ], [ 2.6557707, 41.6185472 ], [ 2.6557637, 41.6185353 ], [ 2.6557558, 41.6185237 ], [ 2.6557471, 41.6185125 ], [ 2.6557376, 41.6185017 ], [ 2.6557273, 41.6184913 ], [ 2.6557162, 41.6184813 ], [ 2.6557043, 41.6184718 ], [ 2.6556919, 41.6184628 ], [ 2.6556788, 41.6184543 ], [ 2.6556651, 41.6184464 ], [ 2.6556541, 41.6184407 ], [ 2.6556213, 41.6184269 ], [ 2.655589, 41.6184126 ], [ 2.6555571, 41.6183976 ], [ 2.6555258, 41.6183821 ], [ 2.655495, 41.6183658 ], [ 2.6554648, 41.6183491 ], [ 2.6554351, 41.6183317 ], [ 2.6554062, 41.6183139 ], [ 2.6553777, 41.6182954 ], [ 2.65535, 41.6182764 ], [ 2.6553228, 41.6182569 ], [ 2.6552964, 41.6182369 ], [ 2.6552707, 41.6182164 ], [ 2.6552456, 41.6181953 ], [ 2.6552213, 41.6181738 ], [ 2.6552168, 41.6181697 ], [ 2.6551925, 41.6181382 ], [ 2.6551692, 41.6181063 ], [ 2.6551466, 41.618074 ], [ 2.6551249, 41.6180416 ], [ 2.6551042, 41.6180087 ], [ 2.6550843, 41.6179755 ], [ 2.6550653, 41.6179421 ], [ 2.655047, 41.6179084 ], [ 2.6550298, 41.6178744 ], [ 2.6550134, 41.6178402 ], [ 2.654998, 41.6178056 ], [ 2.6549834, 41.617771 ], [ 2.6549817, 41.6177665 ], [ 2.6549297, 41.6176683 ], [ 2.6548769, 41.6175705 ], [ 2.6548233, 41.6174729 ], [ 2.6547936, 41.6174195 ], [ 2.6547815, 41.6173939 ], [ 2.6547703, 41.6173682 ], [ 2.6547602, 41.6173422 ], [ 2.6547508, 41.617316 ], [ 2.6547425, 41.6172897 ], [ 2.6547351, 41.6172632 ], [ 2.6547287, 41.6172365 ], [ 2.6547231, 41.6172097 ], [ 2.6547185, 41.6171829 ], [ 2.6547149, 41.6171559 ], [ 2.6547122, 41.6171289 ], [ 2.6547106, 41.6171019 ], [ 2.6547097, 41.6170748 ], [ 2.65471, 41.6170477 ], [ 2.6547102, 41.6170427 ], [ 2.6547111, 41.6170205 ], [ 2.6547133, 41.6169936 ], [ 2.6547164, 41.6169665 ], [ 2.6547204, 41.6169396 ], [ 2.6547254, 41.6169128 ], [ 2.6547229, 41.6168984 ], [ 2.6547234, 41.6168833 ], [ 2.6547241, 41.6168654 ], [ 2.6547241, 41.6168628 ], [ 2.6547242, 41.6168324 ], [ 2.6547241, 41.6168279 ], [ 2.6547234, 41.6167994 ], [ 2.6547218, 41.6167665 ], [ 2.6547191, 41.6167336 ], [ 2.6547154, 41.6167007 ], [ 2.6547109, 41.6166679 ], [ 2.6547054, 41.6166352 ], [ 2.6546989, 41.6166026 ], [ 2.6546914, 41.61657 ], [ 2.6546831, 41.6165377 ], [ 2.6546738, 41.6165055 ], [ 2.6546635, 41.6164734 ], [ 2.6546524, 41.6164415 ], [ 2.6546499, 41.6164348 ], [ 2.654639, 41.6163953 ], [ 2.6546293, 41.6163557 ], [ 2.6546204, 41.616316 ], [ 2.6546124, 41.6162761 ], [ 2.6546112, 41.6162696 ], [ 2.6546054, 41.6162362 ], [ 2.6545995, 41.6161962 ], [ 2.6545944, 41.6161562 ], [ 2.6545904, 41.616116 ], [ 2.6545881, 41.6160893 ], [ 2.6545879, 41.6160867 ], [ 2.654584, 41.6160598 ], [ 2.654579, 41.6160303 ], [ 2.6545729, 41.6160011 ], [ 2.654566, 41.6159719 ], [ 2.6545582, 41.6159429 ], [ 2.6545493, 41.6159141 ], [ 2.6545405, 41.6158885 ], [ 2.6545395, 41.6158853 ], [ 2.6545288, 41.6158568 ], [ 2.6545172, 41.6158285 ], [ 2.6545046, 41.6158005 ], [ 2.6544912, 41.6157726 ], [ 2.6544769, 41.615745 ], [ 2.6544616, 41.6157176 ], [ 2.6544456, 41.6156906 ], [ 2.6544286, 41.6156638 ], [ 2.6544196, 41.6156504 ], [ 2.6544028, 41.6156228 ], [ 2.6543871, 41.615595 ], [ 2.6543722, 41.6155669 ], [ 2.6543581, 41.6155385 ], [ 2.6543451, 41.6155099 ], [ 2.6543329, 41.6154811 ], [ 2.6543216, 41.615452 ], [ 2.6543114, 41.6154228 ], [ 2.6543019, 41.6153934 ], [ 2.6542957, 41.6153718 ], [ 2.6542938, 41.6153587 ], [ 2.6542929, 41.6153458 ], [ 2.654293, 41.6153326 ], [ 2.654294, 41.6153197 ], [ 2.6542942, 41.6153187 ], [ 2.654294, 41.6153175 ], [ 2.6542932, 41.6153046 ], [ 2.6542932, 41.6152914 ], [ 2.6542942, 41.6152785 ], [ 2.6542964, 41.6152655 ], [ 2.6542993, 41.6152526 ], [ 2.6543013, 41.6152464 ], [ 2.6543033, 41.6152398 ], [ 2.654308, 41.6152274 ], [ 2.6543138, 41.615215 ], [ 2.6543204, 41.6152029 ], [ 2.6543278, 41.6151911 ], [ 2.6543363, 41.6151797 ], [ 2.6543455, 41.6151686 ], [ 2.6543555, 41.6151579 ], [ 2.6543663, 41.6151476 ], [ 2.6543778, 41.6151378 ], [ 2.6543831, 41.6151337 ], [ 2.6544059, 41.6151222 ], [ 2.6544291, 41.6151112 ], [ 2.6544529, 41.615101 ], [ 2.6544772, 41.6150914 ], [ 2.6545019, 41.6150824 ], [ 2.654527, 41.6150741 ], [ 2.6545525, 41.6150663 ], [ 2.6545782, 41.6150594 ], [ 2.6546044, 41.615053 ], [ 2.6546309, 41.6150473 ], [ 2.6546574, 41.6150424 ], [ 2.6546843, 41.6150381 ], [ 2.6547113, 41.6150346 ], [ 2.6547386, 41.6150318 ], [ 2.6547658, 41.6150297 ], [ 2.6547932, 41.6150284 ], [ 2.6548207, 41.6150277 ], [ 2.6548481, 41.6150277 ], [ 2.6548755, 41.6150285 ], [ 2.6549029, 41.61503 ], [ 2.6549087, 41.6150304 ], [ 2.6549372, 41.6150365 ], [ 2.654966, 41.6150418 ], [ 2.654995, 41.6150464 ], [ 2.6550242, 41.6150504 ], [ 2.6550535, 41.6150537 ], [ 2.6550829, 41.6150562 ], [ 2.6551126, 41.615058 ], [ 2.6551421, 41.6150591 ], [ 2.6551717, 41.6150594 ], [ 2.6552015, 41.6150591 ], [ 2.655231, 41.615058 ], [ 2.6552607, 41.6150562 ], [ 2.6552901, 41.6150536 ], [ 2.6553194, 41.6150504 ], [ 2.6553486, 41.6150465 ], [ 2.6553678, 41.6150434 ], [ 2.6553916, 41.6150373 ], [ 2.6554007, 41.6150347 ], [ 2.6554153, 41.6150305 ], [ 2.6554385, 41.6150231 ], [ 2.6554613, 41.6150151 ], [ 2.6554837, 41.6150063 ], [ 2.6555056, 41.6149969 ], [ 2.655527, 41.614987 ], [ 2.655548, 41.6149764 ], [ 2.6555684, 41.6149652 ], [ 2.6555882, 41.6149535 ], [ 2.6556074, 41.6149412 ], [ 2.6556259, 41.6149283 ], [ 2.6556438, 41.6149149 ], [ 2.655661, 41.6149011 ], [ 2.6556775, 41.6148867 ], [ 2.6556933, 41.6148719 ], [ 2.6557082, 41.6148566 ], [ 2.6557171, 41.6148465 ], [ 2.6557182, 41.6148452 ], [ 2.655731, 41.6148202 ], [ 2.6557457, 41.6147939 ], [ 2.6557612, 41.614768 ], [ 2.6557775, 41.6147424 ], [ 2.6557947, 41.614717 ], [ 2.6558127, 41.6146921 ], [ 2.6558316, 41.6146674 ], [ 2.6558513, 41.6146431 ], [ 2.6558718, 41.6146192 ], [ 2.6558931, 41.6145958 ], [ 2.6559152, 41.6145727 ], [ 2.6559382, 41.6145501 ], [ 2.6559385, 41.6145498 ], [ 2.6559618, 41.6145279 ], [ 2.6559862, 41.6145062 ], [ 2.6560114, 41.6144849 ], [ 2.6560372, 41.6144641 ], [ 2.656045, 41.6144581 ], [ 2.6560942, 41.6144232 ], [ 2.6561428, 41.6143878 ], [ 2.6561907, 41.614352 ], [ 2.6562379, 41.6143155 ], [ 2.6562604, 41.614298 ], [ 2.6563624, 41.6143148 ], [ 2.6565043, 41.6143208 ], [ 2.656634, 41.6139451 ], [ 2.6567964, 41.6134513 ], [ 2.6568047, 41.613453 ], [ 2.6568528, 41.6134376 ], [ 2.6568982, 41.6133557 ], [ 2.6570316, 41.6133896 ], [ 2.6570941, 41.6132602 ], [ 2.6570953, 41.6132577 ], [ 2.657097, 41.6132583 ], [ 2.6570963, 41.6132482 ], [ 2.6570939, 41.6132121 ], [ 2.6571653, 41.6130754 ], [ 2.6572285, 41.6129451 ], [ 2.657364, 41.612679 ], [ 2.6575397, 41.612375 ], [ 2.6575601, 41.6123621 ], [ 2.6578331, 41.6118841 ], [ 2.657888, 41.6117879 ], [ 2.6581895, 41.6112601 ] ] ] } },
{ "type": "Feature", "properties": { "CCAA": "09 - Cataluña", "PROVINCIA": "08 - Barcelona", "MUNICIPIO": "08035 - Calella", "COD_MUNICIPIO": "08035", "DISTRITO": "01", "SECCION": "0803501001", "V1_H": 80.06, "V1_M": 86.09, "V2_H": 79.80248703, "V2_M": 86.14116428, "V3_H": 80.46064959, "V3_M": 86.17412372 }, "geometry": { "type": "Polygon", "coordinates": [ [ [ 2.6405695, 41.6400664 ], [ 2.6405694, 41.6400664 ], [ 2.6377946, 41.6402337 ], [ 2.6357326, 41.6381708 ], [ 2.6375344, 41.6303079 ], [ 2.6383611, 41.6298861 ], [ 2.6387093, 41.6292211 ], [ 2.639021, 41.6281387 ], [ 2.6405117, 41.6277605 ], [ 2.6410514, 41.6275433 ], [ 2.6421367, 41.6277567 ], [ 2.643503, 41.6271178 ], [ 2.6442632, 41.625937 ], [ 2.6454138, 41.6251563 ], [ 2.6498962, 41.6235634 ], [ 2.6517448, 41.6226339 ], [ 2.6527924, 41.621617 ], [ 2.652786, 41.6216133 ], [ 2.6528131, 41.621577 ], [ 2.6529233, 41.6214371 ], [ 2.6529661, 41.6213968 ], [ 2.653028, 41.6213415 ], [ 2.6529279, 41.6212941 ], [ 2.6529547, 41.6212793 ], [ 2.6529874, 41.6212604 ], [ 2.6530196, 41.6212408 ], [ 2.6530511, 41.6212208 ], [ 2.6530821, 41.6212002 ], [ 2.6531123, 41.6211791 ], [ 2.6531418, 41.6211574 ], [ 2.6531708, 41.6211353 ], [ 2.6531896, 41.6211202 ], [ 2.653199, 41.6211127 ], [ 2.6532264, 41.6210895 ], [ 2.6532533, 41.6210659 ], [ 2.6532793, 41.6210417 ], [ 2.6533046, 41.6210172 ], [ 2.6533291, 41.6209923 ], [ 2.6533529, 41.6209669 ], [ 2.6533758, 41.6209412 ], [ 2.6533981, 41.6209149 ], [ 2.6534194, 41.6208884 ], [ 2.6534399, 41.6208614 ], [ 2.6534595, 41.6208341 ], [ 2.6534783, 41.6208065 ], [ 2.6534963, 41.6207787 ], [ 2.6535003, 41.6207724 ], [ 2.6535347, 41.6206847 ], [ 2.6535683, 41.6205969 ], [ 2.6536009, 41.6205089 ], [ 2.6536326, 41.6204206 ], [ 2.6536633, 41.6203322 ], [ 2.6536932, 41.6202436 ], [ 2.6537222, 41.6201549 ], [ 2.6537501, 41.6200659 ], [ 2.6537772, 41.6199768 ], [ 2.6538033, 41.6198876 ], [ 2.6538285, 41.6197982 ], [ 2.6538527, 41.6197086 ], [ 2.653876, 41.6196189 ], [ 2.6538983, 41.6195291 ], [ 2.6539198, 41.6194391 ], [ 2.6539402, 41.6193491 ], [ 2.6540139, 41.6190935 ], [ 2.654018, 41.6190772 ], [ 2.6540232, 41.6190525 ], [ 2.6540274, 41.6190276 ], [ 2.6540307, 41.6190028 ], [ 2.654033, 41.6189777 ], [ 2.6540342, 41.6189527 ], [ 2.6540346, 41.6189277 ], [ 2.654034, 41.6189026 ], [ 2.6540326, 41.6188777 ], [ 2.6540301, 41.6188527 ], [ 2.6540267, 41.6188278 ], [ 2.6540222, 41.618803 ], [ 2.6540169, 41.6187783 ], [ 2.6540106, 41.6187537 ], [ 2.6540033, 41.6187292 ], [ 2.6539951, 41.6187049 ], [ 2.653986, 41.6186808 ], [ 2.6539761, 41.6186569 ], [ 2.6539652, 41.6186333 ], [ 2.653954, 41.6186112 ], [ 2.6539305, 41.6185696 ], [ 2.6539079, 41.6185277 ], [ 2.6538862, 41.6184856 ], [ 2.6538655, 41.6184432 ], [ 2.6538457, 41.6184006 ], [ 2.6538267, 41.6183578 ], [ 2.6538086, 41.6183147 ], [ 2.6537915, 41.6182714 ], [ 2.6537752, 41.618228 ], [ 2.65376, 41.6181843 ], [ 2.6537457, 41.6181404 ], [ 2.6537323, 41.6180964 ], [ 2.6537198, 41.6180522 ], [ 2.6537083, 41.618008 ], [ 2.6536977, 41.6179635 ], [ 2.6536881, 41.6179189 ], [ 2.6536822, 41.6178894 ], [ 2.6536525, 41.6178151 ], [ 2.6536218, 41.6177409 ], [ 2.6535903, 41.6176671 ], [ 2.6535578, 41.6175934 ], [ 2.6535244, 41.61752 ], [ 2.6534902, 41.6174467 ], [ 2.653455, 41.6173738 ], [ 2.6534189, 41.6173011 ], [ 2.653382, 41.6172287 ], [ 2.6533441, 41.6171565 ], [ 2.6533053, 41.6170845 ], [ 2.6532656, 41.6170129 ], [ 2.6531739, 41.6168938 ], [ 2.6531518, 41.6168621 ], [ 2.6531306, 41.6168301 ], [ 2.6531102, 41.6167978 ], [ 2.6530931, 41.6167689 ], [ 2.6530908, 41.6167652 ], [ 2.6530723, 41.6167323 ], [ 2.6530546, 41.6166991 ], [ 2.6530377, 41.6166657 ], [ 2.6530218, 41.6166319 ], [ 2.653021, 41.6166302 ], [ 2.6530069, 41.616598 ], [ 2.6529927, 41.616564 ], [ 2.6529796, 41.6165296 ], [ 2.6529673, 41.616495 ], [ 2.6529561, 41.6164603 ], [ 2.6529458, 41.6164255 ], [ 2.652943, 41.6164153 ], [ 2.6529292, 41.6163321 ], [ 2.6529242, 41.6162786 ], [ 2.6529202, 41.616225 ], [ 2.6529172, 41.6161713 ], [ 2.6529151, 41.6161176 ], [ 2.652914, 41.6160639 ], [ 2.6529139, 41.6160102 ], [ 2.6529141, 41.6159921 ], [ 2.6529146, 41.6159565 ], [ 2.6529164, 41.6159028 ], [ 2.652919, 41.6158491 ], [ 2.6529228, 41.6157954 ], [ 2.6529274, 41.6157419 ], [ 2.652933, 41.6156883 ], [ 2.6529395, 41.6156348 ], [ 2.6529471, 41.6155814 ], [ 2.6529556, 41.6155281 ], [ 2.652965, 41.6154748 ], [ 2.6529753, 41.6154217 ], [ 2.6529866, 41.6153687 ], [ 2.6529988, 41.6153158 ], [ 2.6530121, 41.6152629 ], [ 2.6530263, 41.6152103 ], [ 2.6530304, 41.6151956 ], [ 2.6531111, 41.6146516 ], [ 2.6531713, 41.6145067 ], [ 2.653192, 41.6144571 ], [ 2.6533406, 41.6140995 ], [ 2.6534111, 41.6139295 ], [ 2.6534282, 41.6138883 ], [ 2.653621, 41.613538 ], [ 2.6538004, 41.6132337 ], [ 2.654115, 41.612809 ], [ 2.6541215, 41.6128001 ], [ 2.6541466, 41.6127665 ], [ 2.6541618, 41.6127482 ], [ 2.6544591, 41.6123941 ], [ 2.6546209, 41.61219 ], [ 2.6548001, 41.6119918 ], [ 2.6548823, 41.6118942 ], [ 2.655092, 41.6116454 ], [ 2.6552182, 41.6114861 ], [ 2.6556249, 41.6109728 ], [ 2.6558998, 41.6107173 ], [ 2.6569989, 41.6109778 ], [ 2.6581895, 41.6112601 ], [ 2.657888, 41.6117879 ], [ 2.6578331, 41.6118841 ], [ 2.6575601, 41.6123621 ], [ 2.6575397, 41.612375 ], [ 2.657364, 41.612679 ], [ 2.6572285, 41.6129451 ], [ 2.6571653, 41.6130754 ], [ 2.6570939, 41.6132121 ], [ 2.6570963, 41.6132482 ], [ 2.657097, 41.6132583 ], [ 2.6570953, 41.6132577 ], [ 2.6570941, 41.6132602 ], [ 2.6570316, 41.6133896 ], [ 2.6568982, 41.6133557 ], [ 2.6568528, 41.6134376 ], [ 2.6568047, 41.613453 ], [ 2.6567964, 41.6134513 ], [ 2.656634, 41.6139451 ], [ 2.6565043, 41.6143208 ], [ 2.6563624, 41.6143148 ], [ 2.6562604, 41.614298 ], [ 2.6562379, 41.6143155 ], [ 2.6561907, 41.614352 ], [ 2.6561428, 41.6143878 ], [ 2.6560942, 41.6144232 ], [ 2.656045, 41.6144581 ], [ 2.6560372, 41.6144641 ], [ 2.6560114, 41.6144849 ], [ 2.6559862, 41.6145062 ], [ 2.6559618, 41.6145279 ], [ 2.6559385, 41.6145498 ], [ 2.6559382, 41.6145501 ], [ 2.6559152, 41.6145727 ], [ 2.6558931, 41.6145958 ], [ 2.6558718, 41.6146192 ], [ 2.6558513, 41.6146431 ], [ 2.6558316, 41.6146674 ], [ 2.6558127, 41.6146921 ], [ 2.6557947, 41.614717 ], [ 2.6557775, 41.6147424 ], [ 2.6557612, 41.614768 ], [ 2.6557457, 41.6147939 ], [ 2.655731, 41.6148202 ], [ 2.6557182, 41.6148452 ], [ 2.6557171, 41.6148465 ], [ 2.6557082, 41.6148566 ], [ 2.6556933, 41.6148719 ], [ 2.6556775, 41.6148867 ], [ 2.655661, 41.6149011 ], [ 2.6556438, 41.6149149 ], [ 2.6556259, 41.6149283 ], [ 2.6556074, 41.6149412 ], [ 2.6555882, 41.6149535 ], [ 2.6555684, 41.6149652 ], [ 2.655548, 41.6149764 ], [ 2.655527, 41.614987 ], [ 2.6555056, 41.6149969 ], [ 2.6554837, 41.6150063 ], [ 2.6554613, 41.6150151 ], [ 2.6554385, 41.6150231 ], [ 2.6554153, 41.6150305 ], [ 2.6554007, 41.6150347 ], [ 2.6553916, 41.6150373 ], [ 2.6553678, 41.6150434 ], [ 2.6553486, 41.6150465 ], [ 2.6553194, 41.6150504 ], [ 2.6552901, 41.6150536 ], [ 2.6552607, 41.6150562 ], [ 2.655231, 41.615058 ], [ 2.6552015, 41.6150591 ], [ 2.6551717, 41.6150594 ], [ 2.6551421, 41.6150591 ], [ 2.6551126, 41.615058 ], [ 2.6550829, 41.6150562 ], [ 2.6550535, 41.6150537 ], [ 2.6550242, 41.6150504 ], [ 2.654995, 41.6150464 ], [ 2.654966, 41.6150418 ], [ 2.6549372, 41.6150365 ], [ 2.6549087, 41.6150304 ], [ 2.6549029, 41.61503 ], [ 2.6548755, 41.6150285 ], [ 2.6548481, 41.6150277 ], [ 2.6548207, 41.6150277 ], [ 2.6547932, 41.6150284 ], [ 2.6547658, 41.6150297 ], [ 2.6547386, 41.6150318 ], [ 2.6547113, 41.6150346 ], [ 2.6546843, 41.6150381 ], [ 2.6546574, 41.6150424 ], [ 2.6546309, 41.6150473 ], [ 2.6546044, 41.615053 ], [ 2.6545782, 41.6150594 ], [ 2.6545525, 41.6150663 ], [ 2.654527, 41.6150741 ], [ 2.6545019, 41.6150824 ], [ 2.6544772, 41.6150914 ], [ 2.6544529, 41.615101 ], [ 2.6544291, 41.6151112 ], [ 2.6544059, 41.6151222 ], [ 2.6543831, 41.6151337 ], [ 2.6543778, 41.6151378 ], [ 2.6543663, 41.6151476 ], [ 2.6543555, 41.6151579 ], [ 2.6543455, 41.6151686 ], [ 2.6543363, 41.6151797 ], [ 2.6543278, 41.6151911 ], [ 2.6543204, 41.6152029 ], [ 2.6543138, 41.615215 ], [ 2.654308, 41.6152274 ], [ 2.6543033, 41.6152398 ], [ 2.6543013, 41.6152464 ], [ 2.6542993, 41.6152526 ], [ 2.6542964, 41.6152655 ], [ 2.6542942, 41.6152785 ], [ 2.6542932, 41.6152914 ], [ 2.6542932, 41.6153046 ], [ 2.654294, 41.6153175 ], [ 2.6542942, 41.6153187 ], [ 2.654294, 41.6153197 ], [ 2.654293, 41.6153326 ], [ 2.6542929, 41.6153458 ], [ 2.6542938, 41.6153587 ], [ 2.6542957, 41.6153718 ], [ 2.6543019, 41.6153934 ], [ 2.6543114, 41.6154228 ], [ 2.6543216, 41.615452 ], [ 2.6543329, 41.6154811 ], [ 2.6543451, 41.6155099 ], [ 2.6543581, 41.6155385 ], [ 2.6543722, 41.6155669 ], [ 2.6543871, 41.615595 ], [ 2.6544028, 41.6156228 ], [ 2.6544196, 41.6156504 ], [ 2.6544286, 41.6156638 ], [ 2.6544456, 41.6156906 ], [ 2.6544616, 41.6157176 ], [ 2.6544769, 41.615745 ], [ 2.6544912, 41.6157726 ], [ 2.6545046, 41.6158005 ], [ 2.6545172, 41.6158285 ], [ 2.6545288, 41.6158568 ], [ 2.6545395, 41.6158853 ], [ 2.6545405, 41.6158885 ], [ 2.6545493, 41.6159141 ], [ 2.6545582, 41.6159429 ], [ 2.654566, 41.6159719 ], [ 2.6545729, 41.6160011 ], [ 2.654579, 41.6160303 ], [ 2.654584, 41.6160598 ], [ 2.6545879, 41.6160867 ], [ 2.6545881, 41.6160893 ], [ 2.6545904, 41.616116 ], [ 2.6545944, 41.6161562 ], [ 2.6545995, 41.6161962 ], [ 2.6546054, 41.6162362 ], [ 2.6546112, 41.6162696 ], [ 2.6546124, 41.6162761 ], [ 2.6546204, 41.616316 ], [ 2.6546293, 41.6163557 ], [ 2.654639, 41.6163953 ], [ 2.6546499, 41.6164348 ], [ 2.6546524, 41.6164415 ], [ 2.6546635, 41.6164734 ], [ 2.6546738, 41.6165055 ], [ 2.6546831, 41.6165377 ], [ 2.6546914, 41.61657 ], [ 2.6546989, 41.6166026 ], [ 2.6547054, 41.6166352 ], [ 2.6547109, 41.6166679 ], [ 2.6547154, 41.6167007 ], [ 2.6547191, 41.6167336 ], [ 2.6547218, 41.6167665 ], [ 2.6547234, 41.6167994 ], [ 2.6547241, 41.6168279 ], [ 2.6547242, 41.6168324 ], [ 2.6547241, 41.6168628 ], [ 2.6547241, 41.6168654 ], [ 2.6547234, 41.6168833 ], [ 2.6547229, 41.6168984 ], [ 2.6547254, 41.6169128 ], [ 2.6547204, 41.6169396 ], [ 2.6547164, 41.6169665 ], [ 2.6547133, 41.6169936 ], [ 2.6547111, 41.6170205 ], [ 2.6547102, 41.6170427 ], [ 2.65471, 41.6170477 ], [ 2.6547097, 41.6170748 ], [ 2.6547106, 41.6171019 ], [ 2.6547122, 41.6171289 ], [ 2.6547149, 41.6171559 ], [ 2.6547185, 41.6171829 ], [ 2.6547231, 41.6172097 ], [ 2.6547287, 41.6172365 ], [ 2.6547351, 41.6172632 ], [ 2.6547425, 41.6172897 ], [ 2.6547508, 41.617316 ], [ 2.6547602, 41.6173422 ], [ 2.6547703, 41.6173682 ], [ 2.6547815, 41.6173939 ], [ 2.6547936, 41.6174195 ], [ 2.6548233, 41.6174729 ], [ 2.6548769, 41.6175705 ], [ 2.6549297, 41.6176683 ], [ 2.6549817, 41.6177665 ], [ 2.6549834, 41.617771 ], [ 2.654998, 41.6178056 ], [ 2.6550134, 41.6178402 ], [ 2.6550298, 41.6178744 ], [ 2.655047, 41.6179084 ], [ 2.6550653, 41.6179421 ], [ 2.6550843, 41.6179755 ], [ 2.6551042, 41.6180087 ], [ 2.6551249, 41.6180416 ], [ 2.6551466, 41.618074 ], [ 2.6551692, 41.6181063 ], [ 2.6551925, 41.6181382 ], [ 2.6552168, 41.6181697 ], [ 2.6552213, 41.6181738 ], [ 2.6552456, 41.6181953 ], [ 2.6552707, 41.6182164 ], [ 2.6552964, 41.6182369 ], [ 2.6553228, 41.6182569 ], [ 2.65535, 41.6182764 ], [ 2.6553777, 41.6182954 ], [ 2.6554062, 41.6183139 ], [ 2.6554351, 41.6183317 ], [ 2.6554648, 41.6183491 ], [ 2.655495, 41.6183658 ], [ 2.6555258, 41.6183821 ], [ 2.6555571, 41.6183976 ], [ 2.655589, 41.6184126 ], [ 2.6556213, 41.6184269 ], [ 2.6556541, 41.6184407 ], [ 2.6556651, 41.6184464 ], [ 2.6556788, 41.6184543 ], [ 2.6556919, 41.6184628 ], [ 2.6557043, 41.6184718 ], [ 2.6557162, 41.6184813 ], [ 2.6557273, 41.6184913 ], [ 2.6557376, 41.6185017 ], [ 2.6557471, 41.6185125 ], [ 2.6557558, 41.6185237 ], [ 2.6557637, 41.6185353 ], [ 2.6557707, 41.6185472 ], [ 2.6557768, 41.6185593 ], [ 2.655782, 41.6185717 ], [ 2.6557862, 41.6185842 ], [ 2.6557896, 41.618597 ], [ 2.655792, 41.6186099 ], [ 2.6557927, 41.6186162 ], [ 2.6557935, 41.6186228 ], [ 2.655794, 41.6186358 ], [ 2.6557934, 41.6186487 ], [ 2.655792, 41.6186617 ], [ 2.6557896, 41.6186745 ], [ 2.6557863, 41.6186873 ], [ 2.655782, 41.6186999 ], [ 2.6557769, 41.6187122 ], [ 2.6557707, 41.6187243 ], [ 2.6557638, 41.6187363 ], [ 2.6557585, 41.6187409 ], [ 2.6557452, 41.6187517 ], [ 2.6557314, 41.6187621 ], [ 2.6557168, 41.6187718 ], [ 2.6557016, 41.6187811 ], [ 2.6556858, 41.6187898 ], [ 2.6556696, 41.6187979 ], [ 2.6556528, 41.6188053 ], [ 2.6556354, 41.6188122 ], [ 2.6556178, 41.6188184 ], [ 2.6555996, 41.618824 ], [ 2.6555812, 41.6188288 ], [ 2.6555625, 41.618833 ], [ 2.6555434, 41.6188365 ], [ 2.6555243, 41.6188393 ], [ 2.6555049, 41.6188414 ], [ 2.6554854, 41.6188427 ], [ 2.6554658, 41.6188434 ], [ 2.6554462, 41.6188433 ], [ 2.6554268, 41.6188426 ], [ 2.6554074, 41.6188411 ], [ 2.6553953, 41.6188419 ], [ 2.6553771, 41.6188439 ], [ 2.6553589, 41.6188465 ], [ 2.6553409, 41.6188499 ], [ 2.6553232, 41.6188539 ], [ 2.6553058, 41.6188586 ], [ 2.6552888, 41.6188641 ], [ 2.6552722, 41.6188701 ], [ 2.6552559, 41.6188768 ], [ 2.6552403, 41.6188842 ], [ 2.655225, 41.6188921 ], [ 2.6552104, 41.6189006 ], [ 2.6551963, 41.6189096 ], [ 2.655183, 41.6189192 ], [ 2.6551703, 41.6189294 ], [ 2.6551584, 41.61894 ], [ 2.6551471, 41.618951 ], [ 2.6551366, 41.6189624 ], [ 2.655127, 41.6189743 ], [ 2.6551183, 41.6189865 ], [ 2.6551103, 41.618999 ], [ 2.6551031, 41.6190119 ], [ 2.6550969, 41.619025 ], [ 2.6550917, 41.6190382 ], [ 2.6550874, 41.6190518 ], [ 2.6550856, 41.6190599 ], [ 2.655083, 41.6190755 ], [ 2.6550817, 41.6190879 ], [ 2.6550813, 41.619091 ], [ 2.6550807, 41.6191067 ], [ 2.6550809, 41.6191224 ], [ 2.6550822, 41.6191381 ], [ 2.6550844, 41.6191536 ], [ 2.6550874, 41.6191692 ], [ 2.6550915, 41.6191845 ], [ 2.6550965, 41.6191997 ], [ 2.6551025, 41.6192148 ], [ 2.6551093, 41.6192296 ], [ 2.6551171, 41.6192442 ], [ 2.6551257, 41.6192584 ], [ 2.6551352, 41.6192724 ], [ 2.6551456, 41.619286 ], [ 2.6551567, 41.6192992 ], [ 2.6551688, 41.6193121 ], [ 2.6551814, 41.6193245 ], [ 2.6551949, 41.6193366 ], [ 2.6552091, 41.619348 ], [ 2.655224, 41.619359 ], [ 2.6552396, 41.6193695 ], [ 2.6552558, 41.6193795 ], [ 2.6552725, 41.6193887 ], [ 2.6552899, 41.6193975 ], [ 2.6553078, 41.6194057 ], [ 2.6553261, 41.6194132 ], [ 2.6553449, 41.6194201 ], [ 2.6553586, 41.6194267 ], [ 2.6553832, 41.619439 ], [ 2.6554073, 41.6194519 ], [ 2.6554308, 41.6194654 ], [ 2.6554537, 41.6194795 ], [ 2.6554759, 41.6194941 ], [ 2.6554976, 41.6195093 ], [ 2.6555185, 41.6195249 ], [ 2.6555388, 41.6195411 ], [ 2.6555584, 41.6195579 ], [ 2.6555604, 41.6195612 ], [ 2.6555671, 41.619574 ], [ 2.6555729, 41.6195871 ], [ 2.6555778, 41.6196003 ], [ 2.6555816, 41.6196138 ], [ 2.6555847, 41.6196273 ], [ 2.6555867, 41.619641 ], [ 2.6555869, 41.6196437 ], [ 2.6555878, 41.6196547 ], [ 2.6555879, 41.6196685 ], [ 2.655587, 41.6196822 ], [ 2.6555853, 41.6196958 ], [ 2.6555825, 41.6197094 ], [ 2.6555788, 41.619723 ], [ 2.6555741, 41.6197362 ], [ 2.6555686, 41.6197493 ], [ 2.6555621, 41.6197622 ], [ 2.6555547, 41.6197747 ], [ 2.6555465, 41.619787 ], [ 2.6555374, 41.6197989 ], [ 2.6555275, 41.6198105 ], [ 2.6555169, 41.6198217 ], [ 2.6555055, 41.6198324 ], [ 2.6554933, 41.6198427 ], [ 2.6554804, 41.6198524 ], [ 2.6554669, 41.6198618 ], [ 2.6554483, 41.6198751 ], [ 2.655427, 41.6198915 ], [ 2.6554064, 41.6199085 ], [ 2.6553865, 41.6199259 ], [ 2.6553673, 41.6199438 ], [ 2.6553489, 41.6199621 ], [ 2.6553313, 41.6199808 ], [ 2.6553144, 41.6199999 ], [ 2.6552983, 41.6200195 ], [ 2.6552832, 41.6200394 ], [ 2.6552689, 41.6200596 ], [ 2.6552553, 41.6200802 ], [ 2.6552427, 41.6201011 ], [ 2.655231, 41.6201223 ], [ 2.65522, 41.6201437 ], [ 2.6552101, 41.6201654 ], [ 2.6552011, 41.6201873 ], [ 2.6551901, 41.6202201 ], [ 2.6551792, 41.6202557 ], [ 2.6551692, 41.6202914 ], [ 2.6551602, 41.6203272 ], [ 2.6551521, 41.6203633 ], [ 2.655145, 41.6203994 ], [ 2.6551388, 41.6204356 ], [ 2.6551335, 41.6204719 ], [ 2.6551293, 41.6205083 ], [ 2.655126, 41.6205446 ], [ 2.6551236, 41.6205811 ], [ 2.6551174, 41.6206452 ], [ 2.6551159, 41.6206903 ], [ 2.6551148, 41.6207205 ], [ 2.6551149, 41.620723 ], [ 2.6551161, 41.6207375 ], [ 2.6551185, 41.6207519 ], [ 2.6551216, 41.6207663 ], [ 2.6551258, 41.6207805 ], [ 2.6551309, 41.6207945 ], [ 2.6551369, 41.6208084 ], [ 2.6551438, 41.620822 ], [ 2.6551517, 41.6208353 ], [ 2.6551603, 41.6208483 ], [ 2.6551698, 41.620861 ], [ 2.6551801, 41.6208733 ], [ 2.6551912, 41.6208852 ], [ 2.6552032, 41.6208967 ], [ 2.6552158, 41.6209077 ], [ 2.6552293, 41.6209183 ], [ 2.6552432, 41.6209284 ], [ 2.655258, 41.6209378 ], [ 2.6552733, 41.6209467 ], [ 2.655289, 41.6209552 ], [ 2.6553055, 41.6209629 ], [ 2.6553224, 41.62097 ], [ 2.6553397, 41.6209766 ], [ 2.6553575, 41.6209824 ], [ 2.6553757, 41.6209877 ], [ 2.6553903, 41.6209892 ], [ 2.6554532, 41.6209982 ], [ 2.6555283, 41.621005 ], [ 2.655597, 41.621014 ], [ 2.655607, 41.6210144 ], [ 2.6556222, 41.6210157 ], [ 2.6556375, 41.6210176 ], [ 2.6556525, 41.6210203 ], [ 2.6556673, 41.6210237 ], [ 2.6556817, 41.6210278 ], [ 2.6556958, 41.6210325 ], [ 2.6557095, 41.6210379 ], [ 2.6557227, 41.6210438 ], [ 2.6557353, 41.6210504 ], [ 2.6557474, 41.6210577 ], [ 2.6557589, 41.6210654 ], [ 2.6557698, 41.6210736 ], [ 2.6557798, 41.6210824 ], [ 2.6557892, 41.6210916 ], [ 2.6557979, 41.6211012 ], [ 2.6558056, 41.6211112 ], [ 2.6558126, 41.6211216 ], [ 2.6558187, 41.6211322 ], [ 2.6558238, 41.6211431 ], [ 2.655828, 41.6211543 ], [ 2.6558314, 41.6211656 ], [ 2.6558338, 41.621177 ], [ 2.6558352, 41.6211885 ], [ 2.6558354, 41.6211938 ], [ 2.6558372, 41.6212075 ], [ 2.6558441, 41.6212409 ], [ 2.6558519, 41.6212741 ], [ 2.6558608, 41.6213071 ], [ 2.6558705, 41.6213401 ], [ 2.6558813, 41.6213729 ], [ 2.655893, 41.6214055 ], [ 2.6559048, 41.6214385 ], [ 2.655924, 41.6215081 ], [ 2.6559721, 41.6216217 ], [ 2.6560348, 41.6217317 ], [ 2.6561122, 41.6218564 ], [ 2.6561847, 41.621981 ], [ 2.6562375, 41.6221057 ], [ 2.6562548, 41.622158 ], [ 2.6562593, 41.6222079 ], [ 2.6562612, 41.6222302 ], [ 2.656251, 41.622318 ], [ 2.6562263, 41.6223948 ], [ 2.6562131, 41.6224113 ], [ 2.6562002, 41.6224244 ], [ 2.6561822, 41.6224386 ], [ 2.6561041, 41.6224676 ], [ 2.6560407, 41.6224858 ], [ 2.6559655, 41.6224931 ], [ 2.6559164, 41.6224928 ], [ 2.6558844, 41.6224903 ], [ 2.6558274, 41.6224834 ], [ 2.6557828, 41.6224731 ], [ 2.6556926, 41.6224389 ], [ 2.6556025, 41.6223876 ], [ 2.6554524, 41.6222882 ], [ 2.6553132, 41.622217 ], [ 2.6552685, 41.6221968 ], [ 2.6552269, 41.62218 ], [ 2.6551139, 41.6221598 ], [ 2.6550235, 41.6221623 ], [ 2.654933, 41.6221791 ], [ 2.6546124, 41.6222771 ], [ 2.6545217, 41.6223249 ], [ 2.654431, 41.6223841 ], [ 2.6543402, 41.6224659 ], [ 2.6543401, 41.6224659 ], [ 2.6543151, 41.6224813 ], [ 2.6542991, 41.6224725 ], [ 2.6542097, 41.6225761 ], [ 2.65398, 41.6229491 ], [ 2.6539823, 41.6229862 ], [ 2.6539931, 41.6231627 ], [ 2.6540487, 41.6234085 ], [ 2.6540901, 41.6236649 ], [ 2.6541599, 41.6239214 ], [ 2.6541542, 41.6239428 ], [ 2.6540872, 41.6241988 ], [ 2.6538873, 41.6243263 ], [ 2.6535026, 41.6244106 ], [ 2.653275, 41.6243992 ], [ 2.6530755, 41.6244414 ], [ 2.6528329, 41.6245581 ], [ 2.6524615, 41.6248132 ], [ 2.6523041, 41.6249729 ], [ 2.6520752, 41.6252072 ], [ 2.6519028, 41.6255057 ], [ 2.6516447, 41.6258679 ], [ 2.6514586, 41.6260596 ], [ 2.6512306, 41.626123 ], [ 2.6509743, 41.6261329 ], [ 2.650728, 41.6260733 ], [ 2.6501891, 41.6259737 ], [ 2.6499349, 41.6259338 ], [ 2.649716, 41.6258636 ], [ 2.6490788, 41.626629 ], [ 2.6489574, 41.6267704 ], [ 2.648486, 41.6269699 ], [ 2.6480797, 41.6271492 ], [ 2.6477519, 41.6272443 ], [ 2.6473384, 41.6273819 ], [ 2.646868, 41.6275086 ], [ 2.6463262, 41.6276991 ], [ 2.6459124, 41.6278901 ], [ 2.6455126, 41.6281344 ], [ 2.6451555, 41.6283576 ], [ 2.6449268, 41.6285491 ], [ 2.6446262, 41.6288578 ], [ 2.6444114, 41.6291028 ], [ 2.6441966, 41.629337 ], [ 2.6440105, 41.6295394 ], [ 2.6439243, 41.6296886 ], [ 2.6438806, 41.6298593 ], [ 2.6435378, 41.6300932 ], [ 2.6424962, 41.6305598 ], [ 2.6424993, 41.6305995 ], [ 2.6425494, 41.6312327 ], [ 2.6425603, 41.6318521 ], [ 2.6425593, 41.631853 ], [ 2.6423599, 41.6320543 ], [ 2.6419314, 41.6323306 ], [ 2.6417449, 41.632597 ], [ 2.6415013, 41.6328846 ], [ 2.6413152, 41.6330869 ], [ 2.6411864, 41.633204 ], [ 2.6411559, 41.6335669 ], [ 2.6406795, 41.6373669 ], [ 2.6405766, 41.6379539 ], [ 2.6405764, 41.6379945 ], [ 2.6405695, 41.6400664 ] ] ] } }
]
}
