{
"type": "FeatureCollection",
"name": "08116",
"features": [
{ "type": "Feature", "properties": { "CCAA": "09 - Cataluña", "PROVINCIA": "08 - Barcelona", "MUNICIPIO": "08116 - Masies de Roda, Les", "COD_MUNICIPIO": "08116", "DISTRITO": "01", "SECCION": "0811601001", "V1_H": 81.47, "V1_M": 86.75, "V2_H": 81.12898066, "V2_M": 86.51613614, "V3_H": 81.81510349, "V3_M": 87.06728245 }, "geometry": { "type": "Polygon", "coordinates": [ [ [ 2.3660724, 41.9734825 ], [ 2.3654628, 41.9742049 ], [ 2.3651573, 41.9747324 ], [ 2.3652756, 41.9755641 ], [ 2.3657497, 41.976037 ], [ 2.3666932, 41.9763528 ], [ 2.3683496, 41.9766803 ], [ 2.3671413, 41.9772321 ], [ 2.3667592, 41.9777091 ], [ 2.3668924, 41.9798635 ], [ 2.3668028, 41.981092 ], [ 2.366478, 41.9819625 ], [ 2.3660209, 41.9826952 ], [ 2.3654134, 41.9833628 ], [ 2.3639603, 41.9860237 ], [ 2.3634925, 41.9864867 ], [ 2.3628631, 41.9867503 ], [ 2.3588939, 41.9874764 ], [ 2.3578641, 41.9880017 ], [ 2.3565236, 41.9894238 ], [ 2.3560069, 41.9901683 ], [ 2.3558817, 41.9908313 ], [ 2.3559352, 41.991468 ], [ 2.3564824, 41.9922346 ], [ 2.3565744, 41.9931845 ], [ 2.3555985, 41.9934463 ], [ 2.3553941, 41.9935008 ], [ 2.354866, 41.9935346 ], [ 2.3527448, 41.9927066 ], [ 2.352004, 41.9925071 ], [ 2.350859, 41.9925247 ], [ 2.3505446, 41.9926429 ], [ 2.3499463, 41.9928644 ], [ 2.3492582, 41.9935808 ], [ 2.3484794, 41.9947965 ], [ 2.3479919, 41.9953144 ], [ 2.3475141, 41.9956609 ], [ 2.3452963, 41.9968448 ], [ 2.3444285, 41.9974345 ], [ 2.3438711, 41.9982707 ], [ 2.343603, 41.9989584 ], [ 2.3437166, 42.0000334 ], [ 2.3437211, 42.0000783 ], [ 2.3440443, 42.0006213 ], [ 2.3440233, 42.0009464 ], [ 2.3438174, 42.0013701 ], [ 2.3420534, 42.003217 ], [ 2.3416206, 42.0034533 ], [ 2.3413606, 42.0035914 ], [ 2.3404228, 42.0039233 ], [ 2.3400087, 42.0038796 ], [ 2.339228, 42.0036369 ], [ 2.3385442, 42.0029666 ], [ 2.3384554, 42.0014763 ], [ 2.3399273, 42.0000302 ], [ 2.3401685, 41.9994518 ], [ 2.3386552, 41.9995404 ], [ 2.3380398, 41.9992541 ], [ 2.3367526, 41.9984408 ], [ 2.3349636, 41.9971109 ], [ 2.3333122, 41.9945411 ], [ 2.3194794, 41.9969494 ], [ 2.3192517, 41.996987 ], [ 2.3186024, 41.9973052 ], [ 2.3186497, 41.9978702 ], [ 2.3184384, 41.9982311 ], [ 2.3179048, 41.998634 ], [ 2.3174027, 41.9992695 ], [ 2.3146196, 41.996725 ], [ 2.3129478, 41.9988192 ], [ 2.3127229, 41.9993068 ], [ 2.3103286, 41.9983827 ], [ 2.3073196, 42.0000212 ], [ 2.3072231, 42.0000752 ], [ 2.3086902, 42.0010244 ], [ 2.3084047, 42.0015456 ], [ 2.3082295, 42.0014669 ], [ 2.3082126, 42.0015162 ], [ 2.3081658, 42.0016442 ], [ 2.3081044, 42.0017814 ], [ 2.3080636, 42.0018433 ], [ 2.3079557, 42.0019741 ], [ 2.3077848, 42.0020391 ], [ 2.3077457, 42.002121 ], [ 2.3076655, 42.0021704 ], [ 2.3075443, 42.002096 ], [ 2.3074856, 42.0020816 ], [ 2.3074117, 42.0020679 ], [ 2.3072311, 42.002062 ], [ 2.3071285, 42.0020724 ], [ 2.3068665, 42.0021017 ], [ 2.3066897, 42.0020956 ], [ 2.3065101, 42.0019639 ], [ 2.3063195, 42.0018384 ], [ 2.3062089, 42.0017978 ], [ 2.3060471, 42.0016967 ], [ 2.3058017, 42.0015566 ], [ 2.3055444, 42.0014113 ], [ 2.3053211, 42.001353 ], [ 2.3052521, 42.0013534 ], [ 2.3050457, 42.0013601 ], [ 2.3048752, 42.0013823 ], [ 2.3045056, 42.0014537 ], [ 2.3043247, 42.0014907 ], [ 2.304153, 42.0014072 ], [ 2.3039445, 42.0013425 ], [ 2.3037649, 42.0012108 ], [ 2.3036659, 42.001081 ], [ 2.3035348, 42.0009785 ], [ 2.3034244, 42.000895 ], [ 2.3031675, 42.0008011 ], [ 2.3030198, 42.0007765 ], [ 2.3028447, 42.0007446 ], [ 2.3028352, 42.0006307 ], [ 2.3028191, 42.0004828 ], [ 2.302781, 42.0003474 ], [ 2.3026234, 42.0001575 ], [ 2.3024586, 41.9999736 ], [ 2.3023081, 41.9998234 ], [ 2.3021119, 41.9996295 ], [ 2.3016858, 41.9996664 ], [ 2.3014133, 41.9996619 ], [ 2.3011886, 41.9996323 ], [ 2.3010138, 41.9995117 ], [ 2.3008075, 41.9993355 ], [ 2.3005682, 41.9989921 ], [ 2.3003937, 41.9987372 ], [ 2.3003305, 41.9986687 ], [ 2.3002426, 41.9985785 ], [ 2.3001419, 41.9984745 ], [ 2.3001315, 41.9984407 ], [ 2.3000867, 41.9983627 ], [ 2.3001263, 41.9982408 ], [ 2.2999038, 41.9980539 ], [ 2.2995908, 41.9980684 ], [ 2.2994957, 41.9980299 ], [ 2.2994127, 41.9979538 ], [ 2.2992904, 41.9978194 ], [ 2.2988076, 41.9973129 ], [ 2.2984197, 41.9968878 ], [ 2.2982754, 41.9967659 ], [ 2.2977254, 41.9962797 ], [ 2.2974083, 41.9959685 ], [ 2.2972031, 41.9959894 ], [ 2.2970521, 41.9960164 ], [ 2.2969151, 41.9960285 ], [ 2.2967235, 41.9961203 ], [ 2.2966464, 41.9962067 ], [ 2.2965308, 41.9963378 ], [ 2.2964067, 41.9964579 ], [ 2.295977, 41.9969123 ], [ 2.2959071, 41.9969469 ], [ 2.2956652, 41.9968952 ], [ 2.2956003, 41.996944 ], [ 2.2953868, 41.9968652 ], [ 2.2949053, 41.996696 ], [ 2.2948643, 41.9966636 ], [ 2.2946973, 41.996637 ], [ 2.2944728, 41.996656 ], [ 2.2944587, 41.9966709 ], [ 2.2942578, 41.9966974 ], [ 2.2942402, 41.9967153 ], [ 2.2941676, 41.9967187 ], [ 2.2940916, 41.9965879 ], [ 2.2940516, 41.9964601 ], [ 2.2939389, 41.9961033 ], [ 2.2938607, 41.9960069 ], [ 2.2937161, 41.9958039 ], [ 2.2935933, 41.9956334 ], [ 2.2934496, 41.9953637 ], [ 2.2932931, 41.9950946 ], [ 2.2930755, 41.9947807 ], [ 2.2929313, 41.9945826 ], [ 2.292849, 41.9945149 ], [ 2.2926893, 41.9943603 ], [ 2.2925327, 41.9942437 ], [ 2.2917219, 41.9937857 ], [ 2.2910558, 41.9934545 ], [ 2.2901564, 41.9930816 ], [ 2.2902164, 41.9930359 ], [ 2.2902734, 41.9928761 ], [ 2.2903901, 41.9925896 ], [ 2.2901635, 41.9925525 ], [ 2.2902714, 41.992314 ], [ 2.2903757, 41.9921091 ], [ 2.2904439, 41.9919297 ], [ 2.2903724, 41.9917615 ], [ 2.290237, 41.9915915 ], [ 2.2900956, 41.9914265 ], [ 2.2900667, 41.9912326 ], [ 2.2900612, 41.9910899 ], [ 2.290085, 41.9906839 ], [ 2.2901448, 41.9904048 ], [ 2.2902639, 41.9900706 ], [ 2.2903488, 41.9898618 ], [ 2.2916263, 41.9897122 ], [ 2.2918401, 41.9902883 ], [ 2.2920188, 41.9906707 ], [ 2.292145, 41.9909602 ], [ 2.2928603, 41.9908843 ], [ 2.2926789, 41.9903925 ], [ 2.2925571, 41.9900027 ], [ 2.2925047, 41.9899098 ], [ 2.2923075, 41.9894569 ], [ 2.2922198, 41.9891703 ], [ 2.2920828, 41.9889051 ], [ 2.2919979, 41.9886518 ], [ 2.2919607, 41.9885106 ], [ 2.2919572, 41.9883916 ], [ 2.2919196, 41.9881695 ], [ 2.2919126, 41.9879316 ], [ 2.2918954, 41.9874941 ], [ 2.2918902, 41.9870465 ], [ 2.2916687, 41.9870711 ], [ 2.2915248, 41.9871063 ], [ 2.2913693, 41.9871564 ], [ 2.2912059, 41.9871878 ], [ 2.2910667, 41.9872037 ], [ 2.2908671, 41.9872606 ], [ 2.2906396, 41.9873664 ], [ 2.2905529, 41.987399 ], [ 2.2904066, 41.9874819 ], [ 2.2903434, 41.9874896 ], [ 2.2902296, 41.9875806 ], [ 2.2900367, 41.987642 ], [ 2.2898204, 41.9877282 ], [ 2.2896593, 41.987788 ], [ 2.2895567, 41.9878595 ], [ 2.2892847, 41.9879673 ], [ 2.2884758, 41.9883 ], [ 2.2880384, 41.9884917 ], [ 2.2885161, 41.9887079 ], [ 2.2886455, 41.9888829 ], [ 2.2886848, 41.9889716 ], [ 2.2887352, 41.989117 ], [ 2.2888705, 41.9895157 ], [ 2.2888891, 41.9896625 ], [ 2.2889246, 41.9899371 ], [ 2.2889428, 41.9900792 ], [ 2.2886716, 41.9901203 ], [ 2.2885082, 41.9901517 ], [ 2.2880004, 41.9902657 ], [ 2.2879127, 41.9901316 ], [ 2.2874988, 41.9901459 ], [ 2.2873843, 41.9901512 ], [ 2.2871584, 41.9901998 ], [ 2.287057, 41.9902092 ], [ 2.2870903, 41.9903792 ], [ 2.2871641, 41.9905759 ], [ 2.2872664, 41.9909618 ], [ 2.2873127, 41.9912121 ], [ 2.2874507, 41.991644 ], [ 2.2875474, 41.9920397 ], [ 2.2875822, 41.9922287 ], [ 2.2875861, 41.9923524 ], [ 2.2875428, 41.9923686 ], [ 2.2873361, 41.9923401 ], [ 2.2870714, 41.9922285 ], [ 2.2867058, 41.9919786 ], [ 2.2864602, 41.9917898 ], [ 2.2861639, 41.991451 ], [ 2.2859392, 41.9910516 ], [ 2.2857081, 41.9907288 ], [ 2.2855747, 41.9905063 ], [ 2.285473, 41.9903586 ], [ 2.2853641, 41.9902779 ], [ 2.2848745, 41.9900718 ], [ 2.2835655, 41.9888897 ], [ 2.2827167, 41.9881148 ], [ 2.281906, 41.987365 ], [ 2.2817976, 41.9872715 ], [ 2.283188, 41.9877343 ], [ 2.283195, 41.9877366 ], [ 2.2831952, 41.9877368 ], [ 2.2831954, 41.987737 ], [ 2.2835927, 41.9873163 ], [ 2.2844931, 41.9863628 ], [ 2.2855591, 41.9855394 ], [ 2.2871093, 41.9850267 ], [ 2.2879665, 41.985032 ], [ 2.2885466, 41.9848972 ], [ 2.2896703, 41.9850614 ], [ 2.2931917, 41.9835841 ], [ 2.2901664, 41.983625 ], [ 2.2891314, 41.9833668 ], [ 2.2885466, 41.9828626 ], [ 2.2885831, 41.9822848 ], [ 2.290025, 41.981777 ], [ 2.2909539, 41.9813379 ], [ 2.2966183, 41.9773398 ], [ 2.2969377, 41.9769739 ], [ 2.2967006, 41.9754275 ], [ 2.2963527, 41.9744353 ], [ 2.2956433, 41.9738829 ], [ 2.2995967, 41.9727358 ], [ 2.2998238, 41.9726699 ], [ 2.2998449, 41.9727665 ], [ 2.2998684, 41.9728654 ], [ 2.2998655, 41.9729685 ], [ 2.2998664, 41.9730713 ], [ 2.2998554, 41.973169 ], [ 2.2997869, 41.9732665 ], [ 2.2996841, 41.9733199 ], [ 2.299586, 41.9733387 ], [ 2.2994436, 41.9733767 ], [ 2.299384, 41.9733967 ], [ 2.2993842, 41.973491 ], [ 2.2994125, 41.9735554 ], [ 2.2994559, 41.973662 ], [ 2.2995271, 41.9737816 ], [ 2.2995831, 41.9739019 ], [ 2.2996507, 41.9740246 ], [ 2.2997296, 41.9741438 ], [ 2.2997906, 41.9742325 ], [ 2.2998799, 41.9743398 ], [ 2.2999638, 41.9744274 ], [ 2.3000463, 41.9744979 ], [ 2.3001276, 41.9745542 ], [ 2.3001991, 41.9745852 ], [ 2.3002914, 41.9746352 ], [ 2.3003755, 41.9746799 ], [ 2.3004261, 41.9747347 ], [ 2.300458, 41.9747961 ], [ 2.300493, 41.9748488 ], [ 2.3005028, 41.9748741 ], [ 2.3005724, 41.974928 ], [ 2.3006303, 41.9749796 ], [ 2.3007001, 41.9750364 ], [ 2.3007247, 41.975101 ], [ 2.3007654, 41.9751763 ], [ 2.300793, 41.9752322 ], [ 2.3008369, 41.9752988 ], [ 2.3009088, 41.9753812 ], [ 2.3009572, 41.9754561 ], [ 2.3009844, 41.9755063 ], [ 2.3010165, 41.9755706 ], [ 2.3012256, 41.9756895 ], [ 2.3015184, 41.9758475 ], [ 2.3017074, 41.9759559 ], [ 2.3017401, 41.9760259 ], [ 2.3017684, 41.9760903 ], [ 2.3018752, 41.9761311 ], [ 2.3019587, 41.9761672 ], [ 2.302059, 41.9762226 ], [ 2.3021451, 41.9762901 ], [ 2.3022111, 41.976347 ], [ 2.302238, 41.9763944 ], [ 2.3022931, 41.9764576 ], [ 2.3023796, 41.9765307 ], [ 2.3024464, 41.9765963 ], [ 2.3025842, 41.9766871 ], [ 2.3028414, 41.9768781 ], [ 2.3030261, 41.9770267 ], [ 2.3030685, 41.9770762 ], [ 2.3032177, 41.9773037 ], [ 2.3032649, 41.9773644 ], [ 2.3033216, 41.9774475 ], [ 2.3033843, 41.9775104 ], [ 2.3034684, 41.9776008 ], [ 2.3035094, 41.9776789 ], [ 2.3035492, 41.9777886 ], [ 2.3036194, 41.9780797 ], [ 2.3036674, 41.978289 ], [ 2.3036803, 41.978397 ], [ 2.3037267, 41.9784492 ], [ 2.3038114, 41.9785453 ], [ 2.3038991, 41.9786327 ], [ 2.3039818, 41.9787518 ], [ 2.3040354, 41.9788436 ], [ 2.3040706, 41.9789449 ], [ 2.3040661, 41.9789823 ], [ 2.3040742, 41.9790333 ], [ 2.3040979, 41.9791809 ], [ 2.3041076, 41.9792976 ], [ 2.3040701, 41.9794451 ], [ 2.3040507, 41.9796261 ], [ 2.3039835, 41.9799236 ], [ 2.3039457, 41.980114 ], [ 2.3039376, 41.9802001 ], [ 2.3039711, 41.980373 ], [ 2.3040061, 41.9806086 ], [ 2.3035991, 41.9807818 ], [ 2.3031701, 41.9809674 ], [ 2.3028853, 41.9810893 ], [ 2.3027872, 41.9811538 ], [ 2.3027436, 41.9811816 ], [ 2.3026835, 41.9811958 ], [ 2.3025439, 41.9812223 ], [ 2.3024318, 41.981256 ], [ 2.3018331, 41.9814267 ], [ 2.3015265, 41.9815181 ], [ 2.3015017, 41.9815421 ], [ 2.3016613, 41.9818948 ], [ 2.3017704, 41.982147 ], [ 2.3019588, 41.9825699 ], [ 2.3021589, 41.9830408 ], [ 2.3022611, 41.9832562 ], [ 2.3023031, 41.9832543 ], [ 2.3023207, 41.983282 ], [ 2.3023663, 41.9833228 ], [ 2.3024016, 41.9833326 ], [ 2.3026055, 41.9833432 ], [ 2.3027252, 41.9833548 ], [ 2.3028383, 41.9833674 ], [ 2.3032392, 41.9834112 ], [ 2.3034827, 41.9834216 ], [ 2.3038103, 41.98344 ], [ 2.3040716, 41.9834393 ], [ 2.3041455, 41.9834988 ], [ 2.3041884, 41.9835082 ], [ 2.3042759, 41.9835928 ], [ 2.3043073, 41.9836485 ], [ 2.3043547, 41.9837577 ], [ 2.3044164, 41.9839007 ], [ 2.3044879, 41.9840689 ], [ 2.3045291, 41.9841956 ], [ 2.30456, 41.9843371 ], [ 2.3045734, 41.984405 ], [ 2.3045981, 41.9845182 ], [ 2.3046417, 41.9846277 ], [ 2.3046304, 41.9847225 ], [ 2.3046326, 41.9847939 ], [ 2.3046361, 41.9849184 ], [ 2.3046371, 41.9849947 ], [ 2.304637, 41.9850501 ], [ 2.3046457, 41.9850982 ], [ 2.3046482, 41.9851284 ], [ 2.3046453, 41.985177 ], [ 2.3046837, 41.9855305 ], [ 2.3047014, 41.9857431 ], [ 2.304574, 41.9859319 ], [ 2.3042928, 41.9862346 ], [ 2.3042366, 41.9865421 ], [ 2.304295, 41.9867528 ], [ 2.3043165, 41.987011 ], [ 2.3042324, 41.9872283 ], [ 2.3040542, 41.9875414 ], [ 2.3041176, 41.9878129 ], [ 2.3043046, 41.98785 ], [ 2.3047652, 41.9881354 ], [ 2.3051825, 41.9883924 ], [ 2.3053506, 41.9884942 ], [ 2.3056745, 41.9886268 ], [ 2.3066719, 41.9888712 ], [ 2.3075169, 41.9891274 ], [ 2.3083366, 41.9893847 ], [ 2.3089416, 41.9895187 ], [ 2.3092855, 41.9895837 ], [ 2.3097704, 41.9896565 ], [ 2.3102467, 41.9897011 ], [ 2.3105775, 41.9896857 ], [ 2.3109055, 41.9896372 ], [ 2.3110828, 41.9896194 ], [ 2.3116286, 41.9897322 ], [ 2.3119538, 41.9898029 ], [ 2.3123398, 41.9899136 ], [ 2.3126693, 41.9900365 ], [ 2.3131486, 41.9903477 ], [ 2.3134388, 41.9905343 ], [ 2.3136137, 41.9906405 ], [ 2.3139361, 41.990678 ], [ 2.3144104, 41.9906988 ], [ 2.3147312, 41.9907173 ], [ 2.3151808, 41.9909013 ], [ 2.3153954, 41.9910247 ], [ 2.3156248, 41.9911712 ], [ 2.3158708, 41.9912884 ], [ 2.3160592, 41.9913273 ], [ 2.316262, 41.9913084 ], [ 2.3164465, 41.9911474 ], [ 2.3166636, 41.9909944 ], [ 2.3169086, 41.9907924 ], [ 2.3171643, 41.9905662 ], [ 2.3174399, 41.9904247 ], [ 2.317455, 41.990224 ], [ 2.3173987, 41.9899312 ], [ 2.317382, 41.9898081 ], [ 2.3175168, 41.9898162 ], [ 2.3177617, 41.9896142 ], [ 2.3180302, 41.9893112 ], [ 2.3183344, 41.9890541 ], [ 2.3184378, 41.9889159 ], [ 2.3186585, 41.9886531 ], [ 2.3188168, 41.9884076 ], [ 2.3189361, 41.9882305 ], [ 2.3189966, 41.9880372 ], [ 2.3190145, 41.9878696 ], [ 2.3190249, 41.9876881 ], [ 2.3190806, 41.987514 ], [ 2.3191133, 41.9873696 ], [ 2.3191034, 41.9871747 ], [ 2.3190979, 41.9869558 ], [ 2.3191147, 41.9866978 ], [ 2.3191091, 41.9865551 ], [ 2.319463, 41.9863577 ], [ 2.3191276, 41.9860112 ], [ 2.3188093, 41.9856401 ], [ 2.3179135, 41.9847766 ], [ 2.3178698, 41.9847119 ], [ 2.3179213, 41.9845984 ], [ 2.3180219, 41.9843815 ], [ 2.3181329, 41.9841446 ], [ 2.3186874, 41.9829465 ], [ 2.3164682, 41.9815709 ], [ 2.3146153, 41.9804222 ], [ 2.3141285, 41.9794844 ], [ 2.3135187, 41.9784297 ], [ 2.3134469, 41.9783241 ], [ 2.3133865, 41.9782157 ], [ 2.3130568, 41.9776575 ], [ 2.313129, 41.9775274 ], [ 2.3131696, 41.9773712 ], [ 2.3131958, 41.9772271 ], [ 2.3132088, 41.9771064 ], [ 2.3132181, 41.9769888 ], [ 2.3132031, 41.9768552 ], [ 2.3131865, 41.9767016 ], [ 2.3131723, 41.9765307 ], [ 2.313157, 41.97644 ], [ 2.3130569, 41.9764332 ], [ 2.3128008, 41.9764394 ], [ 2.3126261, 41.9765504 ], [ 2.3126208, 41.9765565 ], [ 2.3126129, 41.9766677 ], [ 2.3126023, 41.9769231 ], [ 2.312603, 41.977085 ], [ 2.3125998, 41.9771995 ], [ 2.3125272, 41.9773243 ], [ 2.3124484, 41.97749 ], [ 2.3123206, 41.9775268 ], [ 2.3122382, 41.9774568 ], [ 2.3119306, 41.977252 ], [ 2.3119503, 41.9771439 ], [ 2.3119681, 41.9769358 ], [ 2.3119837, 41.9767398 ], [ 2.312017, 41.9765262 ], [ 2.3119615, 41.9765121 ], [ 2.3119592, 41.9764837 ], [ 2.3113717, 41.976368 ], [ 2.3110015, 41.9762923 ], [ 2.3106013, 41.9762013 ], [ 2.3102635, 41.9761312 ], [ 2.3102023, 41.9760102 ], [ 2.3094212, 41.9757867 ], [ 2.3091018, 41.9757085 ], [ 2.3086224, 41.9755631 ], [ 2.308659, 41.9754989 ], [ 2.3087018, 41.9754008 ], [ 2.3087633, 41.975313 ], [ 2.3088659, 41.9752501 ], [ 2.3090377, 41.9750835 ], [ 2.30919, 41.9748976 ], [ 2.3093198, 41.9747307 ], [ 2.309445, 41.9745569 ], [ 2.3096137, 41.974344 ], [ 2.309761, 41.9741102 ], [ 2.309788, 41.9739625 ], [ 2.309807, 41.9738372 ], [ 2.3098254, 41.9737045 ], [ 2.3098669, 41.9736147 ], [ 2.3098328, 41.9734406 ], [ 2.3097956, 41.9733471 ], [ 2.3098941, 41.9731155 ], [ 2.3099637, 41.9730098 ], [ 2.3099565, 41.9729223 ], [ 2.3099443, 41.9727764 ], [ 2.3099664, 41.9725703 ], [ 2.3099451, 41.972315 ], [ 2.3099648, 41.9720798 ], [ 2.3098299, 41.9718737 ], [ 2.3097817, 41.9717661 ], [ 2.3096321, 41.9716193 ], [ 2.309425, 41.9714898 ], [ 2.3092766, 41.9713575 ], [ 2.3092107, 41.9712727 ], [ 2.3091686, 41.9711209 ], [ 2.3091815, 41.9709226 ], [ 2.3092335, 41.9708396 ], [ 2.3093387, 41.9706883 ], [ 2.3092599, 41.9705675 ], [ 2.3092814, 41.9703542 ], [ 2.309243, 41.9702461 ], [ 2.3092632, 41.9701353 ], [ 2.3093164, 41.9699498 ], [ 2.3093641, 41.9698158 ], [ 2.3094479, 41.9696435 ], [ 2.3095823, 41.9694908 ], [ 2.309594, 41.9693951 ], [ 2.3095983, 41.969329 ], [ 2.3095128, 41.9692451 ], [ 2.3095153, 41.9691571 ], [ 2.3095166, 41.9690545 ], [ 2.3095087, 41.9689597 ], [ 2.3094452, 41.9687869 ], [ 2.3094196, 41.9687149 ], [ 2.3094545, 41.9685448 ], [ 2.3095078, 41.9682422 ], [ 2.3095134, 41.9680735 ], [ 2.3095128, 41.967949 ], [ 2.3094536, 41.9678273 ], [ 2.309417, 41.9677411 ], [ 2.3093957, 41.967603 ], [ 2.3093756, 41.9674794 ], [ 2.3093255, 41.9674671 ], [ 2.3093189, 41.9671526 ], [ 2.3091943, 41.9671876 ], [ 2.3089676, 41.9672933 ], [ 2.3088876, 41.9672751 ], [ 2.308628, 41.9673384 ], [ 2.3082664, 41.9673552 ], [ 2.3079384, 41.9673045 ], [ 2.3074051, 41.9672633 ], [ 2.3073311, 41.9674351 ], [ 2.3072304, 41.967286 ], [ 2.3069616, 41.9673571 ], [ 2.3063843, 41.9673765 ], [ 2.3056868, 41.9672477 ], [ 2.3055809, 41.9676261 ], [ 2.3055715, 41.9681025 ], [ 2.3055821, 41.9688196 ], [ 2.3055814, 41.9690466 ], [ 2.3056442, 41.9693293 ], [ 2.3057545, 41.9697122 ], [ 2.3058521, 41.969942 ], [ 2.3058991, 41.9701522 ], [ 2.3055704, 41.9702113 ], [ 2.3047493, 41.9703666 ], [ 2.3031284, 41.9706979 ], [ 2.3016328, 41.9710015 ], [ 2.3014902, 41.9710331 ], [ 2.3014495, 41.9710593 ], [ 2.3014517, 41.9709876 ], [ 2.3007478, 41.9709729 ], [ 2.3006556, 41.9709696 ], [ 2.3006434, 41.9712171 ], [ 2.3003771, 41.9712813 ], [ 2.3000507, 41.9713604 ], [ 2.2998081, 41.9714158 ], [ 2.2997417, 41.9714281 ], [ 2.2996602, 41.9712824 ], [ 2.2995636, 41.9711284 ], [ 2.2992944, 41.9706423 ], [ 2.2992562, 41.9705755 ], [ 2.2991492, 41.970429 ], [ 2.2991763, 41.9703796 ], [ 2.2997928, 41.970848 ], [ 2.3001809, 41.9711431 ], [ 2.3001807, 41.9711428 ], [ 2.299504, 41.9701122 ], [ 2.2989283, 41.9695717 ], [ 2.2971387, 41.9669087 ], [ 2.2958358, 41.9656006 ], [ 2.2965957, 41.965249 ], [ 2.2972631, 41.9650312 ], [ 2.2976974, 41.9648635 ], [ 2.2983327, 41.9647358 ], [ 2.2986296, 41.9651352 ], [ 2.3004797, 41.9648725 ], [ 2.3042793, 41.9642735 ], [ 2.3049731, 41.964185 ], [ 2.3049127, 41.9642259 ], [ 2.3049445, 41.9643006 ], [ 2.3050466, 41.9643769 ], [ 2.3051979, 41.9644318 ], [ 2.3053708, 41.9644381 ], [ 2.3055071, 41.9643889 ], [ 2.3056828, 41.9642759 ], [ 2.3059789, 41.9642289 ], [ 2.3063633, 41.9641682 ], [ 2.3065858, 41.9641579 ], [ 2.3067941, 41.9641291 ], [ 2.3068433, 41.9641078 ], [ 2.3068637, 41.9638925 ], [ 2.30762, 41.9637764 ], [ 2.3086095, 41.9639306 ], [ 2.3106356, 41.9642702 ], [ 2.3110632, 41.9643456 ], [ 2.3120026, 41.9644354 ], [ 2.3125844, 41.9645228 ], [ 2.3135183, 41.9644699 ], [ 2.3153359, 41.9647571 ], [ 2.3156593, 41.9648088 ], [ 2.3171689, 41.9651531 ], [ 2.318412, 41.9652859 ], [ 2.3191683, 41.9654299 ], [ 2.3191838, 41.9653863 ], [ 2.3194611, 41.9654211 ], [ 2.3185686, 41.9642096 ], [ 2.3186795, 41.9641616 ], [ 2.3186278, 41.9640783 ], [ 2.3195912, 41.9637667 ], [ 2.3206305, 41.9634469 ], [ 2.3256337, 41.9618956 ], [ 2.3329795, 41.9642519 ], [ 2.3381398, 41.9658712 ], [ 2.3394319, 41.9644694 ], [ 2.3400601, 41.9641657 ], [ 2.3409102, 41.9643166 ], [ 2.341511, 41.9653938 ], [ 2.3408244, 41.9687796 ], [ 2.3419373, 41.9710906 ], [ 2.3423976, 41.9723688 ], [ 2.342412, 41.9731494 ], [ 2.3423866, 41.9737604 ], [ 2.34242, 41.974159 ], [ 2.3423516, 41.9745624 ], [ 2.3418764, 41.9762043 ], [ 2.3422564, 41.9770821 ], [ 2.3440514, 41.9774747 ], [ 2.3457367, 41.9774723 ], [ 2.3486829, 41.978497 ], [ 2.3498722, 41.9792799 ], [ 2.350733, 41.9825362 ], [ 2.3520956, 41.9823392 ], [ 2.3523213, 41.9819856 ], [ 2.3525057, 41.9817483 ], [ 2.3524722, 41.9813497 ], [ 2.3527329, 41.9811089 ], [ 2.3533831, 41.9806402 ], [ 2.3536605, 41.9804462 ], [ 2.3538306, 41.9801905 ], [ 2.3539895, 41.9799544 ], [ 2.3541556, 41.9798037 ], [ 2.354344, 41.9796139 ], [ 2.3544536, 41.9793991 ], [ 2.3545481, 41.9791565 ], [ 2.3546006, 41.9790207 ], [ 2.3546952, 41.9789305 ], [ 2.354913, 41.9789394 ], [ 2.3550529, 41.9789328 ], [ 2.355347, 41.9787857 ], [ 2.35544, 41.9786765 ], [ 2.3555512, 41.9784808 ], [ 2.3556124, 41.9782969 ], [ 2.3556958, 41.9780738 ], [ 2.3558054, 41.9778591 ], [ 2.3559214, 41.9777203 ], [ 2.3561519, 41.9775761 ], [ 2.3564619, 41.9774663 ], [ 2.3566487, 41.97741 ], [ 2.3569038, 41.9772551 ], [ 2.3571932, 41.9772034 ], [ 2.3574014, 41.9770984 ], [ 2.3575786, 41.9769282 ], [ 2.3577431, 41.9767585 ], [ 2.3578456, 41.9766108 ], [ 2.3579966, 41.9764322 ], [ 2.3582287, 41.976307 ], [ 2.3583876, 41.9762233 ], [ 2.3585188, 41.9761124 ], [ 2.358661, 41.9759819 ], [ 2.3588637, 41.9759629 ], [ 2.3591189, 41.9759605 ], [ 2.3592023, 41.9758899 ], [ 2.3592462, 41.9758524 ], [ 2.3593051, 41.9757334 ], [ 2.3593386, 41.9756693 ], [ 2.3594272, 41.9755467 ], [ 2.3595398, 41.9754967 ], [ 2.3596371, 41.9753715 ], [ 2.3596572, 41.9752543 ], [ 2.359687, 41.9751456 ], [ 2.3597539, 41.9750151 ], [ 2.3599365, 41.9749082 ], [ 2.36001, 41.9748914 ], [ 2.3602311, 41.9747782 ], [ 2.3604018, 41.9746361 ], [ 2.3604783, 41.9745476 ], [ 2.3607476, 41.9742959 ], [ 2.3608257, 41.9742274 ], [ 2.3609929, 41.9741145 ], [ 2.3611061, 41.9740712 ], [ 2.3612573, 41.9740172 ], [ 2.3613505, 41.9739503 ], [ 2.3613559, 41.9739076 ], [ 2.3613956, 41.9738811 ], [ 2.3614656, 41.9737169 ], [ 2.3614861, 41.97364 ], [ 2.3614398, 41.9735528 ], [ 2.3613865, 41.9734882 ], [ 2.3613279, 41.9734328 ], [ 2.3612563, 41.9733647 ], [ 2.3612203, 41.9732926 ], [ 2.3611878, 41.9732271 ], [ 2.3611807, 41.9731425 ], [ 2.3611962, 41.973077 ], [ 2.3612021, 41.9730052 ], [ 2.3612069, 41.9729664 ], [ 2.3612156, 41.9729326 ], [ 2.3612378, 41.9729087 ], [ 2.361434, 41.9728423 ], [ 2.3614692, 41.9728207 ], [ 2.361688, 41.9726447 ], [ 2.3616949, 41.9725748 ], [ 2.361652, 41.9725206 ], [ 2.3614235, 41.9723988 ], [ 2.3614111, 41.9724032 ], [ 2.3613494, 41.972368 ], [ 2.3612727, 41.9723068 ], [ 2.3612588, 41.9722932 ], [ 2.3612594, 41.9722388 ], [ 2.3612588, 41.972156 ], [ 2.3612695, 41.972025 ], [ 2.3613018, 41.9718939 ], [ 2.3613101, 41.9718249 ], [ 2.361326, 41.9717107 ], [ 2.3613315, 41.9715943 ], [ 2.3613508, 41.971581 ], [ 2.361393, 41.9715199 ], [ 2.3614157, 41.9714865 ], [ 2.3614285, 41.9714725 ], [ 2.3614421, 41.9714519 ], [ 2.361529, 41.9713916 ], [ 2.3615976, 41.9713417 ], [ 2.3616839, 41.9713053 ], [ 2.3617829, 41.9712225 ], [ 2.3619361, 41.9712077 ], [ 2.3621793, 41.9712296 ], [ 2.3623433, 41.9712515 ], [ 2.3625328, 41.9712131 ], [ 2.3630082, 41.971006 ], [ 2.3632521, 41.9709155 ], [ 2.3635618, 41.9709238 ], [ 2.3636948, 41.9709567 ], [ 2.3637692, 41.970976 ], [ 2.3639741, 41.9709988 ], [ 2.3641904, 41.9710049 ], [ 2.3644406, 41.9710951 ], [ 2.364648, 41.9711473 ], [ 2.3648673, 41.971159 ], [ 2.3650522, 41.9711417 ], [ 2.3651398, 41.9711357 ], [ 2.3653132, 41.9711323 ], [ 2.3654032, 41.97111 ], [ 2.3655034, 41.9711473 ], [ 2.3655968, 41.9711953 ], [ 2.3655893, 41.9712128 ], [ 2.3657797, 41.9713058 ], [ 2.3658845, 41.9713981 ], [ 2.3660807, 41.9715747 ], [ 2.3661051, 41.9716983 ], [ 2.3661425, 41.9717023 ], [ 2.3661475, 41.9717926 ], [ 2.3661302, 41.9719201 ], [ 2.3661164, 41.9720141 ], [ 2.3660836, 41.97217 ], [ 2.3659943, 41.9725505 ], [ 2.3659614, 41.9726902 ], [ 2.3659456, 41.9728815 ], [ 2.3659508, 41.9730957 ], [ 2.3659636, 41.9731713 ], [ 2.3659378, 41.9732439 ], [ 2.365987, 41.9732226 ], [ 2.3660241, 41.973359 ], [ 2.3660724, 41.9734825 ] ] ] } }
]
}
