{
"type": "FeatureCollection",
"name": "08151",
"features": [
{ "type": "Feature", "properties": { "CCAA": "09 - Cataluña", "PROVINCIA": "08 - Barcelona", "MUNICIPIO": "08151 - Oristà", "COD_MUNICIPIO": "08151", "DISTRITO": "01", "SECCION": "0815101001", "V1_H": 81.55, "V1_M": 86.88, "V2_H": 81.46298126000001, "V2_M": 86.741846, "V3_H": 81.68783029, "V3_M": 87.18580847 }, "geometry": { "type": "MultiPolygon", "coordinates": [ [ [ [ 2.0189716, 41.9398121 ], [ 2.0197551, 41.9427217 ], [ 2.0197953, 41.9430801 ], [ 2.0193379, 41.9435503 ], [ 2.0191533, 41.9441166 ], [ 2.0188634, 41.9445704 ], [ 2.017302, 41.9431173 ], [ 2.0169796, 41.9430054 ], [ 2.0163512, 41.942988 ], [ 2.0154047, 41.9427594 ], [ 2.0150329, 41.9421724 ], [ 2.0149447, 41.9416631 ], [ 2.0147723, 41.9414636 ], [ 2.0140165, 41.9416678 ], [ 2.0114222, 41.9387293 ], [ 2.0133016, 41.9370174 ], [ 2.013689, 41.9365773 ], [ 2.0148096, 41.935646 ], [ 2.0155002, 41.9356877 ], [ 2.0170311, 41.9361429 ], [ 2.0180638, 41.9362416 ], [ 2.0193861, 41.9380293 ], [ 2.020885, 41.9379231 ], [ 2.0228871, 41.9377768 ], [ 2.0214456, 41.9386683 ], [ 2.0212542, 41.9387847 ], [ 2.0194813, 41.9395467 ], [ 2.0189716, 41.9398121 ] ] ], [ [ [ 2.1288513, 41.9863398 ], [ 2.1278384, 41.9879697 ], [ 2.1274812, 41.9876075 ], [ 2.1270533, 41.9872396 ], [ 2.1264492, 41.9867805 ], [ 2.1260844, 41.9864457 ], [ 2.1257615, 41.9861811 ], [ 2.1255433, 41.9860198 ], [ 2.1252793, 41.9858876 ], [ 2.1249544, 41.9857491 ], [ 2.1245927, 41.9856032 ], [ 2.124352, 41.9854609 ], [ 2.1240709, 41.9852665 ], [ 2.1238769, 41.9851041 ], [ 2.1236898, 41.9848784 ], [ 2.1234452, 41.9845382 ], [ 2.1232091, 41.9841527 ], [ 2.1225454, 41.983102 ], [ 2.1222009, 41.9825683 ], [ 2.1218187, 41.9820182 ], [ 2.1214891, 41.9815198 ], [ 2.121273, 41.9812323 ], [ 2.1210768, 41.981043 ], [ 2.1209337, 41.9809144 ], [ 2.120681, 41.9807727 ], [ 2.12041, 41.9807037 ], [ 2.1200909, 41.980637 ], [ 2.1197153, 41.9806178 ], [ 2.1191707, 41.9805971 ], [ 2.1186275, 41.9805944 ], [ 2.1180355, 41.9805849 ], [ 2.1175517, 41.9805705 ], [ 2.1172737, 41.980565 ], [ 2.1170566, 41.9805657 ], [ 2.1169222, 41.9805446 ], [ 2.1167721, 41.9804793 ], [ 2.1165959, 41.9803882 ], [ 2.1164189, 41.980288 ], [ 2.116178, 41.9799716 ], [ 2.115954, 41.9796077 ], [ 2.1159239, 41.9791135 ], [ 2.1153597, 41.9788053 ], [ 2.1150556, 41.9789546 ], [ 2.1148814, 41.9789719 ], [ 2.1147629, 41.9789272 ], [ 2.1143866, 41.9786939 ], [ 2.1137776, 41.9784975 ], [ 2.1134867, 41.9783304 ], [ 2.1131243, 41.9781755 ], [ 2.1127139, 41.9780228 ], [ 2.1123184, 41.9779054 ], [ 2.111901, 41.977816 ], [ 2.1115594, 41.9777683 ], [ 2.1110742, 41.9777359 ], [ 2.1099652, 41.9777494 ], [ 2.1067105, 41.9777866 ], [ 2.1033978, 41.9778534 ], [ 2.1017598, 41.9778903 ], [ 2.1003879, 41.9779335 ], [ 2.0994344, 41.977931 ], [ 2.0980872, 41.977982 ], [ 2.0969542, 41.9779964 ], [ 2.0961585, 41.9780048 ], [ 2.0957618, 41.9780225 ], [ 2.0953445, 41.9780861 ], [ 2.0944918, 41.9782861 ], [ 2.0924992, 41.9787168 ], [ 2.0883512, 41.9796576 ], [ 2.0873782, 41.9798629 ], [ 2.0866781, 41.980011 ], [ 2.0860629, 41.9801644 ], [ 2.0851126, 41.9805037 ], [ 2.0837628, 41.9809778 ], [ 2.0826131, 41.981389 ], [ 2.0778674, 41.982707 ], [ 2.0710586, 41.9846384 ], [ 2.0713496, 41.9860209 ], [ 2.0719183, 41.9878593 ], [ 2.0701752, 41.9896111 ], [ 2.0703958, 41.9952642 ], [ 2.0703702, 41.9960036 ], [ 2.0673721, 41.9942638 ], [ 2.0597798, 41.989855 ], [ 2.0527301, 41.9876996 ], [ 2.05214, 41.9872575 ], [ 2.0475988, 41.9862965 ], [ 2.0415099, 41.9852954 ], [ 2.0404169, 41.9874952 ], [ 2.0356008, 41.9867169 ], [ 2.0344557, 41.9862635 ], [ 2.0344547, 41.9862631 ], [ 2.0344546, 41.9862631 ], [ 2.0339678, 41.9857822 ], [ 2.033591, 41.9854109 ], [ 2.0290725, 41.9822469 ], [ 2.0267066, 41.9805901 ], [ 2.0244513, 41.9804657 ], [ 2.01935, 41.9801842 ], [ 2.0192711, 41.98014 ], [ 2.0075922, 41.9735982 ], [ 2.0075874, 41.9735953 ], [ 2.0075867, 41.9735948 ], [ 2.0075852, 41.9735954 ], [ 2.007501, 41.9736271 ], [ 1.9996649, 41.9765143 ], [ 1.9996599, 41.9765161 ], [ 1.9986238, 41.9777678 ], [ 1.9980864, 41.9772241 ], [ 1.9951968, 41.9746852 ], [ 1.9937934, 41.9737111 ], [ 1.9906865, 41.972091 ], [ 1.9862633, 41.9696818 ], [ 1.9989013, 41.9702291 ], [ 1.999914, 41.9686814 ], [ 2.0008423, 41.9677496 ], [ 2.0015817, 41.9667179 ], [ 2.0023196, 41.9661275 ], [ 2.003302, 41.9657334 ], [ 2.0052647, 41.9647654 ], [ 2.0150121, 41.9663015 ], [ 2.0163105, 41.9662446 ], [ 2.0173147, 41.9661286 ], [ 2.0186577, 41.9658716 ], [ 2.0202524, 41.9654416 ], [ 2.0203725, 41.9653958 ], [ 2.0226908, 41.9645424 ], [ 2.0249, 41.9634911 ], [ 2.0292927, 41.9619838 ], [ 2.0304213, 41.9617632 ], [ 2.0313914, 41.9613694 ], [ 2.0330545, 41.9608912 ], [ 2.0332186, 41.9606769 ], [ 2.0324768, 41.9601423 ], [ 2.03222, 41.9597935 ], [ 2.0320298, 41.9593697 ], [ 2.0322624, 41.9589543 ], [ 2.0328068, 41.9586693 ], [ 2.0312624, 41.9575938 ], [ 2.0315955, 41.956922 ], [ 2.0280303, 41.9516317 ], [ 2.0273926, 41.9504263 ], [ 2.0287924, 41.9490594 ], [ 2.0283753, 41.9469801 ], [ 2.0281802, 41.9446568 ], [ 2.0282996, 41.9432651 ], [ 2.0281186, 41.9428049 ], [ 2.0277871, 41.9424234 ], [ 2.0264793, 41.9415895 ], [ 2.0259463, 41.9410997 ], [ 2.0244548, 41.9416063 ], [ 2.023868, 41.941506 ], [ 2.0242597, 41.9409667 ], [ 2.0245029, 41.9403798 ], [ 2.024684, 41.9391564 ], [ 2.0255606, 41.9377315 ], [ 2.0268216, 41.9370549 ], [ 2.0281258, 41.9353951 ], [ 2.0285994, 41.9349782 ], [ 2.028921, 41.9344689 ], [ 2.0294009, 41.9339796 ], [ 2.0298936, 41.9333458 ], [ 2.030447, 41.9322591 ], [ 2.0304774, 41.9318796 ], [ 2.0296172, 41.93045 ], [ 2.0297303, 41.9297427 ], [ 2.0302455, 41.9286307 ], [ 2.0312787, 41.9258304 ], [ 2.0318688, 41.9247511 ], [ 2.0327875, 41.9234053 ], [ 2.0341908, 41.9207147 ], [ 2.0341335, 41.9193758 ], [ 2.0341879, 41.9186892 ], [ 2.0344211, 41.9175175 ], [ 2.0345276, 41.9161174 ], [ 2.0349989, 41.9156735 ], [ 2.0349699, 41.9151526 ], [ 2.0354327, 41.9138358 ], [ 2.0353719, 41.9127581 ], [ 2.0355026, 41.9122752 ], [ 2.0359152, 41.9116989 ], [ 2.0365468, 41.911455 ], [ 2.0375346, 41.9114476 ], [ 2.0391398, 41.9107107 ], [ 2.039888, 41.9101106 ], [ 2.0407704, 41.9099908 ], [ 2.0413476, 41.9098213 ], [ 2.0419898, 41.9089467 ], [ 2.0425089, 41.9080416 ], [ 2.0428981, 41.9076283 ], [ 2.0434449, 41.9073791 ], [ 2.0441465, 41.9072582 ], [ 2.0447279, 41.9072956 ], [ 2.0453893, 41.9075816 ], [ 2.0466139, 41.9084369 ], [ 2.046934, 41.9085218 ], [ 2.0476744, 41.9082821 ], [ 2.0481321, 41.9078208 ], [ 2.0479256, 41.9073437 ], [ 2.0459123, 41.9051997 ], [ 2.0457109, 41.9047854 ], [ 2.0451167, 41.9044335 ], [ 2.0446482, 41.903995 ], [ 2.0443203, 41.9035053 ], [ 2.0443081, 41.9028936 ], [ 2.0447965, 41.9005313 ], [ 2.044134, 41.9009927 ], [ 2.0429325, 41.902261 ], [ 2.0411403, 41.9029161 ], [ 2.0441747, 41.9000861 ], [ 2.045069, 41.8992499 ], [ 2.0471462, 41.8976278 ], [ 2.0521707, 41.8994499 ], [ 2.0529832, 41.8996662 ], [ 2.0540393, 41.8997636 ], [ 2.0572825, 41.8997825 ], [ 2.0581196, 41.8997005 ], [ 2.0591466, 41.89943 ], [ 2.0599322, 41.8994584 ], [ 2.061213, 41.8996538 ], [ 2.062893, 41.9000207 ], [ 2.0637146, 41.9000474 ], [ 2.0643245, 41.9004436 ], [ 2.0643905, 41.9011249 ], [ 2.0641731, 41.9014226 ], [ 2.0648797, 41.9018235 ], [ 2.073118, 41.9003964 ], [ 2.0741817, 41.9001332 ], [ 2.082301, 41.9061562 ], [ 2.0830564, 41.9064108 ], [ 2.0838055, 41.9065846 ], [ 2.0917049, 41.9090695 ], [ 2.0933934, 41.9127126 ], [ 2.0939212, 41.9140396 ], [ 2.0927658, 41.9146671 ], [ 2.0910524, 41.9154006 ], [ 2.0915521, 41.9158015 ], [ 2.0926753, 41.9167059 ], [ 2.0976601, 41.9207154 ], [ 2.0983144, 41.9213614 ], [ 2.0988603, 41.9217063 ], [ 2.0999862, 41.921314 ], [ 2.1010989, 41.9210574 ], [ 2.1030041, 41.9224219 ], [ 2.1050879, 41.9242106 ], [ 2.1073575, 41.9263601 ], [ 2.1086879, 41.9273181 ], [ 2.1094053, 41.9273941 ], [ 2.1098957, 41.9279484 ], [ 2.1105464, 41.9288466 ], [ 2.1123265, 41.9304507 ], [ 2.1144361, 41.9331564 ], [ 2.1149004, 41.934135 ], [ 2.1153062, 41.9352872 ], [ 2.1161638, 41.9360592 ], [ 2.1175256, 41.9384561 ], [ 2.119017, 41.9394607 ], [ 2.1199702, 41.9402194 ], [ 2.1215732, 41.9430646 ], [ 2.1220127, 41.9434321 ], [ 2.1232978, 41.9439687 ], [ 2.1271763, 41.9430118 ], [ 2.1287921, 41.9425614 ], [ 2.1332502, 41.9434149 ], [ 2.1394115, 41.9444528 ], [ 2.1379592, 41.9458865 ], [ 2.1376322, 41.9464683 ], [ 2.13746, 41.9470252 ], [ 2.1366152, 41.9482155 ], [ 2.1364065, 41.9489181 ], [ 2.1363476, 41.952981 ], [ 2.1365268, 41.9540083 ], [ 2.1363899, 41.9545546 ], [ 2.1358812, 41.9551267 ], [ 2.1346091, 41.9562551 ], [ 2.1336585, 41.9568829 ], [ 2.1327824, 41.9567871 ], [ 2.1315433, 41.9565276 ], [ 2.1308066, 41.9574159 ], [ 2.1288619, 41.9579802 ], [ 2.1285446, 41.9594349 ], [ 2.1285331, 41.9610919 ], [ 2.12867, 41.961743 ], [ 2.128735, 41.9618301 ], [ 2.129387, 41.9627102 ], [ 2.1305814, 41.9640611 ], [ 2.1309889, 41.964628 ], [ 2.1226959, 41.966809 ], [ 2.121915, 41.9671501 ], [ 2.1239132, 41.9688972 ], [ 2.1265143, 41.9707884 ], [ 2.128382, 41.9726359 ], [ 2.1284281, 41.9726834 ], [ 2.127829, 41.9791832 ], [ 2.1289465, 41.9818251 ], [ 2.1291464, 41.9825093 ], [ 2.1291592, 41.9843183 ], [ 2.1293145, 41.9857968 ], [ 2.1288513, 41.9863398 ] ] ] ] } }
]
}
