{
"type": "FeatureCollection",
"name": "08238",
"features": [
{ "type": "Feature", "properties": { "CCAA": "09 - Cataluña", "PROVINCIA": "08 - Barcelona", "MUNICIPIO": "08238 - Sant Quirze del Vallès", "COD_MUNICIPIO": "08238", "DISTRITO": "01", "SECCION": "0823801008", "V1_H": 82.5, "V1_M": 87.29, "V2_H": 82.15783722, "V2_M": 87.30677587, "V3_H": 82.90083825000001, "V3_M": 87.37512967000001 }, "geometry": { "type": "Polygon", "coordinates": [ [ [ 2.086435, 41.5308523 ], [ 2.0867059, 41.530764 ], [ 2.0870409, 41.5306804 ], [ 2.0874736, 41.5305723 ], [ 2.0877476, 41.5305633 ], [ 2.0879892, 41.5305554 ], [ 2.0891474, 41.5308246 ], [ 2.0891261, 41.5309421 ], [ 2.090052, 41.5319501 ], [ 2.0902058, 41.5321524 ], [ 2.0902665, 41.5323148 ], [ 2.09026, 41.5324766 ], [ 2.0902546, 41.5326107 ], [ 2.0901387, 41.5327503 ], [ 2.0894017, 41.5336371 ], [ 2.0892285, 41.5338163 ], [ 2.0884682, 41.5346738 ], [ 2.0883824, 41.5347705 ], [ 2.0883514, 41.5348015 ], [ 2.0879812, 41.5352061 ], [ 2.0863213, 41.5368255 ], [ 2.0860451, 41.5369655 ], [ 2.0857706, 41.5369879 ], [ 2.0856013, 41.536962 ], [ 2.085303, 41.5368223 ], [ 2.0849375, 41.5363534 ], [ 2.0845989, 41.5358259 ], [ 2.0842199, 41.5353863 ], [ 2.083741, 41.5350931 ], [ 2.0832728, 41.5349572 ], [ 2.0827903, 41.5349237 ], [ 2.0823925, 41.534896 ], [ 2.0823761, 41.534875 ], [ 2.0823347, 41.534822 ], [ 2.0823062, 41.5345323 ], [ 2.0823423, 41.5342873 ], [ 2.0824952, 41.5340522 ], [ 2.082694, 41.5338831 ], [ 2.0833679, 41.5333097 ], [ 2.0836928, 41.5330787 ], [ 2.0841924, 41.5326683 ], [ 2.0842269, 41.5326401 ], [ 2.0841827, 41.5326099 ], [ 2.0843969, 41.5324275 ], [ 2.0850423, 41.5318829 ], [ 2.0856872, 41.5314069 ], [ 2.0857276, 41.5313769 ], [ 2.086435, 41.5308523 ] ] ] } },
{ "type": "Feature", "properties": { "CCAA": "09 - Cataluña", "PROVINCIA": "08 - Barcelona", "MUNICIPIO": "08238 - Sant Quirze del Vallès", "COD_MUNICIPIO": "08238", "DISTRITO": "01", "SECCION": "0823801007", "V1_H": 82.5, "V1_M": 87.29, "V2_H": 82.15783722, "V2_M": 87.30677587, "V3_H": 82.90083825000001, "V3_M": 87.37512967000001 }, "geometry": { "type": "Polygon", "coordinates": [ [ [ 2.0794015, 41.5299735 ], [ 2.0792274, 41.530073 ], [ 2.0792131, 41.5300815 ], [ 2.0791983, 41.5300895 ], [ 2.079183, 41.5300969 ], [ 2.0791672, 41.5301036 ], [ 2.0791508, 41.5301098 ], [ 2.0791341, 41.5301152 ], [ 2.0791171, 41.53012 ], [ 2.0790874, 41.5301256 ], [ 2.0790447, 41.5301333 ], [ 2.0790018, 41.5301402 ], [ 2.0789587, 41.5301463 ], [ 2.0789155, 41.5301518 ], [ 2.078872, 41.5301566 ], [ 2.0788638, 41.5301582 ], [ 2.0788242, 41.5301453 ], [ 2.0788206, 41.5301474 ], [ 2.0787652, 41.5301793 ], [ 2.0787092, 41.5302107 ], [ 2.0786525, 41.5302415 ], [ 2.0785954, 41.5302717 ], [ 2.0785377, 41.5303013 ], [ 2.0784795, 41.5303304 ], [ 2.0784207, 41.5303587 ], [ 2.0783615, 41.5303865 ], [ 2.0783017, 41.5304138 ], [ 2.0782917, 41.5304183 ], [ 2.0782469, 41.5304384 ], [ 2.0782015, 41.5304579 ], [ 2.0781557, 41.5304768 ], [ 2.0781094, 41.530495 ], [ 2.0780626, 41.5305126 ], [ 2.0780154, 41.5305295 ], [ 2.0779679, 41.5305458 ], [ 2.0779199, 41.5305614 ], [ 2.0778716, 41.5305763 ], [ 2.077823, 41.5305906 ], [ 2.077774, 41.5306043 ], [ 2.0777395, 41.530612 ], [ 2.0776998, 41.5306203 ], [ 2.0776599, 41.5306278 ], [ 2.0776198, 41.5306347 ], [ 2.0775794, 41.5306409 ], [ 2.0775388, 41.5306463 ], [ 2.0774982, 41.530651 ], [ 2.0774575, 41.530655 ], [ 2.0774164, 41.5306583 ], [ 2.0773755, 41.5306608 ], [ 2.0773343, 41.5306627 ], [ 2.0772932, 41.5306639 ], [ 2.0772521, 41.5306643 ], [ 2.0772339, 41.5306646 ], [ 2.0771696, 41.530665 ], [ 2.0771054, 41.5306647 ], [ 2.0770411, 41.5306637 ], [ 2.0769769, 41.530662 ], [ 2.0769128, 41.5306596 ], [ 2.0768488, 41.5306564 ], [ 2.0767846, 41.5306525 ], [ 2.0767207, 41.5306479 ], [ 2.0766568, 41.5306426 ], [ 2.0765931, 41.5306366 ], [ 2.0765295, 41.5306299 ], [ 2.0763353, 41.5306083 ], [ 2.0760939, 41.5305808 ], [ 2.0758783, 41.5305562 ], [ 2.0755835, 41.530523 ], [ 2.0755608, 41.5305203 ], [ 2.075534, 41.530518 ], [ 2.075507, 41.5305162 ], [ 2.07548, 41.5305153 ], [ 2.0754531, 41.530515 ], [ 2.0754261, 41.5305155 ], [ 2.0751964, 41.5305365 ], [ 2.07476, 41.5305781 ], [ 2.0747455, 41.5305565 ], [ 2.0747302, 41.5305351 ], [ 2.074714, 41.5305142 ], [ 2.074697, 41.5304936 ], [ 2.0746792, 41.5304733 ], [ 2.0746607, 41.5304536 ], [ 2.0746413, 41.5304342 ], [ 2.0745577, 41.5303545 ], [ 2.0745247, 41.5303786 ], [ 2.0742892, 41.5302457 ], [ 2.0738157, 41.5299665 ], [ 2.0737648, 41.5299366 ], [ 2.0723424, 41.5291533 ], [ 2.0713337, 41.5285978 ], [ 2.0713405, 41.5288499 ], [ 2.0702461, 41.5283745 ], [ 2.0698837, 41.5282171 ], [ 2.0694915, 41.5280467 ], [ 2.0687468, 41.5277292 ], [ 2.0674999, 41.5278395 ], [ 2.0674409, 41.5277859 ], [ 2.0673773, 41.5276793 ], [ 2.0672923, 41.527548 ], [ 2.0671958, 41.5274574 ], [ 2.0670993, 41.5273709 ], [ 2.0669918, 41.5272925 ], [ 2.0668569, 41.5272302 ], [ 2.0667271, 41.5271924 ], [ 2.0666026, 41.5271587 ], [ 2.066478, 41.5271373 ], [ 2.066364, 41.5271364 ], [ 2.0662014, 41.5271106 ], [ 2.0660225, 41.5270887 ], [ 2.0658326, 41.5270709 ], [ 2.0656754, 41.5270533 ], [ 2.0655289, 41.5270439 ], [ 2.0656224, 41.526959 ], [ 2.0657381, 41.5268497 ], [ 2.0658261, 41.5267688 ], [ 2.0659145, 41.5266634 ], [ 2.065978, 41.5265873 ], [ 2.0661059, 41.5264157 ], [ 2.0661962, 41.5262707 ], [ 2.066286, 41.5261521 ], [ 2.0663848, 41.526027 ], [ 2.0665104, 41.5258823 ], [ 2.066609, 41.5257704 ], [ 2.0667252, 41.5256587 ], [ 2.0669303, 41.5255013 ], [ 2.0671617, 41.5253508 ], [ 2.067411, 41.5251871 ], [ 2.0677484, 41.5250242 ], [ 2.0680938, 41.524921 ], [ 2.0686445, 41.5248325 ], [ 2.0686591, 41.5248652 ], [ 2.0687111, 41.5249215 ], [ 2.068809, 41.5250274 ], [ 2.0690865, 41.5253277 ], [ 2.0692002, 41.5254508 ], [ 2.0692799, 41.5255158 ], [ 2.0693065, 41.5255366 ], [ 2.0693339, 41.5255568 ], [ 2.0693618, 41.5255766 ], [ 2.0693906, 41.5255957 ], [ 2.0694198, 41.5256144 ], [ 2.0694334, 41.5256226 ], [ 2.0694497, 41.5256325 ], [ 2.0694801, 41.5256499 ], [ 2.0695112, 41.525667 ], [ 2.0695428, 41.5256833 ], [ 2.069575, 41.525699 ], [ 2.0696076, 41.5257142 ], [ 2.0696408, 41.5257287 ], [ 2.0696745, 41.5257426 ], [ 2.0697085, 41.5257558 ], [ 2.069743, 41.5257684 ], [ 2.0697779, 41.5257805 ], [ 2.0698555, 41.525807 ], [ 2.0698876, 41.5258192 ], [ 2.0699296, 41.525835 ], [ 2.0700482, 41.5258858 ], [ 2.0706923, 41.5261615 ], [ 2.0717128, 41.5265983 ], [ 2.0719185, 41.5266865 ], [ 2.0720349, 41.526738 ], [ 2.0726615, 41.5270155 ], [ 2.0731761, 41.5272434 ], [ 2.0732843, 41.5272914 ], [ 2.0738361, 41.5275358 ], [ 2.0738673, 41.5275492 ], [ 2.0738981, 41.5275633 ], [ 2.0739143, 41.5275712 ], [ 2.0739284, 41.5275781 ], [ 2.0739581, 41.5275934 ], [ 2.0739874, 41.5276093 ], [ 2.074016, 41.5276257 ], [ 2.0740441, 41.5276428 ], [ 2.0740715, 41.5276604 ], [ 2.0740982, 41.5276785 ], [ 2.0741244, 41.5276972 ], [ 2.0741499, 41.5277163 ], [ 2.0741764, 41.5277374 ], [ 2.0742333, 41.5277798 ], [ 2.0742896, 41.5278226 ], [ 2.0743341, 41.5278572 ], [ 2.0743452, 41.527866 ], [ 2.0744001, 41.5279098 ], [ 2.0744415, 41.5279437 ], [ 2.0744544, 41.5279542 ], [ 2.0746684, 41.5280885 ], [ 2.0749183, 41.5282721 ], [ 2.0750038, 41.528335 ], [ 2.0750866, 41.5283958 ], [ 2.075095, 41.528402 ], [ 2.0751446, 41.5284426 ], [ 2.0755033, 41.5287363 ], [ 2.0758995, 41.5290606 ], [ 2.0759963, 41.529144 ], [ 2.076042, 41.5291846 ], [ 2.0761589, 41.5292884 ], [ 2.0770282, 41.5298361 ], [ 2.0770535, 41.529852 ], [ 2.0770795, 41.5298672 ], [ 2.0771061, 41.5298821 ], [ 2.0771332, 41.5298962 ], [ 2.0771609, 41.5299098 ], [ 2.0771892, 41.5299227 ], [ 2.0772178, 41.5299351 ], [ 2.077247, 41.5299468 ], [ 2.0772765, 41.5299579 ], [ 2.0773065, 41.5299682 ], [ 2.0773369, 41.529978 ], [ 2.0773676, 41.5299871 ], [ 2.0773987, 41.5299956 ], [ 2.0774301, 41.5300033 ], [ 2.0774618, 41.5300103 ], [ 2.0774937, 41.5300167 ], [ 2.0775259, 41.5300224 ], [ 2.0775583, 41.5300273 ], [ 2.0775909, 41.5300315 ], [ 2.0776235, 41.530035 ], [ 2.0776563, 41.5300379 ], [ 2.0776942, 41.5300403 ], [ 2.0777449, 41.5300414 ], [ 2.0777957, 41.5300419 ], [ 2.0778465, 41.5300417 ], [ 2.0778974, 41.5300407 ], [ 2.0779482, 41.5300391 ], [ 2.0779989, 41.5300367 ], [ 2.0780496, 41.5300335 ], [ 2.0781001, 41.5300298 ], [ 2.0781506, 41.5300252 ], [ 2.0782009, 41.5300199 ], [ 2.0782511, 41.530014 ], [ 2.0783012, 41.5300073 ], [ 2.078351, 41.53 ], [ 2.0784007, 41.5299918 ], [ 2.0784501, 41.529983 ], [ 2.0784993, 41.5299735 ], [ 2.0785484, 41.5299634 ], [ 2.0785971, 41.5299525 ], [ 2.0786456, 41.5299409 ], [ 2.078675, 41.5299334 ], [ 2.0787331, 41.5299155 ], [ 2.0787732, 41.5299035 ], [ 2.0788131, 41.5298908 ], [ 2.0788526, 41.5298775 ], [ 2.0788918, 41.5298635 ], [ 2.0789304, 41.5298489 ], [ 2.0789687, 41.5298336 ], [ 2.0790064, 41.5298177 ], [ 2.0790437, 41.5298011 ], [ 2.0790805, 41.529784 ], [ 2.0791168, 41.5297662 ], [ 2.0791526, 41.5297479 ], [ 2.0791877, 41.529729 ], [ 2.0791991, 41.5297225 ], [ 2.0793141, 41.5298875 ], [ 2.0794015, 41.5299735 ] ] ] } },
{ "type": "Feature", "properties": { "CCAA": "09 - Cataluña", "PROVINCIA": "08 - Barcelona", "MUNICIPIO": "08238 - Sant Quirze del Vallès", "COD_MUNICIPIO": "08238", "DISTRITO": "01", "SECCION": "0823801001", "V1_H": 81.9, "V1_M": 87.09, "V2_H": 81.63118556000001, "V2_M": 87.01244814, "V3_H": 82.24024873, "V3_M": 87.26921271000001 }, "geometry": { "type": "Polygon", "coordinates": [ [ [ 2.086435, 41.5308523 ], [ 2.0857276, 41.5313769 ], [ 2.0856872, 41.5314069 ], [ 2.0850423, 41.5318829 ], [ 2.0843969, 41.5324275 ], [ 2.0841827, 41.5326099 ], [ 2.0842269, 41.5326401 ], [ 2.0841924, 41.5326683 ], [ 2.0836928, 41.5330787 ], [ 2.0832206, 41.532711 ], [ 2.0831554, 41.5326601 ], [ 2.0828021, 41.5323821 ], [ 2.0821523, 41.5321735 ], [ 2.0818484, 41.5322085 ], [ 2.0815157, 41.532242 ], [ 2.0812173, 41.5322793 ], [ 2.0812745, 41.5321102 ], [ 2.0813602, 41.5318359 ], [ 2.0813417, 41.5318323 ], [ 2.0813497, 41.5318089 ], [ 2.081449, 41.531519 ], [ 2.0814998, 41.5313899 ], [ 2.0815205, 41.5313368 ], [ 2.0815853, 41.5311718 ], [ 2.0817225, 41.5308593 ], [ 2.0818023, 41.5306777 ], [ 2.0825051, 41.5302999 ], [ 2.0827449, 41.5301712 ], [ 2.0827932, 41.5301453 ], [ 2.0828095, 41.5301372 ], [ 2.0828253, 41.5301286 ], [ 2.0828406, 41.5301194 ], [ 2.0828552, 41.5301097 ], [ 2.0828691, 41.5300994 ], [ 2.0828825, 41.5300887 ], [ 2.0828951, 41.5300774 ], [ 2.0829069, 41.5300657 ], [ 2.0829179, 41.5300537 ], [ 2.0829281, 41.5300411 ], [ 2.0829375, 41.5300282 ], [ 2.0829461, 41.5300151 ], [ 2.08295, 41.5300086 ], [ 2.0834782, 41.5292663 ], [ 2.0842077, 41.5281648 ], [ 2.0842628, 41.5280929 ], [ 2.0842947, 41.5280673 ], [ 2.0843184, 41.5280516 ], [ 2.0843483, 41.528041 ], [ 2.0843659, 41.528037 ], [ 2.0844696, 41.5280404 ], [ 2.0845145, 41.5280411 ], [ 2.0845594, 41.5280412 ], [ 2.0845819, 41.5280408 ], [ 2.0846491, 41.528039 ], [ 2.084694, 41.528037 ], [ 2.0847802, 41.5280312 ], [ 2.0847983, 41.5280294 ], [ 2.0848164, 41.5280268 ], [ 2.0848343, 41.5280236 ], [ 2.0848518, 41.5280196 ], [ 2.0848692, 41.528015 ], [ 2.084886, 41.5280097 ], [ 2.0849026, 41.5280038 ], [ 2.0849187, 41.5279972 ], [ 2.0849343, 41.52799 ], [ 2.0849494, 41.5279821 ], [ 2.084964, 41.5279738 ], [ 2.084978, 41.5279648 ], [ 2.0849912, 41.5279553 ], [ 2.0850039, 41.5279453 ], [ 2.0850158, 41.5279348 ], [ 2.0850269, 41.527924 ], [ 2.0850373, 41.5279126 ], [ 2.085047, 41.5279008 ], [ 2.0850556, 41.5278887 ], [ 2.085063, 41.5278772 ], [ 2.0857618, 41.5282192 ], [ 2.0863567, 41.528935 ], [ 2.0866274, 41.5295433 ], [ 2.0871185, 41.5303246 ], [ 2.0870703, 41.5303294 ], [ 2.0868289, 41.5303534 ], [ 2.0859455, 41.5304305 ], [ 2.0862016, 41.5304636 ], [ 2.086435, 41.5308523 ] ] ] } },
{ "type": "Feature", "properties": { "CCAA": "09 - Cataluña", "PROVINCIA": "08 - Barcelona", "MUNICIPIO": "08238 - Sant Quirze del Vallès", "COD_MUNICIPIO": "08238", "DISTRITO": "01", "SECCION": "0823801003", "V1_H": 81.37, "V1_M": 86.85, "V2_H": 81.08688328, "V2_M": 86.76748373, "V3_H": 81.75507894, "V3_M": 87.07522296 }, "geometry": { "type": "Polygon", "coordinates": [ [ [ 2.0551793, 41.5257548 ], [ 2.0542512, 41.5254172 ], [ 2.0533372, 41.5255985 ], [ 2.052269, 41.5255579 ], [ 2.0518908, 41.5255212 ], [ 2.0514476, 41.5253654 ], [ 2.0512365, 41.5252604 ], [ 2.0510671, 41.5251687 ], [ 2.0509443, 41.5251551 ], [ 2.0507611, 41.5252127 ], [ 2.0506145, 41.5252839 ], [ 2.0504653, 41.5253858 ], [ 2.0503481, 41.5254443 ], [ 2.0502425, 41.5254566 ], [ 2.0498902, 41.5255559 ], [ 2.04936, 41.5257165 ], [ 2.0490654, 41.5257752 ], [ 2.0487205, 41.5257751 ], [ 2.0479371, 41.52568 ], [ 2.0473759, 41.5256045 ], [ 2.0469881, 41.5255501 ], [ 2.0465414, 41.5253911 ], [ 2.0461128, 41.5252194 ], [ 2.045765, 41.524987 ], [ 2.0454526, 41.5247601 ], [ 2.0453435, 41.524703 ], [ 2.0451709, 41.5246034 ], [ 2.0448224, 41.5245234 ], [ 2.0444169, 41.524527 ], [ 2.0440802, 41.5245989 ], [ 2.0436523, 41.5243962 ], [ 2.0431119, 41.5241317 ], [ 2.0429475, 41.5240556 ], [ 2.0428287, 41.524037 ], [ 2.0426775, 41.5240484 ], [ 2.042618, 41.5240987 ], [ 2.0426046, 41.5241707 ], [ 2.0426785, 41.5243056 ], [ 2.042765, 41.5243995 ], [ 2.0428586, 41.5245026 ], [ 2.042917, 41.5245596 ], [ 2.0424841, 41.5244142 ], [ 2.0422847, 41.5243372 ], [ 2.0421439, 41.5242791 ], [ 2.0418595, 41.5241272 ], [ 2.0417491, 41.5240535 ], [ 2.0414603, 41.524171 ], [ 2.0410542, 41.5243294 ], [ 2.0407921, 41.5245458 ], [ 2.0407482, 41.5246334 ], [ 2.0406777, 41.5247866 ], [ 2.0406284, 41.5250079 ], [ 2.0406787, 41.5250843 ], [ 2.0408028, 41.5252528 ], [ 2.0408269, 41.5253589 ], [ 2.040672, 41.5255277 ], [ 2.0405058, 41.5257137 ], [ 2.0402979, 41.5259753 ], [ 2.0401871, 41.5260993 ], [ 2.039928, 41.5263536 ], [ 2.0397956, 41.5265667 ], [ 2.0397091, 41.5267587 ], [ 2.0395989, 41.5270541 ], [ 2.0395615, 41.5272654 ], [ 2.0395752, 41.5273601 ], [ 2.0396745, 41.5275773 ], [ 2.0397909, 41.5277294 ], [ 2.0398581, 41.5278193 ], [ 2.0393338, 41.5277209 ], [ 2.0390363, 41.5276053 ], [ 2.0388686, 41.5274459 ], [ 2.0385253, 41.5271489 ], [ 2.0384358, 41.5271386 ], [ 2.0381425, 41.5268323 ], [ 2.0377491, 41.5265017 ], [ 2.0371174, 41.5259197 ], [ 2.0367701, 41.525611 ], [ 2.0366999, 41.5258094 ], [ 2.0366199, 41.5260439 ], [ 2.0365311, 41.5262884 ], [ 2.0364839, 41.5264144 ], [ 2.0364074, 41.5266131 ], [ 2.036361, 41.5267509 ], [ 2.0362422, 41.5268943 ], [ 2.0359899, 41.527196 ], [ 2.03579, 41.5274382 ], [ 2.0352972, 41.5273383 ], [ 2.0351757, 41.5273246 ], [ 2.0350412, 41.5273472 ], [ 2.034896, 41.5273964 ], [ 2.0339228, 41.5277631 ], [ 2.0336287, 41.5278951 ], [ 2.0334971, 41.5279962 ], [ 2.0333698, 41.5281113 ], [ 2.033131, 41.528098 ], [ 2.0329832, 41.5274613 ], [ 2.032861, 41.5269903 ], [ 2.0327656, 41.5267824 ], [ 2.032732, 41.5264314 ], [ 2.032653, 41.5261895 ], [ 2.0324814, 41.525449 ], [ 2.0325397, 41.525425 ], [ 2.0325968, 41.5253844 ], [ 2.0326427, 41.5253228 ], [ 2.032667, 41.5252265 ], [ 2.0326291, 41.5251472 ], [ 2.0325771, 41.5250899 ], [ 2.0324758, 41.5250515 ], [ 2.0323794, 41.5250342 ], [ 2.0323411, 41.5247858 ], [ 2.0322254, 41.524112 ], [ 2.0321287, 41.5236017 ], [ 2.0320613, 41.5232235 ], [ 2.0320063, 41.5228829 ], [ 2.0318916, 41.5222638 ], [ 2.032299, 41.5221626 ], [ 2.0326134, 41.5221702 ], [ 2.0328244, 41.5222348 ], [ 2.0333, 41.5221544 ], [ 2.0333336, 41.5221386 ], [ 2.0337813, 41.5219856 ], [ 2.0339999, 41.5219021 ], [ 2.0340995, 41.5218787 ], [ 2.0342348, 41.5218656 ], [ 2.0343784, 41.5218784 ], [ 2.0344906, 41.5218544 ], [ 2.0350905, 41.5217423 ], [ 2.0357976, 41.5216231 ], [ 2.0360401, 41.521522 ], [ 2.036142, 41.5214865 ], [ 2.0363609, 41.5214078 ], [ 2.036693, 41.5212765 ], [ 2.0368073, 41.5212382 ], [ 2.0369956, 41.5211727 ], [ 2.0367233, 41.5209322 ], [ 2.0365489, 41.5207683 ], [ 2.0363467, 41.5205724 ], [ 2.036122, 41.5203321 ], [ 2.0360501, 41.5202233 ], [ 2.0359616, 41.5200741 ], [ 2.035962, 41.5199977 ], [ 2.0359569, 41.51985 ], [ 2.0359674, 41.5197397 ], [ 2.0358275, 41.519574 ], [ 2.0355819, 41.5192746 ], [ 2.0355522, 41.5191375 ], [ 2.0355129, 41.5189578 ], [ 2.0354817, 41.5188017 ], [ 2.0354956, 41.518572 ], [ 2.0355494, 41.5182832 ], [ 2.0353804, 41.5181522 ], [ 2.035325, 41.5180926 ], [ 2.0352134, 41.5179639 ], [ 2.0350923, 41.5177629 ], [ 2.0350213, 41.5176555 ], [ 2.0350164, 41.5175923 ], [ 2.0349858, 41.5174429 ], [ 2.0349857, 41.5174422 ], [ 2.0349531, 41.5172329 ], [ 2.0348993, 41.5171725 ], [ 2.0347532, 41.5170084 ], [ 2.0344686, 41.5168893 ], [ 2.0347473, 41.5168032 ], [ 2.0347472, 41.5168031 ], [ 2.0340809, 41.5160924 ], [ 2.0330929, 41.5140116 ], [ 2.0334929, 41.5126801 ], [ 2.0348588, 41.5134586 ], [ 2.0348208, 41.5122679 ], [ 2.0348204, 41.5122561 ], [ 2.0348399, 41.5122572 ], [ 2.0348519, 41.5122584 ], [ 2.034866, 41.5122595 ], [ 2.034878, 41.5122604 ], [ 2.0349011, 41.5122617 ], [ 2.034925, 41.5122628 ], [ 2.034937, 41.5122636 ], [ 2.0349599, 41.512266 ], [ 2.0349717, 41.5122675 ], [ 2.0349949, 41.5122686 ], [ 2.0350069, 41.5122696 ], [ 2.0350245, 41.5122766 ], [ 2.0350416, 41.5122884 ], [ 2.0350504, 41.5122945 ], [ 2.0350608, 41.512302 ], [ 2.0350695, 41.5123082 ], [ 2.0350783, 41.5123144 ], [ 2.0350872, 41.5123204 ], [ 2.0351006, 41.5123274 ], [ 2.0351121, 41.5123339 ], [ 2.0351216, 41.5123395 ], [ 2.0351308, 41.5123454 ], [ 2.0351423, 41.5123538 ], [ 2.0351506, 41.5123603 ], [ 2.0351592, 41.5123666 ], [ 2.0351694, 41.5123735 ], [ 2.0351784, 41.5123795 ], [ 2.0351902, 41.5123874 ], [ 2.0351992, 41.5123934 ], [ 2.0352081, 41.5123994 ], [ 2.0352171, 41.5124054 ], [ 2.0352274, 41.5124142 ], [ 2.0352352, 41.5124211 ], [ 2.0352456, 41.5124294 ], [ 2.035254, 41.5124358 ], [ 2.0352629, 41.5124419 ], [ 2.035275, 41.5124495 ], [ 2.0352842, 41.5124552 ], [ 2.0352976, 41.5124634 ], [ 2.0353069, 41.5124692 ], [ 2.035323, 41.5124814 ], [ 2.0353332, 41.5124881 ], [ 2.0353422, 41.512494 ], [ 2.0353514, 41.5124998 ], [ 2.035365, 41.5125081 ], [ 2.0353743, 41.5125138 ], [ 2.0353837, 41.5125194 ], [ 2.035393, 41.512525 ], [ 2.0354023, 41.5125307 ], [ 2.0354116, 41.5125365 ], [ 2.0354313, 41.5125507 ], [ 2.035445, 41.5125569 ], [ 2.0354564, 41.5125621 ], [ 2.0354722, 41.5125692 ], [ 2.0354842, 41.5125671 ], [ 2.0354961, 41.5125649 ], [ 2.0355194, 41.5125621 ], [ 2.0355314, 41.5125613 ], [ 2.0355433, 41.5125605 ], [ 2.0355553, 41.5125595 ], [ 2.0355717, 41.5125577 ], [ 2.0355836, 41.5125563 ], [ 2.0355954, 41.5125549 ], [ 2.0356072, 41.5125536 ], [ 2.0356191, 41.5125521 ], [ 2.0356309, 41.5125508 ], [ 2.0356547, 41.5125481 ], [ 2.0356665, 41.5125469 ], [ 2.0356784, 41.5125457 ], [ 2.0356944, 41.5125441 ], [ 2.0357062, 41.5125429 ], [ 2.0357183, 41.5125418 ], [ 2.0357301, 41.5125407 ], [ 2.0357515, 41.5125385 ], [ 2.0357753, 41.5125361 ], [ 2.0357882, 41.5125354 ], [ 2.0358181, 41.5125333 ], [ 2.0358639, 41.512538 ], [ 2.0358804, 41.5125399 ], [ 2.0358959, 41.5125428 ], [ 2.0359076, 41.5125451 ], [ 2.0359192, 41.5125472 ], [ 2.0359325, 41.5125492 ], [ 2.0359443, 41.5125509 ], [ 2.035956, 41.5125527 ], [ 2.0359678, 41.5125545 ], [ 2.0359862, 41.5125573 ], [ 2.0359981, 41.5125591 ], [ 2.0360148, 41.5125608 ], [ 2.0360268, 41.5125616 ], [ 2.0360389, 41.512562 ], [ 2.0360513, 41.5125623 ], [ 2.0360633, 41.5125625 ], [ 2.0360753, 41.5125629 ], [ 2.0360873, 41.5125635 ], [ 2.0361113, 41.5125645 ], [ 2.0361233, 41.5125652 ], [ 2.0361448, 41.5125664 ], [ 2.0361567, 41.5125669 ], [ 2.0361776, 41.5125667 ], [ 2.0361896, 41.5125663 ], [ 2.0362135, 41.5125652 ], [ 2.0362255, 41.5125649 ], [ 2.0362459, 41.5125643 ], [ 2.0362579, 41.5125641 ], [ 2.0362699, 41.5125638 ], [ 2.0362828, 41.5125637 ], [ 2.0362949, 41.5125637 ], [ 2.0363165, 41.5125633 ], [ 2.0363285, 41.512563 ], [ 2.0363405, 41.5125627 ], [ 2.0363642, 41.5125616 ], [ 2.0363762, 41.512561 ], [ 2.0363882, 41.5125605 ], [ 2.0364002, 41.51256 ], [ 2.0364182, 41.5125595 ], [ 2.0364302, 41.5125595 ], [ 2.0364421, 41.5125595 ], [ 2.0364582, 41.512558 ], [ 2.0364702, 41.5125569 ], [ 2.0364829, 41.5125558 ], [ 2.0364947, 41.5125547 ], [ 2.0365067, 41.5125536 ], [ 2.036529, 41.5125528 ], [ 2.0365513, 41.5125517 ], [ 2.0366035, 41.5125459 ], [ 2.0366221, 41.5125435 ], [ 2.0366341, 41.5125422 ], [ 2.0366479, 41.5125406 ], [ 2.0366598, 41.51254 ], [ 2.0366718, 41.5125397 ], [ 2.036671, 41.5125308 ], [ 2.0366675, 41.512499 ], [ 2.036664, 41.5124723 ], [ 2.038627, 41.5130933 ], [ 2.0396824, 41.5124899 ], [ 2.0411834, 41.512694 ], [ 2.0418931, 41.5122661 ], [ 2.0431775, 41.5123081 ], [ 2.0437171, 41.5101518 ], [ 2.0443042, 41.5098559 ], [ 2.043994, 41.5092862 ], [ 2.0441729, 41.5093572 ], [ 2.0443224, 41.5094104 ], [ 2.0445311, 41.5094324 ], [ 2.044576, 41.5094143 ], [ 2.0448681, 41.5094863 ], [ 2.044914, 41.5095175 ], [ 2.0449014, 41.5095457 ], [ 2.0449063, 41.5096038 ], [ 2.0449977, 41.5096578 ], [ 2.0450898, 41.5097087 ], [ 2.0451591, 41.5097388 ], [ 2.0452133, 41.5096607 ], [ 2.045277, 41.5095692 ], [ 2.0454421, 41.5096165 ], [ 2.04549, 41.5095241 ], [ 2.045552, 41.5094049 ], [ 2.0470426, 41.5097889 ], [ 2.0482145, 41.5097109 ], [ 2.0497944, 41.5096058 ], [ 2.0508594, 41.511745 ], [ 2.0515566, 41.5122376 ], [ 2.0532139, 41.5138218 ], [ 2.0570848, 41.5161523 ], [ 2.0584087, 41.5185332 ], [ 2.0618961, 41.5192831 ], [ 2.0633988, 41.5196062 ], [ 2.0633893, 41.519643 ], [ 2.0633223, 41.5197457 ], [ 2.0632939, 41.5198149 ], [ 2.0632508, 41.5199036 ], [ 2.0632804, 41.5199673 ], [ 2.0631891, 41.5200435 ], [ 2.0631765, 41.520122 ], [ 2.0630477, 41.5202098 ], [ 2.0628581, 41.5203081 ], [ 2.0626488, 41.5203801 ], [ 2.0626797, 41.5204153 ], [ 2.0625906, 41.5204933 ], [ 2.0624788, 41.5205601 ], [ 2.0623678, 41.5206101 ], [ 2.06225, 41.5207102 ], [ 2.0621362, 41.5207702 ], [ 2.0620428, 41.5208413 ], [ 2.06195, 41.5208989 ], [ 2.0618192, 41.5209766 ], [ 2.0617136, 41.5210605 ], [ 2.0616193, 41.5211533 ], [ 2.0615899, 41.5211922 ], [ 2.0615427, 41.5212656 ], [ 2.0614034, 41.521326 ], [ 2.0613084, 41.5213785 ], [ 2.0612672, 41.5214757 ], [ 2.0611336, 41.5216205 ], [ 2.0610816, 41.5216969 ], [ 2.0609981, 41.5217551 ], [ 2.0608613, 41.5218643 ], [ 2.0607322, 41.5219572 ], [ 2.0606757, 41.5220318 ], [ 2.0605652, 41.5221239 ], [ 2.0604599, 41.5222011 ], [ 2.0603602, 41.5222567 ], [ 2.0602351, 41.522311 ], [ 2.0601609, 41.5223937 ], [ 2.0601426, 41.5224141 ], [ 2.0600473, 41.522475 ], [ 2.059939, 41.5225298 ], [ 2.0598684, 41.5225732 ], [ 2.0598403, 41.522601 ], [ 2.0597943, 41.5226186 ], [ 2.059739, 41.5226397 ], [ 2.0596245, 41.5227165 ], [ 2.0594583, 41.5228108 ], [ 2.0593214, 41.5228679 ], [ 2.0591146, 41.5229351 ], [ 2.058843, 41.5229452 ], [ 2.0587014, 41.5228978 ], [ 2.0585252, 41.5228453 ], [ 2.0583896, 41.5227663 ], [ 2.0583045, 41.5226948 ], [ 2.0581896, 41.5226184 ], [ 2.0581562, 41.5226958 ], [ 2.0580828, 41.5227847 ], [ 2.0579764, 41.5229426 ], [ 2.0579209, 41.5230509 ], [ 2.0579106, 41.5231277 ], [ 2.057838, 41.5231998 ], [ 2.0577271, 41.5232465 ], [ 2.0576502, 41.5233116 ], [ 2.0575565, 41.5233894 ], [ 2.0574374, 41.5234643 ], [ 2.0573201, 41.5235509 ], [ 2.0572582, 41.5236438 ], [ 2.0571801, 41.5237374 ], [ 2.0570621, 41.5238948 ], [ 2.0570608, 41.523925 ], [ 2.0569405, 41.5240284 ], [ 2.0569047, 41.5241056 ], [ 2.0568672, 41.5242249 ], [ 2.0568828, 41.5243485 ], [ 2.0568621, 41.5243762 ], [ 2.0572006, 41.5242094 ], [ 2.0574297, 41.5240965 ], [ 2.0574298, 41.5240964 ], [ 2.0574297, 41.5240967 ], [ 2.0574291, 41.5240983 ], [ 2.0574297, 41.524098 ], [ 2.0572093, 41.5247258 ], [ 2.0571669, 41.5248468 ], [ 2.0551793, 41.5257548 ] ] ] } },
{ "type": "Feature", "properties": { "CCAA": "09 - Cataluña", "PROVINCIA": "08 - Barcelona", "MUNICIPIO": "08238 - Sant Quirze del Vallès", "COD_MUNICIPIO": "08238", "DISTRITO": "01", "SECCION": "0823801002", "V1_H": 83.02, "V1_M": 87.55, "V2_H": 82.56010262, "V2_M": 87.39744151, "V3_H": 83.4975015, "V3_M": 87.7973198 }, "geometry": { "type": "Polygon", "coordinates": [ [ [ 2.0818023, 41.5306777 ], [ 2.0815058, 41.5308399 ], [ 2.0801504, 41.5314129 ], [ 2.0798904, 41.5308037 ], [ 2.079714, 41.530451 ], [ 2.0796314, 41.5302858 ], [ 2.0796269, 41.5302766 ], [ 2.0796135, 41.5302503 ], [ 2.0795991, 41.5302241 ], [ 2.079584, 41.5301983 ], [ 2.079568, 41.5301727 ], [ 2.0795511, 41.5301475 ], [ 2.0795332, 41.5301226 ], [ 2.0795146, 41.530098 ], [ 2.0794952, 41.5300739 ], [ 2.079475, 41.53005 ], [ 2.0794539, 41.5300266 ], [ 2.0794322, 41.5300036 ], [ 2.0794015, 41.5299735 ], [ 2.0793141, 41.5298875 ], [ 2.0791991, 41.5297225 ], [ 2.0791877, 41.529729 ], [ 2.0791526, 41.5297479 ], [ 2.0791168, 41.5297662 ], [ 2.0790805, 41.529784 ], [ 2.0790437, 41.5298011 ], [ 2.0790064, 41.5298177 ], [ 2.0789687, 41.5298336 ], [ 2.0789304, 41.5298489 ], [ 2.0788918, 41.5298635 ], [ 2.0788526, 41.5298775 ], [ 2.0788131, 41.5298908 ], [ 2.0787732, 41.5299035 ], [ 2.0787331, 41.5299155 ], [ 2.078675, 41.5299334 ], [ 2.0786456, 41.5299409 ], [ 2.0785971, 41.5299525 ], [ 2.0785484, 41.5299634 ], [ 2.0784993, 41.5299735 ], [ 2.0784501, 41.529983 ], [ 2.0784007, 41.5299918 ], [ 2.078351, 41.53 ], [ 2.0783012, 41.5300073 ], [ 2.0782511, 41.530014 ], [ 2.0782009, 41.5300199 ], [ 2.0781506, 41.5300252 ], [ 2.0781001, 41.5300298 ], [ 2.0780496, 41.5300335 ], [ 2.0779989, 41.5300367 ], [ 2.0779482, 41.5300391 ], [ 2.0778974, 41.5300407 ], [ 2.0778465, 41.5300417 ], [ 2.0777957, 41.5300419 ], [ 2.0777449, 41.5300414 ], [ 2.0776942, 41.5300403 ], [ 2.0776563, 41.5300379 ], [ 2.0776235, 41.530035 ], [ 2.0775909, 41.5300315 ], [ 2.0775583, 41.5300273 ], [ 2.0775259, 41.5300224 ], [ 2.0774937, 41.5300167 ], [ 2.0774618, 41.5300103 ], [ 2.0774301, 41.5300033 ], [ 2.0773987, 41.5299956 ], [ 2.0773676, 41.5299871 ], [ 2.0773369, 41.529978 ], [ 2.0773065, 41.5299682 ], [ 2.0772765, 41.5299579 ], [ 2.077247, 41.5299468 ], [ 2.0772178, 41.5299351 ], [ 2.0771892, 41.5299227 ], [ 2.0771609, 41.5299098 ], [ 2.0771332, 41.5298962 ], [ 2.0771061, 41.5298821 ], [ 2.0770795, 41.5298672 ], [ 2.0770535, 41.529852 ], [ 2.0770282, 41.5298361 ], [ 2.0761589, 41.5292884 ], [ 2.076042, 41.5291846 ], [ 2.0759963, 41.529144 ], [ 2.0758995, 41.5290606 ], [ 2.0755033, 41.5287363 ], [ 2.0751446, 41.5284426 ], [ 2.075095, 41.528402 ], [ 2.0750866, 41.5283958 ], [ 2.0750038, 41.528335 ], [ 2.0749183, 41.5282721 ], [ 2.0746684, 41.5280885 ], [ 2.0744544, 41.5279542 ], [ 2.0744415, 41.5279437 ], [ 2.0744001, 41.5279098 ], [ 2.0743452, 41.527866 ], [ 2.0743341, 41.5278572 ], [ 2.0742896, 41.5278226 ], [ 2.0742333, 41.5277798 ], [ 2.0741764, 41.5277374 ], [ 2.0741499, 41.5277163 ], [ 2.0741244, 41.5276972 ], [ 2.0740982, 41.5276785 ], [ 2.0740715, 41.5276604 ], [ 2.0740441, 41.5276428 ], [ 2.074016, 41.5276257 ], [ 2.0739874, 41.5276093 ], [ 2.0739581, 41.5275934 ], [ 2.0739284, 41.5275781 ], [ 2.0739143, 41.5275712 ], [ 2.0738981, 41.5275633 ], [ 2.0738673, 41.5275492 ], [ 2.0738361, 41.5275358 ], [ 2.0732843, 41.5272914 ], [ 2.0731761, 41.5272434 ], [ 2.0726615, 41.5270155 ], [ 2.0720349, 41.526738 ], [ 2.0719185, 41.5266865 ], [ 2.0717128, 41.5265983 ], [ 2.0706923, 41.5261615 ], [ 2.0700482, 41.5258858 ], [ 2.0699296, 41.525835 ], [ 2.0698876, 41.5258192 ], [ 2.0698555, 41.525807 ], [ 2.0697779, 41.5257805 ], [ 2.069743, 41.5257684 ], [ 2.0697085, 41.5257558 ], [ 2.0696745, 41.5257426 ], [ 2.0696408, 41.5257287 ], [ 2.0696076, 41.5257142 ], [ 2.069575, 41.525699 ], [ 2.0695428, 41.5256833 ], [ 2.0695112, 41.525667 ], [ 2.0694801, 41.5256499 ], [ 2.0694497, 41.5256325 ], [ 2.0694334, 41.5256226 ], [ 2.0694198, 41.5256144 ], [ 2.0693906, 41.5255957 ], [ 2.0693618, 41.5255766 ], [ 2.0693339, 41.5255568 ], [ 2.0693065, 41.5255366 ], [ 2.0692799, 41.5255158 ], [ 2.0692002, 41.5254508 ], [ 2.0690865, 41.5253277 ], [ 2.068809, 41.5250274 ], [ 2.0687111, 41.5249215 ], [ 2.0686591, 41.5248652 ], [ 2.0686445, 41.5248325 ], [ 2.0685917, 41.524714 ], [ 2.0685289, 41.5245731 ], [ 2.0685243, 41.5245627 ], [ 2.0684875, 41.52448 ], [ 2.0684505, 41.524397 ], [ 2.0684324, 41.5243603 ], [ 2.0684325, 41.5243567 ], [ 2.0684365, 41.5242629 ], [ 2.0684332, 41.524177 ], [ 2.0684196, 41.5241157 ], [ 2.0684059, 41.5240023 ], [ 2.0683994, 41.5238843 ], [ 2.0683863, 41.5238096 ], [ 2.0683898, 41.5237274 ], [ 2.0683801, 41.5236293 ], [ 2.0683738, 41.5235601 ], [ 2.0683673, 41.5234958 ], [ 2.0683636, 41.5234199 ], [ 2.0683257, 41.5233289 ], [ 2.0683169, 41.5232629 ], [ 2.0682999, 41.5231729 ], [ 2.0682774, 41.5231011 ], [ 2.0682896, 41.5230344 ], [ 2.068309, 41.5229042 ], [ 2.0682623, 41.5227505 ], [ 2.06825, 41.5227129 ], [ 2.0682424, 41.5226738 ], [ 2.0682403, 41.5226132 ], [ 2.0682125, 41.5225041 ], [ 2.0682047, 41.5224163 ], [ 2.0681903, 41.5222642 ], [ 2.0681609, 41.5221382 ], [ 2.0681417, 41.5220448 ], [ 2.0681255, 41.5219346 ], [ 2.0681061, 41.5217924 ], [ 2.0681024, 41.5217148 ], [ 2.0680771, 41.5216026 ], [ 2.0680759, 41.5215217 ], [ 2.0680265, 41.5214301 ], [ 2.0680026, 41.5213381 ], [ 2.0680026, 41.5213299 ], [ 2.068089, 41.5214011 ], [ 2.0684007, 41.5216227 ], [ 2.0687113, 41.5218302 ], [ 2.0690322, 41.522009 ], [ 2.0692962, 41.5221008 ], [ 2.069674, 41.5223666 ], [ 2.0700642, 41.5226317 ], [ 2.0703477, 41.5228122 ], [ 2.0706215, 41.5229507 ], [ 2.0709696, 41.5230765 ], [ 2.071311, 41.5231179 ], [ 2.071658, 41.5231496 ], [ 2.0725253, 41.5232195 ], [ 2.0730498, 41.5232562 ], [ 2.0731113, 41.5232771 ], [ 2.0731548, 41.5232859 ], [ 2.0733113, 41.5233561 ], [ 2.0733614, 41.5236173 ], [ 2.0733755, 41.5237972 ], [ 2.0734971, 41.5240892 ], [ 2.0735789, 41.5242428 ], [ 2.0736342, 41.524421 ], [ 2.0738414, 41.5246715 ], [ 2.0738691, 41.5247741 ], [ 2.0739122, 41.5248204 ], [ 2.0741104, 41.5250824 ], [ 2.0745555, 41.5254707 ], [ 2.0750418, 41.5258201 ], [ 2.074883, 41.5259347 ], [ 2.0753502, 41.5262839 ], [ 2.0759253, 41.5266804 ], [ 2.076808, 41.5271952 ], [ 2.077646, 41.5276988 ], [ 2.07804, 41.5279122 ], [ 2.0783888, 41.5279956 ], [ 2.0795399, 41.5280172 ], [ 2.0804519, 41.5280098 ], [ 2.0811016, 41.528014 ], [ 2.0815429, 41.5280471 ], [ 2.0819293, 41.5281619 ], [ 2.082278, 41.5282454 ], [ 2.0826371, 41.528236 ], [ 2.0828582, 41.5281471 ], [ 2.0833211, 41.5278958 ], [ 2.0838632, 41.5276476 ], [ 2.0842808, 41.5274906 ], [ 2.0845493, 41.5273337 ], [ 2.0849426, 41.5272383 ], [ 2.0849425, 41.5272407 ], [ 2.0849422, 41.5272664 ], [ 2.0849431, 41.5272921 ], [ 2.0849449, 41.5273177 ], [ 2.0849476, 41.5273433 ], [ 2.0849513, 41.5273689 ], [ 2.0849559, 41.5273943 ], [ 2.0849614, 41.5274196 ], [ 2.084968, 41.5274448 ], [ 2.0849755, 41.5274699 ], [ 2.0849839, 41.5274949 ], [ 2.0849932, 41.5275195 ], [ 2.0850034, 41.527544 ], [ 2.0850146, 41.5275683 ], [ 2.0850266, 41.5275924 ], [ 2.0850396, 41.5276162 ], [ 2.0850534, 41.5276396 ], [ 2.0850698, 41.5276758 ], [ 2.0850935, 41.5277554 ], [ 2.0850939, 41.5277691 ], [ 2.0850935, 41.527783 ], [ 2.0850919, 41.5277967 ], [ 2.0850896, 41.5278103 ], [ 2.0850861, 41.5278239 ], [ 2.0850819, 41.5278373 ], [ 2.0850767, 41.5278505 ], [ 2.0850706, 41.5278635 ], [ 2.0850636, 41.5278762 ], [ 2.085063, 41.5278772 ], [ 2.0850556, 41.5278887 ], [ 2.085047, 41.5279008 ], [ 2.0850373, 41.5279126 ], [ 2.0850269, 41.527924 ], [ 2.0850158, 41.5279348 ], [ 2.0850039, 41.5279453 ], [ 2.0849912, 41.5279553 ], [ 2.084978, 41.5279648 ], [ 2.084964, 41.5279738 ], [ 2.0849494, 41.5279821 ], [ 2.0849343, 41.52799 ], [ 2.0849187, 41.5279972 ], [ 2.0849026, 41.5280038 ], [ 2.084886, 41.5280097 ], [ 2.0848692, 41.528015 ], [ 2.0848518, 41.5280196 ], [ 2.0848343, 41.5280236 ], [ 2.0848164, 41.5280268 ], [ 2.0847983, 41.5280294 ], [ 2.0847802, 41.5280312 ], [ 2.084694, 41.528037 ], [ 2.0846491, 41.528039 ], [ 2.0845819, 41.5280408 ], [ 2.0845594, 41.5280412 ], [ 2.0845145, 41.5280411 ], [ 2.0844696, 41.5280404 ], [ 2.0843659, 41.528037 ], [ 2.0843483, 41.528041 ], [ 2.0843184, 41.5280516 ], [ 2.0842947, 41.5280673 ], [ 2.0842628, 41.5280929 ], [ 2.0842077, 41.5281648 ], [ 2.0834782, 41.5292663 ], [ 2.08295, 41.5300086 ], [ 2.0829461, 41.5300151 ], [ 2.0829375, 41.5300282 ], [ 2.0829281, 41.5300411 ], [ 2.0829179, 41.5300537 ], [ 2.0829069, 41.5300657 ], [ 2.0828951, 41.5300774 ], [ 2.0828825, 41.5300887 ], [ 2.0828691, 41.5300994 ], [ 2.0828552, 41.5301097 ], [ 2.0828406, 41.5301194 ], [ 2.0828253, 41.5301286 ], [ 2.0828095, 41.5301372 ], [ 2.0827932, 41.5301453 ], [ 2.0827449, 41.5301712 ], [ 2.0825051, 41.5302999 ], [ 2.0818023, 41.5306777 ] ] ] } },
{ "type": "Feature", "properties": { "CCAA": "09 - Cataluña", "PROVINCIA": "08 - Barcelona", "MUNICIPIO": "08238 - Sant Quirze del Vallès", "COD_MUNICIPIO": "08238", "DISTRITO": "01", "SECCION": "0823801004", "V1_H": 82.27, "V1_M": 87.07, "V2_H": 81.979544, "V2_M": 86.90367115, "V3_H": 82.63571561000001, "V3_M": 87.32539334000001 }, "geometry": { "type": "Polygon", "coordinates": [ [ [ 2.075552, 41.5339709 ], [ 2.0755091, 41.5339388 ], [ 2.075114, 41.5341685 ], [ 2.0745255, 41.5342523 ], [ 2.0739488, 41.5343342 ], [ 2.0738675, 41.5343458 ], [ 2.0737791, 41.534352 ], [ 2.0733537, 41.5343961 ], [ 2.0729832, 41.5347263 ], [ 2.0705348, 41.5330128 ], [ 2.0695165, 41.5330337 ], [ 2.069143, 41.533021 ], [ 2.0688985, 41.5329996 ], [ 2.0686282, 41.5329781 ], [ 2.0683956, 41.5330246 ], [ 2.0681758, 41.5330809 ], [ 2.0679941, 41.5331666 ], [ 2.067839, 41.533204 ], [ 2.0676309, 41.5333379 ], [ 2.0674878, 41.5334336 ], [ 2.0674768, 41.5335729 ], [ 2.0673189, 41.5335803 ], [ 2.0671774, 41.5335817 ], [ 2.0670617, 41.533576 ], [ 2.0668837, 41.5335671 ], [ 2.0666855, 41.5335405 ], [ 2.066592, 41.5334501 ], [ 2.0664464, 41.5333874 ], [ 2.0662461, 41.5332463 ], [ 2.0661178, 41.5332113 ], [ 2.0660168, 41.533134 ], [ 2.0658949, 41.5331112 ], [ 2.065788, 41.5330638 ], [ 2.0656653, 41.5330073 ], [ 2.0655407, 41.5329372 ], [ 2.0654426, 41.5329021 ], [ 2.0652811, 41.5328285 ], [ 2.0652, 41.5327756 ], [ 2.0651182, 41.5326825 ], [ 2.0649972, 41.5325856 ], [ 2.0648795, 41.5325193 ], [ 2.0647564, 41.5324156 ], [ 2.0647195, 41.5323028 ], [ 2.0647177, 41.5321832 ], [ 2.064673, 41.5320347 ], [ 2.0646261, 41.5319398 ], [ 2.0645552, 41.5318068 ], [ 2.0644345, 41.531705 ], [ 2.0643637, 41.5315703 ], [ 2.0642477, 41.5314636 ], [ 2.0640834, 41.5313495 ], [ 2.0639719, 41.5312464 ], [ 2.0638597, 41.5310508 ], [ 2.0638023, 41.530984 ], [ 2.0637058, 41.5308026 ], [ 2.063554, 41.5306656 ], [ 2.0635061, 41.5305942 ], [ 2.0634096, 41.5305205 ], [ 2.0633134, 41.5304384 ], [ 2.0632474, 41.5304098 ], [ 2.0631741, 41.5303911 ], [ 2.0630874, 41.5303582 ], [ 2.062977, 41.5303376 ], [ 2.0628494, 41.5302875 ], [ 2.0626669, 41.5302718 ], [ 2.0625479, 41.5302373 ], [ 2.0624194, 41.5301518 ], [ 2.0623097, 41.5301162 ], [ 2.0622119, 41.5300726 ], [ 2.0621095, 41.529975 ], [ 2.0619915, 41.5299154 ], [ 2.0619165, 41.5298797 ], [ 2.0618256, 41.5298382 ], [ 2.0617231, 41.5297978 ], [ 2.0616068, 41.5297516 ], [ 2.0614799, 41.5296848 ], [ 2.06138, 41.5296345 ], [ 2.0612939, 41.5295898 ], [ 2.0611831, 41.5295238 ], [ 2.0611059, 41.5294863 ], [ 2.0610167, 41.5294045 ], [ 2.060913, 41.5293388 ], [ 2.0608704, 41.529303 ], [ 2.0607888, 41.5291527 ], [ 2.0607361, 41.5290828 ], [ 2.0606684, 41.5289869 ], [ 2.060549, 41.5288515 ], [ 2.0604836, 41.5287002 ], [ 2.0604157, 41.5286094 ], [ 2.060381, 41.5285522 ], [ 2.0602943, 41.5284654 ], [ 2.0602241, 41.5283745 ], [ 2.0602449, 41.5282678 ], [ 2.0601402, 41.5281668 ], [ 2.060096, 41.528062 ], [ 2.0601269, 41.5279912 ], [ 2.0601153, 41.5278813 ], [ 2.0601395, 41.5278051 ], [ 2.0601462, 41.527755 ], [ 2.0601866, 41.5276779 ], [ 2.060256, 41.5276258 ], [ 2.060321, 41.5275702 ], [ 2.0604119, 41.527504 ], [ 2.0604604, 41.5274005 ], [ 2.0604835, 41.5273478 ], [ 2.060551, 41.5272856 ], [ 2.0605803, 41.5271978 ], [ 2.0604959, 41.5271112 ], [ 2.0604976, 41.5270154 ], [ 2.060516, 41.5268566 ], [ 2.0605893, 41.5267693 ], [ 2.0606636, 41.5266553 ], [ 2.0606648, 41.5266506 ], [ 2.0606889, 41.5265539 ], [ 2.060641, 41.5263732 ], [ 2.0605788, 41.5263096 ], [ 2.0605096, 41.5262473 ], [ 2.0604552, 41.5262177 ], [ 2.0603832, 41.5261687 ], [ 2.060206, 41.5260859 ], [ 2.0601386, 41.5260338 ], [ 2.0598938, 41.5260166 ], [ 2.059781, 41.5259421 ], [ 2.0596608, 41.5259057 ], [ 2.0596415, 41.5258998 ], [ 2.0595517, 41.5258853 ], [ 2.0594254, 41.5258572 ], [ 2.0592683, 41.5257922 ], [ 2.0590665, 41.5257435 ], [ 2.0589463, 41.5257359 ], [ 2.05884, 41.5257289 ], [ 2.0587296, 41.5257083 ], [ 2.0585621, 41.5256697 ], [ 2.0583488, 41.5256171 ], [ 2.0582152, 41.5255987 ], [ 2.0581006, 41.5255695 ], [ 2.0579064, 41.5255582 ], [ 2.0577688, 41.5255228 ], [ 2.0576662, 41.5254824 ], [ 2.0575836, 41.525411 ], [ 2.0575352, 41.5252958 ], [ 2.057497, 41.5251594 ], [ 2.0574667, 41.5250553 ], [ 2.0574509, 41.5249906 ], [ 2.0573913, 41.5249221 ], [ 2.057328, 41.5248297 ], [ 2.0572548, 41.5247555 ], [ 2.0572093, 41.5247258 ], [ 2.0574297, 41.524098 ], [ 2.0574291, 41.5240983 ], [ 2.0574297, 41.5240967 ], [ 2.0574298, 41.5240964 ], [ 2.0574297, 41.5240965 ], [ 2.0572006, 41.5242094 ], [ 2.0568621, 41.5243762 ], [ 2.0568828, 41.5243485 ], [ 2.0568672, 41.5242249 ], [ 2.0569047, 41.5241056 ], [ 2.0569405, 41.5240284 ], [ 2.0570608, 41.523925 ], [ 2.0570621, 41.5238948 ], [ 2.0571801, 41.5237374 ], [ 2.0572582, 41.5236438 ], [ 2.0573201, 41.5235509 ], [ 2.0574374, 41.5234643 ], [ 2.0575565, 41.5233894 ], [ 2.0576502, 41.5233116 ], [ 2.0577271, 41.5232465 ], [ 2.057838, 41.5231998 ], [ 2.0579106, 41.5231277 ], [ 2.0579209, 41.5230509 ], [ 2.0579764, 41.5229426 ], [ 2.0580828, 41.5227847 ], [ 2.0581562, 41.5226958 ], [ 2.0581896, 41.5226184 ], [ 2.0583045, 41.5226948 ], [ 2.0583896, 41.5227663 ], [ 2.0585252, 41.5228453 ], [ 2.0587014, 41.5228978 ], [ 2.058843, 41.5229452 ], [ 2.0591146, 41.5229351 ], [ 2.0593214, 41.5228679 ], [ 2.0594583, 41.5228108 ], [ 2.0596245, 41.5227165 ], [ 2.059739, 41.5226397 ], [ 2.0597943, 41.5226186 ], [ 2.0598403, 41.522601 ], [ 2.0598684, 41.5225732 ], [ 2.059939, 41.5225298 ], [ 2.0600473, 41.522475 ], [ 2.0601426, 41.5224141 ], [ 2.0601609, 41.5223937 ], [ 2.0602351, 41.522311 ], [ 2.0603602, 41.5222567 ], [ 2.0604599, 41.5222011 ], [ 2.0605652, 41.5221239 ], [ 2.0606757, 41.5220318 ], [ 2.0607322, 41.5219572 ], [ 2.0608613, 41.5218643 ], [ 2.0609981, 41.5217551 ], [ 2.0610816, 41.5216969 ], [ 2.0611336, 41.5216205 ], [ 2.0612672, 41.5214757 ], [ 2.0613084, 41.5213785 ], [ 2.0614034, 41.521326 ], [ 2.0615427, 41.5212656 ], [ 2.0615899, 41.5211922 ], [ 2.0616193, 41.5211533 ], [ 2.0617136, 41.5210605 ], [ 2.0618192, 41.5209766 ], [ 2.06195, 41.5208989 ], [ 2.0620428, 41.5208413 ], [ 2.0621362, 41.5207702 ], [ 2.06225, 41.5207102 ], [ 2.0623678, 41.5206101 ], [ 2.0624788, 41.5205601 ], [ 2.0625906, 41.5204933 ], [ 2.0626797, 41.5204153 ], [ 2.0626488, 41.5203801 ], [ 2.0628581, 41.5203081 ], [ 2.0630477, 41.5202098 ], [ 2.0631765, 41.520122 ], [ 2.0631891, 41.5200435 ], [ 2.0632804, 41.5199673 ], [ 2.0632508, 41.5199036 ], [ 2.0632939, 41.5198149 ], [ 2.0633223, 41.5197457 ], [ 2.0633893, 41.519643 ], [ 2.0633988, 41.5196062 ], [ 2.0643662, 41.5198142 ], [ 2.0644061, 41.5198228 ], [ 2.0644883, 41.5198405 ], [ 2.0649112, 41.5192647 ], [ 2.0649067, 41.5188719 ], [ 2.0648911, 41.5175363 ], [ 2.0648926, 41.5175374 ], [ 2.0651198, 41.5176429 ], [ 2.0652372, 41.5176622 ], [ 2.0653703, 41.5176923 ], [ 2.0654297, 41.5177104 ], [ 2.0655478, 41.5177129 ], [ 2.0656266, 41.5177134 ], [ 2.0656937, 41.517715 ], [ 2.0657494, 41.5177127 ], [ 2.0658958, 41.5177603 ], [ 2.0659819, 41.517805 ], [ 2.0660101, 41.5178501 ], [ 2.0660616, 41.5178914 ], [ 2.0660918, 41.517945 ], [ 2.0661139, 41.5180235 ], [ 2.0661354, 41.518117 ], [ 2.0661437, 41.5182486 ], [ 2.0661438, 41.5183546 ], [ 2.0661587, 41.5184412 ], [ 2.0661793, 41.5185565 ], [ 2.0662483, 41.5186777 ], [ 2.0662714, 41.518731 ], [ 2.0664239, 41.5188512 ], [ 2.0665026, 41.5189073 ], [ 2.0666091, 41.5189647 ], [ 2.066766, 41.519033 ], [ 2.066911, 41.5191125 ], [ 2.0670061, 41.5191627 ], [ 2.0671583, 41.5192358 ], [ 2.0672888, 41.519328 ], [ 2.0673926, 41.5193921 ], [ 2.0674711, 41.5194548 ], [ 2.0676046, 41.5195304 ], [ 2.0677232, 41.5196288 ], [ 2.0677847, 41.5197092 ], [ 2.0678492, 41.519825 ], [ 2.0678521, 41.5199211 ], [ 2.0678405, 41.5200299 ], [ 2.0678908, 41.5201551 ], [ 2.0679212, 41.5202575 ], [ 2.0679173, 41.5203499 ], [ 2.067974, 41.5204873 ], [ 2.0679577, 41.5205975 ], [ 2.0679745, 41.5207463 ], [ 2.0679656, 41.5208485 ], [ 2.0679568, 41.5209456 ], [ 2.0679672, 41.5210269 ], [ 2.0680039, 41.5211448 ], [ 2.0680024, 41.5212338 ], [ 2.0680026, 41.5213299 ], [ 2.0680026, 41.5213381 ], [ 2.0680265, 41.5214301 ], [ 2.0680759, 41.5215217 ], [ 2.0680771, 41.5216026 ], [ 2.0681024, 41.5217148 ], [ 2.0681061, 41.5217924 ], [ 2.0681255, 41.5219346 ], [ 2.0681417, 41.5220448 ], [ 2.0681609, 41.5221382 ], [ 2.0681903, 41.5222642 ], [ 2.0682047, 41.5224163 ], [ 2.0682125, 41.5225041 ], [ 2.0682403, 41.5226132 ], [ 2.0682424, 41.5226738 ], [ 2.06825, 41.5227129 ], [ 2.0682623, 41.5227505 ], [ 2.068309, 41.5229042 ], [ 2.0682896, 41.5230344 ], [ 2.0682774, 41.5231011 ], [ 2.0682999, 41.5231729 ], [ 2.0683169, 41.5232629 ], [ 2.0683257, 41.5233289 ], [ 2.0683636, 41.5234199 ], [ 2.0683673, 41.5234958 ], [ 2.0683738, 41.5235601 ], [ 2.0683801, 41.5236293 ], [ 2.0683898, 41.5237274 ], [ 2.0683863, 41.5238096 ], [ 2.0683994, 41.5238843 ], [ 2.0684059, 41.5240023 ], [ 2.0684196, 41.5241157 ], [ 2.0684332, 41.524177 ], [ 2.0684365, 41.5242629 ], [ 2.0684325, 41.5243567 ], [ 2.0684324, 41.5243603 ], [ 2.0684505, 41.524397 ], [ 2.0684875, 41.52448 ], [ 2.0685243, 41.5245627 ], [ 2.0685289, 41.5245731 ], [ 2.0685917, 41.524714 ], [ 2.0686445, 41.5248325 ], [ 2.0680938, 41.524921 ], [ 2.0677484, 41.5250242 ], [ 2.067411, 41.5251871 ], [ 2.0671617, 41.5253508 ], [ 2.0669303, 41.5255013 ], [ 2.0667252, 41.5256587 ], [ 2.066609, 41.5257704 ], [ 2.0665104, 41.5258823 ], [ 2.0663848, 41.526027 ], [ 2.066286, 41.5261521 ], [ 2.0661962, 41.5262707 ], [ 2.0661059, 41.5264157 ], [ 2.065978, 41.5265873 ], [ 2.0659145, 41.5266634 ], [ 2.0658261, 41.5267688 ], [ 2.0657381, 41.5268497 ], [ 2.0656224, 41.526959 ], [ 2.0655289, 41.5270439 ], [ 2.0656754, 41.5270533 ], [ 2.0658326, 41.5270709 ], [ 2.0660225, 41.5270887 ], [ 2.0662014, 41.5271106 ], [ 2.066364, 41.5271364 ], [ 2.066478, 41.5271373 ], [ 2.0666026, 41.5271587 ], [ 2.0667271, 41.5271924 ], [ 2.0668569, 41.5272302 ], [ 2.0669918, 41.5272925 ], [ 2.0670993, 41.5273709 ], [ 2.0671958, 41.5274574 ], [ 2.0672923, 41.527548 ], [ 2.0673773, 41.5276793 ], [ 2.0674409, 41.5277859 ], [ 2.0674999, 41.5278395 ], [ 2.0687468, 41.5277292 ], [ 2.0694915, 41.5280467 ], [ 2.0698837, 41.5282171 ], [ 2.0702461, 41.5283745 ], [ 2.0713405, 41.5288499 ], [ 2.0713337, 41.5285978 ], [ 2.0723424, 41.5291533 ], [ 2.0737648, 41.5299366 ], [ 2.0738157, 41.5299665 ], [ 2.0742892, 41.5302457 ], [ 2.0745247, 41.5303786 ], [ 2.0745577, 41.5303545 ], [ 2.0746413, 41.5304342 ], [ 2.0746607, 41.5304536 ], [ 2.0746792, 41.5304733 ], [ 2.074697, 41.5304936 ], [ 2.074714, 41.5305142 ], [ 2.0747302, 41.5305351 ], [ 2.0747455, 41.5305565 ], [ 2.07476, 41.5305781 ], [ 2.0751964, 41.5305365 ], [ 2.0754261, 41.5305155 ], [ 2.0754531, 41.530515 ], [ 2.07548, 41.5305153 ], [ 2.075507, 41.5305162 ], [ 2.075534, 41.530518 ], [ 2.0755608, 41.5305203 ], [ 2.0755835, 41.530523 ], [ 2.0758783, 41.5305562 ], [ 2.0760939, 41.5305808 ], [ 2.0763353, 41.5306083 ], [ 2.0765295, 41.5306299 ], [ 2.0765931, 41.5306366 ], [ 2.0766568, 41.5306426 ], [ 2.0767207, 41.5306479 ], [ 2.0767846, 41.5306525 ], [ 2.0768488, 41.5306564 ], [ 2.0769128, 41.5306596 ], [ 2.0769769, 41.530662 ], [ 2.0770411, 41.5306637 ], [ 2.0771054, 41.5306647 ], [ 2.0771696, 41.530665 ], [ 2.0772339, 41.5306646 ], [ 2.0772521, 41.5306643 ], [ 2.0772932, 41.5306639 ], [ 2.0773343, 41.5306627 ], [ 2.0773755, 41.5306608 ], [ 2.0774164, 41.5306583 ], [ 2.0774575, 41.530655 ], [ 2.0774982, 41.530651 ], [ 2.0775388, 41.5306463 ], [ 2.0775794, 41.5306409 ], [ 2.0776198, 41.5306347 ], [ 2.0776599, 41.5306278 ], [ 2.0776998, 41.5306203 ], [ 2.0777395, 41.530612 ], [ 2.077774, 41.5306043 ], [ 2.077823, 41.5305906 ], [ 2.0778716, 41.5305763 ], [ 2.0779199, 41.5305614 ], [ 2.0779679, 41.5305458 ], [ 2.0780154, 41.5305295 ], [ 2.0780626, 41.5305126 ], [ 2.0781094, 41.530495 ], [ 2.0781557, 41.5304768 ], [ 2.0782015, 41.5304579 ], [ 2.0782469, 41.5304384 ], [ 2.0782917, 41.5304183 ], [ 2.0783017, 41.5304138 ], [ 2.0783615, 41.5303865 ], [ 2.0784207, 41.5303587 ], [ 2.0784795, 41.5303304 ], [ 2.0785377, 41.5303013 ], [ 2.0785954, 41.5302717 ], [ 2.0786525, 41.5302415 ], [ 2.0787092, 41.5302107 ], [ 2.0787652, 41.5301793 ], [ 2.0788206, 41.5301474 ], [ 2.0788242, 41.5301453 ], [ 2.0788638, 41.5301582 ], [ 2.078872, 41.5301566 ], [ 2.0789155, 41.5301518 ], [ 2.0789587, 41.5301463 ], [ 2.0790018, 41.5301402 ], [ 2.0790447, 41.5301333 ], [ 2.0790874, 41.5301256 ], [ 2.0791171, 41.53012 ], [ 2.0791341, 41.5301152 ], [ 2.0791508, 41.5301098 ], [ 2.0791672, 41.5301036 ], [ 2.079183, 41.5300969 ], [ 2.0791983, 41.5300895 ], [ 2.0792131, 41.5300815 ], [ 2.0792274, 41.530073 ], [ 2.0794015, 41.5299735 ], [ 2.0794322, 41.5300036 ], [ 2.0794539, 41.5300266 ], [ 2.079475, 41.53005 ], [ 2.0794952, 41.5300739 ], [ 2.0795146, 41.530098 ], [ 2.0795332, 41.5301226 ], [ 2.0795511, 41.5301475 ], [ 2.079568, 41.5301727 ], [ 2.079584, 41.5301983 ], [ 2.0795991, 41.5302241 ], [ 2.0796135, 41.5302503 ], [ 2.0796269, 41.5302766 ], [ 2.0796314, 41.5302858 ], [ 2.079714, 41.530451 ], [ 2.0785681, 41.5309142 ], [ 2.0776497, 41.5314043 ], [ 2.0776847, 41.5315974 ], [ 2.0776427, 41.5320786 ], [ 2.0770854, 41.5325976 ], [ 2.0763972, 41.5332272 ], [ 2.0756294, 41.5338604 ], [ 2.075552, 41.5339709 ] ] ] } },
{ "type": "Feature", "properties": { "CCAA": "09 - Cataluña", "PROVINCIA": "08 - Barcelona", "MUNICIPIO": "08238 - Sant Quirze del Vallès", "COD_MUNICIPIO": "08238", "DISTRITO": "01", "SECCION": "0823801012", "V1_H": 82.5, "V1_M": 87.29, "V2_H": 82.15783722, "V2_M": 87.30677587, "V3_H": 82.90083825000001, "V3_M": 87.37512967000001 }, "geometry": { "type": "Polygon", "coordinates": [ [ [ 2.0729832, 41.5347263 ], [ 2.0727223, 41.5349587 ], [ 2.0726238, 41.5349583 ], [ 2.0725017, 41.5355955 ], [ 2.0719612, 41.5363653 ], [ 2.071269, 41.5365333 ], [ 2.0707377, 41.536753 ], [ 2.0703686, 41.5370441 ], [ 2.0702186, 41.5374629 ], [ 2.0702645, 41.537716 ], [ 2.0697531, 41.5381901 ], [ 2.0694208, 41.5386169 ], [ 2.0692615, 41.5389184 ], [ 2.0689353, 41.5390898 ], [ 2.0687715, 41.5393326 ], [ 2.0687454, 41.5396674 ], [ 2.0686045, 41.5402035 ], [ 2.0678955, 41.541491 ], [ 2.0674363, 41.5427091 ], [ 2.0672829, 41.5427058 ], [ 2.0670538, 41.5425298 ], [ 2.0663807, 41.5425008 ], [ 2.0661931, 41.5422464 ], [ 2.066033, 41.5420294 ], [ 2.0655192, 41.5425116 ], [ 2.0654466, 41.5422323 ], [ 2.0652798, 41.5415929 ], [ 2.0644722, 41.5414802 ], [ 2.0644072, 41.5414713 ], [ 2.0644071, 41.5414711 ], [ 2.0643895, 41.5414177 ], [ 2.0640795, 41.5404775 ], [ 2.0640766, 41.5404688 ], [ 2.0631331, 41.5399431 ], [ 2.0629365, 41.5398339 ], [ 2.0629363, 41.5398335 ], [ 2.0626146, 41.5389965 ], [ 2.0625739, 41.5389666 ], [ 2.0624586, 41.5390389 ], [ 2.0620669, 41.5390978 ], [ 2.0617795, 41.5390955 ], [ 2.0614854, 41.5390257 ], [ 2.0611695, 41.5389454 ], [ 2.0609373, 41.5389016 ], [ 2.0607803, 41.5389218 ], [ 2.0601297, 41.5394906 ], [ 2.0599525, 41.5397331 ], [ 2.0598557, 41.5397996 ], [ 2.0597215, 41.539897 ], [ 2.0596755, 41.540021 ], [ 2.0597976, 41.5401898 ], [ 2.0599713, 41.5404245 ], [ 2.0599324, 41.5405589 ], [ 2.0598432, 41.54061 ], [ 2.059622, 41.5406133 ], [ 2.0591286, 41.5405627 ], [ 2.0589008, 41.5405648 ], [ 2.0588516, 41.5406078 ], [ 2.0587451, 41.540607 ], [ 2.0586925, 41.5406317 ], [ 2.0585832, 41.5407201 ], [ 2.0585613, 41.5407378 ], [ 2.0583676, 41.5408709 ], [ 2.05816, 41.5409521 ], [ 2.0579532, 41.5409763 ], [ 2.0572757, 41.5409138 ], [ 2.0567517, 41.5409458 ], [ 2.0559813, 41.5409193 ], [ 2.0555606, 41.540947 ], [ 2.0552423, 41.5408674 ], [ 2.0550463, 41.5408184 ], [ 2.0545851, 41.5405918 ], [ 2.0544975, 41.5405745 ], [ 2.0544955, 41.5405741 ], [ 2.0538034, 41.5405687 ], [ 2.0538003, 41.540555 ], [ 2.0537406, 41.5405556 ], [ 2.0531028, 41.5388804 ], [ 2.0528175, 41.5382087 ], [ 2.0528171, 41.5382077 ], [ 2.0526891, 41.5381009 ], [ 2.0526875, 41.5381003 ], [ 2.0520938, 41.5378479 ], [ 2.0518599, 41.5374102 ], [ 2.0517014, 41.537278 ], [ 2.0516822, 41.5372351 ], [ 2.0512889, 41.5363559 ], [ 2.0512923, 41.5361736 ], [ 2.0514158, 41.5358357 ], [ 2.0516398, 41.5352308 ], [ 2.0517666, 41.5349357 ], [ 2.0518139, 41.5348103 ], [ 2.0518394, 41.5346805 ], [ 2.0518357, 41.5345413 ], [ 2.0518002, 41.5344517 ], [ 2.0516827, 41.5343175 ], [ 2.0515769, 41.5342418 ], [ 2.0513866, 41.5341804 ], [ 2.0511917, 41.5341515 ], [ 2.0509462, 41.5341141 ], [ 2.0507847, 41.5340568 ], [ 2.0505681, 41.5339323 ], [ 2.050469, 41.5338509 ], [ 2.0503335, 41.5337604 ], [ 2.0501792, 41.5337029 ], [ 2.0499705, 41.5335887 ], [ 2.049858, 41.5335186 ], [ 2.0497719, 41.5334206 ], [ 2.0497606, 41.5333675 ], [ 2.0498468, 41.5331921 ], [ 2.0498979, 41.5329325 ], [ 2.0499858, 41.5325962 ], [ 2.0500202, 41.5323964 ], [ 2.0500365, 41.5323313 ], [ 2.0501993, 41.5322223 ], [ 2.0504302, 41.5320727 ], [ 2.050718, 41.5319207 ], [ 2.0509665, 41.5318132 ], [ 2.0512279, 41.5316891 ], [ 2.0514927, 41.5316078 ], [ 2.0517579, 41.5315318 ], [ 2.0518419, 41.5315038 ], [ 2.0518277, 41.5316 ], [ 2.0546288, 41.5304251 ], [ 2.0557728, 41.5279874 ], [ 2.0561093, 41.5272705 ], [ 2.0569299, 41.5255224 ], [ 2.0570832, 41.5250852 ], [ 2.0571669, 41.5248468 ], [ 2.0572093, 41.5247258 ], [ 2.0572548, 41.5247555 ], [ 2.057328, 41.5248297 ], [ 2.0573913, 41.5249221 ], [ 2.0574509, 41.5249906 ], [ 2.0574667, 41.5250553 ], [ 2.057497, 41.5251594 ], [ 2.0575352, 41.5252958 ], [ 2.0575836, 41.525411 ], [ 2.0576662, 41.5254824 ], [ 2.0577688, 41.5255228 ], [ 2.0579064, 41.5255582 ], [ 2.0581006, 41.5255695 ], [ 2.0582152, 41.5255987 ], [ 2.0583488, 41.5256171 ], [ 2.0585621, 41.5256697 ], [ 2.0587296, 41.5257083 ], [ 2.05884, 41.5257289 ], [ 2.0589463, 41.5257359 ], [ 2.0590665, 41.5257435 ], [ 2.0592683, 41.5257922 ], [ 2.0594254, 41.5258572 ], [ 2.0595517, 41.5258853 ], [ 2.0596415, 41.5258998 ], [ 2.0596608, 41.5259057 ], [ 2.059781, 41.5259421 ], [ 2.0598938, 41.5260166 ], [ 2.0601386, 41.5260338 ], [ 2.060206, 41.5260859 ], [ 2.0603832, 41.5261687 ], [ 2.0604552, 41.5262177 ], [ 2.0605096, 41.5262473 ], [ 2.0605788, 41.5263096 ], [ 2.060641, 41.5263732 ], [ 2.0606889, 41.5265539 ], [ 2.0606648, 41.5266506 ], [ 2.0606636, 41.5266553 ], [ 2.0605893, 41.5267693 ], [ 2.060516, 41.5268566 ], [ 2.0604976, 41.5270154 ], [ 2.0604959, 41.5271112 ], [ 2.0605803, 41.5271978 ], [ 2.060551, 41.5272856 ], [ 2.0604835, 41.5273478 ], [ 2.0604604, 41.5274005 ], [ 2.0604119, 41.527504 ], [ 2.060321, 41.5275702 ], [ 2.060256, 41.5276258 ], [ 2.0601866, 41.5276779 ], [ 2.0601462, 41.527755 ], [ 2.0601395, 41.5278051 ], [ 2.0601153, 41.5278813 ], [ 2.0601269, 41.5279912 ], [ 2.060096, 41.528062 ], [ 2.0601402, 41.5281668 ], [ 2.0602449, 41.5282678 ], [ 2.0602241, 41.5283745 ], [ 2.0602943, 41.5284654 ], [ 2.060381, 41.5285522 ], [ 2.0604157, 41.5286094 ], [ 2.0604836, 41.5287002 ], [ 2.060549, 41.5288515 ], [ 2.0606684, 41.5289869 ], [ 2.0607361, 41.5290828 ], [ 2.0607888, 41.5291527 ], [ 2.0608704, 41.529303 ], [ 2.060913, 41.5293388 ], [ 2.0610167, 41.5294045 ], [ 2.0611059, 41.5294863 ], [ 2.0611831, 41.5295238 ], [ 2.0612939, 41.5295898 ], [ 2.06138, 41.5296345 ], [ 2.0614799, 41.5296848 ], [ 2.0616068, 41.5297516 ], [ 2.0617231, 41.5297978 ], [ 2.0618256, 41.5298382 ], [ 2.0619165, 41.5298797 ], [ 2.0619915, 41.5299154 ], [ 2.0621095, 41.529975 ], [ 2.0622119, 41.5300726 ], [ 2.0623097, 41.5301162 ], [ 2.0624194, 41.5301518 ], [ 2.0625479, 41.5302373 ], [ 2.0626669, 41.5302718 ], [ 2.0628494, 41.5302875 ], [ 2.062977, 41.5303376 ], [ 2.0630874, 41.5303582 ], [ 2.0631741, 41.5303911 ], [ 2.0632474, 41.5304098 ], [ 2.0633134, 41.5304384 ], [ 2.0634096, 41.5305205 ], [ 2.0635061, 41.5305942 ], [ 2.063554, 41.5306656 ], [ 2.0637058, 41.5308026 ], [ 2.0638023, 41.530984 ], [ 2.0638597, 41.5310508 ], [ 2.0639719, 41.5312464 ], [ 2.0640834, 41.5313495 ], [ 2.0642477, 41.5314636 ], [ 2.0643637, 41.5315703 ], [ 2.0644345, 41.531705 ], [ 2.0645552, 41.5318068 ], [ 2.0646261, 41.5319398 ], [ 2.064673, 41.5320347 ], [ 2.0647177, 41.5321832 ], [ 2.0647195, 41.5323028 ], [ 2.0647564, 41.5324156 ], [ 2.0648795, 41.5325193 ], [ 2.0649972, 41.5325856 ], [ 2.0651182, 41.5326825 ], [ 2.0652, 41.5327756 ], [ 2.0652811, 41.5328285 ], [ 2.0654426, 41.5329021 ], [ 2.0655407, 41.5329372 ], [ 2.0656653, 41.5330073 ], [ 2.065788, 41.5330638 ], [ 2.0658949, 41.5331112 ], [ 2.0660168, 41.533134 ], [ 2.0661178, 41.5332113 ], [ 2.0662461, 41.5332463 ], [ 2.0664464, 41.5333874 ], [ 2.066592, 41.5334501 ], [ 2.0666855, 41.5335405 ], [ 2.0668837, 41.5335671 ], [ 2.0670617, 41.533576 ], [ 2.0671774, 41.5335817 ], [ 2.0673189, 41.5335803 ], [ 2.0674768, 41.5335729 ], [ 2.0674878, 41.5334336 ], [ 2.0676309, 41.5333379 ], [ 2.067839, 41.533204 ], [ 2.0679941, 41.5331666 ], [ 2.0681758, 41.5330809 ], [ 2.0683956, 41.5330246 ], [ 2.0686282, 41.5329781 ], [ 2.0688985, 41.5329996 ], [ 2.069143, 41.533021 ], [ 2.0695165, 41.5330337 ], [ 2.0705348, 41.5330128 ], [ 2.0729832, 41.5347263 ] ] ] } },
{ "type": "Feature", "properties": { "CCAA": "09 - Cataluña", "PROVINCIA": "08 - Barcelona", "MUNICIPIO": "08238 - Sant Quirze del Vallès", "COD_MUNICIPIO": "08238", "DISTRITO": "01", "SECCION": "0823801010", "V1_H": 81.88, "V1_M": 87.06, "V2_H": 81.54316391, "V2_M": 86.92154098, "V3_H": 82.24926416, "V3_M": 87.34198023 }, "geometry": { "type": "Polygon", "coordinates": [ [ [ 2.0762369, 41.5353018 ], [ 2.0760944, 41.5353145 ], [ 2.0760257, 41.5348548 ], [ 2.0760218, 41.534821 ], [ 2.0760881, 41.5345982 ], [ 2.07618, 41.5342893 ], [ 2.0759138, 41.5342421 ], [ 2.075552, 41.5339709 ], [ 2.0756294, 41.5338604 ], [ 2.0763972, 41.5332272 ], [ 2.0770854, 41.5325976 ], [ 2.0776427, 41.5320786 ], [ 2.0776847, 41.5315974 ], [ 2.0776497, 41.5314043 ], [ 2.0785681, 41.5309142 ], [ 2.079714, 41.530451 ], [ 2.0798904, 41.5308037 ], [ 2.0801504, 41.5314129 ], [ 2.0815058, 41.5308399 ], [ 2.0818023, 41.5306777 ], [ 2.0817225, 41.5308593 ], [ 2.0815853, 41.5311718 ], [ 2.0815205, 41.5313368 ], [ 2.0814998, 41.5313899 ], [ 2.081449, 41.531519 ], [ 2.0813497, 41.5318089 ], [ 2.0813417, 41.5318323 ], [ 2.0813602, 41.5318359 ], [ 2.0812745, 41.5321102 ], [ 2.0812173, 41.5322793 ], [ 2.0806216, 41.5324513 ], [ 2.0806512, 41.5325839 ], [ 2.0808593, 41.53299 ], [ 2.0804476, 41.5332428 ], [ 2.079758, 41.5338064 ], [ 2.0783859, 41.5347249 ], [ 2.0781903, 41.5348687 ], [ 2.0778537, 41.5350963 ], [ 2.0777629, 41.5351577 ], [ 2.0776798, 41.5351691 ], [ 2.0776099, 41.5351787 ], [ 2.0766136, 41.535268 ], [ 2.0764232, 41.5352851 ], [ 2.0762369, 41.5353018 ] ] ] } },
{ "type": "Feature", "properties": { "CCAA": "09 - Cataluña", "PROVINCIA": "08 - Barcelona", "MUNICIPIO": "08238 - Sant Quirze del Vallès", "COD_MUNICIPIO": "08238", "DISTRITO": "01", "SECCION": "0823801011", "V1_H": 81.37, "V1_M": 86.85, "V2_H": 81.08688328, "V2_M": 86.76748373, "V3_H": 81.75507894, "V3_M": 87.07522296 }, "geometry": { "type": "Polygon", "coordinates": [ [ [ 2.0823761, 41.534875 ], [ 2.0822543, 41.5350832 ], [ 2.0818946, 41.5350817 ], [ 2.080967, 41.535088 ], [ 2.0795417, 41.5351075 ], [ 2.0786251, 41.5351045 ], [ 2.0778537, 41.5350963 ], [ 2.0781903, 41.5348687 ], [ 2.0783859, 41.5347249 ], [ 2.079758, 41.5338064 ], [ 2.0804476, 41.5332428 ], [ 2.0808593, 41.53299 ], [ 2.0806512, 41.5325839 ], [ 2.0806216, 41.5324513 ], [ 2.0812173, 41.5322793 ], [ 2.0815157, 41.532242 ], [ 2.0818484, 41.5322085 ], [ 2.0821523, 41.5321735 ], [ 2.0828021, 41.5323821 ], [ 2.0831554, 41.5326601 ], [ 2.0832206, 41.532711 ], [ 2.0836928, 41.5330787 ], [ 2.0833679, 41.5333097 ], [ 2.082694, 41.5338831 ], [ 2.0824952, 41.5340522 ], [ 2.0823423, 41.5342873 ], [ 2.0823062, 41.5345323 ], [ 2.0823347, 41.534822 ], [ 2.0823761, 41.534875 ] ] ] } },
{ "type": "Feature", "properties": { "CCAA": "09 - Cataluña", "PROVINCIA": "08 - Barcelona", "MUNICIPIO": "08238 - Sant Quirze del Vallès", "COD_MUNICIPIO": "08238", "DISTRITO": "01", "SECCION": "0823801005", "V1_H": 82.11, "V1_M": 87.17, "V2_H": 81.68538902, "V2_M": 87.16795144, "V3_H": 82.5577829, "V3_M": 87.30202001000001 }, "geometry": { "type": "Polygon", "coordinates": [ [ [ 2.0762369, 41.5353018 ], [ 2.0761956, 41.5353713 ], [ 2.0761879, 41.5353721 ], [ 2.0754543, 41.53661 ], [ 2.0749166, 41.5370977 ], [ 2.0745506, 41.5375418 ], [ 2.0737415, 41.5383945 ], [ 2.0728728, 41.5392881 ], [ 2.071957, 41.5402083 ], [ 2.0712839, 41.5409339 ], [ 2.0712751, 41.5409426 ], [ 2.0706508, 41.5415669 ], [ 2.0705933, 41.5416261 ], [ 2.0702897, 41.5419374 ], [ 2.0699853, 41.5422481 ], [ 2.0696937, 41.5425461 ], [ 2.0677898, 41.5429332 ], [ 2.0674504, 41.5427094 ], [ 2.0674363, 41.5427091 ], [ 2.0678955, 41.541491 ], [ 2.0686045, 41.5402035 ], [ 2.0687454, 41.5396674 ], [ 2.0687715, 41.5393326 ], [ 2.0689353, 41.5390898 ], [ 2.0692615, 41.5389184 ], [ 2.0694208, 41.5386169 ], [ 2.0697531, 41.5381901 ], [ 2.0702645, 41.537716 ], [ 2.0702186, 41.5374629 ], [ 2.0703686, 41.5370441 ], [ 2.0707377, 41.536753 ], [ 2.071269, 41.5365333 ], [ 2.0719612, 41.5363653 ], [ 2.0725017, 41.5355955 ], [ 2.0726238, 41.5349583 ], [ 2.0727223, 41.5349587 ], [ 2.0729832, 41.5347263 ], [ 2.0733537, 41.5343961 ], [ 2.0737791, 41.534352 ], [ 2.0738675, 41.5343458 ], [ 2.0739488, 41.5343342 ], [ 2.0745255, 41.5342523 ], [ 2.075114, 41.5341685 ], [ 2.0755091, 41.5339388 ], [ 2.075552, 41.5339709 ], [ 2.0759138, 41.5342421 ], [ 2.07618, 41.5342893 ], [ 2.0760881, 41.5345982 ], [ 2.0760218, 41.534821 ], [ 2.0760257, 41.5348548 ], [ 2.0760944, 41.5353145 ], [ 2.0762369, 41.5353018 ] ] ] } },
{ "type": "Feature", "properties": { "CCAA": "09 - Cataluña", "PROVINCIA": "08 - Barcelona", "MUNICIPIO": "08238 - Sant Quirze del Vallès", "COD_MUNICIPIO": "08238", "DISTRITO": "01", "SECCION": "0823801009", "V1_H": 81.68, "V1_M": 87.08, "V2_H": 81.12537096, "V2_M": 86.91948792, "V3_H": 82.31095034000001, "V3_M": 87.32789848 }, "geometry": { "type": "Polygon", "coordinates": [ [ [ 2.0955932, 41.5189392 ], [ 2.0945361, 41.5199726 ], [ 2.0944422, 41.5200643 ], [ 2.093649, 41.5208399 ], [ 2.0930186, 41.5214764 ], [ 2.092761, 41.5217367 ], [ 2.0918301, 41.5226365 ], [ 2.0916135, 41.5228459 ], [ 2.091073, 41.5233759 ], [ 2.090718, 41.5237129 ], [ 2.0898719, 41.5245252 ], [ 2.0897321, 41.5245387 ], [ 2.0893091, 41.524278 ], [ 2.0892818, 41.5243032 ], [ 2.0888701, 41.5240077 ], [ 2.0886946, 41.5242143 ], [ 2.0883836, 41.524884 ], [ 2.0882101, 41.5253687 ], [ 2.0882333, 41.5254258 ], [ 2.0881957, 41.5254432 ], [ 2.0881571, 41.5257014 ], [ 2.0881325, 41.5259838 ], [ 2.0882478, 41.5262601 ], [ 2.0885294, 41.526271 ], [ 2.0891174, 41.5262098 ], [ 2.0896614, 41.5259863 ], [ 2.0902968, 41.5257354 ], [ 2.091085, 41.5254425 ], [ 2.0920431, 41.5251304 ], [ 2.0918112, 41.5259495 ], [ 2.0917784, 41.5263261 ], [ 2.0915956, 41.5267796 ], [ 2.0915482, 41.5271686 ], [ 2.0915246, 41.527662 ], [ 2.0916738, 41.5279718 ], [ 2.0911717, 41.5279355 ], [ 2.0900122, 41.5278698 ], [ 2.0887119, 41.5277985 ], [ 2.0881796, 41.5277752 ], [ 2.0878614, 41.5276956 ], [ 2.0877184, 41.5264711 ], [ 2.0877144, 41.5255907 ], [ 2.0869651, 41.5257827 ], [ 2.0869892, 41.5259091 ], [ 2.0870604, 41.5264372 ], [ 2.08706, 41.5264472 ], [ 2.0870588, 41.526457 ], [ 2.0870566, 41.5264668 ], [ 2.0870534, 41.5264764 ], [ 2.0870493, 41.5264858 ], [ 2.0870443, 41.5264949 ], [ 2.0870385, 41.5265038 ], [ 2.0870318, 41.5265123 ], [ 2.0870243, 41.5265204 ], [ 2.0870161, 41.5265281 ], [ 2.0870071, 41.5265354 ], [ 2.0869974, 41.526542 ], [ 2.0869871, 41.5265483 ], [ 2.0868267, 41.5266151 ], [ 2.0865778, 41.5267182 ], [ 2.0863287, 41.5268206 ], [ 2.0860788, 41.5269225 ], [ 2.0858286, 41.5270237 ], [ 2.085578, 41.5271243 ], [ 2.08556, 41.5271283 ], [ 2.0855391, 41.5271324 ], [ 2.0855179, 41.5271359 ], [ 2.0854966, 41.5271385 ], [ 2.0854751, 41.5271405 ], [ 2.0854536, 41.5271417 ], [ 2.0854319, 41.5271422 ], [ 2.0854103, 41.527142 ], [ 2.0853887, 41.527141 ], [ 2.0853671, 41.5271394 ], [ 2.0853457, 41.5271371 ], [ 2.0853245, 41.527134 ], [ 2.0853035, 41.5271302 ], [ 2.0852827, 41.5271257 ], [ 2.0852651, 41.52712 ], [ 2.0852354, 41.5271096 ], [ 2.085206, 41.5270984 ], [ 2.0851771, 41.5270867 ], [ 2.0851488, 41.5270744 ], [ 2.0851207, 41.5270614 ], [ 2.0850934, 41.5270479 ], [ 2.0850665, 41.5270337 ], [ 2.0850402, 41.527019 ], [ 2.0850145, 41.5270037 ], [ 2.0849891, 41.5269881 ], [ 2.084979, 41.5270239 ], [ 2.0849698, 41.5270599 ], [ 2.0849615, 41.527096 ], [ 2.0849543, 41.5271322 ], [ 2.084948, 41.5271685 ], [ 2.0849456, 41.5271894 ], [ 2.0849436, 41.527215 ], [ 2.0849426, 41.5272383 ], [ 2.0845493, 41.5273337 ], [ 2.0842808, 41.5274906 ], [ 2.0838632, 41.5276476 ], [ 2.0833211, 41.5278958 ], [ 2.0828582, 41.5281471 ], [ 2.0826371, 41.528236 ], [ 2.082278, 41.5282454 ], [ 2.0819293, 41.5281619 ], [ 2.0815429, 41.5280471 ], [ 2.0811016, 41.528014 ], [ 2.0804519, 41.5280098 ], [ 2.0795399, 41.5280172 ], [ 2.0783888, 41.5279956 ], [ 2.07804, 41.5279122 ], [ 2.077646, 41.5276988 ], [ 2.076808, 41.5271952 ], [ 2.0759253, 41.5266804 ], [ 2.0753502, 41.5262839 ], [ 2.074883, 41.5259347 ], [ 2.0750418, 41.5258201 ], [ 2.0745555, 41.5254707 ], [ 2.0741104, 41.5250824 ], [ 2.0739122, 41.5248204 ], [ 2.0738691, 41.5247741 ], [ 2.0738414, 41.5246715 ], [ 2.0736342, 41.524421 ], [ 2.0735789, 41.5242428 ], [ 2.0734971, 41.5240892 ], [ 2.0733755, 41.5237972 ], [ 2.0733614, 41.5236173 ], [ 2.0733113, 41.5233561 ], [ 2.0731548, 41.5232859 ], [ 2.0731113, 41.5232771 ], [ 2.0730498, 41.5232562 ], [ 2.0725253, 41.5232195 ], [ 2.071658, 41.5231496 ], [ 2.071311, 41.5231179 ], [ 2.0709696, 41.5230765 ], [ 2.0706215, 41.5229507 ], [ 2.0703477, 41.5228122 ], [ 2.0700642, 41.5226317 ], [ 2.069674, 41.5223666 ], [ 2.0692962, 41.5221008 ], [ 2.0690322, 41.522009 ], [ 2.0687113, 41.5218302 ], [ 2.0684007, 41.5216227 ], [ 2.068089, 41.5214011 ], [ 2.0680026, 41.5213299 ], [ 2.0680024, 41.5212338 ], [ 2.0680039, 41.5211448 ], [ 2.0679672, 41.5210269 ], [ 2.0679568, 41.5209456 ], [ 2.0679656, 41.5208485 ], [ 2.0679745, 41.5207463 ], [ 2.0679577, 41.5205975 ], [ 2.067974, 41.5204873 ], [ 2.0679173, 41.5203499 ], [ 2.0679212, 41.5202575 ], [ 2.0678908, 41.5201551 ], [ 2.0678405, 41.5200299 ], [ 2.0678521, 41.5199211 ], [ 2.0678492, 41.519825 ], [ 2.0677847, 41.5197092 ], [ 2.0677232, 41.5196288 ], [ 2.0676046, 41.5195304 ], [ 2.0674711, 41.5194548 ], [ 2.0673926, 41.5193921 ], [ 2.0672888, 41.519328 ], [ 2.0671583, 41.5192358 ], [ 2.0670061, 41.5191627 ], [ 2.066911, 41.5191125 ], [ 2.066766, 41.519033 ], [ 2.0666091, 41.5189647 ], [ 2.0665026, 41.5189073 ], [ 2.0664239, 41.5188512 ], [ 2.0662714, 41.518731 ], [ 2.0662483, 41.5186777 ], [ 2.0661793, 41.5185565 ], [ 2.0661587, 41.5184412 ], [ 2.0661438, 41.5183546 ], [ 2.0661437, 41.5182486 ], [ 2.0661354, 41.518117 ], [ 2.0661139, 41.5180235 ], [ 2.0660918, 41.517945 ], [ 2.0660616, 41.5178914 ], [ 2.0660101, 41.5178501 ], [ 2.0659819, 41.517805 ], [ 2.0658958, 41.5177603 ], [ 2.0657494, 41.5177127 ], [ 2.0656937, 41.517715 ], [ 2.0656266, 41.5177134 ], [ 2.0655478, 41.5177129 ], [ 2.0654297, 41.5177104 ], [ 2.0653703, 41.5176923 ], [ 2.0652372, 41.5176622 ], [ 2.0651198, 41.5176429 ], [ 2.0648926, 41.5175374 ], [ 2.0648911, 41.5175363 ], [ 2.064838, 41.5129658 ], [ 2.0680286, 41.5096569 ], [ 2.0727485, 41.5069077 ], [ 2.0739447, 41.5070432 ], [ 2.075458, 41.5067962 ], [ 2.0761118, 41.5067335 ], [ 2.0803351, 41.5077423 ], [ 2.0806824, 41.5082971 ], [ 2.0808986, 41.509117 ], [ 2.08095, 41.5091121 ], [ 2.0810504, 41.5091024 ], [ 2.0811564, 41.5090862 ], [ 2.081174, 41.5090827 ], [ 2.0813596, 41.5093792 ], [ 2.0819243, 41.5094908 ], [ 2.0824672, 41.5095994 ], [ 2.0834011, 41.5097863 ], [ 2.0836096, 41.5098391 ], [ 2.0835909, 41.5098742 ], [ 2.0846668, 41.5101541 ], [ 2.0849082, 41.5103387 ], [ 2.0854479, 41.5104843 ], [ 2.0854556, 41.5104858 ], [ 2.0859651, 41.5106003 ], [ 2.0859892, 41.5105841 ], [ 2.0861727, 41.5104608 ], [ 2.0869232, 41.5105938 ], [ 2.0875036, 41.5106901 ], [ 2.0875283, 41.5107256 ], [ 2.0886426, 41.5110733 ], [ 2.0887673, 41.5110963 ], [ 2.0889041, 41.5114141 ], [ 2.0913331, 41.5123211 ], [ 2.0922017, 41.512566 ], [ 2.0927563, 41.5127677 ], [ 2.0933081, 41.5129337 ], [ 2.0936461, 41.5130807 ], [ 2.0937615, 41.513178 ], [ 2.0937618, 41.5133829 ], [ 2.093723, 41.5134942 ], [ 2.093608, 41.5136446 ], [ 2.0934388, 41.5137093 ], [ 2.0933411, 41.5137565 ], [ 2.0933175, 41.51386 ], [ 2.0934638, 41.5139464 ], [ 2.0936828, 41.5140319 ], [ 2.093682, 41.5141415 ], [ 2.0937674, 41.5142211 ], [ 2.0939185, 41.5141668 ], [ 2.0941117, 41.5143678 ], [ 2.0941492, 41.5146425 ], [ 2.0940936, 41.5149427 ], [ 2.0940236, 41.5151006 ], [ 2.0940242, 41.5153102 ], [ 2.0938695, 41.5156006 ], [ 2.0939105, 41.5159608 ], [ 2.0940527, 41.5161165 ], [ 2.0940552, 41.5163498 ], [ 2.0940968, 41.5168792 ], [ 2.0941532, 41.517153 ], [ 2.0942763, 41.5174286 ], [ 2.094373, 41.5175696 ], [ 2.0944767, 41.5178008 ], [ 2.0947614, 41.5179954 ], [ 2.0949669, 41.5180697 ], [ 2.09521, 41.518259 ], [ 2.0953709, 41.518652 ], [ 2.0954664, 41.5187788 ], [ 2.0955932, 41.5189392 ] ] ] } },
{ "type": "Feature", "properties": { "CCAA": "09 - Cataluña", "PROVINCIA": "08 - Barcelona", "MUNICIPIO": "08238 - Sant Quirze del Vallès", "COD_MUNICIPIO": "08238", "DISTRITO": "01", "SECCION": "0823801006", "V1_H": 82.27, "V1_M": 87.07, "V2_H": 81.979544, "V2_M": 86.90367115, "V3_H": 82.63571561000001, "V3_M": 87.32539334000001 }, "geometry": { "type": "Polygon", "coordinates": [ [ [ 2.090099, 41.5400416 ], [ 2.0891336, 41.5394719 ], [ 2.0890672, 41.5394613 ], [ 2.0890934, 41.5394451 ], [ 2.0863769, 41.5377981 ], [ 2.0849817, 41.5389653 ], [ 2.0843714, 41.5394306 ], [ 2.0834193, 41.5400636 ], [ 2.0821697, 41.540786 ], [ 2.0810762, 41.5412346 ], [ 2.0800213, 41.5416911 ], [ 2.0787464, 41.5420905 ], [ 2.0777911, 41.5423615 ], [ 2.0768313, 41.5425755 ], [ 2.0759784, 41.5427129 ], [ 2.0734373, 41.5429777 ], [ 2.0716314, 41.5430767 ], [ 2.0697943, 41.5431007 ], [ 2.0680144, 41.543046 ], [ 2.0677898, 41.5429332 ], [ 2.0696937, 41.5425461 ], [ 2.0699853, 41.5422481 ], [ 2.0702897, 41.5419374 ], [ 2.0705933, 41.5416261 ], [ 2.0706508, 41.5415669 ], [ 2.0712751, 41.5409426 ], [ 2.0712839, 41.5409339 ], [ 2.071957, 41.5402083 ], [ 2.0728728, 41.5392881 ], [ 2.0737415, 41.5383945 ], [ 2.0745506, 41.5375418 ], [ 2.0749166, 41.5370977 ], [ 2.0754543, 41.53661 ], [ 2.0761879, 41.5353721 ], [ 2.0761956, 41.5353713 ], [ 2.0762369, 41.5353018 ], [ 2.0764232, 41.5352851 ], [ 2.0766136, 41.535268 ], [ 2.0776099, 41.5351787 ], [ 2.0776798, 41.5351691 ], [ 2.0777629, 41.5351577 ], [ 2.0778537, 41.5350963 ], [ 2.0786251, 41.5351045 ], [ 2.0795417, 41.5351075 ], [ 2.080967, 41.535088 ], [ 2.0818946, 41.5350817 ], [ 2.0822543, 41.5350832 ], [ 2.0823761, 41.534875 ], [ 2.0823925, 41.534896 ], [ 2.0827903, 41.5349237 ], [ 2.0832728, 41.5349572 ], [ 2.083741, 41.5350931 ], [ 2.0842199, 41.5353863 ], [ 2.0845989, 41.5358259 ], [ 2.0849375, 41.5363534 ], [ 2.085303, 41.5368223 ], [ 2.0856013, 41.536962 ], [ 2.0857706, 41.5369879 ], [ 2.0860451, 41.5369655 ], [ 2.0863213, 41.5368255 ], [ 2.0879812, 41.5352061 ], [ 2.0883514, 41.5348015 ], [ 2.0883824, 41.5347705 ], [ 2.0884682, 41.5346738 ], [ 2.0892285, 41.5338163 ], [ 2.0894017, 41.5336371 ], [ 2.0901387, 41.5327503 ], [ 2.0902546, 41.5326107 ], [ 2.09026, 41.5324766 ], [ 2.0902665, 41.5323148 ], [ 2.0902058, 41.5321524 ], [ 2.090052, 41.5319501 ], [ 2.0891261, 41.5309421 ], [ 2.0891474, 41.5308246 ], [ 2.0879892, 41.5305554 ], [ 2.0877476, 41.5305633 ], [ 2.0874736, 41.5305723 ], [ 2.0870409, 41.5306804 ], [ 2.0867059, 41.530764 ], [ 2.086435, 41.5308523 ], [ 2.0862016, 41.5304636 ], [ 2.0859455, 41.5304305 ], [ 2.0868289, 41.5303534 ], [ 2.0870703, 41.5303294 ], [ 2.0871185, 41.5303246 ], [ 2.0866274, 41.5295433 ], [ 2.0863567, 41.528935 ], [ 2.0857618, 41.5282192 ], [ 2.085063, 41.5278772 ], [ 2.0850636, 41.5278762 ], [ 2.0850706, 41.5278635 ], [ 2.0850767, 41.5278505 ], [ 2.0850819, 41.5278373 ], [ 2.0850861, 41.5278239 ], [ 2.0850896, 41.5278103 ], [ 2.0850919, 41.5277967 ], [ 2.0850935, 41.527783 ], [ 2.0850939, 41.5277691 ], [ 2.0850935, 41.5277554 ], [ 2.0850698, 41.5276758 ], [ 2.0850534, 41.5276396 ], [ 2.0850396, 41.5276162 ], [ 2.0850266, 41.5275924 ], [ 2.0850146, 41.5275683 ], [ 2.0850034, 41.527544 ], [ 2.0849932, 41.5275195 ], [ 2.0849839, 41.5274949 ], [ 2.0849755, 41.5274699 ], [ 2.084968, 41.5274448 ], [ 2.0849614, 41.5274196 ], [ 2.0849559, 41.5273943 ], [ 2.0849513, 41.5273689 ], [ 2.0849476, 41.5273433 ], [ 2.0849449, 41.5273177 ], [ 2.0849431, 41.5272921 ], [ 2.0849422, 41.5272664 ], [ 2.0849425, 41.5272407 ], [ 2.0849426, 41.5272383 ], [ 2.0849436, 41.527215 ], [ 2.0849456, 41.5271894 ], [ 2.084948, 41.5271685 ], [ 2.0849543, 41.5271322 ], [ 2.0849615, 41.527096 ], [ 2.0849698, 41.5270599 ], [ 2.084979, 41.5270239 ], [ 2.0849891, 41.5269881 ], [ 2.0850145, 41.5270037 ], [ 2.0850402, 41.527019 ], [ 2.0850665, 41.5270337 ], [ 2.0850934, 41.5270479 ], [ 2.0851207, 41.5270614 ], [ 2.0851488, 41.5270744 ], [ 2.0851771, 41.5270867 ], [ 2.085206, 41.5270984 ], [ 2.0852354, 41.5271096 ], [ 2.0852651, 41.52712 ], [ 2.0852827, 41.5271257 ], [ 2.0853035, 41.5271302 ], [ 2.0853245, 41.527134 ], [ 2.0853457, 41.5271371 ], [ 2.0853671, 41.5271394 ], [ 2.0853887, 41.527141 ], [ 2.0854103, 41.527142 ], [ 2.0854319, 41.5271422 ], [ 2.0854536, 41.5271417 ], [ 2.0854751, 41.5271405 ], [ 2.0854966, 41.5271385 ], [ 2.0855179, 41.5271359 ], [ 2.0855391, 41.5271324 ], [ 2.08556, 41.5271283 ], [ 2.085578, 41.5271243 ], [ 2.0858286, 41.5270237 ], [ 2.0860788, 41.5269225 ], [ 2.0863287, 41.5268206 ], [ 2.0865778, 41.5267182 ], [ 2.0868267, 41.5266151 ], [ 2.0869871, 41.5265483 ], [ 2.0869974, 41.526542 ], [ 2.0870071, 41.5265354 ], [ 2.0870161, 41.5265281 ], [ 2.0870243, 41.5265204 ], [ 2.0870318, 41.5265123 ], [ 2.0870385, 41.5265038 ], [ 2.0870443, 41.5264949 ], [ 2.0870493, 41.5264858 ], [ 2.0870534, 41.5264764 ], [ 2.0870566, 41.5264668 ], [ 2.0870588, 41.526457 ], [ 2.08706, 41.5264472 ], [ 2.0870604, 41.5264372 ], [ 2.0869892, 41.5259091 ], [ 2.0869651, 41.5257827 ], [ 2.0877144, 41.5255907 ], [ 2.0877184, 41.5264711 ], [ 2.0878614, 41.5276956 ], [ 2.0881796, 41.5277752 ], [ 2.0887119, 41.5277985 ], [ 2.0900122, 41.5278698 ], [ 2.0911717, 41.5279355 ], [ 2.0916738, 41.5279718 ], [ 2.0915246, 41.527662 ], [ 2.0915482, 41.5271686 ], [ 2.0915956, 41.5267796 ], [ 2.0917784, 41.5263261 ], [ 2.0918112, 41.5259495 ], [ 2.0920431, 41.5251304 ], [ 2.091085, 41.5254425 ], [ 2.0902968, 41.5257354 ], [ 2.0896614, 41.5259863 ], [ 2.0891174, 41.5262098 ], [ 2.0885294, 41.526271 ], [ 2.0882478, 41.5262601 ], [ 2.0881325, 41.5259838 ], [ 2.0881571, 41.5257014 ], [ 2.0881957, 41.5254432 ], [ 2.0882333, 41.5254258 ], [ 2.0882101, 41.5253687 ], [ 2.0883836, 41.524884 ], [ 2.0886946, 41.5242143 ], [ 2.0888701, 41.5240077 ], [ 2.0892818, 41.5243032 ], [ 2.0893091, 41.524278 ], [ 2.0897321, 41.5245387 ], [ 2.0898719, 41.5245252 ], [ 2.090718, 41.5237129 ], [ 2.091073, 41.5233759 ], [ 2.0916135, 41.5228459 ], [ 2.0918301, 41.5226365 ], [ 2.092761, 41.5217367 ], [ 2.0930186, 41.5214764 ], [ 2.093649, 41.5208399 ], [ 2.0944422, 41.5200643 ], [ 2.0945361, 41.5199726 ], [ 2.0955932, 41.5189392 ], [ 2.0958508, 41.5192334 ], [ 2.0961312, 41.5193734 ], [ 2.0961621, 41.519372 ], [ 2.0963451, 41.5193924 ], [ 2.0966218, 41.5195254 ], [ 2.096751, 41.5196769 ], [ 2.0968051, 41.5198008 ], [ 2.0969997, 41.5198564 ], [ 2.0971868, 41.5198577 ], [ 2.0976677, 41.5195647 ], [ 2.0977216, 41.5200888 ], [ 2.0977155, 41.520656 ], [ 2.0976556, 41.5222713 ], [ 2.0976212, 41.5236068 ], [ 2.0976008, 41.5240317 ], [ 2.0976717, 41.5248123 ], [ 2.0979253, 41.5254177 ], [ 2.0979332, 41.5254366 ], [ 2.0979355, 41.5254368 ], [ 2.0983234, 41.5261649 ], [ 2.0984171, 41.5263084 ], [ 2.0987228, 41.5268903 ], [ 2.0989122, 41.5272821 ], [ 2.0991074, 41.5275509 ], [ 2.0990879, 41.5276221 ], [ 2.0990375, 41.5279483 ], [ 2.0988847, 41.5285839 ], [ 2.0986, 41.5288438 ], [ 2.0983197, 41.5298729 ], [ 2.0981206, 41.5308822 ], [ 2.0977358, 41.5327661 ], [ 2.0971264, 41.533241 ], [ 2.0961377, 41.5348976 ], [ 2.0961911, 41.5349098 ], [ 2.0960961, 41.5349733 ], [ 2.0960658, 41.5352319 ], [ 2.0943674, 41.5367863 ], [ 2.0934396, 41.5376354 ], [ 2.0915964, 41.5388701 ], [ 2.0915965, 41.5390525 ], [ 2.090099, 41.5400416 ] ] ] } }
]
}
