{
"type": "FeatureCollection",
"name": "08263",
"features": [
{ "type": "Feature", "properties": { "CCAA": "09 - Cataluña", "PROVINCIA": "08 - Barcelona", "MUNICIPIO": "08263 - Sant Vicenç dels Horts", "COD_MUNICIPIO": "08263", "DISTRITO": "01", "SECCION": "0826301004", "V1_H": 80.99, "V1_M": 86.66, "V2_H": 80.84822772, "V2_M": 86.63128417, "V3_H": 81.25601163, "V3_M": 86.83891366 }, "geometry": { "type": "Polygon", "coordinates": [ [ [ 2.0221447, 41.3894557 ], [ 2.0217117, 41.3903553 ], [ 2.0207734, 41.3927672 ], [ 2.0184878, 41.3923511 ], [ 2.0172988, 41.3921342 ], [ 2.0170323, 41.3920775 ], [ 2.0167011, 41.3919931 ], [ 2.0162909, 41.3918807 ], [ 2.0161111, 41.3918248 ], [ 2.0155421, 41.3917056 ], [ 2.0152111, 41.3916103 ], [ 2.0151166, 41.391653 ], [ 2.0150344, 41.3918319 ], [ 2.0149751, 41.3919293 ], [ 2.0148513, 41.3919936 ], [ 2.0146567, 41.3919593 ], [ 2.0143905, 41.3918862 ], [ 2.0139078, 41.3917896 ], [ 2.0135264, 41.391683 ], [ 2.0133035, 41.3916103 ], [ 2.0131664, 41.3915982 ], [ 2.0133547, 41.3901361 ], [ 2.0134374, 41.3899192 ], [ 2.013036, 41.3897089 ], [ 2.0118026, 41.3890835 ], [ 2.0115872, 41.3889946 ], [ 2.0119846, 41.3885137 ], [ 2.0122267, 41.3882763 ], [ 2.0118607, 41.3881154 ], [ 2.0115735, 41.3879932 ], [ 2.01133, 41.3878496 ], [ 2.0106066, 41.3879033 ], [ 2.0101342, 41.3880842 ], [ 2.0098145, 41.3882012 ], [ 2.0095479, 41.3883011 ], [ 2.009713, 41.3885489 ], [ 2.009272, 41.388719 ], [ 2.0087919, 41.3889271 ], [ 2.0084286, 41.38906 ], [ 2.0087945, 41.3892318 ], [ 2.0085693, 41.3893169 ], [ 2.0083364, 41.3894237 ], [ 2.0081617, 41.3896185 ], [ 2.0081159, 41.3895945 ], [ 2.0079478, 41.3894202 ], [ 2.0079229, 41.3894428 ], [ 2.006707, 41.3890411 ], [ 2.0066544, 41.3890148 ], [ 2.0075455, 41.3885574 ], [ 2.0075195, 41.3885025 ], [ 2.0074986, 41.3879745 ], [ 2.0072431, 41.387673 ], [ 2.0066738, 41.3870968 ], [ 2.0061119, 41.3865097 ], [ 2.0053367, 41.3856977 ], [ 2.0052567, 41.3857296 ], [ 2.0050434, 41.3855047 ], [ 2.004879, 41.385389 ], [ 2.0046925, 41.3853003 ], [ 2.0044558, 41.385184 ], [ 2.0042472, 41.3851224 ], [ 2.0035067, 41.384882 ], [ 2.0032623, 41.3847982 ], [ 2.0037205, 41.3842621 ], [ 2.0037331, 41.3842473 ], [ 2.0039852, 41.3842985 ], [ 2.004317, 41.3843339 ], [ 2.0047429, 41.3843594 ], [ 2.0050678, 41.3843731 ], [ 2.0053642, 41.3843647 ], [ 2.0058343, 41.3843307 ], [ 2.0061814, 41.384312 ], [ 2.0064631, 41.3843198 ], [ 2.0069531, 41.3844057 ], [ 2.0074143, 41.3844858 ], [ 2.0078826, 41.3845715 ], [ 2.0081492, 41.3846227 ], [ 2.0083649, 41.3846899 ], [ 2.0089033, 41.3849231 ], [ 2.0092548, 41.3850893 ], [ 2.0096426, 41.3852396 ], [ 2.0099733, 41.3853458 ], [ 2.0102253, 41.3854078 ], [ 2.0104921, 41.3854482 ], [ 2.0107735, 41.3854669 ], [ 2.0111136, 41.3854372 ], [ 2.0115483, 41.3853539 ], [ 2.0118963, 41.3852807 ], [ 2.0123524, 41.3852193 ], [ 2.0127004, 41.3851406 ], [ 2.0131495, 41.3850683 ], [ 2.0134241, 41.3850598 ], [ 2.0136763, 41.3851055 ], [ 2.0138065, 41.3850957 ], [ 2.014079, 41.3852286 ], [ 2.014338, 41.3853016 ], [ 2.0146269, 41.3848307 ], [ 2.0148197, 41.3845058 ], [ 2.0151226, 41.3840622 ], [ 2.015546, 41.3832932 ], [ 2.0157822, 41.3829578 ], [ 2.0160198, 41.3825408 ], [ 2.016664, 41.3814961 ], [ 2.0169521, 41.3810741 ], [ 2.017503, 41.3802398 ], [ 2.0188476, 41.3806644 ], [ 2.0271191, 41.383276 ], [ 2.0267366, 41.3842128 ], [ 2.0221447, 41.3894557 ] ] ] } },
{ "type": "Feature", "properties": { "CCAA": "09 - Cataluña", "PROVINCIA": "08 - Barcelona", "MUNICIPIO": "08263 - Sant Vicenç dels Horts", "COD_MUNICIPIO": "08263", "DISTRITO": "02", "SECCION": "0826302002", "V1_H": 80.31, "V1_M": 86.3, "V2_H": 80.10187432, "V2_M": 86.1135989, "V3_H": 80.75259804, "V3_M": 86.72412179 }, "geometry": { "type": "Polygon", "coordinates": [ [ [ 2.0040923, 41.4010209 ], [ 2.0040572, 41.4011043 ], [ 2.0035798, 41.4020804 ], [ 2.0022594, 41.4021722 ], [ 2.002163, 41.4019283 ], [ 2.0019589, 41.4014114 ], [ 2.001755, 41.40088 ], [ 2.0017676, 41.4006842 ], [ 2.0016535, 41.4005889 ], [ 2.0015018, 41.4005066 ], [ 2.0012716, 41.4003574 ], [ 2.0009428, 41.4002137 ], [ 2.0006495, 41.4000973 ], [ 2.0004142, 41.3999544 ], [ 2.000172, 41.3997897 ], [ 1.9998165, 41.3995048 ], [ 1.9996247, 41.3993406 ], [ 1.9994971, 41.3992149 ], [ 1.9995705, 41.3991234 ], [ 1.9998576, 41.3991746 ], [ 2.0000442, 41.3992033 ], [ 2.0001806, 41.3992262 ], [ 2.0003316, 41.3992384 ], [ 2.0004323, 41.3992392 ], [ 2.0005189, 41.3992237 ], [ 2.0006095, 41.39917 ], [ 2.0006535, 41.3991301 ], [ 2.0007361, 41.3990251 ], [ 2.0008186, 41.3989201 ], [ 2.0009785, 41.398706 ], [ 2.0014028, 41.398166 ], [ 2.001457, 41.3980995 ], [ 2.0015224, 41.3980191 ], [ 2.0018552, 41.39757 ], [ 2.0019022, 41.3975193 ], [ 2.0019242, 41.397497 ], [ 2.0019734, 41.397479 ], [ 2.0020251, 41.3974733 ], [ 2.0020794, 41.3974758 ], [ 2.0021929, 41.3975095 ], [ 2.0024821, 41.3976082 ], [ 2.0027117, 41.397692 ], [ 2.0030054, 41.3978418 ], [ 2.0033066, 41.3980387 ], [ 2.0032736, 41.398065 ], [ 2.0032056, 41.3980746 ], [ 2.0030777, 41.3980858 ], [ 2.0029119, 41.3980986 ], [ 2.0028218, 41.3981265 ], [ 2.0027504, 41.3981791 ], [ 2.0027414, 41.3982322 ], [ 2.0027453, 41.3982859 ], [ 2.0027972, 41.3983278 ], [ 2.0029778, 41.3984299 ], [ 2.0031518, 41.3985686 ], [ 2.0032658, 41.3986565 ], [ 2.0033491, 41.3987338 ], [ 2.0034447, 41.3987329 ], [ 2.0039136, 41.3987336 ], [ 2.0041045, 41.3988126 ], [ 2.004224, 41.3988809 ], [ 2.0043686, 41.3989493 ], [ 2.0046425, 41.3986151 ], [ 2.0048496, 41.3983119 ], [ 2.0050398, 41.3981024 ], [ 2.0050997, 41.3980349 ], [ 2.0052775, 41.3978347 ], [ 2.0056264, 41.3974272 ], [ 2.0065558, 41.397319 ], [ 2.0057626, 41.3983029 ], [ 2.0049849, 41.3993058 ], [ 2.0050131, 41.399317 ], [ 2.0046779, 41.3997167 ], [ 2.0045372, 41.3999605 ], [ 2.0040923, 41.4010209 ] ] ] } },
{ "type": "Feature", "properties": { "CCAA": "09 - Cataluña", "PROVINCIA": "08 - Barcelona", "MUNICIPIO": "08263 - Sant Vicenç dels Horts", "COD_MUNICIPIO": "08263", "DISTRITO": "01", "SECCION": "0826301002", "V1_H": 81.1, "V1_M": 86.64, "V2_H": 80.60081217, "V2_M": 86.48118059, "V3_H": 81.51550291, "V3_M": 86.87452308 }, "geometry": { "type": "Polygon", "coordinates": [ [ [ 2.0202813, 41.3940321 ], [ 2.0194668, 41.3961256 ], [ 2.0186333, 41.3969459 ], [ 2.017959, 41.39677 ], [ 2.0174129, 41.3966178 ], [ 2.0170514, 41.3965631 ], [ 2.0166895, 41.396538 ], [ 2.0160052, 41.3964657 ], [ 2.0153689, 41.3964455 ], [ 2.0147327, 41.3964327 ], [ 2.0143499, 41.3964884 ], [ 2.0139576, 41.3965293 ], [ 2.0134487, 41.3965103 ], [ 2.013097, 41.3964556 ], [ 2.0127447, 41.3964452 ], [ 2.0119918, 41.3963724 ], [ 2.0118161, 41.396334 ], [ 2.0113774, 41.3962049 ], [ 2.0110653, 41.3961211 ], [ 2.0114267, 41.3955344 ], [ 2.0104618, 41.3952385 ], [ 2.0099263, 41.3950348 ], [ 2.0099168, 41.3950497 ], [ 2.0093985, 41.3948313 ], [ 2.0093235, 41.3949251 ], [ 2.0098437, 41.3951633 ], [ 2.009455, 41.3957681 ], [ 2.0094014, 41.3958584 ], [ 2.0087354, 41.3956704 ], [ 2.0078734, 41.3954278 ], [ 2.0079942, 41.3952394 ], [ 2.0083041, 41.3948218 ], [ 2.0086047, 41.3943672 ], [ 2.0087088, 41.3939625 ], [ 2.0087681, 41.3932847 ], [ 2.0088075, 41.3926214 ], [ 2.0088908, 41.3922903 ], [ 2.0091917, 41.391821 ], [ 2.0097203, 41.3911841 ], [ 2.0099502, 41.3908763 ], [ 2.010199, 41.3912545 ], [ 2.0104779, 41.3915887 ], [ 2.0105311, 41.3919578 ], [ 2.0104366, 41.3923773 ], [ 2.0107096, 41.3924534 ], [ 2.0110898, 41.3925673 ], [ 2.0114403, 41.3926956 ], [ 2.0114279, 41.3927467 ], [ 2.0118498, 41.3928138 ], [ 2.0116503, 41.3931799 ], [ 2.0133907, 41.393679 ], [ 2.0134134, 41.3936442 ], [ 2.0135218, 41.3933962 ], [ 2.0136869, 41.3930368 ], [ 2.0137434, 41.392946 ], [ 2.0139548, 41.3928027 ], [ 2.0147299, 41.3925438 ], [ 2.0148181, 41.3925322 ], [ 2.0149605, 41.3925873 ], [ 2.0150761, 41.3925966 ], [ 2.0153283, 41.3926651 ], [ 2.0156518, 41.3927674 ], [ 2.0198863, 41.3939275 ], [ 2.0202813, 41.3940321 ] ] ] } },
{ "type": "Feature", "properties": { "CCAA": "09 - Cataluña", "PROVINCIA": "08 - Barcelona", "MUNICIPIO": "08263 - Sant Vicenç dels Horts", "COD_MUNICIPIO": "08263", "DISTRITO": "01", "SECCION": "0826301009", "V1_H": 80.55, "V1_M": 86.21, "V2_H": 80.25181467, "V2_M": 85.94546636, "V3_H": 81.01047082, "V3_M": 86.65561049 }, "geometry": { "type": "Polygon", "coordinates": [ [ [ 2.0075807, 41.3990531 ], [ 2.0075238, 41.3991286 ], [ 2.0068506, 41.4001246 ], [ 2.0062886, 41.3998627 ], [ 2.0061989, 41.3998191 ], [ 2.0058706, 41.39966 ], [ 2.0050131, 41.399317 ], [ 2.0049849, 41.3993058 ], [ 2.0057626, 41.3983029 ], [ 2.0065846, 41.3986518 ], [ 2.0075807, 41.3990531 ] ] ] } },
{ "type": "Feature", "properties": { "CCAA": "09 - Cataluña", "PROVINCIA": "08 - Barcelona", "MUNICIPIO": "08263 - Sant Vicenç dels Horts", "COD_MUNICIPIO": "08263", "DISTRITO": "03", "SECCION": "0826303001", "V1_H": 80.61, "V1_M": 86.39, "V2_H": 80.33359214, "V2_M": 86.26240397, "V3_H": 81.01911703, "V3_M": 86.63389387 }, "geometry": { "type": "Polygon", "coordinates": [ [ [ 2.0060258, 41.3915581 ], [ 2.0060307, 41.3915603 ], [ 2.005518, 41.3914742 ], [ 2.0049321, 41.391353 ], [ 2.0039784, 41.3913521 ], [ 2.003658, 41.3915089 ], [ 2.0032505, 41.391694 ], [ 2.003021, 41.3915832 ], [ 2.0027224, 41.3915806 ], [ 2.0024919, 41.3915279 ], [ 2.0021473, 41.391387 ], [ 2.0018508, 41.3912394 ], [ 2.0015799, 41.3913168 ], [ 2.0014438, 41.3913954 ], [ 2.0011976, 41.3917416 ], [ 2.0010325, 41.3918272 ], [ 2.0005834, 41.3915911 ], [ 2.0004277, 41.3916841 ], [ 2.0002342, 41.3917405 ], [ 1.9999547, 41.3917525 ], [ 1.9997433, 41.3917144 ], [ 1.9996095, 41.3916407 ], [ 1.9995242, 41.3915457 ], [ 1.9994288, 41.3914868 ], [ 1.9992554, 41.3914853 ], [ 1.998985, 41.3915264 ], [ 1.9987543, 41.3914954 ], [ 1.9985239, 41.3914426 ], [ 1.9983314, 41.3914265 ], [ 1.9980916, 41.3913591 ], [ 1.9981255, 41.3910329 ], [ 1.9982916, 41.390882 ], [ 1.9985937, 41.3906597 ], [ 1.9990453, 41.3902932 ], [ 1.9992198, 41.3902239 ], [ 1.9995318, 41.3901395 ], [ 2.0000177, 41.3900241 ], [ 2.0005979, 41.3898876 ], [ 2.0010691, 41.3897829 ], [ 2.0015055, 41.3895962 ], [ 2.0021674, 41.3893135 ], [ 2.0021284, 41.3890248 ], [ 2.002087, 41.3884259 ], [ 2.0020528, 41.3883005 ], [ 2.0029977, 41.3879331 ], [ 2.0031083, 41.3873138 ], [ 2.0031497, 41.3869659 ], [ 2.004105, 41.3863919 ], [ 2.0046662, 41.3860757 ], [ 2.0050961, 41.38584 ], [ 2.0052567, 41.3857296 ], [ 2.0053367, 41.3856977 ], [ 2.0061119, 41.3865097 ], [ 2.0066738, 41.3870968 ], [ 2.0072431, 41.387673 ], [ 2.0074986, 41.3879745 ], [ 2.0075195, 41.3885025 ], [ 2.0075455, 41.3885574 ], [ 2.0066544, 41.3890148 ], [ 2.006707, 41.3890411 ], [ 2.0079229, 41.3894428 ], [ 2.007694, 41.389651 ], [ 2.0073585, 41.3899747 ], [ 2.0072208, 41.3901245 ], [ 2.0071056, 41.3902173 ], [ 2.0065418, 41.3905879 ], [ 2.0058955, 41.3910354 ], [ 2.0056218, 41.3912126 ], [ 2.0055983, 41.3913348 ], [ 2.0056625, 41.3913843 ], [ 2.0058615, 41.391484 ], [ 2.0060258, 41.3915581 ] ] ] } },
{ "type": "Feature", "properties": { "CCAA": "09 - Cataluña", "PROVINCIA": "08 - Barcelona", "MUNICIPIO": "08263 - Sant Vicenç dels Horts", "COD_MUNICIPIO": "08263", "DISTRITO": "01", "SECCION": "0826301005", "V1_H": 80.99, "V1_M": 86.66, "V2_H": 80.84822772, "V2_M": 86.63128417, "V3_H": 81.25601163, "V3_M": 86.83891366 }, "geometry": { "type": "Polygon", "coordinates": [ [ [ 2.0174697, 41.3980911 ], [ 2.0163552, 41.3991878 ], [ 2.0156065, 41.4008938 ], [ 2.0136647, 41.4003327 ], [ 2.0134131, 41.4007676 ], [ 2.0119989, 41.4002724 ], [ 2.0108073, 41.3999203 ], [ 2.0106599, 41.3998382 ], [ 2.0103397, 41.3997236 ], [ 2.0103145, 41.3997482 ], [ 2.0101562, 41.3998463 ], [ 2.0098681, 41.3997941 ], [ 2.009581, 41.3996736 ], [ 2.0092192, 41.3990364 ], [ 2.0087582, 41.3994924 ], [ 2.007662, 41.4005573 ], [ 2.0068506, 41.4001246 ], [ 2.0075238, 41.3991286 ], [ 2.0075807, 41.3990531 ], [ 2.0077337, 41.3988502 ], [ 2.0083494, 41.39797 ], [ 2.0083643, 41.3979487 ], [ 2.0088331, 41.397385 ], [ 2.0089853, 41.3970323 ], [ 2.0093243, 41.3959882 ], [ 2.0094014, 41.3958584 ], [ 2.009455, 41.3957681 ], [ 2.0098437, 41.3951633 ], [ 2.0093235, 41.3949251 ], [ 2.0093985, 41.3948313 ], [ 2.0099168, 41.3950497 ], [ 2.0099263, 41.3950348 ], [ 2.0104618, 41.3952385 ], [ 2.0114267, 41.3955344 ], [ 2.0110653, 41.3961211 ], [ 2.0113774, 41.3962049 ], [ 2.0118161, 41.396334 ], [ 2.0119918, 41.3963724 ], [ 2.0127447, 41.3964452 ], [ 2.013097, 41.3964556 ], [ 2.0134487, 41.3965103 ], [ 2.0139576, 41.3965293 ], [ 2.0143499, 41.3964884 ], [ 2.0147327, 41.3964327 ], [ 2.0153689, 41.3964455 ], [ 2.0160052, 41.3964657 ], [ 2.0166895, 41.396538 ], [ 2.0170514, 41.3965631 ], [ 2.0174129, 41.3966178 ], [ 2.017959, 41.39677 ], [ 2.0186333, 41.3969459 ], [ 2.0174697, 41.3980911 ] ] ] } },
{ "type": "Feature", "properties": { "CCAA": "09 - Cataluña", "PROVINCIA": "08 - Barcelona", "MUNICIPIO": "08263 - Sant Vicenç dels Horts", "COD_MUNICIPIO": "08263", "DISTRITO": "01", "SECCION": "0826301007", "V1_H": 81.02, "V1_M": 86.64, "V2_H": 80.81080237, "V2_M": 86.47452022, "V3_H": 81.32513937, "V3_M": 86.89244175 }, "geometry": { "type": "Polygon", "coordinates": [ [ [ 2.0078734, 41.3954278 ], [ 2.0078437, 41.395474 ], [ 2.0076236, 41.3957818 ], [ 2.007293, 41.396273 ], [ 2.0071702, 41.3964473 ], [ 2.0044753, 41.3951482 ], [ 2.0056366, 41.3938001 ], [ 2.0055885, 41.3937589 ], [ 2.0055841, 41.3936895 ], [ 2.005487, 41.3936601 ], [ 2.0053522, 41.3936181 ], [ 2.0050761, 41.3935953 ], [ 2.0049412, 41.3935533 ], [ 2.0047578, 41.3935028 ], [ 2.004601, 41.3934729 ], [ 2.0045256, 41.3934396 ], [ 2.0047609, 41.3932987 ], [ 2.0048048, 41.3932583 ], [ 2.0050121, 41.3931703 ], [ 2.0052684, 41.3930664 ], [ 2.0053775, 41.3930184 ], [ 2.0054441, 41.392917 ], [ 2.005511, 41.3927951 ], [ 2.0056972, 41.3926661 ], [ 2.0059663, 41.3924358 ], [ 2.0061724, 41.3922782 ], [ 2.0065178, 41.3922557 ], [ 2.0066642, 41.3920206 ], [ 2.0062827, 41.3915846 ], [ 2.0060258, 41.3915581 ], [ 2.0058615, 41.391484 ], [ 2.0056625, 41.3913843 ], [ 2.0055983, 41.3913348 ], [ 2.0056218, 41.3912126 ], [ 2.0058955, 41.3910354 ], [ 2.0065418, 41.3905879 ], [ 2.0071056, 41.3902173 ], [ 2.0072208, 41.3901245 ], [ 2.0073585, 41.3899747 ], [ 2.007694, 41.389651 ], [ 2.0079229, 41.3894428 ], [ 2.0079478, 41.3894202 ], [ 2.0081159, 41.3895945 ], [ 2.0081617, 41.3896185 ], [ 2.0087148, 41.3899091 ], [ 2.0092888, 41.3901753 ], [ 2.0094657, 41.3903703 ], [ 2.0097318, 41.3906144 ], [ 2.0099502, 41.3908763 ], [ 2.0097203, 41.3911841 ], [ 2.0091917, 41.391821 ], [ 2.0088908, 41.3922903 ], [ 2.0088075, 41.3926214 ], [ 2.0087681, 41.3932847 ], [ 2.0087088, 41.3939625 ], [ 2.0086047, 41.3943672 ], [ 2.0083041, 41.3948218 ], [ 2.0079942, 41.3952394 ], [ 2.0078734, 41.3954278 ] ] ] } },
{ "type": "Feature", "properties": { "CCAA": "09 - Cataluña", "PROVINCIA": "08 - Barcelona", "MUNICIPIO": "08263 - Sant Vicenç dels Horts", "COD_MUNICIPIO": "08263", "DISTRITO": "04", "SECCION": "0826304003", "V1_H": 81.18, "V1_M": 86.79, "V2_H": 80.97904731, "V2_M": 86.77314473, "V3_H": 81.44010912, "V3_M": 86.96351832000001 }, "geometry": { "type": "Polygon", "coordinates": [ [ [ 2.0032623, 41.3847982 ], [ 2.0030407, 41.3848694 ], [ 2.0027577, 41.3849786 ], [ 2.0025748, 41.385 ], [ 2.0023622, 41.3849809 ], [ 2.0023008, 41.3850205 ], [ 2.002088, 41.3850072 ], [ 2.0018632, 41.3852859 ], [ 2.0015786, 41.3857502 ], [ 2.0015169, 41.385807 ], [ 2.0014095, 41.3858633 ], [ 2.0011961, 41.3857112 ], [ 2.0011212, 41.3856607 ], [ 2.0010051, 41.3856169 ], [ 2.0009235, 41.38559 ], [ 2.0007121, 41.3855882 ], [ 2.000592, 41.3856038 ], [ 2.0005095, 41.3856316 ], [ 2.0004267, 41.3856832 ], [ 2.0000968, 41.3860035 ], [ 2.0000681, 41.3860246 ], [ 1.9999855, 41.3860595 ], [ 1.9998751, 41.3860609 ], [ 1.9997898, 41.386065 ], [ 1.9995189, 41.3860341 ], [ 1.9994754, 41.3860342 ], [ 1.999352, 41.3863554 ], [ 1.999245, 41.3865268 ], [ 1.9990991, 41.3866046 ], [ 1.9989716, 41.3865911 ], [ 1.9989097, 41.3865271 ], [ 1.9989017, 41.3864227 ], [ 1.9988515, 41.3863071 ], [ 1.9988154, 41.386312 ], [ 1.9986708, 41.3862834 ], [ 1.9985544, 41.3862657 ], [ 1.9984557, 41.3862664 ], [ 1.9982641, 41.386292 ], [ 1.998208, 41.3862749 ], [ 1.9979895, 41.3864323 ], [ 1.9974419, 41.3861956 ], [ 1.9971039, 41.3863247 ], [ 1.9968837, 41.386258 ], [ 1.9965496, 41.3859438 ], [ 1.9963642, 41.3859186 ], [ 1.9961917, 41.3859785 ], [ 1.9957429, 41.3859837 ], [ 1.9952639, 41.3859606 ], [ 1.9952809, 41.3859486 ], [ 1.9951831, 41.3856753 ], [ 1.9949992, 41.3855252 ], [ 1.9945923, 41.38527 ], [ 1.9944079, 41.3851488 ], [ 1.9938264, 41.384855 ], [ 1.9934669, 41.3847281 ], [ 1.9932704, 41.384681 ], [ 1.9929971, 41.3846456 ], [ 1.9926806, 41.3845727 ], [ 1.9923783, 41.3846402 ], [ 1.9921157, 41.3846214 ], [ 1.9920279, 41.3846372 ], [ 1.9917463, 41.3847832 ], [ 1.9913845, 41.3848048 ], [ 1.9909527, 41.3847473 ], [ 1.9907338, 41.3847331 ], [ 1.9904161, 41.3847385 ], [ 1.9899724, 41.3847388 ], [ 1.989759, 41.3847245 ], [ 1.9890308, 41.3847099 ], [ 1.9884894, 41.3846598 ], [ 1.9878558, 41.3845469 ], [ 1.9876321, 41.3844914 ], [ 1.9873384, 41.3843609 ], [ 1.9872257, 41.3845662 ], [ 1.9871586, 41.3846563 ], [ 1.9871032, 41.3846971 ], [ 1.9868438, 41.384833 ], [ 1.9863556, 41.3850005 ], [ 1.9861485, 41.3850707 ], [ 1.9858156, 41.3851897 ], [ 1.9854981, 41.3852589 ], [ 1.9851885, 41.3853006 ], [ 1.9848121, 41.3853748 ], [ 1.9844728, 41.3854273 ], [ 1.9840162, 41.3854565 ], [ 1.9835602, 41.3854414 ], [ 1.9829204, 41.3854007 ], [ 1.9812687, 41.3814861 ], [ 1.9821795, 41.3805743 ], [ 1.9795564, 41.3803449 ], [ 1.9791397, 41.3802195 ], [ 1.9795944, 41.3784976 ], [ 1.9801244, 41.3777712 ], [ 1.9846966, 41.376602 ], [ 1.9861731, 41.3755925 ], [ 1.9892645, 41.3767805 ], [ 1.9907687, 41.3759863 ], [ 1.9909227, 41.3759923 ], [ 1.9907393, 41.3762766 ], [ 1.9906871, 41.3764967 ], [ 1.9907646, 41.3767424 ], [ 1.9909249, 41.3768909 ], [ 1.9911116, 41.3770224 ], [ 1.9912719, 41.3771733 ], [ 1.9912939, 41.3772249 ], [ 1.9914897, 41.3776065 ], [ 1.9916231, 41.3778233 ], [ 1.9918052, 41.3780357 ], [ 1.9921709, 41.378377 ], [ 1.9922577, 41.3784439 ], [ 1.9927889, 41.3785932 ], [ 1.9929181, 41.378658 ], [ 1.9930944, 41.3788262 ], [ 1.993178, 41.3788906 ], [ 1.9933042, 41.3789359 ], [ 1.993837, 41.3789871 ], [ 1.9941224, 41.3790435 ], [ 1.9944136, 41.3791514 ], [ 1.9949592, 41.3794282 ], [ 1.9957637, 41.3797954 ], [ 1.996332, 41.3802856 ], [ 1.9963574, 41.3803298 ], [ 1.9964688, 41.3804926 ], [ 1.9965172, 41.3807282 ], [ 1.9965339, 41.3809146 ], [ 1.9965423, 41.3816376 ], [ 1.9965482, 41.3818876 ], [ 1.996578, 41.3820643 ], [ 1.9965937, 41.3821037 ], [ 1.9966385, 41.3821531 ], [ 1.9967319, 41.3822151 ], [ 1.9971358, 41.3823926 ], [ 1.9975301, 41.3825725 ], [ 1.997966, 41.3827846 ], [ 1.9983228, 41.3828612 ], [ 1.9984266, 41.3828793 ], [ 1.9988329, 41.3829073 ], [ 1.9993984, 41.3829514 ], [ 1.999827, 41.3830042 ], [ 2.000168, 41.3830463 ], [ 2.0004536, 41.3830953 ], [ 2.0008721, 41.3831798 ], [ 2.0012224, 41.3832466 ], [ 2.0014656, 41.3833051 ], [ 2.0017248, 41.383376 ], [ 2.0020223, 41.3834962 ], [ 2.0021321, 41.3835535 ], [ 2.0023996, 41.3837175 ], [ 2.0028381, 41.3839835 ], [ 2.0030191, 41.3840586 ], [ 2.0033945, 41.3841917 ], [ 2.0037205, 41.3842621 ], [ 2.0032623, 41.3847982 ] ] ] } },
{ "type": "Feature", "properties": { "CCAA": "09 - Cataluña", "PROVINCIA": "08 - Barcelona", "MUNICIPIO": "08263 - Sant Vicenç dels Horts", "COD_MUNICIPIO": "08263", "DISTRITO": "01", "SECCION": "0826301012", "V1_H": 79.92, "V1_M": 85.8, "V2_H": 79.90391364, "V2_M": 85.68196434, "V3_H": 80.09820982, "V3_M": 86.14356104 }, "geometry": { "type": "Polygon", "coordinates": [ [ [ 2.0061989, 41.3998191 ], [ 2.0051586, 41.4013897 ], [ 2.0040923, 41.4010209 ], [ 2.0045372, 41.3999605 ], [ 2.0046779, 41.3997167 ], [ 2.0050131, 41.399317 ], [ 2.0058706, 41.39966 ], [ 2.0061989, 41.3998191 ] ] ] } },
{ "type": "Feature", "properties": { "CCAA": "09 - Cataluña", "PROVINCIA": "08 - Barcelona", "MUNICIPIO": "08263 - Sant Vicenç dels Horts", "COD_MUNICIPIO": "08263", "DISTRITO": "02", "SECCION": "0826302001", "V1_H": 80.01, "V1_M": 85.88, "V2_H": 79.90171161000001, "V2_M": 85.93881404, "V3_H": 80.29104055000001, "V3_M": 85.88520273 }, "geometry": { "type": "Polygon", "coordinates": [ [ [ 2.0065558, 41.397319 ], [ 2.0056264, 41.3974272 ], [ 2.0052775, 41.3978347 ], [ 2.0050997, 41.3980349 ], [ 2.0050398, 41.3981024 ], [ 2.0048496, 41.3983119 ], [ 2.0046425, 41.3986151 ], [ 2.0043686, 41.3989493 ], [ 2.004224, 41.3988809 ], [ 2.0041045, 41.3988126 ], [ 2.0039136, 41.3987336 ], [ 2.0034447, 41.3987329 ], [ 2.0033491, 41.3987338 ], [ 2.0032658, 41.3986565 ], [ 2.0031518, 41.3985686 ], [ 2.0029778, 41.3984299 ], [ 2.0027972, 41.3983278 ], [ 2.0027453, 41.3982859 ], [ 2.0027414, 41.3982322 ], [ 2.0027504, 41.3981791 ], [ 2.0028218, 41.3981265 ], [ 2.0029119, 41.3980986 ], [ 2.0030777, 41.3980858 ], [ 2.0032056, 41.3980746 ], [ 2.0032736, 41.398065 ], [ 2.0033066, 41.3980387 ], [ 2.0030054, 41.3978418 ], [ 2.0027117, 41.397692 ], [ 2.0024821, 41.3976082 ], [ 2.0021929, 41.3975095 ], [ 2.0020794, 41.3974758 ], [ 2.0020251, 41.3974733 ], [ 2.0019734, 41.397479 ], [ 2.0019242, 41.397497 ], [ 2.0019022, 41.3975193 ], [ 2.0018552, 41.39757 ], [ 2.0015224, 41.3980191 ], [ 2.001457, 41.3980995 ], [ 2.0011074, 41.3979228 ], [ 2.0012334, 41.3977505 ], [ 2.0010499, 41.3970915 ], [ 2.000845, 41.3971232 ], [ 2.0008436, 41.3971187 ], [ 2.000673, 41.3971111 ], [ 2.0004497, 41.3970939 ], [ 2.000389, 41.397078 ], [ 2.0002405, 41.3969543 ], [ 2.0002316, 41.3968965 ], [ 1.9976109, 41.3965068 ], [ 1.9972701, 41.3971418 ], [ 1.9968957, 41.3975393 ], [ 1.9969249, 41.3981669 ], [ 1.995321, 41.3982046 ], [ 1.9950565, 41.3958771 ], [ 1.9949308, 41.3958097 ], [ 1.9951284, 41.3957987 ], [ 1.9954132, 41.3957767 ], [ 1.9955154, 41.3957409 ], [ 1.9958381, 41.3956396 ], [ 1.9959849, 41.3955284 ], [ 1.9961769, 41.395371 ], [ 1.9963526, 41.3952297 ], [ 1.9964955, 41.3951003 ], [ 1.9967098, 41.3949063 ], [ 1.997034, 41.3946193 ], [ 1.9973352, 41.3944138 ], [ 1.9977017, 41.3941925 ], [ 1.9977857, 41.3941307 ], [ 1.9981705, 41.3944489 ], [ 1.9985815, 41.3944453 ], [ 1.9986402, 41.3943856 ], [ 1.9986523, 41.3942136 ], [ 1.9988091, 41.3942782 ], [ 1.9990943, 41.3940371 ], [ 1.9997847, 41.3942119 ], [ 2.0005395, 41.3941552 ], [ 2.0006583, 41.393807 ], [ 2.0007433, 41.3937604 ], [ 2.000769, 41.3936804 ], [ 2.0010361, 41.3937522 ], [ 2.0011659, 41.3937696 ], [ 2.0012417, 41.3937744 ], [ 2.001584, 41.3937202 ], [ 2.0019641, 41.3936745 ], [ 2.0020995, 41.3936757 ], [ 2.0022888, 41.3937018 ], [ 2.0024779, 41.3937361 ], [ 2.0026405, 41.3937375 ], [ 2.0028571, 41.3937516 ], [ 2.0035441, 41.3938392 ], [ 2.0037436, 41.3939021 ], [ 2.0039276, 41.39392 ], [ 2.0042475, 41.3939146 ], [ 2.0047142, 41.3938697 ], [ 2.0051321, 41.3938325 ], [ 2.0055121, 41.3937909 ], [ 2.0056366, 41.3938001 ], [ 2.0044753, 41.3951482 ], [ 2.0071702, 41.3964473 ], [ 2.0065558, 41.397319 ] ] ] } },
{ "type": "Feature", "properties": { "CCAA": "09 - Cataluña", "PROVINCIA": "08 - Barcelona", "MUNICIPIO": "08263 - Sant Vicenç dels Horts", "COD_MUNICIPIO": "08263", "DISTRITO": "01", "SECCION": "0826301008", "V1_H": 80.78, "V1_M": 86.64, "V2_H": 80.55514168000001, "V2_M": 86.45889906, "V3_H": 81.06237696, "V3_M": 86.87120108000001 }, "geometry": { "type": "Polygon", "coordinates": [ [ [ 2.0083494, 41.39797 ], [ 2.0077337, 41.3988502 ], [ 2.0075807, 41.3990531 ], [ 2.0065846, 41.3986518 ], [ 2.0057626, 41.3983029 ], [ 2.0065558, 41.397319 ], [ 2.0069349, 41.3974091 ], [ 2.0083494, 41.39797 ] ] ] } },
{ "type": "Feature", "properties": { "CCAA": "09 - Cataluña", "PROVINCIA": "08 - Barcelona", "MUNICIPIO": "08263 - Sant Vicenç dels Horts", "COD_MUNICIPIO": "08263", "DISTRITO": "01", "SECCION": "0826301010", "V1_H": 80.65, "V1_M": 86.4, "V2_H": 80.41087182, "V2_M": 86.2775211, "V3_H": 80.94660094, "V3_M": 86.57847437 }, "geometry": { "type": "Polygon", "coordinates": [ [ [ 2.0115872, 41.3889946 ], [ 2.0103255, 41.3904343 ], [ 2.010163, 41.3905853 ], [ 2.0099502, 41.3908763 ], [ 2.0097318, 41.3906144 ], [ 2.0094657, 41.3903703 ], [ 2.0092888, 41.3901753 ], [ 2.0087148, 41.3899091 ], [ 2.0081617, 41.3896185 ], [ 2.0083364, 41.3894237 ], [ 2.0085693, 41.3893169 ], [ 2.0087945, 41.3892318 ], [ 2.0084286, 41.38906 ], [ 2.0087919, 41.3889271 ], [ 2.009272, 41.388719 ], [ 2.009713, 41.3885489 ], [ 2.0095479, 41.3883011 ], [ 2.0098145, 41.3882012 ], [ 2.0101342, 41.3880842 ], [ 2.0106066, 41.3879033 ], [ 2.01133, 41.3878496 ], [ 2.0115735, 41.3879932 ], [ 2.0118607, 41.3881154 ], [ 2.0122267, 41.3882763 ], [ 2.0119846, 41.3885137 ], [ 2.0115872, 41.3889946 ] ] ] } },
{ "type": "Feature", "properties": { "CCAA": "09 - Cataluña", "PROVINCIA": "08 - Barcelona", "MUNICIPIO": "08263 - Sant Vicenç dels Horts", "COD_MUNICIPIO": "08263", "DISTRITO": "01", "SECCION": "0826301001", "V1_H": 81.0, "V1_M": 86.46, "V2_H": 80.73228769000001, "V2_M": 86.26471443, "V3_H": 81.28044537, "V3_M": 86.73149122 }, "geometry": { "type": "Polygon", "coordinates": [ [ [ 2.0094014, 41.3958584 ], [ 2.0093243, 41.3959882 ], [ 2.0089853, 41.3970323 ], [ 2.0088331, 41.397385 ], [ 2.0083643, 41.3979487 ], [ 2.0083494, 41.39797 ], [ 2.0069349, 41.3974091 ], [ 2.0065558, 41.397319 ], [ 2.0071702, 41.3964473 ], [ 2.007293, 41.396273 ], [ 2.0076236, 41.3957818 ], [ 2.0078437, 41.395474 ], [ 2.0078734, 41.3954278 ], [ 2.0087354, 41.3956704 ], [ 2.0094014, 41.3958584 ] ] ] } },
{ "type": "Feature", "properties": { "CCAA": "09 - Cataluña", "PROVINCIA": "08 - Barcelona", "MUNICIPIO": "08263 - Sant Vicenç dels Horts", "COD_MUNICIPIO": "08263", "DISTRITO": "01", "SECCION": "0826301003", "V1_H": 81.0, "V1_M": 86.46, "V2_H": 80.73228769000001, "V2_M": 86.26471443, "V3_H": 81.28044537, "V3_M": 86.73149122 }, "geometry": { "type": "Polygon", "coordinates": [ [ [ 2.0207734, 41.3927672 ], [ 2.0202813, 41.3940321 ], [ 2.0198863, 41.3939275 ], [ 2.0156518, 41.3927674 ], [ 2.0153283, 41.3926651 ], [ 2.0150761, 41.3925966 ], [ 2.0149605, 41.3925873 ], [ 2.0148181, 41.3925322 ], [ 2.0147299, 41.3925438 ], [ 2.0139548, 41.3928027 ], [ 2.0137434, 41.392946 ], [ 2.0136869, 41.3930368 ], [ 2.0135218, 41.3933962 ], [ 2.0134134, 41.3936442 ], [ 2.0133907, 41.393679 ], [ 2.0116503, 41.3931799 ], [ 2.0118498, 41.3928138 ], [ 2.0114279, 41.3927467 ], [ 2.0114403, 41.3926956 ], [ 2.0110898, 41.3925673 ], [ 2.0107096, 41.3924534 ], [ 2.0104366, 41.3923773 ], [ 2.0105311, 41.3919578 ], [ 2.0104779, 41.3915887 ], [ 2.010199, 41.3912545 ], [ 2.0099502, 41.3908763 ], [ 2.010163, 41.3905853 ], [ 2.0103255, 41.3904343 ], [ 2.0115872, 41.3889946 ], [ 2.0118026, 41.3890835 ], [ 2.013036, 41.3897089 ], [ 2.0134374, 41.3899192 ], [ 2.0133547, 41.3901361 ], [ 2.0131664, 41.3915982 ], [ 2.0133035, 41.3916103 ], [ 2.0135264, 41.391683 ], [ 2.0139078, 41.3917896 ], [ 2.0143905, 41.3918862 ], [ 2.0146567, 41.3919593 ], [ 2.0148513, 41.3919936 ], [ 2.0149751, 41.3919293 ], [ 2.0150344, 41.3918319 ], [ 2.0151166, 41.391653 ], [ 2.0152111, 41.3916103 ], [ 2.0155421, 41.3917056 ], [ 2.0161111, 41.3918248 ], [ 2.0162909, 41.3918807 ], [ 2.0167011, 41.3919931 ], [ 2.0170323, 41.3920775 ], [ 2.0172988, 41.3921342 ], [ 2.0184878, 41.3923511 ], [ 2.0207734, 41.3927672 ] ] ] } },
{ "type": "Feature", "properties": { "CCAA": "09 - Cataluña", "PROVINCIA": "08 - Barcelona", "MUNICIPIO": "08263 - Sant Vicenç dels Horts", "COD_MUNICIPIO": "08263", "DISTRITO": "01", "SECCION": "0826301006", "V1_H": 80.63, "V1_M": 86.52, "V2_H": 80.3855305, "V2_M": 86.44800565, "V3_H": 80.88841766, "V3_M": 86.66780776 }, "geometry": { "type": "Polygon", "coordinates": [ [ [ 2.0030238, 41.4088253 ], [ 2.0027777, 41.408739 ], [ 1.9983886, 41.4057876 ], [ 1.9928748, 41.4088918 ], [ 1.9916466, 41.4092076 ], [ 1.991057, 41.4093592 ], [ 1.9889702, 41.4083414 ], [ 1.9893421, 41.407789 ], [ 1.989491, 41.4075678 ], [ 1.9915356, 41.40453 ], [ 1.9927475, 41.403802 ], [ 1.9937754, 41.4037939 ], [ 1.9940895, 41.4034606 ], [ 1.995001, 41.4024932 ], [ 1.9957216, 41.4017284 ], [ 1.9968672, 41.4019061 ], [ 1.997788, 41.402185 ], [ 1.9984367, 41.4023325 ], [ 1.9992894, 41.402585 ], [ 2.0002287, 41.4027737 ], [ 2.0011218, 41.4026267 ], [ 2.0016726, 41.4024509 ], [ 2.0022594, 41.4021722 ], [ 2.0035798, 41.4020804 ], [ 2.0040572, 41.4011043 ], [ 2.0040923, 41.4010209 ], [ 2.0051586, 41.4013897 ], [ 2.0061989, 41.3998191 ], [ 2.0062886, 41.3998627 ], [ 2.0068506, 41.4001246 ], [ 2.0066021, 41.4004921 ], [ 2.0059731, 41.401283 ], [ 2.0056951, 41.4015387 ], [ 2.0055629, 41.4018546 ], [ 2.005604, 41.4023785 ], [ 2.0056493, 41.4026149 ], [ 2.0056932, 41.402947 ], [ 2.005627, 41.4034331 ], [ 2.0056222, 41.4037501 ], [ 2.0050785, 41.4047261 ], [ 2.0046643, 41.4055558 ], [ 2.0030238, 41.4088253 ] ] ] } },
{ "type": "Feature", "properties": { "CCAA": "09 - Cataluña", "PROVINCIA": "08 - Barcelona", "MUNICIPIO": "08263 - Sant Vicenç dels Horts", "COD_MUNICIPIO": "08263", "DISTRITO": "02", "SECCION": "0826302003", "V1_H": 80.21, "V1_M": 86.17, "V2_H": 80.05188782, "V2_M": 86.17746221, "V3_H": 80.45086201, "V3_M": 86.3559927 }, "geometry": { "type": "Polygon", "coordinates": [ [ [ 2.0022594, 41.4021722 ], [ 2.0016726, 41.4024509 ], [ 2.0011218, 41.4026267 ], [ 2.0002287, 41.4027737 ], [ 1.9992894, 41.402585 ], [ 1.9984367, 41.4023325 ], [ 1.997788, 41.402185 ], [ 1.9968672, 41.4019061 ], [ 1.9957216, 41.4017284 ], [ 1.995321, 41.3982046 ], [ 1.9969249, 41.3981669 ], [ 1.9968957, 41.3975393 ], [ 1.9972701, 41.3971418 ], [ 1.9976109, 41.3965068 ], [ 2.0002316, 41.3968965 ], [ 2.0002405, 41.3969543 ], [ 2.000389, 41.397078 ], [ 2.0004497, 41.3970939 ], [ 2.000673, 41.3971111 ], [ 2.0008436, 41.3971187 ], [ 2.000845, 41.3971232 ], [ 2.0010499, 41.3970915 ], [ 2.0012334, 41.3977505 ], [ 2.0011074, 41.3979228 ], [ 2.001457, 41.3980995 ], [ 2.0014028, 41.398166 ], [ 2.0009785, 41.398706 ], [ 2.0008186, 41.3989201 ], [ 2.0007361, 41.3990251 ], [ 2.0006535, 41.3991301 ], [ 2.0006095, 41.39917 ], [ 2.0005189, 41.3992237 ], [ 2.0004323, 41.3992392 ], [ 2.0003316, 41.3992384 ], [ 2.0001806, 41.3992262 ], [ 2.0000442, 41.3992033 ], [ 1.9998576, 41.3991746 ], [ 1.9995705, 41.3991234 ], [ 1.9994971, 41.3992149 ], [ 1.9996247, 41.3993406 ], [ 1.9998165, 41.3995048 ], [ 2.000172, 41.3997897 ], [ 2.0004142, 41.3999544 ], [ 2.0006495, 41.4000973 ], [ 2.0009428, 41.4002137 ], [ 2.0012716, 41.4003574 ], [ 2.0015018, 41.4005066 ], [ 2.0016535, 41.4005889 ], [ 2.0017676, 41.4006842 ], [ 2.001755, 41.40088 ], [ 2.0019589, 41.4014114 ], [ 2.002163, 41.4019283 ], [ 2.0022594, 41.4021722 ] ] ] } },
{ "type": "Feature", "properties": { "CCAA": "09 - Cataluña", "PROVINCIA": "08 - Barcelona", "MUNICIPIO": "08263 - Sant Vicenç dels Horts", "COD_MUNICIPIO": "08263", "DISTRITO": "01", "SECCION": "0826301011", "V1_H": 81.04, "V1_M": 86.55, "V2_H": 80.90626992, "V2_M": 86.32523903000001, "V3_H": 81.22678782, "V3_M": 86.81274177 }, "geometry": { "type": "Polygon", "coordinates": [ [ [ 2.0124246, 41.4079482 ], [ 2.0097395, 41.4109392 ], [ 2.0071649, 41.4102779 ], [ 2.0030294, 41.4088273 ], [ 2.0030238, 41.4088253 ], [ 2.0046643, 41.4055558 ], [ 2.0050785, 41.4047261 ], [ 2.0056222, 41.4037501 ], [ 2.005627, 41.4034331 ], [ 2.0056932, 41.402947 ], [ 2.0056493, 41.4026149 ], [ 2.005604, 41.4023785 ], [ 2.0055629, 41.4018546 ], [ 2.0056951, 41.4015387 ], [ 2.0059731, 41.401283 ], [ 2.0066021, 41.4004921 ], [ 2.0068506, 41.4001246 ], [ 2.007662, 41.4005573 ], [ 2.0087582, 41.3994924 ], [ 2.0092192, 41.3990364 ], [ 2.009581, 41.3996736 ], [ 2.0098681, 41.3997941 ], [ 2.0101562, 41.3998463 ], [ 2.0103145, 41.3997482 ], [ 2.0103397, 41.3997236 ], [ 2.0106599, 41.3998382 ], [ 2.0108073, 41.3999203 ], [ 2.0119989, 41.4002724 ], [ 2.0134131, 41.4007676 ], [ 2.0136647, 41.4003327 ], [ 2.0156065, 41.4008938 ], [ 2.0150685, 41.4021196 ], [ 2.0128256, 41.4072293 ], [ 2.0125918, 41.407762 ], [ 2.0124246, 41.4079482 ] ] ] } },
{ "type": "Feature", "properties": { "CCAA": "09 - Cataluña", "PROVINCIA": "08 - Barcelona", "MUNICIPIO": "08263 - Sant Vicenç dels Horts", "COD_MUNICIPIO": "08263", "DISTRITO": "04", "SECCION": "0826304001", "V1_H": 80.91, "V1_M": 86.64, "V2_H": 80.44720226, "V2_M": 86.54313262, "V3_H": 81.45534141, "V3_M": 86.89844934 }, "geometry": { "type": "Polygon", "coordinates": [ [ [ 1.9990453, 41.3902932 ], [ 1.9982421, 41.3903678 ], [ 1.9978007, 41.3904129 ], [ 1.9975242, 41.3905411 ], [ 1.9973206, 41.390621 ], [ 1.9971377, 41.3907663 ], [ 1.9968019, 41.3909919 ], [ 1.9965427, 41.3909298 ], [ 1.9962989, 41.390808 ], [ 1.9959593, 41.3908104 ], [ 1.9957555, 41.3909012 ], [ 1.9955088, 41.3909643 ], [ 1.9953646, 41.3909522 ], [ 1.9951053, 41.3908955 ], [ 1.9947086, 41.3908485 ], [ 1.9945831, 41.3910215 ], [ 1.9943954, 41.391009 ], [ 1.9942682, 41.3908283 ], [ 1.9936916, 41.3902629 ], [ 1.9941638, 41.3900983 ], [ 1.9939928, 41.389939 ], [ 1.9935854, 41.389647 ], [ 1.993285, 41.3898296 ], [ 1.9932499, 41.3898509 ], [ 1.9932338, 41.3898355 ], [ 1.9915003, 41.3900355 ], [ 1.9914911, 41.3900423 ], [ 1.9912663, 41.3900947 ], [ 1.9908095, 41.3901941 ], [ 1.9905047, 41.3902839 ], [ 1.9902004, 41.3903412 ], [ 1.9899754, 41.390399 ], [ 1.9896478, 41.3905594 ], [ 1.9889945, 41.390287 ], [ 1.9885402, 41.3906911 ], [ 1.9881154, 41.3910629 ], [ 1.9878031, 41.3916261 ], [ 1.9878162, 41.3917133 ], [ 1.9878725, 41.3918117 ], [ 1.9877352, 41.3918159 ], [ 1.9876152, 41.3918677 ], [ 1.986041, 41.3900935 ], [ 1.9862931, 41.389019 ], [ 1.9835186, 41.3868184 ], [ 1.9829204, 41.3854007 ], [ 1.9835602, 41.3854414 ], [ 1.9840162, 41.3854565 ], [ 1.9844728, 41.3854273 ], [ 1.9848121, 41.3853748 ], [ 1.9851885, 41.3853006 ], [ 1.9854981, 41.3852589 ], [ 1.9858156, 41.3851897 ], [ 1.9861485, 41.3850707 ], [ 1.9863556, 41.3850005 ], [ 1.9868438, 41.384833 ], [ 1.9871032, 41.3846971 ], [ 1.9871586, 41.3846563 ], [ 1.9872257, 41.3845662 ], [ 1.9873384, 41.3843609 ], [ 1.9876321, 41.3844914 ], [ 1.9878558, 41.3845469 ], [ 1.9884894, 41.3846598 ], [ 1.9890308, 41.3847099 ], [ 1.989759, 41.3847245 ], [ 1.9899724, 41.3847388 ], [ 1.9904161, 41.3847385 ], [ 1.9907338, 41.3847331 ], [ 1.9909527, 41.3847473 ], [ 1.9913845, 41.3848048 ], [ 1.9917463, 41.3847832 ], [ 1.9920279, 41.3846372 ], [ 1.9921157, 41.3846214 ], [ 1.9923783, 41.3846402 ], [ 1.9926806, 41.3845727 ], [ 1.9929971, 41.3846456 ], [ 1.9932704, 41.384681 ], [ 1.9934669, 41.3847281 ], [ 1.9938264, 41.384855 ], [ 1.9944079, 41.3851488 ], [ 1.9945923, 41.38527 ], [ 1.9949992, 41.3855252 ], [ 1.9951831, 41.3856753 ], [ 1.9952809, 41.3859486 ], [ 1.9952639, 41.3859606 ], [ 1.9957429, 41.3859837 ], [ 1.9961917, 41.3859785 ], [ 1.9963642, 41.3859186 ], [ 1.9965496, 41.3859438 ], [ 1.9968837, 41.386258 ], [ 1.9971039, 41.3863247 ], [ 1.9974419, 41.3861956 ], [ 1.9979895, 41.3864323 ], [ 1.998208, 41.3862749 ], [ 1.9982641, 41.386292 ], [ 1.9984557, 41.3862664 ], [ 1.9985544, 41.3862657 ], [ 1.9986708, 41.3862834 ], [ 1.9988154, 41.386312 ], [ 1.9988515, 41.3863071 ], [ 1.9989017, 41.3864227 ], [ 1.9989097, 41.3865271 ], [ 1.9989716, 41.3865911 ], [ 1.9990991, 41.3866046 ], [ 1.999245, 41.3865268 ], [ 1.999352, 41.3863554 ], [ 1.9994754, 41.3860342 ], [ 1.9995189, 41.3860341 ], [ 1.9997898, 41.386065 ], [ 1.9998751, 41.3860609 ], [ 1.9999855, 41.3860595 ], [ 2.0000681, 41.3860246 ], [ 2.0000968, 41.3860035 ], [ 2.0004267, 41.3856832 ], [ 2.0005095, 41.3856316 ], [ 2.000592, 41.3856038 ], [ 2.0007121, 41.3855882 ], [ 2.0009235, 41.38559 ], [ 2.0010051, 41.3856169 ], [ 2.0011212, 41.3856607 ], [ 2.0011961, 41.3857112 ], [ 2.0014095, 41.3858633 ], [ 2.0015169, 41.385807 ], [ 2.0015786, 41.3857502 ], [ 2.0018632, 41.3852859 ], [ 2.002088, 41.3850072 ], [ 2.0023008, 41.3850205 ], [ 2.0023622, 41.3849809 ], [ 2.0025748, 41.385 ], [ 2.0027577, 41.3849786 ], [ 2.0030407, 41.3848694 ], [ 2.0032623, 41.3847982 ], [ 2.0035067, 41.384882 ], [ 2.0042472, 41.3851224 ], [ 2.0044558, 41.385184 ], [ 2.0046925, 41.3853003 ], [ 2.004879, 41.385389 ], [ 2.0050434, 41.3855047 ], [ 2.0052567, 41.3857296 ], [ 2.0050961, 41.38584 ], [ 2.0046662, 41.3860757 ], [ 2.004105, 41.3863919 ], [ 2.0031497, 41.3869659 ], [ 2.0031083, 41.3873138 ], [ 2.0029977, 41.3879331 ], [ 2.0020528, 41.3883005 ], [ 2.002087, 41.3884259 ], [ 2.0021284, 41.3890248 ], [ 2.0021674, 41.3893135 ], [ 2.0015055, 41.3895962 ], [ 2.0010691, 41.3897829 ], [ 2.0005979, 41.3898876 ], [ 2.0000177, 41.3900241 ], [ 1.9995318, 41.3901395 ], [ 1.9992198, 41.3902239 ], [ 1.9990453, 41.3902932 ] ] ] } },
{ "type": "Feature", "properties": { "CCAA": "09 - Cataluña", "PROVINCIA": "08 - Barcelona", "MUNICIPIO": "08263 - Sant Vicenç dels Horts", "COD_MUNICIPIO": "08263", "DISTRITO": "04", "SECCION": "0826304002", "V1_H": 81.11, "V1_M": 86.51, "V2_H": 80.75023294, "V2_M": 86.37370028, "V3_H": 81.47997818, "V3_M": 86.68611994 }, "geometry": { "type": "Polygon", "coordinates": [ [ [ 2.017503, 41.3802398 ], [ 2.0169521, 41.3810741 ], [ 2.016664, 41.3814961 ], [ 2.0160198, 41.3825408 ], [ 2.0157822, 41.3829578 ], [ 2.015546, 41.3832932 ], [ 2.0151226, 41.3840622 ], [ 2.0148197, 41.3845058 ], [ 2.0146269, 41.3848307 ], [ 2.014338, 41.3853016 ], [ 2.014079, 41.3852286 ], [ 2.0138065, 41.3850957 ], [ 2.0136763, 41.3851055 ], [ 2.0134241, 41.3850598 ], [ 2.0131495, 41.3850683 ], [ 2.0127004, 41.3851406 ], [ 2.0123524, 41.3852193 ], [ 2.0118963, 41.3852807 ], [ 2.0115483, 41.3853539 ], [ 2.0111136, 41.3854372 ], [ 2.0107735, 41.3854669 ], [ 2.0104921, 41.3854482 ], [ 2.0102253, 41.3854078 ], [ 2.0099733, 41.3853458 ], [ 2.0096426, 41.3852396 ], [ 2.0092548, 41.3850893 ], [ 2.0089033, 41.3849231 ], [ 2.0083649, 41.3846899 ], [ 2.0081492, 41.3846227 ], [ 2.0078826, 41.3845715 ], [ 2.0074143, 41.3844858 ], [ 2.0069531, 41.3844057 ], [ 2.0064631, 41.3843198 ], [ 2.0061814, 41.384312 ], [ 2.0058343, 41.3843307 ], [ 2.0053642, 41.3843647 ], [ 2.0050678, 41.3843731 ], [ 2.0047429, 41.3843594 ], [ 2.004317, 41.3843339 ], [ 2.0039852, 41.3842985 ], [ 2.0037331, 41.3842473 ], [ 2.0037205, 41.3842621 ], [ 2.0033945, 41.3841917 ], [ 2.0030191, 41.3840586 ], [ 2.0028381, 41.3839835 ], [ 2.0023996, 41.3837175 ], [ 2.0021321, 41.3835535 ], [ 2.0020223, 41.3834962 ], [ 2.0017248, 41.383376 ], [ 2.0014656, 41.3833051 ], [ 2.0012224, 41.3832466 ], [ 2.0008721, 41.3831798 ], [ 2.0004536, 41.3830953 ], [ 2.000168, 41.3830463 ], [ 1.999827, 41.3830042 ], [ 1.9993984, 41.3829514 ], [ 1.9988329, 41.3829073 ], [ 1.9984266, 41.3828793 ], [ 1.9983228, 41.3828612 ], [ 1.997966, 41.3827846 ], [ 1.9975301, 41.3825725 ], [ 1.9971358, 41.3823926 ], [ 1.9967319, 41.3822151 ], [ 1.9966385, 41.3821531 ], [ 1.9965937, 41.3821037 ], [ 1.996578, 41.3820643 ], [ 1.9965482, 41.3818876 ], [ 1.9965423, 41.3816376 ], [ 1.9965339, 41.3809146 ], [ 1.9965172, 41.3807282 ], [ 1.9964688, 41.3804926 ], [ 1.9963574, 41.3803298 ], [ 1.996332, 41.3802856 ], [ 1.9957637, 41.3797954 ], [ 1.9949592, 41.3794282 ], [ 1.9944136, 41.3791514 ], [ 1.9941224, 41.3790435 ], [ 1.993837, 41.3789871 ], [ 1.9933042, 41.3789359 ], [ 1.993178, 41.3788906 ], [ 1.9930944, 41.3788262 ], [ 1.9929181, 41.378658 ], [ 1.9927889, 41.3785932 ], [ 1.9922577, 41.3784439 ], [ 1.9921709, 41.378377 ], [ 1.9918052, 41.3780357 ], [ 1.9916231, 41.3778233 ], [ 1.9914897, 41.3776065 ], [ 1.9912939, 41.3772249 ], [ 1.9912719, 41.3771733 ], [ 1.9911116, 41.3770224 ], [ 1.9909249, 41.3768909 ], [ 1.9907646, 41.3767424 ], [ 1.9906871, 41.3764967 ], [ 1.9907393, 41.3762766 ], [ 1.9909227, 41.3759923 ], [ 1.9914169, 41.3760116 ], [ 1.9949252, 41.3756339 ], [ 2.0002624, 41.371665 ], [ 2.0025038, 41.3775008 ], [ 2.0028126, 41.3778566 ], [ 2.0031499, 41.3781301 ], [ 2.0041566, 41.3785555 ], [ 2.0049173, 41.3787415 ], [ 2.0053106, 41.3788387 ], [ 2.0066502, 41.37919 ], [ 2.0078765, 41.3792924 ], [ 2.0081606, 41.3792956 ], [ 2.0088736, 41.3789858 ], [ 2.0093891, 41.3789847 ], [ 2.0099793, 41.3788039 ], [ 2.0157484, 41.3796857 ], [ 2.017503, 41.3802398 ] ] ] } },
{ "type": "Feature", "properties": { "CCAA": "09 - Cataluña", "PROVINCIA": "08 - Barcelona", "MUNICIPIO": "08263 - Sant Vicenç dels Horts", "COD_MUNICIPIO": "08263", "DISTRITO": "03", "SECCION": "0826303002", "V1_H": 80.55, "V1_M": 86.21, "V2_H": 80.25181467, "V2_M": 85.94546636, "V3_H": 81.01047082, "V3_M": 86.65561049 }, "geometry": { "type": "Polygon", "coordinates": [ [ [ 1.9876152, 41.3918677 ], [ 1.9877352, 41.3918159 ], [ 1.9878725, 41.3918117 ], [ 1.9878162, 41.3917133 ], [ 1.9878031, 41.3916261 ], [ 1.9881154, 41.3910629 ], [ 1.9885402, 41.3906911 ], [ 1.9889945, 41.390287 ], [ 1.9896478, 41.3905594 ], [ 1.9899754, 41.390399 ], [ 1.9902004, 41.3903412 ], [ 1.9905047, 41.3902839 ], [ 1.9908095, 41.3901941 ], [ 1.9912663, 41.3900947 ], [ 1.9914911, 41.3900423 ], [ 1.9915003, 41.3900355 ], [ 1.9932338, 41.3898355 ], [ 1.9932499, 41.3898509 ], [ 1.993285, 41.3898296 ], [ 1.9935854, 41.389647 ], [ 1.9939928, 41.389939 ], [ 1.9941638, 41.3900983 ], [ 1.9936916, 41.3902629 ], [ 1.9942682, 41.3908283 ], [ 1.9943954, 41.391009 ], [ 1.9945831, 41.3910215 ], [ 1.9947086, 41.3908485 ], [ 1.9951053, 41.3908955 ], [ 1.9953646, 41.3909522 ], [ 1.9955088, 41.3909643 ], [ 1.9957555, 41.3909012 ], [ 1.9959593, 41.3908104 ], [ 1.9962989, 41.390808 ], [ 1.9965427, 41.3909298 ], [ 1.9968019, 41.3909919 ], [ 1.9971377, 41.3907663 ], [ 1.9973206, 41.390621 ], [ 1.9975242, 41.3905411 ], [ 1.9978007, 41.3904129 ], [ 1.9982421, 41.3903678 ], [ 1.9990453, 41.3902932 ], [ 1.9985937, 41.3906597 ], [ 1.9982916, 41.390882 ], [ 1.9981255, 41.3910329 ], [ 1.9980916, 41.3913591 ], [ 1.9983314, 41.3914265 ], [ 1.9985239, 41.3914426 ], [ 1.9987543, 41.3914954 ], [ 1.998985, 41.3915264 ], [ 1.9992554, 41.3914853 ], [ 1.9994288, 41.3914868 ], [ 1.9995242, 41.3915457 ], [ 1.9996095, 41.3916407 ], [ 1.9997433, 41.3917144 ], [ 1.9999547, 41.3917525 ], [ 2.0002342, 41.3917405 ], [ 2.0004277, 41.3916841 ], [ 2.0005834, 41.3915911 ], [ 2.0010325, 41.3918272 ], [ 2.0011976, 41.3917416 ], [ 2.0014438, 41.3913954 ], [ 2.0015799, 41.3913168 ], [ 2.0018508, 41.3912394 ], [ 2.0021473, 41.391387 ], [ 2.0024919, 41.3915279 ], [ 2.0027224, 41.3915806 ], [ 2.003021, 41.3915832 ], [ 2.0032505, 41.391694 ], [ 2.003658, 41.3915089 ], [ 2.0039784, 41.3913521 ], [ 2.0049321, 41.391353 ], [ 2.005518, 41.3914742 ], [ 2.0060307, 41.3915603 ], [ 2.0060258, 41.3915581 ], [ 2.0062827, 41.3915846 ], [ 2.0066642, 41.3920206 ], [ 2.0065178, 41.3922557 ], [ 2.0061724, 41.3922782 ], [ 2.0059663, 41.3924358 ], [ 2.0056972, 41.3926661 ], [ 2.005511, 41.3927951 ], [ 2.0054441, 41.392917 ], [ 2.0053775, 41.3930184 ], [ 2.0052684, 41.3930664 ], [ 2.0050121, 41.3931703 ], [ 2.0048048, 41.3932583 ], [ 2.0047609, 41.3932987 ], [ 2.0045256, 41.3934396 ], [ 2.004601, 41.3934729 ], [ 2.0047578, 41.3935028 ], [ 2.0049412, 41.3935533 ], [ 2.0050761, 41.3935953 ], [ 2.0053522, 41.3936181 ], [ 2.005487, 41.3936601 ], [ 2.0055841, 41.3936895 ], [ 2.0055885, 41.3937589 ], [ 2.0056366, 41.3938001 ], [ 2.0055121, 41.3937909 ], [ 2.0051321, 41.3938325 ], [ 2.0047142, 41.3938697 ], [ 2.0042475, 41.3939146 ], [ 2.0039276, 41.39392 ], [ 2.0037436, 41.3939021 ], [ 2.0035441, 41.3938392 ], [ 2.0028571, 41.3937516 ], [ 2.0026405, 41.3937375 ], [ 2.0024779, 41.3937361 ], [ 2.0022888, 41.3937018 ], [ 2.0020995, 41.3936757 ], [ 2.0019641, 41.3936745 ], [ 2.001584, 41.3937202 ], [ 2.0012417, 41.3937744 ], [ 2.0011659, 41.3937696 ], [ 2.0010361, 41.3937522 ], [ 2.000769, 41.3936804 ], [ 2.0007433, 41.3937604 ], [ 2.0006583, 41.393807 ], [ 2.0005395, 41.3941552 ], [ 1.9997847, 41.3942119 ], [ 1.9990943, 41.3940371 ], [ 1.9988091, 41.3942782 ], [ 1.9986523, 41.3942136 ], [ 1.9986402, 41.3943856 ], [ 1.9985815, 41.3944453 ], [ 1.9981705, 41.3944489 ], [ 1.9977857, 41.3941307 ], [ 1.9977017, 41.3941925 ], [ 1.9973352, 41.3944138 ], [ 1.997034, 41.3946193 ], [ 1.9967098, 41.3949063 ], [ 1.9964955, 41.3951003 ], [ 1.9963526, 41.3952297 ], [ 1.9961769, 41.395371 ], [ 1.9959849, 41.3955284 ], [ 1.9958381, 41.3956396 ], [ 1.9955154, 41.3957409 ], [ 1.9954132, 41.3957767 ], [ 1.9951284, 41.3957987 ], [ 1.9949308, 41.3958097 ], [ 1.9944592, 41.395557 ], [ 1.9941138, 41.3953719 ], [ 1.9938672, 41.3952397 ], [ 1.9937444, 41.3951739 ], [ 1.9929821, 41.3947653 ], [ 1.9925357, 41.3945261 ], [ 1.9922889, 41.3943938 ], [ 1.9917986, 41.3943386 ], [ 1.9914541, 41.3942997 ], [ 1.9912738, 41.3942794 ], [ 1.9899041, 41.3941251 ], [ 1.9898273, 41.3941164 ], [ 1.989422, 41.3943041 ], [ 1.9893359, 41.3943364 ], [ 1.9888949, 41.3939482 ], [ 1.9886034, 41.3936941 ], [ 1.988352, 41.3933858 ], [ 1.988219, 41.3931367 ], [ 1.9881262, 41.3928739 ], [ 1.9878307, 41.3922793 ], [ 1.9876152, 41.3918677 ] ] ] } }
]
}
