{
"type": "FeatureCollection",
"name": "09036",
"features": [
{ "type": "Feature", "properties": { "CCAA": "07 - Castilla y León", "PROVINCIA": "09 - Burgos", "MUNICIPIO": "09036 - Bañuelos de Bureba", "COD_MUNICIPIO": "09036", "DISTRITO": "01", "SECCION": "0903601001", "V1_H": 75.48, "V1_M": 82.31, "V2_H": 75.36985678000001, "V2_M": 82.56533706, "V3_H": 75.8600571, "V3_M": 82.01450712 }, "geometry": { "type": "Polygon", "coordinates": [ [ [ -3.2447312, 42.5075049 ], [ -3.2444578, 42.5091986 ], [ -3.2442043, 42.5097575 ], [ -3.2441934, 42.5100637 ], [ -3.2444138, 42.5104055 ], [ -3.2447089, 42.5111524 ], [ -3.2448457, 42.5118996 ], [ -3.2448133, 42.5129894 ], [ -3.2446586, 42.5138722 ], [ -3.2448421, 42.514097 ], [ -3.2470709, 42.5143805 ], [ -3.2478014, 42.5144149 ], [ -3.2509774, 42.5141108 ], [ -3.2509774, 42.5141108 ], [ -3.253069, 42.5135659 ], [ -3.253069, 42.5135659 ], [ -3.2536902, 42.5136546 ], [ -3.2542025, 42.5139147 ], [ -3.2546913, 42.5143819 ], [ -3.2559013, 42.515559 ], [ -3.254716, 42.5164703 ], [ -3.2537046, 42.5172479 ], [ -3.2537046, 42.5172479 ], [ -3.2539253, 42.5176077 ], [ -3.2545484, 42.5181647 ], [ -3.2559796, 42.5198456 ], [ -3.2565669, 42.5205648 ], [ -3.2562643, 42.5209977 ], [ -3.2577107, 42.5233991 ], [ -3.2598894, 42.5232501 ], [ -3.2598895, 42.5232501 ], [ -3.2616792, 42.523273 ], [ -3.2621178, 42.5233135 ], [ -3.2632018, 42.5234137 ], [ -3.2652618, 42.5240123 ], [ -3.2652558, 42.5254713 ], [ -3.2654912, 42.5264164 ], [ -3.2668525, 42.5272563 ], [ -3.2678472, 42.5278699 ], [ -3.2678473, 42.5278699 ], [ -3.2715343, 42.527465 ], [ -3.2715347, 42.5274649 ], [ -3.2729764, 42.5261391 ], [ -3.2729779, 42.5261377 ], [ -3.2799261, 42.5224646 ], [ -3.2799268, 42.5224641 ], [ -3.285823, 42.5180732 ], [ -3.2901289, 42.5150559 ], [ -3.2901309, 42.5150545 ], [ -3.2942378, 42.5107933 ], [ -3.2952552, 42.509728 ], [ -3.2952365, 42.5083231 ], [ -3.2972828, 42.5063921 ], [ -3.2972845, 42.5063905 ], [ -3.2979286, 42.5061907 ], [ -3.2994343, 42.5054393 ], [ -3.300163, 42.5051132 ], [ -3.3032359, 42.5037453 ], [ -3.3065951, 42.5013918 ], [ -3.3082939, 42.5002015 ], [ -3.3084395, 42.500111 ], [ -3.3100035, 42.499153 ], [ -3.3100048, 42.4991522 ], [ -3.3110949, 42.4980955 ], [ -3.3115642, 42.4974385 ], [ -3.3099088, 42.4969609 ], [ -3.3086774, 42.4965139 ], [ -3.3045072, 42.4948229 ], [ -3.3014932, 42.490589 ], [ -3.3005334, 42.4909068 ], [ -3.2996947, 42.4911161 ], [ -3.2950613, 42.4917224 ], [ -3.2939676, 42.4920494 ], [ -3.2921338, 42.4928647 ], [ -3.2909456, 42.4937773 ], [ -3.2890303, 42.4954122 ], [ -3.2877755, 42.4951091 ], [ -3.2854492, 42.4947006 ], [ -3.2814654, 42.4937288 ], [ -3.2789675, 42.4929964 ], [ -3.2772853, 42.492352 ], [ -3.2743348, 42.4910802 ], [ -3.2735415, 42.4905328 ], [ -3.2732281, 42.4902813 ], [ -3.2716733, 42.4890332 ], [ -3.2714651, 42.4887455 ], [ -3.2711714, 42.4883589 ], [ -3.2710674, 42.4868191 ], [ -3.2707707, 42.4829112 ], [ -3.2619384, 42.4802209 ], [ -3.2619881, 42.4802122 ], [ -3.2619383, 42.480197 ], [ -3.2619382, 42.480197 ], [ -3.2618186, 42.4801657 ], [ -3.2615972, 42.4801077 ], [ -3.2614255, 42.4797659 ], [ -3.2614227, 42.4790995 ], [ -3.2613107, 42.4784693 ], [ -3.2602265, 42.4781475 ], [ -3.2602264, 42.4781475 ], [ -3.2577221, 42.4786215 ], [ -3.2549605, 42.4786367 ], [ -3.2549604, 42.4786367 ], [ -3.2538905, 42.4788011 ], [ -3.2538904, 42.4788011 ], [ -3.2526507, 42.47911 ], [ -3.2517155, 42.4795084 ], [ -3.2507688, 42.4800958 ], [ -3.2487411, 42.4811179 ], [ -3.2478789, 42.481552 ], [ -3.2488449, 42.4827568 ], [ -3.2509225, 42.4850848 ], [ -3.2511804, 42.4856966 ], [ -3.2512956, 42.4871013 ], [ -3.2520649, 42.4877751 ], [ -3.2544719, 42.4902014 ], [ -3.2551566, 42.4910014 ], [ -3.2556829, 42.4917747 ], [ -3.2558682, 42.4924498 ], [ -3.255821, 42.4928101 ], [ -3.2556525, 42.4932698 ], [ -3.253367, 42.4963909 ], [ -3.2506383, 42.5001163 ], [ -3.2506054, 42.5001614 ], [ -3.2447312, 42.5075049 ], [ -3.2447312, 42.5075049 ] ] ] } }
]
}
