{
"type": "FeatureCollection",
"name": "09073",
"features": [
{ "type": "Feature", "properties": { "CCAA": "07 - Castilla y León", "PROVINCIA": "09 - Burgos", "MUNICIPIO": "09073 - Cardeñadijo", "COD_MUNICIPIO": "09073", "DISTRITO": "01", "SECCION": "0907301001", "V1_H": 80.8, "V1_M": 86.5, "V2_H": 80.66727015, "V2_M": 86.4570773, "V3_H": 81.13875257, "V3_M": 86.68010657000001 }, "geometry": { "type": "Polygon", "coordinates": [ [ [ -3.6492528, 42.309185 ], [ -3.6521045, 42.3115645 ], [ -3.6530355, 42.3124238 ], [ -3.6551713, 42.3136094 ], [ -3.6561101, 42.3140274 ], [ -3.6562495, 42.313848 ], [ -3.6599417, 42.3090971 ], [ -3.661683, 42.3073759 ], [ -3.6632127, 42.3074571 ], [ -3.6668005, 42.3082649 ], [ -3.6683398, 42.3084751 ], [ -3.6686354, 42.3085154 ], [ -3.670255, 42.3090824 ], [ -3.6714455, 42.3092015 ], [ -3.6714568, 42.3091989 ], [ -3.6731037, 42.3088226 ], [ -3.6739057, 42.3086818 ], [ -3.6749082, 42.3085058 ], [ -3.6755266, 42.3084301 ], [ -3.676011, 42.3083732 ], [ -3.6771215, 42.3074796 ], [ -3.6772044, 42.307412 ], [ -3.6773943, 42.3072573 ], [ -3.6783517, 42.3067158 ], [ -3.6786968, 42.3065201 ], [ -3.681698, 42.3046651 ], [ -3.682367, 42.3025717 ], [ -3.6835635, 42.2998988 ], [ -3.6861375, 42.2967313 ], [ -3.6875736, 42.2947864 ], [ -3.6878949, 42.2943522 ], [ -3.6901057, 42.2935194 ], [ -3.6892756, 42.293038 ], [ -3.6887728, 42.2925367 ], [ -3.6883029, 42.291711 ], [ -3.6883029, 42.291711 ], [ -3.6879983, 42.29047 ], [ -3.6879983, 42.2904699 ], [ -3.6877626, 42.2888683 ], [ -3.6878079, 42.287463 ], [ -3.6880245, 42.2861918 ], [ -3.6881998, 42.2855784 ], [ -3.6875821, 42.2856631 ], [ -3.6872914, 42.2857009 ], [ -3.6863905, 42.2853911 ], [ -3.6856095, 42.2849544 ], [ -3.6792537, 42.2804171 ], [ -3.6780246, 42.2800191 ], [ -3.6777615, 42.2792371 ], [ -3.674092, 42.2786012 ], [ -3.6731064, 42.2782918 ], [ -3.6715887, 42.2769858 ], [ -3.6705326, 42.2768929 ], [ -3.6699057, 42.2772388 ], [ -3.6693039, 42.2776746 ], [ -3.6688477, 42.2781185 ], [ -3.6678011, 42.2777734 ], [ -3.6678359, 42.2787638 ], [ -3.6642942, 42.2821977 ], [ -3.6633862, 42.282356 ], [ -3.6610376, 42.2827659 ], [ -3.6610374, 42.2839096 ], [ -3.6616835, 42.2842302 ], [ -3.6615465, 42.2850415 ], [ -3.658084, 42.2868266 ], [ -3.6547724, 42.289142 ], [ -3.6530403, 42.2905569 ], [ -3.6525123, 42.2911183 ], [ -3.6514682, 42.2922049 ], [ -3.6514082, 42.2922683 ], [ -3.6502949, 42.2937156 ], [ -3.648957, 42.2945517 ], [ -3.6475574, 42.2952891 ], [ -3.6471496, 42.2957507 ], [ -3.6463274, 42.2972053 ], [ -3.6456405, 42.2976505 ], [ -3.6454577, 42.2977321 ], [ -3.6451092, 42.2978877 ], [ -3.644784, 42.2981236 ], [ -3.6443537, 42.2987565 ], [ -3.6438856, 42.2991958 ], [ -3.6415056, 42.3014292 ], [ -3.6415344, 42.3018703 ], [ -3.6418362, 42.3029223 ], [ -3.642235, 42.3039559 ], [ -3.6427893, 42.3047814 ], [ -3.6437575, 42.3057396 ], [ -3.6444846, 42.3068343 ], [ -3.6447105, 42.3075715 ], [ -3.6466584, 42.3082179 ], [ -3.6473699, 42.3084832 ], [ -3.6491067, 42.3091305 ], [ -3.6492528, 42.309185 ] ] ] } }
]
}
