{
"type": "FeatureCollection",
"name": "09155",
"features": [
{ "type": "Feature", "properties": { "CCAA": "07 - Castilla y León", "PROVINCIA": "09 - Burgos", "MUNICIPIO": "09155 - Haza", "COD_MUNICIPIO": "09155", "DISTRITO": "01", "SECCION": "0915501001", "V1_H": 75.48, "V1_M": 82.31, "V2_H": 75.36985678000001, "V2_M": 82.56533706, "V3_H": 75.8600571, "V3_M": 82.01450712 }, "geometry": { "type": "MultiPolygon", "coordinates": [ [ [ [ -3.8328954, 41.4996231 ], [ -3.8335061, 41.4995917 ], [ -3.8341537, 41.499641 ], [ -3.832753, 41.4978587 ], [ -3.8320968, 41.4971338 ], [ -3.8304893, 41.4951008 ], [ -3.8293519, 41.4932805 ], [ -3.8289703, 41.4924816 ], [ -3.8282368, 41.4913249 ], [ -3.8250397, 41.4838898 ], [ -3.8238788, 41.4811328 ], [ -3.8169134, 41.4835063 ], [ -3.816137, 41.4836739 ], [ -3.8138053, 41.4840056 ], [ -3.8074424, 41.4847799 ], [ -3.8042734, 41.4852164 ], [ -3.8001966, 41.4858663 ], [ -3.7996323, 41.4857621 ], [ -3.7970693, 41.4848251 ], [ -3.7959631, 41.4844904 ], [ -3.7952562, 41.4844683 ], [ -3.7925544, 41.4849103 ], [ -3.7889819, 41.4856643 ], [ -3.7876427, 41.4858626 ], [ -3.7906246, 41.4877697 ], [ -3.7910003, 41.4881274 ], [ -3.7915202, 41.4885202 ], [ -3.7920169, 41.4889762 ], [ -3.7924056, 41.4894149 ], [ -3.7927081, 41.489656 ], [ -3.7928784, 41.489871 ], [ -3.7935079, 41.4904071 ], [ -3.7942933, 41.4909601 ], [ -3.7949564, 41.4913069 ], [ -3.7959295, 41.4915253 ], [ -3.7982225, 41.4919238 ], [ -3.7986294, 41.491885 ], [ -3.7990364, 41.4918552 ], [ -3.7998551, 41.4921918 ], [ -3.8008413, 41.4925002 ], [ -3.8011304, 41.4926333 ], [ -3.8020037, 41.4935009 ], [ -3.8028559, 41.4946028 ], [ -3.8037852, 41.4961186 ], [ -3.8039545, 41.4962435 ], [ -3.8070228, 41.497312 ], [ -3.8082625, 41.4977717 ], [ -3.808864, 41.4979567 ], [ -3.8101132, 41.4982181 ], [ -3.8108566, 41.4982579 ], [ -3.8119613, 41.4984573 ], [ -3.8128118, 41.4984513 ], [ -3.8134826, 41.4984376 ], [ -3.8140452, 41.4983886 ], [ -3.8159734, 41.4983299 ], [ -3.8174449, 41.4981574 ], [ -3.8182832, 41.4981244 ], [ -3.8192427, 41.4982077 ], [ -3.8197351, 41.4983033 ], [ -3.8206766, 41.498846 ], [ -3.8211951, 41.4991215 ], [ -3.8220372, 41.4993858 ], [ -3.8227581, 41.4995427 ], [ -3.8236578, 41.4996264 ], [ -3.8280407, 41.4994509 ], [ -3.8288314, 41.4994452 ], [ -3.8309418, 41.4995742 ], [ -3.8328954, 41.4996231 ] ] ], [ [ [ -3.8794443, 41.6024003 ], [ -3.8804005, 41.6047619 ], [ -3.8805967, 41.6059583 ], [ -3.8802796, 41.6082305 ], [ -3.8799882, 41.6097459 ], [ -3.8811883, 41.6097457 ], [ -3.882369, 41.610079 ], [ -3.8836108, 41.6104928 ], [ -3.8888772, 41.6076962 ], [ -3.8891868, 41.6066399 ], [ -3.8895743, 41.6060155 ], [ -3.8907791, 41.6054928 ], [ -3.8917814, 41.6050617 ], [ -3.8976633, 41.6060429 ], [ -3.8997838, 41.6066389 ], [ -3.901099, 41.607151 ], [ -3.9124464, 41.6084489 ], [ -3.9121701, 41.6075774 ], [ -3.9128322, 41.6043116 ], [ -3.9136467, 41.6024947 ], [ -3.9143278, 41.6014445 ], [ -3.9152052, 41.6006899 ], [ -3.9146558, 41.6000278 ], [ -3.913515, 41.5974158 ], [ -3.9124985, 41.5951 ], [ -3.9118824, 41.5922407 ], [ -3.9118585, 41.5896918 ], [ -3.9131155, 41.5869347 ], [ -3.9133251, 41.585636 ], [ -3.9149854, 41.5842628 ], [ -3.9150226, 41.5834969 ], [ -3.9150404, 41.5830644 ], [ -3.9140122, 41.5824601 ], [ -3.9110052, 41.5793404 ], [ -3.9094272, 41.5771642 ], [ -3.908184, 41.5749042 ], [ -3.9071576, 41.5726965 ], [ -3.9056414, 41.5697721 ], [ -3.9047122, 41.5667891 ], [ -3.9085797, 41.5654706 ], [ -3.9145, 41.5634513 ], [ -3.9105039, 41.5607087 ], [ -3.9055586, 41.5569646 ], [ -3.9020098, 41.5552991 ], [ -3.8984171, 41.5539041 ], [ -3.8945557, 41.5521507 ], [ -3.8940351, 41.5517944 ], [ -3.8931154, 41.5503153 ], [ -3.8926428, 41.549085 ], [ -3.8927491, 41.5480844 ], [ -3.8923676, 41.5456284 ], [ -3.8918974, 41.5445692 ], [ -3.8894175, 41.5412106 ], [ -3.8892585, 41.540104 ], [ -3.8889671, 41.5389623 ], [ -3.8883638, 41.537805 ], [ -3.8868465, 41.5364566 ], [ -3.8864343, 41.5360905 ], [ -3.8860318, 41.5347065 ], [ -3.8859699, 41.5336801 ], [ -3.8857833, 41.5323035 ], [ -3.8842356, 41.53309 ], [ -3.8828578, 41.5340282 ], [ -3.8806431, 41.5342524 ], [ -3.8783173, 41.5342431 ], [ -3.8751354, 41.5347447 ], [ -3.8721585, 41.5335603 ], [ -3.8700835, 41.5334768 ], [ -3.8679483, 41.5324751 ], [ -3.863706, 41.5289672 ], [ -3.8617676, 41.5265137 ], [ -3.8604543, 41.5241906 ], [ -3.8589726, 41.5218148 ], [ -3.8564246, 41.5185551 ], [ -3.8542587, 41.5151574 ], [ -3.8527505, 41.5125565 ], [ -3.8472651, 41.5072827 ], [ -3.8448579, 41.5046252 ], [ -3.8441395, 41.5037387 ], [ -3.8433583, 41.5017088 ], [ -3.8427263, 41.5010109 ], [ -3.8422777, 41.5006178 ], [ -3.838953, 41.5001647 ], [ -3.8388086, 41.5001207 ], [ -3.837955, 41.5000053 ], [ -3.8366963, 41.4998388 ], [ -3.8358088, 41.4997732 ], [ -3.8354784, 41.5001719 ], [ -3.8351477, 41.5005436 ], [ -3.8351998, 41.5008675 ], [ -3.8354357, 41.5015053 ], [ -3.8357961, 41.5025114 ], [ -3.8363239, 41.5044172 ], [ -3.8365353, 41.5050191 ], [ -3.8367931, 41.5055036 ], [ -3.8371041, 41.5063931 ], [ -3.8371825, 41.5068879 ], [ -3.8376512, 41.5079294 ], [ -3.838004, 41.5092689 ], [ -3.8382156, 41.5098798 ], [ -3.8385218, 41.5104 ], [ -3.8387713, 41.5111548 ], [ -3.8394402, 41.5128433 ], [ -3.8402361, 41.5150803 ], [ -3.840891, 41.5175345 ], [ -3.8413877, 41.5188729 ], [ -3.8420389, 41.5219486 ], [ -3.8421939, 41.52374 ], [ -3.8389689, 41.5236823 ], [ -3.8374015, 41.5238919 ], [ -3.8354135, 41.5240234 ], [ -3.8339061, 41.5242415 ], [ -3.830709, 41.5244897 ], [ -3.8299539, 41.5244862 ], [ -3.8291761, 41.5245908 ], [ -3.8275524, 41.5250889 ], [ -3.8221766, 41.5265144 ], [ -3.821747, 41.5266616 ], [ -3.8208609, 41.526731 ], [ -3.8176668, 41.527231 ], [ -3.8143501, 41.5275157 ], [ -3.8131034, 41.5275155 ], [ -3.8122495, 41.5272783 ], [ -3.8095886, 41.5263242 ], [ -3.8079754, 41.525759 ], [ -3.806064, 41.5253041 ], [ -3.8037896, 41.5245723 ], [ -3.8032456, 41.5242068 ], [ -3.8022924, 41.5237001 ], [ -3.7999963, 41.5221668 ], [ -3.7994035, 41.5217205 ], [ -3.7991146, 41.5216234 ], [ -3.7978482, 41.5219474 ], [ -3.7962126, 41.5224722 ], [ -3.7968854, 41.5226026 ], [ -3.7974146, 41.5237339 ], [ -3.7978425, 41.5244245 ], [ -3.7984862, 41.5260773 ], [ -3.7988903, 41.5277408 ], [ -3.7989205, 41.5282541 ], [ -3.799504, 41.5298893 ], [ -3.8000227, 41.5311287 ], [ -3.8002191, 41.5314967 ], [ -3.8027254, 41.5325511 ], [ -3.8035228, 41.5330499 ], [ -3.8040173, 41.5332897 ], [ -3.8042464, 41.5334051 ], [ -3.8048223, 41.5334462 ], [ -3.8085142, 41.5343751 ], [ -3.8089118, 41.5345435 ], [ -3.809639, 41.5351779 ], [ -3.8123248, 41.5371406 ], [ -3.8131627, 41.5379904 ], [ -3.8136752, 41.5387074 ], [ -3.8143797, 41.5403957 ], [ -3.8150079, 41.5417333 ], [ -3.8152825, 41.5425871 ], [ -3.8153062, 41.5435237 ], [ -3.8151233, 41.5442365 ], [ -3.8137097, 41.5462461 ], [ -3.8131114, 41.5472952 ], [ -3.8111329, 41.5482458 ], [ -3.8105246, 41.5485023 ], [ -3.8103465, 41.5486386 ], [ -3.8101423, 41.5486131 ], [ -3.8098019, 41.5492009 ], [ -3.8096407, 41.5497334 ], [ -3.810707, 41.5487081 ], [ -3.8120316, 41.5491582 ], [ -3.8137501, 41.5494703 ], [ -3.8153234, 41.5515759 ], [ -3.8175706, 41.5510106 ], [ -3.8180869, 41.5520158 ], [ -3.8189156, 41.5521179 ], [ -3.8208183, 41.556554 ], [ -3.8222212, 41.556544 ], [ -3.8250215, 41.5513719 ], [ -3.8256766, 41.5519707 ], [ -3.8265712, 41.5534775 ], [ -3.827244, 41.5535808 ], [ -3.8270339, 41.5559151 ], [ -3.8295017, 41.556654 ], [ -3.8293981, 41.5579337 ], [ -3.8301124, 41.55846 ], [ -3.8294843, 41.5609235 ], [ -3.8290815, 41.5613137 ], [ -3.8266588, 41.5622498 ], [ -3.8260172, 41.5627137 ], [ -3.8254491, 41.5633123 ], [ -3.8253093, 41.5636285 ], [ -3.8265788, 41.5644301 ], [ -3.8275841, 41.5652065 ], [ -3.828678, 41.5663425 ], [ -3.8306916, 41.5690482 ], [ -3.8329554, 41.5716079 ], [ -3.8331192, 41.5722192 ], [ -3.8330454, 41.5730124 ], [ -3.8327768, 41.5735818 ], [ -3.8322089, 41.5741983 ], [ -3.8313874, 41.5746726 ], [ -3.8301092, 41.5750871 ], [ -3.8263193, 41.5760781 ], [ -3.825557, 41.5765068 ], [ -3.8253344, 41.5769228 ], [ -3.8256393, 41.5773169 ], [ -3.8275414, 41.5778437 ], [ -3.8285275, 41.5780348 ], [ -3.8275979, 41.5794556 ], [ -3.82746, 41.5799249 ], [ -3.8277688, 41.5806253 ], [ -3.8299028, 41.5805199 ], [ -3.8308476, 41.5802879 ], [ -3.8320182, 41.5799012 ], [ -3.8325824, 41.5808608 ], [ -3.8333253, 41.5807925 ], [ -3.8347983, 41.5815294 ], [ -3.837047, 41.5819454 ], [ -3.8367499, 41.5830915 ], [ -3.8381346, 41.5834867 ], [ -3.8401096, 41.5840579 ], [ -3.841781, 41.584361 ], [ -3.8417679, 41.5851987 ], [ -3.8442743, 41.5851173 ], [ -3.8441876, 41.5858295 ], [ -3.8452017, 41.5863175 ], [ -3.8458295, 41.5857004 ], [ -3.8458564, 41.5850067 ], [ -3.8472293, 41.5863206 ], [ -3.8486711, 41.5864812 ], [ -3.848095, 41.5882958 ], [ -3.8470172, 41.5884479 ], [ -3.8467779, 41.5894224 ], [ -3.8454654, 41.5899814 ], [ -3.8434188, 41.589447 ], [ -3.8418786, 41.5900257 ], [ -3.841466, 41.5905961 ], [ -3.8415088, 41.5911182 ], [ -3.841969, 41.5914481 ], [ -3.8412011, 41.5933002 ], [ -3.8419307, 41.5940425 ], [ -3.8418675, 41.5947184 ], [ -3.8486014, 41.5884902 ], [ -3.8542503, 41.5865121 ], [ -3.8583194, 41.5848516 ], [ -3.8603127, 41.5840801 ], [ -3.8614084, 41.5834775 ], [ -3.8642549, 41.581916 ], [ -3.866269, 41.5809281 ], [ -3.8705173, 41.5801485 ], [ -3.874453, 41.5793262 ], [ -3.8765591, 41.5789409 ], [ -3.8789991, 41.5793006 ], [ -3.8788158, 41.5817069 ], [ -3.8780922, 41.5831895 ], [ -3.8782881, 41.5834853 ], [ -3.8791348, 41.5848839 ], [ -3.8794353, 41.5858094 ], [ -3.8787522, 41.5867513 ], [ -3.8782982, 41.5877726 ], [ -3.8778524, 41.5885235 ], [ -3.8775868, 41.5901739 ], [ -3.877854, 41.5921894 ], [ -3.8789396, 41.5961533 ], [ -3.8789169, 41.5971352 ], [ -3.8785933, 41.59893 ], [ -3.8794443, 41.6024003 ] ] ], [ [ [ -3.8175426, 41.6629411 ], [ -3.8182659, 41.6631431 ], [ -3.8192402, 41.6632533 ], [ -3.8200212, 41.6632747 ], [ -3.8217379, 41.6631905 ], [ -3.8233597, 41.6632149 ], [ -3.825497, 41.6631546 ], [ -3.8264201, 41.6630129 ], [ -3.826934, 41.6628111 ], [ -3.8275535, 41.6624103 ], [ -3.8289919, 41.6612381 ], [ -3.8318635, 41.6585064 ], [ -3.8334562, 41.6562792 ], [ -3.8342532, 41.6547512 ], [ -3.833701, 41.6547733 ], [ -3.8338846, 41.6541054 ], [ -3.8343563, 41.6506433 ], [ -3.8362644, 41.648675 ], [ -3.8376806, 41.6467553 ], [ -3.8380328, 41.6461312 ], [ -3.8380501, 41.6456177 ], [ -3.8378388, 41.6450608 ], [ -3.8390899, 41.6433764 ], [ -3.8389761, 41.6429359 ], [ -3.8386776, 41.6421455 ], [ -3.8372676, 41.639895 ], [ -3.8367219, 41.6385479 ], [ -3.8354222, 41.6345942 ], [ -3.8350425, 41.6330838 ], [ -3.8345244, 41.631079 ], [ -3.8345797, 41.6307093 ], [ -3.8372842, 41.6291045 ], [ -3.8377846, 41.6288127 ], [ -3.8415334, 41.6262814 ], [ -3.8414812, 41.6259576 ], [ -3.8412017, 41.6256984 ], [ -3.8404283, 41.6253077 ], [ -3.8401939, 41.624823 ], [ -3.8403083, 41.6243899 ], [ -3.8406426, 41.6242433 ], [ -3.8410166, 41.6243938 ], [ -3.8414647, 41.6246877 ], [ -3.8418357, 41.6246039 ], [ -3.8419894, 41.6244227 ], [ -3.8421669, 41.6233045 ], [ -3.8424828, 41.6226717 ], [ -3.8430976, 41.6219467 ], [ -3.8431194, 41.6217754 ], [ -3.8419142, 41.6214059 ], [ -3.839984, 41.6215911 ], [ -3.8390098, 41.621454 ], [ -3.8379956, 41.6209931 ], [ -3.8374141, 41.6205829 ], [ -3.8372875, 41.6200795 ], [ -3.8374509, 41.619718 ], [ -3.8380476, 41.6194435 ], [ -3.838837, 41.6192306 ], [ -3.8396025, 41.6180901 ], [ -3.8395355, 41.6175502 ], [ -3.8392284, 41.617012 ], [ -3.8389159, 41.6169783 ], [ -3.8378156, 41.6172835 ], [ -3.8360697, 41.6168638 ], [ -3.834151, 41.6170038 ], [ -3.8333213, 41.6168837 ], [ -3.8331133, 41.6165789 ], [ -3.833094, 41.6160116 ], [ -3.8332171, 41.6153172 ], [ -3.8365758, 41.6132934 ], [ -3.837277, 41.6127569 ], [ -3.8376882, 41.6120693 ], [ -3.8375264, 41.6116292 ], [ -3.8350855, 41.6103499 ], [ -3.834067, 41.6095375 ], [ -3.832021, 41.6072285 ], [ -3.830527, 41.6058342 ], [ -3.8294754, 41.6061841 ], [ -3.8289522, 41.6065661 ], [ -3.8284801, 41.6071909 ], [ -3.8279585, 41.6076901 ], [ -3.8275041, 41.6078194 ], [ -3.8241, 41.6072133 ], [ -3.8229093, 41.6070147 ], [ -3.8227323, 41.6072501 ], [ -3.8226687, 41.607908 ], [ -3.8227247, 41.6085382 ], [ -3.8233939, 41.6092539 ], [ -3.8221304, 41.6099385 ], [ -3.8213104, 41.6105838 ], [ -3.8201121, 41.6116822 ], [ -3.8181567, 41.6127138 ], [ -3.8139538, 41.6154006 ], [ -3.8107883, 41.6156661 ], [ -3.8088358, 41.615977 ], [ -3.8083892, 41.6128907 ], [ -3.803912, 41.6138317 ], [ -3.8028324, 41.6138842 ], [ -3.801534, 41.6137131 ], [ -3.7997678, 41.6135632 ], [ -3.7974871, 41.613543 ], [ -3.795248, 41.6120273 ], [ -3.7924823, 41.6106142 ], [ -3.7880021, 41.608357 ], [ -3.7867086, 41.6075822 ], [ -3.7852167, 41.6082589 ], [ -3.7833176, 41.6090194 ], [ -3.7785849, 41.6096819 ], [ -3.7778803, 41.6099658 ], [ -3.7776892, 41.6100482 ], [ -3.7743272, 41.6119262 ], [ -3.7714559, 41.6137108 ], [ -3.7638252, 41.617004 ], [ -3.7633194, 41.6188988 ], [ -3.7631894, 41.6200976 ], [ -3.7639979, 41.6204526 ], [ -3.7668051, 41.6223435 ], [ -3.7694885, 41.622884 ], [ -3.770683, 41.6233985 ], [ -3.7714449, 41.6238708 ], [ -3.772786, 41.6256001 ], [ -3.7732586, 41.6259663 ], [ -3.7743086, 41.6264366 ], [ -3.7756542, 41.6275265 ], [ -3.7763408, 41.62772 ], [ -3.7771421, 41.6274624 ], [ -3.7782265, 41.6267976 ], [ -3.7788449, 41.6263071 ], [ -3.7793778, 41.625709 ], [ -3.7801672, 41.6244697 ], [ -3.7807699, 41.6256636 ], [ -3.7817534, 41.6255939 ], [ -3.7813285, 41.627191 ], [ -3.781107, 41.6287327 ], [ -3.7811886, 41.6295247 ], [ -3.783132, 41.6294125 ], [ -3.7836318, 41.6290398 ], [ -3.785024, 41.6280126 ], [ -3.7859082, 41.6266825 ], [ -3.7867947, 41.6275232 ], [ -3.7868483, 41.6279732 ], [ -3.7865202, 41.6296327 ], [ -3.78681, 41.6297658 ], [ -3.7880212, 41.6296585 ], [ -3.7885718, 41.6295196 ], [ -3.789131, 41.6291015 ], [ -3.7896562, 41.6288547 ], [ -3.790377, 41.6288948 ], [ -3.7910502, 41.6309348 ], [ -3.792018, 41.6305498 ], [ -3.7935768, 41.6323586 ], [ -3.7958516, 41.6347748 ], [ -3.7983317, 41.6372706 ], [ -3.7994669, 41.6378032 ], [ -3.8003275, 41.6384637 ], [ -3.8016756, 41.6396973 ], [ -3.8038743, 41.6417446 ], [ -3.809346, 41.6462369 ], [ -3.809616, 41.6467034 ], [ -3.8103296, 41.6490312 ], [ -3.8096932, 41.6499904 ], [ -3.8091723, 41.6515522 ], [ -3.8082716, 41.653477 ], [ -3.8075254, 41.6552836 ], [ -3.8073209, 41.6562128 ], [ -3.8072953, 41.6570506 ], [ -3.8074956, 41.6576977 ], [ -3.8079017, 41.6584785 ], [ -3.8086967, 41.6596258 ], [ -3.8113051, 41.6607423 ], [ -3.8129752, 41.6617393 ], [ -3.8135672, 41.6620144 ], [ -3.8169023, 41.6626484 ], [ -3.8175426, 41.6629411 ] ] ], [ [ [ -3.9217192, 41.6359904 ], [ -3.9213764, 41.6363715 ], [ -3.9139649, 41.6344219 ], [ -3.909241, 41.6366029 ], [ -3.9090743, 41.6367033 ], [ -3.9056689, 41.6387387 ], [ -3.9038323, 41.6396358 ], [ -3.9029785, 41.640408 ], [ -3.9022277, 41.6416659 ], [ -3.9015018, 41.6421489 ], [ -3.900393, 41.642707 ], [ -3.8988357, 41.643845 ], [ -3.8978684, 41.6450955 ], [ -3.8965731, 41.6460784 ], [ -3.8950793, 41.647468 ], [ -3.8942227, 41.6480511 ], [ -3.893949, 41.6482334 ], [ -3.8922163, 41.6488502 ], [ -3.8910521, 41.6497779 ], [ -3.8900328, 41.6507586 ], [ -3.8888512, 41.6521546 ], [ -3.8950753, 41.6497919 ], [ -3.8950754, 41.6497918 ], [ -3.8958062, 41.6496691 ], [ -3.8958063, 41.6496691 ], [ -3.8961398, 41.649615 ], [ -3.8966809, 41.6495272 ], [ -3.8985644, 41.6494387 ], [ -3.9024295, 41.6492571 ], [ -3.9046243, 41.6490508 ], [ -3.9062745, 41.6476958 ], [ -3.90755, 41.6470193 ], [ -3.9090827, 41.64671 ], [ -3.9106041, 41.6464457 ], [ -3.9120297, 41.6462093 ], [ -3.9127695, 41.6458702 ], [ -3.9144558, 41.6453795 ], [ -3.9150601, 41.6448162 ], [ -3.9162534, 41.6442753 ], [ -3.9178068, 41.6437406 ], [ -3.9186677, 41.6409416 ], [ -3.9231577, 41.6375191 ], [ -3.9241079, 41.6367909 ], [ -3.9259935, 41.6343169 ], [ -3.926134, 41.6340636 ], [ -3.9279587, 41.6306893 ], [ -3.9291324, 41.6288244 ], [ -3.931373, 41.6268428 ], [ -3.9332923, 41.6242423 ], [ -3.9333643, 41.6234131 ], [ -3.933826, 41.622959 ], [ -3.9326894, 41.6232204 ], [ -3.9316889, 41.6229312 ], [ -3.9302293, 41.6232763 ], [ -3.928876, 41.6234944 ], [ -3.9273688, 41.6238758 ], [ -3.92557, 41.624836 ], [ -3.924129, 41.6248025 ], [ -3.9235887, 41.6247979 ], [ -3.9242818, 41.6262604 ], [ -3.9253346, 41.6285307 ], [ -3.9258332, 41.6298147 ], [ -3.9261267, 41.6310373 ], [ -3.9257251, 41.6314909 ], [ -3.9217192, 41.6359904 ] ] ], [ [ [ -3.7875151, 41.6709408 ], [ -3.7866388, 41.6709918 ], [ -3.7837406, 41.6707414 ], [ -3.7783893, 41.6712819 ], [ -3.7778432, 41.671826 ], [ -3.7842596, 41.6778713 ], [ -3.7852963, 41.6791613 ], [ -3.7864921, 41.6806663 ], [ -3.7992888, 41.6817043 ], [ -3.800852, 41.6808378 ], [ -3.8029249, 41.6794183 ], [ -3.8050055, 41.6776475 ], [ -3.8051836, 41.6774841 ], [ -3.8086758, 41.6742803 ], [ -3.8093746, 41.6734827 ], [ -3.8107916, 41.6715183 ], [ -3.8086704, 41.6680835 ], [ -3.8079464, 41.6678274 ], [ -3.8070692, 41.6678065 ], [ -3.8058455, 41.6679321 ], [ -3.7999553, 41.6695403 ], [ -3.7983611, 41.6698215 ], [ -3.7975566, 41.6698541 ], [ -3.7952337, 41.6694918 ], [ -3.7925661, 41.6694291 ], [ -3.7911383, 41.669574 ], [ -3.7875151, 41.6709408 ] ] ] ] } }
]
}
