{
"type": "FeatureCollection",
"name": "09151",
"features": [
{ "type": "Feature", "properties": { "CCAA": "07 - Castilla y León", "PROVINCIA": "09 - Burgos", "MUNICIPIO": "09151 - Gumiel de Izán", "COD_MUNICIPIO": "09151", "DISTRITO": "01", "SECCION": "0915101001", "V1_H": 80.91, "V1_M": 86.7, "V2_H": 80.91796575, "V2_M": 86.73459974, "V3_H": 81.00259482, "V3_M": 86.81948346 }, "geometry": { "type": "Polygon", "coordinates": [ [ [ -3.6153263, 41.7850689 ], [ -3.6179624, 41.7838749 ], [ -3.6215403, 41.781766 ], [ -3.623326, 41.7810178 ], [ -3.6253655, 41.7803763 ], [ -3.626801, 41.7794949 ], [ -3.627899, 41.7785702 ], [ -3.6316606, 41.7768563 ], [ -3.6323454, 41.7767445 ], [ -3.6332027, 41.777046 ], [ -3.6343968, 41.7773367 ], [ -3.6356975, 41.7774467 ], [ -3.6407335, 41.7829222 ], [ -3.6436739, 41.7845361 ], [ -3.6454308, 41.7869222 ], [ -3.6466511, 41.7885996 ], [ -3.6470689, 41.7906599 ], [ -3.6475632, 41.7931341 ], [ -3.6444698, 41.7943223 ], [ -3.6417639, 41.7957605 ], [ -3.6425144, 41.7973866 ], [ -3.6443267, 41.7956651 ], [ -3.6447824, 41.7954915 ], [ -3.6451437, 41.7955074 ], [ -3.6456046, 41.7958652 ], [ -3.6473396, 41.7948376 ], [ -3.6483671, 41.7952822 ], [ -3.6503152, 41.7998739 ], [ -3.6531818, 41.8047935 ], [ -3.6512007, 41.806489 ], [ -3.6540218, 41.812832 ], [ -3.6502324, 41.8167084 ], [ -3.6530548, 41.8183768 ], [ -3.6567398, 41.8207967 ], [ -3.6608578, 41.8243129 ], [ -3.6644647, 41.8261027 ], [ -3.665519, 41.8267451 ], [ -3.6661935, 41.8255973 ], [ -3.6689142, 41.8208799 ], [ -3.6736852, 41.8188526 ], [ -3.6813902, 41.8198882 ], [ -3.6825242, 41.8200977 ], [ -3.6866679, 41.8213791 ], [ -3.6870545, 41.8215029 ], [ -3.6875824, 41.8213197 ], [ -3.7027449, 41.8160764 ], [ -3.714727, 41.8119406 ], [ -3.7152098, 41.8131356 ], [ -3.7155446, 41.8140161 ], [ -3.7198952, 41.8100891 ], [ -3.7279008, 41.8036799 ], [ -3.7328343, 41.8003342 ], [ -3.7334071, 41.7998982 ], [ -3.7336688, 41.7996173 ], [ -3.7347329, 41.7979353 ], [ -3.7355515, 41.7968943 ], [ -3.7367173, 41.795689 ], [ -3.7382931, 41.794553 ], [ -3.7396197, 41.7937429 ], [ -3.7398565, 41.7933991 ], [ -3.7400321, 41.7929657 ], [ -3.740234, 41.7927301 ], [ -3.7407363, 41.7924568 ], [ -3.7410936, 41.7921302 ], [ -3.7412585, 41.7918139 ], [ -3.7412156, 41.7912197 ], [ -3.7408778, 41.790105 ], [ -3.7401738, 41.7864437 ], [ -3.7401046, 41.7856605 ], [ -3.7409959, 41.7825834 ], [ -3.7405646, 41.7817036 ], [ -3.7400965, 41.7807608 ], [ -3.7393888, 41.7799097 ], [ -3.7368363, 41.7776743 ], [ -3.7356819, 41.7766819 ], [ -3.73192, 41.7707162 ], [ -3.727285, 41.7704663 ], [ -3.724761, 41.7610609 ], [ -3.7256758, 41.7568399 ], [ -3.7277778, 41.7565655 ], [ -3.7287888, 41.7566222 ], [ -3.7301703, 41.7564513 ], [ -3.7309964, 41.7561128 ], [ -3.7315885, 41.7552894 ], [ -3.7320422, 41.7549893 ], [ -3.7330984, 41.7547844 ], [ -3.7337693, 41.754546 ], [ -3.7349528, 41.753908 ], [ -3.7368553, 41.7530312 ], [ -3.7386425, 41.7525965 ], [ -3.7405037, 41.7523144 ], [ -3.7414383, 41.7520112 ], [ -3.7450013, 41.7501508 ], [ -3.7468306, 41.7492022 ], [ -3.7515193, 41.7459383 ], [ -3.7501112, 41.74275 ], [ -3.7494505, 41.7417815 ], [ -3.7471632, 41.7394996 ], [ -3.7457479, 41.7387882 ], [ -3.7437596, 41.7373869 ], [ -3.7390831, 41.7333098 ], [ -3.7381723, 41.732523 ], [ -3.7382599, 41.7307211 ], [ -3.7382599, 41.730721 ], [ -3.7381667, 41.729938 ], [ -3.7378202, 41.7290756 ], [ -3.7372068, 41.7280077 ], [ -3.7361808, 41.7266001 ], [ -3.7354951, 41.7255146 ], [ -3.7346787, 41.7245561 ], [ -3.7339854, 41.723858 ], [ -3.7339853, 41.7238579 ], [ -3.7333422, 41.7234983 ], [ -3.7324245, 41.7229852 ], [ -3.7260151, 41.7196571 ], [ -3.7195412, 41.7212738 ], [ -3.7186508, 41.7212072 ], [ -3.7169882, 41.7219652 ], [ -3.7169881, 41.7219652 ], [ -3.7158061, 41.7222194 ], [ -3.715177, 41.7223547 ], [ -3.7136811, 41.7218866 ], [ -3.7091813, 41.721581 ], [ -3.7083679, 41.7219553 ], [ -3.7002741, 41.7213449 ], [ -3.6999693, 41.7213219 ], [ -3.698692, 41.7210504 ], [ -3.6966005, 41.7210901 ], [ -3.6949873, 41.7208837 ], [ -3.693172, 41.7208946 ], [ -3.693172, 41.7208946 ], [ -3.6882797, 41.7205458 ], [ -3.6879263, 41.7205206 ], [ -3.6879263, 41.7205206 ], [ -3.6875815, 41.7208739 ], [ -3.6866779, 41.721825 ], [ -3.6839187, 41.7234899 ], [ -3.6835121, 41.7237352 ], [ -3.6833568, 41.7238262 ], [ -3.6823438, 41.7246699 ], [ -3.6814336, 41.7250085 ], [ -3.6814335, 41.7250085 ], [ -3.6775004, 41.7259954 ], [ -3.6755978, 41.7268622 ], [ -3.6737834, 41.7281248 ], [ -3.671098, 41.7288879 ], [ -3.6696315, 41.7289235 ], [ -3.6680745, 41.7295179 ], [ -3.6673063, 41.7296395 ], [ -3.6673062, 41.7296395 ], [ -3.6651552, 41.72976 ], [ -3.6632938, 41.7299868 ], [ -3.662548, 41.7299641 ], [ -3.6615381, 41.7287989 ], [ -3.6583402, 41.7264844 ], [ -3.657335, 41.7257696 ], [ -3.657335, 41.7257695 ], [ -3.6564633, 41.7310886 ], [ -3.6557452, 41.731417 ], [ -3.6561041, 41.7324237 ], [ -3.6561417, 41.7325676 ], [ -3.6599386, 41.7381664 ], [ -3.6584244, 41.739445 ], [ -3.659529, 41.7439782 ], [ -3.6601569, 41.7465687 ], [ -3.6601409, 41.7485323 ], [ -3.6599774, 41.7490106 ], [ -3.659552, 41.7497516 ], [ -3.6596762, 41.7501382 ], [ -3.6600753, 41.751523 ], [ -3.6610171, 41.7530488 ], [ -3.6609734, 41.7534724 ], [ -3.6589495, 41.7567084 ], [ -3.6585676, 41.7569988 ], [ -3.6570134, 41.7579444 ], [ -3.6523629, 41.7607989 ], [ -3.6505309, 41.7616469 ], [ -3.6494631, 41.7619321 ], [ -3.6477464, 41.7622841 ], [ -3.6453851, 41.7631439 ], [ -3.6433217, 41.7637319 ], [ -3.6418597, 41.7642985 ], [ -3.6405558, 41.7650443 ], [ -3.6369238, 41.7676133 ], [ -3.6357028, 41.7682325 ], [ -3.634288, 41.7687267 ], [ -3.6332799, 41.7689844 ], [ -3.6323671, 41.7691425 ], [ -3.6295185, 41.7694373 ], [ -3.6283551, 41.7698129 ], [ -3.6268223, 41.7705507 ], [ -3.6224365, 41.7723849 ], [ -3.6191776, 41.7738255 ], [ -3.618085, 41.7740746 ], [ -3.6168588, 41.7741892 ], [ -3.6187592, 41.7791239 ], [ -3.6182597, 41.781 ], [ -3.6179574, 41.7821005 ], [ -3.6175998, 41.7824537 ], [ -3.6165964, 41.7832337 ], [ -3.615783, 41.7837514 ], [ -3.615547, 41.7842391 ], [ -3.6153263, 41.7850689 ] ] ] } }
]
}
