{
"type": "FeatureCollection",
"name": "09173",
"features": [
{ "type": "Feature", "properties": { "CCAA": "07 - Castilla y León", "PROVINCIA": "09 - Burgos", "MUNICIPIO": "09173 - Huerta de Arriba", "COD_MUNICIPIO": "09173", "DISTRITO": "01", "SECCION": "0917301001", "V1_H": 81.0, "V1_M": 86.46, "V2_H": 80.73228769000001, "V2_M": 86.26471443, "V3_H": 81.28044537, "V3_M": 86.73149122 }, "geometry": { "type": "Polygon", "coordinates": [ [ [ -3.0492537, 42.1127976 ], [ -3.052536, 42.1187133 ], [ -3.0569807, 42.1245294 ], [ -3.0589548, 42.1269691 ], [ -3.066172, 42.1333237 ], [ -3.0736526, 42.13585 ], [ -3.0798585, 42.1345579 ], [ -3.0820479, 42.1339889 ], [ -3.0838138, 42.1334563 ], [ -3.0864382, 42.1324456 ], [ -3.0889176, 42.1317322 ], [ -3.0910344, 42.1312712 ], [ -3.0925344, 42.1310628 ], [ -3.0949421, 42.1309798 ], [ -3.0965633, 42.1308614 ], [ -3.0987163, 42.1304272 ], [ -3.1016298, 42.1289206 ], [ -3.1030812, 42.128568 ], [ -3.1046537, 42.1283235 ], [ -3.1058031, 42.1283314 ], [ -3.1073765, 42.1286632 ], [ -3.1081512, 42.1289326 ], [ -3.1090347, 42.1290669 ], [ -3.1100266, 42.1289488 ], [ -3.1108364, 42.1284437 ], [ -3.1124308, 42.1269021 ], [ -3.112079, 42.126353 ], [ -3.1114366, 42.1257142 ], [ -3.1100002, 42.1205098 ], [ -3.1103624, 42.1200951 ], [ -3.1106156, 42.1196356 ], [ -3.1105299, 42.1190053 ], [ -3.1088547, 42.1155484 ], [ -3.1082118, 42.1145043 ], [ -3.106964, 42.1133346 ], [ -3.106164, 42.1123536 ], [ -3.1057512, 42.1113903 ], [ -3.1051325, 42.1103191 ], [ -3.1049745, 42.1098149 ], [ -3.1054186, 42.1076799 ], [ -3.1061417, 42.1061301 ], [ -3.1067078, 42.1047065 ], [ -3.1061992, 42.1042927 ], [ -3.1034995, 42.102647 ], [ -3.1025432, 42.1021345 ], [ -3.1014428, 42.1021985 ], [ -3.0997495, 42.1021099 ], [ -3.0986608, 42.1019757 ], [ -3.0967613, 42.1013919 ], [ -3.0961436, 42.1013385 ], [ -3.0957694, 42.1013027 ], [ -3.0948252, 42.100673 ], [ -3.0907246, 42.1000459 ], [ -3.0871558, 42.099121 ], [ -3.0863813, 42.0987523 ], [ -3.0854371, 42.0980865 ], [ -3.0846626, 42.0976548 ], [ -3.0842751, 42.0972498 ], [ -3.0831241, 42.0955304 ], [ -3.0835948, 42.0947554 ], [ -3.0836668, 42.0943951 ], [ -3.0830963, 42.0927113 ], [ -3.0814474, 42.0891999 ], [ -3.0812408, 42.0883894 ], [ -3.0812496, 42.0857775 ], [ -3.0811636, 42.0845977 ], [ -3.0814288, 42.0840391 ], [ -3.081897, 42.0834714 ], [ -3.0831671, 42.0819303 ], [ -3.0835894, 42.0812455 ], [ -3.0837578, 42.0805428 ], [ -3.0836478, 42.0796513 ], [ -3.0832113, 42.0786158 ], [ -3.0826663, 42.0778777 ], [ -3.0824791, 42.0776932 ], [ -3.081819, 42.0770407 ], [ -3.0792539, 42.0752051 ], [ -3.0787093, 42.0746741 ], [ -3.078333, 42.0734945 ], [ -3.0773641, 42.071928 ], [ -3.0761271, 42.0684523 ], [ -3.0761723, 42.0656962 ], [ -3.0764607, 42.064327 ], [ -3.0768585, 42.063399 ], [ -3.0777636, 42.0622636 ], [ -3.0785726, 42.0616596 ], [ -3.0788382, 42.0613351 ], [ -3.079296, 42.0601189 ], [ -3.0818293, 42.0563433 ], [ -3.0794589, 42.054958 ], [ -3.0753479, 42.0531324 ], [ -3.0741023, 42.0523316 ], [ -3.0717082, 42.0511623 ], [ -3.0700885, 42.0506498 ], [ -3.0690972, 42.0504163 ], [ -3.0678044, 42.0504982 ], [ -3.0660763, 42.0504361 ], [ -3.0477148, 42.0591187 ], [ -3.0439509, 42.069622 ], [ -3.0435407, 42.070748 ], [ -3.0358958, 42.08345 ], [ -3.0356421, 42.0838734 ], [ -3.0343737, 42.0859634 ], [ -3.0492537, 42.1127976 ] ] ] } }
]
}
