{
"type": "FeatureCollection",
"name": "09183",
"features": [
{ "type": "Feature", "properties": { "CCAA": "07 - Castilla y León", "PROVINCIA": "09 - Burgos", "MUNICIPIO": "09183 - Jaramillo de la Fuente", "COD_MUNICIPIO": "09183", "DISTRITO": "01", "SECCION": "0918301001", "V1_H": 75.48, "V1_M": 82.31, "V2_H": 75.36985678000001, "V2_M": 82.56533706, "V3_H": 75.8600571, "V3_M": 82.01450712 }, "geometry": { "type": "Polygon", "coordinates": [ [ [ -3.2821483, 42.1371573 ], [ -3.2837599, 42.1376668 ], [ -3.2905487, 42.1403878 ], [ -3.2916079, 42.1391422 ], [ -3.2926416, 42.1376175 ], [ -3.2970946, 42.1401819 ], [ -3.2990416, 42.1399067 ], [ -3.3026695, 42.1419327 ], [ -3.3034704, 42.1423899 ], [ -3.303377, 42.1431196 ], [ -3.3032833, 42.1437593 ], [ -3.303682, 42.1436412 ], [ -3.3042138, 42.1434867 ], [ -3.3052229, 42.1444477 ], [ -3.306084, 42.1448507 ], [ -3.3071142, 42.1451632 ], [ -3.3107116, 42.145784 ], [ -3.3117658, 42.1460513 ], [ -3.3127697, 42.1459225 ], [ -3.3149099, 42.1455294 ], [ -3.3156722, 42.1455003 ], [ -3.3161327, 42.1456161 ], [ -3.3164235, 42.1456964 ], [ -3.3173799, 42.1457658 ], [ -3.318154, 42.1456736 ], [ -3.3200272, 42.145128 ], [ -3.3210774, 42.1446117 ], [ -3.3248777, 42.1422683 ], [ -3.3253589, 42.1416906 ], [ -3.3257545, 42.140978 ], [ -3.3257785, 42.1409329 ], [ -3.3259088, 42.1403741 ], [ -3.3258421, 42.1391674 ], [ -3.3259362, 42.1386448 ], [ -3.3272447, 42.1365786 ], [ -3.3276399, 42.1357939 ], [ -3.3280011, 42.1354326 ], [ -3.3289778, 42.1347724 ], [ -3.3305565, 42.1335339 ], [ -3.3312205, 42.1332529 ], [ -3.3328851, 42.1322573 ], [ -3.3329334, 42.1322302 ], [ -3.3372983, 42.1293444 ], [ -3.3415929, 42.126972 ], [ -3.3429927, 42.1262744 ], [ -3.3472295, 42.1244874 ], [ -3.3475749, 42.1234776 ], [ -3.3496392, 42.1204632 ], [ -3.350481, 42.119542 ], [ -3.3463909, 42.1170956 ], [ -3.3459647, 42.1165925 ], [ -3.3457313, 42.1159268 ], [ -3.3463048, 42.1146101 ], [ -3.3474209, 42.1129856 ], [ -3.3482382, 42.1120194 ], [ -3.348634, 42.1114148 ], [ -3.348844, 42.1099911 ], [ -3.3483405, 42.1086056 ], [ -3.3480706, 42.1079129 ], [ -3.3476333, 42.1053474 ], [ -3.3477295, 42.105239 ], [ -3.3487148, 42.1040562 ], [ -3.3478105, 42.1023656 ], [ -3.3476535, 42.1023751 ], [ -3.3453326, 42.1026163 ], [ -3.3437922, 42.1017833 ], [ -3.3426767, 42.1012552 ], [ -3.3415991, 42.1010242 ], [ -3.3374355, 42.1003971 ], [ -3.3356561, 42.100078 ], [ -3.3327109, 42.0988437 ], [ -3.3275817, 42.0961654 ], [ -3.3273028, 42.0960311 ], [ -3.3217109, 42.0926603 ], [ -3.3183155, 42.0931562 ], [ -3.3171814, 42.0936817 ], [ -3.3136707, 42.0928807 ], [ -3.3094463, 42.0920185 ], [ -3.3090514, 42.0928842 ], [ -3.3077187, 42.0948512 ], [ -3.3065999, 42.0960701 ], [ -3.304647, 42.0973542 ], [ -3.3040688, 42.0978331 ], [ -3.3029135, 42.099025 ], [ -3.300075, 42.1023289 ], [ -3.3005358, 42.1025978 ], [ -3.3015792, 42.1032886 ], [ -3.3018098, 42.1034591 ], [ -3.3020774, 42.1037917 ], [ -3.3024336, 42.1049256 ], [ -3.3047805, 42.1050635 ], [ -3.2885463, 42.1203984 ], [ -3.2827005, 42.1279874 ], [ -3.2757266, 42.1296345 ], [ -3.2784192, 42.1311501 ], [ -3.278868, 42.1314102 ], [ -3.2761821, 42.1342537 ], [ -3.2756813, 42.1359661 ], [ -3.2783939, 42.136446 ], [ -3.2807076, 42.1370078 ], [ -3.2821483, 42.1371573 ] ] ] } }
]
}
