{
"type": "FeatureCollection",
"name": "09206",
"features": [
{ "type": "Feature", "properties": { "CCAA": "07 - Castilla y León", "PROVINCIA": "09 - Burgos", "MUNICIPIO": "09206 - Mazuela", "COD_MUNICIPIO": "09206", "DISTRITO": "01", "SECCION": "0920601001", "V1_H": 75.48, "V1_M": 82.31, "V2_H": 75.36985678000001, "V2_M": 82.56533706, "V3_H": 75.8600571, "V3_M": 82.01450712 }, "geometry": { "type": "Polygon", "coordinates": [ [ [ -3.9203247, 42.2287895 ], [ -3.9345978, 42.2294759 ], [ -3.9349475, 42.2268973 ], [ -3.9349084, 42.2258889 ], [ -3.9350905, 42.2250949 ], [ -3.9375109, 42.2240665 ], [ -3.9355526, 42.2227405 ], [ -3.9354201, 42.2219761 ], [ -3.9354267, 42.2191391 ], [ -3.933838, 42.2165763 ], [ -3.9323572, 42.2147421 ], [ -3.932466, 42.2122645 ], [ -3.9325656, 42.2099761 ], [ -3.9325339, 42.2070044 ], [ -3.932683, 42.2031396 ], [ -3.9337864, 42.1991049 ], [ -3.93448, 42.1968567 ], [ -3.9376241, 42.1866993 ], [ -3.9366032, 42.1864464 ], [ -3.9368419, 42.1853907 ], [ -3.9353951, 42.1850062 ], [ -3.9343235, 42.182133 ], [ -3.9323608, 42.1828874 ], [ -3.9301557, 42.1852829 ], [ -3.9292243, 42.1861821 ], [ -3.9276905, 42.1872932 ], [ -3.9248045, 42.1870283 ], [ -3.9226474, 42.1877571 ], [ -3.9216011, 42.1890984 ], [ -3.9204121, 42.1897744 ], [ -3.9181253, 42.1907563 ], [ -3.9172826, 42.1919429 ], [ -3.9172112, 42.1920335 ], [ -3.9162937, 42.1930765 ], [ -3.9147737, 42.1943315 ], [ -3.9095326, 42.1979305 ], [ -3.9070499, 42.1996342 ], [ -3.9061601, 42.2000916 ], [ -3.9037335, 42.2006601 ], [ -3.9025208, 42.1988594 ], [ -3.9004399, 42.1981732 ], [ -3.89791, 42.1982831 ], [ -3.8975546, 42.201411 ], [ -3.8935771, 42.2036666 ], [ -3.8879699, 42.208087 ], [ -3.8891239, 42.2091769 ], [ -3.882977, 42.2140336 ], [ -3.8828325, 42.2149623 ], [ -3.8833393, 42.2156879 ], [ -3.8848606, 42.2170451 ], [ -3.8868012, 42.2180568 ], [ -3.8873071, 42.2187104 ], [ -3.8879456, 42.2193088 ], [ -3.8902506, 42.2203807 ], [ -3.8932422, 42.2220146 ], [ -3.8936539, 42.222858 ], [ -3.8954113, 42.2237449 ], [ -3.9006138, 42.2257486 ], [ -3.903265, 42.2264212 ], [ -3.9034809, 42.227113 ], [ -3.9044228, 42.2268805 ], [ -3.9105471, 42.223851 ], [ -3.914085, 42.2246695 ], [ -3.9178653, 42.2271611 ], [ -3.9195185, 42.2283457 ], [ -3.9203247, 42.2287895 ] ] ] } }
]
}
