{
"type": "FeatureCollection",
"name": "09214",
"features": [
{ "type": "Feature", "properties": { "CCAA": "07 - Castilla y León", "PROVINCIA": "09 - Burgos", "MUNICIPIO": "09214 - Merindad de Montija", "COD_MUNICIPIO": "09214", "DISTRITO": "01", "SECCION": "0921401001", "V1_H": 80.23, "V1_M": 86.04, "V2_H": 80.01377171, "V2_M": 86.1814847, "V3_H": 80.55154758, "V3_M": 86.06989916000001 }, "geometry": { "type": "Polygon", "coordinates": [ [ [ -3.4176474, 43.1334283 ], [ -3.4214428, 43.1329372 ], [ -3.4219061, 43.1323502 ], [ -3.425763, 43.1335787 ], [ -3.4296737, 43.1336721 ], [ -3.4335343, 43.1318926 ], [ -3.4345654, 43.1316546 ], [ -3.435501, 43.1318131 ], [ -3.4385633, 43.1319275 ], [ -3.4394374, 43.1320772 ], [ -3.4401779, 43.1324616 ], [ -3.44093, 43.1327649 ], [ -3.4416193, 43.1328703 ], [ -3.4423077, 43.1328496 ], [ -3.4429574, 43.1325679 ], [ -3.4447573, 43.1315344 ], [ -3.4492087, 43.133282 ], [ -3.4511355, 43.1344721 ], [ -3.45432, 43.1344595 ], [ -3.4556389, 43.1348955 ], [ -3.4574624, 43.1353925 ], [ -3.4589556, 43.1361069 ], [ -3.4603461, 43.1362545 ], [ -3.4653026, 43.1364055 ], [ -3.4691295, 43.1367591 ], [ -3.4712937, 43.1367683 ], [ -3.4738376, 43.1365777 ], [ -3.475952, 43.1365059 ], [ -3.4803386, 43.1361004 ], [ -3.4819216, 43.1356885 ], [ -3.4864082, 43.1339406 ], [ -3.4869684, 43.1332629 ], [ -3.4897655, 43.1340074 ], [ -3.49043, 43.1340856 ], [ -3.4916211, 43.1338734 ], [ -3.4925797, 43.1338242 ], [ -3.4930972, 43.1339571 ], [ -3.4937769, 43.1343864 ], [ -3.496755, 43.1346977 ], [ -3.4975323, 43.1350275 ], [ -3.4996268, 43.1355317 ], [ -3.5005378, 43.1356628 ], [ -3.5012036, 43.135894 ], [ -3.5015892, 43.1364326 ], [ -3.5021074, 43.1366555 ], [ -3.503871, 43.1357833 ], [ -3.504804, 43.1355991 ], [ -3.5063294, 43.1356824 ], [ -3.5076109, 43.1360099 ], [ -3.5084395, 43.1365825 ], [ -3.5084398, 43.1365828 ], [ -3.5095226, 43.1337334 ], [ -3.5099936, 43.1327138 ], [ -3.5106549, 43.1309098 ], [ -3.5112896, 43.127944 ], [ -3.5112898, 43.1279427 ], [ -3.5114361, 43.1272594 ], [ -3.511689, 43.1266279 ], [ -3.5137135, 43.1261416 ], [ -3.5147786, 43.1259767 ], [ -3.5161526, 43.125764 ], [ -3.5176671, 43.1255295 ], [ -3.5180135, 43.1254847 ], [ -3.5200496, 43.1252215 ], [ -3.5201911, 43.1248578 ], [ -3.5208918, 43.1230565 ], [ -3.522107, 43.1199263 ], [ -3.5224034, 43.1186929 ], [ -3.5258345, 43.1044118 ], [ -3.5258345, 43.1044108 ], [ -3.5258345, 43.1044105 ], [ -3.5257927, 43.1038254 ], [ -3.5208896, 43.0937082 ], [ -3.5196306, 43.0915888 ], [ -3.5124427, 43.0916031 ], [ -3.5113966, 43.0884295 ], [ -3.5115717, 43.0873399 ], [ -3.5115717, 43.0873386 ], [ -3.5115743, 43.0861693 ], [ -3.5121941, 43.0838702 ], [ -3.5121938, 43.0838699 ], [ -3.5121941, 43.083869 ], [ -3.5118462, 43.0834023 ], [ -3.5089269, 43.0794982 ], [ -3.5084869, 43.0783988 ], [ -3.5084324, 43.0782628 ], [ -3.5080238, 43.0772419 ], [ -3.5077324, 43.0746767 ], [ -3.5076002, 43.0735337 ], [ -3.5069363, 43.0704401 ], [ -3.5102419, 43.0691559 ], [ -3.5105359, 43.0690645 ], [ -3.5109525, 43.0689456 ], [ -3.5120208, 43.0689048 ], [ -3.5126938, 43.0686046 ], [ -3.513469, 43.0687542 ], [ -3.5142544, 43.0686877 ], [ -3.514548, 43.0685423 ], [ -3.5146704, 43.0684877 ], [ -3.5151179, 43.0676482 ], [ -3.515249, 43.0671794 ], [ -3.5155754, 43.0665475 ], [ -3.5157414, 43.0658354 ], [ -3.5158625, 43.0656278 ], [ -3.516383, 43.0647159 ], [ -3.5167479, 43.0643001 ], [ -3.5173238, 43.0641354 ], [ -3.5195821, 43.063945 ], [ -3.5195819, 43.0639438 ], [ -3.5195821, 43.0639438 ], [ -3.5193862, 43.0625579 ], [ -3.5190054, 43.0610918 ], [ -3.5189659, 43.0607768 ], [ -3.5185332, 43.0575106 ], [ -3.5186236, 43.0565743 ], [ -3.5190927, 43.0539427 ], [ -3.5199775, 43.0540198 ], [ -3.5208867, 43.0540787 ], [ -3.5222431, 43.0547479 ], [ -3.5246709, 43.0528638 ], [ -3.5247938, 43.0528812 ], [ -3.5294906, 43.05358 ], [ -3.5362217, 43.0495506 ], [ -3.5362218, 43.0495506 ], [ -3.5511417, 43.0458245 ], [ -3.551143, 43.0458242 ], [ -3.5511442, 43.0458238 ], [ -3.551144, 43.0458227 ], [ -3.5510287, 43.0452571 ], [ -3.5495306, 43.0438595 ], [ -3.5485419, 43.0431258 ], [ -3.5484991, 43.0431004 ], [ -3.5479918, 43.0427983 ], [ -3.5466339, 43.0419899 ], [ -3.5462461, 43.041759 ], [ -3.544003, 43.0409025 ], [ -3.5436838, 43.0407807 ], [ -3.5429735, 43.0403623 ], [ -3.5419358, 43.039751 ], [ -3.5411218, 43.0392715 ], [ -3.5410262, 43.0392152 ], [ -3.5410034, 43.0392153 ], [ -3.5406389, 43.0390005 ], [ -3.5406395, 43.0389996 ], [ -3.5406389, 43.0389993 ], [ -3.5406446, 43.0389903 ], [ -3.5406805, 43.0389334 ], [ -3.5409657, 43.0384815 ], [ -3.5409706, 43.0384738 ], [ -3.5409897, 43.0384435 ], [ -3.5410661, 43.0383225 ], [ -3.5412869, 43.0379725 ], [ -3.5413713, 43.0378388 ], [ -3.5420831, 43.036711 ], [ -3.542417, 43.0361819 ], [ -3.5425144, 43.0360276 ], [ -3.5425851, 43.0359156 ], [ -3.5425843, 43.0359112 ], [ -3.5425832, 43.0359048 ], [ -3.542585, 43.035902 ], [ -3.5425842, 43.0358976 ], [ -3.5424481, 43.0351281 ], [ -3.5423902, 43.0348009 ], [ -3.5423696, 43.0346843 ], [ -3.5423655, 43.0346613 ], [ -3.5423487, 43.034116 ], [ -3.5424168, 43.033963 ], [ -3.5425532, 43.0336564 ], [ -3.5435477, 43.0322739 ], [ -3.5435801, 43.0317875 ], [ -3.5435801, 43.0317869 ], [ -3.5435798, 43.0317841 ], [ -3.5435795, 43.0317807 ], [ -3.54358, 43.0317739 ], [ -3.5435799, 43.0317733 ], [ -3.5435797, 43.0317705 ], [ -3.5435663, 43.0316107 ], [ -3.5435308, 43.031189 ], [ -3.5435086, 43.0309247 ], [ -3.5434988, 43.0308086 ], [ -3.543486, 43.0306556 ], [ -3.5434802, 43.0305868 ], [ -3.5434571, 43.0303121 ], [ -3.5434566, 43.0303067 ], [ -3.5434566, 43.0303057 ], [ -3.5434566, 43.0303054 ], [ -3.5434567, 43.0303014 ], [ -3.5434567, 43.0303011 ], [ -3.5434566, 43.0302999 ], [ -3.5434566, 43.0302989 ], [ -3.5434566, 43.0302987 ], [ -3.5434582, 43.0301687 ], [ -3.5434627, 43.0298124 ], [ -3.543471, 43.0291472 ], [ -3.543471, 43.029146 ], [ -3.5436503, 43.0288584 ], [ -3.5449234, 43.0268158 ], [ -3.5453217, 43.0260395 ], [ -3.5460407, 43.0250572 ], [ -3.5460461, 43.0250498 ], [ -3.5457379, 43.0247012 ], [ -3.5455899, 43.0245338 ], [ -3.5451639, 43.0240519 ], [ -3.5448936, 43.0237461 ], [ -3.5444005, 43.0231883 ], [ -3.5414629, 43.0199064 ], [ -3.5410159, 43.0193142 ], [ -3.5397479, 43.0168057 ], [ -3.5379939, 43.0133356 ], [ -3.5375204, 43.0123987 ], [ -3.5375194, 43.0123967 ], [ -3.5375196, 43.0123959 ], [ -3.5375194, 43.0123955 ], [ -3.5375203, 43.0123919 ], [ -3.5375205, 43.0123911 ], [ -3.5375195, 43.0123891 ], [ -3.5375193, 43.0123887 ], [ -3.53782, 43.0112857 ], [ -3.537956, 43.0107868 ], [ -3.537958, 43.0107792 ], [ -3.5378133, 43.0103777 ], [ -3.5373953, 43.0092183 ], [ -3.5372334, 43.0087692 ], [ -3.5372319, 43.0087651 ], [ -3.5372315, 43.0087642 ], [ -3.5372301, 43.00876 ], [ -3.5372304, 43.0087597 ], [ -3.5372318, 43.0087583 ], [ -3.5372315, 43.0087574 ], [ -3.5372318, 43.0087571 ], [ -3.5372303, 43.0087529 ], [ -3.537736, 43.0082515 ], [ -3.5385439, 43.0074504 ], [ -3.5386918, 43.0074393 ], [ -3.54179, 43.0072066 ], [ -3.5344707, 43.0046869 ], [ -3.5303163, 43.0024189 ], [ -3.5295522, 43.001895 ], [ -3.5289464, 43.0014797 ], [ -3.5284413, 43.0012389 ], [ -3.5260057, 43.0004392 ], [ -3.5248978, 43.0000755 ], [ -3.5224371, 42.9992493 ], [ -3.5224375, 42.9992481 ], [ -3.5237127, 42.9963168 ], [ -3.5237124, 42.9963166 ], [ -3.5237128, 42.9963156 ], [ -3.5226767, 42.9956539 ], [ -3.5215088, 42.9949225 ], [ -3.5214063, 42.9948583 ], [ -3.5208876, 42.9944554 ], [ -3.5186502, 42.9933846 ], [ -3.517418, 42.9927949 ], [ -3.5156788, 42.9954605 ], [ -3.5156591, 42.9954583 ], [ -3.5156576, 42.9954606 ], [ -3.513709, 42.995246 ], [ -3.5112067, 42.9961559 ], [ -3.5112066, 42.9961559 ], [ -3.5097653, 42.9969277 ], [ -3.5082874, 42.9977177 ], [ -3.5082807, 42.9977101 ], [ -3.5082662, 42.9977178 ], [ -3.5073995, 42.9967313 ], [ -3.5073994, 42.9967311 ], [ -3.5074816, 42.9962805 ], [ -3.5076564, 42.9951631 ], [ -3.5102558, 42.9949894 ], [ -3.5110596, 42.9942745 ], [ -3.5122059, 42.9935947 ], [ -3.5122071, 42.9935939 ], [ -3.5100155, 42.9926312 ], [ -3.5090607, 42.9910108 ], [ -3.5052606, 42.992148 ], [ -3.5018672, 42.9927212 ], [ -3.5018672, 42.9927212 ], [ -3.4999568, 42.9928325 ], [ -3.495238, 42.9931075 ], [ -3.4926831, 42.9932563 ], [ -3.4926824, 42.9932552 ], [ -3.492662, 42.9932564 ], [ -3.4910849, 42.9908588 ], [ -3.4909209, 42.9902484 ], [ -3.4909206, 42.9902472 ], [ -3.4909051, 42.9902484 ], [ -3.4897683, 42.9903421 ], [ -3.4868954, 42.9910543 ], [ -3.4858504, 42.9913133 ], [ -3.4858504, 42.9913133 ], [ -3.4850761, 42.991213 ], [ -3.485076, 42.991213 ], [ -3.4849908, 42.9911999 ], [ -3.4847806, 42.9913847 ], [ -3.4845895, 42.9915528 ], [ -3.4844669, 42.9916614 ], [ -3.4844669, 42.9916614 ], [ -3.4825548, 42.9918585 ], [ -3.4785208, 42.9931498 ], [ -3.4776232, 42.9934371 ], [ -3.4776232, 42.9934371 ], [ -3.4773142, 42.993387 ], [ -3.4757807, 42.9931385 ], [ -3.4754865, 42.9931752 ], [ -3.4736115, 42.9934087 ], [ -3.4706908, 42.9932856 ], [ -3.4666847, 42.9940044 ], [ -3.46431, 42.9930685 ], [ -3.4633895, 42.9946571 ], [ -3.4593312, 42.9949796 ], [ -3.4590595, 42.9951383 ], [ -3.4583174, 42.995578 ], [ -3.4567771, 42.9963135 ], [ -3.456777, 42.9963136 ], [ -3.4563864, 42.9965762 ], [ -3.4562054, 42.9969822 ], [ -3.4562058, 42.9969825 ], [ -3.4581752, 42.998648 ], [ -3.4585263, 42.998945 ], [ -3.458526, 42.9989461 ], [ -3.4585263, 42.9989463 ], [ -3.4583232, 42.9996765 ], [ -3.4582601, 42.9998301 ], [ -3.4582018, 43.0000145 ], [ -3.4581358, 43.0001784 ], [ -3.4581797, 43.0004444 ], [ -3.4582095, 43.000625 ], [ -3.4584514, 43.0020894 ], [ -3.4587378, 43.0026532 ], [ -3.4595466, 43.0042451 ], [ -3.4595472, 43.0042461 ], [ -3.4611014, 43.0036996 ], [ -3.4622041, 43.0034971 ], [ -3.462211, 43.003498 ], [ -3.4622161, 43.003497 ], [ -3.4630267, 43.0036018 ], [ -3.4636466, 43.0038918 ], [ -3.4641707, 43.004137 ], [ -3.4662105, 43.0040323 ], [ -3.4662572, 43.0040299 ], [ -3.4662581, 43.0040305 ], [ -3.4662691, 43.0040299 ], [ -3.4667373, 43.0042892 ], [ -3.4667824, 43.0043159 ], [ -3.4672057, 43.0045664 ], [ -3.4679238, 43.0054189 ], [ -3.4687808, 43.00577 ], [ -3.4694254, 43.0060341 ], [ -3.4694337, 43.0071354 ], [ -3.4694337, 43.0071405 ], [ -3.4694337, 43.0071418 ], [ -3.4710735, 43.0076112 ], [ -3.4715721, 43.007754 ], [ -3.473561, 43.0076741 ], [ -3.473561, 43.0076745 ], [ -3.4735387, 43.009573 ], [ -3.4727858, 43.0106027 ], [ -3.4714215, 43.011932 ], [ -3.4667026, 43.0159225 ], [ -3.4665369, 43.0167336 ], [ -3.4665369, 43.0167347 ], [ -3.466549, 43.0170251 ], [ -3.4665668, 43.0174535 ], [ -3.4665668, 43.0174539 ], [ -3.4665668, 43.017454 ], [ -3.4663147, 43.0178678 ], [ -3.4662621, 43.0179542 ], [ -3.4659728, 43.0184289 ], [ -3.4659735, 43.018429 ], [ -3.4659728, 43.0184301 ], [ -3.4663194, 43.0184953 ], [ -3.4675199, 43.0187207 ], [ -3.4654942, 43.0200698 ], [ -3.4645898, 43.0222076 ], [ -3.464433, 43.0225774 ], [ -3.4636772, 43.0265427 ], [ -3.4636774, 43.0265431 ], [ -3.4636772, 43.026544 ], [ -3.4639632, 43.0270291 ], [ -3.464017, 43.0276502 ], [ -3.4651733, 43.0279967 ], [ -3.4653553, 43.0280014 ], [ -3.4663888, 43.0280278 ], [ -3.4663921, 43.0280275 ], [ -3.4677872, 43.027914 ], [ -3.4690375, 43.0276928 ], [ -3.4705342, 43.0275876 ], [ -3.4705344, 43.0275884 ], [ -3.4705462, 43.0275876 ], [ -3.4709129, 43.0289999 ], [ -3.4712885, 43.0299528 ], [ -3.4719561, 43.0305804 ], [ -3.4729422, 43.0311167 ], [ -3.4736248, 43.0320954 ], [ -3.4737304, 43.0346524 ], [ -3.4742773, 43.0355416 ], [ -3.4748259, 43.036638 ], [ -3.4752023, 43.037699 ], [ -3.475563, 43.0382503 ], [ -3.4756371, 43.0383636 ], [ -3.4758536, 43.0393889 ], [ -3.4757557, 43.0410183 ], [ -3.4753531, 43.042938 ], [ -3.4751489, 43.0435242 ], [ -3.4747831, 43.0438589 ], [ -3.4735966, 43.0444491 ], [ -3.4717872, 43.0454561 ], [ -3.4703306, 43.0460474 ], [ -3.4679532, 43.0466425 ], [ -3.4679545, 43.0466434 ], [ -3.4679532, 43.0466437 ], [ -3.4701387, 43.0482557 ], [ -3.4724956, 43.0498754 ], [ -3.4703528, 43.0521887 ], [ -3.4681933, 43.0540436 ], [ -3.4670792, 43.0544894 ], [ -3.4652037, 43.0549292 ], [ -3.4647273, 43.0552643 ], [ -3.463349, 43.0565036 ], [ -3.4627647, 43.0571993 ], [ -3.4605276, 43.0585681 ], [ -3.4573298, 43.0612374 ], [ -3.4543982, 43.0633922 ], [ -3.4536416, 43.0640526 ], [ -3.4527375, 43.0646955 ], [ -3.4510239, 43.0655037 ], [ -3.4489034, 43.0660974 ], [ -3.4480081, 43.066281 ], [ -3.4479967, 43.0662809 ], [ -3.4479962, 43.066281 ], [ -3.447087, 43.0662757 ], [ -3.4469431, 43.0667624 ], [ -3.4469432, 43.0667633 ], [ -3.4469431, 43.0667636 ], [ -3.4470224, 43.0675378 ], [ -3.447779, 43.0685434 ], [ -3.447831, 43.0689653 ], [ -3.4466095, 43.0698794 ], [ -3.4462808, 43.070295 ], [ -3.4456867, 43.0713689 ], [ -3.4399177, 43.0736694 ], [ -3.4383371, 43.0742248 ], [ -3.436745, 43.0749062 ], [ -3.4351781, 43.0756866 ], [ -3.4348107, 43.0758305 ], [ -3.4347988, 43.0758352 ], [ -3.4344183, 43.0759842 ], [ -3.4289547, 43.0781234 ], [ -3.4289479, 43.0781214 ], [ -3.4289427, 43.0781234 ], [ -3.4278548, 43.0778124 ], [ -3.427769, 43.0777879 ], [ -3.4277634, 43.0777911 ], [ -3.4280359, 43.078442 ], [ -3.4295546, 43.0813089 ], [ -3.4303176, 43.0829449 ], [ -3.4305399, 43.0834213 ], [ -3.4319743, 43.0865137 ], [ -3.4322241, 43.087089 ], [ -3.4332983, 43.0895974 ], [ -3.4339062, 43.0904235 ], [ -3.4340676, 43.090657 ], [ -3.4349085, 43.0914103 ], [ -3.4349079, 43.091411 ], [ -3.4341875, 43.0924326 ], [ -3.4319155, 43.0956539 ], [ -3.429814, 43.0965247 ], [ -3.4258625, 43.0981619 ], [ -3.4238731, 43.1019333 ], [ -3.4238735, 43.1019337 ], [ -3.4260992, 43.1039692 ], [ -3.4261487, 43.1040231 ], [ -3.4261484, 43.104024 ], [ -3.4255092, 43.1057454 ], [ -3.4253752, 43.1064177 ], [ -3.4253548, 43.1065204 ], [ -3.4250504, 43.1069312 ], [ -3.4249742, 43.107034 ], [ -3.4249499, 43.1070669 ], [ -3.4249437, 43.1070752 ], [ -3.4249421, 43.1070774 ], [ -3.424746, 43.1073421 ], [ -3.4244095, 43.1079044 ], [ -3.42426, 43.1081543 ], [ -3.4241411, 43.1087491 ], [ -3.4219396, 43.115709 ], [ -3.4216319, 43.1174391 ], [ -3.4216318, 43.1174391 ], [ -3.4207173, 43.120324 ], [ -3.4203108, 43.1220004 ], [ -3.4200714, 43.1227457 ], [ -3.4191551, 43.1255976 ], [ -3.4181959, 43.1291761 ], [ -3.4179009, 43.1328061 ], [ -3.4176474, 43.1334283 ] ] ] } }
]
}
