{
"type": "FeatureCollection",
"name": "09236",
"features": [
{ "type": "Feature", "properties": { "CCAA": "07 - Castilla y León", "PROVINCIA": "09 - Burgos", "MUNICIPIO": "09236 - Olmillos de Muñó", "COD_MUNICIPIO": "09236", "DISTRITO": "01", "SECCION": "0923601001", "V1_H": 75.48, "V1_M": 82.31, "V2_H": 75.36985678000001, "V2_M": 82.56533706, "V3_H": 75.8600571, "V3_M": 82.01450712 }, "geometry": { "type": "Polygon", "coordinates": [ [ [ -3.9343235, 42.182133 ], [ -3.9353951, 42.1850062 ], [ -3.9368419, 42.1853907 ], [ -3.9366032, 42.1864464 ], [ -3.9376241, 42.1866993 ], [ -3.93448, 42.1968567 ], [ -3.9337864, 42.1991049 ], [ -3.932683, 42.2031396 ], [ -3.9325339, 42.2070044 ], [ -3.9325656, 42.2099761 ], [ -3.932466, 42.2122645 ], [ -3.9323572, 42.2147421 ], [ -3.933838, 42.2165763 ], [ -3.9354267, 42.2191391 ], [ -3.9354201, 42.2219761 ], [ -3.9355526, 42.2227405 ], [ -3.9375109, 42.2240665 ], [ -3.9396783, 42.2231392 ], [ -3.9415125, 42.2218183 ], [ -3.942595, 42.221278 ], [ -3.9477809, 42.2204698 ], [ -3.9488023, 42.219903 ], [ -3.9509199, 42.2189129 ], [ -3.9523172, 42.2183699 ], [ -3.9542449, 42.2168409 ], [ -3.9545235, 42.2160371 ], [ -3.9549408, 42.2139802 ], [ -3.9539973, 42.212475 ], [ -3.9546219, 42.2105065 ], [ -3.9559433, 42.209766 ], [ -3.9558939, 42.2089019 ], [ -3.9533342, 42.201421 ], [ -3.9540391, 42.2007667 ], [ -3.9580769, 42.1970497 ], [ -3.9518369, 42.1928597 ], [ -3.9525273, 42.1920614 ], [ -3.9528794, 42.191311 ], [ -3.9549021, 42.1905196 ], [ -3.9551656, 42.1903284 ], [ -3.9566439, 42.188776 ], [ -3.9547503, 42.1892871 ], [ -3.9531715, 42.1881924 ], [ -3.9522295, 42.1875518 ], [ -3.9526389, 42.1865937 ], [ -3.9533765, 42.185714 ], [ -3.9551029, 42.1845559 ], [ -3.9541004, 42.1831233 ], [ -3.9491699, 42.1846051 ], [ -3.948489, 42.183611 ], [ -3.9506918, 42.1827282 ], [ -3.9535368, 42.1810746 ], [ -3.9506094, 42.1820805 ], [ -3.9444694, 42.1836531 ], [ -3.943462, 42.1834993 ], [ -3.9422847, 42.1833198 ], [ -3.937321, 42.1825769 ], [ -3.9343235, 42.182133 ] ] ] } }
]
}
