{
"type": "FeatureCollection",
"name": "09248",
"features": [
{ "type": "Feature", "properties": { "CCAA": "07 - Castilla y León", "PROVINCIA": "09 - Burgos", "MUNICIPIO": "09248 - Palazuelos de la Sierra", "COD_MUNICIPIO": "09248", "DISTRITO": "01", "SECCION": "0924801001", "V1_H": 75.48, "V1_M": 82.31, "V2_H": 75.36985678000001, "V2_M": 82.56533706, "V3_H": 75.8600571, "V3_M": 82.01450712 }, "geometry": { "type": "Polygon", "coordinates": [ [ [ -3.4021054, 42.2141921 ], [ -3.4041354, 42.2152478 ], [ -3.4085961, 42.2174475 ], [ -3.409351, 42.2180303 ], [ -3.4108701, 42.2187453 ], [ -3.4114908, 42.2191664 ], [ -3.4127717, 42.2186395 ], [ -3.4147223, 42.2186235 ], [ -3.4168894, 42.2183634 ], [ -3.4174714, 42.2184243 ], [ -3.4179939, 42.2186566 ], [ -3.4200143, 42.2200182 ], [ -3.4206945, 42.2202769 ], [ -3.4213372, 42.2203466 ], [ -3.4220272, 42.220263 ], [ -3.4225715, 42.2201079 ], [ -3.4231147, 42.2197997 ], [ -3.4251681, 42.2188465 ], [ -3.4260145, 42.2185912 ], [ -3.4267285, 42.2184534 ], [ -3.4296582, 42.2181003 ], [ -3.4312451, 42.2180403 ], [ -3.432264, 42.2182076 ], [ -3.4333806, 42.2184916 ], [ -3.434219, 42.2188397 ], [ -3.435541, 42.2190418 ], [ -3.4362192, 42.2189852 ], [ -3.4392174, 42.2180191 ], [ -3.4398592, 42.2179716 ], [ -3.4404413, 42.2180504 ], [ -3.4419239, 42.2186752 ], [ -3.4417927, 42.218982 ], [ -3.4417591, 42.2193783 ], [ -3.4420698, 42.2204849 ], [ -3.4423998, 42.2208979 ], [ -3.4428376, 42.2211304 ], [ -3.4433596, 42.2212725 ], [ -3.444281, 42.22135 ], [ -3.4460496, 42.2212711 ], [ -3.4479889, 42.2213626 ], [ -3.4497722, 42.2216709 ], [ -3.450307, 42.221894 ], [ -3.4513168, 42.2224754 ], [ -3.4530644, 42.2228468 ], [ -3.4549009, 42.2238032 ], [ -3.4564444, 42.2244455 ], [ -3.453481, 42.226898 ], [ -3.4544508, 42.2269392 ], [ -3.457154, 42.2270816 ], [ -3.4581035, 42.2276632 ], [ -3.4600838, 42.2283668 ], [ -3.461188, 42.2285695 ], [ -3.4645079, 42.2284931 ], [ -3.4652233, 42.2285442 ], [ -3.4671896, 42.2289776 ], [ -3.4682812, 42.2291082 ], [ -3.4693841, 42.2291307 ], [ -3.4699181, 42.2292277 ], [ -3.4706473, 42.2295219 ], [ -3.4724688, 42.2300187 ], [ -3.4735121, 42.2301676 ], [ -3.4743719, 42.2300829 ], [ -3.4758263, 42.230104 ], [ -3.479332, 42.2305667 ], [ -3.4846478, 42.2299951 ], [ -3.4884268, 42.2297449 ], [ -3.4886691, 42.2297349 ], [ -3.4902792, 42.2295208 ], [ -3.491961, 42.2291895 ], [ -3.4907914, 42.2283749 ], [ -3.4902086, 42.2282243 ], [ -3.4897965, 42.228217 ], [ -3.4894201, 42.2281196 ], [ -3.4887374, 42.2276001 ], [ -3.4885166, 42.2272497 ], [ -3.488417, 42.2268989 ], [ -3.4887504, 42.226141 ], [ -3.4888316, 42.2256543 ], [ -3.4895867, 42.2245884 ], [ -3.4898984, 42.2241457 ], [ -3.4919718, 42.2211918 ], [ -3.4926454, 42.2205675 ], [ -3.4933536, 42.2196999 ], [ -3.4944201, 42.2181732 ], [ -3.4953892, 42.2165929 ], [ -3.493509, 42.2163128 ], [ -3.4925017, 42.2160831 ], [ -3.4915784, 42.2157717 ], [ -3.4901322, 42.2151925 ], [ -3.4889514, 42.214468 ], [ -3.488024, 42.2136163 ], [ -3.4878032, 42.213257 ], [ -3.4870371, 42.2113059 ], [ -3.4760231, 42.201409 ], [ -3.4752437, 42.2008539 ], [ -3.4729951, 42.1998184 ], [ -3.4697643, 42.1986158 ], [ -3.4659376, 42.1970823 ], [ -3.4631282, 42.1955175 ], [ -3.4613172, 42.1946422 ], [ -3.457891, 42.1931608 ], [ -3.4561908, 42.1925281 ], [ -3.4537269, 42.1917723 ], [ -3.4508672, 42.1898563 ], [ -3.4506026, 42.1918387 ], [ -3.4503036, 42.1923622 ], [ -3.4495321, 42.1928786 ], [ -3.4496123, 42.19395 ], [ -3.4467767, 42.1971763 ], [ -3.4479378, 42.1986669 ], [ -3.4488671, 42.1998972 ], [ -3.4478465, 42.201171 ], [ -3.4474983, 42.2016047 ], [ -3.4465774, 42.2015633 ], [ -3.4454615, 42.2013604 ], [ -3.4444898, 42.2009769 ], [ -3.4418398, 42.1996272 ], [ -3.439132, 42.1986558 ], [ -3.4386516, 42.1992521 ], [ -3.4380403, 42.2001821 ], [ -3.4370788, 42.2012846 ], [ -3.4357432, 42.2025775 ], [ -3.4351164, 42.2030302 ], [ -3.4343674, 42.2033302 ], [ -3.4337639, 42.2036567 ], [ -3.4332463, 42.204127 ], [ -3.4326453, 42.2048228 ], [ -3.4321188, 42.2057795 ], [ -3.4321511, 42.2069681 ], [ -3.4319607, 42.2074732 ], [ -3.4316246, 42.2079248 ], [ -3.4312997, 42.2082322 ], [ -3.4305743, 42.2084601 ], [ -3.4296064, 42.2086348 ], [ -3.4275847, 42.2088585 ], [ -3.4264461, 42.2088808 ], [ -3.4246865, 42.208428 ], [ -3.4239957, 42.2083854 ], [ -3.4233539, 42.2084328 ], [ -3.4225436, 42.2086339 ], [ -3.4216615, 42.2089704 ], [ -3.4199341, 42.2097243 ], [ -3.4192223, 42.2101772 ], [ -3.4173057, 42.2116433 ], [ -3.4144347, 42.2135269 ], [ -3.4137481, 42.2141508 ], [ -3.4132159, 42.2142878 ], [ -3.412659, 42.2143439 ], [ -3.4118828, 42.2142206 ], [ -3.4110328, 42.2139264 ], [ -3.410097, 42.2134794 ], [ -3.4084496, 42.2135303 ], [ -3.4053705, 42.213235 ], [ -3.4041736, 42.2136355 ], [ -3.4021054, 42.2141921 ] ] ] } }
]
}
