{
"type": "FeatureCollection",
"name": "09288",
"features": [
{ "type": "Feature", "properties": { "CCAA": "07 - Castilla y León", "PROVINCIA": "09 - Burgos", "MUNICIPIO": "09288 - Quintanapalla", "COD_MUNICIPIO": "09288", "DISTRITO": "01", "SECCION": "0928801001", "V1_H": 80.91, "V1_M": 86.64, "V2_H": 80.44720226, "V2_M": 86.54313262, "V3_H": 81.45534141, "V3_M": 86.89844934 }, "geometry": { "type": "Polygon", "coordinates": [ [ [ -3.5028149, 42.4300693 ], [ -3.5097332, 42.4301919 ], [ -3.5170904, 42.4304652 ], [ -3.5189866, 42.4304206 ], [ -3.5208967, 42.4305921 ], [ -3.5257612, 42.4307951 ], [ -3.5263093, 42.4309186 ], [ -3.5279118, 42.4306501 ], [ -3.5316546, 42.4304527 ], [ -3.5325456, 42.4308809 ], [ -3.5335971, 42.4301555 ], [ -3.5352009, 42.430049 ], [ -3.5371878, 42.4292472 ], [ -3.5398224, 42.4288386 ], [ -3.5407777, 42.4282577 ], [ -3.5412373, 42.4279853 ], [ -3.5459686, 42.4268462 ], [ -3.5477851, 42.426054 ], [ -3.5493257, 42.4256863 ], [ -3.5536142, 42.4239996 ], [ -3.555625, 42.4232064 ], [ -3.5664773, 42.4201904 ], [ -3.5697534, 42.4195527 ], [ -3.5709426, 42.4193307 ], [ -3.5750167, 42.4182387 ], [ -3.5798044, 42.4167916 ], [ -3.5819377, 42.4161504 ], [ -3.5828324, 42.4156415 ], [ -3.5801605, 42.4118996 ], [ -3.5795635, 42.4104166 ], [ -3.5787373, 42.4117626 ], [ -3.5766343, 42.4117192 ], [ -3.5749091, 42.4117819 ], [ -3.5717608, 42.4117256 ], [ -3.5706897, 42.4115418 ], [ -3.5695457, 42.4113673 ], [ -3.569041, 42.4106674 ], [ -3.5669838, 42.4089394 ], [ -3.5664538, 42.4067716 ], [ -3.5660588, 42.4060801 ], [ -3.5635878, 42.404273 ], [ -3.5627279, 42.4032235 ], [ -3.562077, 42.4024612 ], [ -3.5624861, 42.4020089 ], [ -3.5617766, 42.401472 ], [ -3.5603991, 42.4009924 ], [ -3.5591356, 42.4010077 ], [ -3.5587823, 42.4009103 ], [ -3.5584258, 42.4004527 ], [ -3.5581974, 42.3993551 ], [ -3.5580493, 42.3990946 ], [ -3.5577408, 42.3985648 ], [ -3.5563843, 42.3963108 ], [ -3.5560642, 42.3958351 ], [ -3.5543121, 42.3969332 ], [ -3.5535017, 42.3973515 ], [ -3.5517434, 42.3977652 ], [ -3.547905, 42.3993056 ], [ -3.5472627, 42.3994978 ], [ -3.5470203, 42.399571 ], [ -3.5456359, 42.3996676 ], [ -3.5438508, 42.3997932 ], [ -3.5406772, 42.399547 ], [ -3.5367224, 42.3988721 ], [ -3.5350815, 42.3988167 ], [ -3.5349235, 42.3988175 ], [ -3.5338312, 42.3989576 ], [ -3.533409, 42.3993288 ], [ -3.5310814, 42.401411 ], [ -3.5301747, 42.4019556 ], [ -3.5282928, 42.4021534 ], [ -3.5265462, 42.4025396 ], [ -3.5245316, 42.4028461 ], [ -3.5208921, 42.4035831 ], [ -3.519653, 42.4036248 ], [ -3.5169055, 42.403484 ], [ -3.5155706, 42.4037062 ], [ -3.5134386, 42.4045263 ], [ -3.5124327, 42.404855 ], [ -3.5113897, 42.4051209 ], [ -3.510687, 42.4053852 ], [ -3.5092965, 42.4062469 ], [ -3.5085096, 42.4066197 ], [ -3.5069564, 42.4069147 ], [ -3.5062151, 42.4069089 ], [ -3.5051204, 42.4067877 ], [ -3.5035859, 42.4063802 ], [ -3.5029025, 42.4060139 ], [ -3.5019, 42.4052618 ], [ -3.5001888, 42.4070795 ], [ -3.4997543, 42.4074596 ], [ -3.4979504, 42.408332 ], [ -3.502211, 42.4122671 ], [ -3.5026266, 42.4125625 ], [ -3.5037097, 42.4127469 ], [ -3.5032126, 42.4144152 ], [ -3.5040547, 42.4148438 ], [ -3.5047264, 42.4167771 ], [ -3.506095, 42.4206977 ], [ -3.5064435, 42.4217229 ], [ -3.5062792, 42.4224621 ], [ -3.5070356, 42.422801 ], [ -3.5081141, 42.4223819 ], [ -3.5082646, 42.4229576 ], [ -3.5086169, 42.424433 ], [ -3.508048, 42.4247328 ], [ -3.5064914, 42.4261716 ], [ -3.5043337, 42.4284596 ], [ -3.5028149, 42.4300693 ] ] ] } }
]
}
