{
"type": "FeatureCollection",
"name": "09302",
"features": [
{ "type": "Feature", "properties": { "CCAA": "07 - Castilla y León", "PROVINCIA": "09 - Burgos", "MUNICIPIO": "09302 - Rabanera del Pinar", "COD_MUNICIPIO": "09302", "DISTRITO": "01", "SECCION": "0930201001", "V1_H": 81.11, "V1_M": 86.51, "V2_H": 80.75023294, "V2_M": 86.37370028, "V3_H": 81.47997818, "V3_M": 86.68611994 }, "geometry": { "type": "Polygon", "coordinates": [ [ [ -3.1977304, 41.9207473 ], [ -3.1984183, 41.9209082 ], [ -3.1994948, 41.9219512 ], [ -3.2033298, 41.9219355 ], [ -3.2045212, 41.9211227 ], [ -3.2065543, 41.9195969 ], [ -3.2082526, 41.9189543 ], [ -3.210094, 41.9178431 ], [ -3.2126109, 41.9167847 ], [ -3.2151036, 41.9157442 ], [ -3.217704, 41.9144963 ], [ -3.2183896, 41.9139817 ], [ -3.2201809, 41.912411 ], [ -3.2209508, 41.9119051 ], [ -3.2217938, 41.9115972 ], [ -3.2246847, 41.910736 ], [ -3.2305448, 41.9107604 ], [ -3.2314011, 41.9108038 ], [ -3.2331278, 41.9081611 ], [ -3.2406325, 41.8966437 ], [ -3.2430059, 41.8962874 ], [ -3.246138, 41.8894084 ], [ -3.2477276, 41.8859012 ], [ -3.2404555, 41.8816112 ], [ -3.24147, 41.87897 ], [ -3.2465772, 41.8656917 ], [ -3.2459371, 41.8653148 ], [ -3.2443323, 41.8647327 ], [ -3.2433415, 41.8639962 ], [ -3.2239872, 41.8767807 ], [ -3.2226886, 41.8776388 ], [ -3.2196105, 41.8796713 ], [ -3.2122932, 41.8755328 ], [ -3.2101835, 41.8753024 ], [ -3.2085989, 41.873486 ], [ -3.2084538, 41.8733331 ], [ -3.2080185, 41.8728835 ], [ -3.2077647, 41.8726408 ], [ -3.2056867, 41.8709872 ], [ -3.2030546, 41.8693706 ], [ -3.2011977, 41.8690136 ], [ -3.1960446, 41.8743367 ], [ -3.1875669, 41.8764404 ], [ -3.1799928, 41.8786233 ], [ -3.1673841, 41.8821821 ], [ -3.1676288, 41.8835599 ], [ -3.1675583, 41.8842445 ], [ -3.1672223, 41.8848394 ], [ -3.1665375, 41.8856421 ], [ -3.1662727, 41.8858226 ], [ -3.1648873, 41.8860678 ], [ -3.1639955, 41.8861231 ], [ -3.1626094, 41.8860891 ], [ -3.1617291, 41.8859732 ], [ -3.1602454, 41.8854619 ], [ -3.1596299, 41.8851205 ], [ -3.1591347, 41.8847249 ], [ -3.158699, 41.8840319 ], [ -3.1582042, 41.8837173 ], [ -3.157179, 41.8834576 ], [ -3.1560457, 41.883288 ], [ -3.154913, 41.8833795 ], [ -3.1538892, 41.8836782 ], [ -3.1532149, 41.8839403 ], [ -3.1528299, 41.88422 ], [ -3.1528067, 41.8845984 ], [ -3.1529531, 41.8853367 ], [ -3.1528455, 41.8856791 ], [ -3.1527154, 41.8867241 ], [ -3.1523913, 41.887319 ], [ -3.1522961, 41.8878056 ], [ -3.1523814, 41.8881928 ], [ -3.1529866, 41.8892458 ], [ -3.1536149, 41.8898844 ], [ -3.1537116, 41.8900374 ], [ -3.1539417, 41.8904785 ], [ -3.1540393, 41.8909377 ], [ -3.1538369, 41.8919828 ], [ -3.1538621, 41.8924331 ], [ -3.1540436, 41.8927211 ], [ -3.1540799, 41.8927841 ], [ -3.1545634, 41.8933419 ], [ -3.1548299, 41.8938639 ], [ -3.1547827, 41.8942873 ], [ -3.1539907, 41.8957836 ], [ -3.1536061, 41.8962885 ], [ -3.1516695, 41.8980295 ], [ -3.1513088, 41.8984803 ], [ -3.1511774, 41.8989488 ], [ -3.1515564, 41.9012271 ], [ -3.1513159, 41.9014886 ], [ -3.1505466, 41.9024624 ], [ -3.1503187, 41.9029671 ], [ -3.1501401, 41.903859 ], [ -3.1487088, 41.9053651 ], [ -3.1480957, 41.9061135 ], [ -3.1478916, 41.9065011 ], [ -3.1478698, 41.9075459 ], [ -3.1477267, 41.9082036 ], [ -3.1476564, 41.9091134 ], [ -3.1470911, 41.9096996 ], [ -3.1467907, 41.9101413 ], [ -3.1466349, 41.9105648 ], [ -3.1460217, 41.9113312 ], [ -3.1456733, 41.9118901 ], [ -3.1470255, 41.912645 ], [ -3.1501518, 41.914019 ], [ -3.1568871, 41.9167842 ], [ -3.1579735, 41.917242 ], [ -3.1620406, 41.9185333 ], [ -3.1631024, 41.9187931 ], [ -3.1637538, 41.9188732 ], [ -3.1643688, 41.9188723 ], [ -3.1743656, 41.9187855 ], [ -3.1848202, 41.918553 ], [ -3.1875577, 41.9185576 ], [ -3.1930807, 41.9185304 ], [ -3.1934545, 41.9185298 ], [ -3.1977304, 41.9207473 ] ] ] } }
]
}
