{
"type": "FeatureCollection",
"name": "09326",
"features": [
{ "type": "Feature", "properties": { "CCAA": "07 - Castilla y León", "PROVINCIA": "09 - Burgos", "MUNICIPIO": "09326 - Rubena", "COD_MUNICIPIO": "09326", "DISTRITO": "01", "SECCION": "0932601001", "V1_H": 81.02, "V1_M": 86.64, "V2_H": 80.81080237, "V2_M": 86.47452022, "V3_H": 81.32513937, "V3_M": 86.89244175 }, "geometry": { "type": "Polygon", "coordinates": [ [ [ -3.5560642, 42.3958351 ], [ -3.5563843, 42.3963108 ], [ -3.5577408, 42.3985648 ], [ -3.5580493, 42.3990946 ], [ -3.5581974, 42.3993551 ], [ -3.5584258, 42.4004527 ], [ -3.5587823, 42.4009103 ], [ -3.5591356, 42.4010077 ], [ -3.5603991, 42.4009924 ], [ -3.5617766, 42.401472 ], [ -3.5624861, 42.4020089 ], [ -3.562077, 42.4024612 ], [ -3.5627279, 42.4032235 ], [ -3.5635878, 42.404273 ], [ -3.5660588, 42.4060801 ], [ -3.5664538, 42.4067716 ], [ -3.5669838, 42.4089394 ], [ -3.569041, 42.4106674 ], [ -3.5695457, 42.4113673 ], [ -3.5706897, 42.4115418 ], [ -3.5717608, 42.4117256 ], [ -3.5749091, 42.4117819 ], [ -3.5766343, 42.4117192 ], [ -3.5787373, 42.4117626 ], [ -3.5795635, 42.4104166 ], [ -3.5829384, 42.4060766 ], [ -3.5855988, 42.4046672 ], [ -3.5866281, 42.4042836 ], [ -3.5861023, 42.4013144 ], [ -3.5853833, 42.4010929 ], [ -3.5865936, 42.3992675 ], [ -3.5855784, 42.3972463 ], [ -3.5853782, 42.3966169 ], [ -3.5853384, 42.394951 ], [ -3.5854668, 42.3930681 ], [ -3.5893353, 42.3909949 ], [ -3.591212, 42.389013 ], [ -3.5952411, 42.387254 ], [ -3.5962445, 42.3867355 ], [ -3.5989981, 42.385019 ], [ -3.599016, 42.3843434 ], [ -3.6006437, 42.3830561 ], [ -3.6008588, 42.3826767 ], [ -3.6008871, 42.38183 ], [ -3.6011972, 42.381225 ], [ -3.595862, 42.37779 ], [ -3.5949003, 42.377169 ], [ -3.5927033, 42.3757575 ], [ -3.5908673, 42.3749924 ], [ -3.5899665, 42.3746188 ], [ -3.5881793, 42.3738714 ], [ -3.5860266, 42.3722524 ], [ -3.5848644, 42.3726636 ], [ -3.5836296, 42.3731021 ], [ -3.5830485, 42.3733122 ], [ -3.5809674, 42.3728634 ], [ -3.5780223, 42.3722389 ], [ -3.5774226, 42.3717286 ], [ -3.5769142, 42.3705874 ], [ -3.5728237, 42.3735527 ], [ -3.5712637, 42.3743081 ], [ -3.5705092, 42.3754916 ], [ -3.5697721, 42.3759186 ], [ -3.5653382, 42.3799302 ], [ -3.5639631, 42.3810177 ], [ -3.5631911, 42.3816248 ], [ -3.5624842, 42.382736 ], [ -3.5608994, 42.3848332 ], [ -3.5604332, 42.385682 ], [ -3.5585512, 42.3857993 ], [ -3.5570446, 42.3871485 ], [ -3.5545023, 42.3867916 ], [ -3.5545469, 42.3890879 ], [ -3.5546705, 42.3893305 ], [ -3.555331, 42.3898406 ], [ -3.5559282, 42.3900539 ], [ -3.5563966, 42.3908171 ], [ -3.5565897, 42.3934279 ], [ -3.5566147, 42.3935088 ], [ -3.5567914, 42.3942555 ], [ -3.5560642, 42.3958351 ] ] ] } }
]
}
