{
"type": "FeatureCollection",
"name": "09389",
"features": [
{ "type": "Feature", "properties": { "CCAA": "07 - Castilla y León", "PROVINCIA": "09 - Burgos", "MUNICIPIO": "09389 - Torrepadre", "COD_MUNICIPIO": "09389", "DISTRITO": "01", "SECCION": "0938901001", "V1_H": 75.48, "V1_M": 82.31, "V2_H": 75.36985678000001, "V2_M": 82.56533706, "V3_H": 75.8600571, "V3_M": 82.01450712 }, "geometry": { "type": "Polygon", "coordinates": [ [ [ -3.968156, 42.0662037 ], [ -3.9690418, 42.0656378 ], [ -3.9737702, 42.0626257 ], [ -3.9787037, 42.0596296 ], [ -3.9822973, 42.0575364 ], [ -3.9848407, 42.0563258 ], [ -3.9861031, 42.0582424 ], [ -3.9882494, 42.0602593 ], [ -3.9903057, 42.0603677 ], [ -3.991097, 42.0607391 ], [ -3.9931599, 42.0604872 ], [ -3.993719, 42.0606895 ], [ -3.9950406, 42.0617318 ], [ -3.9957597, 42.0621128 ], [ -3.9966595, 42.0624563 ], [ -3.9984178, 42.0628283 ], [ -3.9992534, 42.0629291 ], [ -3.9999901, 42.0628957 ], [ -4.0008154, 42.0631136 ], [ -4.0022094, 42.0641371 ], [ -4.0033126, 42.0651183 ], [ -4.0046271, 42.0664577 ], [ -4.0054338, 42.0670271 ], [ -4.006005, 42.0672202 ], [ -4.0049678, 42.0688955 ], [ -4.0076023, 42.0742041 ], [ -4.0116847, 42.0739791 ], [ -4.0130598, 42.0737959 ], [ -4.0148188, 42.0734201 ], [ -4.017157, 42.0722286 ], [ -4.0177348, 42.0728269 ], [ -4.0183061, 42.0730289 ], [ -4.01932, 42.0736864 ], [ -4.0203162, 42.0747494 ], [ -4.0209169, 42.0752664 ], [ -4.0209906, 42.0753378 ], [ -4.0244464, 42.076739 ], [ -4.0248802, 42.0766541 ], [ -4.0251916, 42.0764712 ], [ -4.0252817, 42.076056 ], [ -4.0258149, 42.0753848 ], [ -4.0263039, 42.0749752 ], [ -4.026932, 42.0749426 ], [ -4.0274288, 42.0750192 ], [ -4.0278636, 42.0749882 ], [ -4.0290444, 42.0747435 ], [ -4.02925, 42.0747507 ], [ -4.0303752, 42.0748126 ], [ -4.030832, 42.0746554 ], [ -4.0313942, 42.0742811 ], [ -4.032054, 42.0739689 ], [ -4.0326207, 42.0738828 ], [ -4.0333476, 42.0739753 ], [ -4.0341132, 42.0742206 ], [ -4.0345264, 42.074361 ], [ -4.0355652, 42.0735591 ], [ -4.0365592, 42.0729827 ], [ -4.0374116, 42.0726237 ], [ -4.0379546, 42.0725647 ], [ -4.0396513, 42.0728286 ], [ -4.0411197, 42.0716985 ], [ -4.0417404, 42.0712155 ], [ -4.0418474, 42.070368 ], [ -4.0419204, 42.0696558 ], [ -4.0421524, 42.0690593 ], [ -4.0424694, 42.068489 ], [ -4.0427783, 42.068162 ], [ -4.0451539, 42.0663391 ], [ -4.0455316, 42.0657952 ], [ -4.0461358, 42.0643037 ], [ -4.046115, 42.0637725 ], [ -4.0458541, 42.0633426 ], [ -4.0450101, 42.0627288 ], [ -4.0447394, 42.0624431 ], [ -4.0448042, 42.0619741 ], [ -4.0457471, 42.0605065 ], [ -4.0455364, 42.0594547 ], [ -4.0452595, 42.0587818 ], [ -4.0461348, 42.0568824 ], [ -4.0462001, 42.0557109 ], [ -4.0463154, 42.0553677 ], [ -4.0472316, 42.0544947 ], [ -4.0474544, 42.0540783 ], [ -4.0478719, 42.0522823 ], [ -4.0478485, 42.051589 ], [ -4.0477602, 42.0513646 ], [ -4.047551, 42.0511324 ], [ -4.0471863, 42.0510006 ], [ -4.0465573, 42.0509613 ], [ -4.0458781, 42.0508144 ], [ -4.0450411, 42.0513534 ], [ -4.0419119, 42.0528769 ], [ -4.0392489, 42.0533514 ], [ -4.0384632, 42.0533405 ], [ -4.0367104, 42.0525637 ], [ -4.0350139, 42.0515343 ], [ -4.0341645, 42.0505783 ], [ -4.0325565, 42.0497821 ], [ -4.0316938, 42.0494836 ], [ -4.0310411, 42.0494805 ], [ -4.0292331, 42.049767 ], [ -4.0267463, 42.0499153 ], [ -4.0249703, 42.0499492 ], [ -4.0209244, 42.0508409 ], [ -4.019419, 42.0511695 ], [ -4.0172984, 42.050801 ], [ -4.0157026, 42.0507521 ], [ -4.0142235, 42.0512155 ], [ -4.0123069, 42.0515206 ], [ -4.010905, 42.051515 ], [ -4.0094132, 42.0511678 ], [ -4.0065841, 42.050319 ], [ -4.0046491, 42.0502189 ], [ -4.003716, 42.0500559 ], [ -3.9996259, 42.0489208 ], [ -3.9991621, 42.047853 ], [ -3.9963136, 42.0449686 ], [ -3.9920109, 42.0456724 ], [ -3.9902413, 42.046102 ], [ -3.9887406, 42.0467273 ], [ -3.9879157, 42.0473019 ], [ -3.9833678, 42.0509346 ], [ -3.9825158, 42.0513291 ], [ -3.9821042, 42.0512786 ], [ -3.9816778, 42.0510481 ], [ -3.9814054, 42.0506361 ], [ -3.9813022, 42.0502047 ], [ -3.9810985, 42.0479548 ], [ -3.9805675, 42.0456446 ], [ -3.9801772, 42.043045 ], [ -3.9762424, 42.040953 ], [ -3.9760066, 42.0405407 ], [ -3.9751683, 42.0378638 ], [ -3.9738211, 42.0358848 ], [ -3.9722625, 42.0342858 ], [ -3.9710743, 42.0332151 ], [ -3.9704397, 42.0319955 ], [ -3.968006, 42.029242 ], [ -3.9668294, 42.0281261 ], [ -3.9639588, 42.0260247 ], [ -3.9620314, 42.0247709 ], [ -3.9612007, 42.0241474 ], [ -3.9601419, 42.0236249 ], [ -3.9548337, 42.0216336 ], [ -3.952014, 42.0228909 ], [ -3.9500068, 42.0219348 ], [ -3.9476662, 42.0221162 ], [ -3.9467735, 42.0221956 ], [ -3.9453238, 42.0221715 ], [ -3.9431212, 42.0218834 ], [ -3.9343072, 42.0204603 ], [ -3.9282434, 42.0195997 ], [ -3.9273823, 42.0235155 ], [ -3.9277856, 42.0255027 ], [ -3.9278932, 42.027087 ], [ -3.9276434, 42.0281878 ], [ -3.9256014, 42.0314827 ], [ -3.9226845, 42.0369551 ], [ -3.922745, 42.0377923 ], [ -3.9230577, 42.0427074 ], [ -3.9230905, 42.0433106 ], [ -3.9251745, 42.0453743 ], [ -3.9265895, 42.0471282 ], [ -3.9290821, 42.0498551 ], [ -3.9315233, 42.0531858 ], [ -3.932203, 42.0533875 ], [ -3.9401184, 42.0558539 ], [ -3.9406332, 42.056336 ], [ -3.9419584, 42.0568745 ], [ -3.9434499, 42.0572136 ], [ -3.9482462, 42.0579217 ], [ -3.9502395, 42.0594903 ], [ -3.9510331, 42.0600331 ], [ -3.9515806, 42.0602718 ], [ -3.9527576, 42.0605863 ], [ -3.9555864, 42.062238 ], [ -3.9564562, 42.0638249 ], [ -3.9580479, 42.0659912 ], [ -3.9586861, 42.0674359 ], [ -3.9593179, 42.0684483 ], [ -3.9636294, 42.0674036 ], [ -3.9642195, 42.0672635 ], [ -3.968156, 42.0662037 ] ] ] } }
]
}
