{
"type": "FeatureCollection",
"name": "09478",
"features": [
{ "type": "Feature", "properties": { "CCAA": "07 - Castilla y León", "PROVINCIA": "09 - Burgos", "MUNICIPIO": "09478 - Vizcaínos", "COD_MUNICIPIO": "09478", "DISTRITO": "01", "SECCION": "0947801001", "V1_H": 75.48, "V1_M": 82.31, "V2_H": 75.36985678000001, "V2_M": 82.56533706, "V3_H": 75.8600571, "V3_M": 82.01450712 }, "geometry": { "type": "Polygon", "coordinates": [ [ [ -3.2497038, 42.1148512 ], [ -3.2512845, 42.113848 ], [ -3.255131, 42.1168658 ], [ -3.2565145, 42.1179615 ], [ -3.2676717, 42.127519 ], [ -3.2757266, 42.1296345 ], [ -3.2822635, 42.1167034 ], [ -3.2956703, 42.1018179 ], [ -3.2962138, 42.1016634 ], [ -3.2967937, 42.1015088 ], [ -3.2987775, 42.1016027 ], [ -3.3014902, 42.0997943 ], [ -3.3029135, 42.099025 ], [ -3.3040688, 42.0978331 ], [ -3.3025093, 42.0979453 ], [ -3.3016274, 42.0981187 ], [ -3.3007082, 42.0981211 ], [ -3.2996314, 42.0980068 ], [ -3.2990258, 42.0978103 ], [ -3.2984302, 42.0971453 ], [ -3.2977597, 42.0960032 ], [ -3.297777, 42.0945351 ], [ -3.2976769, 42.0938148 ], [ -3.2966053, 42.0921964 ], [ -3.2963596, 42.0913684 ], [ -3.2962576, 42.0902428 ], [ -3.2963706, 42.0885313 ], [ -3.2950494, 42.0878142 ], [ -3.2943459, 42.0873656 ], [ -3.2940665, 42.0870601 ], [ -3.2938337, 42.0864122 ], [ -3.2937787, 42.0849713 ], [ -3.2936806, 42.0846653 ], [ -3.2933281, 42.0842519 ], [ -3.2923935, 42.0834707 ], [ -3.2914713, 42.0827165 ], [ -3.288839, 42.0834706 ], [ -3.2871244, 42.0839704 ], [ -3.286159, 42.0843961 ], [ -3.2841086, 42.0855 ], [ -3.283288, 42.0858533 ], [ -3.2829378, 42.0859712 ], [ -3.2815133, 42.0864611 ], [ -3.2805724, 42.0869767 ], [ -3.2804282, 42.0871933 ], [ -3.2803233, 42.0880851 ], [ -3.2802645, 42.0884546 ], [ -3.2798228, 42.0897616 ], [ -3.2790883, 42.0904479 ], [ -3.277025, 42.0914616 ], [ -3.2767358, 42.0917145 ], [ -3.2764593, 42.0920935 ], [ -3.2761385, 42.0934002 ], [ -3.2758015, 42.0937702 ], [ -3.2748849, 42.0943309 ], [ -3.2743293, 42.0944853 ], [ -3.2737249, 42.0945408 ], [ -3.27283, 42.0945339 ], [ -3.2693699, 42.0941367 ], [ -3.2683906, 42.0941931 ], [ -3.2674602, 42.0943484 ], [ -3.2671583, 42.0944572 ], [ -3.2669048, 42.0945568 ], [ -3.266398, 42.0948372 ], [ -3.2660368, 42.0951983 ], [ -3.2657483, 42.0956223 ], [ -3.2655569, 42.0961181 ], [ -3.2655947, 42.0964873 ], [ -3.2658141, 42.096892 ], [ -3.2667138, 42.0980428 ], [ -3.2669334, 42.0985196 ], [ -3.2670072, 42.0988167 ], [ -3.2670074, 42.0988617 ], [ -3.2668028, 42.0990964 ], [ -3.2657765, 42.099477 ], [ -3.2652819, 42.0997934 ], [ -3.2652479, 42.1003429 ], [ -3.2651557, 42.1014239 ], [ -3.2638475, 42.1009225 ], [ -3.2637991, 42.1009137 ], [ -3.2635564, 42.100725 ], [ -3.2629014, 42.1002492 ], [ -3.2621968, 42.0994763 ], [ -3.2617599, 42.099117 ], [ -3.261336, 42.0989558 ], [ -3.2588207, 42.0989975 ], [ -3.2583133, 42.0991247 ], [ -3.2564551, 42.1001647 ], [ -3.2559112, 42.100247 ], [ -3.255258, 42.1002034 ], [ -3.2547371, 42.0999793 ], [ -3.2540824, 42.0995755 ], [ -3.253051, 42.0987132 ], [ -3.2525906, 42.098471 ], [ -3.2515624, 42.0984192 ], [ -3.2510796, 42.0986634 ], [ -3.2503087, 42.0994216 ], [ -3.2497896, 42.0996659 ], [ -3.2491612, 42.0998024 ], [ -3.2486407, 42.0996865 ], [ -3.2466084, 42.0995107 ], [ -3.2459427, 42.099377 ], [ -3.2479407, 42.1031555 ], [ -3.2492689, 42.1057015 ], [ -3.2492715, 42.106386 ], [ -3.2497038, 42.1148512 ] ] ] } }
]
}
