{
"type": "FeatureCollection",
"name": "10004",
"features": [
{ "type": "Feature", "properties": { "CCAA": "11 - Extremadura", "PROVINCIA": "10 - Cáceres", "MUNICIPIO": "10004 - Acehúche", "COD_MUNICIPIO": "10004", "DISTRITO": "01", "SECCION": "1000401001", "V1_H": 79.16, "V1_M": 85.0, "V2_H": 79.432337, "V2_M": 85.16926182, "V3_H": 78.95181978, "V3_M": 84.90024095 }, "geometry": { "type": "Polygon", "coordinates": [ [ [ -6.5817128, 39.8258005 ], [ -6.581954, 39.8261713 ], [ -6.5824989, 39.8267669 ], [ -6.5842229, 39.8282448 ], [ -6.5882683, 39.8314521 ], [ -6.5918074, 39.833459 ], [ -6.5918803, 39.8335108 ], [ -6.5929539, 39.834162 ], [ -6.5944751, 39.8348804 ], [ -6.5947678, 39.8353397 ], [ -6.5954642, 39.8361467 ], [ -6.5963448, 39.836903 ], [ -6.5970075, 39.8372877 ], [ -6.5974378, 39.8374725 ], [ -6.5994465, 39.8379055 ], [ -6.6008604, 39.8383569 ], [ -6.6018073, 39.8388139 ], [ -6.6036039, 39.8394335 ], [ -6.6080314, 39.8414302 ], [ -6.6126116, 39.8432149 ], [ -6.6133186, 39.843328 ], [ -6.6164756, 39.8431484 ], [ -6.6178591, 39.8432403 ], [ -6.6187035, 39.8435202 ], [ -6.6195231, 39.8439989 ], [ -6.6210236, 39.845204 ], [ -6.621796, 39.84545 ], [ -6.6229423, 39.8456935 ], [ -6.6238812, 39.8457721 ], [ -6.6255776, 39.8460343 ], [ -6.6271903, 39.8467043 ], [ -6.6305717, 39.8470127 ], [ -6.6334008, 39.8474823 ], [ -6.6357046, 39.8479595 ], [ -6.637854, 39.8486126 ], [ -6.6397769, 39.8493988 ], [ -6.6428605, 39.8511392 ], [ -6.6440405, 39.8520208 ], [ -6.6470657, 39.8544204 ], [ -6.648104, 39.854829 ], [ -6.6486386, 39.8549924 ], [ -6.6489124, 39.8547972 ], [ -6.6489426, 39.8547756 ], [ -6.6493671, 39.8541858 ], [ -6.6496132, 39.8536707 ], [ -6.6496511, 39.8535914 ], [ -6.650076, 39.8530107 ], [ -6.6504298, 39.8526302 ], [ -6.6506993, 39.8524236 ], [ -6.6510189, 39.8524336 ], [ -6.6512728, 39.8524415 ], [ -6.6528413, 39.8529324 ], [ -6.6530619, 39.8528921 ], [ -6.653258, 39.8528563 ], [ -6.6535478, 39.8525346 ], [ -6.653567, 39.8525132 ], [ -6.6536624, 39.8518888 ], [ -6.6539375, 39.8513487 ], [ -6.6543934, 39.850911 ], [ -6.6548369, 39.8506808 ], [ -6.6565117, 39.8503128 ], [ -6.6565855, 39.8499412 ], [ -6.6557461, 39.8488778 ], [ -6.6555666, 39.8485773 ], [ -6.6556587, 39.8483311 ], [ -6.6559845, 39.8483585 ], [ -6.6569849, 39.8484424 ], [ -6.6572231, 39.8484304 ], [ -6.6579289, 39.8483947 ], [ -6.6579423, 39.8475476 ], [ -6.6578429, 39.8467761 ], [ -6.6574274, 39.8462128 ], [ -6.6570938, 39.8458721 ], [ -6.6570404, 39.8454746 ], [ -6.6562428, 39.8459328 ], [ -6.6553424, 39.8463576 ], [ -6.6548576, 39.846472 ], [ -6.6545422, 39.8464729 ], [ -6.6545413, 39.8464707 ], [ -6.6545202, 39.8464757 ], [ -6.6542048, 39.8464766 ], [ -6.6540971, 39.8462098 ], [ -6.6542971, 39.845573 ], [ -6.655053, 39.8448467 ], [ -6.6560038, 39.8442672 ], [ -6.6564303, 39.8439386 ], [ -6.6569798, 39.8430656 ], [ -6.6573004, 39.8423022 ], [ -6.6573325, 39.8422258 ], [ -6.6573957, 39.8416564 ], [ -6.6569641, 39.8413895 ], [ -6.6569245, 39.841365 ], [ -6.6551639, 39.8415316 ], [ -6.6547784, 39.8414577 ], [ -6.6546077, 39.8411028 ], [ -6.6547595, 39.8404406 ], [ -6.6556884, 39.8392314 ], [ -6.6563758, 39.8385341 ], [ -6.6567794, 39.8382152 ], [ -6.657319, 39.838036 ], [ -6.6575408, 39.8378128 ], [ -6.6575374, 39.8373086 ], [ -6.6576628, 39.8368092 ], [ -6.658207, 39.8362787 ], [ -6.6595855, 39.8353975 ], [ -6.6600058, 39.8349519 ], [ -6.6598209, 39.8347868 ], [ -6.6596746, 39.8346561 ], [ -6.658912, 39.834374 ], [ -6.658383, 39.8340935 ], [ -6.6584472, 39.833542 ], [ -6.6584653, 39.8334424 ], [ -6.6585718, 39.8328086 ], [ -6.6586671, 39.8321841 ], [ -6.6584778, 39.8314785 ], [ -6.6584895, 39.8309208 ], [ -6.658491, 39.8308477 ], [ -6.6586235, 39.8304832 ], [ -6.6592612, 39.8301031 ], [ -6.6593255, 39.8300647 ], [ -6.6600077, 39.8301513 ], [ -6.6606762, 39.8308517 ], [ -6.6607252, 39.8309031 ], [ -6.6612265, 39.8311034 ], [ -6.6614424, 39.8311379 ], [ -6.6616978, 39.8311786 ], [ -6.6620497, 39.8309874 ], [ -6.6623391, 39.830717 ], [ -6.6622988, 39.8301779 ], [ -6.6617672, 39.8296273 ], [ -6.661112, 39.8287293 ], [ -6.6608244, 39.8270541 ], [ -6.6606315, 39.8265018 ], [ -6.6606308, 39.8265013 ], [ -6.6592831, 39.8255267 ], [ -6.659109, 39.8251088 ], [ -6.6590599, 39.8246241 ], [ -6.6598464, 39.824257 ], [ -6.660358, 39.8237724 ], [ -6.6606373, 39.8233132 ], [ -6.6610696, 39.8217775 ], [ -6.6613413, 39.8211744 ], [ -6.6611677, 39.8196668 ], [ -6.6613009, 39.8190951 ], [ -6.6616642, 39.8186784 ], [ -6.6625307, 39.8178403 ], [ -6.6638752, 39.8169872 ], [ -6.664371, 39.8155485 ], [ -6.66499, 39.8148894 ], [ -6.6653256, 39.8143924 ], [ -6.6653956, 39.8137327 ], [ -6.6652748, 39.812998 ], [ -6.6650198, 39.8123756 ], [ -6.6648291, 39.8120844 ], [ -6.6647588, 39.8114201 ], [ -6.6655697, 39.8112954 ], [ -6.6670215, 39.8111509 ], [ -6.6671612, 39.8111369 ], [ -6.6683557, 39.8111982 ], [ -6.6692434, 39.8114205 ], [ -6.6694091, 39.811462 ], [ -6.6715397, 39.8108992 ], [ -6.6718054, 39.8108431 ], [ -6.6723039, 39.810738 ], [ -6.6723943, 39.810719 ], [ -6.6730179, 39.8107575 ], [ -6.6732613, 39.8107725 ], [ -6.6741049, 39.811043 ], [ -6.674336, 39.811047 ], [ -6.6746543, 39.8110526 ], [ -6.6750752, 39.8108411 ], [ -6.6751332, 39.8103979 ], [ -6.6744655, 39.8094824 ], [ -6.6742164, 39.8087518 ], [ -6.6743671, 39.8078553 ], [ -6.6749312, 39.8073584 ], [ -6.6750141, 39.8072854 ], [ -6.6759028, 39.8075274 ], [ -6.6784535, 39.8089325 ], [ -6.6789418, 39.8095475 ], [ -6.6794609, 39.8108395 ], [ -6.679467, 39.8108548 ], [ -6.6801539, 39.8108149 ], [ -6.6803762, 39.8103846 ], [ -6.6802731, 39.8082353 ], [ -6.6800247, 39.8077387 ], [ -6.6792757, 39.807051 ], [ -6.6788112, 39.8064443 ], [ -6.6788506, 39.8056505 ], [ -6.6789896, 39.8052493 ], [ -6.6794881, 39.8038109 ], [ -6.679969, 39.802976 ], [ -6.680541, 39.8025345 ], [ -6.6814606, 39.8022621 ], [ -6.6821593, 39.8021213 ], [ -6.6831589, 39.8019199 ], [ -6.683841, 39.801574 ], [ -6.684483, 39.8009141 ], [ -6.6849365, 39.8006306 ], [ -6.6849689, 39.8006104 ], [ -6.6854958, 39.8006387 ], [ -6.6858633, 39.8009602 ], [ -6.6858761, 39.8014192 ], [ -6.6853488, 39.8020394 ], [ -6.6851538, 39.802541 ], [ -6.6855426, 39.803042 ], [ -6.6867336, 39.8036976 ], [ -6.6881181, 39.804257 ], [ -6.6884001, 39.8042817 ], [ -6.6886461, 39.8043032 ], [ -6.6890833, 39.8041812 ], [ -6.6892199, 39.804007 ], [ -6.6897282, 39.8033591 ], [ -6.6900728, 39.8030329 ], [ -6.690237, 39.8029896 ], [ -6.6903836, 39.8029509 ], [ -6.6916454, 39.8031809 ], [ -6.6940612, 39.8033741 ], [ -6.694543, 39.8033694 ], [ -6.6948782, 39.8033661 ], [ -6.6956919, 39.8030789 ], [ -6.6961865, 39.8025047 ], [ -6.6966229, 39.8017827 ], [ -6.6969803, 39.8011915 ], [ -6.6973024, 39.8008839 ], [ -6.6974014, 39.8008591 ], [ -6.6975904, 39.8008117 ], [ -6.6978396, 39.8008848 ], [ -6.6986673, 39.8019482 ], [ -6.6990581, 39.802269 ], [ -6.6996861, 39.802438 ], [ -6.6997357, 39.8024376 ], [ -6.7000712, 39.8024348 ], [ -6.7003739, 39.8021999 ], [ -6.7010679, 39.8009889 ], [ -6.7018283, 39.800145 ], [ -6.7029626, 39.7993071 ], [ -6.7037772, 39.7988217 ], [ -6.7040275, 39.7984805 ], [ -6.7037621, 39.7974532 ], [ -6.7045793, 39.7965805 ], [ -6.7054051, 39.7958695 ], [ -6.7056519, 39.7954654 ], [ -6.705739, 39.7949132 ], [ -6.7059093, 39.794669 ], [ -6.7059125, 39.7946644 ], [ -6.7066791, 39.7946656 ], [ -6.7069867, 39.7946661 ], [ -6.707809, 39.7945407 ], [ -6.7089661, 39.7928284 ], [ -6.709821, 39.7922246 ], [ -6.7109881, 39.791782 ], [ -6.7119865, 39.7914618 ], [ -6.7145747, 39.7898747 ], [ -6.7157538, 39.7890083 ], [ -6.7165275, 39.7881999 ], [ -6.7185362, 39.7853974 ], [ -6.7187242, 39.7849861 ], [ -6.7186553, 39.7841417 ], [ -6.7186676, 39.7835018 ], [ -6.7189261, 39.7831644 ], [ -6.7194213, 39.7831646 ], [ -6.720692, 39.783349 ], [ -6.7208873, 39.7833498 ], [ -6.7226769, 39.7833573 ], [ -6.722786, 39.7833523 ], [ -6.7230138, 39.7833533 ], [ -6.724318, 39.7832933 ], [ -6.7266853, 39.7828329 ], [ -6.7277028, 39.7826351 ], [ -6.7296785, 39.7820401 ], [ -6.7300368, 39.7819754 ], [ -6.7303027, 39.7819274 ], [ -6.7304068, 39.7819086 ], [ -6.7313783, 39.7819697 ], [ -6.7320661, 39.7819115 ], [ -6.7334042, 39.7816162 ], [ -6.7361212, 39.7811324 ], [ -6.737957, 39.7805418 ], [ -6.7392576, 39.7799864 ], [ -6.740418, 39.7796427 ], [ -6.7465426, 39.7787154 ], [ -6.7474771, 39.778514 ], [ -6.750965, 39.7771853 ], [ -6.7526812, 39.7767605 ], [ -6.7571352, 39.7758146 ], [ -6.7586867, 39.7753679 ], [ -6.7600958, 39.7748809 ], [ -6.7629483, 39.7736805 ], [ -6.7637433, 39.7732765 ], [ -6.7619787, 39.7723791 ], [ -6.7617162, 39.7721742 ], [ -6.7611253, 39.7717133 ], [ -6.760359, 39.7709275 ], [ -6.7588769, 39.7690032 ], [ -6.7547599, 39.7630482 ], [ -6.754301, 39.7625497 ], [ -6.7520313, 39.7611551 ], [ -6.7516379, 39.7610012 ], [ -6.7512444, 39.7608474 ], [ -6.7467855, 39.7603971 ], [ -6.7451201, 39.76046 ], [ -6.7427166, 39.7608979 ], [ -6.7350534, 39.7624781 ], [ -6.7350533, 39.7624781 ], [ -6.7333025, 39.7626876 ], [ -6.7313113, 39.7627697 ], [ -6.7295037, 39.7627919 ], [ -6.7270601, 39.7627084 ], [ -6.7254709, 39.7624533 ], [ -6.7241258, 39.7621813 ], [ -6.7213828, 39.7615218 ], [ -6.7191981, 39.7608264 ], [ -6.7174726, 39.7602062 ], [ -6.716314, 39.7599282 ], [ -6.7148651, 39.7598935 ], [ -6.7125949, 39.7599933 ], [ -6.7125949, 39.7599933 ], [ -6.7101984, 39.7603492 ], [ -6.7101984, 39.7603492 ], [ -6.706896, 39.7610043 ], [ -6.7037042, 39.7617639 ], [ -6.7020361, 39.7624296 ], [ -6.7003473, 39.7635824 ], [ -6.6998039, 39.7641131 ], [ -6.6990276, 39.7655249 ], [ -6.6985061, 39.7660279 ], [ -6.697903, 39.7663173 ], [ -6.696617, 39.7664934 ], [ -6.6910174, 39.7663207 ], [ -6.6891974, 39.7663336 ], [ -6.6877252, 39.7660832 ], [ -6.6876665, 39.7660761 ], [ -6.6876665, 39.7660761 ], [ -6.686226, 39.7655455 ], [ -6.68451, 39.7646633 ], [ -6.6823783, 39.7634251 ], [ -6.6809151, 39.7629042 ], [ -6.6762789, 39.7619706 ], [ -6.6738911, 39.7613978 ], [ -6.6738911, 39.7613978 ], [ -6.6735264, 39.7612961 ], [ -6.6716285, 39.760767 ], [ -6.6703282, 39.760673 ], [ -6.6686698, 39.7608697 ], [ -6.6668206, 39.7616487 ], [ -6.6650162, 39.7628317 ], [ -6.6641634, 39.7632549 ], [ -6.6612828, 39.7641746 ], [ -6.6577006, 39.7657288 ], [ -6.6548863, 39.7672407 ], [ -6.6540195, 39.7677998 ], [ -6.6530805, 39.7684055 ], [ -6.6520014, 39.769187 ], [ -6.651332, 39.7695504 ], [ -6.6511646, 39.7694746 ], [ -6.650805, 39.7688554 ], [ -6.6504277, 39.7685611 ], [ -6.6502363, 39.7682519 ], [ -6.6498145, 39.7677788 ], [ -6.6495355, 39.7675804 ], [ -6.6490725, 39.7674329 ], [ -6.6487848, 39.7672888 ], [ -6.6485373, 39.7668013 ], [ -6.6482701, 39.7648372 ], [ -6.6477802, 39.7628531 ], [ -6.6473075, 39.7618592 ], [ -6.647306, 39.7618594 ], [ -6.6457525, 39.7620252 ], [ -6.6450713, 39.7621638 ], [ -6.6445479, 39.7626396 ], [ -6.6443436, 39.7629702 ], [ -6.644058, 39.7630873 ], [ -6.6430995, 39.7632795 ], [ -6.6424611, 39.7633446 ], [ -6.6424608, 39.7633446 ], [ -6.6424595, 39.7633447 ], [ -6.642459, 39.7633446 ], [ -6.642457, 39.7633448 ], [ -6.6424567, 39.7633447 ], [ -6.6424554, 39.7633448 ], [ -6.6419468, 39.7632167 ], [ -6.6417792, 39.7629157 ], [ -6.6419554, 39.7624959 ], [ -6.6419597, 39.7621355 ], [ -6.6417508, 39.7619349 ], [ -6.6408145, 39.7618833 ], [ -6.6406209, 39.7617543 ], [ -6.6405717, 39.7614856 ], [ -6.6403585, 39.761204 ], [ -6.6399301, 39.7610464 ], [ -6.6367581, 39.7604254 ], [ -6.6362065, 39.7601455 ], [ -6.6357449, 39.7597997 ], [ -6.63487, 39.759584 ], [ -6.6336628, 39.7594867 ], [ -6.6325015, 39.7595052 ], [ -6.6308985, 39.7596275 ], [ -6.6308983, 39.7596274 ], [ -6.6308969, 39.7596275 ], [ -6.6308965, 39.7596274 ], [ -6.6308944, 39.7596276 ], [ -6.6308941, 39.7596275 ], [ -6.6308928, 39.7596276 ], [ -6.6286414, 39.7591671 ], [ -6.6275442, 39.7593091 ], [ -6.6265602, 39.7596822 ], [ -6.6255797, 39.7603433 ], [ -6.624627, 39.7610937 ], [ -6.6238651, 39.7619191 ], [ -6.6232121, 39.7632636 ], [ -6.6212645, 39.7664048 ], [ -6.6206683, 39.7670539 ], [ -6.6204938, 39.7675097 ], [ -6.6203944, 39.7680622 ], [ -6.6193524, 39.7693377 ], [ -6.6189228, 39.7702698 ], [ -6.6182972, 39.7710279 ], [ -6.6179496, 39.7719665 ], [ -6.6179276, 39.7726607 ], [ -6.6176389, 39.7731651 ], [ -6.6168971, 39.7737106 ], [ -6.6163003, 39.7743507 ], [ -6.6156654, 39.7751541 ], [ -6.6148225, 39.7757749 ], [ -6.6148218, 39.7757743 ], [ -6.6148209, 39.7757749 ], [ -6.6148198, 39.775774 ], [ -6.6148184, 39.775775 ], [ -6.6148177, 39.7757744 ], [ -6.6148168, 39.7757751 ], [ -6.6078192, 39.7700846 ], [ -6.6045143, 39.7671431 ], [ -6.6023542, 39.7653369 ], [ -6.6005281, 39.7638895 ], [ -6.5991888, 39.7630484 ], [ -6.5979404, 39.7625218 ], [ -6.5976201, 39.7630701 ], [ -6.5971229, 39.7631576 ], [ -6.59693, 39.7634878 ], [ -6.5969287, 39.7634875 ], [ -6.5969284, 39.7634879 ], [ -6.5969262, 39.7634873 ], [ -6.5969259, 39.7634879 ], [ -6.5969245, 39.7634876 ], [ -6.5969243, 39.763488 ], [ -6.5955337, 39.7631628 ], [ -6.5952507, 39.7632877 ], [ -6.5948592, 39.76339 ], [ -6.5948586, 39.7633898 ], [ -6.5948576, 39.76339 ], [ -6.5948567, 39.7633897 ], [ -6.594855, 39.7633901 ], [ -6.5948545, 39.7633899 ], [ -6.5948534, 39.7633902 ], [ -6.5942381, 39.7631497 ], [ -6.5939411, 39.7634634 ], [ -6.5949218, 39.7639194 ], [ -6.5948645, 39.7641643 ], [ -6.5935378, 39.7653584 ], [ -6.5934252, 39.7658843 ], [ -6.593738, 39.7665141 ], [ -6.5937297, 39.7668026 ], [ -6.5934823, 39.7672065 ], [ -6.5931551, 39.7674239 ], [ -6.5931543, 39.7674234 ], [ -6.5931535, 39.7674239 ], [ -6.5931522, 39.7674232 ], [ -6.593151, 39.767424 ], [ -6.5931501, 39.7674235 ], [ -6.5931494, 39.767424 ], [ -6.5922764, 39.7669751 ], [ -6.5920741, 39.7670611 ], [ -6.5913883, 39.76801 ], [ -6.5924945, 39.7686333 ], [ -6.5916075, 39.7693092 ], [ -6.5916069, 39.7693085 ], [ -6.5916059, 39.7693092 ], [ -6.5916049, 39.7693082 ], [ -6.5916034, 39.7693093 ], [ -6.5916027, 39.7693086 ], [ -6.5916018, 39.7693093 ], [ -6.59073, 39.7684466 ], [ -6.5901537, 39.7687328 ], [ -6.5900786, 39.7690864 ], [ -6.5900336, 39.7702407 ], [ -6.5901171, 39.7709497 ], [ -6.5897057, 39.7713407 ], [ -6.5897049, 39.7713399 ], [ -6.5897041, 39.7713407 ], [ -6.5897029, 39.7713395 ], [ -6.5897016, 39.7713408 ], [ -6.5897008, 39.7713401 ], [ -6.5897, 39.7713409 ], [ -6.5891452, 39.7707726 ], [ -6.5887276, 39.7699132 ], [ -6.5881234, 39.7700927 ], [ -6.5877576, 39.7706895 ], [ -6.587279, 39.7718121 ], [ -6.5878278, 39.7727138 ], [ -6.5873043, 39.7729732 ], [ -6.5873037, 39.7729728 ], [ -6.5873027, 39.7729733 ], [ -6.5873017, 39.7729726 ], [ -6.5873002, 39.7729734 ], [ -6.5872996, 39.7729729 ], [ -6.5872986, 39.7729734 ], [ -6.5859333, 39.7720357 ], [ -6.5852794, 39.7724144 ], [ -6.5853237, 39.7725932 ], [ -6.5856929, 39.77296 ], [ -6.5861168, 39.7739287 ], [ -6.5864926, 39.7739889 ], [ -6.587523, 39.7739212 ], [ -6.587523, 39.7739213 ], [ -6.5875246, 39.7739211 ], [ -6.5875246, 39.7739212 ], [ -6.5875271, 39.7739211 ], [ -6.5875271, 39.7739211 ], [ -6.5875287, 39.773921 ], [ -6.5875899, 39.7741983 ], [ -6.5875367, 39.7745242 ], [ -6.5870641, 39.7750883 ], [ -6.5868144, 39.7756725 ], [ -6.586881, 39.7762829 ], [ -6.5868037, 39.7765915 ], [ -6.5862774, 39.7767969 ], [ -6.586277, 39.7767965 ], [ -6.5862758, 39.7767969 ], [ -6.5862751, 39.7767963 ], [ -6.5862733, 39.776797 ], [ -6.5862728, 39.7767966 ], [ -6.5862717, 39.7767971 ], [ -6.5851809, 39.775761 ], [ -6.5844929, 39.7761496 ], [ -6.5839494, 39.7773733 ], [ -6.5832111, 39.7775403 ], [ -6.5832109, 39.77754 ], [ -6.5832095, 39.7775403 ], [ -6.5832092, 39.7775399 ], [ -6.5832069, 39.7775404 ], [ -6.5832068, 39.7775401 ], [ -6.5832053, 39.7775404 ], [ -6.5827854, 39.7768528 ], [ -6.5820367, 39.7771803 ], [ -6.5825225, 39.7775435 ], [ -6.5832852, 39.7785197 ], [ -6.5836396, 39.7792743 ], [ -6.5834886, 39.7799635 ], [ -6.5831581, 39.7803431 ], [ -6.582732, 39.7804553 ], [ -6.5827316, 39.780455 ], [ -6.5827304, 39.7804553 ], [ -6.5827297, 39.7804549 ], [ -6.5827279, 39.7804554 ], [ -6.5827275, 39.7804551 ], [ -6.5827263, 39.7804554 ], [ -6.5820512, 39.780044 ], [ -6.5817276, 39.7796577 ], [ -6.5811506, 39.7796755 ], [ -6.580856, 39.7798468 ], [ -6.5805567, 39.7803784 ], [ -6.5804668, 39.7811197 ], [ -6.5800257, 39.7813946 ], [ -6.5792304, 39.7815903 ], [ -6.5776276, 39.7817479 ], [ -6.5774006, 39.781872 ], [ -6.5773148, 39.7822439 ], [ -6.5763772, 39.7823989 ], [ -6.5762336, 39.7827817 ], [ -6.5753814, 39.7830061 ], [ -6.5753809, 39.7830058 ], [ -6.5753798, 39.7830061 ], [ -6.5753791, 39.7830057 ], [ -6.5753773, 39.7830062 ], [ -6.5753768, 39.783006 ], [ -6.5753757, 39.7830063 ], [ -6.574897, 39.7827604 ], [ -6.5733501, 39.7830057 ], [ -6.5733497, 39.7830056 ], [ -6.5733485, 39.7830058 ], [ -6.5733479, 39.7830056 ], [ -6.573346, 39.7830059 ], [ -6.5733456, 39.7830057 ], [ -6.5733444, 39.7830059 ], [ -6.5723809, 39.7826134 ], [ -6.5709981, 39.7831232 ], [ -6.5691528, 39.7833332 ], [ -6.5675264, 39.7837165 ], [ -6.5660182, 39.7838981 ], [ -6.5660166, 39.7838982 ], [ -6.5660141, 39.7838982 ], [ -6.5660125, 39.7838983 ], [ -6.5644797, 39.7839454 ], [ -6.5632451, 39.7842266 ], [ -6.5601961, 39.78532 ], [ -6.5583881, 39.7855737 ], [ -6.5573749, 39.7856229 ], [ -6.5573747, 39.7856228 ], [ -6.5573733, 39.7856229 ], [ -6.5573729, 39.7856229 ], [ -6.5573707, 39.785623 ], [ -6.5573705, 39.785623 ], [ -6.5573691, 39.785623 ], [ -6.5566815, 39.7855635 ], [ -6.556213, 39.7857306 ], [ -6.5554818, 39.7862664 ], [ -6.5555935, 39.7868484 ], [ -6.5554279, 39.7870336 ], [ -6.5549001, 39.7872119 ], [ -6.5548991, 39.7872118 ], [ -6.5548985, 39.787212 ], [ -6.554897, 39.7872117 ], [ -6.5548959, 39.7872121 ], [ -6.554895, 39.7872119 ], [ -6.5548943, 39.7872121 ], [ -6.5545642, 39.7871502 ], [ -6.5539283, 39.7867748 ], [ -6.5536804, 39.7868801 ], [ -6.5531319, 39.7875634 ], [ -6.5525086, 39.7886093 ], [ -6.5522939, 39.7894265 ], [ -6.5523327, 39.7901819 ], [ -6.5525742, 39.7916967 ], [ -6.5528336, 39.7926525 ], [ -6.5528099, 39.7937791 ], [ -6.5526474, 39.7944776 ], [ -6.5521916, 39.7949239 ], [ -6.5516747, 39.7955432 ], [ -6.5523784, 39.7956027 ], [ -6.5531338, 39.7955345 ], [ -6.5544343, 39.7956207 ], [ -6.5565854, 39.7954467 ], [ -6.5587025, 39.7950664 ], [ -6.559305, 39.795201 ], [ -6.5595222, 39.7955636 ], [ -6.5594301, 39.796269 ], [ -6.5595138, 39.796987 ], [ -6.5600718, 39.7980687 ], [ -6.5608302, 39.7991893 ], [ -6.5615636, 39.8000494 ], [ -6.5648655, 39.8015782 ], [ -6.5698723, 39.8037838 ], [ -6.570141, 39.8042349 ], [ -6.570437, 39.8049913 ], [ -6.5737234, 39.8057637 ], [ -6.5745149, 39.8063878 ], [ -6.5756024, 39.8070928 ], [ -6.5792542, 39.8079258 ], [ -6.5803857, 39.8085753 ], [ -6.5812593, 39.809431 ], [ -6.5820961, 39.8109273 ], [ -6.5824577, 39.8122672 ], [ -6.5827363, 39.8135826 ], [ -6.5826016, 39.8143613 ], [ -6.5821674, 39.8152214 ], [ -6.5820686, 39.8155667 ], [ -6.5820089, 39.8157667 ], [ -6.5823332, 39.8170626 ], [ -6.5821575, 39.8179508 ], [ -6.582165, 39.818545 ], [ -6.582464, 39.8195805 ], [ -6.5825546, 39.8204244 ], [ -6.5823355, 39.8211517 ], [ -6.5811919, 39.8231956 ], [ -6.5811728, 39.8237276 ], [ -6.5821404, 39.8248145 ], [ -6.5821111, 39.8251487 ], [ -6.5817128, 39.8258005 ] ] ] } }
]
}
