{
"type": "FeatureCollection",
"name": "10002",
"features": [
{ "type": "Feature", "properties": { "CCAA": "11 - Extremadura", "PROVINCIA": "10 - Cáceres", "MUNICIPIO": "10002 - Abertura", "COD_MUNICIPIO": "10002", "DISTRITO": "01", "SECCION": "1000201001", "V1_H": 79.33, "V1_M": 85.14, "V2_H": 79.29974376, "V2_M": 85.20981541, "V3_H": 79.50065775, "V3_M": 85.33298389 }, "geometry": { "type": "Polygon", "coordinates": [ [ [ -5.7915374, 39.3129961 ], [ -5.7916524, 39.3132636 ], [ -5.7919755, 39.3135171 ], [ -5.7925003, 39.3141711 ], [ -5.7929569, 39.3148629 ], [ -5.7936984, 39.3157189 ], [ -5.7945669, 39.3168512 ], [ -5.7962224, 39.3185231 ], [ -5.7979519, 39.3208868 ], [ -5.7985603, 39.3216019 ], [ -5.7988458, 39.3220725 ], [ -5.7999212, 39.323443 ], [ -5.8007822, 39.3246745 ], [ -5.80264, 39.3241433 ], [ -5.8077488, 39.3231192 ], [ -5.8079987, 39.322987 ], [ -5.8094546, 39.3214023 ], [ -5.8099164, 39.3210579 ], [ -5.8109534, 39.3206004 ], [ -5.8125161, 39.3190762 ], [ -5.8126182, 39.3187314 ], [ -5.8126426, 39.3181812 ], [ -5.8125447, 39.3168954 ], [ -5.8126496, 39.3154604 ], [ -5.8126636, 39.3140727 ], [ -5.8129204, 39.3126702 ], [ -5.8130694, 39.3114684 ], [ -5.8133306, 39.3101739 ], [ -5.8131879, 39.3086368 ], [ -5.8132498, 39.3081578 ], [ -5.8133625, 39.3077857 ], [ -5.8143535, 39.3064735 ], [ -5.8150954, 39.3053115 ], [ -5.8151256, 39.3049053 ], [ -5.8150836, 39.3044379 ], [ -5.8153939, 39.304079 ], [ -5.8164463, 39.3031437 ], [ -5.8169069, 39.3024839 ], [ -5.8171408, 39.3019556 ], [ -5.8172592, 39.3014393 ], [ -5.8174121, 39.3000483 ], [ -5.8182247, 39.3000737 ], [ -5.8185118, 39.3000036 ], [ -5.8187464, 39.2997817 ], [ -5.8184354, 39.2995461 ], [ -5.8183638, 39.2992054 ], [ -5.8184532, 39.2988339 ], [ -5.818796, 39.2987085 ], [ -5.8200879, 39.2985421 ], [ -5.8204401, 39.2983623 ], [ -5.8213643, 39.2977003 ], [ -5.822431, 39.2971249 ], [ -5.8230941, 39.2968926 ], [ -5.8238293, 39.2961451 ], [ -5.824331, 39.2953581 ], [ -5.8252445, 39.2941468 ], [ -5.8262211, 39.29306 ], [ -5.8268606, 39.292531 ], [ -5.8276985, 39.2920332 ], [ -5.8279188, 39.2917486 ], [ -5.8282808, 39.2915235 ], [ -5.8292768, 39.2912111 ], [ -5.829638, 39.2906798 ], [ -5.8300343, 39.2904449 ], [ -5.830845, 39.2901369 ], [ -5.8314389, 39.2896269 ], [ -5.8317147, 39.2895662 ], [ -5.8323277, 39.289245 ], [ -5.8336482, 39.288357 ], [ -5.8345146, 39.2877053 ], [ -5.8348138, 39.2873647 ], [ -5.8347971, 39.2869507 ], [ -5.8344934, 39.2863184 ], [ -5.8344409, 39.2858783 ], [ -5.8345352, 39.2853445 ], [ -5.8348033, 39.2845181 ], [ -5.8360005, 39.2822999 ], [ -5.8360327, 39.2819478 ], [ -5.8358567, 39.2810331 ], [ -5.8354411, 39.2802144 ], [ -5.8352745, 39.2792456 ], [ -5.8349752, 39.2787213 ], [ -5.8346991, 39.2781966 ], [ -5.8346953, 39.27753 ], [ -5.8348345, 39.2766708 ], [ -5.8350768, 39.2760703 ], [ -5.8353099, 39.2758124 ], [ -5.8361067, 39.2754506 ], [ -5.8370414, 39.2736261 ], [ -5.8371401, 39.2732003 ], [ -5.8373936, 39.2728787 ], [ -5.838669, 39.2720279 ], [ -5.8391512, 39.2713405 ], [ -5.8390788, 39.2709819 ], [ -5.8388638, 39.2705366 ], [ -5.8388886, 39.2700046 ], [ -5.8395908, 39.2690235 ], [ -5.8401634, 39.2685681 ], [ -5.8405617, 39.2680989 ], [ -5.8421567, 39.267132 ], [ -5.8424794, 39.2667999 ], [ -5.8427077, 39.2652808 ], [ -5.8425838, 39.2647974 ], [ -5.8424839, 39.2646196 ], [ -5.8424227, 39.26454 ], [ -5.8425913, 39.2641215 ], [ -5.8427001, 39.2636594 ], [ -5.8427357, 39.2628207 ], [ -5.8430508, 39.2625878 ], [ -5.8436867, 39.262266 ], [ -5.8439681, 39.2620609 ], [ -5.8442722, 39.261558 ], [ -5.8448167, 39.2601213 ], [ -5.8461863, 39.2584572 ], [ -5.8463924, 39.2581099 ], [ -5.8467566, 39.2579478 ], [ -5.8471835, 39.2579013 ], [ -5.8478316, 39.2575972 ], [ -5.8424171, 39.2463334 ], [ -5.8386922, 39.2390101 ], [ -5.8360549, 39.2388222 ], [ -5.8416608, 39.210668 ], [ -5.8395144, 39.2097024 ], [ -5.8370806, 39.2087888 ], [ -5.8358319, 39.2082607 ], [ -5.834084, 39.2076996 ], [ -5.8320553, 39.2061995 ], [ -5.8310944, 39.2053399 ], [ -5.82749, 39.2026618 ], [ -5.826603, 39.2019086 ], [ -5.8224345, 39.1987215 ], [ -5.821814, 39.1979707 ], [ -5.8204722, 39.1965528 ], [ -5.8188831, 39.1950328 ], [ -5.8172591, 39.1935045 ], [ -5.8168088, 39.1932451 ], [ -5.8158145, 39.19299 ], [ -5.8136243, 39.1943852 ], [ -5.8130758, 39.1948579 ], [ -5.8107725, 39.1971928 ], [ -5.8096006, 39.1985814 ], [ -5.8079218, 39.2003246 ], [ -5.806661, 39.2012288 ], [ -5.8054616, 39.2022216 ], [ -5.8048759, 39.2026322 ], [ -5.8031083, 39.2033144 ], [ -5.8005501, 39.2050786 ], [ -5.7966882, 39.208721 ], [ -5.7933509, 39.2118731 ], [ -5.7915935, 39.213699 ], [ -5.7886602, 39.2159494 ], [ -5.7874441, 39.2168254 ], [ -5.7872176, 39.2169569 ], [ -5.7855882, 39.2179238 ], [ -5.7836265, 39.219277 ], [ -5.7832547, 39.2195382 ], [ -5.7819185, 39.2203088 ], [ -5.7813958, 39.2205645 ], [ -5.7809643, 39.2207821 ], [ -5.7771709, 39.2209177 ], [ -5.7734978, 39.2211674 ], [ -5.7718652, 39.2211792 ], [ -5.7705232, 39.2212201 ], [ -5.7683722, 39.2212984 ], [ -5.7687034, 39.2220652 ], [ -5.7688839, 39.2228267 ], [ -5.769131, 39.2235145 ], [ -5.7691585, 39.2239193 ], [ -5.7690942, 39.2243443 ], [ -5.7688989, 39.2246822 ], [ -5.7694754, 39.2254973 ], [ -5.7705731, 39.2277865 ], [ -5.770542, 39.2278773 ], [ -5.7704793, 39.22805 ], [ -5.7687743, 39.2291716 ], [ -5.7667261, 39.2304005 ], [ -5.7659987, 39.2313457 ], [ -5.7641585, 39.2331551 ], [ -5.7638644, 39.2336307 ], [ -5.7643184, 39.2354576 ], [ -5.7646923, 39.2364217 ], [ -5.7651712, 39.2371131 ], [ -5.7657718, 39.2376573 ], [ -5.7663779, 39.2380483 ], [ -5.767193, 39.2381551 ], [ -5.7695308, 39.2422166 ], [ -5.7708393, 39.2445548 ], [ -5.7715445, 39.2456911 ], [ -5.7722677, 39.2458181 ], [ -5.7725306, 39.246019 ], [ -5.7729201, 39.2464962 ], [ -5.7737814, 39.2483586 ], [ -5.7747198, 39.25012 ], [ -5.7749203, 39.2505026 ], [ -5.7765608, 39.2539048 ], [ -5.7737127, 39.2569006 ], [ -5.7725147, 39.2594337 ], [ -5.7721593, 39.2604151 ], [ -5.7705669, 39.2629394 ], [ -5.7691498, 39.2655047 ], [ -5.7674754, 39.2688958 ], [ -5.7664899, 39.2703606 ], [ -5.7684497, 39.2724492 ], [ -5.7688896, 39.272727 ], [ -5.7694388, 39.2729531 ], [ -5.7697378, 39.2730762 ], [ -5.7705064, 39.2734633 ], [ -5.7711498, 39.2739075 ], [ -5.7714052, 39.2745049 ], [ -5.7715045, 39.2752593 ], [ -5.7712242, 39.2769687 ], [ -5.7711893, 39.2775551 ], [ -5.7714488, 39.2779633 ], [ -5.7717939, 39.2781893 ], [ -5.7723944, 39.2784273 ], [ -5.7732524, 39.2784339 ], [ -5.7738922, 39.2784907 ], [ -5.7741376, 39.2785428 ], [ -5.7744649, 39.2786122 ], [ -5.774962, 39.2788706 ], [ -5.7754878, 39.2792725 ], [ -5.7758809, 39.2798307 ], [ -5.7759446, 39.2802706 ], [ -5.7757931, 39.28113 ], [ -5.7755464, 39.2819287 ], [ -5.7757171, 39.2821408 ], [ -5.776184, 39.2825171 ], [ -5.7774721, 39.2828467 ], [ -5.7774722, 39.2828467 ], [ -5.7777075, 39.2829362 ], [ -5.7778958, 39.2830077 ], [ -5.7778959, 39.2830077 ], [ -5.7795421, 39.2835991 ], [ -5.7800112, 39.2840293 ], [ -5.7803169, 39.2847247 ], [ -5.7802601, 39.2853386 ], [ -5.7801149, 39.2860628 ], [ -5.7797307, 39.2869008 ], [ -5.7795534, 39.2879861 ], [ -5.7796643, 39.2887402 ], [ -5.780041, 39.28947 ], [ -5.779976, 39.2904625 ], [ -5.7802592, 39.2911764 ], [ -5.7806596, 39.2916263 ], [ -5.7808455, 39.2919282 ], [ -5.7810633, 39.2927428 ], [ -5.7813642, 39.2930239 ], [ -5.7821538, 39.2933473 ], [ -5.7820214, 39.29381 ], [ -5.7821433, 39.2939602 ], [ -5.782968, 39.2937062 ], [ -5.7835544, 39.2935841 ], [ -5.7838489, 39.2937032 ], [ -5.78442, 39.2946535 ], [ -5.7849781, 39.2952797 ], [ -5.7857069, 39.2964064 ], [ -5.7856925, 39.2969202 ], [ -5.785581, 39.2976166 ], [ -5.7854175, 39.2978818 ], [ -5.7849122, 39.298002 ], [ -5.7848029, 39.298464 ], [ -5.7846588, 39.2986297 ], [ -5.7843159, 39.298755 ], [ -5.7837483, 39.2987685 ], [ -5.7833844, 39.2989484 ], [ -5.7831866, 39.2992234 ], [ -5.7833413, 39.2996161 ], [ -5.783206, 39.3000067 ], [ -5.7831469, 39.300855 ], [ -5.7832721, 39.3010862 ], [ -5.7834277, 39.3012086 ], [ -5.7840653, 39.3014997 ], [ -5.7849567, 39.3017576 ], [ -5.7871046, 39.3021206 ], [ -5.7872743, 39.3023057 ], [ -5.7875013, 39.303057 ], [ -5.787651, 39.3033237 ], [ -5.7879994, 39.3036307 ], [ -5.7886432, 39.3040747 ], [ -5.7891886, 39.3043769 ], [ -5.7895025, 39.3043964 ], [ -5.7898229, 39.3042896 ], [ -5.7902146, 39.3042262 ], [ -5.790524, 39.304426 ], [ -5.7905572, 39.3046774 ], [ -5.7903639, 39.3053577 ], [ -5.7900954, 39.3067696 ], [ -5.7898365, 39.3075505 ], [ -5.789476, 39.3081087 ], [ -5.7893585, 39.308652 ], [ -5.7894307, 39.3090106 ], [ -5.7896254, 39.3092402 ], [ -5.7899823, 39.3094659 ], [ -5.790948, 39.3098391 ], [ -5.791076, 39.3101424 ], [ -5.7911124, 39.3104748 ], [ -5.7909965, 39.3113514 ], [ -5.791134, 39.3116004 ], [ -5.792037, 39.3121463 ], [ -5.7921335, 39.3125314 ], [ -5.7919382, 39.3128694 ], [ -5.7915374, 39.3129961 ] ] ] } }
]
}
