{
"type": "FeatureCollection",
"name": "10020",
"features": [
{ "type": "Feature", "properties": { "CCAA": "11 - Extremadura", "PROVINCIA": "10 - Cáceres", "MUNICIPIO": "10020 - Almoharín", "COD_MUNICIPIO": "10020", "DISTRITO": "02", "SECCION": "1002002001", "V1_H": 79.16, "V1_M": 85.0, "V2_H": 79.432337, "V2_M": 85.16926182, "V3_H": 78.95181978, "V3_M": 84.90024095 }, "geometry": { "type": "Polygon", "coordinates": [ [ [ -5.9904424, 39.2007163 ], [ -5.9917133, 39.2009269 ], [ -5.9943705, 39.2010658 ], [ -5.997279, 39.2016666 ], [ -5.9988653, 39.201941 ], [ -5.9998756, 39.2020141 ], [ -6.0000133, 39.2020001 ], [ -6.000207, 39.2020141 ], [ -6.0015097, 39.2018814 ], [ -6.0038209, 39.2015065 ], [ -6.0046241, 39.2014435 ], [ -6.0048479, 39.2014259 ], [ -6.0056102, 39.2015502 ], [ -6.0058972, 39.201597 ], [ -6.0067593, 39.2016226 ], [ -6.006871, 39.2016259 ], [ -6.0082622, 39.2016047 ], [ -6.0085718, 39.2016 ], [ -6.00946, 39.2017932 ], [ -6.0122865, 39.2020985 ], [ -6.013758, 39.2023937 ], [ -6.0177796, 39.203839 ], [ -6.0191292, 39.2042634 ], [ -6.0208332, 39.2045795 ], [ -6.0213726, 39.2047367 ], [ -6.0230033, 39.2052349 ], [ -6.0246511, 39.2055884 ], [ -6.0257107, 39.2057404 ], [ -6.0258743, 39.2057638 ], [ -6.0268181, 39.2056312 ], [ -6.0279631, 39.2053311 ], [ -6.0290286, 39.2047989 ], [ -6.030738, 39.2047004 ], [ -6.031832, 39.2045638 ], [ -6.0332738, 39.2041659 ], [ -6.0333896, 39.2041652 ], [ -6.0337137, 39.2041634 ], [ -6.0353597, 39.2045254 ], [ -6.0353618, 39.2045259 ], [ -6.0383372, 39.2045203 ], [ -6.0385811, 39.2044369 ], [ -6.0389648, 39.2043057 ], [ -6.0392898, 39.2041446 ], [ -6.0397129, 39.2039348 ], [ -6.0396932, 39.2024039 ], [ -6.039954, 39.2020097 ], [ -6.0416883, 39.2003429 ], [ -6.0422799, 39.2001022 ], [ -6.0427775, 39.199828 ], [ -6.0431913, 39.1992226 ], [ -6.0436487, 39.1988233 ], [ -6.0443509, 39.1984626 ], [ -6.0460503, 39.1977491 ], [ -6.0462044, 39.1976844 ], [ -6.0468513, 39.1979197 ], [ -6.0476384, 39.1980943 ], [ -6.0484773, 39.1976705 ], [ -6.0498907, 39.197156 ], [ -6.0515375, 39.1964192 ], [ -6.0530541, 39.1953525 ], [ -6.0538697, 39.195205 ], [ -6.0550489, 39.1946335 ], [ -6.0563313, 39.1945729 ], [ -6.0573304, 39.193853 ], [ -6.0607942, 39.1933746 ], [ -6.0614061, 39.1930703 ], [ -6.062475, 39.1926277 ], [ -6.0631348, 39.1923581 ], [ -6.0647871, 39.1917561 ], [ -6.0687111, 39.1898871 ], [ -6.070688, 39.1892944 ], [ -6.0718203, 39.1887151 ], [ -6.0728237, 39.1878328 ], [ -6.0737294, 39.186836 ], [ -6.0739372, 39.1869714 ], [ -6.074885, 39.1875892 ], [ -6.0751649, 39.1876358 ], [ -6.0752466, 39.1875938 ], [ -6.0755158, 39.1874554 ], [ -6.0760431, 39.1873334 ], [ -6.0768978, 39.1872928 ], [ -6.077423, 39.1871258 ], [ -6.0778494, 39.1868172 ], [ -6.078217, 39.1867534 ], [ -6.0783052, 39.1867951 ], [ -6.078938, 39.1870947 ], [ -6.0789381, 39.1870947 ], [ -6.0789978, 39.1869657 ], [ -6.0799217, 39.1849697 ], [ -6.0801282, 39.1843967 ], [ -6.0807229, 39.1839666 ], [ -6.0815326, 39.1831614 ], [ -6.0828659, 39.1816217 ], [ -6.0838866, 39.1806128 ], [ -6.086152, 39.1786879 ], [ -6.0880708, 39.1767813 ], [ -6.0888714, 39.1757691 ], [ -6.0892057, 39.1752108 ], [ -6.0892211, 39.1747689 ], [ -6.0887196, 39.1738904 ], [ -6.0882778, 39.1727851 ], [ -6.0884623, 39.171447 ], [ -6.0887974, 39.1701138 ], [ -6.0889902, 39.1697009 ], [ -6.0887494, 39.1698503 ], [ -6.0876939, 39.1699585 ], [ -6.0861371, 39.1700172 ], [ -6.0851529, 39.1700441 ], [ -6.084271, 39.1700464 ], [ -6.0831909, 39.169777 ], [ -6.0820185, 39.1693486 ], [ -6.080444, 39.1687203 ], [ -6.0792864, 39.1682916 ], [ -6.0784843, 39.167972 ], [ -6.0775988, 39.1678369 ], [ -6.0764404, 39.1679465 ], [ -6.0750041, 39.1681178 ], [ -6.0733797, 39.1683951 ], [ -6.0724427, 39.1685471 ], [ -6.0711032, 39.1684763 ], [ -6.0698401, 39.1685188 ], [ -6.0681444, 39.1683161 ], [ -6.0668338, 39.1682219 ], [ -6.0658455, 39.1680882 ], [ -6.064476, 39.1679949 ], [ -6.0627821, 39.1678607 ], [ -6.0604884, 39.167839 ], [ -6.0592835, 39.1678575 ], [ -6.0584776, 39.1679616 ], [ -6.0575145, 39.1682399 ], [ -6.0565532, 39.1685869 ], [ -6.0555668, 39.1691062 ], [ -6.054726, 39.1695658 ], [ -6.0539568, 39.1699557 ], [ -6.053713, 39.1701999 ], [ -6.053288, 39.170825 ], [ -6.052702, 39.1714869 ], [ -6.0520104, 39.172036 ], [ -6.0509975, 39.17267 ], [ -6.0498079, 39.1732953 ], [ -6.0485595, 39.1739216 ], [ -6.0478773, 39.1742643 ], [ -6.0471573, 39.1748594 ], [ -6.0465217, 39.1753044 ], [ -6.0459556, 39.175588 ], [ -6.0452157, 39.1759773 ], [ -6.0444755, 39.1763553 ], [ -6.0437791, 39.176721 ], [ -6.0430818, 39.1770524 ], [ -6.0422968, 39.177408 ], [ -6.0414959, 39.1777065 ], [ -6.0406026, 39.1778462 ], [ -6.0399721, 39.1779131 ], [ -6.0390019, 39.1779165 ], [ -6.0380011, 39.1778744 ], [ -6.0364742, 39.177955 ], [ -6.0346799, 39.177925 ], [ -6.0326425, 39.1781736 ], [ -6.0301221, 39.1784982 ], [ -6.0285257, 39.1787401 ], [ -6.0263682, 39.1788873 ], [ -6.0232331, 39.1793242 ], [ -6.0220772, 39.1795478 ], [ -6.0210104, 39.1798045 ], [ -6.0185494, 39.1801624 ], [ -6.0156532, 39.1807558 ], [ -6.0147161, 39.1809073 ], [ -6.0137653, 39.1811048 ], [ -6.0130506, 39.1813332 ], [ -6.0111906, 39.181029 ], [ -6.0085627, 39.1805874 ], [ -6.0066446, 39.1803068 ], [ -6.0050252, 39.1802165 ], [ -6.0037017, 39.1802019 ], [ -6.0025535, 39.1801389 ], [ -6.0016663, 39.1799346 ], [ -6.0002625, 39.1796462 ], [ -5.9988751, 39.1794265 ], [ -5.9968018, 39.1794114 ], [ -5.9949781, 39.1793813 ], [ -5.9936659, 39.179229 ], [ -5.9918541, 39.1790841 ], [ -5.9903482, 39.1788202 ], [ -5.9898556, 39.1782455 ], [ -5.9895242, 39.1782455 ], [ -5.9894118, 39.1783988 ], [ -5.9894117, 39.1783989 ], [ -5.9890866, 39.1788423 ], [ -5.9884029, 39.1796436 ], [ -5.9879165, 39.1804579 ], [ -5.9877872, 39.1807906 ], [ -5.9874886, 39.1815589 ], [ -5.9878206, 39.1815789 ], [ -5.9896702, 39.1816904 ], [ -5.9900024, 39.1817105 ], [ -5.9911556, 39.18178 ], [ -5.9916288, 39.1818857 ], [ -5.9919152, 39.1819496 ], [ -5.9926515, 39.1823902 ], [ -5.9932205, 39.1829792 ], [ -5.9939061, 39.1841326 ], [ -5.9946697, 39.1857615 ], [ -5.9949739, 39.1866546 ], [ -5.9949629, 39.1872134 ], [ -5.9947792, 39.1880649 ], [ -5.9948608, 39.1883511 ], [ -5.9952826, 39.1890159 ], [ -5.9954281, 39.1894446 ], [ -5.9953613, 39.1897796 ], [ -5.9949727, 39.1901679 ], [ -5.9936973, 39.1909395 ], [ -5.9927106, 39.1916945 ], [ -5.993087, 39.1923785 ], [ -5.9929967, 39.1927051 ], [ -5.9919399, 39.193444 ], [ -5.9913564, 39.1941526 ], [ -5.9910878, 39.1949163 ], [ -5.9910991, 39.1954565 ], [ -5.991243, 39.1961194 ], [ -5.9916174, 39.1967584 ], [ -5.9923701, 39.1981263 ], [ -5.9923792, 39.1986126 ], [ -5.9920641, 39.1990982 ], [ -5.9904424, 39.2007163 ] ] ] } },
{ "type": "Feature", "properties": { "CCAA": "11 - Extremadura", "PROVINCIA": "10 - Cáceres", "MUNICIPIO": "10020 - Almoharín", "COD_MUNICIPIO": "10020", "DISTRITO": "01", "SECCION": "1002001001", "V1_H": 79.63, "V1_M": 85.51, "V2_H": 79.79644461, "V2_M": 85.57767022, "V3_H": 79.53263393, "V3_M": 85.68344389000001 }, "geometry": { "type": "GeometryCollection", "geometries": [ { "type": "Polygon", "coordinates": [ [ [ -5.9898492, 39.1780968 ], [ -5.9895243, 39.1782455 ], [ -5.9898556, 39.1782455 ], [ -5.9903482, 39.1788202 ], [ -5.9918541, 39.1790841 ], [ -5.9936659, 39.179229 ], [ -5.9949781, 39.1793813 ], [ -5.9968018, 39.1794114 ], [ -5.9988751, 39.1794265 ], [ -6.0002625, 39.1796462 ], [ -6.0016663, 39.1799346 ], [ -6.0025535, 39.1801389 ], [ -6.0037017, 39.1802019 ], [ -6.0050252, 39.1802165 ], [ -6.0066446, 39.1803068 ], [ -6.0085627, 39.1805874 ], [ -6.0111906, 39.181029 ], [ -6.0130506, 39.1813332 ], [ -6.0137653, 39.1811048 ], [ -6.0147161, 39.1809073 ], [ -6.0156532, 39.1807558 ], [ -6.0185494, 39.1801624 ], [ -6.0210104, 39.1798045 ], [ -6.0220772, 39.1795478 ], [ -6.0232331, 39.1793242 ], [ -6.0263682, 39.1788873 ], [ -6.0285257, 39.1787401 ], [ -6.0301221, 39.1784982 ], [ -6.0326425, 39.1781736 ], [ -6.0346799, 39.177925 ], [ -6.0364742, 39.177955 ], [ -6.0380011, 39.1778744 ], [ -6.0390019, 39.1779165 ], [ -6.0399721, 39.1779131 ], [ -6.0406026, 39.1778462 ], [ -6.0414959, 39.1777065 ], [ -6.0422968, 39.177408 ], [ -6.0430818, 39.1770524 ], [ -6.0437791, 39.176721 ], [ -6.0444755, 39.1763553 ], [ -6.0452157, 39.1759773 ], [ -6.0459556, 39.175588 ], [ -6.0465217, 39.1753044 ], [ -6.0471573, 39.1748594 ], [ -6.0478773, 39.1742643 ], [ -6.0485595, 39.1739216 ], [ -6.0498079, 39.1732953 ], [ -6.0509975, 39.17267 ], [ -6.0520104, 39.172036 ], [ -6.052702, 39.1714869 ], [ -6.053288, 39.170825 ], [ -6.053713, 39.1701999 ], [ -6.0539568, 39.1699557 ], [ -6.054726, 39.1695658 ], [ -6.0555668, 39.1691062 ], [ -6.0565532, 39.1685869 ], [ -6.0575145, 39.1682399 ], [ -6.0584776, 39.1679616 ], [ -6.0592835, 39.1678575 ], [ -6.0604884, 39.167839 ], [ -6.0627821, 39.1678607 ], [ -6.064476, 39.1679949 ], [ -6.0658455, 39.1680882 ], [ -6.0668338, 39.1682219 ], [ -6.0681444, 39.1683161 ], [ -6.0698401, 39.1685188 ], [ -6.0711032, 39.1684763 ], [ -6.0724427, 39.1685471 ], [ -6.0733797, 39.1683951 ], [ -6.0750041, 39.1681178 ], [ -6.0764404, 39.1679465 ], [ -6.0775988, 39.1678369 ], [ -6.0784843, 39.167972 ], [ -6.0792864, 39.1682916 ], [ -6.080444, 39.1687203 ], [ -6.0820185, 39.1693486 ], [ -6.0831909, 39.169777 ], [ -6.084271, 39.1700464 ], [ -6.0851529, 39.1700441 ], [ -6.0861371, 39.1700172 ], [ -6.0876939, 39.1699585 ], [ -6.0887494, 39.1698503 ], [ -6.0889902, 39.1697009 ], [ -6.0894561, 39.1694118 ], [ -6.0894564, 39.169411 ], [ -6.0901664, 39.1684462 ], [ -6.0907663, 39.1676106 ], [ -6.0913115, 39.1668484 ], [ -6.091378, 39.1667836 ], [ -6.0928368, 39.1652134 ], [ -6.0918166, 39.1633217 ], [ -6.0914778, 39.1624569 ], [ -6.0915028, 39.1609157 ], [ -6.0913451, 39.159956 ], [ -6.0914291, 39.1584404 ], [ -6.0915421, 39.1573203 ], [ -6.0916458, 39.1562546 ], [ -6.0916115, 39.1554717 ], [ -6.0914572, 39.1548543 ], [ -6.0910229, 39.1539199 ], [ -6.0907957, 39.1532233 ], [ -6.0907945, 39.1524035 ], [ -6.091652, 39.1484711 ], [ -6.0907168, 39.1461357 ], [ -6.090962, 39.1451293 ], [ -6.0924249, 39.1365324 ], [ -6.0929361, 39.1331497 ], [ -6.0931542, 39.1296756 ], [ -6.0935209, 39.126693 ], [ -6.0938486, 39.125198 ], [ -6.0935986, 39.1242407 ], [ -6.0940443, 39.1225353 ], [ -6.0946503, 39.121321 ], [ -6.0946938, 39.1212568 ], [ -6.0954707, 39.119984 ], [ -6.0983027, 39.1178457 ], [ -6.1028966, 39.1144893 ], [ -6.1081534, 39.1104395 ], [ -6.108975, 39.1101923 ], [ -6.1140105, 39.1095353 ], [ -6.1221829, 39.1086949 ], [ -6.1257112, 39.1082129 ], [ -6.1303223, 39.1071161 ], [ -6.1316704, 39.1068665 ], [ -6.1319164, 39.106821 ], [ -6.1335189, 39.1076715 ], [ -6.1338931, 39.1053994 ], [ -6.133819, 39.1042483 ], [ -6.1336154, 39.1025242 ], [ -6.1331136, 39.1005919 ], [ -6.1327927, 39.0996096 ], [ -6.1321153, 39.0986729 ], [ -6.130918, 39.0977412 ], [ -6.128797, 39.0963118 ], [ -6.1275308, 39.0953909 ], [ -6.1271921, 39.0950487 ], [ -6.1278655, 39.092238 ], [ -6.1280117, 39.0910991 ], [ -6.1280411, 39.0901974 ], [ -6.1277135, 39.0890622 ], [ -6.1275273, 39.0879861 ], [ -6.1275639, 39.0864627 ], [ -6.12764, 39.0858301 ], [ -6.128248, 39.0846787 ], [ -6.1288419, 39.0837349 ], [ -6.1289562, 39.0834435 ], [ -6.1297218, 39.0814141 ], [ -6.130434, 39.0802689 ], [ -6.1313444, 39.0791634 ], [ -6.1327081, 39.0778566 ], [ -6.1335655, 39.0771218 ], [ -6.1322798, 39.0744449 ], [ -6.130868, 39.0715281 ], [ -6.1294942, 39.068421 ], [ -6.1285741, 39.0659054 ], [ -6.1280143, 39.0636954 ], [ -6.1276319, 39.0615796 ], [ -6.1274486, 39.0563776 ], [ -6.1273213, 39.0548046 ], [ -6.1272072, 39.0540509 ], [ -6.1263462, 39.0523444 ], [ -6.1257742, 39.0509004 ], [ -6.1254218, 39.0502432 ], [ -6.1252455, 39.0500269 ], [ -6.1239468, 39.0504441 ], [ -6.1230713, 39.0512873 ], [ -6.1155326, 39.0590292 ], [ -6.1130229, 39.0610782 ], [ -6.1119223, 39.0618013 ], [ -6.1092591, 39.0629894 ], [ -6.1074719, 39.0638659 ], [ -6.106567, 39.0645747 ], [ -6.1057687, 39.0653437 ], [ -6.1034456, 39.0684955 ], [ -6.0999108, 39.0738055 ], [ -6.0988371, 39.0751494 ], [ -6.097524, 39.0765716 ], [ -6.0958036, 39.0781938 ], [ -6.0914326, 39.0821115 ], [ -6.090594, 39.0838183 ], [ -6.0899709, 39.0846366 ], [ -6.0891537, 39.0852439 ], [ -6.087524, 39.086305 ], [ -6.086436, 39.0868023 ], [ -6.0850242, 39.0875604 ], [ -6.0838392, 39.0884836 ], [ -6.0797254, 39.0927634 ], [ -6.0789814, 39.093729 ], [ -6.077686, 39.0945109 ], [ -6.0728672, 39.0972146 ], [ -6.0675318, 39.1005442 ], [ -6.0647535, 39.1015273 ], [ -6.0626162, 39.102097 ], [ -6.0614871, 39.1027212 ], [ -6.0600249, 39.1039476 ], [ -6.059702, 39.1042185 ], [ -6.0565287, 39.1067702 ], [ -6.0542673, 39.1084871 ], [ -6.0489311, 39.1121042 ], [ -6.0464059, 39.1136116 ], [ -6.0388226, 39.1177015 ], [ -6.0340756, 39.1191855 ], [ -6.0316315, 39.1198978 ], [ -6.0303678, 39.1211739 ], [ -6.0276798, 39.1232166 ], [ -6.0218816, 39.1274482 ], [ -6.0213633, 39.1277679 ], [ -6.0200335, 39.1285862 ], [ -6.0189344, 39.1291191 ], [ -6.0164924, 39.1293536 ], [ -6.0162613, 39.1293441 ], [ -6.0151484, 39.1292983 ], [ -6.0151503, 39.129312 ], [ -6.0151708, 39.129454 ], [ -6.0152142, 39.129756 ], [ -6.0150377, 39.130229 ], [ -6.0144958, 39.1305403 ], [ -6.0142279, 39.1305044 ], [ -6.0138212, 39.1304497 ], [ -6.0125353, 39.1301317 ], [ -6.0122705, 39.130148 ], [ -6.0122046, 39.1301317 ], [ -6.011201, 39.1301937 ], [ -6.0104889, 39.1305814 ], [ -6.0092427, 39.1317397 ], [ -6.0069768, 39.1344828 ], [ -6.0064697, 39.135613 ], [ -6.0059347, 39.1371763 ], [ -6.005396, 39.1394693 ], [ -6.0054189, 39.1402795 ], [ -6.0053117, 39.141021 ], [ -6.0049715, 39.1414532 ], [ -6.0035215, 39.1421752 ], [ -6.0025799, 39.1428842 ], [ -6.0018099, 39.1438229 ], [ -6.0012561, 39.1449453 ], [ -6.000733, 39.1462469 ], [ -5.9999597, 39.1479245 ], [ -5.999921, 39.1486461 ], [ -6.0004087, 39.1508677 ], [ -6.0003984, 39.151985 ], [ -6.000182, 39.1528824 ], [ -5.9997914, 39.1537664 ], [ -5.9990063, 39.1548946 ], [ -5.9987252, 39.1556316 ], [ -5.9982685, 39.1571388 ], [ -5.9976736, 39.1583882 ], [ -5.9970989, 39.1592949 ], [ -5.9961642, 39.1601748 ], [ -5.9954075, 39.1611582 ], [ -5.9949537, 39.1621878 ], [ -5.9948419, 39.1633708 ], [ -5.9949295, 39.1640712 ], [ -5.9950335, 39.1641905 ], [ -5.9952214, 39.164406 ], [ -5.9957868, 39.164914 ], [ -5.9957975, 39.1649546 ], [ -5.9958834, 39.1652808 ], [ -5.9953972, 39.1663654 ], [ -5.995333, 39.1667634 ], [ -5.9953145, 39.166872 ], [ -5.9953087, 39.1680973 ], [ -5.9950476, 39.1695276 ], [ -5.9949519, 39.1700523 ], [ -5.994449, 39.1721102 ], [ -5.9948054, 39.1734163 ], [ -5.9950504, 39.1745541 ], [ -5.9948412, 39.1753522 ], [ -5.9943185, 39.1758521 ], [ -5.9935094, 39.1764225 ], [ -5.9898492, 39.1780968 ] ] ] }, { "type": "LineString", "coordinates": [ [ -5.9895242, 39.1782455 ], [ -5.9895243, 39.1782455 ] ] } ] } }
]
}
