{
"type": "FeatureCollection",
"name": "10079",
"features": [
{ "type": "Feature", "properties": { "CCAA": "11 - Extremadura", "PROVINCIA": "10 - Cáceres", "MUNICIPIO": "10079 - Garganta la Olla", "COD_MUNICIPIO": "10079", "DISTRITO": "01", "SECCION": "1007901001", "V1_H": 78.77, "V1_M": 84.85, "V2_H": 78.83270398000001, "V2_M": 84.81764444, "V3_H": 78.82199574000001, "V3_M": 85.12573797 }, "geometry": { "type": "Polygon", "coordinates": [ [ [ -5.7340304, 40.1705776 ], [ -5.7352428, 40.1709453 ], [ -5.7369233, 40.1715631 ], [ -5.7372875, 40.1718608 ], [ -5.738183, 40.1728124 ], [ -5.7384476, 40.1729683 ], [ -5.7387768, 40.1729785 ], [ -5.741002, 40.1722502 ], [ -5.7418284, 40.1720685 ], [ -5.7418285, 40.1720685 ], [ -5.7445801, 40.1718772 ], [ -5.7455235, 40.1716836 ], [ -5.7463204, 40.1716467 ], [ -5.749327, 40.1702062 ], [ -5.749926, 40.17021 ], [ -5.7508592, 40.1706382 ], [ -5.7512338, 40.1706112 ], [ -5.7528638, 40.169978 ], [ -5.7534467, 40.169874 ], [ -5.7541509, 40.1698663 ], [ -5.7553653, 40.1699905 ], [ -5.7553654, 40.1699905 ], [ -5.7560929, 40.1702704 ], [ -5.7568675, 40.1702609 ], [ -5.7588639, 40.1688172 ], [ -5.7601474, 40.1680389 ], [ -5.7605055, 40.1678953 ], [ -5.763323, 40.1675938 ], [ -5.7643278, 40.1671825 ], [ -5.7644716, 40.1669629 ], [ -5.7644921, 40.1668903 ], [ -5.7645127, 40.1668178 ], [ -5.7645523, 40.1666367 ], [ -5.7647136, 40.1665608 ], [ -5.765454, 40.1660026 ], [ -5.766379, 40.1650707 ], [ -5.7668816, 40.1647254 ], [ -5.7682232, 40.1639367 ], [ -5.7701989, 40.1631508 ], [ -5.7717109, 40.1625111 ], [ -5.7728498, 40.1619343 ], [ -5.7736924, 40.1612926 ], [ -5.7742671, 40.1609906 ], [ -5.7755382, 40.1604917 ], [ -5.7760511, 40.1601903 ], [ -5.7765128, 40.1599189 ], [ -5.7796937, 40.1587526 ], [ -5.7798298, 40.1587162 ], [ -5.7801002, 40.1586437 ], [ -5.7805913, 40.1585959 ], [ -5.7812037, 40.1586442 ], [ -5.7812038, 40.1586442 ], [ -5.7817656, 40.1586037 ], [ -5.7818892, 40.1585493 ], [ -5.7821116, 40.1584512 ], [ -5.782555, 40.1580983 ], [ -5.7829969, 40.1574211 ], [ -5.7845204, 40.1564927 ], [ -5.7850225, 40.1561383 ], [ -5.7852368, 40.155926 ], [ -5.7855386, 40.1549819 ], [ -5.7867608, 40.1524304 ], [ -5.7875023, 40.1513317 ], [ -5.7886406, 40.1496018 ], [ -5.7894641, 40.1479245 ], [ -5.7897698, 40.1470795 ], [ -5.7900934, 40.1455223 ], [ -5.790127, 40.144909 ], [ -5.7902602, 40.1441491 ], [ -5.7905086, 40.1436207 ], [ -5.7914288, 40.1425897 ], [ -5.7920069, 40.1420893 ], [ -5.7925222, 40.1412031 ], [ -5.7929221, 40.1403648 ], [ -5.7934767, 40.138721 ], [ -5.7937122, 40.1381659 ], [ -5.794019, 40.1370596 ], [ -5.7952035, 40.135896 ], [ -5.7963922, 40.1351196 ], [ -5.7973543, 40.1339704 ], [ -5.7984953, 40.1331771 ], [ -5.7991979, 40.1328539 ], [ -5.7999738, 40.132601 ], [ -5.8007456, 40.132249 ], [ -5.8010276, 40.131972 ], [ -5.8012363, 40.1316246 ], [ -5.8012585, 40.1313088 ], [ -5.8011217, 40.1308347 ], [ -5.8011442, 40.1302397 ], [ -5.8013895, 40.1296392 ], [ -5.801793, 40.1291791 ], [ -5.8025958, 40.128439 ], [ -5.8035838, 40.1276404 ], [ -5.8041749, 40.1271757 ], [ -5.8058808, 40.1261436 ], [ -5.8066665, 40.1258453 ], [ -5.8075602, 40.1256074 ], [ -5.8089845, 40.1254288 ], [ -5.8093998, 40.1252565 ], [ -5.8100414, 40.1248807 ], [ -5.8106218, 40.1244432 ], [ -5.8110055, 40.1240736 ], [ -5.8117215, 40.1232274 ], [ -5.8122551, 40.1227912 ], [ -5.8126236, 40.1220525 ], [ -5.8137419, 40.1201518 ], [ -5.8145603, 40.1189429 ], [ -5.8154728, 40.1177407 ], [ -5.8162383, 40.116389 ], [ -5.8167496, 40.1157009 ], [ -5.8192649, 40.1129734 ], [ -5.8185563, 40.1120089 ], [ -5.8180308, 40.1114993 ], [ -5.8172716, 40.1110133 ], [ -5.8166055, 40.110507 ], [ -5.816059, 40.1097728 ], [ -5.8154111, 40.1082842 ], [ -5.8152066, 40.1075956 ], [ -5.8148105, 40.1045336 ], [ -5.8151456, 40.1032734 ], [ -5.8158918, 40.101742 ], [ -5.8163964, 40.1003246 ], [ -5.8168923, 40.099835 ], [ -5.8177725, 40.0995614 ], [ -5.8189102, 40.0989932 ], [ -5.8212709, 40.0976476 ], [ -5.8215205, 40.0974434 ], [ -5.8217066, 40.0971236 ], [ -5.8220182, 40.0969989 ], [ -5.8232937, 40.096076 ], [ -5.8237678, 40.0953438 ], [ -5.8240343, 40.0946978 ], [ -5.824337, 40.0929429 ], [ -5.8254466, 40.0911323 ], [ -5.825881, 40.090293 ], [ -5.8261056, 40.0894858 ], [ -5.8267162, 40.088372 ], [ -5.8274217, 40.0872828 ], [ -5.8278455, 40.0864708 ], [ -5.8283991, 40.0851152 ], [ -5.8287981, 40.084556 ], [ -5.8293798, 40.0838752 ], [ -5.8297968, 40.0834687 ], [ -5.8298758, 40.0833946 ], [ -5.8297658, 40.0827218 ], [ -5.8293911, 40.0818842 ], [ -5.8291657, 40.0815384 ], [ -5.8288091, 40.0811418 ], [ -5.8277897, 40.080311 ], [ -5.8257708, 40.077712 ], [ -5.8254283, 40.0773691 ], [ -5.824653, 40.0767664 ], [ -5.8234212, 40.076184 ], [ -5.8229726, 40.0761138 ], [ -5.8221953, 40.076313 ], [ -5.8214486, 40.0764032 ], [ -5.8209672, 40.0763879 ], [ -5.8204312, 40.0761848 ], [ -5.8196744, 40.0760321 ], [ -5.8180875, 40.0753681 ], [ -5.8158326, 40.0741439 ], [ -5.8150484, 40.0738928 ], [ -5.8141283, 40.0734737 ], [ -5.8133085, 40.0729262 ], [ -5.8121112, 40.0723247 ], [ -5.8103231, 40.0707558 ], [ -5.8097649, 40.0700127 ], [ -5.8097109, 40.0695546 ], [ -5.8092734, 40.0694661 ], [ -5.8086322, 40.0695537 ], [ -5.8074817, 40.0703743 ], [ -5.8068581, 40.0706056 ], [ -5.8062886, 40.0707276 ], [ -5.8048457, 40.0707084 ], [ -5.8044277, 40.0708087 ], [ -5.8031986, 40.0708565 ], [ -5.8024237, 40.0708301 ], [ -5.8017497, 40.0706934 ], [ -5.800809, 40.070626 ], [ -5.7996267, 40.0706726 ], [ -5.7996252, 40.0706729 ], [ -5.7972761, 40.0711078 ], [ -5.7965577, 40.0713143 ], [ -5.7965577, 40.0713143 ], [ -5.7950288, 40.0714864 ], [ -5.7940833, 40.0718785 ], [ -5.7935201, 40.0721533 ], [ -5.7932353, 40.0720607 ], [ -5.792617, 40.0718598 ], [ -5.792144, 40.0717631 ], [ -5.7917337, 40.071764 ], [ -5.7917337, 40.071764 ], [ -5.7911532, 40.0719041 ], [ -5.7899856, 40.0725989 ], [ -5.7891431, 40.0732136 ], [ -5.788239, 40.0737579 ], [ -5.7875718, 40.0740936 ], [ -5.7872049, 40.0742782 ], [ -5.7854248, 40.0749066 ], [ -5.7846199, 40.0752953 ], [ -5.7836283, 40.0759947 ], [ -5.7796912, 40.0775035 ], [ -5.7782807, 40.0779967 ], [ -5.7774219, 40.0782155 ], [ -5.7752408, 40.078502 ], [ -5.7745833, 40.0784818 ], [ -5.7740806, 40.0785208 ], [ -5.7735937, 40.0786586 ], [ -5.7724965, 40.079428 ], [ -5.7719177, 40.0798337 ], [ -5.7717178, 40.0799166 ], [ -5.771318, 40.0800823 ], [ -5.770402, 40.0803384 ], [ -5.7692814, 40.0804643 ], [ -5.7683529, 40.0809909 ], [ -5.7680867, 40.0810784 ], [ -5.7678411, 40.0810933 ], [ -5.7674735, 40.080994 ], [ -5.7669833, 40.0807625 ], [ -5.7665441, 40.0806288 ], [ -5.7661596, 40.0806921 ], [ -5.7661596, 40.0806921 ], [ -5.7646658, 40.0811602 ], [ -5.7639731, 40.0814289 ], [ -5.7636927, 40.0814536 ], [ -5.7633276, 40.0813313 ], [ -5.7630151, 40.0812266 ], [ -5.7617927, 40.0809552 ], [ -5.7614768, 40.080885 ], [ -5.7612928, 40.0808774 ], [ -5.7609248, 40.0808621 ], [ -5.7609248, 40.0808621 ], [ -5.7603642, 40.0809205 ], [ -5.7599732, 40.08111 ], [ -5.7586065, 40.0824037 ], [ -5.7580884, 40.0826412 ], [ -5.7576018, 40.0827879 ], [ -5.755778, 40.0823449 ], [ -5.7555347, 40.0823601 ], [ -5.7553101, 40.082374 ], [ -5.7553101, 40.0823741 ], [ -5.7545615, 40.0832927 ], [ -5.7544284, 40.083485 ], [ -5.7541402, 40.0838972 ], [ -5.7527807, 40.0862445 ], [ -5.7525243, 40.0865749 ], [ -5.752108, 40.0875937 ], [ -5.7518486, 40.0878521 ], [ -5.7509044, 40.0885771 ], [ -5.7506974, 40.0889694 ], [ -5.7506391, 40.089268 ], [ -5.7507319, 40.0898243 ], [ -5.7515952, 40.0908757 ], [ -5.7518989, 40.091427 ], [ -5.7519749, 40.0918576 ], [ -5.7518411, 40.0923201 ], [ -5.7517741, 40.0929883 ], [ -5.7519461, 40.0943443 ], [ -5.7519361, 40.0946779 ], [ -5.7514305, 40.0955186 ], [ -5.7512442, 40.0961356 ], [ -5.7509878, 40.0990872 ], [ -5.7508723, 40.0997115 ], [ -5.7510755, 40.1015532 ], [ -5.7511944, 40.1018837 ], [ -5.7515649, 40.1023433 ], [ -5.7528655, 40.1034744 ], [ -5.7538549, 40.1041534 ], [ -5.7546087, 40.1048111 ], [ -5.755356, 40.1053067 ], [ -5.756381, 40.1057057 ], [ -5.756541, 40.105891 ], [ -5.7570065, 40.1072491 ], [ -5.7570381, 40.1077438 ], [ -5.7567863, 40.1084794 ], [ -5.7563429, 40.1094087 ], [ -5.7552374, 40.1122455 ], [ -5.7548922, 40.1138661 ], [ -5.7544747, 40.1148578 ], [ -5.7545064, 40.1153525 ], [ -5.7545436, 40.1159822 ], [ -5.7543853, 40.1170038 ], [ -5.7542552, 40.1172681 ], [ -5.7539691, 40.1174461 ], [ -5.7535519, 40.1184469 ], [ -5.7534349, 40.1190351 ], [ -5.7532776, 40.1194982 ], [ -5.7529419, 40.1199026 ], [ -5.7519109, 40.1205216 ], [ -5.7513665, 40.1206967 ], [ -5.7509979, 40.1208676 ], [ -5.75015, 40.1216624 ], [ -5.7493167, 40.1222407 ], [ -5.7484734, 40.1231524 ], [ -5.747942, 40.1236515 ], [ -5.7476105, 40.1238666 ], [ -5.7471359, 40.1240309 ], [ -5.7463541, 40.1241396 ], [ -5.7435445, 40.1254673 ], [ -5.7427681, 40.1257109 ], [ -5.7462226, 40.1267009 ], [ -5.7466519, 40.1268708 ], [ -5.7468262, 40.127119 ], [ -5.7477072, 40.1280168 ], [ -5.7490764, 40.1296687 ], [ -5.7498408, 40.1308756 ], [ -5.7499891, 40.13121 ], [ -5.7500345, 40.1313124 ], [ -5.7500345, 40.1313124 ], [ -5.7501256, 40.1318237 ], [ -5.7500906, 40.13241 ], [ -5.750296, 40.1334319 ], [ -5.7502648, 40.13382 ], [ -5.7495246, 40.1369993 ], [ -5.7492267, 40.137763 ], [ -5.7492259, 40.1380333 ], [ -5.7502592, 40.1400805 ], [ -5.7506164, 40.1413691 ], [ -5.7509917, 40.1431077 ], [ -5.7509917, 40.1431077 ], [ -5.7511597, 40.144653 ], [ -5.7511454, 40.1447824 ], [ -5.7511167, 40.1450413 ], [ -5.7509145, 40.1458479 ], [ -5.7505276, 40.1467307 ], [ -5.7505276, 40.1467308 ], [ -5.7502568, 40.1487459 ], [ -5.7503751, 40.1490584 ], [ -5.7517743, 40.1511509 ], [ -5.7518537, 40.1513742 ], [ -5.7517552, 40.1521332 ], [ -5.7524931, 40.1541244 ], [ -5.7525282, 40.1544118 ], [ -5.7528222, 40.1552965 ], [ -5.752712, 40.1560558 ], [ -5.7524826, 40.1570611 ], [ -5.7523641, 40.1573251 ], [ -5.7522877, 40.1574098 ], [ -5.7521731, 40.1575368 ], [ -5.751165, 40.1581553 ], [ -5.7507107, 40.1585355 ], [ -5.7500141, 40.1593087 ], [ -5.7495946, 40.1596789 ], [ -5.7483276, 40.1605738 ], [ -5.7461192, 40.1625809 ], [ -5.7455398, 40.163063 ], [ -5.7441539, 40.1639246 ], [ -5.7433697, 40.1642765 ], [ -5.7423977, 40.1648242 ], [ -5.7404995, 40.1658938 ], [ -5.7387048, 40.16681 ], [ -5.7385756, 40.1668806 ], [ -5.7385325, 40.1669042 ], [ -5.7384327, 40.1670506 ], [ -5.7380803, 40.1673382 ], [ -5.7375479, 40.167531 ], [ -5.7375479, 40.167531 ], [ -5.7368387, 40.1679981 ], [ -5.7361162, 40.1687178 ], [ -5.7351249, 40.1694709 ], [ -5.7343046, 40.170391 ], [ -5.7340304, 40.1705776 ] ] ] } }
]
}
