{
"type": "FeatureCollection",
"name": "10134",
"features": [
{ "type": "Feature", "properties": { "CCAA": "11 - Extremadura", "PROVINCIA": "10 - Cáceres", "MUNICIPIO": "10134 - Navezuelas", "COD_MUNICIPIO": "10134", "DISTRITO": "01", "SECCION": "1013401001", "V1_H": 79.27, "V1_M": 85.17, "V2_H": 79.19654882, "V2_M": 85.28496149, "V3_H": 79.61871206, "V3_M": 85.37047204 }, "geometry": { "type": "Polygon", "coordinates": [ [ [ -5.4030292, 39.5307227 ], [ -5.4038256, 39.5315531 ], [ -5.4045086, 39.5324669 ], [ -5.4050405, 39.5333838 ], [ -5.4055165, 39.5346983 ], [ -5.4058892, 39.5353842 ], [ -5.406274, 39.5357456 ], [ -5.4067511, 39.5360871 ], [ -5.4069725, 39.5364339 ], [ -5.4071934, 39.5374383 ], [ -5.4072993, 39.5384812 ], [ -5.4074763, 39.5388919 ], [ -5.4084106, 39.5399986 ], [ -5.4085776, 39.5404547 ], [ -5.4089123, 39.5420603 ], [ -5.4089188, 39.5425827 ], [ -5.4088196, 39.5434136 ], [ -5.4087014, 39.5436953 ], [ -5.4086977, 39.5442629 ], [ -5.4094528, 39.5455716 ], [ -5.4101299, 39.5469809 ], [ -5.4107116, 39.5493292 ], [ -5.4108621, 39.5496414 ], [ -5.4111045, 39.5499247 ], [ -5.4123951, 39.5508979 ], [ -5.4127602, 39.5513588 ], [ -5.4132028, 39.5523766 ], [ -5.4138991, 39.5543351 ], [ -5.4141439, 39.5546814 ], [ -5.4146014, 39.5551222 ], [ -5.4155939, 39.5558854 ], [ -5.4171178, 39.5568717 ], [ -5.4176681, 39.5573017 ], [ -5.4186501, 39.5584344 ], [ -5.4208199, 39.5605874 ], [ -5.4213222, 39.5609733 ], [ -5.4224628, 39.5616432 ], [ -5.422828, 39.5621041 ], [ -5.42817, 39.5590917 ], [ -5.4300761, 39.5580158 ], [ -5.4466861, 39.5481447 ], [ -5.4452712, 39.546625 ], [ -5.4478495, 39.5454897 ], [ -5.4496655, 39.5441901 ], [ -5.4542874, 39.5406242 ], [ -5.457535, 39.5380241 ], [ -5.4581712, 39.5375872 ], [ -5.4591594, 39.5369086 ], [ -5.4614199, 39.5353562 ], [ -5.4667475, 39.5320451 ], [ -5.4699953, 39.5301293 ], [ -5.4710573, 39.5295662 ], [ -5.4776067, 39.526616 ], [ -5.4789533, 39.5262089 ], [ -5.4801019, 39.525797 ], [ -5.4808334, 39.5254301 ], [ -5.4812312, 39.5251693 ], [ -5.4814751, 39.5248308 ], [ -5.4815647, 39.5244054 ], [ -5.4815597, 39.5236127 ], [ -5.4817518, 39.5234555 ], [ -5.482417, 39.523189 ], [ -5.4829873, 39.5228705 ], [ -5.4842313, 39.521871 ], [ -5.4857332, 39.5202804 ], [ -5.4866806, 39.5194493 ], [ -5.4849403, 39.5189189 ], [ -5.4841729, 39.518602 ], [ -5.483506, 39.5181658 ], [ -5.4830502, 39.5177792 ], [ -5.4825296, 39.5172048 ], [ -5.4822076, 39.5166531 ], [ -5.4818938, 39.5163355 ], [ -5.4815765, 39.5162431 ], [ -5.4805666, 39.5163007 ], [ -5.4801469, 39.5162737 ], [ -5.4797828, 39.5161734 ], [ -5.478808, 39.5155815 ], [ -5.477834, 39.5153411 ], [ -5.4773246, 39.5150816 ], [ -5.4765427, 39.5143506 ], [ -5.475057, 39.5134543 ], [ -5.474435, 39.5129721 ], [ -5.4736044, 39.5121789 ], [ -5.4731861, 39.5118636 ], [ -5.4728438, 39.5113933 ], [ -5.4723971, 39.5102768 ], [ -5.4721236, 39.5097781 ], [ -5.4717724, 39.5087315 ], [ -5.4715576, 39.5082496 ], [ -5.4713406, 39.507047 ], [ -5.4712955, 39.506102 ], [ -5.4710533, 39.5055036 ], [ -5.4707745, 39.5051852 ], [ -5.4703101, 39.5048798 ], [ -5.4692335, 39.5043621 ], [ -5.468706, 39.5039138 ], [ -5.4684853, 39.5035942 ], [ -5.4681223, 39.5028632 ], [ -5.4673034, 39.5020698 ], [ -5.4669389, 39.5016271 ], [ -5.4666258, 39.5009941 ], [ -5.466701, 39.5001637 ], [ -5.4667227, 39.5001182 ], [ -5.4669664, 39.4994463 ], [ -5.4665482, 39.4991309 ], [ -5.4661213, 39.4988967 ], [ -5.4658167, 39.4981735 ], [ -5.4645183, 39.4966425 ], [ -5.4645863, 39.4962626 ], [ -5.4653761, 39.4955792 ], [ -5.4655823, 39.4951604 ], [ -5.4654982, 39.4947568 ], [ -5.4627871, 39.4930576 ], [ -5.461459, 39.4919957 ], [ -5.4593588, 39.4894815 ], [ -5.457504, 39.4876559 ], [ -5.4564171, 39.4865077 ], [ -5.4523496, 39.4815936 ], [ -5.4501349, 39.4787755 ], [ -5.4487828, 39.4766869 ], [ -5.4483708, 39.4762091 ], [ -5.448007, 39.4747843 ], [ -5.4477837, 39.4743836 ], [ -5.445645, 39.4733926 ], [ -5.4434371, 39.4717543 ], [ -5.4426792, 39.4710225 ], [ -5.4420177, 39.4700545 ], [ -5.4416343, 39.4693958 ], [ -5.4411266, 39.4678389 ], [ -5.4403888, 39.4670166 ], [ -5.4389404, 39.4661461 ], [ -5.4385373, 39.465587 ], [ -5.4380246, 39.4642194 ], [ -5.4375851, 39.463616 ], [ -5.4370643, 39.4630143 ], [ -5.4364733, 39.4627293 ], [ -5.4361484, 39.4624118 ], [ -5.4360304, 39.4620269 ], [ -5.4358832, 39.4608048 ], [ -5.4355878, 39.4600001 ], [ -5.435154, 39.4592254 ], [ -5.4326961, 39.4570607 ], [ -5.4320198, 39.4559938 ], [ -5.4315541, 39.4549675 ], [ -5.431191, 39.4538849 ], [ -5.4309076, 39.4534224 ], [ -5.4303729, 39.4530822 ], [ -5.4298412, 39.4524988 ], [ -5.4294948, 39.4518934 ], [ -5.4289607, 39.4515712 ], [ -5.4275177, 39.4508446 ], [ -5.4269356, 39.4504784 ], [ -5.4266933, 39.4501951 ], [ -5.4263803, 39.4495442 ], [ -5.4263803, 39.449544 ], [ -5.4263802, 39.449544 ], [ -5.4252385, 39.4501264 ], [ -5.4240815, 39.45061 ], [ -5.4240015, 39.4506477 ], [ -5.4197761, 39.4517807 ], [ -5.4168328, 39.4530312 ], [ -5.4164933, 39.453134 ], [ -5.4159703, 39.4532923 ], [ -5.4147797, 39.4538125 ], [ -5.4137123, 39.4545374 ], [ -5.4121144, 39.4557147 ], [ -5.411618, 39.4562007 ], [ -5.4110803, 39.4567272 ], [ -5.4106381, 39.457385 ], [ -5.4101875, 39.4577998 ], [ -5.4084458, 39.4588539 ], [ -5.4075996, 39.4595921 ], [ -5.406468, 39.4604804 ], [ -5.4053676, 39.4616023 ], [ -5.4050473, 39.4620864 ], [ -5.4051856, 39.4630655 ], [ -5.4050822, 39.4641127 ], [ -5.4051756, 39.4658135 ], [ -5.4050327, 39.4660507 ], [ -5.4046138, 39.4663747 ], [ -5.4023898, 39.4676098 ], [ -5.4015534, 39.4679605 ], [ -5.3996545, 39.4685132 ], [ -5.3990959, 39.468831 ], [ -5.3977355, 39.4698321 ], [ -5.3961223, 39.4712617 ], [ -5.3955508, 39.4715438 ], [ -5.3947424, 39.4716955 ], [ -5.3947423, 39.4716956 ], [ -5.3946275, 39.471685 ], [ -5.394101, 39.4716367 ], [ -5.3929744, 39.4713265 ], [ -5.3914905, 39.4707625 ], [ -5.3903422, 39.4701554 ], [ -5.3894092, 39.4697242 ], [ -5.3880378, 39.469392 ], [ -5.3834225, 39.4676669 ], [ -5.3825611, 39.4674086 ], [ -5.3823539, 39.4673465 ], [ -5.3818047, 39.4676009 ], [ -5.3791638, 39.4685559 ], [ -5.3770443, 39.4691218 ], [ -5.3770564, 39.4711846 ], [ -5.377313, 39.4718911 ], [ -5.3774062, 39.4720514 ], [ -5.3781156, 39.4732711 ], [ -5.3787005, 39.4744033 ], [ -5.3793239, 39.4753004 ], [ -5.3800219, 39.4759979 ], [ -5.3801424, 39.4760305 ], [ -5.3803622, 39.47609 ], [ -5.3807759, 39.4762887 ], [ -5.3813051, 39.4768094 ], [ -5.3832495, 39.4792831 ], [ -5.383962, 39.4800613 ], [ -5.3846587, 39.481056 ], [ -5.3862813, 39.4829507 ], [ -5.3863993, 39.4833446 ], [ -5.3862784, 39.4838877 ], [ -5.3856094, 39.4860817 ], [ -5.3860866, 39.4884772 ], [ -5.3864683, 39.4914784 ], [ -5.3865208, 39.4936935 ], [ -5.3867056, 39.4939961 ], [ -5.3875375, 39.4948619 ], [ -5.3877524, 39.495362 ], [ -5.3876139, 39.4970946 ], [ -5.3877141, 39.4976421 ], [ -5.3881856, 39.4988486 ], [ -5.3883638, 39.4996377 ], [ -5.3881591, 39.5001104 ], [ -5.3881159, 39.5002103 ], [ -5.3879435, 39.501286 ], [ -5.388051, 39.5017072 ], [ -5.3883906, 39.5021147 ], [ -5.3893759, 39.5030403 ], [ -5.3896428, 39.5033682 ], [ -5.389817, 39.5036979 ], [ -5.3899138, 39.5041464 ], [ -5.390334, 39.5079216 ], [ -5.3906085, 39.5094834 ], [ -5.3907734, 39.5098854 ], [ -5.3915801, 39.5113644 ], [ -5.3924683, 39.5128416 ], [ -5.3926085, 39.513199 ], [ -5.3927644, 39.5140157 ], [ -5.3929383, 39.5143364 ], [ -5.3932396, 39.5146455 ], [ -5.3941226, 39.515294 ], [ -5.3943532, 39.5159109 ], [ -5.3945162, 39.5165922 ], [ -5.3949313, 39.5175025 ], [ -5.3960623, 39.5202901 ], [ -5.3962505, 39.5210249 ], [ -5.3964491, 39.5213902 ], [ -5.397324, 39.5221379 ], [ -5.3983294, 39.5232974 ], [ -5.400749, 39.5249861 ], [ -5.4006458, 39.5253666 ], [ -5.4004913, 39.526622 ], [ -5.4006048, 39.5272143 ], [ -5.4007987, 39.5277778 ], [ -5.4012426, 39.5285074 ], [ -5.4026618, 39.5301898 ], [ -5.4030292, 39.5307227 ] ] ] } }
]
}
