{
"type": "FeatureCollection",
"name": "10168",
"features": [
{ "type": "Feature", "properties": { "CCAA": "11 - Extremadura", "PROVINCIA": "10 - Cáceres", "MUNICIPIO": "10168 - Santa Marta de Magasca", "COD_MUNICIPIO": "10168", "DISTRITO": "01", "SECCION": "1016801001", "V1_H": 79.2, "V1_M": 85.22, "V2_H": 79.18248439, "V2_M": 85.25623492, "V3_H": 79.42953696, "V3_M": 85.41396632 }, "geometry": { "type": "Polygon", "coordinates": [ [ [ -6.0480179, 39.5154931 ], [ -6.0495976, 39.5151814 ], [ -6.0501481, 39.5150048 ], [ -6.051141, 39.5145734 ], [ -6.0526416, 39.5137863 ], [ -6.0532138, 39.5135731 ], [ -6.0544183, 39.5134603 ], [ -6.0564399, 39.5134162 ], [ -6.0573763, 39.5135537 ], [ -6.0578008, 39.5136867 ], [ -6.0580995, 39.5138679 ], [ -6.0588484, 39.514767 ], [ -6.0593785, 39.5151855 ], [ -6.0607646, 39.5155003 ], [ -6.0611236, 39.5154638 ], [ -6.0619094, 39.5156142 ], [ -6.0624337, 39.5156364 ], [ -6.0634666, 39.5158524 ], [ -6.0641688, 39.515951 ], [ -6.0651046, 39.5163407 ], [ -6.0665614, 39.5174643 ], [ -6.06687, 39.5178705 ], [ -6.0683283, 39.5190301 ], [ -6.068837, 39.5192238 ], [ -6.0707369, 39.5193177 ], [ -6.0722458, 39.519512 ], [ -6.0725843, 39.5192778 ], [ -6.0732104, 39.5176489 ], [ -6.0735888, 39.5169993 ], [ -6.0740063, 39.516709 ], [ -6.0751073, 39.5160943 ], [ -6.0760423, 39.5156732 ], [ -6.0766532, 39.515549 ], [ -6.0769774, 39.5152521 ], [ -6.0775579, 39.5149665 ], [ -6.0779513, 39.5149201 ], [ -6.0782325, 39.5149666 ], [ -6.0783306, 39.5150811 ], [ -6.0783504, 39.516585 ], [ -6.0785538, 39.5169759 ], [ -6.0789403, 39.517299 ], [ -6.079092, 39.5175742 ], [ -6.0789929, 39.5179642 ], [ -6.0778307, 39.5195623 ], [ -6.0777085, 39.5199529 ], [ -6.0777871, 39.5204193 ], [ -6.0779768, 39.5210268 ], [ -6.0779715, 39.5214323 ], [ -6.0782241, 39.521885 ], [ -6.0785119, 39.522607 ], [ -6.0786947, 39.5235841 ], [ -6.0788312, 39.5237786 ], [ -6.0796991, 39.5244673 ], [ -6.0800873, 39.524565 ], [ -6.0813576, 39.5243602 ], [ -6.0827142, 39.5239999 ], [ -6.0838276, 39.5239253 ], [ -6.0842654, 39.5238326 ], [ -6.085692, 39.5240019 ], [ -6.0865012, 39.5238904 ], [ -6.0875383, 39.5239348 ], [ -6.0880419, 39.5240116 ], [ -6.0888791, 39.5242686 ], [ -6.089655, 39.5247164 ], [ -6.0900703, 39.5248669 ], [ -6.0902107, 39.5249177 ], [ -6.0906532, 39.5251942 ], [ -6.0914997, 39.5253969 ], [ -6.0921135, 39.5255967 ], [ -6.0926863, 39.5259238 ], [ -6.0930407, 39.5268332 ], [ -6.0933975, 39.528319 ], [ -6.0944225, 39.5301834 ], [ -6.0949169, 39.5305756 ], [ -6.0951585, 39.5310375 ], [ -6.0952562, 39.5314043 ], [ -6.0955679, 39.5316122 ], [ -6.0959297, 39.5316385 ], [ -6.0971125, 39.5307693 ], [ -6.0974878, 39.5305791 ], [ -6.0992294, 39.5305056 ], [ -6.0996205, 39.5306663 ], [ -6.0998985, 39.5309022 ], [ -6.1001589, 39.5315257 ], [ -6.1003524, 39.5322142 ], [ -6.1011762, 39.5334713 ], [ -6.1011421, 39.5337515 ], [ -6.1009206, 39.5340006 ], [ -6.1000908, 39.5344372 ], [ -6.0998584, 39.5347046 ], [ -6.0994818, 39.5353902 ], [ -6.0993003, 39.5360166 ], [ -6.0993143, 39.5363315 ], [ -6.0996548, 39.5366647 ], [ -6.1008942, 39.5373253 ], [ -6.1020657, 39.5377714 ], [ -6.1027802, 39.5378784 ], [ -6.1035927, 39.5378387 ], [ -6.104802, 39.5375632 ], [ -6.1051397, 39.5375722 ], [ -6.1056142, 39.5385594 ], [ -6.106398, 39.5389167 ], [ -6.1073036, 39.5391357 ], [ -6.1080268, 39.5391794 ], [ -6.1087601, 39.5389256 ], [ -6.1092044, 39.5387156 ], [ -6.1096195, 39.5386324 ], [ -6.1100615, 39.5386295 ], [ -6.1106011, 39.538471 ], [ -6.1114586, 39.5381327 ], [ -6.1120472, 39.5380269 ], [ -6.1123881, 39.5381078 ], [ -6.1144051, 39.5397653 ], [ -6.1148631, 39.5398611 ], [ -6.1153252, 39.5400468 ], [ -6.1158482, 39.5405553 ], [ -6.1168915, 39.5417704 ], [ -6.1173837, 39.5421085 ], [ -6.1182332, 39.5423739 ], [ -6.1188756, 39.54269 ], [ -6.11926, 39.5429589 ], [ -6.1200494, 39.5431809 ], [ -6.1211724, 39.5435741 ], [ -6.12145, 39.5435397 ], [ -6.1223391, 39.5431284 ], [ -6.1232678, 39.5428242 ], [ -6.1240852, 39.5426311 ], [ -6.1251143, 39.5427475 ], [ -6.1260984, 39.54264 ], [ -6.1270877, 39.5426493 ], [ -6.1280955, 39.5428114 ], [ -6.1289603, 39.5428962 ], [ -6.1302192, 39.5426911 ], [ -6.1314748, 39.5421528 ], [ -6.1336779, 39.5414719 ], [ -6.1353821, 39.541597 ], [ -6.1368674, 39.5420253 ], [ -6.1373242, 39.5420941 ], [ -6.1397321, 39.5415696 ], [ -6.1422388, 39.5414297 ], [ -6.1440092, 39.5409585 ], [ -6.1446573, 39.5406257 ], [ -6.1444826, 39.540108 ], [ -6.1441939, 39.5396383 ], [ -6.1438809, 39.537602 ], [ -6.1437441, 39.5374076 ], [ -6.1434512, 39.5373504 ], [ -6.1432981, 39.5373205 ], [ -6.1427901, 39.5374064 ], [ -6.1422825, 39.537442 ], [ -6.1421639, 39.5374503 ], [ -6.1418456, 39.5374392 ], [ -6.1415813, 39.53743 ], [ -6.1409571, 39.537519 ], [ -6.1402809, 39.5377444 ], [ -6.1385928, 39.5384927 ], [ -6.1377902, 39.5390098 ], [ -6.1373322, 39.5391753 ], [ -6.1372802, 39.5391767 ], [ -6.1369605, 39.5391853 ], [ -6.1366863, 39.5390396 ], [ -6.1365803, 39.5387542 ], [ -6.1365395, 39.5381068 ], [ -6.1366723, 39.5376978 ], [ -6.1370561, 39.5374352 ], [ -6.137842, 39.5370627 ], [ -6.1398553, 39.5363057 ], [ -6.1399569, 39.5359787 ], [ -6.1399274, 39.5355831 ], [ -6.1396091, 39.5352314 ], [ -6.1389775, 39.5348972 ], [ -6.1378234, 39.534586 ], [ -6.1372533, 39.5345834 ], [ -6.1361194, 39.5344609 ], [ -6.135854, 39.5342519 ], [ -6.1355151, 39.5334413 ], [ -6.1355177, 39.5329818 ], [ -6.1356598, 39.5327798 ], [ -6.1368974, 39.5321069 ], [ -6.1377831, 39.5318848 ], [ -6.1389613, 39.5316998 ], [ -6.1396836, 39.5314641 ], [ -6.1400187, 39.5311578 ], [ -6.1401723, 39.5306942 ], [ -6.1401565, 39.5303433 ], [ -6.1399037, 39.5296385 ], [ -6.1392818, 39.5287455 ], [ -6.1388365, 39.5284153 ], [ -6.1384232, 39.5280211 ], [ -6.1384659, 39.5276777 ], [ -6.1387695, 39.5274442 ], [ -6.1400428, 39.5270495 ], [ -6.1423632, 39.5264013 ], [ -6.1433717, 39.5260677 ], [ -6.1446444, 39.5259162 ], [ -6.1456072, 39.5256018 ], [ -6.1458443, 39.5254423 ], [ -6.1457893, 39.5252546 ], [ -6.1454734, 39.5249569 ], [ -6.1447424, 39.5244813 ], [ -6.1438205, 39.5236415 ], [ -6.1433564, 39.5231495 ], [ -6.1430723, 39.5225267 ], [ -6.1428098, 39.521606 ], [ -6.1426635, 39.5214568 ], [ -6.1426458, 39.5214553 ], [ -6.1424183, 39.5214364 ], [ -6.140815, 39.521732 ], [ -6.1401895, 39.5220462 ], [ -6.1390792, 39.5237336 ], [ -6.1383047, 39.5245346 ], [ -6.1383012, 39.5245383 ], [ -6.1380593, 39.5245899 ], [ -6.1378201, 39.5244432 ], [ -6.1375578, 39.524045 ], [ -6.136662, 39.5230062 ], [ -6.1366421, 39.5225654 ], [ -6.1368487, 39.5214699 ], [ -6.137157, 39.5203085 ], [ -6.1371155, 39.5199043 ], [ -6.1368942, 39.51964 ], [ -6.1365836, 39.5194592 ], [ -6.1364544, 39.5194574 ], [ -6.1361414, 39.5194532 ], [ -6.1347286, 39.5197856 ], [ -6.1347144, 39.5197889 ], [ -6.1342025, 39.5197847 ], [ -6.133787, 39.5195978 ], [ -6.1334111, 39.5192566 ], [ -6.1327769, 39.5180846 ], [ -6.1326445, 39.5177279 ], [ -6.1326852, 39.5173394 ], [ -6.1332649, 39.5157475 ], [ -6.1338717, 39.5147582 ], [ -6.13403, 39.5141414 ], [ -6.1339113, 39.5138293 ], [ -6.1331584, 39.51312 ], [ -6.1323655, 39.5125559 ], [ -6.1320974, 39.5122839 ], [ -6.1318247, 39.5113904 ], [ -6.1315095, 39.5111459 ], [ -6.1314993, 39.511138 ], [ -6.1311508, 39.5111474 ], [ -6.1307744, 39.5113106 ], [ -6.1303107, 39.5116024 ], [ -6.1299149, 39.5116731 ], [ -6.1298954, 39.5116766 ], [ -6.1278828, 39.5116587 ], [ -6.1275054, 39.5115428 ], [ -6.1272999, 39.5113682 ], [ -6.127477, 39.5099939 ], [ -6.1276191, 39.5088914 ], [ -6.1277327, 39.508573 ], [ -6.1276272, 39.5082966 ], [ -6.1273007, 39.5081723 ], [ -6.1272959, 39.5081704 ], [ -6.1252871, 39.5081858 ], [ -6.1249594, 39.5081883 ], [ -6.1244295, 39.5080404 ], [ -6.1226186, 39.5073324 ], [ -6.121833, 39.5069302 ], [ -6.1213624, 39.5065464 ], [ -6.1210435, 39.5061767 ], [ -6.1207779, 39.5060702 ], [ -6.1206646, 39.5060247 ], [ -6.1198236, 39.5062005 ], [ -6.1191541, 39.5065697 ], [ -6.1185542, 39.5066971 ], [ -6.1184744, 39.5067141 ], [ -6.1180779, 39.5066887 ], [ -6.1175692, 39.5064951 ], [ -6.1170878, 39.5061298 ], [ -6.1165245, 39.5054963 ], [ -6.1160646, 39.504833 ], [ -6.1159284, 39.504125 ], [ -6.1161508, 39.502858 ], [ -6.1160666, 39.502536 ], [ -6.1158635, 39.502154 ], [ -6.1155425, 39.5012168 ], [ -6.1156874, 39.5008166 ], [ -6.1157574, 39.5003012 ], [ -6.1157634, 39.500175 ], [ -6.115761, 39.500121 ], [ -6.1157205, 39.4994736 ], [ -6.1157102, 39.4987261 ], [ -6.1160084, 39.4975922 ], [ -6.1159646, 39.4968727 ], [ -6.1157903, 39.4963549 ], [ -6.1154595, 39.4959764 ], [ -6.1149329, 39.4956392 ], [ -6.1141556, 39.4954169 ], [ -6.1127312, 39.4952839 ], [ -6.1112599, 39.4946207 ], [ -6.1105776, 39.4941795 ], [ -6.1102103, 39.493766 ], [ -6.1098827, 39.4931982 ], [ -6.1096432, 39.49252 ], [ -6.1096615, 39.4913665 ], [ -6.1095041, 39.4907042 ], [ -6.1087557, 39.4893009 ], [ -6.1086234, 39.4886829 ], [ -6.1088707, 39.4866675 ], [ -6.1090729, 39.4857253 ], [ -6.1094327, 39.4849319 ], [ -6.1095528, 39.4844963 ], [ -6.1094591, 39.4839584 ], [ -6.1092333, 39.4835861 ], [ -6.1088778, 39.4834334 ], [ -6.1083059, 39.4833997 ], [ -6.1080385, 39.4833838 ], [ -6.1074636, 39.4835253 ], [ -6.1064812, 39.4839119 ], [ -6.104832, 39.4844694 ], [ -6.103349, 39.4851036 ], [ -6.1027023, 39.4852874 ], [ -6.1026143, 39.4853124 ], [ -6.1020422, 39.4852556 ], [ -6.1016097, 39.4849428 ], [ -6.1012931, 39.4843568 ], [ -6.1013692, 39.4837152 ], [ -6.1018657, 39.4831164 ], [ -6.1023453, 39.4826622 ], [ -6.1037326, 39.4817064 ], [ -6.1040985, 39.4813092 ], [ -6.1039912, 39.4807266 ], [ -6.1033735, 39.4801665 ], [ -6.1026128, 39.4797905 ], [ -6.1021495, 39.4797303 ], [ -6.101923, 39.4797009 ], [ -6.1012456, 39.4798901 ], [ -6.1000245, 39.4806613 ], [ -6.099439, 39.4810864 ], [ -6.0985043, 39.4817648 ], [ -6.0980909, 39.4821345 ], [ -6.0980683, 39.4821548 ], [ -6.097567, 39.4821231 ], [ -6.0969297, 39.4816446 ], [ -6.0966407, 39.4811569 ], [ -6.0967152, 39.4807405 ], [ -6.0966868, 39.4803629 ], [ -6.0964639, 39.4797924 ], [ -6.0964671, 39.4793419 ], [ -6.0967093, 39.4790382 ], [ -6.0978148, 39.4782791 ], [ -6.0980494, 39.4780656 ], [ -6.0981715, 39.4775921 ], [ -6.0984659, 39.4764511 ], [ -6.0984003, 39.4760205 ], [ -6.0975081, 39.4747741 ], [ -6.0965038, 39.4738821 ], [ -6.0929973, 39.4713451 ], [ -6.092556, 39.4710866 ], [ -6.0904512, 39.4705391 ], [ -6.0898321, 39.4702042 ], [ -6.0891942, 39.4697077 ], [ -6.0887643, 39.4691877 ], [ -6.0886271, 39.4687139 ], [ -6.088819, 39.4683215 ], [ -6.0893363, 39.4679294 ], [ -6.0923589, 39.4671644 ], [ -6.0934221, 39.4667667 ], [ -6.0942515, 39.4663393 ], [ -6.0947295, 39.4658491 ], [ -6.0948793, 39.4655569 ], [ -6.0948141, 39.4651353 ], [ -6.0946172, 39.4648883 ], [ -6.0942978, 39.4647617 ], [ -6.0938199, 39.4647293 ], [ -6.0934668, 39.4648919 ], [ -6.0929488, 39.465266 ], [ -6.0925169, 39.4657459 ], [ -6.0919797, 39.4659494 ], [ -6.0914145, 39.4660455 ], [ -6.0904606, 39.4660258 ], [ -6.0893607, 39.4658569 ], [ -6.0880354, 39.4658471 ], [ -6.086776, 39.4662769 ], [ -6.0858097, 39.4665007 ], [ -6.0825968, 39.4674327 ], [ -6.0818586, 39.4675604 ], [ -6.0808519, 39.4676591 ], [ -6.0799772, 39.4678535 ], [ -6.0765126, 39.4691433 ], [ -6.07601, 39.469607 ], [ -6.0743542, 39.4710651 ], [ -6.0732174, 39.4716447 ], [ -6.0734489, 39.4724133 ], [ -6.0737405, 39.4737568 ], [ -6.0731205, 39.4752505 ], [ -6.0726542, 39.4760105 ], [ -6.0717519, 39.4766379 ], [ -6.0712357, 39.4770569 ], [ -6.0702697, 39.4786138 ], [ -6.0676389, 39.4795841 ], [ -6.0656701, 39.4808071 ], [ -6.0644399, 39.4784704 ], [ -6.0654844, 39.476317 ], [ -6.0673821, 39.4732131 ], [ -6.0678415, 39.47203 ], [ -6.0677705, 39.4714734 ], [ -6.0673214, 39.4707736 ], [ -6.0652893, 39.4702867 ], [ -6.0637285, 39.4696793 ], [ -6.0611917, 39.4704037 ], [ -6.0603221, 39.4712464 ], [ -6.0601201, 39.4716751 ], [ -6.0601153, 39.4723598 ], [ -6.0598107, 39.4728362 ], [ -6.0599131, 39.4735812 ], [ -6.0591564, 39.475673 ], [ -6.0571663, 39.4750858 ], [ -6.0566661, 39.4758737 ], [ -6.0554, 39.4790778 ], [ -6.0549728, 39.4796746 ], [ -6.0545729, 39.4811624 ], [ -6.0544614, 39.4815346 ], [ -6.0547115, 39.4816722 ], [ -6.0549629, 39.4818367 ], [ -6.0549881, 39.4829441 ], [ -6.0549785, 39.4829894 ], [ -6.0548612, 39.4829655 ], [ -6.0539708, 39.4828087 ], [ -6.0537959, 39.4827953 ], [ -6.0528863, 39.4827291 ], [ -6.0507583, 39.4827129 ], [ -6.0492337, 39.4821404 ], [ -6.0487016, 39.4821994 ], [ -6.0480156, 39.4819291 ], [ -6.0474039, 39.481765 ], [ -6.0437037, 39.4822133 ], [ -6.0402687, 39.4828798 ], [ -6.0381249, 39.483035 ], [ -6.0370269, 39.4831807 ], [ -6.0361979, 39.4833645 ], [ -6.0327387, 39.4864186 ], [ -6.0327276, 39.489905 ], [ -6.0326221, 39.4904212 ], [ -6.032316, 39.4914021 ], [ -6.0320398, 39.4936073 ], [ -6.0347886, 39.4934544 ], [ -6.0356963, 39.4940072 ], [ -6.0360006, 39.4940533 ], [ -6.0372639, 39.493696 ], [ -6.0380384, 39.4935947 ], [ -6.0395657, 39.4936899 ], [ -6.0406218, 39.4939145 ], [ -6.0416235, 39.4942216 ], [ -6.0430083, 39.4945186 ], [ -6.04355, 39.4946755 ], [ -6.0442788, 39.4951249 ], [ -6.0448941, 39.49537 ], [ -6.0469297, 39.4956589 ], [ -6.0479272, 39.495867 ], [ -6.0476645, 39.4973061 ], [ -6.0472538, 39.4990825 ], [ -6.0472347, 39.4994433 ], [ -6.0476286, 39.5002076 ], [ -6.0471666, 39.5040031 ], [ -6.0471816, 39.5043451 ], [ -6.0472874, 39.5046396 ], [ -6.0472915, 39.5049998 ], [ -6.0470364, 39.505547 ], [ -6.0466143, 39.5059995 ], [ -6.0470531, 39.5072581 ], [ -6.0480391, 39.5093311 ], [ -6.0481058, 39.510059 ], [ -6.0477817, 39.5143463 ], [ -6.0478983, 39.5146225 ], [ -6.0480179, 39.5154931 ] ] ] } }
]
}
