{
"type": "FeatureCollection",
"name": "10186",
"features": [
{ "type": "Feature", "properties": { "CCAA": "11 - Extremadura", "PROVINCIA": "10 - Cáceres", "MUNICIPIO": "10186 - Torrecillas de la Tiesa", "COD_MUNICIPIO": "10186", "DISTRITO": "01", "SECCION": "1018601001", "V1_H": 79.57, "V1_M": 85.52, "V2_H": 79.5571672, "V2_M": 85.61629353, "V3_H": 79.73611669, "V3_M": 85.61269153000001 }, "geometry": { "type": "Polygon", "coordinates": [ [ [ -5.7519707, 39.6338127 ], [ -5.7523442, 39.6344164 ], [ -5.752966, 39.6351133 ], [ -5.7530965, 39.6351732 ], [ -5.755382, 39.6355154 ], [ -5.7557905, 39.6355327 ], [ -5.7561012, 39.6354353 ], [ -5.7569927, 39.6349997 ], [ -5.7580831, 39.6345865 ], [ -5.7586398, 39.634231 ], [ -5.7588698, 39.6341534 ], [ -5.7593572, 39.6341058 ], [ -5.7600358, 39.6341797 ], [ -5.7615979, 39.6344939 ], [ -5.7640247, 39.6351659 ], [ -5.7664501, 39.6358018 ], [ -5.769268, 39.6363472 ], [ -5.769858, 39.6365313 ], [ -5.7702616, 39.6367198 ], [ -5.7712617, 39.6369662 ], [ -5.7721122, 39.636964 ], [ -5.7723468, 39.6370034 ], [ -5.7729619, 39.6372319 ], [ -5.7733476, 39.6375561 ], [ -5.7743749, 39.6381892 ], [ -5.7770397, 39.6392695 ], [ -5.7774342, 39.6395213 ], [ -5.7783485, 39.6399498 ], [ -5.7795161, 39.6403002 ], [ -5.7802853, 39.6405971 ], [ -5.7817099, 39.6412566 ], [ -5.782904, 39.6416874 ], [ -5.784047, 39.6420023 ], [ -5.7853615, 39.642241 ], [ -5.7861039, 39.6424485 ], [ -5.787632, 39.6430694 ], [ -5.788203, 39.6433619 ], [ -5.7884201, 39.6435459 ], [ -5.7891505, 39.6440328 ], [ -5.790145, 39.6444233 ], [ -5.7906972, 39.6445362 ], [ -5.7911872, 39.6445514 ], [ -5.7916867, 39.6445124 ], [ -5.792889, 39.6442762 ], [ -5.7963453, 39.6444543 ], [ -5.7979367, 39.6446232 ], [ -5.7990907, 39.6449197 ], [ -5.7999208, 39.645278 ], [ -5.801501, 39.6466092 ], [ -5.8018841, 39.6468611 ], [ -5.8023115, 39.647058 ], [ -5.8027801, 39.6471188 ], [ -5.8037612, 39.6474644 ], [ -5.8054464, 39.6482165 ], [ -5.8066177, 39.6486566 ], [ -5.8070409, 39.6490337 ], [ -5.8073108, 39.6490812 ], [ -5.8079751, 39.6490832 ], [ -5.8092241, 39.6488458 ], [ -5.8100494, 39.6485105 ], [ -5.8106599, 39.6483335 ], [ -5.8113095, 39.6479755 ], [ -5.8129295, 39.6474048 ], [ -5.8144158, 39.6467022 ], [ -5.8152329, 39.6464482 ], [ -5.8153718, 39.6464268 ], [ -5.8161031, 39.646355 ], [ -5.8164439, 39.6464278 ], [ -5.8167081, 39.6466196 ], [ -5.8170526, 39.6467823 ], [ -5.8174247, 39.6467643 ], [ -5.8177477, 39.6466844 ], [ -5.8200597, 39.6453671 ], [ -5.8208145, 39.6450155 ], [ -5.8214924, 39.6447828 ], [ -5.8219206, 39.6447094 ], [ -5.8223902, 39.6447971 ], [ -5.8232063, 39.6450925 ], [ -5.8247279, 39.6458302 ], [ -5.8277513, 39.6471078 ], [ -5.8283403, 39.6472646 ], [ -5.8295954, 39.6474682 ], [ -5.8328253, 39.6475156 ], [ -5.8335851, 39.6475782 ], [ -5.8335852, 39.6475782 ], [ -5.8335853, 39.6475781 ], [ -5.8335852, 39.6475781 ], [ -5.8335851, 39.6475781 ], [ -5.8345651, 39.6464642 ], [ -5.8345651, 39.6464642 ], [ -5.8347268, 39.646145 ], [ -5.834762, 39.6458649 ], [ -5.834762, 39.6458649 ], [ -5.834762, 39.6458649 ], [ -5.8343096, 39.6444887 ], [ -5.8337827, 39.6432854 ], [ -5.8334494, 39.6422576 ], [ -5.8334494, 39.6422576 ], [ -5.8333582, 39.6417373 ], [ -5.8336555, 39.6410275 ], [ -5.8336555, 39.6410274 ], [ -5.8330017, 39.6407101 ], [ -5.8311332, 39.6391792 ], [ -5.8306453, 39.6386416 ], [ -5.829863, 39.6388859 ], [ -5.8300045, 39.6380717 ], [ -5.8305878, 39.6369495 ], [ -5.8305879, 39.6369495 ], [ -5.8290924, 39.6354185 ], [ -5.8280164, 39.6338863 ], [ -5.8277293, 39.6334158 ], [ -5.8274363, 39.6330897 ], [ -5.8266547, 39.6324331 ], [ -5.8261336, 39.6319953 ], [ -5.8234673, 39.6294568 ], [ -5.8226964, 39.628836 ], [ -5.8232083, 39.6279587 ], [ -5.8242136, 39.6268078 ], [ -5.8248, 39.6261364 ], [ -5.8264105, 39.6242055 ], [ -5.8281064, 39.6226598 ], [ -5.8288166, 39.6223632 ], [ -5.8296354, 39.6218749 ], [ -5.8314602, 39.6209205 ], [ -5.8318877, 39.6205498 ], [ -5.8322327, 39.620154 ], [ -5.8331658, 39.6193295 ], [ -5.8354949, 39.6176061 ], [ -5.8362573, 39.6171641 ], [ -5.8370135, 39.6168574 ], [ -5.8381164, 39.6161999 ], [ -5.839692, 39.6148551 ], [ -5.8399551, 39.6147361 ], [ -5.8402181, 39.6146171 ], [ -5.8414456, 39.6144429 ], [ -5.841776, 39.6142637 ], [ -5.8422819, 39.6138189 ], [ -5.842542, 39.6133441 ], [ -5.8425112, 39.6128764 ], [ -5.8421321, 39.6124353 ], [ -5.8415123, 39.6120901 ], [ -5.8410403, 39.6119395 ], [ -5.8399298, 39.6118406 ], [ -5.8395939, 39.6118849 ], [ -5.8388864, 39.6120656 ], [ -5.8382683, 39.6122235 ], [ -5.8366479, 39.6124703 ], [ -5.8364062, 39.6125393 ], [ -5.8351629, 39.6131822 ], [ -5.8344598, 39.6133615 ], [ -5.8344598, 39.6133615 ], [ -5.834191, 39.613341 ], [ -5.8337404, 39.6131448 ], [ -5.8332855, 39.6128406 ], [ -5.8330388, 39.6125044 ], [ -5.8330594, 39.6121525 ], [ -5.8333247, 39.6118037 ], [ -5.8344573, 39.6110194 ], [ -5.8347136, 39.6107339 ], [ -5.8348618, 39.6103699 ], [ -5.8347623, 39.609931 ], [ -5.8340927, 39.6083618 ], [ -5.8331121, 39.6070894 ], [ -5.8325187, 39.6063194 ], [ -5.8322262, 39.6060022 ], [ -5.8320869, 39.6057264 ], [ -5.8320869, 39.6057263 ], [ -5.8320975, 39.6056831 ], [ -5.8321268, 39.6055632 ], [ -5.832282, 39.6053703 ], [ -5.8326586, 39.6051809 ], [ -5.8332621, 39.6051302 ], [ -5.8354232, 39.6052936 ], [ -5.836146, 39.605312 ], [ -5.8370119, 39.6051287 ], [ -5.8372943, 39.6049146 ], [ -5.8375424, 39.6044311 ], [ -5.8377579, 39.603435 ], [ -5.8376653, 39.6020229 ], [ -5.8378172, 39.6011815 ], [ -5.8378465, 39.5999016 ], [ -5.8377149, 39.5992472 ], [ -5.8374915, 39.5986221 ], [ -5.8372572, 39.5983035 ], [ -5.8365896, 39.5979234 ], [ -5.8363308, 39.5978577 ], [ -5.8357959, 39.5975915 ], [ -5.8347732, 39.5976833 ], [ -5.8346938, 39.5976904 ], [ -5.8346937, 39.5976904 ], [ -5.8343327, 39.5976903 ], [ -5.8339293, 39.5977902 ], [ -5.8337741, 39.5979831 ], [ -5.8337637, 39.5982987 ], [ -5.8340277, 39.5993462 ], [ -5.8339704, 39.5999422 ], [ -5.8338531, 39.6002063 ], [ -5.8335283, 39.6005205 ], [ -5.8330409, 39.6008477 ], [ -5.8323208, 39.6011805 ], [ -5.831629, 39.6013505 ], [ -5.8306537, 39.6014193 ], [ -5.8301171, 39.6013964 ], [ -5.8291881, 39.6011758 ], [ -5.8281926, 39.6007496 ], [ -5.8277032, 39.6004553 ], [ -5.8259672, 39.5987139 ], [ -5.8259672, 39.5987139 ], [ -5.8267699, 39.5978385 ], [ -5.8306452, 39.5926365 ], [ -5.8337178, 39.5894627 ], [ -5.8344241, 39.5885086 ], [ -5.8351863, 39.5869316 ], [ -5.8353891, 39.5859087 ], [ -5.8353812, 39.5825759 ], [ -5.8348706, 39.5789039 ], [ -5.8345521, 39.5773713 ], [ -5.8335702, 39.5767016 ], [ -5.8330745, 39.574822 ], [ -5.8325376, 39.5733577 ], [ -5.8318547, 39.5720231 ], [ -5.8315588, 39.571616 ], [ -5.831361, 39.5710443 ], [ -5.831259, 39.5705423 ], [ -5.8312508, 39.5677679 ], [ -5.8312509, 39.5677679 ], [ -5.8314051, 39.5661247 ], [ -5.8318686, 39.564645 ], [ -5.8302972, 39.5649265 ], [ -5.8283941, 39.5653512 ], [ -5.8264834, 39.5658752 ], [ -5.8262573, 39.5659159 ], [ -5.8259634, 39.5659689 ], [ -5.8254176, 39.5660002 ], [ -5.8250074, 39.5659291 ], [ -5.8248657, 39.5658785 ], [ -5.8246531, 39.5658026 ], [ -5.8230072, 39.5648247 ], [ -5.8217346, 39.5638647 ], [ -5.8213189, 39.5636586 ], [ -5.8200871, 39.5634183 ], [ -5.8197953, 39.5633225 ], [ -5.819627, 39.5632673 ], [ -5.8186917, 39.5625873 ], [ -5.8179402, 39.5618488 ], [ -5.8186088, 39.5603193 ], [ -5.8194207, 39.5584619 ], [ -5.8198677, 39.5568565 ], [ -5.8200143, 39.5555918 ], [ -5.8177625, 39.5560248 ], [ -5.8173204, 39.5560265 ], [ -5.8170159, 39.5559798 ], [ -5.8168488, 39.5558758 ], [ -5.8165694, 39.5555853 ], [ -5.816379, 39.5551936 ], [ -5.8158429, 39.5528734 ], [ -5.8156026, 39.5522969 ], [ -5.8154563, 39.5519459 ], [ -5.8148317, 39.5511773 ], [ -5.8138592, 39.5504352 ], [ -5.8128616, 39.5499368 ], [ -5.8125266, 39.5497108 ], [ -5.8122236, 39.5494118 ], [ -5.8120253, 39.5491103 ], [ -5.8118684, 39.5486818 ], [ -5.8118683, 39.5486817 ], [ -5.81201, 39.5478676 ], [ -5.8119602, 39.5474994 ], [ -5.8117513, 39.5472252 ], [ -5.8114182, 39.5470441 ], [ -5.8094508, 39.5464431 ], [ -5.8091669, 39.5463299 ], [ -5.809025, 39.5462733 ], [ -5.8086494, 39.545904 ], [ -5.8074119, 39.5440692 ], [ -5.8059329, 39.5423033 ], [ -5.8055388, 39.541475 ], [ -5.8053013, 39.5402016 ], [ -5.8053013, 39.5402015 ], [ -5.8052121, 39.5388524 ], [ -5.8031778, 39.537163 ], [ -5.801597, 39.5357508 ], [ -5.8015969, 39.5357507 ], [ -5.7981217, 39.5323573 ], [ -5.7969223, 39.5314584 ], [ -5.7956219, 39.5303636 ], [ -5.7908198, 39.5257767 ], [ -5.7897539, 39.5250096 ], [ -5.7873132, 39.5236088 ], [ -5.7844142, 39.5226693 ], [ -5.783659, 39.5223992 ], [ -5.781979, 39.5225655 ], [ -5.7800844, 39.5228901 ], [ -5.7787882, 39.5230562 ], [ -5.7773626, 39.5220183 ], [ -5.7757713, 39.5200295 ], [ -5.7746399, 39.5184891 ], [ -5.7731965, 39.5170011 ], [ -5.7726222, 39.5163032 ], [ -5.7713513, 39.5168109 ], [ -5.7640412, 39.5193002 ], [ -5.7614045, 39.5208582 ], [ -5.7599345, 39.5213346 ], [ -5.7591039, 39.5215074 ], [ -5.7579559, 39.5215977 ], [ -5.7566287, 39.5215661 ], [ -5.7556461, 39.5214273 ], [ -5.7537664, 39.5233096 ], [ -5.7524458, 39.5252146 ], [ -5.752342, 39.5255324 ], [ -5.7523356, 39.5262532 ], [ -5.7501082, 39.526405 ], [ -5.7501081, 39.526405 ], [ -5.7496183, 39.5263716 ], [ -5.7475738, 39.5258524 ], [ -5.7427392, 39.5244892 ], [ -5.742568, 39.5242771 ], [ -5.7421985, 39.5234616 ], [ -5.7418291, 39.522646 ], [ -5.7413494, 39.522279 ], [ -5.7394487, 39.5223513 ], [ -5.7388639, 39.5223736 ], [ -5.7385618, 39.522678 ], [ -5.7381925, 39.523047 ], [ -5.7372351, 39.5238443 ], [ -5.7371653, 39.5238814 ], [ -5.7370756, 39.5239291 ], [ -5.7369012, 39.5239332 ], [ -5.7360147, 39.5232785 ], [ -5.7359295, 39.5231814 ], [ -5.7358087, 39.5230671 ], [ -5.7355111, 39.5228939 ], [ -5.7352994, 39.5228359 ], [ -5.7320592, 39.5226689 ], [ -5.7317585, 39.522712 ], [ -5.7267867, 39.5246664 ], [ -5.7254777, 39.5251025 ], [ -5.7246835, 39.5253193 ], [ -5.7227955, 39.5255257 ], [ -5.7159478, 39.5256229 ], [ -5.7152118, 39.5255409 ], [ -5.7143363, 39.525165 ], [ -5.7139715, 39.5250565 ], [ -5.7100395, 39.5247518 ], [ -5.7095296, 39.5247998 ], [ -5.7069649, 39.5252559 ], [ -5.7054385, 39.5254896 ], [ -5.7029128, 39.5256657 ], [ -5.7027239, 39.5256789 ], [ -5.701207, 39.5258583 ], [ -5.7007483, 39.5260311 ], [ -5.6997694, 39.5265853 ], [ -5.6989223, 39.5269383 ], [ -5.6984675, 39.5272101 ], [ -5.6978911, 39.5276469 ], [ -5.6974557, 39.5281164 ], [ -5.6959087, 39.5308278 ], [ -5.6940884, 39.5333924 ], [ -5.6933664, 39.5348775 ], [ -5.6927762, 39.5364677 ], [ -5.6925719, 39.5374993 ], [ -5.6924994, 39.5386361 ], [ -5.6919845, 39.5400623 ], [ -5.6914384, 39.5409848 ], [ -5.6914114, 39.54149 ], [ -5.6915587, 39.5419909 ], [ -5.6917998, 39.5425079 ], [ -5.6922708, 39.5432537 ], [ -5.6925286, 39.5439053 ], [ -5.6928251, 39.5449525 ], [ -5.6930129, 39.5464975 ], [ -5.6933614, 39.5485884 ], [ -5.6935907, 39.5494029 ], [ -5.6941477, 39.5508673 ], [ -5.6942389, 39.5511174 ], [ -5.6944896, 39.5521836 ], [ -5.6946577, 39.5529184 ], [ -5.6952083, 39.5548155 ], [ -5.695469, 39.5555391 ], [ -5.6956433, 39.5558323 ], [ -5.6959212, 39.5560961 ], [ -5.6972559, 39.556903 ], [ -5.6977842, 39.5573231 ], [ -5.6982477, 39.5578709 ], [ -5.6985833, 39.5584216 ], [ -5.698741, 39.5588864 ], [ -5.6987651, 39.5595074 ], [ -5.6986482, 39.5600957 ], [ -5.6981133, 39.5619098 ], [ -5.6981181, 39.5623331 ], [ -5.6983316, 39.5633371 ], [ -5.6985841, 39.5638447 ], [ -5.6991226, 39.5645259 ], [ -5.6995065, 39.5651205 ], [ -5.6999044, 39.5657779 ], [ -5.696906, 39.5667934 ], [ -5.6964735, 39.5670466 ], [ -5.696169, 39.567297 ], [ -5.6954689, 39.5678537 ], [ -5.6945015, 39.5687229 ], [ -5.6931698, 39.5704023 ], [ -5.6923976, 39.571204 ], [ -5.6917542, 39.5711198 ], [ -5.6901475, 39.571112 ], [ -5.6895332, 39.5711802 ], [ -5.689143, 39.5713244 ], [ -5.6877022, 39.5722947 ], [ -5.6823931, 39.5758857 ], [ -5.6811815, 39.5767694 ], [ -5.6808967, 39.5769291 ], [ -5.680174, 39.5778106 ], [ -5.6795488, 39.578807 ], [ -5.6792934, 39.5791281 ], [ -5.6790194, 39.5792696 ], [ -5.678646, 39.5795485 ], [ -5.6781448, 39.5801366 ], [ -5.677793, 39.5806762 ], [ -5.6774031, 39.5814329 ], [ -5.677093, 39.5818454 ], [ -5.6768541, 39.5822923 ], [ -5.6764324, 39.5834371 ], [ -5.6764007, 39.5835189 ], [ -5.6761754, 39.5846232 ], [ -5.6756111, 39.5856902 ], [ -5.6755973, 39.58624 ], [ -5.6754438, 39.5864868 ], [ -5.6750016, 39.5867942 ], [ -5.673044, 39.5879654 ], [ -5.6722904, 39.588352 ], [ -5.6714211, 39.5884531 ], [ -5.670843, 39.5885565 ], [ -5.6703722, 39.5887295 ], [ -5.6700302, 39.5889175 ], [ -5.6693051, 39.589745 ], [ -5.6685318, 39.5905284 ], [ -5.6684453, 39.5907016 ], [ -5.6681078, 39.5913129 ], [ -5.6675986, 39.5929101 ], [ -5.6683818, 39.5929912 ], [ -5.6699873, 39.5932606 ], [ -5.6716992, 39.5938699 ], [ -5.6748373, 39.5949327 ], [ -5.6755474, 39.5952316 ], [ -5.6771043, 39.5957452 ], [ -5.6777933, 39.5960987 ], [ -5.6781061, 39.5963618 ], [ -5.6791686, 39.5970399 ], [ -5.6795182, 39.5973472 ], [ -5.6796914, 39.5976134 ], [ -5.6798399, 39.5981415 ], [ -5.6798668, 39.5985373 ], [ -5.6799974, 39.5989035 ], [ -5.6808854, 39.6001893 ], [ -5.6819397, 39.601255 ], [ -5.6826251, 39.6018157 ], [ -5.6841205, 39.6028441 ], [ -5.6844613, 39.6029264 ], [ -5.686444, 39.6027004 ], [ -5.6874717, 39.6027756 ], [ -5.6878411, 39.6029923 ], [ -5.6880843, 39.6032569 ], [ -5.6886378, 39.6046224 ], [ -5.688769, 39.605304 ], [ -5.6891256, 39.6057913 ], [ -5.6898599, 39.6070084 ], [ -5.690766, 39.6078522 ], [ -5.6912539, 39.6081202 ], [ -5.6915462, 39.6081495 ], [ -5.6927268, 39.6079599 ], [ -5.693952, 39.6080216 ], [ -5.6953621, 39.6080429 ], [ -5.696198, 39.6079785 ], [ -5.6969249, 39.6077995 ], [ -5.6980346, 39.6072872 ], [ -5.6986725, 39.6072184 ], [ -5.6989641, 39.6072296 ], [ -5.6992599, 39.6073489 ], [ -5.6998633, 39.6078934 ], [ -5.7002191, 39.6080562 ], [ -5.7015061, 39.6091073 ], [ -5.7029846, 39.6102891 ], [ -5.703682, 39.6105521 ], [ -5.7046459, 39.6107819 ], [ -5.7050771, 39.6110871 ], [ -5.7052078, 39.6114535 ], [ -5.7052559, 39.6123892 ], [ -5.7054159, 39.612908 ], [ -5.705694, 39.613469 ], [ -5.7064364, 39.6145868 ], [ -5.7069743, 39.6158354 ], [ -5.7073032, 39.6162061 ], [ -5.7079262, 39.616651 ], [ -5.7087249, 39.6171189 ], [ -5.7110289, 39.6176597 ], [ -5.7117889, 39.617732 ], [ -5.7126359, 39.6179464 ], [ -5.7155973, 39.6192105 ], [ -5.7166831, 39.6195725 ], [ -5.717127, 39.6196071 ], [ -5.7175453, 39.6195794 ], [ -5.7181688, 39.6194386 ], [ -5.7188409, 39.6193508 ], [ -5.7194356, 39.6193639 ], [ -5.7200827, 39.6195289 ], [ -5.720777, 39.6200081 ], [ -5.7209625, 39.620283 ], [ -5.7212049, 39.6205206 ], [ -5.7222934, 39.6212518 ], [ -5.7233882, 39.6218387 ], [ -5.724686, 39.6222587 ], [ -5.7260303, 39.6223802 ], [ -5.7270728, 39.6222297 ], [ -5.7279534, 39.6218126 ], [ -5.7283934, 39.621451 ], [ -5.7287391, 39.6213527 ], [ -5.7290885, 39.6213536 ], [ -5.7293587, 39.6214103 ], [ -5.7301126, 39.6216267 ], [ -5.7307316, 39.6219635 ], [ -5.7322607, 39.6229275 ], [ -5.7332221, 39.6233823 ], [ -5.7348234, 39.6244076 ], [ -5.7352333, 39.6247583 ], [ -5.7356841, 39.6252611 ], [ -5.7365469, 39.6258714 ], [ -5.7380433, 39.6271874 ], [ -5.7393667, 39.6276607 ], [ -5.7401768, 39.6278217 ], [ -5.7407468, 39.6277993 ], [ -5.7418286, 39.628053 ], [ -5.7447708, 39.6291005 ], [ -5.7454724, 39.6294623 ], [ -5.7457907, 39.6298511 ], [ -5.7471406, 39.6301075 ], [ -5.7482201, 39.6300099 ], [ -5.7484689, 39.6301121 ], [ -5.7498394, 39.6308904 ], [ -5.7502956, 39.6312309 ], [ -5.7505885, 39.6315663 ], [ -5.750818, 39.6320653 ], [ -5.7515676, 39.6330475 ], [ -5.7519707, 39.6338127 ] ] ] } }
]
}
