{
"type": "FeatureCollection",
"name": "11902",
"features": [
{ "type": "Feature", "properties": { "CCAA": "01 - Andalucía", "PROVINCIA": "11 - Cádiz", "MUNICIPIO": "11902 - San José del Valle", "COD_MUNICIPIO": "11902", "DISTRITO": "01", "SECCION": "1190201003", "V1_H": 78.9, "V1_M": 84.87, "V2_H": 79.02373168, "V2_M": 85.07467156, "V3_H": 78.82484982, "V3_M": 84.79604014 }, "geometry": { "type": "Polygon", "coordinates": [ [ [ -5.7975616, 36.6037248 ], [ -5.7975907, 36.6036939 ], [ -5.7977075, 36.603653 ], [ -5.7999791, 36.6049731 ], [ -5.801366, 36.6063075 ], [ -5.8019054, 36.6059231 ], [ -5.8024193, 36.6057393 ], [ -5.8030698, 36.6041026 ], [ -5.8038802, 36.6023095 ], [ -5.8041654, 36.5990791 ], [ -5.8060748, 36.5975844 ], [ -5.807007, 36.5945867 ], [ -5.8085245, 36.5930535 ], [ -5.8067093, 36.5922475 ], [ -5.8043018, 36.5959857 ], [ -5.8026774, 36.5965294 ], [ -5.8020933, 36.5980406 ], [ -5.8005436, 36.5983632 ], [ -5.7986955, 36.5982826 ], [ -5.7971479, 36.5993204 ], [ -5.7964145, 36.600301 ], [ -5.796402, 36.6012645 ], [ -5.7964318, 36.6014355 ], [ -5.7963629, 36.6014944 ], [ -5.7962499, 36.6016401 ], [ -5.7962662, 36.6017637 ], [ -5.7963676, 36.6019521 ], [ -5.7964538, 36.6020454 ], [ -5.7964701, 36.602169 ], [ -5.7964607, 36.602236 ], [ -5.7964273, 36.602294 ], [ -5.7963335, 36.6023153 ], [ -5.7962768, 36.6023834 ], [ -5.7962903, 36.6024308 ], [ -5.7963393, 36.6024773 ], [ -5.7965322, 36.6025777 ], [ -5.7966264, 36.6025659 ], [ -5.7967328, 36.6025634 ], [ -5.7968273, 36.6025612 ], [ -5.7969219, 36.602559 ], [ -5.7970519, 36.6025559 ], [ -5.7972052, 36.6025428 ], [ -5.7973707, 36.6025389 ], [ -5.7974412, 36.6025277 ], [ -5.7975007, 36.6025359 ], [ -5.7975858, 36.6026006 ], [ -5.7975649, 36.6026774 ], [ -5.7974749, 36.6028035 ], [ -5.7974185, 36.6028811 ], [ -5.7973267, 36.6029596 ], [ -5.7972113, 36.6030386 ], [ -5.7970847, 36.603137 ], [ -5.7969237, 36.6032647 ], [ -5.7967746, 36.6033922 ], [ -5.7975616, 36.6037248 ] ] ] } },
{ "type": "Feature", "properties": { "CCAA": "01 - Andalucía", "PROVINCIA": "11 - Cádiz", "MUNICIPIO": "11902 - San José del Valle", "COD_MUNICIPIO": "11902", "DISTRITO": "01", "SECCION": "1190201001", "V1_H": 79.29, "V1_M": 85.18, "V2_H": 79.29248013, "V2_M": 85.31775581, "V3_H": 79.43295666, "V3_M": 85.21995842 }, "geometry": { "type": "Polygon", "coordinates": [ [ [ -5.7975616, 36.6037248 ], [ -5.7971122, 36.6042011 ], [ -5.7968498, 36.6047986 ], [ -5.7966626, 36.6055088 ], [ -5.7963307, 36.6061461 ], [ -5.7963309, 36.6074623 ], [ -5.7964429, 36.6102351 ], [ -5.7979376, 36.6110011 ], [ -5.7995401, 36.6095137 ], [ -5.7998669, 36.6093916 ], [ -5.8021868, 36.6081162 ], [ -5.80284, 36.6091691 ], [ -5.803319, 36.6089436 ], [ -5.8023937, 36.6076249 ], [ -5.8014499, 36.6063882 ], [ -5.801366, 36.6063075 ], [ -5.7999791, 36.6049731 ], [ -5.7977075, 36.603653 ], [ -5.7975907, 36.6036939 ], [ -5.7975616, 36.6037248 ] ] ] } },
{ "type": "Feature", "properties": { "CCAA": "01 - Andalucía", "PROVINCIA": "11 - Cádiz", "MUNICIPIO": "11902 - San José del Valle", "COD_MUNICIPIO": "11902", "DISTRITO": "01", "SECCION": "1190201002", "V1_H": 78.2, "V1_M": 84.44, "V2_H": 78.32882893, "V2_M": 84.51506174, "V3_H": 78.2023938, "V3_M": 84.51669805 }, "geometry": { "type": "Polygon", "coordinates": [ [ [ -5.5393514, 36.6699533 ], [ -5.5398243, 36.6703849 ], [ -5.5411297, 36.6702759 ], [ -5.5413106, 36.6703352 ], [ -5.5414648, 36.6709447 ], [ -5.5415926, 36.6710861 ], [ -5.5416456, 36.6713374 ], [ -5.5416222, 36.6719868 ], [ -5.5417006, 36.6723276 ], [ -5.5418669, 36.6726214 ], [ -5.5419587, 36.6730341 ], [ -5.5421984, 36.6735156 ], [ -5.5426089, 36.6740927 ], [ -5.5428862, 36.6743571 ], [ -5.5432411, 36.6746019 ], [ -5.543876, 36.6748587 ], [ -5.5444663, 36.6751165 ], [ -5.5449498, 36.6755297 ], [ -5.545255, 36.6759648 ], [ -5.5458962, 36.6770866 ], [ -5.5465408, 36.6779741 ], [ -5.5471904, 36.6786722 ], [ -5.5476825, 36.6790041 ], [ -5.5490241, 36.6796513 ], [ -5.5512753, 36.6803962 ], [ -5.552606, 36.6807101 ], [ -5.555195, 36.6811773 ], [ -5.5574764, 36.6814798 ], [ -5.5592208, 36.6817848 ], [ -5.5605116, 36.6822437 ], [ -5.5618635, 36.6825211 ], [ -5.5624579, 36.6825623 ], [ -5.5631118, 36.6827105 ], [ -5.5640059, 36.6830157 ], [ -5.5668025, 36.6836674 ], [ -5.5682327, 36.6832671 ], [ -5.571172, 36.6838345 ], [ -5.5723041, 36.6838912 ], [ -5.5729734, 36.6838316 ], [ -5.5743741, 36.6842249 ], [ -5.575079, 36.6845612 ], [ -5.5759537, 36.6852903 ], [ -5.576585, 36.6854298 ], [ -5.5771374, 36.6858865 ], [ -5.5781424, 36.6861622 ], [ -5.5785863, 36.6867203 ], [ -5.5790097, 36.6869995 ], [ -5.5797832, 36.6873793 ], [ -5.5802857, 36.6880174 ], [ -5.5804036, 36.6885285 ], [ -5.5805108, 36.6887244 ], [ -5.5810348, 36.6890014 ], [ -5.5819281, 36.6892795 ], [ -5.5831744, 36.6897391 ], [ -5.584153, 36.6902225 ], [ -5.5846837, 36.6903643 ], [ -5.5855789, 36.6893625 ], [ -5.5859688, 36.6899758 ], [ -5.5877105, 36.6901903 ], [ -5.5887966, 36.6902118 ], [ -5.5891759, 36.6901765 ], [ -5.590652, 36.6898109 ], [ -5.5908318, 36.6895006 ], [ -5.5911467, 36.6892144 ], [ -5.5922716, 36.6887212 ], [ -5.593843, 36.6875335 ], [ -5.5942456, 36.6871912 ], [ -5.5949204, 36.6862933 ], [ -5.5949826, 36.6861478 ], [ -5.595124, 36.6860275 ], [ -5.5958143, 36.6862558 ], [ -5.5960032, 36.6862157 ], [ -5.5963075, 36.6859477 ], [ -5.5968979, 36.6852048 ], [ -5.5973503, 36.6850147 ], [ -5.5979094, 36.6850025 ], [ -5.5987292, 36.6850927 ], [ -5.5989278, 36.6850073 ], [ -5.5990979, 36.6847422 ], [ -5.5991653, 36.6844163 ], [ -5.5992066, 36.6836494 ], [ -5.5993803, 36.6831589 ], [ -5.5995697, 36.6828033 ], [ -5.5999372, 36.6824167 ], [ -5.6006249, 36.681906 ], [ -5.6006729, 36.6816707 ], [ -5.6006511, 36.6810223 ], [ -5.600755, 36.6804522 ], [ -5.6012003, 36.6793881 ], [ -5.6013824, 36.6791498 ], [ -5.601613, 36.6790185 ], [ -5.6018475, 36.6790044 ], [ -5.6020675, 36.6792249 ], [ -5.602341, 36.6793722 ], [ -5.6023845, 36.6793352 ], [ -5.6024101, 36.6787668 ], [ -5.6027643, 36.6769927 ], [ -5.6030721, 36.6764993 ], [ -5.6032897, 36.6763143 ], [ -5.6038873, 36.676121 ], [ -5.6047019, 36.6760581 ], [ -5.6045656, 36.6756645 ], [ -5.6046278, 36.675519 ], [ -5.6047931, 36.6754433 ], [ -5.6052346, 36.6755958 ], [ -5.6054745, 36.6754103 ], [ -5.6059171, 36.6752655 ], [ -5.6065323, 36.675261 ], [ -5.6073137, 36.6735496 ], [ -5.6075606, 36.6725799 ], [ -5.6076267, 36.6722179 ], [ -5.6077636, 36.6719626 ], [ -5.6083971, 36.6715071 ], [ -5.6087699, 36.6712827 ], [ -5.6092127, 36.6708133 ], [ -5.6096141, 36.6701106 ], [ -5.6095698, 36.6698234 ], [ -5.6095282, 36.6695537 ], [ -5.6095846, 36.6692371 ], [ -5.6097109, 36.669 ], [ -5.609929, 36.668833 ], [ -5.6106876, 36.6687713 ], [ -5.6109492, 36.6685673 ], [ -5.6109866, 36.6683502 ], [ -5.6109071, 36.6679824 ], [ -5.6107157, 36.6676171 ], [ -5.610218, 36.6671233 ], [ -5.6101455, 36.6669626 ], [ -5.61013, 36.6668369 ], [ -5.6099176, 36.6665081 ], [ -5.6099555, 36.6659755 ], [ -5.6097459, 36.6650699 ], [ -5.6095934, 36.6648569 ], [ -5.6079372, 36.6638478 ], [ -5.607655, 36.6634394 ], [ -5.607582, 36.6622694 ], [ -5.6071832, 36.6623863 ], [ -5.6063158, 36.6625404 ], [ -5.6058089, 36.6627678 ], [ -5.60566, 36.6626629 ], [ -5.6054478, 36.6623431 ], [ -5.6048749, 36.6609407 ], [ -5.6048236, 36.6597523 ], [ -5.6050196, 36.6592613 ], [ -5.6058959, 36.658377 ], [ -5.6060816, 36.6582467 ], [ -5.6065646, 36.6583083 ], [ -5.606703, 36.6580979 ], [ -5.606805, 36.6578073 ], [ -5.6074229, 36.6568926 ], [ -5.6081481, 36.6561737 ], [ -5.6107846, 36.6540882 ], [ -5.6114687, 36.6538118 ], [ -5.6135421, 36.6522793 ], [ -5.6133526, 36.6519681 ], [ -5.6136177, 36.6515387 ], [ -5.6144521, 36.649754 ], [ -5.6145708, 36.6496252 ], [ -5.6157535, 36.6492117 ], [ -5.6160598, 36.6490067 ], [ -5.6163759, 36.648432 ], [ -5.6168368, 36.6481695 ], [ -5.6168859, 36.6479701 ], [ -5.6168084, 36.647332 ], [ -5.6169883, 36.6460393 ], [ -5.6171133, 36.6457662 ], [ -5.6173227, 36.6450135 ], [ -5.6172703, 36.6444559 ], [ -5.6174009, 36.6436871 ], [ -5.6178401, 36.6431186 ], [ -5.6178914, 36.6429823 ], [ -5.6177524, 36.6428412 ], [ -5.6172791, 36.6427344 ], [ -5.6168357, 36.6425188 ], [ -5.6137691, 36.6398014 ], [ -5.6129803, 36.6389625 ], [ -5.614445, 36.638624 ], [ -5.6155587, 36.6381579 ], [ -5.6166238, 36.6375758 ], [ -5.6170827, 36.6372593 ], [ -5.6177222, 36.6366594 ], [ -5.6181292, 36.6364612 ], [ -5.6190361, 36.6361619 ], [ -5.6195244, 36.636052 ], [ -5.6197922, 36.6360371 ], [ -5.622073, 36.6376723 ], [ -5.6226596, 36.6378216 ], [ -5.6250062, 36.6387612 ], [ -5.6253711, 36.6389695 ], [ -5.6263634, 36.6398668 ], [ -5.6267494, 36.6400385 ], [ -5.6283523, 36.6408053 ], [ -5.6288168, 36.6409843 ], [ -5.6292793, 36.6411002 ], [ -5.6297048, 36.6411179 ], [ -5.6305812, 36.6409093 ], [ -5.6310737, 36.640592 ], [ -5.6317777, 36.6399185 ], [ -5.6323791, 36.6395177 ], [ -5.632893, 36.6388485 ], [ -5.6330592, 36.6381418 ], [ -5.6332658, 36.6376416 ], [ -5.6335534, 36.6355805 ], [ -5.633733, 36.6352701 ], [ -5.633982, 36.6350303 ], [ -5.6341525, 36.6347831 ], [ -5.6342664, 36.6341858 ], [ -5.6341915, 36.6336288 ], [ -5.6342183, 36.6334299 ], [ -5.6345538, 36.6327736 ], [ -5.635404, 36.6317995 ], [ -5.6362773, 36.6311763 ], [ -5.6369069, 36.6306216 ], [ -5.6372885, 36.6303338 ], [ -5.6378152, 36.6300428 ], [ -5.6385007, 36.6294869 ], [ -5.6389179, 36.6292613 ], [ -5.639872, 36.6290419 ], [ -5.6401468, 36.6289006 ], [ -5.6407433, 36.6280313 ], [ -5.6405553, 36.6277651 ], [ -5.6397954, 36.627124 ], [ -5.6395938, 36.626786 ], [ -5.6397184, 36.6265039 ], [ -5.6400129, 36.6262901 ], [ -5.6404127, 36.6262091 ], [ -5.6419515, 36.6260848 ], [ -5.6436793, 36.6256049 ], [ -5.6443029, 36.6252036 ], [ -5.644843, 36.6249753 ], [ -5.645054, 36.6249345 ], [ -5.6468766, 36.6249391 ], [ -5.6474219, 36.6248639 ], [ -5.6480401, 36.6246339 ], [ -5.6502894, 36.6237097 ], [ -5.6509762, 36.6235232 ], [ -5.6511888, 36.6235275 ], [ -5.6516843, 36.6236336 ], [ -5.651981, 36.6238072 ], [ -5.6521774, 36.6239921 ], [ -5.6523092, 36.6242506 ], [ -5.6523998, 36.624609 ], [ -5.6523787, 36.6262768 ], [ -5.6522885, 36.6269096 ], [ -5.6524045, 36.6276821 ], [ -5.6528478, 36.6285464 ], [ -5.6533843, 36.6291923 ], [ -5.6538724, 36.6294068 ], [ -5.6541421, 36.6294458 ], [ -5.655203, 36.6290797 ], [ -5.6562769, 36.6287674 ], [ -5.6569177, 36.6288702 ], [ -5.6574056, 36.6290756 ], [ -5.6578419, 36.6294084 ], [ -5.6582581, 36.6298046 ], [ -5.6583874, 36.629991 ], [ -5.6584793, 36.6303855 ], [ -5.6583532, 36.6306226 ], [ -5.6578063, 36.6309773 ], [ -5.6576821, 36.6312685 ], [ -5.6575356, 36.6318846 ], [ -5.6576566, 36.6321522 ], [ -5.6579111, 36.6323988 ], [ -5.6589439, 36.6331689 ], [ -5.6592229, 36.6334781 ], [ -5.65932, 36.6337012 ], [ -5.6593203, 36.6340347 ], [ -5.6591284, 36.6346338 ], [ -5.6591712, 36.6349032 ], [ -5.6597351, 36.6356926 ], [ -5.6600346, 36.6359473 ], [ -5.6604763, 36.6361087 ], [ -5.6607885, 36.6360837 ], [ -5.6618829, 36.6357168 ], [ -5.6626173, 36.6356102 ], [ -5.6634404, 36.6358081 ], [ -5.6637952, 36.6360435 ], [ -5.6642803, 36.6364923 ], [ -5.6649377, 36.6373968 ], [ -5.6654852, 36.6380335 ], [ -5.6659713, 36.6385092 ], [ -5.6666026, 36.6389818 ], [ -5.667923, 36.6393307 ], [ -5.6700125, 36.6396083 ], [ -5.6702839, 36.6396923 ], [ -5.6705235, 36.6398312 ], [ -5.6712427, 36.6405811 ], [ -5.6724217, 36.6420146 ], [ -5.6729383, 36.642724 ], [ -5.673066, 36.6431807 ], [ -5.672853, 36.6438164 ], [ -5.67266, 36.644055 ], [ -5.6720612, 36.6445281 ], [ -5.6711394, 36.6450354 ], [ -5.6700262, 36.6458354 ], [ -5.6698782, 36.646082 ], [ -5.6698317, 36.6463535 ], [ -5.6698714, 36.6465328 ], [ -5.6699977, 36.6466291 ], [ -5.6703004, 36.6466494 ], [ -5.6707008, 36.6465863 ], [ -5.6713391, 36.6466081 ], [ -5.6718845, 36.6468572 ], [ -5.6720717, 36.6470963 ], [ -5.6723247, 36.6479468 ], [ -5.6723879, 36.6491259 ], [ -5.6724773, 36.6494484 ], [ -5.672609, 36.6496977 ], [ -5.6730899, 36.6503448 ], [ -5.6736174, 36.6507205 ], [ -5.6748299, 36.6508555 ], [ -5.6752698, 36.6509628 ], [ -5.6756592, 36.6512244 ], [ -5.6766387, 36.6520585 ], [ -5.6769681, 36.6522043 ], [ -5.6772925, 36.6522061 ], [ -5.6778023, 36.6520685 ], [ -5.6798172, 36.651149 ], [ -5.6813541, 36.6506367 ], [ -5.681458, 36.6504091 ], [ -5.6813924, 36.6501312 ], [ -5.6810943, 36.6495971 ], [ -5.6810244, 36.6491932 ], [ -5.6807987, 36.6488107 ], [ -5.6805888, 36.6485631 ], [ -5.6804086, 36.6482067 ], [ -5.6803642, 36.6478923 ], [ -5.6805119, 36.6476366 ], [ -5.6812524, 36.6467368 ], [ -5.6822137, 36.6463997 ], [ -5.6825939, 36.6464001 ], [ -5.6828991, 36.6464924 ], [ -5.6834707, 36.646849 ], [ -5.6840898, 36.6476101 ], [ -5.6843675, 36.6481986 ], [ -5.6847426, 36.6496592 ], [ -5.6859004, 36.6520843 ], [ -5.6864031, 36.6533527 ], [ -5.6866171, 36.6537174 ], [ -5.688274, 36.6560141 ], [ -5.6889752, 36.656557 ], [ -5.6896089, 36.6567681 ], [ -5.6910708, 36.6573118 ], [ -5.6913483, 36.6572515 ], [ -5.692845, 36.6571906 ], [ -5.6936544, 36.6573075 ], [ -5.6944884, 36.6574869 ], [ -5.6957113, 36.6575944 ], [ -5.6974596, 36.6576899 ], [ -5.6986072, 36.6578802 ], [ -5.6998778, 36.6583922 ], [ -5.7011429, 36.6590664 ], [ -5.7018194, 36.6595377 ], [ -5.7023774, 36.6598224 ], [ -5.7028733, 36.6599284 ], [ -5.70367, 36.6600004 ], [ -5.7040711, 36.6599553 ], [ -5.7058861, 36.6594003 ], [ -5.7068344, 36.6590093 ], [ -5.7087343, 36.6580018 ], [ -5.7103851, 36.6565944 ], [ -5.7106378, 36.656147 ], [ -5.7106197, 36.6559492 ], [ -5.7104649, 36.6556823 ], [ -5.7096005, 36.654954 ], [ -5.7085251, 36.6542665 ], [ -5.7079802, 36.6537202 ], [ -5.7078466, 36.6534168 ], [ -5.7078234, 36.6530749 ], [ -5.7079111, 36.6527034 ], [ -5.708314, 36.6520724 ], [ -5.7091189, 36.6514232 ], [ -5.7094537, 36.6510822 ], [ -5.7098125, 36.6504702 ], [ -5.7106269, 36.6484961 ], [ -5.7110945, 36.6471606 ], [ -5.711444, 36.646603 ], [ -5.7117282, 36.6464162 ], [ -5.7121044, 36.6462995 ], [ -5.7126073, 36.6462881 ], [ -5.7130236, 36.6463597 ], [ -5.7149083, 36.6471639 ], [ -5.715376, 36.6474236 ], [ -5.7156415, 36.6476609 ], [ -5.7157979, 36.6479727 ], [ -5.7160355, 36.6486883 ], [ -5.7162263, 36.6490263 ], [ -5.7164478, 36.6492826 ], [ -5.7167805, 36.6495184 ], [ -5.71772, 36.6498394 ], [ -5.7193488, 36.6506764 ], [ -5.7200135, 36.6511299 ], [ -5.7206277, 36.6514222 ], [ -5.7210788, 36.6515291 ], [ -5.7214358, 36.6515029 ], [ -5.7220087, 36.6512555 ], [ -5.7237495, 36.6498729 ], [ -5.7261782, 36.6473841 ], [ -5.726691, 36.6470209 ], [ -5.7272859, 36.6467639 ], [ -5.7275649, 36.6467485 ], [ -5.7279385, 36.6468751 ], [ -5.7282024, 36.6470674 ], [ -5.7284154, 36.6473959 ], [ -5.728575, 36.6477978 ], [ -5.7285876, 36.6484734 ], [ -5.7286613, 36.648661 ], [ -5.7288359, 36.6488553 ], [ -5.7302407, 36.6496792 ], [ -5.7305047, 36.6498714 ], [ -5.7310314, 36.6505352 ], [ -5.7316183, 36.6522701 ], [ -5.7317927, 36.6524553 ], [ -5.7321104, 36.6525833 ], [ -5.7327796, 36.6525318 ], [ -5.7338624, 36.6521555 ], [ -5.7353609, 36.6515173 ], [ -5.7357616, 36.651463 ], [ -5.7361758, 36.6514715 ], [ -5.736997, 36.6516059 ], [ -5.7382511, 36.6519645 ], [ -5.7387093, 36.651954 ], [ -5.7393211, 36.6518589 ], [ -5.7400175, 36.6519419 ], [ -5.7405146, 36.6520837 ], [ -5.7408451, 36.6522564 ], [ -5.7411804, 36.652564 ], [ -5.7412892, 36.6527959 ], [ -5.741265, 36.6530578 ], [ -5.7411162, 36.6532775 ], [ -5.7399597, 36.6540972 ], [ -5.7395247, 36.6544496 ], [ -5.739399, 36.6546868 ], [ -5.7393002, 36.6550586 ], [ -5.7394854, 36.6561808 ], [ -5.7394596, 36.6563977 ], [ -5.7392944, 36.656789 ], [ -5.7389093, 36.6572845 ], [ -5.7386884, 36.6576771 ], [ -5.7385779, 36.6580311 ], [ -5.7385379, 36.6584827 ], [ -5.738689, 36.6589568 ], [ -5.7390166, 36.6593638 ], [ -5.7394847, 36.6596324 ], [ -5.7400477, 36.6597366 ], [ -5.7402259, 36.6597145 ], [ -5.7404446, 36.6595743 ], [ -5.7408182, 36.65907 ], [ -5.7410568, 36.6588573 ], [ -5.7419244, 36.6587201 ], [ -5.742466, 36.6585364 ], [ -5.7429794, 36.6581912 ], [ -5.743694, 36.6575259 ], [ -5.7440916, 36.6570661 ], [ -5.7443617, 36.6564831 ], [ -5.7447768, 36.6558878 ], [ -5.7451315, 36.655483 ], [ -5.7454907, 36.6552044 ], [ -5.7459633, 36.6549682 ], [ -5.7466977, 36.6548611 ], [ -5.7482626, 36.654834 ], [ -5.7502669, 36.6548959 ], [ -5.7505964, 36.6550415 ], [ -5.7507714, 36.6552448 ], [ -5.7508737, 36.6556029 ], [ -5.7508431, 36.6560001 ], [ -5.7506515, 36.6569057 ], [ -5.7506529, 36.6575726 ], [ -5.7508396, 36.6587308 ], [ -5.7509514, 36.6590436 ], [ -5.7511385, 36.6592736 ], [ -5.75175, 36.6594848 ], [ -5.7525822, 36.6596098 ], [ -5.7532058, 36.6595323 ], [ -5.7537713, 36.659393 ], [ -5.7552832, 36.6585019 ], [ -5.7569482, 36.6572017 ], [ -5.7580752, 36.6564997 ], [ -5.7588345, 36.6561487 ], [ -5.7610929, 36.6548707 ], [ -5.7619989, 36.6539305 ], [ -5.7625402, 36.6531159 ], [ -5.7627573, 36.6529306 ], [ -5.7633884, 36.6527537 ], [ -5.7639469, 36.6527317 ], [ -5.7662264, 36.6529852 ], [ -5.766989, 36.653355 ], [ -5.76712, 36.6535773 ], [ -5.7670994, 36.6539382 ], [ -5.7670015, 36.654328 ], [ -5.7667631, 36.6545409 ], [ -5.7663778, 36.6550274 ], [ -5.7654735, 36.6560127 ], [ -5.7643108, 36.6575897 ], [ -5.7637376, 36.6587656 ], [ -5.7635928, 36.6594088 ], [ -5.7635834, 36.6600849 ], [ -5.7638342, 36.6605297 ], [ -5.7646289, 36.6611691 ], [ -5.7649933, 36.6613499 ], [ -5.7654458, 36.6614926 ], [ -5.7661331, 36.6616299 ], [ -5.7665594, 36.661665 ], [ -5.766931, 36.6623593 ], [ -5.7676315, 36.6638029 ], [ -5.768459, 36.6647299 ], [ -5.768816, 36.6650191 ], [ -5.7692278, 36.6652708 ], [ -5.769658, 36.665414 ], [ -5.7699844, 36.6654695 ], [ -5.7702415, 36.6654635 ], [ -5.7706745, 36.6653723 ], [ -5.7715311, 36.6649288 ], [ -5.772077, 36.6645557 ], [ -5.7726461, 36.6638936 ], [ -5.7735703, 36.6631511 ], [ -5.7740103, 36.6629426 ], [ -5.7744084, 36.6628161 ], [ -5.7751263, 36.6628715 ], [ -5.7752988, 36.6630027 ], [ -5.7753497, 36.6631727 ], [ -5.7752633, 36.6635712 ], [ -5.7748366, 36.6641489 ], [ -5.7747645, 36.6643218 ], [ -5.7749472, 36.6650475 ], [ -5.7749349, 36.6653272 ], [ -5.7755986, 36.6663661 ], [ -5.7761519, 36.6668219 ], [ -5.7775406, 36.6677988 ], [ -5.7781247, 36.6684881 ], [ -5.7794268, 36.6698545 ], [ -5.780223, 36.6705299 ], [ -5.7804258, 36.6705702 ], [ -5.7807263, 36.6705271 ], [ -5.7808884, 36.6703701 ], [ -5.7817574, 36.6690251 ], [ -5.7826109, 36.6681851 ], [ -5.7829988, 36.6680859 ], [ -5.7835357, 36.6680823 ], [ -5.7845679, 36.6681664 ], [ -5.7856713, 36.6683658 ], [ -5.7865874, 36.6686418 ], [ -5.7890362, 36.6695397 ], [ -5.7894698, 36.6688447 ], [ -5.7921269, 36.6690077 ], [ -5.7931421, 36.6689298 ], [ -5.7937697, 36.6689601 ], [ -5.7953098, 36.6688609 ], [ -5.7993599, 36.6688739 ], [ -5.8022614, 36.6689859 ], [ -5.803579, 36.6689188 ], [ -5.8046396, 36.6685514 ], [ -5.8061169, 36.6685706 ], [ -5.8120688, 36.6685834 ], [ -5.8257995, 36.6705473 ], [ -5.8260691, 36.670577 ], [ -5.8294618, 36.670965 ], [ -5.8345631, 36.6700506 ], [ -5.8440812, 36.6684809 ], [ -5.8449112, 36.6682357 ], [ -5.8543085, 36.6694617 ], [ -5.8544344, 36.6686296 ], [ -5.8548339, 36.6667276 ], [ -5.8552936, 36.6640311 ], [ -5.8557742, 36.6615954 ], [ -5.8561715, 36.6593329 ], [ -5.8566368, 36.6567895 ], [ -5.8570133, 36.6548699 ], [ -5.8572873, 36.6532052 ], [ -5.8576112, 36.651377 ], [ -5.857877, 36.6497936 ], [ -5.8581298, 36.6484628 ], [ -5.8582639, 36.6478558 ], [ -5.8582925, 36.6471161 ], [ -5.8582005, 36.6464425 ], [ -5.8580887, 36.645535 ], [ -5.8579769, 36.6446275 ], [ -5.8578562, 36.6437833 ], [ -5.8577394, 36.6427407 ], [ -5.8575552, 36.6416907 ], [ -5.8573474, 36.6406053 ], [ -5.8571436, 36.6396279 ], [ -5.8570051, 36.6386039 ], [ -5.8568198, 36.6378243 ], [ -5.8566648, 36.6366565 ], [ -5.8565054, 36.635669 ], [ -5.8563091, 36.6345923 ], [ -5.856078, 36.6334804 ], [ -5.8558129, 36.6320539 ], [ -5.855697, 36.6313357 ], [ -5.8556075, 36.6304277 ], [ -5.8555086, 36.6295649 ], [ -5.8554722, 36.6288809 ], [ -5.8554564, 36.6281513 ], [ -5.8554864, 36.6274477 ], [ -5.8554411, 36.626827 ], [ -5.8554112, 36.6260166 ], [ -5.8553767, 36.6250802 ], [ -5.8553185, 36.6241083 ], [ -5.8552645, 36.6229471 ], [ -5.8552518, 36.6216948 ], [ -5.8552239, 36.6209385 ], [ -5.8551847, 36.619876 ], [ -5.8551637, 36.6190024 ], [ -5.8551472, 36.6179484 ], [ -5.8551406, 36.6171645 ], [ -5.8550834, 36.6162196 ], [ -5.8550426, 36.6151122 ], [ -5.855028, 36.6138058 ], [ -5.855005, 36.6128782 ], [ -5.8549622, 36.6117167 ], [ -5.8549688, 36.6109865 ], [ -5.8549574, 36.6097702 ], [ -5.8549445, 36.6085089 ], [ -5.8549061, 36.6077708 ], [ -5.8547665, 36.6070172 ], [ -5.8546359, 36.6065066 ], [ -5.8543975, 36.6058004 ], [ -5.8541678, 36.6053283 ], [ -5.8539488, 36.6048469 ], [ -5.8538002, 36.6044539 ], [ -5.8536371, 36.6039712 ], [ -5.8535118, 36.6036047 ], [ -5.8534099, 36.6032647 ], [ -5.8533652, 36.6029594 ], [ -5.8533289, 36.6025818 ], [ -5.8533153, 36.6022126 ], [ -5.8533105, 36.6017801 ], [ -5.8533393, 36.6013469 ], [ -5.8533349, 36.6009234 ], [ -5.8533748, 36.6004899 ], [ -5.8533223, 36.5999775 ], [ -5.8532398, 36.5995559 ], [ -5.8530987, 36.5990637 ], [ -5.8529524, 36.5987337 ], [ -5.8527697, 36.5983235 ], [ -5.8526238, 36.5980026 ], [ -5.8524403, 36.5975744 ], [ -5.8522809, 36.5971907 ], [ -5.8522312, 36.5967503 ], [ -5.8522076, 36.5961111 ], [ -5.8522111, 36.5955973 ], [ -5.8521807, 36.5950754 ], [ -5.8521687, 36.5944448 ], [ -5.8521783, 36.5937957 ], [ -5.8521649, 36.5931292 ], [ -5.8521512, 36.5924536 ], [ -5.8521509, 36.5915344 ], [ -5.8523089, 36.5906655 ], [ -5.8524801, 36.5898503 ], [ -5.8525784, 36.5891811 ], [ -5.8527752, 36.5884555 ], [ -5.8529486, 36.5877033 ], [ -5.8531822, 36.5867605 ], [ -5.8534101, 36.585971 ], [ -5.8536002, 36.5850652 ], [ -5.8538065, 36.5842943 ], [ -5.853943, 36.5837503 ], [ -5.8543186, 36.5818128 ], [ -5.8545045, 36.5810964 ], [ -5.8546028, 36.5804272 ], [ -5.8547113, 36.5800371 ], [ -5.8548478, 36.5797995 ], [ -5.8550504, 36.5795333 ], [ -5.855436, 36.5790825 ], [ -5.8558338, 36.5786584 ], [ -5.8562427, 36.5782341 ], [ -5.8566724, 36.5777642 ], [ -5.8570167, 36.5774044 ], [ -5.8576166, 36.5767051 ], [ -5.8581289, 36.576053 ], [ -5.8583961, 36.5757222 ], [ -5.8586848, 36.5753728 ], [ -5.8589215, 36.5751238 ], [ -5.8590671, 36.574832 ], [ -5.8591655, 36.5744691 ], [ -5.8591421, 36.5741363 ], [ -5.8590634, 36.5738227 ], [ -5.8589865, 36.5735542 ], [ -5.8589477, 36.573411 ], [ -5.8589441, 36.5733119 ], [ -5.8589732, 36.573194 ], [ -5.8591026, 36.5730648 ], [ -5.8593946, 36.5728055 ], [ -5.8598187, 36.5724888 ], [ -5.8602204, 36.5721728 ], [ -5.8606658, 36.5718287 ], [ -5.8611545, 36.5714475 ], [ -5.8616737, 36.5709844 ], [ -5.8619428, 36.5707076 ], [ -5.8622424, 36.5703489 ], [ -5.8625695, 36.5698274 ], [ -5.8629786, 36.5691056 ], [ -5.8634053, 36.5682573 ], [ -5.8640108, 36.5671072 ], [ -5.8646163, 36.5659572 ], [ -5.8653576, 36.5645516 ], [ -5.8657856, 36.5637392 ], [ -5.8661179, 36.5630553 ], [ -5.8662621, 36.5627274 ], [ -5.8663178, 36.5624197 ], [ -5.8663393, 36.5620947 ], [ -5.8663352, 36.5616803 ], [ -5.8663344, 36.5613559 ], [ -5.866325, 36.5611038 ], [ -5.8664568, 36.5607401 ], [ -5.8666506, 36.5602398 ], [ -5.8668867, 36.5596754 ], [ -5.8670811, 36.5591931 ], [ -5.8673988, 36.5584195 ], [ -5.867745, 36.5575099 ], [ -5.8681341, 36.5565543 ], [ -5.868418, 36.5557725 ], [ -5.8688064, 36.5547989 ], [ -5.8691051, 36.5541158 ], [ -5.8693159, 36.5534709 ], [ -5.8695184, 36.5529073 ], [ -5.8696151, 36.5524994 ], [ -5.868652, 36.5524325 ], [ -5.8668499, 36.5523316 ], [ -5.8657742, 36.5522404 ], [ -5.8650922, 36.5522207 ], [ -5.8646329, 36.5521867 ], [ -5.8643618, 36.5521031 ], [ -5.8641448, 36.5520183 ], [ -5.8641011, 36.5520012 ], [ -5.8638448, 36.5520164 ], [ -5.8635336, 36.5520599 ], [ -5.8634529, 36.5520653 ], [ -5.8633219, 36.552074 ], [ -5.8631541, 36.552069 ], [ -5.8629608, 36.5519746 ], [ -5.8628117, 36.55187 ], [ -5.862708, 36.5517823 ], [ -5.8624991, 36.5515711 ], [ -5.8622243, 36.5513884 ], [ -5.8617808, 36.5511738 ], [ -5.8612709, 36.5509787 ], [ -5.8602155, 36.5505264 ], [ -5.8596959, 36.5503677 ], [ -5.8593707, 36.5503451 ], [ -5.8592143, 36.5503342 ], [ -5.8587909, 36.5503624 ], [ -5.8584013, 36.5503987 ], [ -5.8579234, 36.5504643 ], [ -5.8575785, 36.5504996 ], [ -5.8569048, 36.5505325 ], [ -5.8568538, 36.550535 ], [ -5.8563621, 36.5505288 ], [ -5.8558796, 36.5504682 ], [ -5.8554295, 36.5503799 ], [ -5.8551482, 36.5503235 ], [ -5.8550252, 36.5503199 ], [ -5.8548127, 36.5503135 ], [ -5.8545453, 36.550329 ], [ -5.8543568, 36.5503695 ], [ -5.8541532, 36.5503744 ], [ -5.8537207, 36.5503847 ], [ -5.8534096, 36.5504282 ], [ -5.8533672, 36.5504346 ], [ -5.8532652, 36.5504497 ], [ -5.8530748, 36.5504363 ], [ -5.8527926, 36.5503908 ], [ -5.8527827, 36.5503892 ], [ -5.8524099, 36.5503902 ], [ -5.8523582, 36.5503903 ], [ -5.8523064, 36.5503926 ], [ -5.8519234, 36.5504097 ], [ -5.8514996, 36.5504289 ], [ -5.8510316, 36.5504581 ], [ -5.8504644, 36.5505257 ], [ -5.849998, 36.5506 ], [ -5.8495086, 36.5506568 ], [ -5.8490971, 36.5507026 ], [ -5.8486645, 36.5507851 ], [ -5.8483103, 36.5508746 ], [ -5.8479463, 36.5510005 ], [ -5.8475637, 36.5512259 ], [ -5.8471695, 36.5514426 ], [ -5.8466903, 36.5517785 ], [ -5.8463415, 36.5520121 ], [ -5.8460684, 36.5521808 ], [ -5.8458269, 36.5522947 ], [ -5.8455505, 36.5523734 ], [ -5.8452515, 36.5524436 ], [ -5.8449653, 36.5525586 ], [ -5.8448012, 36.5526527 ], [ -5.8446611, 36.5527912 ], [ -5.8445774, 36.5529464 ], [ -5.8444813, 36.5530659 ], [ -5.8442955, 36.5531784 ], [ -5.8441087, 36.553264 ], [ -5.8438983, 36.553314 ], [ -5.8436981, 36.5533369 ], [ -5.8436082, 36.5533503 ], [ -5.8435537, 36.5533583 ], [ -5.8434201, 36.5533705 ], [ -5.8432852, 36.5533467 ], [ -5.843104, 36.5532789 ], [ -5.8428328, 36.5531953 ], [ -5.8424718, 36.5530957 ], [ -5.842178, 36.5530036 ], [ -5.8418159, 36.5528771 ], [ -5.8413081, 36.552736 ], [ -5.8409578, 36.5526272 ], [ -5.8405383, 36.552457 ], [ -5.8400627, 36.552279 ], [ -5.8396875, 36.5520987 ], [ -5.8392551, 36.5518837 ], [ -5.8388688, 36.5517037 ], [ -5.8385615, 36.5515488 ], [ -5.8382109, 36.551431 ], [ -5.837929, 36.5513566 ], [ -5.8375601, 36.5513473 ], [ -5.8375448, 36.5513473 ], [ -5.8372472, 36.5513457 ], [ -5.8369797, 36.5513611 ], [ -5.8368924, 36.5513632 ], [ -5.8366561, 36.5513688 ], [ -5.8363423, 36.5513403 ], [ -5.836061, 36.5512839 ], [ -5.8358584, 36.5512436 ], [ -5.8358486, 36.5512427 ], [ -5.8356231, 36.5512222 ], [ -5.8355576, 36.5512378 ], [ -5.8354127, 36.5512722 ], [ -5.8352917, 36.55128 ], [ -5.8351898, 36.5512865 ], [ -5.8350788, 36.5513072 ], [ -5.8349095, 36.5512572 ], [ -5.8346718, 36.5511727 ], [ -5.834564, 36.5511637 ], [ -5.8343357, 36.5511447 ], [ -5.8340699, 36.5512051 ], [ -5.8337814, 36.551257 ], [ -5.833528, 36.5513531 ], [ -5.8333288, 36.5514147 ], [ -5.833307, 36.5514215 ], [ -5.8332546, 36.5514298 ], [ -5.8331738, 36.5514426 ], [ -5.8329611, 36.5514297 ], [ -5.8326253, 36.5514106 ], [ -5.8322888, 36.5513736 ], [ -5.8321036, 36.5513449 ], [ -5.8319856, 36.5513267 ], [ -5.831755, 36.5513477 ], [ -5.8315848, 36.5513632 ], [ -5.8313281, 36.5513933 ], [ -5.8312956, 36.5513972 ], [ -5.8311955, 36.5513959 ], [ -5.8310498, 36.551394 ], [ -5.8308147, 36.5513815 ], [ -5.830601, 36.5513416 ], [ -5.8302846, 36.5512409 ], [ -5.8301177, 36.5512137 ], [ -5.8299475, 36.5511859 ], [ -5.8299174, 36.5511833 ], [ -5.829701, 36.5511647 ], [ -5.8295169, 36.5512002 ], [ -5.8294348, 36.551216 ], [ -5.8292047, 36.5513387 ], [ -5.8289776, 36.5515423 ], [ -5.8287274, 36.5517285 ], [ -5.8284636, 36.5518429 ], [ -5.8281324, 36.5519499 ], [ -5.8277109, 36.552032 ], [ -5.8273778, 36.5520849 ], [ -5.8270895, 36.5521459 ], [ -5.8268237, 36.5522062 ], [ -5.8267082, 36.5522164 ], [ -5.8265453, 36.5522308 ], [ -5.8261977, 36.5521941 ], [ -5.826005, 36.5521175 ], [ -5.8258675, 36.5520216 ], [ -5.8256046, 36.5518566 ], [ -5.8253075, 36.5516744 ], [ -5.8249547, 36.5514935 ], [ -5.824614, 36.5513394 ], [ -5.8243536, 36.5512464 ], [ -5.8240373, 36.5511458 ], [ -5.8238118, 36.551088 ], [ -5.8237616, 36.5510834 ], [ -5.8235764, 36.5510666 ], [ -5.8233207, 36.5510997 ], [ -5.8230542, 36.551142 ], [ -5.8228106, 36.5512019 ], [ -5.8223701, 36.5513745 ], [ -5.8219384, 36.5514839 ], [ -5.8215078, 36.5516203 ], [ -5.8211323, 36.5517373 ], [ -5.8207331, 36.5518188 ], [ -5.8202004, 36.5519125 ], [ -5.819556, 36.5520089 ], [ -5.8190236, 36.5521116 ], [ -5.8184797, 36.5522056 ], [ -5.8178813, 36.5523368 ], [ -5.8176631, 36.5523591 ], [ -5.8175363, 36.5523721 ], [ -5.8173465, 36.5523574 ], [ -5.8171778, 36.5523445 ], [ -5.8168884, 36.5523694 ], [ -5.8163983, 36.552408 ], [ -5.8161263, 36.5524586 ], [ -5.8161209, 36.5524596 ], [ -5.8158192, 36.5524577 ], [ -5.8155048, 36.552411 ], [ -5.8150797, 36.552394 ], [ -5.8146195, 36.5523328 ], [ -5.814203, 36.5522435 ], [ -5.8136979, 36.5521743 ], [ -5.8134622, 36.5521439 ], [ -5.8133279, 36.552138 ], [ -5.8132153, 36.5521136 ], [ -5.8131119, 36.552035 ], [ -5.8129498, 36.5518766 ], [ -5.8126866, 36.5517026 ], [ -5.8124486, 36.551609 ], [ -5.8121554, 36.5515431 ], [ -5.812122, 36.5515356 ], [ -5.812072, 36.5515368 ], [ -5.8118431, 36.5515422 ], [ -5.8115854, 36.5515212 ], [ -5.8113599, 36.5514635 ], [ -5.8111108, 36.5513702 ], [ -5.8108738, 36.5513037 ], [ -5.810852, 36.551302 ], [ -5.810605, 36.551283 ], [ -5.8102403, 36.5513908 ], [ -5.8097564, 36.5516004 ], [ -5.80924, 36.5518379 ], [ -5.8088684, 36.5520629 ], [ -5.8083838, 36.5522546 ], [ -5.8078225, 36.5524841 ], [ -5.8074355, 36.5525924 ], [ -5.8072024, 36.5526339 ], [ -5.8069607, 36.5527477 ], [ -5.8067418, 36.5528701 ], [ -5.8064565, 36.5530119 ], [ -5.8061903, 36.5530632 ], [ -5.8060299, 36.5530712 ], [ -5.8058446, 36.5530804 ], [ -5.8055085, 36.5530523 ], [ -5.8052036, 36.553007 ], [ -5.805194, 36.5530056 ], [ -5.8050199, 36.5530058 ], [ -5.8047919, 36.5530061 ], [ -5.8043449, 36.5529986 ], [ -5.8039969, 36.5529527 ], [ -5.8036254, 36.5528713 ], [ -5.803222, 36.5528357 ], [ -5.8028067, 36.5527824 ], [ -5.8022757, 36.5526146 ], [ -5.8017807, 36.5525181 ], [ -5.801287, 36.5524576 ], [ -5.8007944, 36.5524242 ], [ -5.8003916, 36.5524066 ], [ -5.8001871, 36.5524017 ], [ -5.8000115, 36.5523975 ], [ -5.7996767, 36.5524054 ], [ -5.7994269, 36.552462 ], [ -5.7993665, 36.5524757 ], [ -5.7990418, 36.5524563 ], [ -5.7989292, 36.5524141 ], [ -5.7986568, 36.5523121 ], [ -5.7981915, 36.5521068 ], [ -5.7978377, 36.5518988 ], [ -5.7975384, 36.5516535 ], [ -5.7974085, 36.5514583 ], [ -5.7973909, 36.5512784 ], [ -5.7973825, 36.5510443 ], [ -5.7974531, 36.5508354 ], [ -5.7975027, 36.550663 ], [ -5.7975389, 36.5504278 ], [ -5.7975879, 36.5502374 ], [ -5.7975703, 36.5500576 ], [ -5.7975227, 36.5499793 ], [ -5.7975109, 36.5499599 ], [ -5.79742, 36.5499169 ], [ -5.7972647, 36.5499476 ], [ -5.7970352, 36.5500882 ], [ -5.7968418, 36.5503 ], [ -5.7967255, 36.550483 ], [ -5.7966533, 36.5506469 ], [ -5.7965944, 36.5508736 ], [ -5.7965432, 36.551001 ], [ -5.7964603, 36.5511831 ], [ -5.7962873, 36.5513404 ], [ -5.7959885, 36.5514195 ], [ -5.795633, 36.5514729 ], [ -5.7953455, 36.5515517 ], [ -5.7951248, 36.551629 ], [ -5.7949728, 36.5517497 ], [ -5.7948537, 36.5518516 ], [ -5.7946458, 36.5519737 ], [ -5.7946147, 36.5519816 ], [ -5.7944909, 36.5520134 ], [ -5.7943448, 36.5519897 ], [ -5.794142, 36.5519404 ], [ -5.7939503, 36.5518909 ], [ -5.7938482, 36.5518482 ], [ -5.7938471, 36.5518478 ], [ -5.7937012, 36.5517976 ], [ -5.7933144, 36.5519148 ], [ -5.7931283, 36.5520182 ], [ -5.7929635, 36.5520942 ], [ -5.7927642, 36.5521439 ], [ -5.7925987, 36.5522019 ], [ -5.7924674, 36.5522771 ], [ -5.7922809, 36.5523716 ], [ -5.7921181, 36.5525016 ], [ -5.7919995, 36.5526215 ], [ -5.7918826, 36.5527864 ], [ -5.7917561, 36.5529967 ], [ -5.7916178, 36.5531892 ], [ -5.7914674, 36.5533549 ], [ -5.7912825, 36.5534944 ], [ -5.791119, 36.5536064 ], [ -5.7909249, 36.5538002 ], [ -5.7907433, 36.5540297 ], [ -5.7906493, 36.5542122 ], [ -5.7905543, 36.5543676 ], [ -5.7904377, 36.5545416 ], [ -5.7903517, 36.5546337 ], [ -5.790243, 36.5547173 ], [ -5.7901123, 36.5548105 ], [ -5.7899927, 36.5549034 ], [ -5.7898946, 36.5549688 ], [ -5.7897974, 36.5550612 ], [ -5.7897362, 36.5552249 ], [ -5.7897086, 36.5553877 ], [ -5.7896707, 36.5555779 ], [ -5.789624, 36.5558313 ], [ -5.7895467, 36.5561666 ], [ -5.7894967, 36.5563299 ], [ -5.7894949, 36.5565913 ], [ -5.7894644, 36.5566732 ], [ -5.7893336, 36.5567663 ], [ -5.7891698, 36.5568693 ], [ -5.7890565, 36.5569316 ], [ -5.7888959, 36.5570199 ], [ -5.7886782, 36.5571782 ], [ -5.7884279, 36.5573643 ], [ -5.7881994, 36.5575319 ], [ -5.7879373, 36.5577002 ], [ -5.78772, 36.5578675 ], [ -5.7872944, 36.5581478 ], [ -5.7870123, 36.5583797 ], [ -5.7867186, 36.5586029 ], [ -5.786578, 36.5587323 ], [ -5.7864796, 36.5587887 ], [ -5.7863945, 36.5589078 ], [ -5.7863425, 36.5590172 ], [ -5.7862775, 36.5590728 ], [ -5.7862, 36.5590926 ], [ -5.7860897, 36.5591312 ], [ -5.7859906, 36.5591696 ], [ -5.7858471, 36.559218 ], [ -5.7857591, 36.5592562 ], [ -5.7856822, 36.559294 ], [ -5.7856054, 36.5593318 ], [ -5.7855854, 36.5593954 ], [ -5.7855439, 36.5594865 ], [ -5.7854346, 36.5595521 ], [ -5.7853712, 36.5596527 ], [ -5.7852758, 36.5597991 ], [ -5.7851803, 36.5599366 ], [ -5.785084, 36.560056 ], [ -5.7850078, 36.5601118 ], [ -5.7848653, 36.5601872 ], [ -5.7847221, 36.5602447 ], [ -5.784556, 36.5602846 ], [ -5.7844122, 36.560324 ], [ -5.7842457, 36.5603549 ], [ -5.7840901, 36.5603766 ], [ -5.7839788, 36.5603882 ], [ -5.7836137, 36.5604868 ], [ -5.7833708, 36.5605646 ], [ -5.7831497, 36.5606329 ], [ -5.7829521, 36.5607276 ], [ -5.7827987, 36.5608123 ], [ -5.7826565, 36.5608967 ], [ -5.7825356, 36.5609536 ], [ -5.7823922, 36.561002 ], [ -5.7822372, 36.5610417 ], [ -5.7820481, 36.5610641 ], [ -5.7819033, 36.5610765 ], [ -5.7817034, 36.5611082 ], [ -5.7815376, 36.5611571 ], [ -5.7814075, 36.5612683 ], [ -5.7812242, 36.5614528 ], [ -5.7810281, 36.5615926 ], [ -5.7808311, 36.5617053 ], [ -5.7806452, 36.5618178 ], [ -5.7803627, 36.5620407 ], [ -5.7800911, 36.5622543 ], [ -5.7797767, 36.562523 ], [ -5.7794943, 36.5627459 ], [ -5.7792453, 36.562968 ], [ -5.7790157, 36.5631085 ], [ -5.7787842, 36.563195 ], [ -5.7785852, 36.5632537 ], [ -5.7783639, 36.5633129 ], [ -5.7780753, 36.5633631 ], [ -5.7780642, 36.563365 ], [ -5.777796, 36.5633622 ], [ -5.7775501, 36.563359 ], [ -5.777504, 36.5633518 ], [ -5.7773478, 36.5633276 ], [ -5.7771367, 36.5633596 ], [ -5.7769279, 36.5634546 ], [ -5.7766001, 36.5636605 ], [ -5.7763817, 36.5638007 ], [ -5.7762059, 36.5638859 ], [ -5.7760089, 36.5639987 ], [ -5.7758233, 36.5641201 ], [ -5.7756489, 36.5642414 ], [ -5.7755198, 36.5643795 ], [ -5.7754583, 36.5645342 ], [ -5.7753962, 36.5646708 ], [ -5.7753327, 36.5647714 ], [ -5.7751334, 36.5648211 ], [ -5.7748021, 36.564928 ], [ -5.7745476, 36.564997 ], [ -5.7742814, 36.5650482 ], [ -5.7739394, 36.5651734 ], [ -5.7736754, 36.5652876 ], [ -5.7733017, 36.5654586 ], [ -5.7730288, 36.5656361 ], [ -5.7727571, 36.5658497 ], [ -5.7725383, 36.565981 ], [ -5.7723016, 36.5660877 ], [ -5.7722854, 36.566095 ], [ -5.7720849, 36.5661087 ], [ -5.7719158, 36.5660676 ], [ -5.7717688, 36.5660169 ], [ -5.7717531, 36.5660152 ], [ -5.7715669, 36.5659946 ], [ -5.7713669, 36.5660263 ], [ -5.771112, 36.5660863 ], [ -5.7706672, 36.5661417 ], [ -5.7702784, 36.5662047 ], [ -5.7699362, 36.5663209 ], [ -5.7696275, 36.5664362 ], [ -5.7694199, 36.5665672 ], [ -5.7692235, 36.5666979 ], [ -5.7690261, 36.5668016 ], [ -5.768855, 36.5668563 ], [ -5.7687831, 36.5668793 ], [ -5.7685589, 36.5668575 ], [ -5.7684013, 36.5668251 ], [ -5.7682523, 36.5667205 ], [ -5.7681566, 36.5665424 ], [ -5.768117, 36.5663721 ], [ -5.7680002, 36.5662307 ], [ -5.7678398, 36.5661172 ], [ -5.7675788, 36.5660061 ], [ -5.7673855, 36.5659115 ], [ -5.7672123, 36.5657533 ], [ -5.7670621, 36.5656126 ], [ -5.7669013, 36.5654901 ], [ -5.7666634, 36.5654197 ], [ -5.766619, 36.5654066 ], [ -5.7664063, 36.5654162 ], [ -5.7662063, 36.5654252 ], [ -5.7658252, 36.565389 ], [ -5.7653869, 36.565318 ], [ -5.764891, 36.5651944 ], [ -5.7645113, 36.5651583 ], [ -5.7645098, 36.5651581 ], [ -5.7641746, 36.5651569 ], [ -5.7638147, 36.5652254 ], [ -5.7637973, 36.5652287 ], [ -5.763311, 36.5653752 ], [ -5.7631289, 36.5654239 ], [ -5.7630897, 36.5654344 ], [ -5.7630181, 36.5654265 ], [ -5.7629551, 36.5654195 ], [ -5.7627095, 36.5654252 ], [ -5.7623781, 36.565532 ], [ -5.7621039, 36.5656735 ], [ -5.7616631, 36.565846 ], [ -5.7612667, 36.5660083 ], [ -5.7609035, 36.5661609 ], [ -5.7605409, 36.5663316 ], [ -5.7602886, 36.5664636 ], [ -5.7599805, 36.5665969 ], [ -5.7597407, 36.5667646 ], [ -5.7595583, 36.5669762 ], [ -5.7594002, 36.5672412 ], [ -5.7592194, 36.5674977 ], [ -5.75906, 36.5677267 ], [ -5.7588437, 36.5679299 ], [ -5.7585918, 36.568071 ], [ -5.7582836, 36.5682043 ], [ -5.7579118, 36.5684292 ], [ -5.7576063, 36.5686345 ], [ -5.7573811, 36.5689011 ], [ -5.7571678, 36.5691854 ], [ -5.7569742, 36.5693971 ], [ -5.7567908, 36.5695816 ], [ -5.7565727, 36.5697308 ], [ -5.7563985, 36.569861 ], [ -5.7562158, 36.5700635 ], [ -5.7560037, 36.5703838 ], [ -5.7558252, 36.5707034 ], [ -5.755645, 36.570978 ], [ -5.7554961, 36.5711887 ], [ -5.7553446, 36.5713274 ], [ -5.7552142, 36.5714295 ], [ -5.7548952, 36.5715721 ], [ -5.7545641, 36.5716878 ], [ -5.7542643, 36.5717398 ], [ -5.7539986, 36.5718091 ], [ -5.7536576, 36.5719611 ], [ -5.7533429, 36.5722207 ], [ -5.7530599, 36.5724345 ], [ -5.7526893, 36.5726954 ], [ -5.7523854, 36.5729458 ], [ -5.752068, 36.5731334 ], [ -5.7517615, 36.5733117 ], [ -5.7515328, 36.5734792 ], [ -5.7511386, 36.5737046 ], [ -5.7508011, 36.5739557 ], [ -5.7505102, 36.5742598 ], [ -5.7502515, 36.5745271 ], [ -5.7499695, 36.5747679 ], [ -5.7496978, 36.5749815 ], [ -5.7493594, 36.5752056 ], [ -5.7490557, 36.5754649 ], [ -5.7488937, 36.5756219 ], [ -5.7487307, 36.5757518 ], [ -5.748599, 36.5758179 ], [ -5.7485832, 36.5758229 ], [ -5.7484442, 36.5758665 ], [ -5.7483549, 36.5758686 ], [ -5.7482752, 36.5758254 ], [ -5.7482723, 36.5757443 ], [ -5.7483364, 36.5756617 ], [ -5.7484308, 36.5754883 ], [ -5.7485151, 36.5753422 ], [ -5.7486101, 36.5751868 ], [ -5.7487383, 36.5750216 ], [ -5.7488337, 36.5748752 ], [ -5.7489284, 36.5747108 ], [ -5.7490228, 36.5745374 ], [ -5.7490506, 36.5743746 ], [ -5.7490445, 36.5742035 ], [ -5.7490053, 36.5740422 ], [ -5.7489341, 36.5739267 ], [ -5.7487728, 36.5737862 ], [ -5.7485912, 36.5737093 ], [ -5.7484997, 36.5736782 ], [ -5.7484668, 36.5736671 ], [ -5.7483319, 36.5736432 ], [ -5.7481657, 36.573683 ], [ -5.7479906, 36.5737862 ], [ -5.7478181, 36.5739614 ], [ -5.7475728, 36.5742915 ], [ -5.747382, 36.5745843 ], [ -5.7470573, 36.5748801 ], [ -5.746686, 36.575123 ], [ -5.7463591, 36.5753559 ], [ -5.746011, 36.5756252 ], [ -5.745477, 36.576007 ], [ -5.744998, 36.5763605 ], [ -5.7445721, 36.5766407 ], [ -5.7439921, 36.5769875 ], [ -5.7434215, 36.57728 ], [ -5.7428374, 36.5775097 ], [ -5.7422223, 36.5778123 ], [ -5.7416406, 36.578105 ], [ -5.7412003, 36.5782955 ], [ -5.7407496, 36.5785041 ], [ -5.740442, 36.5786553 ], [ -5.7401942, 36.5787759 ], [ -5.7401894, 36.5787783 ], [ -5.7399552, 36.5787927 ], [ -5.7397974, 36.5787512 ], [ -5.7396053, 36.5786926 ], [ -5.7395642, 36.5786859 ], [ -5.7394592, 36.5786689 ], [ -5.7392917, 36.5786728 ], [ -5.739115, 36.5787309 ], [ -5.7389294, 36.5788523 ], [ -5.7387455, 36.5790278 ], [ -5.7386157, 36.5791479 ], [ -5.7384725, 36.5792053 ], [ -5.7383398, 36.5792444 ], [ -5.7381727, 36.5792572 ], [ -5.7379834, 36.5792796 ], [ -5.7378163, 36.5792925 ], [ -5.7375946, 36.5793426 ], [ -5.7374402, 36.5794002 ], [ -5.7372437, 36.5795309 ], [ -5.7371145, 36.5796691 ], [ -5.737007, 36.5797887 ], [ -5.7369422, 36.5798532 ], [ -5.7368436, 36.5799096 ], [ -5.7367447, 36.5799569 ], [ -5.7366002, 36.5799782 ], [ -5.7364219, 36.5799914 ], [ -5.7363, 36.5800212 ], [ -5.7361568, 36.5800786 ], [ -5.7359494, 36.5802185 ], [ -5.7357334, 36.5804308 ], [ -5.7355369, 36.5805614 ], [ -5.7353615, 36.5806556 ], [ -5.7351853, 36.5807317 ], [ -5.7349643, 36.5807998 ], [ -5.7346774, 36.5809056 ], [ -5.7344028, 36.5810381 ], [ -5.7341176, 36.5811888 ], [ -5.7338656, 36.5813297 ], [ -5.7335251, 36.5814998 ], [ -5.7331745, 36.5816971 ], [ -5.73288, 36.5819021 ], [ -5.7326854, 36.5820868 ], [ -5.7325121, 36.582244 ], [ -5.7324032, 36.5823035 ], [ -5.7323916, 36.5823098 ], [ -5.7322926, 36.5823572 ], [ -5.7321587, 36.5823602 ], [ -5.7320432, 36.5822547 ], [ -5.7319488, 36.5821127 ], [ -5.7318557, 36.5820067 ], [ -5.7317734, 36.5818914 ], [ -5.7317131, 36.5817666 ], [ -5.7316098, 36.5816879 ], [ -5.7314844, 36.5816187 ], [ -5.7313806, 36.5816003 ], [ -5.7313495, 36.5815947 ], [ -5.7312145, 36.5815708 ], [ -5.7310592, 36.5816014 ], [ -5.7308847, 36.5817225 ], [ -5.7307248, 36.5819425 ], [ -5.7305987, 36.5821707 ], [ -5.7303961, 36.5824457 ], [ -5.7302682, 36.5826199 ], [ -5.7300611, 36.5827688 ], [ -5.7297784, 36.5829916 ], [ -5.7295509, 36.583195 ], [ -5.7293017, 36.583417 ], [ -5.7290404, 36.5836123 ], [ -5.7288451, 36.583779 ], [ -5.7287261, 36.5838898 ], [ -5.7286285, 36.5839732 ], [ -5.7285532, 36.584056 ], [ -5.7284773, 36.5841208 ], [ -5.7284335, 36.5841489 ], [ -5.7284288, 36.5841521 ], [ -5.7283789, 36.5841862 ], [ -5.7283014, 36.584206 ], [ -5.7282456, 36.5842072 ], [ -5.7281888, 36.5841815 ], [ -5.7281435, 36.5841645 ], [ -5.7280864, 36.5841298 ], [ -5.7280513, 36.5840855 ], [ -5.7280376, 36.5840137 ], [ -5.7280456, 36.5839234 ], [ -5.7280309, 36.5838246 ], [ -5.7280284, 36.5837526 ], [ -5.7280473, 36.583653 ], [ -5.7280438, 36.583554 ], [ -5.7280528, 36.5834907 ], [ -5.728049, 36.5833826 ], [ -5.7279115, 36.5829712 ], [ -5.7277655, 36.5826321 ], [ -5.7276096, 36.5823293 ], [ -5.7274534, 36.5820174 ], [ -5.7272438, 36.5817789 ], [ -5.7270235, 36.5815496 ], [ -5.7267574, 36.5812943 ], [ -5.7265349, 36.581002 ], [ -5.7263764, 36.5806272 ], [ -5.7262285, 36.580234 ], [ -5.7261134, 36.5798221 ], [ -5.7260852, 36.5793361 ], [ -5.7261357, 36.5788663 ], [ -5.7263074, 36.5783487 ], [ -5.7265369, 36.5778838 ], [ -5.7268659, 36.5773896 ], [ -5.7270883, 36.5770421 ], [ -5.7273743, 36.5765939 ], [ -5.7276516, 36.5762181 ], [ -5.7278322, 36.5759526 ], [ -5.7280051, 36.5757864 ], [ -5.7282118, 36.5756285 ], [ -5.7283949, 36.575435 ], [ -5.7285083, 36.5751621 ], [ -5.7286306, 36.5748259 ], [ -5.7287882, 36.5745429 ], [ -5.7290422, 36.5741405 ], [ -5.7292984, 36.5738012 ], [ -5.7295026, 36.5735712 ], [ -5.7297192, 36.573377 ], [ -5.729948, 36.5732095 ], [ -5.7302542, 36.5730223 ], [ -5.7304842, 36.5728908 ], [ -5.7307946, 36.5728206 ], [ -5.7311158, 36.5727412 ], [ -5.731415, 36.5726712 ], [ -5.7316246, 36.5725943 ], [ -5.7317235, 36.572547 ], [ -5.7317889, 36.5725005 ], [ -5.7317975, 36.5724282 ], [ -5.7317035, 36.5722951 ], [ -5.731573, 36.5720818 ], [ -5.7313865, 36.5718608 ], [ -5.7311642, 36.5715775 ], [ -5.7309655, 36.5713297 ], [ -5.7308587, 36.5711519 ], [ -5.730809, 36.5710089 ], [ -5.7308145, 36.5708465 ], [ -5.7308212, 36.5707202 ], [ -5.7308174, 36.5706122 ], [ -5.7308148, 36.5705401 ], [ -5.7304774, 36.5704758 ], [ -5.7301855, 36.5704374 ], [ -5.7298806, 36.5703452 ], [ -5.7295968, 36.5702165 ], [ -5.7293439, 36.5700151 ], [ -5.7290705, 36.5698681 ], [ -5.7288202, 36.5697387 ], [ -5.7284713, 36.5696655 ], [ -5.7282318, 36.5696435 ], [ -5.7281575, 36.5696367 ], [ -5.7278895, 36.5696428 ], [ -5.7276781, 36.5696657 ], [ -5.7274025, 36.5697711 ], [ -5.7271523, 36.5699661 ], [ -5.7268904, 36.5701433 ], [ -5.7266923, 36.570229 ], [ -5.7265051, 36.5703053 ], [ -5.7264008, 36.5703218 ], [ -5.7263051, 36.5703369 ], [ -5.7261261, 36.570332 ], [ -5.7259565, 36.5702728 ], [ -5.7258187, 36.5701678 ], [ -5.7256254, 36.5700731 ], [ -5.7254322, 36.5699784 ], [ -5.7252249, 36.5698029 ], [ -5.7250521, 36.5696536 ], [ -5.724846, 36.5695142 ], [ -5.7246416, 36.5694197 ], [ -5.7243138, 36.56931 ], [ -5.7239964, 36.5691821 ], [ -5.723801, 36.5690244 ], [ -5.7235261, 36.5688324 ], [ -5.7232726, 36.5686129 ], [ -5.7230982, 36.5684186 ], [ -5.7229448, 36.5681877 ], [ -5.7229016, 36.5679094 ], [ -5.7229051, 36.567693 ], [ -5.7229329, 36.5675302 ], [ -5.7229614, 36.5673853 ], [ -5.72308, 36.5672654 ], [ -5.7232433, 36.5671445 ], [ -5.7233958, 36.5670329 ], [ -5.7235168, 36.5669761 ], [ -5.723637, 36.5669013 ], [ -5.7237139, 36.5668635 ], [ -5.7237576, 36.5668354 ], [ -5.7238115, 36.5667801 ], [ -5.72381, 36.5667351 ], [ -5.7237519, 36.5666733 ], [ -5.7236502, 36.5666396 ], [ -5.7235484, 36.5666059 ], [ -5.7234129, 36.5665639 ], [ -5.7232991, 36.5665034 ], [ -5.7232069, 36.5664244 ], [ -5.7231262, 36.5663542 ], [ -5.7230006, 36.5662759 ], [ -5.7229445, 36.5662573 ], [ -5.7228989, 36.5662422 ], [ -5.722764, 36.5662183 ], [ -5.7226313, 36.5662573 ], [ -5.722489, 36.5663417 ], [ -5.7222912, 36.5664363 ], [ -5.7221247, 36.5664671 ], [ -5.7220085, 36.5664865 ], [ -5.7219359, 36.5664985 ], [ -5.7216, 36.5664791 ], [ -5.721262, 36.5663967 ], [ -5.7209354, 36.5663231 ], [ -5.7204966, 36.566234 ], [ -5.7201375, 36.5661881 ], [ -5.7198006, 36.5661417 ], [ -5.7195207, 36.566121 ], [ -5.7194832, 36.5661192 ], [ -5.7192744, 36.5661087 ], [ -5.7190071, 36.5661328 ], [ -5.7187182, 36.5661754 ], [ -5.7184521, 36.5662356 ], [ -5.718209, 36.5663132 ], [ -5.7180676, 36.5663484 ], [ -5.7180097, 36.5663628 ], [ -5.7178199, 36.5663671 ], [ -5.7175939, 36.5662912 ], [ -5.7173897, 36.5662057 ], [ -5.7171968, 36.56612 ], [ -5.7169353, 36.5659908 ], [ -5.7167415, 36.565878 ], [ -5.7164694, 36.5657671 ], [ -5.7162532, 36.5656548 ], [ -5.7160603, 36.5655691 ], [ -5.7159265, 36.5655085 ], [ -5.71589, 36.5654919 ], [ -5.7156865, 36.5654244 ], [ -5.7155043, 36.5656449 ], [ -5.7153588, 36.5659546 ], [ -5.7152783, 36.5662088 ], [ -5.7152406, 36.5664079 ], [ -5.7152354, 36.5665792 ], [ -5.7153193, 36.5667396 ], [ -5.7154244, 36.5668723 ], [ -5.7154977, 36.5670509 ], [ -5.7155257, 36.5672125 ], [ -5.7155196, 36.5673568 ], [ -5.7154484, 36.5675567 ], [ -5.7153319, 36.5677396 ], [ -5.7151931, 36.567923 ], [ -5.7150319, 36.5681069 ], [ -5.7148842, 36.5683536 ], [ -5.7147801, 36.5685723 ], [ -5.7147197, 36.5687629 ], [ -5.7146479, 36.5689448 ], [ -5.7145228, 36.5692 ], [ -5.7143626, 36.5694109 ], [ -5.7141915, 36.5696311 ], [ -5.7140523, 36.5698055 ], [ -5.7139324, 36.5698894 ], [ -5.713828, 36.5699183 ], [ -5.7138244, 36.5699193 ], [ -5.7137553, 36.5699384 ], [ -5.71352, 36.5699168 ], [ -5.7133174, 36.5698763 ], [ -5.7130795, 36.5697826 ], [ -5.7129427, 36.5697046 ], [ -5.7128267, 36.5695811 ], [ -5.7127901, 36.5694918 ], [ -5.7127205, 36.5694213 ], [ -5.7126028, 36.5693694 ], [ -5.7125844, 36.5693613 ], [ -5.7125695, 36.5693609 ], [ -5.7124054, 36.5693563 ], [ -5.7122941, 36.5693679 ], [ -5.7121363, 36.5693264 ], [ -5.7120215, 36.5692389 ], [ -5.7119061, 36.5691334 ], [ -5.7117581, 36.5690557 ], [ -5.7116225, 36.5690137 ], [ -5.7114646, 36.5689722 ], [ -5.7113061, 36.5689127 ], [ -5.7111473, 36.5688442 ], [ -5.7109879, 36.5687577 ], [ -5.7108397, 36.568671 ], [ -5.7106585, 36.568603 ], [ -5.7104324, 36.568527 ], [ -5.7101846, 36.5684696 ], [ -5.7099138, 36.5683947 ], [ -5.7096211, 36.5683292 ], [ -5.709306, 36.5682643 ], [ -5.7090257, 36.5682346 ], [ -5.7088569, 36.5682024 ], [ -5.7087214, 36.5681604 ], [ -5.7085961, 36.5680911 ], [ -5.7084711, 36.5680309 ], [ -5.7081059, 36.5678139 ], [ -5.7078464, 36.5677387 ], [ -5.7075778, 36.5677268 ], [ -5.7074318, 36.5677207 ], [ -5.7072981, 36.5677151 ], [ -5.7072557, 36.567716 ], [ -5.707019, 36.5677214 ], [ -5.7067948, 36.5676995 ], [ -5.706614, 36.5676405 ], [ -5.7064431, 36.5675452 ], [ -5.7062368, 36.5673967 ], [ -5.7060305, 36.5672482 ], [ -5.7058252, 36.5671267 ], [ -5.7055866, 36.567015 ], [ -5.7054615, 36.5669741 ], [ -5.7054059, 36.566956 ], [ -5.7051574, 36.5668805 ], [ -5.7051387, 36.5673045 ], [ -5.7051937, 36.5676007 ], [ -5.705272, 36.5679233 ], [ -5.7053934, 36.5681999 ], [ -5.7056363, 36.5684378 ], [ -5.7059574, 36.5686738 ], [ -5.7062555, 36.5688923 ], [ -5.7064751, 36.5691036 ], [ -5.706617, 36.5693257 ], [ -5.7067916, 36.569529 ], [ -5.7070001, 36.5697406 ], [ -5.7072319, 36.5699786 ], [ -5.7074451, 36.5703253 ], [ -5.7076143, 36.570691 ], [ -5.7077187, 36.5711212 ], [ -5.7077759, 36.5714803 ], [ -5.7078201, 36.5717857 ], [ -5.7078022, 36.5719123 ], [ -5.7077275, 36.5720132 ], [ -5.7074984, 36.5721716 ], [ -5.7072138, 36.5723403 ], [ -5.7069155, 36.5724372 ], [ -5.7066082, 36.5725973 ], [ -5.7062669, 36.5727402 ], [ -5.7060352, 36.5728266 ], [ -5.7058372, 36.5729122 ], [ -5.7055407, 36.5730632 ], [ -5.7053132, 36.5732666 ], [ -5.7050726, 36.5734163 ], [ -5.7047994, 36.5735937 ], [ -5.7045145, 36.5737534 ], [ -5.7042838, 36.5738667 ], [ -5.7040739, 36.5739346 ], [ -5.7038847, 36.5739569 ], [ -5.7035954, 36.5739905 ], [ -5.7031606, 36.5740184 ], [ -5.7025587, 36.5740591 ], [ -5.7018435, 36.5740572 ], [ -5.7013188, 36.5740691 ], [ -5.7008049, 36.5740718 ], [ -5.7002591, 36.5741202 ], [ -5.6997787, 36.5741221 ], [ -5.6991985, 36.5741443 ], [ -5.6986645, 36.5742104 ], [ -5.6982542, 36.5743008 ], [ -5.6978672, 36.5744177 ], [ -5.6973701, 36.5745822 ], [ -5.696909, 36.5748179 ], [ -5.6964134, 36.5750274 ], [ -5.6959869, 36.5752894 ], [ -5.6957124, 36.5754308 ], [ -5.6954709, 36.5755534 ], [ -5.6952721, 36.575621 ], [ -5.6952022, 36.5756311 ], [ -5.6950498, 36.5756531 ], [ -5.6947913, 36.5756138 ], [ -5.6945079, 36.5754941 ], [ -5.6940994, 36.575314 ], [ -5.6938037, 36.5751675 ], [ -5.6934638, 36.575031 ], [ -5.6931006, 36.574868 ], [ -5.6929071, 36.5747642 ], [ -5.6927024, 36.5746607 ], [ -5.6926471, 36.5743555 ], [ -5.6924661, 36.5739721 ], [ -5.6922821, 36.5734986 ], [ -5.6921108, 36.5730699 ], [ -5.6919329, 36.5724521 ], [ -5.6915438, 36.5715416 ], [ -5.6913588, 36.5710411 ], [ -5.6911553, 36.5706491 ], [ -5.69101, 36.570328 ], [ -5.6908474, 36.569827 ], [ -5.6906925, 36.5692267 ], [ -5.6905633, 36.5687249 ], [ -5.69051, 36.5684737 ], [ -5.6904492, 36.5683309 ], [ -5.6903344, 36.5682434 ], [ -5.6901189, 36.5681491 ], [ -5.6899821, 36.5680711 ], [ -5.689867, 36.5679746 ], [ -5.689751, 36.567851 ], [ -5.6897218, 36.5676534 ], [ -5.6896867, 36.5672847 ], [ -5.6897864, 36.56694 ], [ -5.6898112, 36.5666871 ], [ -5.6897816, 36.5664805 ], [ -5.6896963, 36.5662751 ], [ -5.6896579, 36.5661945 ], [ -5.6896241, 36.5661235 ], [ -5.6895632, 36.5659807 ], [ -5.6895663, 36.5657463 ], [ -5.6896162, 36.565574 ], [ -5.6896574, 36.5654739 ], [ -5.6897116, 36.5654276 ], [ -5.6897746, 36.5653091 ], [ -5.6897609, 36.5652373 ], [ -5.6896905, 36.5651397 ], [ -5.6896535, 36.5650414 ], [ -5.6896166, 36.5649431 ], [ -5.689665, 36.5647258 ], [ -5.6896689, 36.5647161 ], [ -5.6898401, 36.5642982 ], [ -5.6899693, 36.5640529 ], [ -5.6900707, 36.5638604 ], [ -5.6902287, 36.5635865 ], [ -5.6903446, 36.5633856 ], [ -5.6904398, 36.5632302 ], [ -5.6905145, 36.5631294 ], [ -5.6901842, 36.5631276 ], [ -5.6899371, 36.5631261 ], [ -5.6898776, 36.5631258 ], [ -5.6896788, 36.5631343 ], [ -5.6894314, 36.5631449 ], [ -5.6891109, 36.5631468 ], [ -5.6888841, 36.5631482 ], [ -5.6884366, 36.5631312 ], [ -5.6881681, 36.5631193 ], [ -5.6880332, 36.5630953 ], [ -5.6878977, 36.5630533 ], [ -5.687862, 36.5630463 ], [ -5.687774, 36.563029 ], [ -5.6870273, 36.5630819 ], [ -5.6863914, 36.5631105 ], [ -5.6862242, 36.563118 ], [ -5.6854068, 36.5630644 ], [ -5.6847454, 36.5630526 ], [ -5.6845125, 36.5630485 ], [ -5.6835974, 36.5630781 ], [ -5.6831266, 36.5631106 ], [ -5.6830179, 36.5631182 ], [ -5.6826263, 36.5631 ], [ -5.6822777, 36.5630357 ], [ -5.6820396, 36.5629329 ], [ -5.6818017, 36.5628391 ], [ -5.681495, 36.5626928 ], [ -5.6811405, 36.5624575 ], [ -5.6808562, 36.5623107 ], [ -5.6805225, 36.5620298 ], [ -5.6803224, 36.5617369 ], [ -5.680102, 36.5614985 ], [ -5.679906, 36.5613226 ], [ -5.6797295, 36.5610653 ], [ -5.6795509, 36.5607448 ], [ -5.6794714, 36.5603861 ], [ -5.6794026, 36.5600092 ], [ -5.6792691, 36.5593813 ], [ -5.6792223, 36.5589948 ], [ -5.6791631, 36.5585726 ], [ -5.679096, 36.5582497 ], [ -5.6790067, 36.5579272 ], [ -5.678905, 36.557569 ], [ -5.6788278, 36.5572733 ], [ -5.6787929, 36.5569137 ], [ -5.6788239, 36.5565164 ], [ -5.6788422, 36.5560744 ], [ -5.6787706, 36.5556164 ], [ -5.67871, 36.5551581 ], [ -5.6785826, 36.5547014 ], [ -5.6784687, 36.5543164 ], [ -5.6783564, 36.5539765 ], [ -5.6782191, 36.553556 ], [ -5.6780373, 36.5531455 ], [ -5.6778804, 36.5528065 ], [ -5.6776485, 36.5525594 ], [ -5.6774407, 36.5523658 ], [ -5.6772023, 36.552254 ], [ -5.677, 36.5522512 ], [ -5.6767106, 36.552247 ], [ -5.6763659, 36.5522908 ], [ -5.6758205, 36.5523481 ], [ -5.675241, 36.5523882 ], [ -5.6745168, 36.5524405 ], [ -5.6736685, 36.5524595 ], [ -5.6730506, 36.5524734 ], [ -5.6729764, 36.552475 ], [ -5.6723364, 36.5524655 ], [ -5.67225, 36.5524643 ], [ -5.671796, 36.5524632 ], [ -5.6715239, 36.5524625 ], [ -5.6706963, 36.552436 ], [ -5.6699693, 36.5524072 ], [ -5.669466, 36.55239 ], [ -5.6693318, 36.5523855 ], [ -5.6691337, 36.5523787 ], [ -5.668851, 36.5523692 ], [ -5.6685968, 36.552447 ], [ -5.6684662, 36.552549 ], [ -5.6683208, 36.5528677 ], [ -5.668175, 36.5531774 ], [ -5.667962, 36.5534795 ], [ -5.6677927, 36.5537537 ], [ -5.6676138, 36.5540732 ], [ -5.6674346, 36.5543836 ], [ -5.6672026, 36.5547853 ], [ -5.6669617, 36.5552503 ], [ -5.6666563, 36.5557889 ], [ -5.6664132, 36.5561909 ], [ -5.666224, 36.5565376 ], [ -5.6659911, 36.5569123 ], [ -5.6658144, 36.5572947 ], [ -5.6656593, 36.5576587 ], [ -5.6655622, 36.5580844 ], [ -5.6654806, 36.5583116 ], [ -5.6654068, 36.5584394 ], [ -5.665267, 36.5585957 ], [ -5.6651153, 36.5587343 ], [ -5.6649191, 36.5588739 ], [ -5.6647665, 36.5589855 ], [ -5.6646583, 36.559087 ], [ -5.6645863, 36.5592689 ], [ -5.664524, 36.5594054 ], [ -5.664462, 36.559551 ], [ -5.6643888, 36.5596968 ], [ -5.6643051, 36.5598609 ], [ -5.6642098, 36.5600163 ], [ -5.6641131, 36.5601266 ], [ -5.6639822, 36.5602196 ], [ -5.663873, 36.5602942 ], [ -5.6638076, 36.5603407 ], [ -5.6637319, 36.5604145 ], [ -5.6636687, 36.560524 ], [ -5.6636066, 36.5606696 ], [ -5.6635452, 36.5608332 ], [ -5.6634708, 36.560943 ], [ -5.6633862, 36.5610801 ], [ -5.663227, 36.561327 ], [ -5.6630686, 36.5615919 ], [ -5.6628971, 36.561803 ], [ -5.6627058, 36.5620866 ], [ -5.6624927, 36.5623888 ], [ -5.6623559, 36.5626352 ], [ -5.6621645, 36.5629189 ], [ -5.6619654, 36.5633018 ], [ -5.6617991, 36.563666 ], [ -5.6616645, 36.5639754 ], [ -5.6615423, 36.5643206 ], [ -5.6614195, 36.5646478 ], [ -5.661297, 36.564984 ], [ -5.661131, 36.5653572 ], [ -5.6609533, 36.5657127 ], [ -5.6607675, 36.5661584 ], [ -5.6606127, 36.5665314 ], [ -5.6604703, 36.5669401 ], [ -5.66038, 36.5672395 ], [ -5.6602891, 36.5675209 ], [ -5.660237, 36.5676303 ], [ -5.6602289, 36.5677206 ], [ -5.6604348, 36.5678601 ], [ -5.6608556, 36.5680761 ], [ -5.6611865, 36.568276 ], [ -5.661496, 36.5685034 ], [ -5.6616587, 36.568689 ], [ -5.6617799, 36.5689657 ], [ -5.6617477, 36.5693269 ], [ -5.6616728, 36.5697521 ], [ -5.6615733, 36.5701058 ], [ -5.6615032, 36.5703417 ], [ -5.6613416, 36.5705165 ], [ -5.6610695, 36.5707299 ], [ -5.6607855, 36.5709165 ], [ -5.6605588, 36.5711469 ], [ -5.6604337, 36.571411 ], [ -5.6603878, 36.5717004 ], [ -5.660353, 36.5719896 ], [ -5.6603402, 36.5722692 ], [ -5.660326, 36.5725039 ], [ -5.6603104, 36.5727025 ], [ -5.660284, 36.5729104 ], [ -5.6602037, 36.5731735 ], [ -5.6601345, 36.5734364 ], [ -5.6601236, 36.5737701 ], [ -5.6601139, 36.5741398 ], [ -5.6600469, 36.5744658 ], [ -5.6600189, 36.5749531 ], [ -5.6599953, 36.575242 ], [ -5.6599627, 36.5755942 ], [ -5.6600628, 36.5759074 ], [ -5.6601856, 36.5762291 ], [ -5.6603964, 36.5765127 ], [ -5.6605484, 36.5767076 ], [ -5.6606222, 36.5769042 ], [ -5.66062, 36.5771656 ], [ -5.6606001, 36.5775627 ], [ -5.6606261, 36.5779946 ], [ -5.6606425, 36.578472 ], [ -5.6606778, 36.5788497 ], [ -5.6606802, 36.5792462 ], [ -5.660686, 36.5797417 ], [ -5.6606975, 36.5800749 ], [ -5.6607964, 36.580352 ], [ -5.6609192, 36.5806737 ], [ -5.6611434, 36.5810202 ], [ -5.6612671, 36.5813689 ], [ -5.6613365, 36.5817639 ], [ -5.6613839, 36.5821684 ], [ -5.6613969, 36.5825466 ], [ -5.6613746, 36.5828716 ], [ -5.6613829, 36.5831147 ], [ -5.6613587, 36.5833856 ], [ -5.6615351, 36.583643 ], [ -5.6616542, 36.5838567 ], [ -5.6618291, 36.5840691 ], [ -5.6620028, 36.5842454 ], [ -5.6622212, 36.5844208 ], [ -5.6623843, 36.5846154 ], [ -5.6625682, 36.5847645 ], [ -5.6626526, 36.5849429 ], [ -5.6627732, 36.5852016 ], [ -5.6628774, 36.5856318 ], [ -5.6630262, 36.586061 ], [ -5.6631524, 36.5864818 ], [ -5.6632048, 36.5867059 ], [ -5.6632799, 36.5869386 ], [ -5.663354, 36.5871442 ], [ -5.6634883, 36.5874746 ], [ -5.6635664, 36.5877973 ], [ -5.663657, 36.5881558 ], [ -5.6637804, 36.5884955 ], [ -5.6639258, 36.5888257 ], [ -5.6641498, 36.5891632 ], [ -5.6642857, 36.5895387 ], [ -5.6644584, 36.5900124 ], [ -5.6645486, 36.5903619 ], [ -5.6647627, 36.5907357 ], [ -5.6649783, 36.5911544 ], [ -5.665195, 36.5916091 ], [ -5.6654388, 36.5921985 ], [ -5.6656454, 36.5926805 ], [ -5.665839, 36.5931088 ], [ -5.6659615, 36.5934215 ], [ -5.6661966, 36.5937587 ], [ -5.6664085, 36.5940694 ], [ -5.6666222, 36.5944341 ], [ -5.6669504, 36.5948774 ], [ -5.667242, 36.5952313 ], [ -5.6674566, 36.5956231 ], [ -5.6676148, 36.595998 ], [ -5.6678056, 36.5963452 ], [ -5.6679496, 36.5966304 ], [ -5.6680324, 36.5967637 ], [ -5.6680696, 36.5968711 ], [ -5.6680606, 36.5969343 ], [ -5.6680519, 36.5970066 ], [ -5.668011, 36.5971157 ], [ -5.6678707, 36.597263 ], [ -5.6677516, 36.5973738 ], [ -5.6676098, 36.5974761 ], [ -5.6675004, 36.5975417 ], [ -5.6673797, 36.5976075 ], [ -5.6673033, 36.5976633 ], [ -5.6672717, 36.597718 ], [ -5.6672745, 36.5977991 ], [ -5.6673235, 36.5979242 ], [ -5.6673725, 36.5980492 ], [ -5.6674246, 36.5982643 ], [ -5.6674749, 36.5984255 ], [ -5.6675351, 36.5985503 ], [ -5.6675835, 36.5986573 ], [ -5.6666829, 36.5987946 ], [ -5.665893, 36.5989024 ], [ -5.6651373, 36.5990275 ], [ -5.6643242, 36.5991088 ], [ -5.6636903, 36.599204 ], [ -5.6630779, 36.5992718 ], [ -5.6626668, 36.5993441 ], [ -5.6623458, 36.5994324 ], [ -5.6618509, 36.5996687 ], [ -5.6612903, 36.5999426 ], [ -5.6606099, 36.6003093 ], [ -5.6597905, 36.6008593 ], [ -5.6590347, 36.6013088 ], [ -5.6584874, 36.6016454 ], [ -5.6578951, 36.601974 ], [ -5.6574685, 36.6022449 ], [ -5.6571743, 36.6024678 ], [ -5.6568014, 36.6026743 ], [ -5.6562755, 36.6029835 ], [ -5.6554448, 36.6035337 ], [ -5.6547814, 36.6040712 ], [ -5.6544137, 36.6044309 ], [ -5.6539578, 36.6048286 ], [ -5.6537081, 36.6050414 ], [ -5.6534679, 36.605209 ], [ -5.6531492, 36.6053693 ], [ -5.6526232, 36.6056784 ], [ -5.6519406, 36.605982 ], [ -5.6511698, 36.6063236 ], [ -5.6505086, 36.6065996 ], [ -5.6497925, 36.606904 ], [ -5.6490229, 36.6072815 ], [ -5.6481124, 36.6077885 ], [ -5.6472479, 36.6083304 ], [ -5.6466719, 36.6088118 ], [ -5.6464118, 36.6090519 ], [ -5.6462284, 36.6092452 ], [ -5.6459239, 36.6094953 ], [ -5.6456309, 36.6097542 ], [ -5.6451952, 36.6100883 ], [ -5.644639, 36.6104972 ], [ -5.6442241, 36.6107857 ], [ -5.6437552, 36.6111296 ], [ -5.6432859, 36.6114645 ], [ -5.6427717, 36.6117913 ], [ -5.6423459, 36.6120891 ], [ -5.6418862, 36.6123787 ], [ -5.6414284, 36.6127223 ], [ -5.6408142, 36.6130694 ], [ -5.6403744, 36.6132864 ], [ -5.6399245, 36.6135307 ], [ -5.6394071, 36.6137675 ], [ -5.6388311, 36.6139244 ], [ -5.6383923, 36.6141685 ], [ -5.6381412, 36.6143453 ], [ -5.6379347, 36.614521 ], [ -5.6375285, 36.6147374 ], [ -5.6369025, 36.6150666 ], [ -5.6363121, 36.6154582 ], [ -5.6357308, 36.6157865 ], [ -5.6350067, 36.6161901 ], [ -5.6344504, 36.6165989 ], [ -5.6338784, 36.6168729 ], [ -5.6332626, 36.6171749 ], [ -5.6327235, 36.6174301 ], [ -5.6324286, 36.6176349 ], [ -5.6321408, 36.6180468 ], [ -5.631837, 36.6186484 ], [ -5.6316736, 36.6191026 ], [ -5.6314742, 36.6194855 ], [ -5.6313028, 36.6197056 ], [ -5.6310936, 36.6198003 ], [ -5.6308602, 36.6198415 ], [ -5.6306938, 36.6198813 ], [ -5.6305731, 36.619947 ], [ -5.6304315, 36.6200583 ], [ -5.6302598, 36.6202694 ], [ -5.6300763, 36.6204626 ], [ -5.6298692, 36.6206204 ], [ -5.6296178, 36.6207882 ], [ -5.6292966, 36.6208764 ], [ -5.6289952, 36.6208921 ], [ -5.628751, 36.6209425 ], [ -5.6285182, 36.6210017 ], [ -5.6283534, 36.6210865 ], [ -5.6281249, 36.6212717 ], [ -5.6278663, 36.6215569 ], [ -5.6275107, 36.6219522 ], [ -5.6271797, 36.6224101 ], [ -5.6268027, 36.622833 ], [ -5.6264248, 36.6232288 ], [ -5.626101, 36.6235695 ], [ -5.625787, 36.6238738 ], [ -5.6254849, 36.6241959 ], [ -5.6253554, 36.6243339 ], [ -5.6252138, 36.6244452 ], [ -5.6250684, 36.6244762 ], [ -5.6250251, 36.6244854 ], [ -5.6247452, 36.6244735 ], [ -5.6244091, 36.6244539 ], [ -5.6240607, 36.6243985 ], [ -5.6237901, 36.6243323 ], [ -5.6234074, 36.6242596 ], [ -5.6230357, 36.6241777 ], [ -5.6225969, 36.6240973 ], [ -5.6221908, 36.6239891 ], [ -5.6216711, 36.6238292 ], [ -5.6215013, 36.6237699 ], [ -5.6213636, 36.6236648 ], [ -5.6212718, 36.6235947 ], [ -5.6210863, 36.6234005 ], [ -5.6207994, 36.6231815 ], [ -5.6205134, 36.6229895 ], [ -5.6202615, 36.6228148 ], [ -5.6199873, 36.6226406 ], [ -5.6197366, 36.6225019 ], [ -5.6194804, 36.6224648 ], [ -5.6194669, 36.6224628 ], [ -5.6190644, 36.6224626 ], [ -5.6186596, 36.6224715 ], [ -5.6184723, 36.6224757 ], [ -5.6178563, 36.6224441 ], [ -5.6172665, 36.6224119 ], [ -5.6171506, 36.6224055 ], [ -5.6166683, 36.6224161 ], [ -5.6165585, 36.6224186 ], [ -5.6162223, 36.6224109 ], [ -5.6159543, 36.6224048 ], [ -5.6154863, 36.6224511 ], [ -5.6148208, 36.6226099 ], [ -5.6141104, 36.6227607 ], [ -5.6133002, 36.6229407 ], [ -5.612424, 36.6231492 ], [ -5.611738, 36.6233625 ], [ -5.6109871, 36.6236403 ], [ -5.6104895, 36.6238044 ], [ -5.6102555, 36.6238276 ], [ -5.6099745, 36.62386 ], [ -5.6099659, 36.623861 ], [ -5.6096998, 36.6238582 ], [ -5.6096522, 36.6238577 ], [ -5.6094067, 36.6238552 ], [ -5.6086814, 36.6238981 ], [ -5.6081483, 36.6239161 ], [ -5.607922, 36.6239237 ], [ -5.6072821, 36.6238476 ], [ -5.6067751, 36.6237326 ], [ -5.606368, 36.6235973 ], [ -5.6060612, 36.6234508 ], [ -5.6056167, 36.6231991 ], [ -5.6052972, 36.6230078 ], [ -5.6051037, 36.6229039 ], [ -5.6049228, 36.6228448 ], [ -5.6047794, 36.6228322 ], [ -5.6046761, 36.6228232 ], [ -5.604497, 36.622818 ], [ -5.6043318, 36.6228938 ], [ -5.6042128, 36.6229699 ], [ -5.6042005, 36.6229777 ], [ -5.6040335, 36.6229994 ], [ -5.6038644, 36.622958 ], [ -5.6037394, 36.6228977 ], [ -5.6036486, 36.6228474 ], [ -5.6036141, 36.6228283 ], [ -5.6035118, 36.6227765 ], [ -5.6034111, 36.6227787 ], [ -5.6033028, 36.6228802 ], [ -5.6032838, 36.6229798 ], [ -5.6032862, 36.6230518 ], [ -5.6033333, 36.6231229 ], [ -5.6034837, 36.6232728 ], [ -5.603677, 36.6233677 ], [ -5.6038264, 36.6234906 ], [ -5.6039403, 36.6235512 ], [ -5.6040544, 36.6236208 ], [ -5.6041798, 36.6236902 ], [ -5.6042837, 36.6237871 ], [ -5.6043857, 36.6238299 ], [ -5.6046233, 36.6239148 ], [ -5.6048514, 36.624045 ], [ -5.6050911, 36.624193 ], [ -5.6052666, 36.6244234 ], [ -5.6054306, 36.6246451 ], [ -5.605526, 36.6248233 ], [ -5.6056127, 36.6250738 ], [ -5.6056889, 36.6253425 ], [ -5.6056949, 36.6255226 ], [ -5.6056355, 36.6257492 ], [ -5.6054981, 36.6259865 ], [ -5.6051748, 36.6263451 ], [ -5.6048149, 36.6266143 ], [ -5.6043562, 36.6269398 ], [ -5.6042363, 36.6270325 ], [ -5.6039951, 36.6271729 ], [ -5.603742, 36.6272956 ], [ -5.6034002, 36.6274383 ], [ -5.6031173, 36.6276698 ], [ -5.6029473, 36.6279349 ], [ -5.6028347, 36.6282438 ], [ -5.60279, 36.6285782 ], [ -5.6027834, 36.6290469 ], [ -5.6027282, 36.6293997 ], [ -5.602634, 36.6299244 ], [ -5.6024423, 36.630208 ], [ -5.6021724, 36.6304932 ], [ -5.6018341, 36.630744 ], [ -5.601476, 36.6310672 ], [ -5.6011735, 36.6313803 ], [ -5.60095, 36.6317186 ], [ -5.6007513, 36.6321285 ], [ -5.6005137, 36.6327104 ], [ -5.6001124, 36.6334132 ], [ -5.5997618, 36.6339616 ], [ -5.599477, 36.634139 ], [ -5.5990784, 36.6342558 ], [ -5.5986468, 36.6343914 ], [ -5.5984378, 36.6344952 ], [ -5.5983319, 36.6346687 ], [ -5.5982721, 36.6348863 ], [ -5.5982908, 36.6351112 ], [ -5.598411, 36.6353609 ], [ -5.5985046, 36.635485 ], [ -5.5986898, 36.6356702 ], [ -5.5988317, 36.6359015 ], [ -5.5988937, 36.6360803 ], [ -5.5989481, 36.6363676 ], [ -5.5990256, 36.6366813 ], [ -5.5990238, 36.6369607 ], [ -5.5989514, 36.6371336 ], [ -5.5988668, 36.6372796 ], [ -5.5987258, 36.6374088 ], [ -5.5985383, 36.637485 ], [ -5.5981614, 36.6375834 ], [ -5.5977965, 36.6377085 ], [ -5.5975114, 36.6378769 ], [ -5.5972284, 36.6381084 ], [ -5.5968379, 36.6384684 ], [ -5.5963605, 36.6389024 ], [ -5.5960047, 36.6392977 ], [ -5.5956354, 36.6396212 ], [ -5.5952976, 36.6398899 ], [ -5.59496, 36.6401586 ], [ -5.5946202, 36.6403642 ], [ -5.5941907, 36.6405629 ], [ -5.5938168, 36.6407513 ], [ -5.5933327, 36.6409871 ], [ -5.5930358, 36.6411377 ], [ -5.5927066, 36.6413252 ], [ -5.592156, 36.6415805 ], [ -5.5917361, 36.6417338 ], [ -5.5911807, 36.641845 ], [ -5.590779, 36.6418718 ], [ -5.5902991, 36.6419002 ], [ -5.5897753, 36.6419567 ], [ -5.589196, 36.6420234 ], [ -5.5887091, 36.6421782 ], [ -5.588224, 36.642387 ], [ -5.5879078, 36.6426282 ], [ -5.5876583, 36.6428589 ], [ -5.5874447, 36.6431609 ], [ -5.5871076, 36.6434476 ], [ -5.5868207, 36.643562 ], [ -5.5865328, 36.6436494 ], [ -5.5863347, 36.6437438 ], [ -5.5861003, 36.6438798 ], [ -5.5860604, 36.643903 ], [ -5.585859, 36.6438983 ], [ -5.5855312, 36.6437973 ], [ -5.5852368, 36.6436865 ], [ -5.5849317, 36.643594 ], [ -5.584578, 36.6433854 ], [ -5.5843066, 36.6432921 ], [ -5.5840021, 36.6432177 ], [ -5.5835759, 36.6431818 ], [ -5.5829577, 36.6430871 ], [ -5.5822059, 36.6430133 ], [ -5.5815221, 36.642965 ], [ -5.5809841, 36.6429316 ], [ -5.5805049, 36.6429149 ], [ -5.580346, 36.6429094 ], [ -5.5799101, 36.6429188 ], [ -5.5795748, 36.6429261 ], [ -5.579251, 36.6429421 ], [ -5.5791276, 36.6429599 ], [ -5.5788838, 36.6429951 ], [ -5.5785854, 36.6431007 ], [ -5.5784536, 36.6431757 ], [ -5.5783385, 36.6432193 ], [ -5.5782769, 36.6432426 ], [ -5.5781913, 36.6432513 ], [ -5.5781655, 36.643254 ], [ -5.5780863, 36.6432287 ], [ -5.5780075, 36.6432124 ], [ -5.5778967, 36.6432418 ], [ -5.5777867, 36.6432982 ], [ -5.5776335, 36.6434007 ], [ -5.577468, 36.6434674 ], [ -5.5773824, 36.6434954 ], [ -5.577291, 36.6435253 ], [ -5.5771345, 36.6435286 ], [ -5.5769862, 36.6434417 ], [ -5.5768603, 36.6433544 ], [ -5.5767115, 36.6432494 ], [ -5.5765312, 36.6432082 ], [ -5.5763515, 36.6431851 ], [ -5.5762471, 36.6431734 ], [ -5.5761494, 36.6431624 ], [ -5.5760256, 36.6431381 ], [ -5.5758488, 36.643205 ], [ -5.5757154, 36.6432259 ], [ -5.5755921, 36.6432196 ], [ -5.5754691, 36.6432222 ], [ -5.5754684, 36.6432222 ], [ -5.5754433, 36.6432228 ], [ -5.5752457, 36.6432271 ], [ -5.5749877, 36.6432056 ], [ -5.574763, 36.6431744 ], [ -5.5745603, 36.6431337 ], [ -5.5745131, 36.6431253 ], [ -5.5743353, 36.6430935 ], [ -5.5741577, 36.6431334 ], [ -5.5739363, 36.6432013 ], [ -5.573827, 36.6432757 ], [ -5.5737079, 36.6433955 ], [ -5.5736636, 36.6434145 ], [ -5.5735535, 36.6434619 ], [ -5.5734192, 36.6434558 ], [ -5.573326, 36.6433926 ], [ -5.5733161, 36.6433859 ], [ -5.5732359, 36.6433246 ], [ -5.5731105, 36.6432552 ], [ -5.5730079, 36.6431943 ], [ -5.5729049, 36.6431556 ], [ -5.5728946, 36.6431517 ], [ -5.572749, 36.6431458 ], [ -5.572414, 36.6431621 ], [ -5.5723808, 36.643164 ], [ -5.5721685, 36.6431763 ], [ -5.5719099, 36.6431369 ], [ -5.5718125, 36.6431241 ], [ -5.5716741, 36.6431059 ], [ -5.5716047, 36.6431114 ], [ -5.5715179, 36.6431183 ], [ -5.5713959, 36.643148 ], [ -5.5712203, 36.6432509 ], [ -5.5710892, 36.6433438 ], [ -5.5710735, 36.6433606 ], [ -5.5710301, 36.6434068 ], [ -5.5709596, 36.6434819 ], [ -5.5708361, 36.6434665 ], [ -5.5707449, 36.6434144 ], [ -5.5705407, 36.6433287 ], [ -5.570432, 36.6433127 ], [ -5.5703272, 36.6432972 ], [ -5.5701152, 36.6433108 ], [ -5.569872, 36.6433972 ], [ -5.5697058, 36.6434458 ], [ -5.5695503, 36.6434762 ], [ -5.5694521, 36.6435504 ], [ -5.5693666, 36.6436695 ], [ -5.5693043, 36.643815 ], [ -5.5692644, 36.64396 ], [ -5.569313, 36.6440761 ], [ -5.5694507, 36.6441813 ], [ -5.5695657, 36.644278 ], [ -5.569704, 36.6444011 ], [ -5.5697644, 36.6445351 ], [ -5.5697574, 36.6446614 ], [ -5.5696507, 36.6448169 ], [ -5.5695785, 36.6449987 ], [ -5.5695304, 36.645234 ], [ -5.5695164, 36.6454867 ], [ -5.5695613, 36.6458282 ], [ -5.5695944, 36.6461519 ], [ -5.5696596, 36.6464299 ], [ -5.56968, 36.6467088 ], [ -5.5696754, 36.6469072 ], [ -5.5695896, 36.6470172 ], [ -5.5694588, 36.6471192 ], [ -5.5692507, 36.6472498 ], [ -5.5691222, 36.6474238 ], [ -5.5689944, 36.6476158 ], [ -5.5688245, 36.6478899 ], [ -5.5685136, 36.6482931 ], [ -5.568193, 36.6487417 ], [ -5.5677729, 36.6492284 ], [ -5.5674317, 36.6497314 ], [ -5.5671113, 36.6501889 ], [ -5.5669726, 36.6503902 ], [ -5.5668551, 36.650555 ], [ -5.5667472, 36.6506744 ], [ -5.5665728, 36.6508133 ], [ -5.5664749, 36.6508966 ], [ -5.5663229, 36.6510351 ], [ -5.5662827, 36.6511711 ], [ -5.5662869, 36.6512972 ], [ -5.5662699, 36.6514598 ], [ -5.5662536, 36.6516404 ], [ -5.566181, 36.6518132 ], [ -5.5661202, 36.6520037 ], [ -5.5661029, 36.6521573 ], [ -5.5661089, 36.6523374 ], [ -5.5661926, 36.6524979 ], [ -5.5662206, 36.6526685 ], [ -5.5661577, 36.652796 ], [ -5.5659289, 36.6529812 ], [ -5.5657214, 36.6531298 ], [ -5.5655138, 36.6532785 ], [ -5.5651509, 36.6534666 ], [ -5.5648107, 36.6536632 ], [ -5.564482, 36.6538685 ], [ -5.5642088, 36.6540637 ], [ -5.5639027, 36.6542776 ], [ -5.5635652, 36.6545552 ], [ -5.5633153, 36.6547768 ], [ -5.5631106, 36.6550156 ], [ -5.5629245, 36.6551368 ], [ -5.5626422, 36.6553952 ], [ -5.5624944, 36.6556597 ], [ -5.5624572, 36.6558858 ], [ -5.562454, 36.6561292 ], [ -5.5624563, 36.6565347 ], [ -5.5624909, 36.6569035 ], [ -5.5625222, 36.6571732 ], [ -5.5625904, 36.6575412 ], [ -5.5627222, 36.6578087 ], [ -5.562908, 36.658012 ], [ -5.563214, 36.6581316 ], [ -5.5634634, 36.6582344 ], [ -5.5635897, 36.6583308 ], [ -5.5636613, 36.6584645 ], [ -5.5636654, 36.6585906 ], [ -5.5636617, 36.6588159 ], [ -5.5636238, 36.659024 ], [ -5.5635175, 36.6591885 ], [ -5.5633811, 36.6594618 ], [ -5.5630985, 36.6597113 ], [ -5.5628486, 36.6599329 ], [ -5.5625002, 36.6602198 ], [ -5.562137, 36.6603989 ], [ -5.5617831, 36.6605236 ], [ -5.5615302, 36.6606552 ], [ -5.5612555, 36.6608054 ], [ -5.5610911, 36.660908 ], [ -5.5609606, 36.661019 ], [ -5.5608403, 36.6611027 ], [ -5.5606747, 36.6611693 ], [ -5.560552, 36.661181 ], [ -5.5603859, 36.6612296 ], [ -5.5602983, 36.6612856 ], [ -5.5602568, 36.6613856 ], [ -5.5602033, 36.6614588 ], [ -5.5600842, 36.6615786 ], [ -5.5599413, 36.6616537 ], [ -5.5599295, 36.6616548 ], [ -5.5598074, 36.6616656 ], [ -5.5596618, 36.6616598 ], [ -5.5594818, 36.6616276 ], [ -5.559257, 36.6615963 ], [ -5.5589855, 36.6615031 ], [ -5.558658, 36.6614109 ], [ -5.5584324, 36.6613527 ], [ -5.5582061, 36.6612765 ], [ -5.5580378, 36.6612621 ], [ -5.5578587, 36.6612569 ], [ -5.5576777, 36.6611977 ], [ -5.5574856, 36.6611387 ], [ -5.5574795, 36.6611376 ], [ -5.5573056, 36.6611066 ], [ -5.5571167, 36.6611467 ], [ -5.5569502, 36.6611863 ], [ -5.5568173, 36.6612252 ], [ -5.5567076, 36.6612906 ], [ -5.5565535, 36.661366 ], [ -5.5564111, 36.6614592 ], [ -5.5563095, 36.661582 ], [ -5.5562821, 36.6616152 ], [ -5.556213, 36.6616066 ], [ -5.5561585, 36.6615998 ], [ -5.5561105, 36.6615904 ], [ -5.5560346, 36.6615754 ], [ -5.5559455, 36.6615864 ], [ -5.5558573, 36.6616243 ], [ -5.5557772, 36.6615719 ], [ -5.5556842, 36.6614658 ], [ -5.5555913, 36.6613596 ], [ -5.5554774, 36.661302 ], [ -5.5554547, 36.6612905 ], [ -5.5552976, 36.6612758 ], [ -5.5551309, 36.6613064 ], [ -5.5551094, 36.6613123 ], [ -5.5549535, 36.6613553 ], [ -5.5547988, 36.6614127 ], [ -5.5546806, 36.6615594 ], [ -5.5545665, 36.661714 ], [ -5.5545521, 36.6617334 ], [ -5.5544907, 36.6617438 ], [ -5.554479, 36.6617457 ], [ -5.5544297, 36.6617541 ], [ -5.5542832, 36.6617212 ], [ -5.5541246, 36.6616615 ], [ -5.5539319, 36.6615845 ], [ -5.5536839, 36.6615267 ], [ -5.5535162, 36.6614793 ], [ -5.5534721, 36.6614668 ], [ -5.5534468, 36.6614597 ], [ -5.55329, 36.6614541 ], [ -5.5531127, 36.6615029 ], [ -5.552867, 36.6615172 ], [ -5.5525881, 36.6615412 ], [ -5.5523084, 36.6615382 ], [ -5.5520751, 36.6615882 ], [ -5.5518977, 36.6616371 ], [ -5.5516739, 36.6616851 ], [ -5.5516645, 36.6616872 ], [ -5.5515068, 36.6616853 ], [ -5.5513959, 36.6616839 ], [ -5.5513431, 36.6616818 ], [ -5.5513295, 36.6616812 ], [ -5.5511047, 36.6616721 ], [ -5.5508817, 36.6616949 ], [ -5.5505584, 36.6617289 ], [ -5.5502907, 36.6617526 ], [ -5.5501122, 36.6617655 ], [ -5.5499668, 36.6617686 ], [ -5.5497115, 36.6618281 ], [ -5.5495664, 36.6618486 ], [ -5.5494109, 36.6618706 ], [ -5.5492988, 36.661864 ], [ -5.5491432, 36.6617967 ], [ -5.54914, 36.6617953 ], [ -5.5490152, 36.6617439 ], [ -5.5489261, 36.6617548 ], [ -5.5489108, 36.6617614 ], [ -5.5488378, 36.6617928 ], [ -5.5487276, 36.6618402 ], [ -5.5486178, 36.6619056 ], [ -5.5485304, 36.6619553 ], [ -5.548486, 36.6619805 ], [ -5.5484241, 36.6619819 ], [ -5.5483854, 36.6619827 ], [ -5.5483578, 36.6619767 ], [ -5.5482728, 36.661958 ], [ -5.5481268, 36.6619432 ], [ -5.5479833, 36.6620003 ], [ -5.5478407, 36.6620845 ], [ -5.5476868, 36.6621688 ], [ -5.5475224, 36.6622715 ], [ -5.5471906, 36.6623868 ], [ -5.5470585, 36.6624504 ], [ -5.5470145, 36.6624716 ], [ -5.5469497, 36.6624995 ], [ -5.5468821, 36.6625286 ], [ -5.5468027, 36.6624942 ], [ -5.546722, 36.6624238 ], [ -5.5466998, 36.6624107 ], [ -5.5466193, 36.6623629 ], [ -5.5465402, 36.6623376 ], [ -5.5464511, 36.6623485 ], [ -5.5463861, 36.662413 ], [ -5.5462996, 36.6625049 ], [ -5.5463137, 36.6625948 ], [ -5.5463067, 36.6627211 ], [ -5.546255, 36.6628484 ], [ -5.5462135, 36.6629484 ], [ -5.5461059, 36.6630769 ], [ -5.5459738, 36.6631428 ], [ -5.5458747, 36.66319 ], [ -5.545742, 36.6632378 ], [ -5.5455985, 36.663295 ], [ -5.5455557, 36.6633022 ], [ -5.5454761, 36.6633156 ], [ -5.5452855, 36.6633017 ], [ -5.5451673, 36.6632956 ], [ -5.5451622, 36.6632953 ], [ -5.5450501, 36.6632887 ], [ -5.5449157, 36.6632826 ], [ -5.5448045, 36.663303 ], [ -5.5447389, 36.6633494 ], [ -5.544696, 36.6634044 ], [ -5.544676, 36.6634769 ], [ -5.5446454, 36.6635677 ], [ -5.544626, 36.6636583 ], [ -5.544561, 36.6637227 ], [ -5.5444837, 36.6637514 ], [ -5.5444066, 36.6637891 ], [ -5.5443075, 36.6638363 ], [ -5.5441654, 36.6639385 ], [ -5.544056, 36.6640129 ], [ -5.5438224, 36.6640539 ], [ -5.5438164, 36.6640541 ], [ -5.5436771, 36.664057 ], [ -5.5435759, 36.6640538 ], [ -5.5435091, 36.6640516 ], [ -5.5433188, 36.6640467 ], [ -5.5431849, 36.6640585 ], [ -5.5430747, 36.664106 ], [ -5.5429982, 36.6641617 ], [ -5.5429329, 36.6642171 ], [ -5.5428676, 36.6642726 ], [ -5.5427917, 36.6643463 ], [ -5.5427155, 36.6644111 ], [ -5.5426617, 36.6644753 ], [ -5.542636, 36.6644885 ], [ -5.5426067, 36.6645035 ], [ -5.5425623, 36.6645134 ], [ -5.5425607, 36.6645131 ], [ -5.5424834, 36.6644971 ], [ -5.5423714, 36.6644905 ], [ -5.5422254, 36.6644756 ], [ -5.5422722, 36.6645376 ], [ -5.542377, 36.6646616 ], [ -5.5424129, 36.6647329 ], [ -5.5425291, 36.6648656 ], [ -5.5424629, 36.6648941 ], [ -5.5423744, 36.664923 ], [ -5.5423761, 36.664977 ], [ -5.5424224, 36.6650211 ], [ -5.5424691, 36.6650832 ], [ -5.5425162, 36.6651543 ], [ -5.5425083, 36.6652536 ], [ -5.5424218, 36.6653456 ], [ -5.5422592, 36.6655023 ], [ -5.5421289, 36.6656222 ], [ -5.5419889, 36.6657874 ], [ -5.5419142, 36.6658972 ], [ -5.5418633, 36.6660515 ], [ -5.5418122, 36.6661967 ], [ -5.541736, 36.6662615 ], [ -5.5416154, 36.6663361 ], [ -5.5414186, 36.6664755 ], [ -5.5412015, 36.6666784 ], [ -5.5409004, 36.6670453 ], [ -5.5407274, 36.6672293 ], [ -5.5405971, 36.6673492 ], [ -5.5405495, 36.6676026 ], [ -5.5404801, 36.6678745 ], [ -5.5403781, 36.6681741 ], [ -5.5402734, 36.6683926 ], [ -5.5400751, 36.6684869 ], [ -5.539778, 36.6686375 ], [ -5.5396045, 36.6688034 ], [ -5.5394656, 36.6690046 ], [ -5.5393504, 36.6692414 ], [ -5.5390835, 36.6695374 ], [ -5.5389942, 36.6696365 ], [ -5.5389615, 36.6696642 ], [ -5.5393514, 36.6699533 ] ], [ [ -5.8019054, 36.6059231 ], [ -5.801366, 36.6063075 ], [ -5.8014499, 36.6063882 ], [ -5.8023937, 36.6076249 ], [ -5.803319, 36.6089436 ], [ -5.80284, 36.6091691 ], [ -5.8021868, 36.6081162 ], [ -5.7998669, 36.6093916 ], [ -5.7995401, 36.6095137 ], [ -5.7979376, 36.6110011 ], [ -5.7964429, 36.6102351 ], [ -5.7963309, 36.6074623 ], [ -5.7963307, 36.6061461 ], [ -5.7966626, 36.6055088 ], [ -5.7968498, 36.6047986 ], [ -5.7971122, 36.6042011 ], [ -5.7975616, 36.6037248 ], [ -5.7967746, 36.6033922 ], [ -5.7969237, 36.6032647 ], [ -5.7970847, 36.603137 ], [ -5.7972113, 36.6030386 ], [ -5.7973267, 36.6029596 ], [ -5.7974185, 36.6028811 ], [ -5.7974749, 36.6028035 ], [ -5.7975649, 36.6026774 ], [ -5.7975858, 36.6026006 ], [ -5.7975007, 36.6025359 ], [ -5.7974412, 36.6025277 ], [ -5.7973707, 36.6025389 ], [ -5.7972052, 36.6025428 ], [ -5.7970519, 36.6025559 ], [ -5.7969219, 36.602559 ], [ -5.7968273, 36.6025612 ], [ -5.7967328, 36.6025634 ], [ -5.7966264, 36.6025659 ], [ -5.7965322, 36.6025777 ], [ -5.7963393, 36.6024773 ], [ -5.7962903, 36.6024308 ], [ -5.7962768, 36.6023834 ], [ -5.7963335, 36.6023153 ], [ -5.7964273, 36.602294 ], [ -5.7964607, 36.602236 ], [ -5.7964701, 36.602169 ], [ -5.7964538, 36.6020454 ], [ -5.7963676, 36.6019521 ], [ -5.7962662, 36.6017637 ], [ -5.7962499, 36.6016401 ], [ -5.7963629, 36.6014944 ], [ -5.7964318, 36.6014355 ], [ -5.796402, 36.6012645 ], [ -5.7964145, 36.600301 ], [ -5.7971479, 36.5993204 ], [ -5.7986955, 36.5982826 ], [ -5.8005436, 36.5983632 ], [ -5.8020933, 36.5980406 ], [ -5.8026774, 36.5965294 ], [ -5.8043018, 36.5959857 ], [ -5.8067093, 36.5922475 ], [ -5.8085245, 36.5930535 ], [ -5.807007, 36.5945867 ], [ -5.8060748, 36.5975844 ], [ -5.8041654, 36.5990791 ], [ -5.8038802, 36.6023095 ], [ -5.8030698, 36.6041026 ], [ -5.8024193, 36.6057393 ], [ -5.8019054, 36.6059231 ] ] ] } }
]
}
