{
"type": "FeatureCollection",
"name": "12056",
"features": [
{ "type": "Feature", "properties": { "CCAA": "10 - Comunitat Valenciana", "PROVINCIA": "12 - Castellón/Castelló", "MUNICIPIO": "12056 - Chóvar", "COD_MUNICIPIO": "12056", "DISTRITO": "01", "SECCION": "1205601001", "V1_H": 79.57, "V1_M": 85.52, "V2_H": 79.5571672, "V2_M": 85.61629353, "V3_H": 79.73611669, "V3_M": 85.61269153000001 }, "geometry": { "type": "Polygon", "coordinates": [ [ [ -0.3359063, 39.8743454 ], [ -0.3364171, 39.8744382 ], [ -0.3369569, 39.8743876 ], [ -0.339786, 39.8746958 ], [ -0.3422376, 39.874788 ], [ -0.3432381, 39.8746127 ], [ -0.3437342, 39.87448 ], [ -0.3439745, 39.8743143 ], [ -0.3443984, 39.8736304 ], [ -0.3447373, 39.8715122 ], [ -0.3440105, 39.8703516 ], [ -0.3417085, 39.8679026 ], [ -0.3411534, 39.8671422 ], [ -0.3407122, 39.8643396 ], [ -0.3411733, 39.8632962 ], [ -0.3420524, 39.8617219 ], [ -0.3444117, 39.8578304 ], [ -0.3447781, 39.8571181 ], [ -0.3447398, 39.8565948 ], [ -0.3445832, 39.8558075 ], [ -0.3443026, 39.8549002 ], [ -0.3449982, 39.8529254 ], [ -0.3445674, 39.8522759 ], [ -0.3441251, 39.8513199 ], [ -0.3440909, 39.8509948 ], [ -0.3442614, 39.8505123 ], [ -0.3447704, 39.8497403 ], [ -0.3452433, 39.8486881 ], [ -0.3455, 39.8483967 ], [ -0.3477246, 39.8467721 ], [ -0.3481232, 39.8461326 ], [ -0.349599, 39.8433108 ], [ -0.3498726, 39.8425784 ], [ -0.3505259, 39.8395665 ], [ -0.3509347, 39.8380535 ], [ -0.3509241, 39.8377199 ], [ -0.350815, 39.8372129 ], [ -0.3503464, 39.8360312 ], [ -0.350029, 39.8354744 ], [ -0.3498312, 39.8351456 ], [ -0.3494041, 39.8340999 ], [ -0.3493997, 39.8339107 ], [ -0.3493809, 39.8334868 ], [ -0.349193, 39.832906 ], [ -0.3490619, 39.8326688 ], [ -0.3487862, 39.8325454 ], [ -0.3477655, 39.8323509 ], [ -0.3471063, 39.8321737 ], [ -0.3466024, 39.8319099 ], [ -0.3460717, 39.8314293 ], [ -0.3454883, 39.8308034 ], [ -0.3450582, 39.8304423 ], [ -0.3428103, 39.829652 ], [ -0.3421567, 39.8293308 ], [ -0.3411814, 39.8291733 ], [ -0.3407468, 39.8292354 ], [ -0.3400964, 39.8294367 ], [ -0.3389164, 39.8294366 ], [ -0.3381885, 39.8292217 ], [ -0.3368068, 39.8283973 ], [ -0.3364121, 39.8280279 ], [ -0.3351532, 39.8273504 ], [ -0.3345101, 39.8267591 ], [ -0.3339606, 39.8264672 ], [ -0.3325688, 39.8259037 ], [ -0.332089, 39.8256224 ], [ -0.3317163, 39.8252895 ], [ -0.3306216, 39.8239942 ], [ -0.3296352, 39.8235211 ], [ -0.3291394, 39.8236537 ], [ -0.3274162, 39.8244068 ], [ -0.3269565, 39.8245133 ], [ -0.3265461, 39.8245489 ], [ -0.325953, 39.8244812 ], [ -0.3245347, 39.823998 ], [ -0.3238156, 39.8238643 ], [ -0.3225791, 39.8238178 ], [ -0.320459, 39.8236607 ], [ -0.3191821, 39.8237483 ], [ -0.318659, 39.8236821 ], [ -0.3167729, 39.8232152 ], [ -0.3162887, 39.8230508 ], [ -0.3139486, 39.8282394 ], [ -0.3127857, 39.8307978 ], [ -0.3102173, 39.8334408 ], [ -0.3024662, 39.841314 ], [ -0.3000625, 39.8534462 ], [ -0.2922903, 39.8579042 ], [ -0.2933929, 39.8637493 ], [ -0.2942054, 39.8641916 ], [ -0.294536, 39.8655956 ], [ -0.2959092, 39.8657538 ], [ -0.2961972, 39.8658595 ], [ -0.2971011, 39.8663581 ], [ -0.297792, 39.8669237 ], [ -0.2979987, 39.8670186 ], [ -0.3010032, 39.867611 ], [ -0.3025145, 39.8678263 ], [ -0.3044151, 39.8682489 ], [ -0.304919, 39.8682156 ], [ -0.3056328, 39.8676016 ], [ -0.3062624, 39.867346 ], [ -0.3098124, 39.8680409 ], [ -0.3115357, 39.868216 ], [ -0.3121554, 39.8682124 ], [ -0.3133406, 39.8677984 ], [ -0.3154159, 39.8664412 ], [ -0.3161597, 39.865954 ], [ -0.3170082, 39.8654782 ], [ -0.3175291, 39.86531 ], [ -0.3186995, 39.865274 ], [ -0.3201446, 39.8653885 ], [ -0.3222621, 39.8656446 ], [ -0.3231318, 39.8658269 ], [ -0.3235788, 39.8660534 ], [ -0.324259, 39.8666005 ], [ -0.3245036, 39.8669215 ], [ -0.3245651, 39.8674454 ], [ -0.3247678, 39.8679455 ], [ -0.3249306, 39.8685708 ], [ -0.3252809, 39.8691824 ], [ -0.3262822, 39.870791 ], [ -0.3263209, 39.870999 ], [ -0.3261458, 39.8712923 ], [ -0.3255112, 39.8719803 ], [ -0.3254206, 39.8722034 ], [ -0.325683, 39.8723716 ], [ -0.3264894, 39.8726784 ], [ -0.3274965, 39.8729359 ], [ -0.3286193, 39.8729257 ], [ -0.3300477, 39.8731748 ], [ -0.330749, 39.8734792 ], [ -0.3314132, 39.8738368 ], [ -0.3329629, 39.8739715 ], [ -0.333995, 39.8738872 ], [ -0.3349706, 39.8740537 ], [ -0.3359063, 39.8743454 ] ] ] } }
]
}
