{
"type": "FeatureCollection",
"name": "12093",
"features": [
{ "type": "Feature", "properties": { "CCAA": "10 - Comunitat Valenciana", "PROVINCIA": "12 - Castellón/Castelló", "MUNICIPIO": "12093 - Pobla de Benifassà, la", "COD_MUNICIPIO": "12093", "DISTRITO": "01", "SECCION": "1209301001", "V1_H": 80.74, "V1_M": 86.31, "V2_H": 80.60059228, "V2_M": 86.16828649, "V3_H": 80.96013544, "V3_M": 86.56561146 }, "geometry": { "type": "Polygon", "coordinates": [ [ [ 0.2693543, 40.6604673 ], [ 0.2722359, 40.6643971 ], [ 0.2732853, 40.666745 ], [ 0.2733251, 40.6668339 ], [ 0.2733605, 40.6680398 ], [ 0.2734364, 40.668623 ], [ 0.274233, 40.6696722 ], [ 0.2746671, 40.6700832 ], [ 0.2752421, 40.6704721 ], [ 0.2780736, 40.6715264 ], [ 0.2794252, 40.6717981 ], [ 0.2805465, 40.6720235 ], [ 0.2816848, 40.6725586 ], [ 0.2817523, 40.6726036 ], [ 0.282125, 40.6728522 ], [ 0.2832101, 40.6739922 ], [ 0.2848801, 40.6764393 ], [ 0.2850591, 40.677434 ], [ 0.2852374, 40.6786537 ], [ 0.2854064, 40.6789641 ], [ 0.2856892, 40.6791812 ], [ 0.2863721, 40.679383 ], [ 0.2867456, 40.6794934 ], [ 0.2871186, 40.6798337 ], [ 0.2877985, 40.6804541 ], [ 0.2894014, 40.6822546 ], [ 0.2905282, 40.6837535 ], [ 0.2919952, 40.6849546 ], [ 0.2923258, 40.6851793 ], [ 0.2917319, 40.6865742 ], [ 0.2916537, 40.687387 ], [ 0.2916698, 40.6879539 ], [ 0.2918413, 40.6885525 ], [ 0.2891472, 40.6898272 ], [ 0.2871491, 40.6898572 ], [ 0.2865658, 40.6900269 ], [ 0.2835991, 40.6915345 ], [ 0.2830208, 40.6920463 ], [ 0.2824189, 40.692808 ], [ 0.2822856, 40.6929768 ], [ 0.2820511, 40.6931052 ], [ 0.2810561, 40.6936496 ], [ 0.2809835, 40.6936894 ], [ 0.2805179, 40.6938467 ], [ 0.2796412, 40.6935326 ], [ 0.27947, 40.6934713 ], [ 0.2768887, 40.6944002 ], [ 0.2765565, 40.6955896 ], [ 0.2755207, 40.6969069 ], [ 0.2747891, 40.6976859 ], [ 0.274756, 40.6977212 ], [ 0.2740857, 40.6982896 ], [ 0.2736646, 40.6985001 ], [ 0.273589, 40.6985379 ], [ 0.2729724, 40.6987535 ], [ 0.2725798, 40.6989538 ], [ 0.2723438, 40.6999332 ], [ 0.2723085, 40.7004627 ], [ 0.2723029, 40.7005468 ], [ 0.2721905, 40.700663 ], [ 0.2719087, 40.7009542 ], [ 0.2715411, 40.7011808 ], [ 0.2710799, 40.7016712 ], [ 0.270515, 40.7025921 ], [ 0.2704333, 40.7027254 ], [ 0.270131, 40.7030761 ], [ 0.2699961, 40.7031268 ], [ 0.269457, 40.7033295 ], [ 0.2678577, 40.7037801 ], [ 0.2675174, 40.7038341 ], [ 0.2673058, 40.7038678 ], [ 0.2665603, 40.7036277 ], [ 0.2663154, 40.7035968 ], [ 0.2660363, 40.7035615 ], [ 0.2645951, 40.7043408 ], [ 0.2626496, 40.7057001 ], [ 0.2624322, 40.7058521 ], [ 0.2623623, 40.705865 ], [ 0.2620011, 40.7059318 ], [ 0.2618575, 40.7059584 ], [ 0.2602435, 40.705869 ], [ 0.2587556, 40.7056949 ], [ 0.2567236, 40.705284 ], [ 0.2520569, 40.7049655 ], [ 0.2513044, 40.7048247 ], [ 0.2508071, 40.7045775 ], [ 0.249862, 40.7036405 ], [ 0.2495147, 40.7033741 ], [ 0.2494317, 40.7033104 ], [ 0.2494223, 40.7033062 ], [ 0.2485611, 40.7029296 ], [ 0.247686, 40.7027021 ], [ 0.2454038, 40.7017667 ], [ 0.2434224, 40.7008271 ], [ 0.2431628, 40.700704 ], [ 0.2429708, 40.7006541 ], [ 0.2420575, 40.7004169 ], [ 0.2418803, 40.7003708 ], [ 0.2411726, 40.7004177 ], [ 0.239718, 40.700927 ], [ 0.2385957, 40.7012107 ], [ 0.2376571, 40.7013812 ], [ 0.2365239, 40.7016832 ], [ 0.2359867, 40.7020766 ], [ 0.235752, 40.7026056 ], [ 0.2355043, 40.7040895 ], [ 0.2354132, 40.7048937 ], [ 0.2347702, 40.7062807 ], [ 0.2341126, 40.7068756 ], [ 0.2318518, 40.7098031 ], [ 0.2274409, 40.7150243 ], [ 0.2266281, 40.7170645 ], [ 0.2263584, 40.718342 ], [ 0.2257935, 40.720123 ], [ 0.2254476, 40.7215377 ], [ 0.2249607, 40.7227311 ], [ 0.2242094, 40.7250668 ], [ 0.2241418, 40.7256271 ], [ 0.2246989, 40.7280882 ], [ 0.2250948, 40.7294191 ], [ 0.2255315, 40.7315953 ], [ 0.2258723, 40.7327656 ], [ 0.2260417, 40.733042 ], [ 0.2261165, 40.7331641 ], [ 0.2256627, 40.7329323 ], [ 0.2252303, 40.7327116 ], [ 0.2244023, 40.7324826 ], [ 0.2238363, 40.7324038 ], [ 0.2232254, 40.7323188 ], [ 0.2231626, 40.7323101 ], [ 0.221834, 40.7322572 ], [ 0.2195949, 40.732447 ], [ 0.2192988, 40.7324722 ], [ 0.2179197, 40.7326008 ], [ 0.2170399, 40.7325263 ], [ 0.2161147, 40.7322458 ], [ 0.2151598, 40.7318402 ], [ 0.2142102, 40.7312993 ], [ 0.2135833, 40.7308215 ], [ 0.2128706, 40.7301494 ], [ 0.2124794, 40.7297805 ], [ 0.2119208, 40.7294899 ], [ 0.2117674, 40.7294496 ], [ 0.2111773, 40.7292944 ], [ 0.2104628, 40.7292104 ], [ 0.2102486, 40.7291852 ], [ 0.2101586, 40.7291863 ], [ 0.2091009, 40.7291992 ], [ 0.2088124, 40.7291081 ], [ 0.2069244, 40.7277647 ], [ 0.2063276, 40.7273571 ], [ 0.2062022, 40.7272715 ], [ 0.2060589, 40.7271909 ], [ 0.2045839, 40.7263619 ], [ 0.2040047, 40.7261348 ], [ 0.2038421, 40.7260966 ], [ 0.2032503, 40.7259576 ], [ 0.2023111, 40.7258756 ], [ 0.2018218, 40.725949 ], [ 0.2015001, 40.7259972 ], [ 0.2010464, 40.7259198 ], [ 0.1995428, 40.725178 ], [ 0.1975487, 40.7242836 ], [ 0.1972924, 40.7241687 ], [ 0.1962309, 40.7254861 ], [ 0.1958332, 40.7260825 ], [ 0.1950717, 40.726743 ], [ 0.1943429, 40.7280871 ], [ 0.1942069, 40.7284602 ], [ 0.1939837, 40.7287455 ], [ 0.1936841, 40.728916 ], [ 0.1931239, 40.7290846 ], [ 0.1926144, 40.7293239 ], [ 0.191102, 40.7310797 ], [ 0.1910329, 40.7311599 ], [ 0.1891358, 40.730609 ], [ 0.1883141, 40.7296207 ], [ 0.1882941, 40.7295966 ], [ 0.1882423, 40.72956 ], [ 0.1876079, 40.7291112 ], [ 0.1868901, 40.7287078 ], [ 0.1866439, 40.7286249 ], [ 0.1855544, 40.7282583 ], [ 0.1837622, 40.7282205 ], [ 0.1836385, 40.7282179 ], [ 0.1833382, 40.7282115 ], [ 0.1822276, 40.7282602 ], [ 0.1809446, 40.7286649 ], [ 0.1715243, 40.732482 ], [ 0.1707243, 40.7328373 ], [ 0.1702024, 40.7323203 ], [ 0.1691952, 40.73106 ], [ 0.1683628, 40.7294888 ], [ 0.1676561, 40.7290669 ], [ 0.1662327, 40.7285116 ], [ 0.1646571, 40.7277443 ], [ 0.1642882, 40.7272051 ], [ 0.1642519, 40.7264405 ], [ 0.1644852, 40.7243716 ], [ 0.1642287, 40.7239554 ], [ 0.1638096, 40.7236067 ], [ 0.1618439, 40.7225978 ], [ 0.1597109, 40.7220529 ], [ 0.1581318, 40.7214568 ], [ 0.1561682, 40.7209882 ], [ 0.1544137, 40.720685 ], [ 0.1515883, 40.7202669 ], [ 0.1505947, 40.7200328 ], [ 0.1494258, 40.7195965 ], [ 0.1477304, 40.7190393 ], [ 0.1458339, 40.7186888 ], [ 0.1439171, 40.7182517 ], [ 0.1429642, 40.7188811 ], [ 0.1413466, 40.7184659 ], [ 0.1342705, 40.7192799 ], [ 0.1261212, 40.7204377 ], [ 0.1237941, 40.720798 ], [ 0.1165246, 40.7250837 ], [ 0.1118779, 40.7247048 ], [ 0.1125005, 40.7271378 ], [ 0.0726865, 40.7143084 ], [ 0.0421745, 40.6910063 ], [ 0.0470137, 40.6829526 ], [ 0.0517031, 40.6827836 ], [ 0.0539065, 40.6838781 ], [ 0.0560261, 40.6846956 ], [ 0.0566183, 40.6849682 ], [ 0.0605529, 40.687692 ], [ 0.0665116, 40.6780496 ], [ 0.0705993, 40.6761215 ], [ 0.0712919, 40.676004 ], [ 0.0721125, 40.6760993 ], [ 0.0732862, 40.6764102 ], [ 0.0740739, 40.6765604 ], [ 0.0745958, 40.6765915 ], [ 0.0751939, 40.6764765 ], [ 0.0764362, 40.675966 ], [ 0.0771798, 40.6759282 ], [ 0.0793785, 40.6761487 ], [ 0.0802191, 40.6761623 ], [ 0.0811859, 40.6760914 ], [ 0.0899079, 40.6672027 ], [ 0.0903149, 40.6667955 ], [ 0.0961372, 40.6607219 ], [ 0.0969414, 40.6597006 ], [ 0.0977595, 40.657445 ], [ 0.0987743, 40.6561207 ], [ 0.0997691, 40.6551303 ], [ 0.0999798, 40.6548274 ], [ 0.0998956, 40.6545415 ], [ 0.0996186, 40.6541797 ], [ 0.0990224, 40.6538174 ], [ 0.0985804, 40.6537212 ], [ 0.0978856, 40.6537849 ], [ 0.0957174, 40.6544645 ], [ 0.0944407, 40.654733 ], [ 0.0937459, 40.6547967 ], [ 0.0919679, 40.6547092 ], [ 0.0912215, 40.654423 ], [ 0.0892579, 40.6531336 ], [ 0.0894487, 40.6523989 ], [ 0.0896809, 40.6502581 ], [ 0.0985203, 40.6450223 ], [ 0.0990617, 40.6447106 ], [ 0.1020745, 40.6428733 ], [ 0.1037878, 40.6418274 ], [ 0.1055706, 40.6407527 ], [ 0.1077212, 40.6394519 ], [ 0.1090117, 40.6387236 ], [ 0.1123294, 40.6373551 ], [ 0.1157817, 40.6358299 ], [ 0.1190872, 40.6344527 ], [ 0.1394008, 40.636791 ], [ 0.1394135, 40.6367924 ], [ 0.145818, 40.6397343 ], [ 0.1471668, 40.6402559 ], [ 0.1480938, 40.6406089 ], [ 0.1486333, 40.6410175 ], [ 0.1489522, 40.6415132 ], [ 0.1492673, 40.6421801 ], [ 0.150327, 40.64334 ], [ 0.1510374, 40.643861 ], [ 0.1521159, 40.6441648 ], [ 0.1549844, 40.6448159 ], [ 0.1561756, 40.6452517 ], [ 0.1579708, 40.6462112 ], [ 0.1606032, 40.6463633 ], [ 0.160615, 40.646364 ], [ 0.1616056, 40.6460577 ], [ 0.1638201, 40.6459343 ], [ 0.1638346, 40.6459335 ], [ 0.165649, 40.6467934 ], [ 0.1680593, 40.6474361 ], [ 0.1680682, 40.6474384 ], [ 0.1691114, 40.6469955 ], [ 0.1714083, 40.6468248 ], [ 0.1714209, 40.6468239 ], [ 0.1728407, 40.6470911 ], [ 0.1741974, 40.6475221 ], [ 0.1750058, 40.6481123 ], [ 0.1770558, 40.6489475 ], [ 0.177396, 40.6504016 ], [ 0.177397, 40.6504062 ], [ 0.1787788, 40.6499276 ], [ 0.1787815, 40.6499267 ], [ 0.1834136, 40.6501133 ], [ 0.1834259, 40.6501138 ], [ 0.1851857, 40.6495823 ], [ 0.1851979, 40.6495786 ], [ 0.18608, 40.6504729 ], [ 0.1885717, 40.6506472 ], [ 0.1907544, 40.6515325 ], [ 0.1934336, 40.6516745 ], [ 0.1976121, 40.6524662 ], [ 0.1976224, 40.6524681 ], [ 0.1992682, 40.6516965 ], [ 0.1992763, 40.6516927 ], [ 0.2030723, 40.6534773 ], [ 0.2030751, 40.6534787 ], [ 0.2040412, 40.6533447 ], [ 0.2040502, 40.6533435 ], [ 0.2049901, 40.6534614 ], [ 0.2071635, 40.6541485 ], [ 0.2082186, 40.6542002 ], [ 0.2095219, 40.6549925 ], [ 0.2105747, 40.6552425 ], [ 0.2124351, 40.6553436 ], [ 0.2124364, 40.6553437 ], [ 0.2136262, 40.6553016 ], [ 0.2136405, 40.6553011 ], [ 0.2149104, 40.6553918 ], [ 0.2173824, 40.6558902 ], [ 0.2365808, 40.6601261 ], [ 0.2388053, 40.6607906 ], [ 0.238813, 40.6607929 ], [ 0.2413355, 40.6598844 ], [ 0.2425601, 40.6598143 ], [ 0.2425739, 40.6598135 ], [ 0.2446421, 40.6602687 ], [ 0.2468371, 40.6606015 ], [ 0.2468464, 40.6606029 ], [ 0.2488767, 40.6599807 ], [ 0.2488858, 40.659978 ], [ 0.2518124, 40.6610573 ], [ 0.2551566, 40.6632482 ], [ 0.2551599, 40.6632504 ], [ 0.2664073, 40.6608473 ], [ 0.2677785, 40.6605607 ], [ 0.2693543, 40.6604673 ] ] ] } }
]
}
