{
"type": "FeatureCollection",
"name": "12103",
"features": [
{ "type": "Feature", "properties": { "CCAA": "10 - Comunitat Valenciana", "PROVINCIA": "12 - Castellón/Castelló", "MUNICIPIO": "12103 - Serratella, la", "COD_MUNICIPIO": "12103", "DISTRITO": "01", "SECCION": "1210301001", "V1_H": 80.91, "V1_M": 86.64, "V2_H": 80.44720226, "V2_M": 86.54313262, "V3_H": 81.45534141, "V3_M": 86.89844934 }, "geometry": { "type": "Polygon", "coordinates": [ [ [ 0.0274173, 40.2793132 ], [ 0.0277629, 40.2794207 ], [ 0.0350265, 40.2816807 ], [ 0.0354947, 40.2818936 ], [ 0.0370507, 40.2827624 ], [ 0.045148, 40.2873321 ], [ 0.0458532, 40.287845 ], [ 0.0548759, 40.2956953 ], [ 0.0581814, 40.2985622 ], [ 0.0584254, 40.3018794 ], [ 0.0562655, 40.307458 ], [ 0.0579463, 40.3108092 ], [ 0.0594584, 40.3138046 ], [ 0.0610721, 40.3229492 ], [ 0.0602981, 40.330815 ], [ 0.0609825, 40.3313733 ], [ 0.0612699, 40.331744 ], [ 0.0613953, 40.332173 ], [ 0.0613901, 40.3325784 ], [ 0.0610169, 40.333435 ], [ 0.0605784, 40.3341492 ], [ 0.0601792, 40.3346912 ], [ 0.0596653, 40.3350381 ], [ 0.0592457, 40.3353915 ], [ 0.0541786, 40.338651 ], [ 0.0493778, 40.3407774 ], [ 0.041296, 40.336703 ], [ 0.0393809, 40.3357357 ], [ 0.0364997, 40.3334335 ], [ 0.0229915, 40.3213938 ], [ 0.0065756, 40.3179492 ], [ -0.0074559, 40.3183675 ], [ -0.0066478, 40.3180133 ], [ -0.0051945, 40.3176154 ], [ -0.0039353, 40.3170873 ], [ -0.0037897, 40.3169214 ], [ -0.0035082, 40.3166349 ], [ -0.0024563, 40.315941 ], [ -0.0019635, 40.3159103 ], [ -0.0011003, 40.3160049 ], [ -0.0009394, 40.3159197 ], [ -0.0007246, 40.3154547 ], [ -0.0005766, 40.3153428 ], [ -0.0001155, 40.3153939 ], [ 0.0000797, 40.3155509 ], [ 0.0006236, 40.3156089 ], [ 0.0014682, 40.3155509 ], [ 0.0018489, 40.3153789 ], [ 0.0020714, 40.3153551 ], [ 0.0023429, 40.3153751 ], [ 0.0025869, 40.3153057 ], [ 0.0031093, 40.3154092 ], [ 0.0034109, 40.3153113 ], [ 0.0035593, 40.3152083 ], [ 0.0043588, 40.3151965 ], [ 0.0049971, 40.315261 ], [ 0.0054374, 40.3151055 ], [ 0.0056072, 40.3149569 ], [ 0.0058253, 40.3143027 ], [ 0.0069334, 40.3140847 ], [ 0.0082266, 40.3140601 ], [ 0.0086392, 40.3140764 ], [ 0.0089029, 40.3141866 ], [ 0.0093445, 40.3145894 ], [ 0.0103056, 40.3147716 ], [ 0.0116026, 40.3153592 ], [ 0.0117683, 40.3153819 ], [ 0.0122324, 40.3152347 ], [ 0.0131037, 40.3152481 ], [ 0.0136314, 40.3152073 ], [ 0.013988, 40.315288 ], [ 0.0142526, 40.3154163 ], [ 0.0149813, 40.3153972 ], [ 0.0160803, 40.3155036 ], [ 0.0161442, 40.3150876 ], [ 0.0163039, 40.3149754 ], [ 0.0170793, 40.3146849 ], [ 0.0172046, 40.3145916 ], [ 0.0172419, 40.3143744 ], [ 0.0171391, 40.3141789 ], [ 0.0175219, 40.3137906 ], [ 0.0234969, 40.311896 ], [ 0.019724, 40.3056535 ], [ 0.0136477, 40.3036775 ], [ 0.0128175, 40.299826 ], [ 0.0138315, 40.2977639 ], [ 0.0139691, 40.2974181 ], [ 0.014291, 40.2969863 ], [ 0.0142029, 40.2965923 ], [ 0.0143392, 40.2962195 ], [ 0.0144519, 40.2961084 ], [ 0.0143674, 40.2957954 ], [ 0.0143958, 40.2956415 ], [ 0.0149034, 40.2951509 ], [ 0.0150238, 40.2949496 ], [ 0.0150515, 40.2945165 ], [ 0.0156052, 40.2940067 ], [ 0.0159298, 40.2938991 ], [ 0.0169974, 40.2938352 ], [ 0.0173045, 40.2938632 ], [ 0.0174042, 40.2937255 ], [ 0.0173278, 40.2933312 ], [ 0.0173656, 40.293123 ], [ 0.0177924, 40.2926705 ], [ 0.0180364, 40.2926011 ], [ 0.0182407, 40.2924336 ], [ 0.0182971, 40.2921169 ], [ 0.0181923, 40.2918765 ], [ 0.0179712, 40.291666 ], [ 0.0176209, 40.291459 ], [ 0.0175878, 40.2912437 ], [ 0.0176309, 40.2908913 ], [ 0.017112, 40.2905986 ], [ 0.0171178, 40.2904633 ], [ 0.0172856, 40.2902698 ], [ 0.0174325, 40.2896084 ], [ 0.0173245, 40.289296 ], [ 0.016648, 40.2886291 ], [ 0.0162911, 40.2885393 ], [ 0.0162365, 40.2883696 ], [ 0.0169475, 40.2882249 ], [ 0.0173949, 40.2879701 ], [ 0.0174837, 40.2878507 ], [ 0.0174927, 40.2875262 ], [ 0.0173622, 40.2869711 ], [ 0.017411, 40.2864835 ], [ 0.0172978, 40.2860541 ], [ 0.0173952, 40.2858624 ], [ 0.0176581, 40.2856934 ], [ 0.0194048, 40.2858279 ], [ 0.0197221, 40.2855584 ], [ 0.0198483, 40.2852218 ], [ 0.0200145, 40.2849923 ], [ 0.0202231, 40.2849238 ], [ 0.0204471, 40.284936 ], [ 0.0205709, 40.2850768 ], [ 0.020493, 40.2854392 ], [ 0.0207356, 40.285604 ], [ 0.0209164, 40.2854371 ], [ 0.0210012, 40.2852278 ], [ 0.0211373, 40.2851161 ], [ 0.0218916, 40.2848892 ], [ 0.0220169, 40.2847958 ], [ 0.0220536, 40.2842995 ], [ 0.0222403, 40.2842676 ], [ 0.0225497, 40.2843496 ], [ 0.0227827, 40.2842984 ], [ 0.0235214, 40.2837206 ], [ 0.0241117, 40.283507 ], [ 0.0242555, 40.2833051 ], [ 0.0242241, 40.2831258 ], [ 0.0241306, 40.282876 ], [ 0.0248501, 40.282659 ], [ 0.0252361, 40.2826129 ], [ 0.025478, 40.2824985 ], [ 0.0256701, 40.2823223 ], [ 0.0256949, 40.2820875 ], [ 0.0253187, 40.2818271 ], [ 0.0253349, 40.2816646 ], [ 0.0263794, 40.2810878 ], [ 0.0265338, 40.2808586 ], [ 0.0265245, 40.2806516 ], [ 0.0261848, 40.2801561 ], [ 0.027154, 40.2797344 ], [ 0.0273124, 40.2795951 ], [ 0.0274173, 40.2793132 ] ] ] } }
]
}
