{
"type": "FeatureCollection",
"name": "12107",
"features": [
{ "type": "Feature", "properties": { "CCAA": "10 - Comunitat Valenciana", "PROVINCIA": "12 - Castellón/Castelló", "MUNICIPIO": "12107 - Sot de Ferrer", "COD_MUNICIPIO": "12107", "DISTRITO": "01", "SECCION": "1210701001", "V1_H": 80.06, "V1_M": 86.09, "V2_H": 79.80248703, "V2_M": 86.14116428, "V3_H": 80.46064959, "V3_M": 86.17412372 }, "geometry": { "type": "Polygon", "coordinates": [ [ [ -0.3779187, 39.7998772 ], [ -0.3795272, 39.8021117 ], [ -0.3839912, 39.8066625 ], [ -0.3905688, 39.8106303 ], [ -0.3948854, 39.8147901 ], [ -0.3952721, 39.8159969 ], [ -0.3983079, 39.8151011 ], [ -0.4075072, 39.8149379 ], [ -0.4092496, 39.8158236 ], [ -0.4094926, 39.8158831 ], [ -0.4114299, 39.8149985 ], [ -0.4137235, 39.8152028 ], [ -0.4140627, 39.8151923 ], [ -0.4142705, 39.8149447 ], [ -0.4156648, 39.8132732 ], [ -0.4224796, 39.8100197 ], [ -0.4249841, 39.8080125 ], [ -0.425321, 39.8077497 ], [ -0.4262692, 39.8083202 ], [ -0.4260062, 39.8076924 ], [ -0.4247569, 39.8047104 ], [ -0.4241591, 39.803517 ], [ -0.4230123, 39.8016989 ], [ -0.4224873, 39.8010566 ], [ -0.4219457, 39.8005491 ], [ -0.421397, 39.8002307 ], [ -0.4206052, 39.7998527 ], [ -0.4191784, 39.7992805 ], [ -0.4187313, 39.7990543 ], [ -0.4181184, 39.7985812 ], [ -0.4145195, 39.7955103 ], [ -0.4124181, 39.793932 ], [ -0.4112622, 39.7933026 ], [ -0.4094968, 39.7921102 ], [ -0.4086066, 39.7915588 ], [ -0.4081219, 39.7910975 ], [ -0.4079552, 39.7908686 ], [ -0.4073573, 39.790621 ], [ -0.4070734, 39.7904075 ], [ -0.4064288, 39.7901588 ], [ -0.4051884, 39.788987 ], [ -0.4047548, 39.7887161 ], [ -0.4043171, 39.7885622 ], [ -0.4043169, 39.7885622 ], [ -0.4038022, 39.7885867 ], [ -0.4033641, 39.788748 ], [ -0.4024835, 39.7891877 ], [ -0.4020487, 39.789268 ], [ -0.4013189, 39.7891256 ], [ -0.400942, 39.788901 ], [ -0.3997069, 39.788522 ], [ -0.3991742, 39.7884019 ], [ -0.3987137, 39.7882295 ], [ -0.3979669, 39.7877307 ], [ -0.3973126, 39.7872971 ], [ -0.3964142, 39.7869707 ], [ -0.3957093, 39.7867747 ], [ -0.3952494, 39.7865842 ], [ -0.3950099, 39.7864347 ], [ -0.3949367, 39.7862078 ], [ -0.3951409, 39.7854377 ], [ -0.3951256, 39.7849149 ], [ -0.3949703, 39.7843889 ], [ -0.3947945, 39.7840967 ], [ -0.3945343, 39.7838747 ], [ -0.3943051, 39.7837614 ], [ -0.3941486, 39.7835777 ], [ -0.3940798, 39.7832339 ], [ -0.3940934, 39.7828739 ], [ -0.3944135, 39.7821244 ], [ -0.3944724, 39.7818014 ], [ -0.3941951, 39.7807952 ], [ -0.3937642, 39.7801459 ], [ -0.3933529, 39.7799295 ], [ -0.3933522, 39.7799295 ], [ -0.3933522, 39.7799295 ], [ -0.3926508, 39.7799407 ], [ -0.3926505, 39.7799407 ], [ -0.3918007, 39.7798946 ], [ -0.3918, 39.7798946 ], [ -0.3915223, 39.7813747 ], [ -0.3898588, 39.7880125 ], [ -0.3893819, 39.7891998 ], [ -0.3888116, 39.7900787 ], [ -0.3884201, 39.7905474 ], [ -0.3878744, 39.7910846 ], [ -0.3827588, 39.7941943 ], [ -0.3807476, 39.7967252 ], [ -0.3779187, 39.7998772 ] ] ] } }
]
}
