{
"type": "FeatureCollection",
"name": "12131",
"features": [
{ "type": "Feature", "properties": { "CCAA": "10 - Comunitat Valenciana", "PROVINCIA": "12 - Castellón/Castelló", "MUNICIPIO": "12131 - Villamalur", "COD_MUNICIPIO": "12131", "DISTRITO": "01", "SECCION": "1213101001", "V1_H": 81.47, "V1_M": 86.75, "V2_H": 81.12898066, "V2_M": 86.51613614, "V3_H": 81.81510349, "V3_M": 87.06728245 }, "geometry": { "type": "Polygon", "coordinates": [ [ [ -0.3672314, 39.9713125 ], [ -0.3694774, 39.9713635 ], [ -0.3706767, 39.9712286 ], [ -0.373895, 39.9712656 ], [ -0.375627, 39.9712868 ], [ -0.3783027, 39.9711222 ], [ -0.3812331, 39.9710354 ], [ -0.3825202, 39.9710555 ], [ -0.3842398, 39.9723194 ], [ -0.3874599, 39.974464 ], [ -0.3890304, 39.9756524 ], [ -0.3897445, 39.9762721 ], [ -0.390168, 39.9765248 ], [ -0.3905627, 39.9766148 ], [ -0.3933542, 39.9761822 ], [ -0.3951358, 39.975826 ], [ -0.3964529, 39.9756754 ], [ -0.39901, 39.9752464 ], [ -0.4024327, 39.9745305 ], [ -0.4040202, 39.9743499 ], [ -0.404434, 39.9742421 ], [ -0.4063479, 39.9728616 ], [ -0.4100754, 39.9699633 ], [ -0.4110218, 39.9690837 ], [ -0.412228, 39.9696962 ], [ -0.4132818, 39.9703143 ], [ -0.414492, 39.971134 ], [ -0.4148414, 39.9714931 ], [ -0.4150713, 39.9716063 ], [ -0.4174776, 39.9714438 ], [ -0.4178355, 39.9715779 ], [ -0.4170909, 39.9720748 ], [ -0.4171355, 39.9724451 ], [ -0.4173927, 39.9727661 ], [ -0.4177775, 39.973117 ], [ -0.419023, 39.9736222 ], [ -0.4211966, 39.9746705 ], [ -0.4219077, 39.9750647 ], [ -0.4215965, 39.9755532 ], [ -0.4213419, 39.9760971 ], [ -0.4222, 39.9760081 ], [ -0.4232885, 39.975708 ], [ -0.4279207, 39.9733337 ], [ -0.4286738, 39.9726117 ], [ -0.4292974, 39.9728418 ], [ -0.4309484, 39.973464 ], [ -0.433458, 39.9746096 ], [ -0.4360235, 39.9758284 ], [ -0.4365564, 39.9753538 ], [ -0.4402822, 39.970905 ], [ -0.4423997, 39.9703212 ], [ -0.4443012, 39.9698768 ], [ -0.4455734, 39.9696706 ], [ -0.4496668, 39.9694726 ], [ -0.4508294, 39.969381 ], [ -0.4516669, 39.9692103 ], [ -0.4518849, 39.9690169 ], [ -0.4491341, 39.9680555 ], [ -0.4487792, 39.9678405 ], [ -0.4492008, 39.9656338 ], [ -0.4483384, 39.963642 ], [ -0.4481947, 39.9630983 ], [ -0.4475402, 39.9618137 ], [ -0.446173, 39.9614323 ], [ -0.4449463, 39.960108 ], [ -0.4438928, 39.959166 ], [ -0.4403466, 39.9556915 ], [ -0.4399029, 39.9553484 ], [ -0.4385496, 39.9549131 ], [ -0.4377096, 39.9545252 ], [ -0.4324879, 39.9523648 ], [ -0.4311946, 39.9515794 ], [ -0.4273729, 39.9489272 ], [ -0.4257043, 39.9478542 ], [ -0.4238339, 39.9468577 ], [ -0.4217995, 39.9458667 ], [ -0.4181983, 39.9439037 ], [ -0.4145551, 39.9415074 ], [ -0.4120785, 39.9392181 ], [ -0.4113746, 39.9386438 ], [ -0.4097578, 39.9383825 ], [ -0.4060114, 39.9378032 ], [ -0.4048226, 39.9370559 ], [ -0.4008312, 39.9343 ], [ -0.3978414, 39.9350707 ], [ -0.3955689, 39.9357493 ], [ -0.3957409, 39.9361495 ], [ -0.3957755, 39.9367809 ], [ -0.3956065, 39.9375338 ], [ -0.3952841, 39.9380129 ], [ -0.3940443, 39.9395344 ], [ -0.3929868, 39.9405736 ], [ -0.392276, 39.9423412 ], [ -0.3920762, 39.9426701 ], [ -0.3916811, 39.9429044 ], [ -0.3907835, 39.9428121 ], [ -0.3900878, 39.9432559 ], [ -0.3890698, 39.9432509 ], [ -0.388927, 39.9426982 ], [ -0.3884104, 39.9424343 ], [ -0.3876238, 39.9421914 ], [ -0.3867884, 39.9420014 ], [ -0.3862698, 39.9420978 ], [ -0.3856874, 39.9426432 ], [ -0.3844201, 39.9436505 ], [ -0.383948, 39.9449821 ], [ -0.3833785, 39.9454917 ], [ -0.3840366, 39.9466506 ], [ -0.3832559, 39.9471734 ], [ -0.3823779, 39.9484057 ], [ -0.3813238, 39.9496521 ], [ -0.3810868, 39.950034 ], [ -0.3808501, 39.9510196 ], [ -0.3804285, 39.9516407 ], [ -0.3796705, 39.9527946 ], [ -0.3783428, 39.9529267 ], [ -0.3771031, 39.9532049 ], [ -0.375093, 39.9534296 ], [ -0.3738026, 39.9556434 ], [ -0.3742281, 39.9567611 ], [ -0.3743168, 39.9571954 ], [ -0.3734529, 39.9586622 ], [ -0.3728144, 39.9588278 ], [ -0.3722774, 39.959095 ], [ -0.3720483, 39.9592699 ], [ -0.3716216, 39.9609357 ], [ -0.3713284, 39.9615597 ], [ -0.3710611, 39.9618148 ], [ -0.3706442, 39.9620035 ], [ -0.3685127, 39.9638558 ], [ -0.3689714, 39.9656319 ], [ -0.3688747, 39.966017 ], [ -0.3681652, 39.9668116 ], [ -0.3679938, 39.9673122 ], [ -0.3678474, 39.9683808 ], [ -0.3672314, 39.9713125 ] ] ] } }
]
}
