{
"type": "FeatureCollection",
"name": "12902",
"features": [
{ "type": "Feature", "properties": { "CCAA": "10 - Comunitat Valenciana", "PROVINCIA": "12 - Castellón/Castelló", "MUNICIPIO": "12902 - Sant Joan de Moró", "COD_MUNICIPIO": "12902", "DISTRITO": "01", "SECCION": "1290201002", "V1_H": 80.21, "V1_M": 86.17, "V2_H": 80.05188782, "V2_M": 86.17746221, "V3_H": 80.45086201, "V3_M": 86.3559927 }, "geometry": { "type": "Polygon", "coordinates": [ [ [ -0.0663651, 40.0797711 ], [ -0.0672054, 40.0806568 ], [ -0.0677692, 40.0804639 ], [ -0.0682007, 40.0802811 ], [ -0.0688387, 40.0802703 ], [ -0.0700561, 40.0804903 ], [ -0.0707089, 40.0808221 ], [ -0.0709163, 40.0813498 ], [ -0.0708549, 40.0819112 ], [ -0.0706911, 40.0825331 ], [ -0.0705107, 40.0831501 ], [ -0.0707784, 40.0833685 ], [ -0.0714753, 40.0838501 ], [ -0.072203, 40.0837153 ], [ -0.0727815, 40.0834867 ], [ -0.0731546, 40.0832485 ], [ -0.0737344, 40.0829029 ], [ -0.0744928, 40.0824807 ], [ -0.0751756, 40.0821962 ], [ -0.0758444, 40.0817402 ], [ -0.0762025, 40.0813033 ], [ -0.0766196, 40.0807869 ], [ -0.0774812, 40.0803989 ], [ -0.0784613, 40.0801714 ], [ -0.0795303, 40.0801759 ], [ -0.0799604, 40.0805561 ], [ -0.0801817, 40.081003 ], [ -0.080255, 40.0814823 ], [ -0.0806698, 40.0818756 ], [ -0.0810861, 40.082323 ], [ -0.0816193, 40.0828274 ], [ -0.0819748, 40.0832056 ], [ -0.0826266, 40.0836094 ], [ -0.0833988, 40.0840117 ], [ -0.084052, 40.084366 ], [ -0.0848089, 40.0846643 ], [ -0.0853726, 40.0845073 ], [ -0.0859675, 40.0843917 ], [ -0.0866945, 40.0841894 ], [ -0.087691, 40.0838676 ], [ -0.0882703, 40.0834814 ], [ -0.0885528, 40.0831822 ], [ -0.0888062, 40.0829994 ], [ -0.089177, 40.0830673 ], [ -0.089904, 40.0833108 ], [ -0.0903637, 40.0837007 ], [ -0.0910612, 40.0839299 ], [ -0.0917151, 40.0838067 ], [ -0.0923254, 40.0835203 ], [ -0.0926959, 40.083372 ], [ -0.0934083, 40.0836151 ], [ -0.094047, 40.0838112 ], [ -0.0943737, 40.0833511 ], [ -0.0945528, 40.0829502 ], [ -0.0949547, 40.0822893 ], [ -0.0954901, 40.0815551 ], [ -0.0961012, 40.0807642 ], [ -0.096429, 40.0800203 ], [ -0.0968752, 40.079437 ], [ -0.0970847, 40.0787486 ], [ -0.097234, 40.0782209 ], [ -0.096938, 40.0778217 ], [ -0.0968201, 40.0772332 ], [ -0.0962556, 40.0768767 ], [ -0.0965841, 40.0765788 ], [ -0.0971634, 40.076296 ], [ -0.0976524, 40.0760651 ], [ -0.0979943, 40.0761953 ], [ -0.0988553, 40.0764375 ], [ -0.0998054, 40.0769298 ], [ -0.1008135, 40.0772298 ], [ -0.1020464, 40.0772427 ], [ -0.1031163, 40.0772424 ], [ -0.103932, 40.0771548 ], [ -0.1047637, 40.077018 ], [ -0.1057287, 40.076952 ], [ -0.1053864, 40.0772813 ], [ -0.1052376, 40.0778901 ], [ -0.105178, 40.0785326 ], [ -0.1055031, 40.0789551 ], [ -0.1057105, 40.0793026 ], [ -0.105679, 40.0801485 ], [ -0.1059314, 40.0807809 ], [ -0.106197, 40.0812063 ], [ -0.1063453, 40.0818587 ], [ -0.1065216, 40.0825927 ], [ -0.1065061, 40.0830967 ], [ -0.1064026, 40.0836707 ], [ -0.1065891, 40.0839044 ], [ -0.1066486, 40.083744 ], [ -0.1067157, 40.0834688 ], [ -0.1067796, 40.0832681 ], [ -0.1068418, 40.0831099 ], [ -0.1069432, 40.083006 ], [ -0.1070705, 40.0829453 ], [ -0.1073756, 40.0829422 ], [ -0.107653, 40.0829385 ], [ -0.1078764, 40.0829015 ], [ -0.1080587, 40.0828528 ], [ -0.1083844, 40.0826906 ], [ -0.1086118, 40.0825579 ], [ -0.1088383, 40.0824464 ], [ -0.1092123, 40.0821257 ], [ -0.1096461, 40.0816999 ], [ -0.1099339, 40.0814516 ], [ -0.1101064, 40.0813068 ], [ -0.1103467, 40.0811957 ], [ -0.1106268, 40.0811281 ], [ -0.1108649, 40.0810702 ], [ -0.1110905, 40.08098 ], [ -0.1112473, 40.0808774 ], [ -0.111422, 40.0806795 ], [ -0.1119368, 40.0799789 ], [ -0.1120119, 40.0798424 ], [ -0.1121428, 40.0796965 ], [ -0.1123001, 40.0795833 ], [ -0.1123707, 40.0795532 ], [ -0.112594, 40.0795161 ], [ -0.1128714, 40.0795124 ], [ -0.1131206, 40.0795186 ], [ -0.1133676, 40.079578 ], [ -0.1135883, 40.0796048 ], [ -0.113741, 40.079598 ], [ -0.1138661, 40.0795905 ], [ -0.1142753, 40.0794197 ], [ -0.1150539, 40.0790345 ], [ -0.1154783, 40.0788321 ], [ -0.1156946, 40.0786352 ], [ -0.1159389, 40.0784283 ], [ -0.1161699, 40.0782104 ], [ -0.1162856, 40.0780962 ], [ -0.1163888, 40.0779497 ], [ -0.1164773, 40.0778241 ], [ -0.1165649, 40.0777198 ], [ -0.1167235, 40.0775747 ], [ -0.1167441, 40.0774155 ], [ -0.1167356, 40.0772875 ], [ -0.1166722, 40.0771475 ], [ -0.1165829, 40.0769643 ], [ -0.1165602, 40.0768466 ], [ -0.1165508, 40.0767398 ], [ -0.1166138, 40.0765604 ], [ -0.1167327, 40.0763717 ], [ -0.1168466, 40.0763 ], [ -0.1169873, 40.0762503 ], [ -0.1171552, 40.0762119 ], [ -0.117392, 40.0761858 ], [ -0.1176568, 40.0761498 ], [ -0.117936, 40.0761035 ], [ -0.118229, 40.0760576 ], [ -0.1184242, 40.0760305 ], [ -0.1186065, 40.0759818 ], [ -0.1186784, 40.0759197 ], [ -0.1187115, 40.0757928 ], [ -0.1188035, 40.0755821 ], [ -0.1188647, 40.0754452 ], [ -0.1188991, 40.0752863 ], [ -0.1189322, 40.0751594 ], [ -0.1189939, 40.0750118 ], [ -0.11914, 40.0748345 ], [ -0.1192284, 40.0747089 ], [ -0.1194299, 40.0745329 ], [ -0.1196323, 40.0743356 ], [ -0.1197614, 40.0742323 ], [ -0.1199901, 40.0740677 ], [ -0.120121, 40.0739218 ], [ -0.1203501, 40.0737465 ], [ -0.1206793, 40.0734992 ], [ -0.1208526, 40.0733331 ], [ -0.1211211, 40.0728819 ], [ -0.1212873, 40.072556 ], [ -0.1214513, 40.0722832 ], [ -0.1216871, 40.0719483 ], [ -0.1219641, 40.0716251 ], [ -0.122212, 40.0713332 ], [ -0.1223885, 40.0710926 ], [ -0.1226216, 40.0708216 ], [ -0.1228977, 40.0705197 ], [ -0.123058, 40.070332 ], [ -0.1231063, 40.0701735 ], [ -0.123113, 40.0700139 ], [ -0.1230748, 40.0697596 ], [ -0.1230445, 40.0695241 ], [ -0.1230046, 40.0693254 ], [ -0.1230106, 40.0691835 ], [ -0.1230415, 40.0690236 ], [ -0.1230925, 40.068957 ], [ -0.1231835, 40.0688974 ], [ -0.1232824, 40.0688381 ], [ -0.1236006, 40.0687287 ], [ -0.124009, 40.0685782 ], [ -0.1243929, 40.0684333 ], [ -0.1246235, 40.0683032 ], [ -0.1247272, 40.0681328 ], [ -0.1247518, 40.0679295 ], [ -0.1248161, 40.0677396 ], [ -0.1248586, 40.0676851 ], [ -0.1251402, 40.0674883 ], [ -0.1253143, 40.0673629 ], [ -0.1254936, 40.0673055 ], [ -0.1257035, 40.067286 ], [ -0.1267642, 40.0673 ], [ -0.1275362, 40.0672945 ], [ -0.1282837, 40.0673007 ], [ -0.128614, 40.0672842 ], [ -0.1287679, 40.0672571 ], [ -0.1289392, 40.0671996 ], [ -0.1291122, 40.0670989 ], [ -0.1294136, 40.066816 ], [ -0.1299234, 40.066353 ], [ -0.1301424, 40.0661175 ], [ -0.1304942, 40.0657803 ], [ -0.1307947, 40.065516 ], [ -0.1310955, 40.0652455 ], [ -0.1312111, 40.0651742 ], [ -0.1316033, 40.0650233 ], [ -0.1320681, 40.0648681 ], [ -0.1322645, 40.0647864 ], [ -0.1323554, 40.0647269 ], [ -0.1324552, 40.0646491 ], [ -0.1325225, 40.0645766 ], [ -0.1326502, 40.0644068 ], [ -0.1328539, 40.0641524 ], [ -0.1330507, 40.063867 ], [ -0.1332111, 40.0636856 ], [ -0.1334171, 40.0635672 ], [ -0.1338435, 40.0633677 ], [ -0.134394, 40.0630848 ], [ -0.135059, 40.0627554 ], [ -0.1353471, 40.0625957 ], [ -0.1354789, 40.0625187 ], [ -0.135545, 40.0624771 ], [ -0.1357362, 40.0623274 ], [ -0.1358691, 40.0622257 ], [ -0.1361263, 40.0620343 ], [ -0.1362672, 40.0619328 ], [ -0.1368571, 40.0612864 ], [ -0.1370858, 40.061008 ], [ -0.1371373, 40.0609289 ], [ -0.1371966, 40.0606648 ], [ -0.1373629, 40.0603415 ], [ -0.1375383, 40.0599937 ], [ -0.1377305, 40.0596278 ], [ -0.1380623, 40.0591913 ], [ -0.138191, 40.0589968 ], [ -0.1386712, 40.0584712 ], [ -0.1392781, 40.0578006 ], [ -0.1402186, 40.0568416 ], [ -0.1409083, 40.0561112 ], [ -0.1411948, 40.0557971 ], [ -0.1415817, 40.0553866 ], [ -0.1419331, 40.0546725 ], [ -0.1421617, 40.054011 ], [ -0.1423189, 40.0537122 ], [ -0.1425046, 40.0535006 ], [ -0.1429638, 40.0530918 ], [ -0.1436957, 40.0525045 ], [ -0.1443207, 40.0519764 ], [ -0.1453864, 40.0510946 ], [ -0.1458771, 40.050699 ], [ -0.1461923, 40.0504658 ], [ -0.1464806, 40.0503 ], [ -0.1467504, 40.0501893 ], [ -0.1470123, 40.0500784 ], [ -0.1476449, 40.0498489 ], [ -0.1483441, 40.0495478 ], [ -0.1485317, 40.0494938 ], [ -0.1489806, 40.0494462 ], [ -0.1496697, 40.0493878 ], [ -0.150422, 40.0493812 ], [ -0.1521434, 40.0493984 ], [ -0.1546514, 40.0494856 ], [ -0.1548443, 40.0487555 ], [ -0.1558756, 40.0473487 ], [ -0.157586, 40.0459584 ], [ -0.1580593, 40.0452855 ], [ -0.158342, 40.0446889 ], [ -0.1587092, 40.0431846 ], [ -0.1587255, 40.04205 ], [ -0.15874, 40.0410325 ], [ -0.1590455, 40.0401663 ], [ -0.1602097, 40.038096 ], [ -0.1606137, 40.037115 ], [ -0.1607059, 40.0365859 ], [ -0.1606929, 40.036054 ], [ -0.1605831, 40.0355919 ], [ -0.160399, 40.0352271 ], [ -0.159235, 40.0339105 ], [ -0.1585909, 40.0333362 ], [ -0.1579594, 40.0330234 ], [ -0.1579135, 40.0330197 ], [ -0.1558697, 40.032855 ], [ -0.1558689, 40.032855 ], [ -0.1550933, 40.0328543 ], [ -0.1535966, 40.0328531 ], [ -0.1535965, 40.0328531 ], [ -0.1504446, 40.0342889 ], [ -0.1484242, 40.035212 ], [ -0.1484234, 40.035212 ], [ -0.144952, 40.0352975 ], [ -0.1378651, 40.038032 ], [ -0.1332854, 40.0432873 ], [ -0.1305553, 40.0469038 ], [ -0.1262457, 40.0510034 ], [ -0.120898, 40.0521856 ], [ -0.1182969, 40.053553 ], [ -0.1182961, 40.053553 ], [ -0.1169127, 40.0535951 ], [ -0.1169119, 40.0535951 ], [ -0.1081434, 40.0538761 ], [ -0.1081442, 40.0538761 ], [ -0.100165, 40.059054 ], [ -0.1001641, 40.0590539 ], [ -0.0983132, 40.0587644 ], [ -0.0983126, 40.0587643 ], [ -0.0921916, 40.0615651 ], [ -0.0840493, 40.0676292 ], [ -0.0840502, 40.0676292 ], [ -0.0799807, 40.0706594 ], [ -0.0776028, 40.0724298 ], [ -0.0758821, 40.0737108 ], [ -0.0695212, 40.0777615 ], [ -0.0663656, 40.0797708 ], [ -0.0663651, 40.0797711 ] ] ] } },
{ "type": "Feature", "properties": { "CCAA": "10 - Comunitat Valenciana", "PROVINCIA": "12 - Castellón/Castelló", "MUNICIPIO": "12902 - Sant Joan de Moró", "COD_MUNICIPIO": "12902", "DISTRITO": "01", "SECCION": "1290201001", "V1_H": 80.25, "V1_M": 86.11, "V2_H": 80.02266353, "V2_M": 86.02270939, "V3_H": 80.50879823, "V3_M": 86.37032083 }, "geometry": { "type": "Polygon", "coordinates": [ [ [ -0.1065891, 40.0839044 ], [ -0.1067875, 40.0841531 ], [ -0.1076334, 40.0840977 ], [ -0.1084805, 40.0842225 ], [ -0.1095491, 40.0844294 ], [ -0.1101279, 40.0846961 ], [ -0.1107072, 40.0848095 ], [ -0.1113013, 40.0846263 ], [ -0.1117171, 40.0844114 ], [ -0.1133359, 40.0842627 ], [ -0.1136922, 40.0843797 ], [ -0.1143904, 40.08437 ], [ -0.1149093, 40.0844055 ], [ -0.1158452, 40.0844063 ], [ -0.1154135, 40.0850486 ], [ -0.1149389, 40.0854917 ], [ -0.1144921, 40.0861787 ], [ -0.1142981, 40.0866062 ], [ -0.1140291, 40.087248 ], [ -0.1141334, 40.0876244 ], [ -0.1140725, 40.0880598 ], [ -0.1140577, 40.0885999 ], [ -0.1141162, 40.0890022 ], [ -0.1145764, 40.0892298 ], [ -0.1146946, 40.0897463 ], [ -0.114783, 40.0903069 ], [ -0.1152276, 40.0907323 ], [ -0.1158363, 40.0910538 ], [ -0.1163108, 40.0913764 ], [ -0.1161762, 40.091927 ], [ -0.1163385, 40.0925796 ], [ -0.116947, 40.0931307 ], [ -0.1173024, 40.0936035 ], [ -0.1168861, 40.0946425 ], [ -0.1166616, 40.095308 ], [ -0.117033, 40.0958847 ], [ -0.1174762, 40.0965713 ], [ -0.117876, 40.097464 ], [ -0.1183515, 40.0980974 ], [ -0.1188105, 40.0988069 ], [ -0.1197146, 40.0998429 ], [ -0.12034, 40.099372 ], [ -0.1208455, 40.0989477 ], [ -0.121455, 40.0985395 ], [ -0.121916, 40.0982627 ], [ -0.1225696, 40.0978872 ], [ -0.1231786, 40.0976321 ], [ -0.1243527, 40.0974991 ], [ -0.125674, 40.0975094 ], [ -0.1266549, 40.0973176 ], [ -0.1279917, 40.0971482 ], [ -0.1293434, 40.0970826 ], [ -0.1303392, 40.0968641 ], [ -0.1308743, 40.0966927 ], [ -0.1315272, 40.0967494 ], [ -0.132774, 40.0970505 ], [ -0.1337999, 40.0972697 ], [ -0.1347346, 40.0973739 ], [ -0.1354638, 40.0969415 ], [ -0.1361622, 40.0965264 ], [ -0.1371275, 40.0959693 ], [ -0.1384656, 40.0952818 ], [ -0.1394015, 40.0949176 ], [ -0.1402484, 40.0946864 ], [ -0.1415264, 40.0942765 ], [ -0.1421949, 40.0940498 ], [ -0.1430863, 40.0939097 ], [ -0.1442298, 40.0943118 ], [ -0.1446007, 40.0947848 ], [ -0.1457257, 40.0958935 ], [ -0.1457034, 40.0950282 ], [ -0.145451, 40.0937699 ], [ -0.1432538, 40.0902207 ], [ -0.1431978, 40.089877 ], [ -0.1432828, 40.0895279 ], [ -0.1434728, 40.0891902 ], [ -0.1437774, 40.0889185 ], [ -0.1442037, 40.0888209 ], [ -0.1452679, 40.0888922 ], [ -0.1460188, 40.0888837 ], [ -0.1468589, 40.0887063 ], [ -0.1488107, 40.0880247 ], [ -0.1488115, 40.0880245 ], [ -0.1517329, 40.0871329 ], [ -0.1527973, 40.0866366 ], [ -0.1536561, 40.0860092 ], [ -0.1552993, 40.0840049 ], [ -0.1555572, 40.0834437 ], [ -0.1553556, 40.0829344 ], [ -0.1551966, 40.0819666 ], [ -0.1552384, 40.0815263 ], [ -0.1555427, 40.080696 ], [ -0.1557523, 40.080449 ], [ -0.1563535, 40.0799284 ], [ -0.1563544, 40.0799284 ], [ -0.1567141, 40.0796169 ], [ -0.1585026, 40.0786249 ], [ -0.1593028, 40.0782752 ], [ -0.1604686, 40.0775923 ], [ -0.1621291, 40.0762908 ], [ -0.162898, 40.0755621 ], [ -0.1636733, 40.0745718 ], [ -0.1643096, 40.0737591 ], [ -0.1649493, 40.0726872 ], [ -0.1649565, 40.0726752 ], [ -0.1656192, 40.0715663 ], [ -0.1656606, 40.0714313 ], [ -0.1656605, 40.0714344 ], [ -0.1658233, 40.0709047 ], [ -0.1659069, 40.0702845 ], [ -0.165908, 40.0702762 ], [ -0.165908, 40.0702585 ], [ -0.1659065, 40.0694655 ], [ -0.1657665, 40.0688804 ], [ -0.1657663, 40.0688833 ], [ -0.165496, 40.067753 ], [ -0.1653051, 40.0673531 ], [ -0.1652263, 40.0671879 ], [ -0.1646403, 40.0663358 ], [ -0.1641769, 40.0659191 ], [ -0.1626899, 40.0650269 ], [ -0.1604099, 40.0642279 ], [ -0.1578943, 40.0633509 ], [ -0.1557282, 40.0624419 ], [ -0.1546135, 40.0619011 ], [ -0.1536454, 40.0612198 ], [ -0.1527405, 40.0604319 ], [ -0.1521705, 40.0597602 ], [ -0.1517362, 40.0586506 ], [ -0.1515758, 40.0565929 ], [ -0.1517645, 40.056003 ], [ -0.1519925, 40.0555943 ], [ -0.1523482, 40.0552157 ], [ -0.1528667, 40.0548682 ], [ -0.1541928, 40.0542703 ], [ -0.1556763, 40.0538293 ], [ -0.156486, 40.0535249 ], [ -0.156804, 40.0532084 ], [ -0.1569583, 40.052879 ], [ -0.1569616, 40.0525187 ], [ -0.1568557, 40.0522459 ], [ -0.156106, 40.0513897 ], [ -0.1546842, 40.0500667 ], [ -0.1545937, 40.0497042 ], [ -0.1546514, 40.0494856 ], [ -0.1521434, 40.0493984 ], [ -0.150422, 40.0493812 ], [ -0.1496697, 40.0493878 ], [ -0.1489806, 40.0494462 ], [ -0.1485317, 40.0494938 ], [ -0.1483441, 40.0495478 ], [ -0.1476449, 40.0498489 ], [ -0.1470123, 40.0500784 ], [ -0.1467504, 40.0501893 ], [ -0.1464806, 40.0503 ], [ -0.1461923, 40.0504658 ], [ -0.1458771, 40.050699 ], [ -0.1453864, 40.0510946 ], [ -0.1443207, 40.0519764 ], [ -0.1436957, 40.0525045 ], [ -0.1429638, 40.0530918 ], [ -0.1425046, 40.0535006 ], [ -0.1423189, 40.0537122 ], [ -0.1421617, 40.054011 ], [ -0.1419331, 40.0546725 ], [ -0.1415817, 40.0553866 ], [ -0.1411948, 40.0557971 ], [ -0.1409083, 40.0561112 ], [ -0.1402186, 40.0568416 ], [ -0.1392781, 40.0578006 ], [ -0.1386712, 40.0584712 ], [ -0.138191, 40.0589968 ], [ -0.1380623, 40.0591913 ], [ -0.1377305, 40.0596278 ], [ -0.1375383, 40.0599937 ], [ -0.1373629, 40.0603415 ], [ -0.1371966, 40.0606648 ], [ -0.1371373, 40.0609289 ], [ -0.1370858, 40.061008 ], [ -0.1368571, 40.0612864 ], [ -0.1362672, 40.0619328 ], [ -0.1361263, 40.0620343 ], [ -0.1358691, 40.0622257 ], [ -0.1357362, 40.0623274 ], [ -0.135545, 40.0624771 ], [ -0.1354789, 40.0625187 ], [ -0.1353471, 40.0625957 ], [ -0.135059, 40.0627554 ], [ -0.134394, 40.0630848 ], [ -0.1338435, 40.0633677 ], [ -0.1334171, 40.0635672 ], [ -0.1332111, 40.0636856 ], [ -0.1330507, 40.063867 ], [ -0.1328539, 40.0641524 ], [ -0.1326502, 40.0644068 ], [ -0.1325225, 40.0645766 ], [ -0.1324552, 40.0646491 ], [ -0.1323554, 40.0647269 ], [ -0.1322645, 40.0647864 ], [ -0.1320681, 40.0648681 ], [ -0.1316033, 40.0650233 ], [ -0.1312111, 40.0651742 ], [ -0.1310955, 40.0652455 ], [ -0.1307947, 40.065516 ], [ -0.1304942, 40.0657803 ], [ -0.1301424, 40.0661175 ], [ -0.1299234, 40.066353 ], [ -0.1294136, 40.066816 ], [ -0.1291122, 40.0670989 ], [ -0.1289392, 40.0671996 ], [ -0.1287679, 40.0672571 ], [ -0.128614, 40.0672842 ], [ -0.1282837, 40.0673007 ], [ -0.1275362, 40.0672945 ], [ -0.1267642, 40.0673 ], [ -0.1257035, 40.067286 ], [ -0.1254936, 40.0673055 ], [ -0.1253143, 40.0673629 ], [ -0.1251402, 40.0674883 ], [ -0.1248586, 40.0676851 ], [ -0.1248161, 40.0677396 ], [ -0.1247518, 40.0679295 ], [ -0.1247272, 40.0681328 ], [ -0.1246235, 40.0683032 ], [ -0.1243929, 40.0684333 ], [ -0.124009, 40.0685782 ], [ -0.1236006, 40.0687287 ], [ -0.1232824, 40.0688381 ], [ -0.1231835, 40.0688974 ], [ -0.1230925, 40.068957 ], [ -0.1230415, 40.0690236 ], [ -0.1230106, 40.0691835 ], [ -0.1230046, 40.0693254 ], [ -0.1230445, 40.0695241 ], [ -0.1230748, 40.0697596 ], [ -0.123113, 40.0700139 ], [ -0.1231063, 40.0701735 ], [ -0.123058, 40.070332 ], [ -0.1228977, 40.0705197 ], [ -0.1226216, 40.0708216 ], [ -0.1223885, 40.0710926 ], [ -0.122212, 40.0713332 ], [ -0.1219641, 40.0716251 ], [ -0.1216871, 40.0719483 ], [ -0.1214513, 40.0722832 ], [ -0.1212873, 40.072556 ], [ -0.1211211, 40.0728819 ], [ -0.1208526, 40.0733331 ], [ -0.1206793, 40.0734992 ], [ -0.1203501, 40.0737465 ], [ -0.120121, 40.0739218 ], [ -0.1199901, 40.0740677 ], [ -0.1197614, 40.0742323 ], [ -0.1196323, 40.0743356 ], [ -0.1194299, 40.0745329 ], [ -0.1192284, 40.0747089 ], [ -0.11914, 40.0748345 ], [ -0.1189939, 40.0750118 ], [ -0.1189322, 40.0751594 ], [ -0.1188991, 40.0752863 ], [ -0.1188647, 40.0754452 ], [ -0.1188035, 40.0755821 ], [ -0.1187115, 40.0757928 ], [ -0.1186784, 40.0759197 ], [ -0.1186065, 40.0759818 ], [ -0.1184242, 40.0760305 ], [ -0.118229, 40.0760576 ], [ -0.117936, 40.0761035 ], [ -0.1176568, 40.0761498 ], [ -0.117392, 40.0761858 ], [ -0.1171552, 40.0762119 ], [ -0.1169873, 40.0762503 ], [ -0.1168466, 40.0763 ], [ -0.1167327, 40.0763717 ], [ -0.1166138, 40.0765604 ], [ -0.1165508, 40.0767398 ], [ -0.1165602, 40.0768466 ], [ -0.1165829, 40.0769643 ], [ -0.1166722, 40.0771475 ], [ -0.1167356, 40.0772875 ], [ -0.1167441, 40.0774155 ], [ -0.1167235, 40.0775747 ], [ -0.1165649, 40.0777198 ], [ -0.1164773, 40.0778241 ], [ -0.1163888, 40.0779497 ], [ -0.1162856, 40.0780962 ], [ -0.1161699, 40.0782104 ], [ -0.1159389, 40.0784283 ], [ -0.1156946, 40.0786352 ], [ -0.1154783, 40.0788321 ], [ -0.1150539, 40.0790345 ], [ -0.1142753, 40.0794197 ], [ -0.1138661, 40.0795905 ], [ -0.113741, 40.079598 ], [ -0.1135883, 40.0796048 ], [ -0.1133676, 40.079578 ], [ -0.1131206, 40.0795186 ], [ -0.1128714, 40.0795124 ], [ -0.112594, 40.0795161 ], [ -0.1123707, 40.0795532 ], [ -0.1123001, 40.0795833 ], [ -0.1121428, 40.0796965 ], [ -0.1120119, 40.0798424 ], [ -0.1119368, 40.0799789 ], [ -0.111422, 40.0806795 ], [ -0.1112473, 40.0808774 ], [ -0.1110905, 40.08098 ], [ -0.1108649, 40.0810702 ], [ -0.1106268, 40.0811281 ], [ -0.1103467, 40.0811957 ], [ -0.1101064, 40.0813068 ], [ -0.1099339, 40.0814516 ], [ -0.1096461, 40.0816999 ], [ -0.1092123, 40.0821257 ], [ -0.1088383, 40.0824464 ], [ -0.1086118, 40.0825579 ], [ -0.1083844, 40.0826906 ], [ -0.1080587, 40.0828528 ], [ -0.1078764, 40.0829015 ], [ -0.107653, 40.0829385 ], [ -0.1073756, 40.0829422 ], [ -0.1070705, 40.0829453 ], [ -0.1069432, 40.083006 ], [ -0.1068418, 40.0831099 ], [ -0.1067796, 40.0832681 ], [ -0.1067157, 40.0834688 ], [ -0.1066486, 40.083744 ], [ -0.1065891, 40.0839044 ] ] ] } }
]
}
