{
"type": "FeatureCollection",
"name": "13007",
"features": [
{ "type": "Feature", "properties": { "CCAA": "08 - Castilla-La Mancha", "PROVINCIA": "13 - Ciudad Real", "MUNICIPIO": "13007 - Alcolea de Calatrava", "COD_MUNICIPIO": "13007", "DISTRITO": "01", "SECCION": "1300701001", "V1_H": 79.92, "V1_M": 85.8, "V2_H": 79.90391364, "V2_M": 85.68196434, "V3_H": 80.09820982, "V3_M": 86.14356104 }, "geometry": { "type": "Polygon", "coordinates": [ [ [ -4.0902386, 39.0220238 ], [ -4.0914223, 39.0223732 ], [ -4.091947, 39.0226927 ], [ -4.0923848, 39.0233644 ], [ -4.0929341, 39.0237827 ], [ -4.093342, 39.0240132 ], [ -4.0951481, 39.0242756 ], [ -4.0958861, 39.0256834 ], [ -4.0969654, 39.0252588 ], [ -4.09769, 39.0250537 ], [ -4.09867, 39.0249274 ], [ -4.0997468, 39.0250884 ], [ -4.1008612, 39.0254384 ], [ -4.1019384, 39.0256174 ], [ -4.1044945, 39.0258186 ], [ -4.1064854, 39.02607 ], [ -4.1084774, 39.0263935 ], [ -4.1093696, 39.0265652 ], [ -4.1102387, 39.0267372 ], [ -4.1108999, 39.0269111 ], [ -4.1142759, 39.0278161 ], [ -4.1143335, 39.0278065 ], [ -4.1163547, 39.0277782 ], [ -4.1190239, 39.0278157 ], [ -4.1208709, 39.0277259 ], [ -4.1230086, 39.0277594 ], [ -4.1241417, 39.0278206 ], [ -4.1248734, 39.0280658 ], [ -4.1262591, 39.0287553 ], [ -4.1268399, 39.0282271 ], [ -4.1277788, 39.0276954 ], [ -4.1285444, 39.0271654 ], [ -4.1287923, 39.0267755 ], [ -4.1288657, 39.0263062 ], [ -4.1291928, 39.0258075 ], [ -4.1297649, 39.0254595 ], [ -4.1310168, 39.0250058 ], [ -4.1315391, 39.0244331 ], [ -4.1322913, 39.0237951 ], [ -4.1334504, 39.0233152 ], [ -4.1335009, 39.0228642 ], [ -4.1332723, 39.0222897 ], [ -4.1326786, 39.0212773 ], [ -4.1322719, 39.0198944 ], [ -4.1322325, 39.0197607 ], [ -4.1322267, 39.0197408 ], [ -4.1321897, 39.0195969 ], [ -4.1321214, 39.0193683 ], [ -4.1229506, 39.0145513 ], [ -4.1233996, 39.0133354 ], [ -4.1235679, 39.0124252 ], [ -4.1235795, 39.0107855 ], [ -4.1231569, 39.0088213 ], [ -4.1225071, 39.0064859 ], [ -4.1222121, 39.0046612 ], [ -4.1215314, 39.0034919 ], [ -4.121186, 39.0023193 ], [ -4.1202498, 39.0011346 ], [ -4.119556, 38.9997881 ], [ -4.1183721, 38.9964401 ], [ -4.1186181, 38.996117 ], [ -4.119257, 38.9952791 ], [ -4.1194078, 38.9951264 ], [ -4.1195088, 38.99502 ], [ -4.119657, 38.9948994 ], [ -4.1199121, 38.994627 ], [ -4.1201007, 38.9944003 ], [ -4.1202045, 38.9942793 ], [ -4.1201624, 38.9940473 ], [ -4.1200599, 38.9936435 ], [ -4.1199785, 38.9933518 ], [ -4.1198693, 38.993128 ], [ -4.119849, 38.9930607 ], [ -4.1196328, 38.9927554 ], [ -4.1193388, 38.9923833 ], [ -4.1192313, 38.9922719 ], [ -4.1190172, 38.992094 ], [ -4.1187842, 38.9919388 ], [ -4.1186087, 38.9917756 ], [ -4.1185214, 38.9917239 ], [ -4.1182984, 38.9915911 ], [ -4.1181719, 38.9914949 ], [ -4.1180553, 38.991406 ], [ -4.1179292, 38.9913322 ], [ -4.1178031, 38.991251 ], [ -4.1176763, 38.9911322 ], [ -4.1175888, 38.9910656 ], [ -4.1174319, 38.9908647 ], [ -4.117197, 38.9905895 ], [ -4.1171184, 38.9904778 ], [ -4.1170501, 38.990411 ], [ -4.1168654, 38.9902703 ], [ -4.1166032, 38.9900929 ], [ -4.1164577, 38.9900043 ], [ -4.1163701, 38.9899302 ], [ -4.1163016, 38.9898484 ], [ -4.1162332, 38.989774 ], [ -4.1161836, 38.9896771 ], [ -4.1161247, 38.9895952 ], [ -4.1160762, 38.9895656 ], [ -4.1160726, 38.9893407 ], [ -4.1160969, 38.9890481 ], [ -4.1161054, 38.988928 ], [ -4.1161082, 38.9888437 ], [ -4.1161201, 38.9888112 ], [ -4.1161445, 38.9887753 ], [ -4.1162297, 38.9886546 ], [ -4.1162704, 38.9885992 ], [ -4.1163029, 38.9885567 ], [ -4.1163305, 38.9884593 ], [ -4.1163419, 38.9883944 ], [ -4.116349, 38.9883166 ], [ -4.1163635, 38.9881868 ], [ -4.1163824, 38.9880636 ], [ -4.1164117, 38.9878171 ], [ -4.1163283, 38.9877919 ], [ -4.1163231, 38.9877239 ], [ -4.1163215, 38.9876212 ], [ -4.1163195, 38.9874927 ], [ -4.1163119, 38.9873778 ], [ -4.1162973, 38.987184 ], [ -4.1161612, 38.987165 ], [ -4.1161577, 38.9871222 ], [ -4.1161209, 38.9869872 ], [ -4.1160686, 38.9867848 ], [ -4.1160509, 38.9867602 ], [ -4.1160561, 38.9867263 ], [ -4.1160539, 38.986582 ], [ -4.1160516, 38.9864377 ], [ -4.1160499, 38.9863318 ], [ -4.1160545, 38.9862573 ], [ -4.1160671, 38.9861354 ], [ -4.1160899, 38.9859323 ], [ -4.1161163, 38.9857765 ], [ -4.1161244, 38.985738 ], [ -4.1161351, 38.9856838 ], [ -4.1161547, 38.9856453 ], [ -4.1161594, 38.9855731 ], [ -4.116158, 38.9854897 ], [ -4.1161629, 38.9854288 ], [ -4.1161612, 38.9853206 ], [ -4.1161596, 38.9852214 ], [ -4.1161639, 38.9851244 ], [ -4.1161468, 38.9849599 ], [ -4.1161391, 38.9848337 ], [ -4.1161252, 38.9846828 ], [ -4.1160999, 38.9845432 ], [ -4.1160862, 38.9844081 ], [ -4.1160444, 38.9841379 ], [ -4.1160147, 38.9839014 ], [ -4.115999, 38.9838227 ], [ -4.1159653, 38.9835186 ], [ -4.1159054, 38.9830141 ], [ -4.1158656, 38.9826875 ], [ -4.1157531, 38.9826976 ], [ -4.1157482, 38.9825691 ], [ -4.1156666, 38.9820344 ], [ -4.1156293, 38.9816199 ], [ -4.1156229, 38.9812111 ], [ -4.1156299, 38.9811341 ], [ -4.1162136, 38.9809717 ], [ -4.1166295, 38.9807087 ], [ -4.1166877, 38.9803637 ], [ -4.1167711, 38.9796079 ], [ -4.1168135, 38.9791611 ], [ -4.1170906, 38.9783731 ], [ -4.117212, 38.9780054 ], [ -4.1170149, 38.977368 ], [ -4.1169257, 38.9770878 ], [ -4.1168135, 38.9766866 ], [ -4.1166067, 38.9758839 ], [ -4.1165537, 38.975653 ], [ -4.1164027, 38.9745825 ], [ -4.1163153, 38.9739606 ], [ -4.1162199, 38.9732809 ], [ -4.1161033, 38.9723699 ], [ -4.1160301, 38.9717589 ], [ -4.1159485, 38.9710598 ], [ -4.1158762, 38.9704956 ], [ -4.1157832, 38.9697442 ], [ -4.1156907, 38.9692435 ], [ -4.1155758, 38.9686715 ], [ -4.1154069, 38.9678051 ], [ -4.1150753, 38.9666923 ], [ -4.1150122, 38.9664945 ], [ -4.1147102, 38.9654668 ], [ -4.1146209, 38.9651783 ], [ -4.1143031, 38.9640378 ], [ -4.1142581, 38.9638729 ], [ -4.113981, 38.9628505 ], [ -4.1139096, 38.9625783 ], [ -4.1137825, 38.9621249 ], [ -4.1134511, 38.9612435 ], [ -4.1131081, 38.9603044 ], [ -4.112942, 38.9598347 ], [ -4.1126909, 38.959129 ], [ -4.112796, 38.9586237 ], [ -4.1129194, 38.9583883 ], [ -4.1134469, 38.9573692 ], [ -4.1136389, 38.9570064 ], [ -4.1142755, 38.9557411 ], [ -4.1149701, 38.9543456 ], [ -4.1155414, 38.9531911 ], [ -4.1156607, 38.9529227 ], [ -4.1159398, 38.9522669 ], [ -4.1162394, 38.9515724 ], [ -4.1163721, 38.9512598 ], [ -4.1166351, 38.9502542 ], [ -4.1168514, 38.9494145 ], [ -4.1170187, 38.9488315 ], [ -4.1172158, 38.9481241 ], [ -4.1175183, 38.947617 ], [ -4.1179718, 38.9468328 ], [ -4.1184634, 38.9462301 ], [ -4.1186053, 38.9460497 ], [ -4.1190353, 38.9455716 ], [ -4.119586, 38.944916 ], [ -4.1197834, 38.9446771 ], [ -4.1203487, 38.944049 ], [ -4.1206809, 38.9436324 ], [ -4.1210024, 38.9432132 ], [ -4.1213473, 38.9427618 ], [ -4.1211601, 38.9428218 ], [ -4.1188233, 38.9439075 ], [ -4.1180191, 38.9441315 ], [ -4.1169833, 38.9443036 ], [ -4.1094768, 38.9439066 ], [ -4.1074342, 38.9438899 ], [ -4.1059581, 38.943949 ], [ -4.1034389, 38.9444504 ], [ -4.1028744, 38.9445098 ], [ -4.1016828, 38.9443138 ], [ -4.0941715, 38.9428435 ], [ -4.0895507, 38.9417423 ], [ -4.0874789, 38.9413201 ], [ -4.0866937, 38.9412823 ], [ -4.0854096, 38.941069 ], [ -4.0841109, 38.9406485 ], [ -4.083644, 38.9402924 ], [ -4.0765985, 38.9329505 ], [ -4.0753453, 38.9317095 ], [ -4.0751075, 38.9312431 ], [ -4.0746552, 38.9295533 ], [ -4.0735915, 38.9248051 ], [ -4.0731596, 38.9237008 ], [ -4.0726348, 38.9225612 ], [ -4.0715565, 38.9206607 ], [ -4.0711493, 38.9196552 ], [ -4.0695015, 38.9136239 ], [ -4.069076, 38.9137089 ], [ -4.0679395, 38.9140617 ], [ -4.0675281, 38.9143178 ], [ -4.0670231, 38.9144846 ], [ -4.0663189, 38.9144459 ], [ -4.0659016, 38.9143055 ], [ -4.0639742, 38.914224 ], [ -4.0631026, 38.9145564 ], [ -4.061587, 38.9150207 ], [ -4.0613091, 38.9149511 ], [ -4.0604452, 38.9142561 ], [ -4.0603486, 38.9142439 ], [ -4.0599137, 38.9141888 ], [ -4.0553585, 38.9142391 ], [ -4.0532213, 38.9140151 ], [ -4.0526455, 38.9140743 ], [ -4.051975, 38.9139723 ], [ -4.051248, 38.9139518 ], [ -4.0508776, 38.913856 ], [ -4.0501266, 38.9137726 ], [ -4.0497238, 38.9138303 ], [ -4.0494371, 38.913941 ], [ -4.0491289, 38.91416 ], [ -4.0492999, 38.9148073 ], [ -4.0493635, 38.9167802 ], [ -4.0493663, 38.9169694 ], [ -4.0495389, 38.9177248 ], [ -4.0495519, 38.9178238 ], [ -4.049809, 38.9196147 ], [ -4.0504816, 38.9229878 ], [ -4.0508438, 38.9240839 ], [ -4.0514661, 38.9256012 ], [ -4.0526904, 38.9280502 ], [ -4.0524127, 38.9287735 ], [ -4.0520082, 38.9295071 ], [ -4.0514884, 38.9302417 ], [ -4.0516393, 38.9318713 ], [ -4.0516286, 38.9327094 ], [ -4.0517547, 38.9342131 ], [ -4.0520331, 38.9343188 ], [ -4.052795, 38.9343479 ], [ -4.0541589, 38.9345159 ], [ -4.0548392, 38.9344827 ], [ -4.0625771, 38.9334664 ], [ -4.0631634, 38.9333259 ], [ -4.0638849, 38.9329679 ], [ -4.0646099, 38.9328441 ], [ -4.0657293, 38.932861 ], [ -4.0664231, 38.9329718 ], [ -4.0669684, 38.9331741 ], [ -4.067434, 38.9334491 ], [ -4.0696277, 38.9350961 ], [ -4.0708559, 38.9362113 ], [ -4.0727763, 38.93732 ], [ -4.0749256, 38.9390664 ], [ -4.0755376, 38.9398628 ], [ -4.0759632, 38.9405347 ], [ -4.0765131, 38.9410432 ], [ -4.0771083, 38.9414883 ], [ -4.0791504, 38.9422354 ], [ -4.0800931, 38.9427674 ], [ -4.0806546, 38.9432667 ], [ -4.080836, 38.9438147 ], [ -4.0808485, 38.9438777 ], [ -4.0807537, 38.9444733 ], [ -4.080394, 38.9451074 ], [ -4.0797599, 38.9459062 ], [ -4.0790897, 38.9466063 ], [ -4.0790445, 38.9481927 ], [ -4.0791307, 38.9493092 ], [ -4.0790509, 38.95013 ], [ -4.0781891, 38.952661 ], [ -4.0773324, 38.9547685 ], [ -4.0773184, 38.9553724 ], [ -4.0776041, 38.9559464 ], [ -4.0784313, 38.9572184 ], [ -4.0782695, 38.9579678 ], [ -4.0781904, 38.9588426 ], [ -4.0783615, 38.9609946 ], [ -4.0786235, 38.9615329 ], [ -4.0795012, 38.9623268 ], [ -4.0799939, 38.9628448 ], [ -4.0803001, 38.9632475 ], [ -4.0806201, 38.9638032 ], [ -4.0815552, 38.9645695 ], [ -4.0824925, 38.9654889 ], [ -4.0834243, 38.9667959 ], [ -4.0838553, 38.9678102 ], [ -4.0840858, 38.9685469 ], [ -4.0842876, 38.9711853 ], [ -4.0843982, 38.9716258 ], [ -4.084532, 38.972832 ], [ -4.084595, 38.9746877 ], [ -4.0835886, 38.9745529 ], [ -4.0833519, 38.9756905 ], [ -4.0827581, 38.9776333 ], [ -4.0835092, 38.9784373 ], [ -4.0836824, 38.9799496 ], [ -4.0809416, 38.9804075 ], [ -4.0812371, 38.9816123 ], [ -4.0815898, 38.9835554 ], [ -4.0818184, 38.984157 ], [ -4.0822427, 38.9847298 ], [ -4.0830643, 38.9856052 ], [ -4.0838255, 38.98631 ], [ -4.0839923, 38.9866509 ], [ -4.0839291, 38.987048 ], [ -4.0835626, 38.9879975 ], [ -4.083392, 38.9881703 ], [ -4.0828066, 38.988401 ], [ -4.0811492, 38.9887408 ], [ -4.0792024, 38.9890381 ], [ -4.0779593, 38.9892929 ], [ -4.0773966, 38.9894963 ], [ -4.0765433, 38.9903332 ], [ -4.0760964, 38.9905626 ], [ -4.075313, 38.990678 ], [ -4.0734755, 38.9913347 ], [ -4.0729357, 38.9938176 ], [ -4.0710985, 38.9937354 ], [ -4.0710276, 38.9943938 ], [ -4.07104, 38.9944568 ], [ -4.0712075, 38.9956087 ], [ -4.0711423, 38.9958796 ], [ -4.0709727, 38.9961154 ], [ -4.0704041, 38.9966974 ], [ -4.070087, 38.9971148 ], [ -4.0700121, 38.9982688 ], [ -4.0695701, 38.9995975 ], [ -4.0696357, 39.0001195 ], [ -4.0696369, 39.0002006 ], [ -4.0698408, 39.0007034 ], [ -4.070585, 39.0018049 ], [ -4.0709967, 39.0023057 ], [ -4.0723192, 39.003465 ], [ -4.0729479, 39.0038017 ], [ -4.0739217, 39.004054 ], [ -4.0770467, 39.0052688 ], [ -4.0788429, 39.0056667 ], [ -4.0798527, 39.0059998 ], [ -4.0807727, 39.0065049 ], [ -4.0818579, 39.0072337 ], [ -4.0832077, 39.007897 ], [ -4.0864609, 39.0091644 ], [ -4.0875939, 39.0099918 ], [ -4.0883041, 39.0103637 ], [ -4.0890231, 39.0105552 ], [ -4.0916465, 39.0114138 ], [ -4.09201, 39.0117708 ], [ -4.0920594, 39.0119776 ], [ -4.0919925, 39.0128793 ], [ -4.0910965, 39.0192134 ], [ -4.090892, 39.0201885 ], [ -4.0905951, 39.0211644 ], [ -4.0902386, 39.0220238 ] ] ] } },
{ "type": "Feature", "properties": { "CCAA": "08 - Castilla-La Mancha", "PROVINCIA": "13 - Ciudad Real", "MUNICIPIO": "13007 - Alcolea de Calatrava", "COD_MUNICIPIO": "13007", "DISTRITO": "01", "SECCION": "1300701002", "V1_H": 79.57, "V1_M": 85.52, "V2_H": 79.5571672, "V2_M": 85.61629353, "V3_H": 79.73611669, "V3_M": 85.61269153000001 }, "geometry": { "type": "Polygon", "coordinates": [ [ [ -4.1213473, 38.9427618 ], [ -4.1210024, 38.9432132 ], [ -4.1206809, 38.9436324 ], [ -4.1203487, 38.944049 ], [ -4.1197834, 38.9446771 ], [ -4.119586, 38.944916 ], [ -4.1190353, 38.9455716 ], [ -4.1186053, 38.9460497 ], [ -4.1184634, 38.9462301 ], [ -4.1179718, 38.9468328 ], [ -4.1175183, 38.947617 ], [ -4.1172158, 38.9481241 ], [ -4.1170187, 38.9488315 ], [ -4.1168514, 38.9494145 ], [ -4.1166351, 38.9502542 ], [ -4.1163721, 38.9512598 ], [ -4.1162394, 38.9515724 ], [ -4.1159398, 38.9522669 ], [ -4.1156607, 38.9529227 ], [ -4.1155414, 38.9531911 ], [ -4.1149701, 38.9543456 ], [ -4.1142755, 38.9557411 ], [ -4.1136389, 38.9570064 ], [ -4.1134469, 38.9573692 ], [ -4.1129194, 38.9583883 ], [ -4.112796, 38.9586237 ], [ -4.1126909, 38.959129 ], [ -4.112942, 38.9598347 ], [ -4.1131081, 38.9603044 ], [ -4.1134511, 38.9612435 ], [ -4.1137825, 38.9621249 ], [ -4.1139096, 38.9625783 ], [ -4.113981, 38.9628505 ], [ -4.1142581, 38.9638729 ], [ -4.1143031, 38.9640378 ], [ -4.1146209, 38.9651783 ], [ -4.1147102, 38.9654668 ], [ -4.1150122, 38.9664945 ], [ -4.1150753, 38.9666923 ], [ -4.1154069, 38.9678051 ], [ -4.1155758, 38.9686715 ], [ -4.1156907, 38.9692435 ], [ -4.1157832, 38.9697442 ], [ -4.1158762, 38.9704956 ], [ -4.1159485, 38.9710598 ], [ -4.1160301, 38.9717589 ], [ -4.1161033, 38.9723699 ], [ -4.1162199, 38.9732809 ], [ -4.1163153, 38.9739606 ], [ -4.1164027, 38.9745825 ], [ -4.1165537, 38.975653 ], [ -4.1166067, 38.9758839 ], [ -4.1168135, 38.9766866 ], [ -4.1169257, 38.9770878 ], [ -4.1170149, 38.977368 ], [ -4.117212, 38.9780054 ], [ -4.1170906, 38.9783731 ], [ -4.1168135, 38.9791611 ], [ -4.1167711, 38.9796079 ], [ -4.1166877, 38.9803637 ], [ -4.1166295, 38.9807087 ], [ -4.1162136, 38.9809717 ], [ -4.1156299, 38.9811341 ], [ -4.1156229, 38.9812111 ], [ -4.1156293, 38.9816199 ], [ -4.1156666, 38.9820344 ], [ -4.1157482, 38.9825691 ], [ -4.1157531, 38.9826976 ], [ -4.1158656, 38.9826875 ], [ -4.1159054, 38.9830141 ], [ -4.1159653, 38.9835186 ], [ -4.115999, 38.9838227 ], [ -4.1160147, 38.9839014 ], [ -4.1160444, 38.9841379 ], [ -4.1160862, 38.9844081 ], [ -4.1160999, 38.9845432 ], [ -4.1161252, 38.9846828 ], [ -4.1161391, 38.9848337 ], [ -4.1161468, 38.9849599 ], [ -4.1161639, 38.9851244 ], [ -4.1161596, 38.9852214 ], [ -4.1161612, 38.9853206 ], [ -4.1161629, 38.9854288 ], [ -4.116158, 38.9854897 ], [ -4.1161594, 38.9855731 ], [ -4.1161547, 38.9856453 ], [ -4.1161351, 38.9856838 ], [ -4.1161244, 38.985738 ], [ -4.1161163, 38.9857765 ], [ -4.1160899, 38.9859323 ], [ -4.1160671, 38.9861354 ], [ -4.1160545, 38.9862573 ], [ -4.1160499, 38.9863318 ], [ -4.1160516, 38.9864377 ], [ -4.1160539, 38.986582 ], [ -4.1160561, 38.9867263 ], [ -4.1160509, 38.9867602 ], [ -4.1160686, 38.9867848 ], [ -4.1161209, 38.9869872 ], [ -4.1161577, 38.9871222 ], [ -4.1161612, 38.987165 ], [ -4.1162973, 38.987184 ], [ -4.1163119, 38.9873778 ], [ -4.1163195, 38.9874927 ], [ -4.1163215, 38.9876212 ], [ -4.1163231, 38.9877239 ], [ -4.1163283, 38.9877919 ], [ -4.1164117, 38.9878171 ], [ -4.1163824, 38.9880636 ], [ -4.1163635, 38.9881868 ], [ -4.116349, 38.9883166 ], [ -4.1163419, 38.9883944 ], [ -4.1163305, 38.9884593 ], [ -4.1163029, 38.9885567 ], [ -4.1162704, 38.9885992 ], [ -4.1162297, 38.9886546 ], [ -4.1161445, 38.9887753 ], [ -4.1161201, 38.9888112 ], [ -4.1161082, 38.9888437 ], [ -4.1161054, 38.988928 ], [ -4.1160969, 38.9890481 ], [ -4.1160726, 38.9893407 ], [ -4.1160762, 38.9895656 ], [ -4.1161247, 38.9895952 ], [ -4.1161836, 38.9896771 ], [ -4.1162332, 38.989774 ], [ -4.1163016, 38.9898484 ], [ -4.1163701, 38.9899302 ], [ -4.1164577, 38.9900043 ], [ -4.1166032, 38.9900929 ], [ -4.1168654, 38.9902703 ], [ -4.1170501, 38.990411 ], [ -4.1171184, 38.9904778 ], [ -4.117197, 38.9905895 ], [ -4.1174319, 38.9908647 ], [ -4.1175888, 38.9910656 ], [ -4.1176763, 38.9911322 ], [ -4.1178031, 38.991251 ], [ -4.1179292, 38.9913322 ], [ -4.1180553, 38.991406 ], [ -4.1181719, 38.9914949 ], [ -4.1182984, 38.9915911 ], [ -4.1185214, 38.9917239 ], [ -4.1186087, 38.9917756 ], [ -4.1187842, 38.9919388 ], [ -4.1190172, 38.992094 ], [ -4.1192313, 38.9922719 ], [ -4.1193388, 38.9923833 ], [ -4.1196328, 38.9927554 ], [ -4.119849, 38.9930607 ], [ -4.1198693, 38.993128 ], [ -4.1199785, 38.9933518 ], [ -4.1200599, 38.9936435 ], [ -4.1201624, 38.9940473 ], [ -4.1202045, 38.9942793 ], [ -4.1201007, 38.9944003 ], [ -4.1199121, 38.994627 ], [ -4.119657, 38.9948994 ], [ -4.1195088, 38.99502 ], [ -4.1194078, 38.9951264 ], [ -4.119257, 38.9952791 ], [ -4.1186181, 38.996117 ], [ -4.1183721, 38.9964401 ], [ -4.119556, 38.9997881 ], [ -4.1202498, 39.0011346 ], [ -4.121186, 39.0023193 ], [ -4.1215314, 39.0034919 ], [ -4.1222121, 39.0046612 ], [ -4.1225071, 39.0064859 ], [ -4.1231569, 39.0088213 ], [ -4.1235795, 39.0107855 ], [ -4.1235679, 39.0124252 ], [ -4.1233996, 39.0133354 ], [ -4.1229506, 39.0145513 ], [ -4.1321214, 39.0193683 ], [ -4.1315186, 39.0173507 ], [ -4.1315205, 39.016747 ], [ -4.131592, 39.016521 ], [ -4.1316635, 39.0162951 ], [ -4.1319892, 39.0157152 ], [ -4.1328156, 39.0153828 ], [ -4.1351885, 39.0149813 ], [ -4.1369829, 39.0145133 ], [ -4.138353, 39.0142386 ], [ -4.1394761, 39.0144078 ], [ -4.1404271, 39.0146509 ], [ -4.1435878, 39.0158364 ], [ -4.1440276, 39.0158862 ], [ -4.1453306, 39.0157473 ], [ -4.1467126, 39.0154994 ], [ -4.147218, 39.0153232 ], [ -4.148122, 39.0148007 ], [ -4.1493865, 39.0144278 ], [ -4.1505687, 39.0139657 ], [ -4.1516841, 39.0136573 ], [ -4.1529976, 39.0134641 ], [ -4.155484, 39.0129439 ], [ -4.1564614, 39.0126729 ], [ -4.1568746, 39.0125156 ], [ -4.1576508, 39.0119493 ], [ -4.158266, 39.0114295 ], [ -4.1585944, 39.0110298 ], [ -4.1587499, 39.0106498 ], [ -4.1588431, 39.0092882 ], [ -4.1590869, 39.0086551 ], [ -4.1599923, 39.0075197 ], [ -4.1609816, 39.0065727 ], [ -4.1615076, 39.0062521 ], [ -4.1605908, 39.00527 ], [ -4.1597406, 39.0041251 ], [ -4.1596311, 39.0037838 ], [ -4.1598273, 39.00307 ], [ -4.1602227, 39.0025344 ], [ -4.1607363, 39.0021598 ], [ -4.1611265, 39.0020117 ], [ -4.163257, 39.0016481 ], [ -4.1639464, 39.001434 ], [ -4.1642556, 39.0012777 ], [ -4.1648011, 39.0007406 ], [ -4.1649468, 39.0004689 ], [ -4.1649063, 39.0001088 ], [ -4.1645802, 38.9999409 ], [ -4.1665783, 38.9985513 ], [ -4.1669401, 38.9980881 ], [ -4.1671753, 38.9976442 ], [ -4.1672834, 38.9971926 ], [ -4.1671545, 38.9963739 ], [ -4.1672979, 38.995967 ], [ -4.1675569, 38.9955679 ], [ -4.1677615, 38.9953676 ], [ -4.1678012, 38.9949707 ], [ -4.1677735, 38.9939888 ], [ -4.1678266, 38.9923032 ], [ -4.1679236, 38.9918788 ], [ -4.1682745, 38.9914517 ], [ -4.1687563, 38.9912577 ], [ -4.1694127, 38.991152 ], [ -4.1695371, 38.9909976 ], [ -4.1694063, 38.9907646 ], [ -4.1690135, 38.9893448 ], [ -4.1694606, 38.9884482 ], [ -4.1706597, 38.9813356 ], [ -4.1709504, 38.9786564 ], [ -4.1711797, 38.976888 ], [ -4.1713702, 38.9754189 ], [ -4.1713702, 38.9754188 ], [ -4.1713702, 38.9754187 ], [ -4.1713702, 38.9754184 ], [ -4.1713702, 38.9754184 ], [ -4.1713704, 38.9754173 ], [ -4.1751455, 38.9754334 ], [ -4.1758219, 38.9751473 ], [ -4.1794557, 38.9736058 ], [ -4.1797354, 38.9730714 ], [ -4.1810737, 38.9709402 ], [ -4.1820936, 38.9691007 ], [ -4.1822559, 38.9684502 ], [ -4.1822525, 38.9675492 ], [ -4.1821411, 38.9670998 ], [ -4.1799518, 38.9652386 ], [ -4.1782942, 38.9648138 ], [ -4.1782942, 38.9648138 ], [ -4.177504, 38.9644884 ], [ -4.1770018, 38.964133 ], [ -4.1770018, 38.964133 ], [ -4.1766206, 38.963416 ], [ -4.1759805, 38.963098 ], [ -4.172237, 38.9607568 ], [ -4.1720972, 38.960677 ], [ -4.1711015, 38.9599521 ], [ -4.1702048, 38.9592994 ], [ -4.169425, 38.9589017 ], [ -4.1685561, 38.9579912 ], [ -4.1668172, 38.9575221 ], [ -4.1610217, 38.9524526 ], [ -4.1610197, 38.9516236 ], [ -4.1610197, 38.9516236 ], [ -4.160004, 38.9509057 ], [ -4.1595487, 38.9505839 ], [ -4.1574696, 38.9497575 ], [ -4.1550766, 38.948781 ], [ -4.1539698, 38.9481341 ], [ -4.149836, 38.9451112 ], [ -4.1476431, 38.9443578 ], [ -4.1471087, 38.9434259 ], [ -4.1468363, 38.9430848 ], [ -4.1462373, 38.9423351 ], [ -4.1455115, 38.9416844 ], [ -4.1425274, 38.9398033 ], [ -4.1428168, 38.9391427 ], [ -4.143013, 38.938552 ], [ -4.1431141, 38.9382477 ], [ -4.1432961, 38.9373718 ], [ -4.1426958, 38.9359179 ], [ -4.1425366, 38.9353338 ], [ -4.1425378, 38.934694 ], [ -4.1426449, 38.9341793 ], [ -4.1442497, 38.9299374 ], [ -4.1437878, 38.9284731 ], [ -4.1433325, 38.9288561 ], [ -4.1418255, 38.929844 ], [ -4.1407737, 38.93044 ], [ -4.1388611, 38.9313147 ], [ -4.1373735, 38.9320771 ], [ -4.1359679, 38.9329198 ], [ -4.1351487, 38.9336396 ], [ -4.1345929, 38.9342398 ], [ -4.1339658, 38.9347054 ], [ -4.133431, 38.9351792 ], [ -4.1328203, 38.935951 ], [ -4.1319989, 38.9372656 ], [ -4.1315107, 38.9377659 ], [ -4.1298249, 38.9391339 ], [ -4.1293222, 38.9394542 ], [ -4.1283989, 38.9394361 ], [ -4.1268972, 38.9407842 ], [ -4.1260757, 38.9413688 ], [ -4.1251939, 38.9417918 ], [ -4.1245516, 38.9420323 ], [ -4.1228615, 38.942418 ], [ -4.121826, 38.9426082 ], [ -4.1213473, 38.9427618 ] ] ] } }
]
}
