{
"type": "FeatureCollection",
"name": "13047",
"features": [
{ "type": "Feature", "properties": { "CCAA": "08 - Castilla-La Mancha", "PROVINCIA": "13 - Ciudad Real", "MUNICIPIO": "13047 - Herencia", "COD_MUNICIPIO": "13047", "DISTRITO": "01", "SECCION": "1304701001", "V1_H": 79.68, "V1_M": 85.47, "V2_H": 79.93758061, "V2_M": 85.65037312, "V3_H": 79.53414521000001, "V3_M": 85.4025844 }, "geometry": { "type": "Polygon", "coordinates": [ [ [ -3.3305799, 39.4053746 ], [ -3.3394644, 39.4075477 ], [ -3.3430561, 39.4080688 ], [ -3.3449849, 39.4081982 ], [ -3.349562, 39.4083107 ], [ -3.3520357, 39.4082402 ], [ -3.3542532, 39.4080263 ], [ -3.3562153, 39.4078401 ], [ -3.3598388, 39.4077478 ], [ -3.3635664, 39.4075561 ], [ -3.3661098, 39.407485 ], [ -3.3699066, 39.4072117 ], [ -3.3745388, 39.4067734 ], [ -3.3773138, 39.4065662 ], [ -3.3814231, 39.4061203 ], [ -3.3921151, 39.4051117 ], [ -3.396109, 39.4048189 ], [ -3.4016108, 39.4041693 ], [ -3.4032482, 39.4041276 ], [ -3.4056296, 39.4041914 ], [ -3.4083021, 39.4043713 ], [ -3.4102779, 39.4045896 ], [ -3.4106243, 39.404237 ], [ -3.4113958, 39.4030899 ], [ -3.4120046, 39.4019112 ], [ -3.4118843, 39.4018834 ], [ -3.4115754, 39.4018033 ], [ -3.4113188, 39.4017139 ], [ -3.4111613, 39.4016422 ], [ -3.410963, 39.4015616 ], [ -3.4108403, 39.4014853 ], [ -3.4107411, 39.4014225 ], [ -3.4106184, 39.4013417 ], [ -3.4104431, 39.4012204 ], [ -3.4099932, 39.400906 ], [ -3.4097886, 39.4007442 ], [ -3.4096424, 39.4006138 ], [ -3.4095254, 39.4005148 ], [ -3.4094085, 39.400425 ], [ -3.4092505, 39.4002675 ], [ -3.4090984, 39.4001281 ], [ -3.4089638, 39.3999977 ], [ -3.4088292, 39.3998627 ], [ -3.4087062, 39.3997277 ], [ -3.4085775, 39.3996108 ], [ -3.4084546, 39.3994893 ], [ -3.4081035, 39.3991474 ], [ -3.4077759, 39.3988416 ], [ -3.4076881, 39.3987471 ], [ -3.4073548, 39.3984729 ], [ -3.4070626, 39.3982482 ], [ -3.4068814, 39.3981134 ], [ -3.4066653, 39.3979652 ], [ -3.4063497, 39.3977315 ], [ -3.4059114, 39.397399 ], [ -3.4056016, 39.3971653 ], [ -3.4053386, 39.3969631 ], [ -3.4051866, 39.3968327 ], [ -3.405011, 39.3966572 ], [ -3.4048121, 39.3964638 ], [ -3.4046951, 39.3963514 ], [ -3.4043907, 39.3960364 ], [ -3.4043031, 39.3959735 ], [ -3.4037479, 39.3955466 ], [ -3.4034556, 39.3953218 ], [ -3.4030467, 39.3950343 ], [ -3.4027021, 39.3948008 ], [ -3.4023515, 39.3945447 ], [ -3.4019835, 39.3942886 ], [ -3.4016914, 39.3940774 ], [ -3.4012825, 39.3938035 ], [ -3.4010198, 39.3936464 ], [ -3.4004012, 39.393328 ], [ -3.3994149, 39.3927987 ], [ -3.3987031, 39.3924444 ], [ -3.3980381, 39.3921307 ], [ -3.3973264, 39.3918081 ], [ -3.3967723, 39.3915572 ], [ -3.3962238, 39.3912837 ], [ -3.3953838, 39.3908847 ], [ -3.3945904, 39.3905082 ], [ -3.3941528, 39.390284 ], [ -3.3937502, 39.3900777 ], [ -3.3934003, 39.3899208 ], [ -3.3930269, 39.389737 ], [ -3.3925895, 39.3895444 ], [ -3.3921171, 39.3893428 ], [ -3.3900645, 39.3885055 ], [ -3.3879653, 39.3876367 ], [ -3.3876679, 39.3875158 ], [ -3.3866941, 39.3871037 ], [ -3.3857961, 39.386723 ], [ -3.3855862, 39.3866379 ], [ -3.3853994, 39.3865347 ], [ -3.3852302, 39.3864494 ], [ -3.3851718, 39.3864045 ], [ -3.3849616, 39.3862652 ], [ -3.3846872, 39.3860901 ], [ -3.3844361, 39.3859103 ], [ -3.3841733, 39.3857216 ], [ -3.3839046, 39.3855329 ], [ -3.3837178, 39.3854071 ], [ -3.3835076, 39.3852769 ], [ -3.383309, 39.385133 ], [ -3.3831047, 39.3849983 ], [ -3.3828769, 39.384832 ], [ -3.382579, 39.3846073 ], [ -3.3822928, 39.384396 ], [ -3.3821408, 39.3842611 ], [ -3.3818779, 39.3840498 ], [ -3.3817375, 39.3839193 ], [ -3.3815565, 39.3837845 ], [ -3.3813169, 39.3835956 ], [ -3.3807796, 39.3832092 ], [ -3.3805753, 39.3830744 ], [ -3.3803242, 39.3829082 ], [ -3.3799972, 39.382679 ], [ -3.3796293, 39.3824139 ], [ -3.3792031, 39.3821263 ], [ -3.3787827, 39.3818388 ], [ -3.3784323, 39.3816006 ], [ -3.3780936, 39.381358 ], [ -3.3777375, 39.3811108 ], [ -3.3773638, 39.3808502 ], [ -3.3770076, 39.3806121 ], [ -3.3766048, 39.380338 ], [ -3.3762253, 39.3800819 ], [ -3.3758633, 39.3798393 ], [ -3.3752328, 39.379417 ], [ -3.3747659, 39.3791295 ], [ -3.3744799, 39.3789454 ], [ -3.3742757, 39.3788286 ], [ -3.3741064, 39.3787208 ], [ -3.3739021, 39.3785861 ], [ -3.3731549, 39.3781009 ], [ -3.3725129, 39.3776876 ], [ -3.3721103, 39.3774496 ], [ -3.3719236, 39.3773509 ], [ -3.3716204, 39.3772119 ], [ -3.3713054, 39.3770504 ], [ -3.3709961, 39.3768663 ], [ -3.3706283, 39.3766147 ], [ -3.3703422, 39.3764034 ], [ -3.3701379, 39.3762686 ], [ -3.3697233, 39.3759675 ], [ -3.3692387, 39.3756124 ], [ -3.3687017, 39.3752574 ], [ -3.3681529, 39.3748799 ], [ -3.3676569, 39.37457 ], [ -3.3675326, 39.3744762 ], [ -3.3662656, 39.3737021 ], [ -3.3658222, 39.3734536 ], [ -3.3652728, 39.3731476 ], [ -3.3645934, 39.3727917 ], [ -3.3641814, 39.372586 ], [ -3.3638714, 39.3724672 ], [ -3.363531, 39.372362 ], [ -3.3633483, 39.3723024 ], [ -3.363129, 39.3722429 ], [ -3.3627591, 39.3721626 ], [ -3.3625075, 39.3720306 ], [ -3.3624115, 39.3719725 ], [ -3.3623588, 39.3719408 ], [ -3.3623313, 39.3719126 ], [ -3.3622878, 39.3718667 ], [ -3.3622601, 39.371819 ], [ -3.3622487, 39.3718048 ], [ -3.3622097, 39.371766 ], [ -3.3621707, 39.3717219 ], [ -3.36215, 39.3716848 ], [ -3.3621224, 39.3716548 ], [ -3.3620696, 39.3715841 ], [ -3.361911, 39.3713421 ], [ -3.361711, 39.3710312 ], [ -3.3616674, 39.3709835 ], [ -3.3616147, 39.3709341 ], [ -3.3614702, 39.3707805 ], [ -3.3612224, 39.3704963 ], [ -3.360967, 39.3701905 ], [ -3.3609514, 39.3701756 ], [ -3.3607892, 39.3699612 ], [ -3.3605114, 39.3697706 ], [ -3.3601128, 39.3695882 ], [ -3.3600703, 39.3695654 ], [ -3.3599513, 39.3695317 ], [ -3.3598417, 39.369501 ], [ -3.3597107, 39.3694651 ], [ -3.3596292, 39.3694405 ], [ -3.3596238, 39.3694387 ], [ -3.3596201, 39.369438 ], [ -3.3582902, 39.3693374 ], [ -3.3565301, 39.3692381 ], [ -3.356554, 39.3688792 ], [ -3.3566109, 39.3687245 ], [ -3.3563608, 39.3687751 ], [ -3.3559758, 39.3688461 ], [ -3.3556167, 39.3689568 ], [ -3.3553987, 39.3690123 ], [ -3.3553041, 39.3687093 ], [ -3.3553045, 39.3687011 ], [ -3.3552663, 39.3684806 ], [ -3.3552191, 39.3682108 ], [ -3.3552116, 39.3681655 ], [ -3.3552116, 39.3681656 ], [ -3.3552115, 39.3681628 ], [ -3.3552108, 39.3681505 ], [ -3.3552092, 39.368125 ], [ -3.3552082, 39.3681058 ], [ -3.3552068, 39.368072 ], [ -3.355197, 39.3679344 ], [ -3.3551908, 39.3678056 ], [ -3.3551908, 39.3677971 ], [ -3.3551052, 39.3679064 ], [ -3.3548978, 39.3680433 ], [ -3.354794, 39.3680942 ], [ -3.3546809, 39.3681488 ], [ -3.3546752, 39.3681529 ], [ -3.3546132, 39.3681763 ], [ -3.3546047, 39.3681806 ], [ -3.3544947, 39.368227 ], [ -3.3543135, 39.3683056 ], [ -3.3541377, 39.36838 ], [ -3.3539848, 39.3684451 ], [ -3.3539803, 39.3684473 ], [ -3.3539731, 39.3684499 ], [ -3.3539139, 39.368475 ], [ -3.3537219, 39.3685578 ], [ -3.3536288, 39.3685973 ], [ -3.3535089, 39.368523 ], [ -3.3534867, 39.3685532 ], [ -3.3534074, 39.3686485 ], [ -3.3532915, 39.3687937 ], [ -3.3532297, 39.3688694 ], [ -3.3531736, 39.3689269 ], [ -3.3530253, 39.3690761 ], [ -3.3529918, 39.3691093 ], [ -3.3529699, 39.3691325 ], [ -3.35278, 39.3692548 ], [ -3.3525604, 39.3693963 ], [ -3.3525371, 39.3694105 ], [ -3.3522903, 39.369542 ], [ -3.3519529, 39.3697211 ], [ -3.351688, 39.3698617 ], [ -3.3512717, 39.3700782 ], [ -3.350884, 39.3702805 ], [ -3.3505647, 39.3704455 ], [ -3.3502661, 39.3706023 ], [ -3.3500437, 39.3707176 ], [ -3.3496909, 39.3709007 ], [ -3.3495525, 39.3709716 ], [ -3.3494168, 39.3710444 ], [ -3.3491389, 39.3711901 ], [ -3.3489773, 39.3712771 ], [ -3.3486917, 39.3714278 ], [ -3.3484435, 39.3715603 ], [ -3.3481772, 39.3717009 ], [ -3.3478941, 39.3718506 ], [ -3.3474236, 39.3720925 ], [ -3.3468337, 39.3723948 ], [ -3.3464872, 39.3725729 ], [ -3.3463355, 39.3726538 ], [ -3.3460948, 39.3727804 ], [ -3.345433, 39.3731364 ], [ -3.3448884, 39.3734259 ], [ -3.3445505, 39.373604 ], [ -3.344369, 39.3736993 ], [ -3.3442265, 39.373773 ], [ -3.3440174, 39.3738827 ], [ -3.3439019, 39.3739439 ], [ -3.3438772, 39.37396 ], [ -3.343714, 39.3740445 ], [ -3.3433923, 39.3742118 ], [ -3.3431211, 39.3743539 ], [ -3.3423489, 39.3747582 ], [ -3.3420455, 39.3749141 ], [ -3.3418126, 39.3750387 ], [ -3.3417483, 39.3750747 ], [ -3.3413314, 39.3752738 ], [ -3.3407552, 39.3755521 ], [ -3.3399215, 39.3759551 ], [ -3.3391185, 39.376358 ], [ -3.3388795, 39.3764755 ], [ -3.3387048, 39.3765619 ], [ -3.3384687, 39.3766675 ], [ -3.3383124, 39.3767371 ], [ -3.3381622, 39.3768043 ], [ -3.337926, 39.376886 ], [ -3.3373126, 39.3771072 ], [ -3.3363036, 39.3774677 ], [ -3.3359171, 39.3775976 ], [ -3.3356061, 39.3777044 ], [ -3.3351935, 39.3778352 ], [ -3.3350974, 39.3778662 ], [ -3.3348797, 39.3779218 ], [ -3.3347045, 39.377964 ], [ -3.334433, 39.3780219 ], [ -3.3341644, 39.3780754 ], [ -3.3338137, 39.3781269 ], [ -3.3334206, 39.3781785 ], [ -3.3329877, 39.3782171 ], [ -3.3326426, 39.378251 ], [ -3.3324021, 39.3782693 ], [ -3.3322098, 39.3782852 ], [ -3.331907, 39.3783059 ], [ -3.3315958, 39.3783309 ], [ -3.3313724, 39.3783601 ], [ -3.3310612, 39.3783895 ], [ -3.3304275, 39.3784506 ], [ -3.3300484, 39.3784825 ], [ -3.3295816, 39.3785189 ], [ -3.3292761, 39.3785505 ], [ -3.3288235, 39.3785957 ], [ -3.3284246, 39.378632 ], [ -3.3281049, 39.3786593 ], [ -3.3278022, 39.3786865 ], [ -3.3274457, 39.3787204 ], [ -3.3272364, 39.3787408 ], [ -3.3270695, 39.3787544 ], [ -3.3268544, 39.378766 ], [ -3.3266451, 39.3787842 ], [ -3.3262179, 39.3788271 ], [ -3.3258077, 39.3788722 ], [ -3.3253381, 39.3789152 ], [ -3.3248458, 39.3789561 ], [ -3.3244074, 39.3790013 ], [ -3.3239434, 39.3790421 ], [ -3.3237397, 39.3790603 ], [ -3.323536, 39.3790806 ], [ -3.3234114, 39.3790957 ], [ -3.3234154, 39.379106 ], [ -3.3241723, 39.3810367 ], [ -3.324535, 39.3816305 ], [ -3.3257009, 39.3826634 ], [ -3.3260754, 39.3832932 ], [ -3.3263103, 39.3838692 ], [ -3.3275152, 39.3858031 ], [ -3.3281021, 39.387153 ], [ -3.3282226, 39.3880718 ], [ -3.3282144, 39.3888107 ], [ -3.3280431, 39.3894419 ], [ -3.3276988, 39.3902989 ], [ -3.3277354, 39.3906772 ], [ -3.3278409, 39.3908932 ], [ -3.329463, 39.3926007 ], [ -3.330129, 39.3934548 ], [ -3.3303522, 39.3939948 ], [ -3.3303891, 39.3944362 ], [ -3.3302652, 39.3952475 ], [ -3.3301777, 39.3964011 ], [ -3.329971, 39.3969063 ], [ -3.328942, 39.3978914 ], [ -3.3288154, 39.3981441 ], [ -3.329458, 39.3989622 ], [ -3.3296224, 39.3993312 ], [ -3.3296242, 39.3997096 ], [ -3.3295108, 39.4003046 ], [ -3.3295709, 39.400737 ], [ -3.3302761, 39.4025011 ], [ -3.3304737, 39.4050145 ], [ -3.3305799, 39.4053746 ] ] ] } },
{ "type": "Feature", "properties": { "CCAA": "08 - Castilla-La Mancha", "PROVINCIA": "13 - Ciudad Real", "MUNICIPIO": "13047 - Herencia", "COD_MUNICIPIO": "13047", "DISTRITO": "02", "SECCION": "1304702001", "V1_H": 79.19, "V1_M": 85.12, "V2_H": 79.38537767, "V2_M": 85.11224236, "V3_H": 79.115857, "V3_M": 85.3484756 }, "geometry": { "type": "MultiPolygon", "coordinates": [ [ [ [ -3.528203, 39.2978971 ], [ -3.5308022, 39.3011742 ], [ -3.5324455, 39.3037528 ], [ -3.5325876, 39.3041576 ], [ -3.5325877, 39.3041576 ], [ -3.5386124, 39.303328 ], [ -3.5483452, 39.3020933 ], [ -3.5561729, 39.2990466 ], [ -3.5630101, 39.2998428 ], [ -3.5671115, 39.2993274 ], [ -3.5670951, 39.2987327 ], [ -3.5669608, 39.2978954 ], [ -3.5669916, 39.2973996 ], [ -3.5671732, 39.2969122 ], [ -3.5671944, 39.2966598 ], [ -3.5662798, 39.2954207 ], [ -3.5660318, 39.2948543 ], [ -3.56588, 39.2932961 ], [ -3.5660624, 39.2929078 ], [ -3.5671371, 39.292434 ], [ -3.5685225, 39.2916704 ], [ -3.5700329, 39.2905907 ], [ -3.5705779, 39.2891644 ], [ -3.5706791, 39.2887764 ], [ -3.5706178, 39.2883622 ], [ -3.5695593, 39.2850875 ], [ -3.5686874, 39.2848034 ], [ -3.5677719, 39.2834382 ], [ -3.5670568, 39.2824685 ], [ -3.567446, 39.2818449 ], [ -3.5679741, 39.2811936 ], [ -3.569406, 39.279042 ], [ -3.5694721, 39.2786092 ], [ -3.56937, 39.2774473 ], [ -3.5693743, 39.2765462 ], [ -3.5697822, 39.2739491 ], [ -3.570053, 39.2730286 ], [ -3.5746148, 39.2694741 ], [ -3.5759406, 39.2685845 ], [ -3.575809, 39.2652421 ], [ -3.5751146, 39.263957 ], [ -3.5744021, 39.2632937 ], [ -3.5742262, 39.2630513 ], [ -3.5738631, 39.2625845 ], [ -3.5725601, 39.2605725 ], [ -3.5688414, 39.2550761 ], [ -3.5672102, 39.252579 ], [ -3.5669748, 39.2521296 ], [ -3.5667749, 39.2517791 ], [ -3.5664583, 39.2513121 ], [ -3.5654014, 39.2524796 ], [ -3.5642171, 39.2536568 ], [ -3.5640297, 39.2538783 ], [ -3.5640104, 39.2539011 ], [ -3.5640104, 39.2539011 ], [ -3.5627356, 39.2553579 ], [ -3.5622292, 39.255802 ], [ -3.5612607, 39.2564464 ], [ -3.5605926, 39.2569722 ], [ -3.5602248, 39.2573524 ], [ -3.5601566, 39.257533 ], [ -3.5600203, 39.257876 ], [ -3.5599024, 39.259084 ], [ -3.5595148, 39.2598969 ], [ -3.5590117, 39.2607643 ], [ -3.5585409, 39.2613252 ], [ -3.5577691, 39.2619326 ], [ -3.5555767, 39.2631956 ], [ -3.5552433, 39.2635396 ], [ -3.5546833, 39.2645515 ], [ -3.5538741, 39.2663124 ], [ -3.5535756, 39.2666743 ], [ -3.5523875, 39.2674278 ], [ -3.55135, 39.2681716 ], [ -3.5501875, 39.2692223 ], [ -3.5501874, 39.2692224 ], [ -3.5497978, 39.2698099 ], [ -3.5493029, 39.2702627 ], [ -3.5485759, 39.2706897 ], [ -3.5465758, 39.2713839 ], [ -3.5455815, 39.2717309 ], [ -3.5440562, 39.2723688 ], [ -3.5406797, 39.2735018 ], [ -3.538761, 39.2742586 ], [ -3.5380102, 39.2746135 ], [ -3.5365863, 39.2764041 ], [ -3.535711, 39.2771651 ], [ -3.5357109, 39.2771651 ], [ -3.5350784, 39.2778438 ], [ -3.5349863, 39.2779343 ], [ -3.5346637, 39.2781971 ], [ -3.5341557, 39.2784788 ], [ -3.5314631, 39.2796445 ], [ -3.5306325, 39.2801889 ], [ -3.5296358, 39.2817973 ], [ -3.5285302, 39.2827936 ], [ -3.5267876, 39.2838827 ], [ -3.5266206, 39.2839536 ], [ -3.5261866, 39.2841378 ], [ -3.5237811, 39.2849775 ], [ -3.5219769, 39.2856073 ], [ -3.5209367, 39.2860535 ], [ -3.5196636, 39.2863836 ], [ -3.5202186, 39.2877417 ], [ -3.5209344, 39.2888919 ], [ -3.5209344, 39.2888919 ], [ -3.521646, 39.2894654 ], [ -3.523061, 39.2910721 ], [ -3.5247591, 39.2933081 ], [ -3.527045, 39.2965868 ], [ -3.528203, 39.2978971 ] ] ], [ [ [ -3.366014, 39.334993 ], [ -3.3658179, 39.3352335 ], [ -3.365562, 39.3355141 ], [ -3.3654, 39.3357079 ], [ -3.3652122, 39.3359083 ], [ -3.3650759, 39.3360887 ], [ -3.3649822, 39.3362155 ], [ -3.3648546, 39.3364358 ], [ -3.3647526, 39.336616 ], [ -3.3646764, 39.3368228 ], [ -3.3644396, 39.3374765 ], [ -3.3641595, 39.3380637 ], [ -3.3639642, 39.3384774 ], [ -3.3638115, 39.3388044 ], [ -3.3635315, 39.3394183 ], [ -3.3633787, 39.3397386 ], [ -3.363209, 39.3400989 ], [ -3.3630732, 39.3403991 ], [ -3.3629373, 39.3406661 ], [ -3.3627844, 39.340973 ], [ -3.3626828, 39.3412332 ], [ -3.3626324, 39.3414532 ], [ -3.3625059, 39.3418667 ], [ -3.3624472, 39.3421468 ], [ -3.3624145, 39.3424534 ], [ -3.362416, 39.3427465 ], [ -3.3624347, 39.343053 ], [ -3.3625051, 39.3433859 ], [ -3.3626097, 39.3437054 ], [ -3.3626317, 39.3439007 ], [ -3.362621, 39.343929 ], [ -3.3626461, 39.3440984 ], [ -3.3626221, 39.3444383 ], [ -3.3625551, 39.3447583 ], [ -3.3624366, 39.3450718 ], [ -3.3622155, 39.3454789 ], [ -3.361977, 39.3458261 ], [ -3.3616275, 39.346267 ], [ -3.3610989, 39.3469349 ], [ -3.3607833, 39.347309 ], [ -3.3606212, 39.3475094 ], [ -3.360442, 39.3477098 ], [ -3.36028, 39.3478969 ], [ -3.3601691, 39.3480372 ], [ -3.360067, 39.348204 ], [ -3.3599135, 39.3483977 ], [ -3.3597095, 39.3487715 ], [ -3.3595477, 39.3490185 ], [ -3.3595459, 39.3490256 ], [ -3.3595375, 39.3490315 ], [ -3.3594168, 39.3493312 ], [ -3.3592773, 39.349642 ], [ -3.3591382, 39.3500294 ], [ -3.3591018, 39.3502741 ], [ -3.3591112, 39.3504388 ], [ -3.3587131, 39.351961 ], [ -3.3587052, 39.3522088 ], [ -3.3586748, 39.3527995 ], [ -3.3586365, 39.3535005 ], [ -3.3585831, 39.3544937 ], [ -3.3585366, 39.3552078 ], [ -3.3585057, 39.3557206 ], [ -3.358457, 39.3560063 ], [ -3.358375, 39.3563051 ], [ -3.3582349, 39.3567014 ], [ -3.3580539, 39.3572926 ], [ -3.3579303, 39.3576305 ], [ -3.3577581, 39.358293 ], [ -3.357544, 39.3589492 ], [ -3.3574379, 39.3592911 ], [ -3.3573308, 39.3596572 ], [ -3.3571857, 39.360113 ], [ -3.3571068, 39.3603546 ], [ -3.3569552, 39.3608029 ], [ -3.35681, 39.3612412 ], [ -3.3567058, 39.3615625 ], [ -3.3566269, 39.3617892 ], [ -3.3565192, 39.3620557 ], [ -3.3564367, 39.3622102 ], [ -3.3564157, 39.3622554 ], [ -3.3563759, 39.3623418 ], [ -3.3563153, 39.3624745 ], [ -3.3562807, 39.3625507 ], [ -3.356227, 39.3626731 ], [ -3.356157, 39.3628323 ], [ -3.3561258, 39.3629085 ], [ -3.3560748, 39.3630337 ], [ -3.3560445, 39.3631003 ], [ -3.3560417, 39.3631061 ], [ -3.3560416, 39.3631102 ], [ -3.3559924, 39.3632193 ], [ -3.3559522, 39.3633141 ], [ -3.3559524, 39.3633145 ], [ -3.3560113, 39.3635022 ], [ -3.3560459, 39.3636295 ], [ -3.3560471, 39.3636363 ], [ -3.3560545, 39.3636601 ], [ -3.3560714, 39.3637203 ], [ -3.3560789, 39.3637414 ], [ -3.3562373, 39.364113 ], [ -3.3562487, 39.3641476 ], [ -3.3562599, 39.364181 ], [ -3.3562667, 39.3642006 ], [ -3.3562671, 39.3642013 ], [ -3.3562671, 39.3642014 ], [ -3.3562852, 39.3642552 ], [ -3.3563097, 39.3643278 ], [ -3.3563144, 39.3643487 ], [ -3.3563288, 39.3644314 ], [ -3.3563497, 39.3645464 ], [ -3.3563689, 39.3646716 ], [ -3.3563786, 39.3647507 ], [ -3.3563785, 39.3647529 ], [ -3.3563814, 39.3647652 ], [ -3.356392, 39.3648442 ], [ -3.3564008, 39.3649191 ], [ -3.3564234, 39.3649852 ], [ -3.3564488, 39.3650578 ], [ -3.3564498, 39.3650593 ], [ -3.356451, 39.3650643 ], [ -3.3564666, 39.3651095 ], [ -3.3565043, 39.3652188 ], [ -3.3565138, 39.365267 ], [ -3.3565289, 39.3653288 ], [ -3.3565583, 39.3654604 ], [ -3.3565603, 39.3654733 ], [ -3.3565636, 39.3654842 ], [ -3.3565885, 39.3655946 ], [ -3.3566098, 39.3656828 ], [ -3.3566556, 39.3658692 ], [ -3.3566751, 39.3659151 ], [ -3.3567497, 39.366094 ], [ -3.3567551, 39.3661044 ], [ -3.3568103, 39.3662516 ], [ -3.3576275, 39.3662905 ], [ -3.3576346, 39.3663053 ], [ -3.357708, 39.3664736 ], [ -3.3577913, 39.3666639 ], [ -3.3578542, 39.3668071 ], [ -3.3578716, 39.3668478 ], [ -3.3578854, 39.3668652 ], [ -3.3579337, 39.3669267 ], [ -3.3579905, 39.3669984 ], [ -3.357991, 39.3669988 ], [ -3.3580016, 39.3670133 ], [ -3.3580399, 39.3670614 ], [ -3.3580827, 39.3671165 ], [ -3.358137, 39.367185 ], [ -3.3581548, 39.3672081 ], [ -3.3581549, 39.367208 ], [ -3.3581775, 39.3671978 ], [ -3.3582281, 39.3671742 ], [ -3.3582797, 39.3671502 ], [ -3.3582946, 39.3671435 ], [ -3.3582951, 39.3671433 ], [ -3.3583001, 39.3671412 ], [ -3.3583197, 39.3671322 ], [ -3.3583386, 39.3671234 ], [ -3.3583502, 39.367116 ], [ -3.3583739, 39.3671005 ], [ -3.3583973, 39.3670857 ], [ -3.3583985, 39.3670844 ], [ -3.3583999, 39.3670836 ], [ -3.358427, 39.3670662 ], [ -3.3585089, 39.3670131 ], [ -3.3585229, 39.3670041 ], [ -3.3585385, 39.3669939 ], [ -3.3585646, 39.3669746 ], [ -3.3585837, 39.3669609 ], [ -3.3585948, 39.3669537 ], [ -3.3586059, 39.3669445 ], [ -3.3586352, 39.3669237 ], [ -3.3586739, 39.366896 ], [ -3.3587203, 39.3668624 ], [ -3.358796, 39.3667946 ], [ -3.3588642, 39.366734 ], [ -3.3589442, 39.3666681 ], [ -3.3589977, 39.3666256 ], [ -3.3590666, 39.3665755 ], [ -3.3591418, 39.3665229 ], [ -3.3591899, 39.3664953 ], [ -3.3592572, 39.3664564 ], [ -3.3593341, 39.3664125 ], [ -3.359419, 39.3663649 ], [ -3.3594245, 39.36636 ], [ -3.3594951, 39.3663204 ], [ -3.3595409, 39.3662891 ], [ -3.3597098, 39.3662463 ], [ -3.3599503, 39.366181 ], [ -3.3600906, 39.3661494 ], [ -3.360185, 39.3661246 ], [ -3.3602125, 39.3661173 ], [ -3.3603715, 39.3660557 ], [ -3.360372, 39.3660556 ], [ -3.3606765, 39.3659581 ], [ -3.3610651, 39.3658261 ], [ -3.3615015, 39.3656191 ], [ -3.3617657, 39.3654968 ], [ -3.3620339, 39.3653652 ], [ -3.3624822, 39.3651426 ], [ -3.3627704, 39.3649922 ], [ -3.3631747, 39.3647916 ], [ -3.363343, 39.3647049 ], [ -3.3639288, 39.3644316 ], [ -3.3647521, 39.364013 ], [ -3.3650567, 39.3638628 ], [ -3.3655197, 39.3637121 ], [ -3.3665137, 39.363428 ], [ -3.3665611, 39.3634184 ], [ -3.3694893, 39.3625402 ], [ -3.3720027, 39.3617772 ], [ -3.3845127, 39.358154 ], [ -3.3864929, 39.3575848 ], [ -3.3922617, 39.3558927 ], [ -3.3995723, 39.3537657 ], [ -3.4021042, 39.3530167 ], [ -3.4133355, 39.3497353 ], [ -3.4166095, 39.3487614 ], [ -3.425346, 39.3461984 ], [ -3.4277252, 39.3455087 ], [ -3.4288862, 39.3451787 ], [ -3.4325213, 39.3440846 ], [ -3.4351288, 39.3433495 ], [ -3.4365181, 39.3429446 ], [ -3.4365984, 39.3429003 ], [ -3.4367567, 39.3428694 ], [ -3.4377741, 39.3425697 ], [ -3.4390874, 39.3421947 ], [ -3.4407431, 39.3417147 ], [ -3.441162, 39.3416243 ], [ -3.4421906, 39.3414724 ], [ -3.4440191, 39.341199 ], [ -3.4468762, 39.3407587 ], [ -3.449162, 39.340439 ], [ -3.4492628, 39.340435 ], [ -3.4500573, 39.3403172 ], [ -3.4532952, 39.3398161 ], [ -3.4542855, 39.3396494 ], [ -3.456533, 39.3393149 ], [ -3.4604946, 39.338722 ], [ -3.4620616, 39.3384831 ], [ -3.4621551, 39.3379215 ], [ -3.4625994, 39.3352548 ], [ -3.4608752, 39.3341983 ], [ -3.45978, 39.3335089 ], [ -3.4597449, 39.3334639 ], [ -3.4589746, 39.3327731 ], [ -3.4577473, 39.3313903 ], [ -3.4562176, 39.3299005 ], [ -3.4549935, 39.3289862 ], [ -3.4546539, 39.328501 ], [ -3.4543721, 39.3279794 ], [ -3.4540862, 39.3268272 ], [ -3.4538325, 39.3252693 ], [ -3.4538182, 39.3248459 ], [ -3.4539785, 39.3245208 ], [ -3.456484, 39.3226729 ], [ -3.4589878, 39.3205636 ], [ -3.4594025, 39.3201204 ], [ -3.4598278, 39.319515 ], [ -3.4603195, 39.3184227 ], [ -3.4608757, 39.3165553 ], [ -3.4586062, 39.3136358 ], [ -3.4579166, 39.3128455 ], [ -3.4573565, 39.3123341 ], [ -3.4573565, 39.3123341 ], [ -3.4570633, 39.3118397 ], [ -3.4563317, 39.3099232 ], [ -3.4534407, 39.3076819 ], [ -3.4524042, 39.3070281 ], [ -3.4514586, 39.3060766 ], [ -3.4502278, 39.3040539 ], [ -3.4495308, 39.3027751 ], [ -3.4489486, 39.3017071 ], [ -3.4489486, 39.301707 ], [ -3.4486464, 39.3010744 ], [ -3.4473031, 39.2982622 ], [ -3.4449341, 39.2922701 ], [ -3.4450956, 39.2902871 ], [ -3.4455145, 39.2868524 ], [ -3.4463023, 39.2867503 ], [ -3.4457019, 39.2853199 ], [ -3.4454298, 39.2844648 ], [ -3.4449592, 39.2833944 ], [ -3.4449592, 39.2833943 ], [ -3.4447399, 39.2826522 ], [ -3.4433717, 39.278021 ], [ -3.4433717, 39.278021 ], [ -3.4432872, 39.2774896 ], [ -3.4420418, 39.2748632 ], [ -3.4415739, 39.2741982 ], [ -3.4395683, 39.2742058 ], [ -3.4373646, 39.2740608 ], [ -3.4360755, 39.2737052 ], [ -3.4342975, 39.273 ], [ -3.4320475, 39.2709629 ], [ -3.4312898, 39.2702899 ], [ -3.4274939, 39.2675285 ], [ -3.4249327, 39.2657357 ], [ -3.4232804, 39.2646965 ], [ -3.423106, 39.264598 ], [ -3.422994, 39.2644831 ], [ -3.4228539, 39.2649276 ], [ -3.4226869, 39.2653286 ], [ -3.4226868, 39.2653291 ], [ -3.4226732, 39.2653376 ], [ -3.4225607, 39.2656583 ], [ -3.4224477, 39.2659078 ], [ -3.4223003, 39.2661397 ], [ -3.4221071, 39.2663717 ], [ -3.4218909, 39.266586 ], [ -3.4215605, 39.2668274 ], [ -3.4212069, 39.2670333 ], [ -3.4208418, 39.2672304 ], [ -3.4204996, 39.2674363 ], [ -3.4202945, 39.2675883 ], [ -3.420101, 39.2677758 ], [ -3.4197378, 39.2682843 ], [ -3.4194425, 39.2686768 ], [ -3.4191471, 39.2690515 ], [ -3.4189767, 39.2692657 ], [ -3.4186921, 39.2695247 ], [ -3.4183168, 39.2699264 ], [ -3.4177932, 39.2704266 ], [ -3.4172697, 39.2709445 ], [ -3.4165415, 39.2716767 ], [ -3.4159957, 39.2723014 ], [ -3.4157342, 39.2726048 ], [ -3.4151325, 39.2734522 ], [ -3.4147351, 39.2740053 ], [ -3.4142925, 39.2746563 ], [ -3.4136343, 39.2756374 ], [ -3.4133393, 39.2760744 ], [ -3.4131689, 39.2762974 ], [ -3.4126906, 39.2767351 ], [ -3.4122575, 39.2770569 ], [ -3.4119961, 39.2773781 ], [ -3.411758, 39.2777704 ], [ -3.4116109, 39.2780735 ], [ -3.4115328, 39.2784118 ], [ -3.4113972, 39.2787148 ], [ -3.4111277, 39.2796144 ], [ -3.4107788, 39.2806477 ], [ -3.4107113, 39.2808615 ], [ -3.4105651, 39.2813068 ], [ -3.4103382, 39.2816635 ], [ -3.4100538, 39.2819759 ], [ -3.4098944, 39.2821277 ], [ -3.4094623, 39.2826364 ], [ -3.4089393, 39.2832521 ], [ -3.4087914, 39.2834217 ], [ -3.4084138, 39.2838685 ], [ -3.4084051, 39.2838761 ], [ -3.4084048, 39.2838768 ], [ -3.4079271, 39.2844212 ], [ -3.4075974, 39.2848227 ], [ -3.4072557, 39.2851175 ], [ -3.4068915, 39.2855014 ], [ -3.4066525, 39.2857514 ], [ -3.4062428, 39.2861798 ], [ -3.4058787, 39.2865637 ], [ -3.4054109, 39.2868589 ], [ -3.4049543, 39.2870829 ], [ -3.4045442, 39.2872696 ], [ -3.404486, 39.2872803 ], [ -3.4039723, 39.287549 ], [ -3.4029218, 39.288042 ], [ -3.4017341, 39.2885799 ], [ -3.4010604, 39.2888936 ], [ -3.400752, 39.2890371 ], [ -3.4005239, 39.2891891 ], [ -3.4003418, 39.2893855 ], [ -3.400217, 39.2895816 ], [ -3.4000932, 39.2899557 ], [ -3.3999344, 39.2902232 ], [ -3.3997072, 39.2905443 ], [ -3.3994912, 39.2908119 ], [ -3.3991612, 39.2911689 ], [ -3.3989563, 39.2913832 ], [ -3.3986603, 39.2916956 ], [ -3.3984442, 39.2919544 ], [ -3.3982283, 39.2922309 ], [ -3.3980121, 39.2924719 ], [ -3.3976932, 39.2927844 ], [ -3.3972382, 39.2933108 ], [ -3.3968741, 39.2937303 ], [ -3.3965211, 39.2940695 ], [ -3.3959512, 39.294543 ], [ -3.3953814, 39.2950254 ], [ -3.3946515, 39.2955439 ], [ -3.3943664, 39.2957584 ], [ -3.3937275, 39.2961699 ], [ -3.3934652, 39.2963665 ], [ -3.3932484, 39.2965096 ], [ -3.3930541, 39.2965636 ], [ -3.3927228, 39.296716 ], [ -3.3923002, 39.2969042 ], [ -3.3921519, 39.2970115 ], [ -3.3918097, 39.2972351 ], [ -3.3915588, 39.2974317 ], [ -3.3912282, 39.2976997 ], [ -3.3908519, 39.2979857 ], [ -3.3905328, 39.2982536 ], [ -3.3903391, 39.2984322 ], [ -3.3900655, 39.2986467 ], [ -3.3896546, 39.2988883 ], [ -3.3894377, 39.2990136 ], [ -3.3890042, 39.2993086 ], [ -3.3884908, 39.2996573 ], [ -3.3878635, 39.3001132 ], [ -3.387396, 39.3004884 ], [ -3.3870883, 39.3007652 ], [ -3.3869289, 39.300917 ], [ -3.3867467, 39.3011045 ], [ -3.3866104, 39.3013096 ], [ -3.3864858, 39.301568 ], [ -3.3864068, 39.3017729 ], [ -3.3864086, 39.302111 ], [ -3.3864461, 39.3026714 ], [ -3.3864713, 39.3030984 ], [ -3.3864737, 39.3035254 ], [ -3.3864754, 39.3035353 ], [ -3.3864708, 39.303539 ], [ -3.3864751, 39.3036837 ], [ -3.3864708, 39.3036985 ], [ -3.3864776, 39.3037118 ], [ -3.3864845, 39.3038198 ], [ -3.386448, 39.3040751 ], [ -3.3864115, 39.3043303 ], [ -3.386362, 39.3045072 ], [ -3.3862876, 39.3047675 ], [ -3.3862504, 39.3048903 ], [ -3.386138, 39.3051213 ], [ -3.385985, 39.3053857 ], [ -3.3859776, 39.3054116 ], [ -3.3859501, 39.3054264 ], [ -3.3857831, 39.3056887 ], [ -3.3854936, 39.3061258 ], [ -3.3851374, 39.3067115 ], [ -3.3848035, 39.3072448 ], [ -3.3845921, 39.3076031 ], [ -3.3844585, 39.3078217 ], [ -3.3839343, 39.308469 ], [ -3.383343, 39.3091775 ], [ -3.3828297, 39.3097899 ], [ -3.3826289, 39.3100261 ], [ -3.3823835, 39.310341 ], [ -3.3820266, 39.3107958 ], [ -3.3818373, 39.3110843 ], [ -3.381537, 39.3116174 ], [ -3.3813145, 39.3120194 ], [ -3.381159, 39.312334 ], [ -3.3810254, 39.3125438 ], [ -3.3809065, 39.312754 ], [ -3.3809012, 39.3127595 ], [ -3.3809011, 39.3127616 ], [ -3.3808027, 39.3129369 ], [ -3.3806809, 39.3131417 ], [ -3.3805715, 39.3133043 ], [ -3.3805695, 39.3133086 ], [ -3.380549, 39.3133195 ], [ -3.3804253, 39.3135258 ], [ -3.3803171, 39.3136998 ], [ -3.380214, 39.3138536 ], [ -3.3801006, 39.3140438 ], [ -3.3799771, 39.3142865 ], [ -3.3798281, 39.314602 ], [ -3.3797611, 39.3147153 ], [ -3.3796889, 39.3148327 ], [ -3.3796226, 39.315059 ], [ -3.3795561, 39.3152612 ], [ -3.3795197, 39.3153425 ], [ -3.379519, 39.3153433 ], [ -3.3795183, 39.3153498 ], [ -3.3794337, 39.3155271 ], [ -3.3792293, 39.3157737 ], [ -3.3791853, 39.3158255 ], [ -3.3788291, 39.3161143 ], [ -3.3786526, 39.3162748 ], [ -3.3785298, 39.3163756 ], [ -3.3785048, 39.3164017 ], [ -3.3784858, 39.31641 ], [ -3.3780525, 39.3167669 ], [ -3.3774474, 39.3172877 ], [ -3.3765808, 39.3180133 ], [ -3.3756918, 39.3187681 ], [ -3.3754751, 39.3189495 ], [ -3.3753632, 39.319084 ], [ -3.3751993, 39.3192943 ], [ -3.3750653, 39.3195046 ], [ -3.3748716, 39.3197734 ], [ -3.3746552, 39.3200014 ], [ -3.3745359, 39.3201475 ], [ -3.3743044, 39.3203581 ], [ -3.3741101, 39.3205278 ], [ -3.3738338, 39.3207793 ], [ -3.3734156, 39.3211654 ], [ -3.3731392, 39.3214169 ], [ -3.3727205, 39.3217039 ], [ -3.3724386, 39.3218632 ], [ -3.3720493, 39.3220432 ], [ -3.37175, 39.3222073 ], [ -3.3714508, 39.3223948 ], [ -3.3711617, 39.3226134 ], [ -3.3707335, 39.3230033 ], [ -3.3702457, 39.3234868 ], [ -3.3698779, 39.3239465 ], [ -3.3694317, 39.3247407 ], [ -3.3689459, 39.3255971 ], [ -3.3687676, 39.3259397 ], [ -3.368579, 39.3262434 ], [ -3.3683907, 39.3265937 ], [ -3.3682223, 39.3269285 ], [ -3.3680846, 39.3273875 ], [ -3.3678126, 39.3289583 ], [ -3.3677069, 39.3297825 ], [ -3.3674929, 39.3309801 ], [ -3.3673191, 39.3321853 ], [ -3.3671821, 39.3327842 ], [ -3.3671424, 39.3329533 ], [ -3.3671422, 39.3329537 ], [ -3.3671446, 39.3329639 ], [ -3.3670773, 39.3332306 ], [ -3.366925, 39.3336376 ], [ -3.3668404, 39.3338644 ], [ -3.3666534, 39.3341981 ], [ -3.3664234, 39.3345186 ], [ -3.3661932, 39.3347992 ], [ -3.3660171, 39.3349929 ], [ -3.366017, 39.3349932 ], [ -3.366014, 39.334993 ] ] ] ] } },
{ "type": "Feature", "properties": { "CCAA": "08 - Castilla-La Mancha", "PROVINCIA": "13 - Ciudad Real", "MUNICIPIO": "13047 - Herencia", "COD_MUNICIPIO": "13047", "DISTRITO": "03", "SECCION": "1304703001", "V1_H": 79.19, "V1_M": 85.12, "V2_H": 79.38537767, "V2_M": 85.11224236, "V3_H": 79.115857, "V3_M": 85.3484756 }, "geometry": { "type": "Polygon", "coordinates": [ [ [ -3.3586581, 39.3107331 ], [ -3.3588108, 39.3120776 ], [ -3.3588185, 39.3135881 ], [ -3.3588533, 39.3151195 ], [ -3.3587477, 39.3156023 ], [ -3.3584854, 39.3171347 ], [ -3.358194, 39.3182475 ], [ -3.3573713, 39.3211242 ], [ -3.3569218, 39.3230347 ], [ -3.3568186, 39.3240001 ], [ -3.3567956, 39.3247974 ], [ -3.3566197, 39.3273994 ], [ -3.3564703, 39.3298964 ], [ -3.3565333, 39.3316585 ], [ -3.3564544, 39.3320994 ], [ -3.3562168, 39.333191 ], [ -3.3561394, 39.3339046 ], [ -3.3558552, 39.3364649 ], [ -3.3553782, 39.3377755 ], [ -3.3571492, 39.3518246 ], [ -3.357029, 39.3524163 ], [ -3.3569815, 39.3524648 ], [ -3.3569373, 39.3525093 ], [ -3.3568746, 39.3526473 ], [ -3.3567048, 39.3529135 ], [ -3.356554, 39.3531798 ], [ -3.3563906, 39.3534559 ], [ -3.3561577, 39.3537814 ], [ -3.3559689, 39.3540477 ], [ -3.3559316, 39.3541906 ], [ -3.3558945, 39.3543777 ], [ -3.3558388, 39.3546486 ], [ -3.3557573, 39.3548407 ], [ -3.3555251, 39.3553041 ], [ -3.355362, 39.3556491 ], [ -3.3552621, 39.3559447 ], [ -3.355225, 39.3561269 ], [ -3.3552005, 39.3562992 ], [ -3.3551635, 39.3565109 ], [ -3.3551136, 39.3566686 ], [ -3.3550131, 39.3568461 ], [ -3.3549058, 39.3569497 ], [ -3.3547229, 39.3571226 ], [ -3.3545587, 39.357251 ], [ -3.3543947, 39.3574238 ], [ -3.3542751, 39.3575865 ], [ -3.354181, 39.3577985 ], [ -3.354131, 39.3579413 ], [ -3.3540813, 39.3581285 ], [ -3.3540376, 39.3582615 ], [ -3.3539951, 39.3586406 ], [ -3.3539353, 39.3593642 ], [ -3.3539052, 39.3596842 ], [ -3.3538685, 39.3599353 ], [ -3.3538132, 39.3602849 ], [ -3.3537314, 39.360423 ], [ -3.3537001, 39.3605018 ], [ -3.3536503, 39.3606742 ], [ -3.3537525, 39.3608363 ], [ -3.353829, 39.3609198 ], [ -3.3538343, 39.3609206 ], [ -3.3538334, 39.3609211 ], [ -3.3538911, 39.3609765 ], [ -3.3538234, 39.3610244 ], [ -3.3536718, 39.3611229 ], [ -3.3535299, 39.3612188 ], [ -3.3533138, 39.3613626 ], [ -3.3530719, 39.3615267 ], [ -3.3528816, 39.3616503 ], [ -3.3526138, 39.361832 ], [ -3.3522913, 39.362044 ], [ -3.3521939, 39.3619966 ], [ -3.3520058, 39.3619092 ], [ -3.3518406, 39.3618746 ], [ -3.3517369, 39.3618598 ], [ -3.3516981, 39.3618574 ], [ -3.3514813, 39.3618631 ], [ -3.3511868, 39.361874 ], [ -3.350915, 39.3618824 ], [ -3.3508567, 39.3618775 ], [ -3.3508471, 39.3618901 ], [ -3.3507726, 39.3618828 ], [ -3.3506467, 39.361956 ], [ -3.3503563, 39.3621202 ], [ -3.3499688, 39.3622922 ], [ -3.3497749, 39.3623657 ], [ -3.3495748, 39.3624642 ], [ -3.349197, 39.3626488 ], [ -3.3488742, 39.362808 ], [ -3.3486707, 39.3628965 ], [ -3.3486675, 39.3628965 ], [ -3.3486695, 39.3628985 ], [ -3.3486104, 39.3629245 ], [ -3.3485159, 39.3629686 ], [ -3.3483333, 39.3631067 ], [ -3.3483535, 39.3631286 ], [ -3.3485093, 39.3632595 ], [ -3.3487744, 39.3634886 ], [ -3.3491305, 39.363791 ], [ -3.3493389, 39.3639733 ], [ -3.3493169, 39.3639875 ], [ -3.3488872, 39.3642953 ], [ -3.3487908, 39.3643644 ], [ -3.3488313, 39.3643971 ], [ -3.3487188, 39.3644757 ], [ -3.3482932, 39.3647835 ], [ -3.3479338, 39.3650364 ], [ -3.3477571, 39.3651636 ], [ -3.3477571, 39.3651669 ], [ -3.3477392, 39.3651761 ], [ -3.3481119, 39.3654113 ], [ -3.3481961, 39.3654618 ], [ -3.3482842, 39.3655173 ], [ -3.3484257, 39.3656043 ], [ -3.3485619, 39.3656893 ], [ -3.3487746, 39.3658209 ], [ -3.3489437, 39.3659258 ], [ -3.3491973, 39.3660834 ], [ -3.3493914, 39.3662137 ], [ -3.3494821, 39.3662719 ], [ -3.3494835, 39.3662749 ], [ -3.349508, 39.3662912 ], [ -3.3495692, 39.3662937 ], [ -3.3497334, 39.3663029 ], [ -3.3498532, 39.3663101 ], [ -3.3499381, 39.3663141 ], [ -3.3501707, 39.3663362 ], [ -3.3502487, 39.3663451 ], [ -3.350399, 39.3663627 ], [ -3.3506538, 39.3663919 ], [ -3.3507787, 39.3664057 ], [ -3.3507843, 39.3663946 ], [ -3.3507852, 39.3663947 ], [ -3.3508102, 39.3663524 ], [ -3.3508627, 39.3662671 ], [ -3.3509865, 39.366076 ], [ -3.351086, 39.3659246 ], [ -3.3511404, 39.3658422 ], [ -3.3511667, 39.3658128 ], [ -3.3512118, 39.3657599 ], [ -3.3512795, 39.3656966 ], [ -3.3512914, 39.3656896 ], [ -3.3513121, 39.3656686 ], [ -3.3513396, 39.3656434 ], [ -3.3513648, 39.3656218 ], [ -3.3513809, 39.3656057 ], [ -3.351413, 39.3655792 ], [ -3.351425, 39.3655662 ], [ -3.3514365, 39.3655582 ], [ -3.3514514, 39.3655478 ], [ -3.3514744, 39.3655326 ], [ -3.3515071, 39.3655097 ], [ -3.3515438, 39.3654836 ], [ -3.351566, 39.3654684 ], [ -3.351577, 39.3654628 ], [ -3.3516321, 39.365419 ], [ -3.3516742, 39.3654007 ], [ -3.3517754, 39.3653519 ], [ -3.3519674, 39.3652633 ], [ -3.3520821, 39.3652047 ], [ -3.3525493, 39.3649918 ], [ -3.3526583, 39.3649508 ], [ -3.3528359, 39.3648867 ], [ -3.353072, 39.3647977 ], [ -3.3531863, 39.3646729 ], [ -3.3531888, 39.3646693 ], [ -3.3532622, 39.364639 ], [ -3.3534753, 39.3645447 ], [ -3.3536278, 39.364478 ], [ -3.3537938, 39.3644084 ], [ -3.3539121, 39.3643584 ], [ -3.3540187, 39.3643133 ], [ -3.3541853, 39.3642437 ], [ -3.3542686, 39.3642087 ], [ -3.3542468, 39.364264 ], [ -3.3542453, 39.3642664 ], [ -3.3542149, 39.3643405 ], [ -3.3541783, 39.3644337 ], [ -3.3541411, 39.3645369 ], [ -3.3541154, 39.3646094 ], [ -3.3540954, 39.3646652 ], [ -3.3540794, 39.3647098 ], [ -3.3540675, 39.364758 ], [ -3.3540351, 39.3648836 ], [ -3.3540072, 39.3649917 ], [ -3.3539947, 39.3650412 ], [ -3.3539891, 39.3650763 ], [ -3.3539813, 39.3651339 ], [ -3.3539813, 39.365136 ], [ -3.3539762, 39.3651698 ], [ -3.3539677, 39.3652296 ], [ -3.3539675, 39.3652307 ], [ -3.3539767, 39.3652843 ], [ -3.3539786, 39.365304 ], [ -3.3539924, 39.3654137 ], [ -3.35401, 39.3655496 ], [ -3.3540251, 39.3655462 ], [ -3.3540829, 39.3655343 ], [ -3.3541812, 39.3655132 ], [ -3.3543064, 39.3654873 ], [ -3.3543311, 39.3654855 ], [ -3.3544825, 39.3654769 ], [ -3.3545458, 39.3654727 ], [ -3.354548, 39.365473 ], [ -3.3545512, 39.3654725 ], [ -3.3545987, 39.3654697 ], [ -3.3546346, 39.3654676 ], [ -3.3546489, 39.3654666 ], [ -3.3546489, 39.3654666 ], [ -3.3546555, 39.3654663 ], [ -3.3546655, 39.365448 ], [ -3.3547028, 39.3653896 ], [ -3.3547481, 39.3653177 ], [ -3.3547521, 39.3653105 ], [ -3.3548082, 39.3652026 ], [ -3.3548357, 39.3651513 ], [ -3.3548849, 39.3650583 ], [ -3.3549382, 39.3649563 ], [ -3.35498, 39.3648767 ], [ -3.3550419, 39.3647616 ], [ -3.3550722, 39.3647027 ], [ -3.3551318, 39.3645904 ], [ -3.3551804, 39.3644973 ], [ -3.3552085, 39.3644501 ], [ -3.3552613, 39.3643638 ], [ -3.3552963, 39.3643067 ], [ -3.3553444, 39.3642294 ], [ -3.3554195, 39.3641057 ], [ -3.3554924, 39.3639852 ], [ -3.3555422, 39.3639043 ], [ -3.3556386, 39.3637474 ], [ -3.3556896, 39.3636629 ], [ -3.3557458, 39.3635707 ], [ -3.3557779, 39.3635199 ], [ -3.355802, 39.3634794 ], [ -3.3558347, 39.3634255 ], [ -3.3558491, 39.363412 ], [ -3.3559043, 39.3633606 ], [ -3.3559524, 39.3633145 ], [ -3.3559522, 39.3633141 ], [ -3.3559924, 39.3632193 ], [ -3.3560416, 39.3631102 ], [ -3.3560417, 39.3631061 ], [ -3.3560445, 39.3631003 ], [ -3.3560748, 39.3630337 ], [ -3.3561258, 39.3629085 ], [ -3.356157, 39.3628323 ], [ -3.356227, 39.3626731 ], [ -3.3562807, 39.3625507 ], [ -3.3563153, 39.3624745 ], [ -3.3563759, 39.3623418 ], [ -3.3564157, 39.3622554 ], [ -3.3564367, 39.3622102 ], [ -3.3565192, 39.3620557 ], [ -3.3566269, 39.3617892 ], [ -3.3567058, 39.3615625 ], [ -3.35681, 39.3612412 ], [ -3.3569552, 39.3608029 ], [ -3.3571068, 39.3603546 ], [ -3.3571857, 39.360113 ], [ -3.3573308, 39.3596572 ], [ -3.3574379, 39.3592911 ], [ -3.357544, 39.3589492 ], [ -3.3577581, 39.358293 ], [ -3.3579303, 39.3576305 ], [ -3.3580539, 39.3572926 ], [ -3.3582349, 39.3567014 ], [ -3.358375, 39.3563051 ], [ -3.358457, 39.3560063 ], [ -3.3585057, 39.3557206 ], [ -3.3585366, 39.3552078 ], [ -3.3585831, 39.3544937 ], [ -3.3586365, 39.3535005 ], [ -3.3586748, 39.3527995 ], [ -3.3587052, 39.3522088 ], [ -3.3587131, 39.351961 ], [ -3.3591112, 39.3504388 ], [ -3.3591018, 39.3502741 ], [ -3.3591382, 39.3500294 ], [ -3.3592773, 39.349642 ], [ -3.3594168, 39.3493312 ], [ -3.3595375, 39.3490315 ], [ -3.3595459, 39.3490256 ], [ -3.3595477, 39.3490185 ], [ -3.3597095, 39.3487715 ], [ -3.3599135, 39.3483977 ], [ -3.360067, 39.348204 ], [ -3.3601691, 39.3480372 ], [ -3.36028, 39.3478969 ], [ -3.360442, 39.3477098 ], [ -3.3606212, 39.3475094 ], [ -3.3607833, 39.347309 ], [ -3.3610989, 39.3469349 ], [ -3.3616275, 39.346267 ], [ -3.361977, 39.3458261 ], [ -3.3622155, 39.3454789 ], [ -3.3624366, 39.3450718 ], [ -3.3625551, 39.3447583 ], [ -3.3626221, 39.3444383 ], [ -3.3626461, 39.3440984 ], [ -3.362621, 39.343929 ], [ -3.3626317, 39.3439007 ], [ -3.3626097, 39.3437054 ], [ -3.3625051, 39.3433859 ], [ -3.3624347, 39.343053 ], [ -3.362416, 39.3427465 ], [ -3.3624145, 39.3424534 ], [ -3.3624472, 39.3421468 ], [ -3.3625059, 39.3418667 ], [ -3.3626324, 39.3414532 ], [ -3.3626828, 39.3412332 ], [ -3.3627844, 39.340973 ], [ -3.3629373, 39.3406661 ], [ -3.3630732, 39.3403991 ], [ -3.363209, 39.3400989 ], [ -3.3633787, 39.3397386 ], [ -3.3635315, 39.3394183 ], [ -3.3638115, 39.3388044 ], [ -3.3639642, 39.3384774 ], [ -3.3641595, 39.3380637 ], [ -3.3644396, 39.3374765 ], [ -3.3646764, 39.3368228 ], [ -3.3647526, 39.336616 ], [ -3.3648546, 39.3364358 ], [ -3.3649822, 39.3362155 ], [ -3.3650759, 39.3360887 ], [ -3.3652122, 39.3359083 ], [ -3.3654, 39.3357079 ], [ -3.365562, 39.3355141 ], [ -3.3658179, 39.3352335 ], [ -3.366014, 39.334993 ], [ -3.366017, 39.3349932 ], [ -3.3660171, 39.3349929 ], [ -3.3661932, 39.3347992 ], [ -3.3664234, 39.3345186 ], [ -3.3666534, 39.3341981 ], [ -3.3668404, 39.3338644 ], [ -3.366925, 39.3336376 ], [ -3.3670773, 39.3332306 ], [ -3.3671446, 39.3329639 ], [ -3.3671422, 39.3329537 ], [ -3.3671424, 39.3329533 ], [ -3.3671821, 39.3327842 ], [ -3.3673191, 39.3321853 ], [ -3.3674929, 39.3309801 ], [ -3.3677069, 39.3297825 ], [ -3.3678126, 39.3289583 ], [ -3.3680846, 39.3273875 ], [ -3.3682223, 39.3269285 ], [ -3.3683907, 39.3265937 ], [ -3.368579, 39.3262434 ], [ -3.3687676, 39.3259397 ], [ -3.3689459, 39.3255971 ], [ -3.3694317, 39.3247407 ], [ -3.3698779, 39.3239465 ], [ -3.3702457, 39.3234868 ], [ -3.3707335, 39.3230033 ], [ -3.3711617, 39.3226134 ], [ -3.3714508, 39.3223948 ], [ -3.37175, 39.3222073 ], [ -3.3720493, 39.3220432 ], [ -3.3724386, 39.3218632 ], [ -3.3727205, 39.3217039 ], [ -3.3731392, 39.3214169 ], [ -3.3734156, 39.3211654 ], [ -3.3738338, 39.3207793 ], [ -3.3741101, 39.3205278 ], [ -3.3743044, 39.3203581 ], [ -3.3745359, 39.3201475 ], [ -3.3746552, 39.3200014 ], [ -3.3748716, 39.3197734 ], [ -3.3750653, 39.3195046 ], [ -3.3751993, 39.3192943 ], [ -3.3753632, 39.319084 ], [ -3.3754751, 39.3189495 ], [ -3.3756918, 39.3187681 ], [ -3.3765808, 39.3180133 ], [ -3.3774474, 39.3172877 ], [ -3.3780525, 39.3167669 ], [ -3.3784858, 39.31641 ], [ -3.3785048, 39.3164017 ], [ -3.3785298, 39.3163756 ], [ -3.3786526, 39.3162748 ], [ -3.3788291, 39.3161143 ], [ -3.3791853, 39.3158255 ], [ -3.3792293, 39.3157737 ], [ -3.3794337, 39.3155271 ], [ -3.3795183, 39.3153498 ], [ -3.379519, 39.3153433 ], [ -3.3795197, 39.3153425 ], [ -3.3795561, 39.3152612 ], [ -3.3796226, 39.315059 ], [ -3.3796889, 39.3148327 ], [ -3.3797611, 39.3147153 ], [ -3.3798281, 39.314602 ], [ -3.3799771, 39.3142865 ], [ -3.3801006, 39.3140438 ], [ -3.380214, 39.3138536 ], [ -3.3803171, 39.3136998 ], [ -3.3804253, 39.3135258 ], [ -3.380549, 39.3133195 ], [ -3.3805695, 39.3133086 ], [ -3.3805715, 39.3133043 ], [ -3.3806809, 39.3131417 ], [ -3.3808027, 39.3129369 ], [ -3.3809011, 39.3127616 ], [ -3.3809012, 39.3127595 ], [ -3.3809065, 39.312754 ], [ -3.3810254, 39.3125438 ], [ -3.381159, 39.312334 ], [ -3.3813145, 39.3120194 ], [ -3.381537, 39.3116174 ], [ -3.3818373, 39.3110843 ], [ -3.3820266, 39.3107958 ], [ -3.3823835, 39.310341 ], [ -3.3826289, 39.3100261 ], [ -3.3828297, 39.3097899 ], [ -3.383343, 39.3091775 ], [ -3.3839343, 39.308469 ], [ -3.3844585, 39.3078217 ], [ -3.3845921, 39.3076031 ], [ -3.3848035, 39.3072448 ], [ -3.3851374, 39.3067115 ], [ -3.3854936, 39.3061258 ], [ -3.3857831, 39.3056887 ], [ -3.3859501, 39.3054264 ], [ -3.3859776, 39.3054116 ], [ -3.385985, 39.3053857 ], [ -3.386138, 39.3051213 ], [ -3.3862504, 39.3048903 ], [ -3.3862876, 39.3047675 ], [ -3.386362, 39.3045072 ], [ -3.3864115, 39.3043303 ], [ -3.386448, 39.3040751 ], [ -3.3864845, 39.3038198 ], [ -3.3864776, 39.3037118 ], [ -3.3864708, 39.3036985 ], [ -3.3864751, 39.3036837 ], [ -3.3864708, 39.303539 ], [ -3.3864754, 39.3035353 ], [ -3.3864737, 39.3035254 ], [ -3.3864713, 39.3030984 ], [ -3.3864461, 39.3026714 ], [ -3.3864086, 39.302111 ], [ -3.3864068, 39.3017729 ], [ -3.3864858, 39.301568 ], [ -3.3866104, 39.3013096 ], [ -3.3867467, 39.3011045 ], [ -3.3869289, 39.300917 ], [ -3.3870883, 39.3007652 ], [ -3.387396, 39.3004884 ], [ -3.3878635, 39.3001132 ], [ -3.3884908, 39.2996573 ], [ -3.3890042, 39.2993086 ], [ -3.3894377, 39.2990136 ], [ -3.3896546, 39.2988883 ], [ -3.3900655, 39.2986467 ], [ -3.3903391, 39.2984322 ], [ -3.3905328, 39.2982536 ], [ -3.3908519, 39.2979857 ], [ -3.3912282, 39.2976997 ], [ -3.3915588, 39.2974317 ], [ -3.3918097, 39.2972351 ], [ -3.3921519, 39.2970115 ], [ -3.3923002, 39.2969042 ], [ -3.3927228, 39.296716 ], [ -3.3930541, 39.2965636 ], [ -3.3932484, 39.2965096 ], [ -3.3934652, 39.2963665 ], [ -3.3937275, 39.2961699 ], [ -3.3943664, 39.2957584 ], [ -3.3946515, 39.2955439 ], [ -3.3953814, 39.2950254 ], [ -3.3959512, 39.294543 ], [ -3.3965211, 39.2940695 ], [ -3.3968741, 39.2937303 ], [ -3.3972382, 39.2933108 ], [ -3.3976932, 39.2927844 ], [ -3.3980121, 39.2924719 ], [ -3.3982283, 39.2922309 ], [ -3.3984442, 39.2919544 ], [ -3.3986603, 39.2916956 ], [ -3.3989563, 39.2913832 ], [ -3.3991612, 39.2911689 ], [ -3.3994912, 39.2908119 ], [ -3.3997072, 39.2905443 ], [ -3.3999344, 39.2902232 ], [ -3.4000932, 39.2899557 ], [ -3.400217, 39.2895816 ], [ -3.4003418, 39.2893855 ], [ -3.4005239, 39.2891891 ], [ -3.400752, 39.2890371 ], [ -3.4010604, 39.2888936 ], [ -3.4017341, 39.2885799 ], [ -3.4029218, 39.288042 ], [ -3.4039723, 39.287549 ], [ -3.404486, 39.2872803 ], [ -3.4045442, 39.2872696 ], [ -3.4049543, 39.2870829 ], [ -3.4054109, 39.2868589 ], [ -3.4058787, 39.2865637 ], [ -3.4062428, 39.2861798 ], [ -3.4066525, 39.2857514 ], [ -3.4068915, 39.2855014 ], [ -3.4072557, 39.2851175 ], [ -3.4075974, 39.2848227 ], [ -3.4079271, 39.2844212 ], [ -3.4084048, 39.2838768 ], [ -3.4084051, 39.2838761 ], [ -3.4084138, 39.2838685 ], [ -3.4087914, 39.2834217 ], [ -3.4089393, 39.2832521 ], [ -3.4094623, 39.2826364 ], [ -3.4098944, 39.2821277 ], [ -3.4100538, 39.2819759 ], [ -3.4103382, 39.2816635 ], [ -3.4105651, 39.2813068 ], [ -3.4107113, 39.2808615 ], [ -3.4107788, 39.2806477 ], [ -3.4111277, 39.2796144 ], [ -3.4113972, 39.2787148 ], [ -3.4115328, 39.2784118 ], [ -3.4116109, 39.2780735 ], [ -3.411758, 39.2777704 ], [ -3.4119961, 39.2773781 ], [ -3.4122575, 39.2770569 ], [ -3.4126906, 39.2767351 ], [ -3.4131689, 39.2762974 ], [ -3.4133393, 39.2760744 ], [ -3.4136343, 39.2756374 ], [ -3.4142925, 39.2746563 ], [ -3.4147351, 39.2740053 ], [ -3.4151325, 39.2734522 ], [ -3.4157342, 39.2726048 ], [ -3.4159957, 39.2723014 ], [ -3.4165415, 39.2716767 ], [ -3.4172697, 39.2709445 ], [ -3.4177932, 39.2704266 ], [ -3.4183168, 39.2699264 ], [ -3.4186921, 39.2695247 ], [ -3.4189767, 39.2692657 ], [ -3.4191471, 39.2690515 ], [ -3.4194425, 39.2686768 ], [ -3.4197378, 39.2682843 ], [ -3.420101, 39.2677758 ], [ -3.4202945, 39.2675883 ], [ -3.4204996, 39.2674363 ], [ -3.4208418, 39.2672304 ], [ -3.4212069, 39.2670333 ], [ -3.4215605, 39.2668274 ], [ -3.4218909, 39.266586 ], [ -3.4221071, 39.2663717 ], [ -3.4223003, 39.2661397 ], [ -3.4224477, 39.2659078 ], [ -3.4225607, 39.2656583 ], [ -3.4226732, 39.2653376 ], [ -3.4226868, 39.2653291 ], [ -3.4226869, 39.2653286 ], [ -3.4228539, 39.2649276 ], [ -3.422994, 39.2644831 ], [ -3.4228261, 39.2643107 ], [ -3.4228261, 39.2643107 ], [ -3.422826, 39.2643106 ], [ -3.4225499, 39.2627257 ], [ -3.4200418, 39.2600495 ], [ -3.4171554, 39.2600148 ], [ -3.4128032, 39.2570838 ], [ -3.4096376, 39.2548422 ], [ -3.4083109, 39.2539187 ], [ -3.4071958, 39.2514717 ], [ -3.4056295, 39.2511708 ], [ -3.4061796, 39.2501146 ], [ -3.4062255, 39.2500243 ], [ -3.4059902, 39.247403 ], [ -3.4084031, 39.2458086 ], [ -3.408224, 39.2409073 ], [ -3.4108546, 39.2369514 ], [ -3.415242, 39.2303489 ], [ -3.4160365, 39.2295171 ], [ -3.4171979, 39.2280261 ], [ -3.4171972, 39.2280245 ], [ -3.4156525, 39.2245131 ], [ -3.4156523, 39.2245128 ], [ -3.4129356, 39.2183365 ], [ -3.4133043, 39.2180018 ], [ -3.4134531, 39.2177039 ], [ -3.4133927, 39.2172716 ], [ -3.4121242, 39.2142935 ], [ -3.41128, 39.2125393 ], [ -3.4082631, 39.2056295 ], [ -3.4069719, 39.2046609 ], [ -3.4065265, 39.2037343 ], [ -3.4056717, 39.2021243 ], [ -3.4054816, 39.201287 ], [ -3.4050933, 39.200225 ], [ -3.4041914, 39.198453 ], [ -3.4027446, 39.1945202 ], [ -3.4030293, 39.1936812 ], [ -3.4029194, 39.1926994 ], [ -3.4013552, 39.1884696 ], [ -3.4006272, 39.186688 ], [ -3.4005198, 39.1861206 ], [ -3.4005275, 39.1854358 ], [ -3.40073, 39.1843988 ], [ -3.4009209, 39.1833529 ], [ -3.4012826, 39.1817928 ], [ -3.4011571, 39.1800901 ], [ -3.4011926, 39.1781887 ], [ -3.4014639, 39.1770343 ], [ -3.4018971, 39.1758434 ], [ -3.4025941, 39.1742281 ], [ -3.4026162, 39.1720113 ], [ -3.4025294, 39.1710023 ], [ -3.4028876, 39.166829 ], [ -3.4028874, 39.166784 ], [ -3.4028588, 39.1658379 ], [ -3.4024628, 39.1633793 ], [ -3.4022019, 39.1622718 ], [ -3.402082, 39.1615424 ], [ -3.4020112, 39.1613173 ], [ -3.4020316, 39.1608306 ], [ -3.4015626, 39.159769 ], [ -3.4012558, 39.1587428 ], [ -3.4005644, 39.1572223 ], [ -3.4003402, 39.1564842 ], [ -3.3993452, 39.1544871 ], [ -3.3971232, 39.1524672 ], [ -3.3957151, 39.1510753 ], [ -3.3941461, 39.1498911 ], [ -3.3932291, 39.1493986 ], [ -3.3902547, 39.147273 ], [ -3.3889877, 39.14625 ], [ -3.387115, 39.144499 ], [ -3.3854297, 39.143144 ], [ -3.3846385, 39.1423536 ], [ -3.3841621, 39.1420037 ], [ -3.3837763, 39.1412751 ], [ -3.3837763, 39.141275 ], [ -3.3837754, 39.1412735 ], [ -3.3810707, 39.1399146 ], [ -3.3809904, 39.1397627 ], [ -3.3801617, 39.1393613 ], [ -3.3747945, 39.1367609 ], [ -3.3747612, 39.1367448 ], [ -3.3743859, 39.1369696 ], [ -3.3738605, 39.1372842 ], [ -3.3735963, 39.1374424 ], [ -3.3723354, 39.1360632 ], [ -3.3721814, 39.1359285 ], [ -3.3716536, 39.1354751 ], [ -3.3713195, 39.1352735 ], [ -3.3702143, 39.1346147 ], [ -3.3698627, 39.1345452 ], [ -3.3698553, 39.1345437 ], [ -3.3696247, 39.1347066 ], [ -3.3689446, 39.1351773 ], [ -3.3682426, 39.1359095 ], [ -3.3679789, 39.1363879 ], [ -3.3666394, 39.1391314 ], [ -3.3661689, 39.1398899 ], [ -3.3653989, 39.1409195 ], [ -3.3650432, 39.1414974 ], [ -3.3648608, 39.1420386 ], [ -3.3646385, 39.1437964 ], [ -3.3642961, 39.1447256 ], [ -3.363929, 39.1476013 ], [ -3.36399, 39.1482048 ], [ -3.3639225, 39.1485745 ], [ -3.3631549, 39.1500997 ], [ -3.3630529, 39.1505146 ], [ -3.363067, 39.1510101 ], [ -3.3630143, 39.1520195 ], [ -3.3626817, 39.1525973 ], [ -3.3611822, 39.1558639 ], [ -3.361115, 39.1562966 ], [ -3.3610752, 39.1575763 ], [ -3.3609851, 39.1580542 ], [ -3.360493, 39.159146 ], [ -3.3604501, 39.159831 ], [ -3.3606033, 39.1603622 ], [ -3.3610607, 39.1615412 ], [ -3.361132, 39.1619014 ], [ -3.3610887, 39.1624782 ], [ -3.3606484, 39.1646693 ], [ -3.3604276, 39.1667605 ], [ -3.3604163, 39.1668236 ], [ -3.3604096, 39.1677788 ], [ -3.3606233, 39.1710852 ], [ -3.3607193, 39.1717427 ], [ -3.3611908, 39.1734083 ], [ -3.3615701, 39.1751282 ], [ -3.361704, 39.1764164 ], [ -3.3612676, 39.1793643 ], [ -3.3612155, 39.1804998 ], [ -3.3612574, 39.1818964 ], [ -3.3609856, 39.1830957 ], [ -3.3604008, 39.1841879 ], [ -3.358608, 39.1868606 ], [ -3.3582971, 39.187195 ], [ -3.356498, 39.1886332 ], [ -3.3562564, 39.1889403 ], [ -3.355733, 39.1907711 ], [ -3.3555273, 39.1913214 ], [ -3.3551833, 39.1919893 ], [ -3.3542742, 39.1931365 ], [ -3.3505299, 39.1969954 ], [ -3.3496536, 39.197773 ], [ -3.3495516, 39.1982148 ], [ -3.349627, 39.1994131 ], [ -3.3500348, 39.2022413 ], [ -3.3501197, 39.2053588 ], [ -3.3502427, 39.2068092 ], [ -3.350273, 39.2082419 ], [ -3.3505849, 39.2104035 ], [ -3.3513697, 39.2144921 ], [ -3.3518884, 39.2186086 ], [ -3.3519823, 39.2211764 ], [ -3.3520117, 39.2270785 ], [ -3.3517886, 39.231125 ], [ -3.3511701, 39.2348844 ], [ -3.3509543, 39.2357772 ], [ -3.350825, 39.2377239 ], [ -3.3508665, 39.2390844 ], [ -3.3508401, 39.2407695 ], [ -3.3504489, 39.2436452 ], [ -3.3503841, 39.2446005 ], [ -3.3503896, 39.2456998 ], [ -3.3509893, 39.249771 ], [ -3.3519646, 39.2547781 ], [ -3.3523607, 39.2575162 ], [ -3.3527373, 39.2609572 ], [ -3.3531278, 39.2625599 ], [ -3.3536395, 39.2652076 ], [ -3.3540987, 39.2666209 ], [ -3.3542632, 39.2670619 ], [ -3.355557, 39.2706911 ], [ -3.357944, 39.2773861 ], [ -3.3590725, 39.2804103 ], [ -3.3600261, 39.2832458 ], [ -3.3607611, 39.2863883 ], [ -3.3619216, 39.2911064 ], [ -3.3620909, 39.2924484 ], [ -3.3619822, 39.2938815 ], [ -3.3613032, 39.2971365 ], [ -3.361178, 39.2976055 ], [ -3.3607562, 39.2990395 ], [ -3.3604044, 39.3005454 ], [ -3.3603384, 39.3012394 ], [ -3.3597921, 39.3032865 ], [ -3.3594049, 39.3046844 ], [ -3.3590292, 39.3060733 ], [ -3.3588868, 39.3077227 ], [ -3.3588194, 39.3104081 ], [ -3.3586701, 39.3107239 ], [ -3.3586581, 39.3107331 ] ] ] } },
{ "type": "Feature", "properties": { "CCAA": "08 - Castilla-La Mancha", "PROVINCIA": "13 - Ciudad Real", "MUNICIPIO": "13047 - Herencia", "COD_MUNICIPIO": "13047", "DISTRITO": "03", "SECCION": "1304703002", "V1_H": 78.77, "V1_M": 84.85, "V2_H": 78.83270398000001, "V2_M": 84.81764444, "V3_H": 78.82199574000001, "V3_M": 85.12573797 }, "geometry": { "type": "Polygon", "coordinates": [ [ [ -3.3586581, 39.3107331 ], [ -3.358104, 39.3111582 ], [ -3.357607, 39.311462 ], [ -3.3566817, 39.3120276 ], [ -3.3554552, 39.312644 ], [ -3.3542631, 39.3131613 ], [ -3.3531519, 39.3136513 ], [ -3.3517163, 39.3141962 ], [ -3.3512882, 39.3144318 ], [ -3.3512074, 39.3145041 ], [ -3.3509533, 39.3147302 ], [ -3.3496867, 39.3166172 ], [ -3.3487063, 39.3177555 ], [ -3.3481629, 39.3181446 ], [ -3.3474458, 39.3185703 ], [ -3.3459183, 39.3193317 ], [ -3.344137, 39.3204093 ], [ -3.3426918, 39.3214227 ], [ -3.3424499, 39.3217749 ], [ -3.3421294, 39.3226679 ], [ -3.3418889, 39.3233174 ], [ -3.3417393, 39.3235701 ], [ -3.3412538, 39.323941 ], [ -3.3406297, 39.3244294 ], [ -3.3397392, 39.3250177 ], [ -3.3380525, 39.3265094 ], [ -3.3360928, 39.3267133 ], [ -3.3353171, 39.3270759 ], [ -3.3343338, 39.3276735 ], [ -3.3338821, 39.3278369 ], [ -3.3333368, 39.3278385 ], [ -3.3320038, 39.3281127 ], [ -3.3307529, 39.3285668 ], [ -3.3294343, 39.3294265 ], [ -3.3292156, 39.3297966 ], [ -3.3291252, 39.3303194 ], [ -3.3292562, 39.3310579 ], [ -3.3293402, 39.3316524 ], [ -3.3292045, 39.3324007 ], [ -3.3289751, 39.332969 ], [ -3.3287105, 39.3334474 ], [ -3.328676, 39.3335196 ], [ -3.3280259, 39.3359453 ], [ -3.3275544, 39.3368657 ], [ -3.3268058, 39.3380752 ], [ -3.3266029, 39.3393553 ], [ -3.3267113, 39.340211 ], [ -3.327064, 39.3412103 ], [ -3.3275096, 39.3422002 ], [ -3.3287852, 39.3444853 ], [ -3.3297349, 39.3465641 ], [ -3.3299242, 39.3473295 ], [ -3.3297543, 39.350709 ], [ -3.3295989, 39.3522143 ], [ -3.3292802, 39.3535668 ], [ -3.3289823, 39.3543786 ], [ -3.3287059, 39.3548389 ], [ -3.3281284, 39.3554623 ], [ -3.3275053, 39.3562389 ], [ -3.3274373, 39.3565906 ], [ -3.3274566, 39.3582485 ], [ -3.3273683, 39.3592219 ], [ -3.3271185, 39.360421 ], [ -3.3268883, 39.3608452 ], [ -3.3265069, 39.3612067 ], [ -3.3257658, 39.3615872 ], [ -3.3245956, 39.362068 ], [ -3.3241678, 39.3624206 ], [ -3.3240185, 39.3627905 ], [ -3.3239854, 39.36316 ], [ -3.3243366, 39.3637898 ], [ -3.3244548, 39.364258 ], [ -3.3240898, 39.3656557 ], [ -3.3237689, 39.3665396 ], [ -3.3233801, 39.3703613 ], [ -3.3228783, 39.372327 ], [ -3.3229418, 39.3735162 ], [ -3.3232014, 39.3744256 ], [ -3.3233095, 39.3752182 ], [ -3.3232899, 39.3759932 ], [ -3.3231076, 39.3767596 ], [ -3.3230197, 39.3778321 ], [ -3.3230948, 39.3782616 ], [ -3.3231031, 39.3783095 ], [ -3.3234114, 39.3790957 ], [ -3.323536, 39.3790806 ], [ -3.3237397, 39.3790603 ], [ -3.3239434, 39.3790421 ], [ -3.3244074, 39.3790013 ], [ -3.3248458, 39.3789561 ], [ -3.3253381, 39.3789152 ], [ -3.3258077, 39.3788722 ], [ -3.3262179, 39.3788271 ], [ -3.3266451, 39.3787842 ], [ -3.3268544, 39.378766 ], [ -3.3270695, 39.3787544 ], [ -3.3272364, 39.3787408 ], [ -3.3274457, 39.3787204 ], [ -3.3278022, 39.3786865 ], [ -3.3281049, 39.3786593 ], [ -3.3284246, 39.378632 ], [ -3.3288235, 39.3785957 ], [ -3.3292761, 39.3785505 ], [ -3.3295816, 39.3785189 ], [ -3.3300484, 39.3784825 ], [ -3.3304275, 39.3784506 ], [ -3.3310612, 39.3783895 ], [ -3.3313724, 39.3783601 ], [ -3.3315958, 39.3783309 ], [ -3.331907, 39.3783059 ], [ -3.3322098, 39.3782852 ], [ -3.3324021, 39.3782693 ], [ -3.3326426, 39.378251 ], [ -3.3329877, 39.3782171 ], [ -3.3334206, 39.3781785 ], [ -3.3338137, 39.3781269 ], [ -3.3341644, 39.3780754 ], [ -3.334433, 39.3780219 ], [ -3.3347045, 39.377964 ], [ -3.3348797, 39.3779218 ], [ -3.3350974, 39.3778662 ], [ -3.3351935, 39.3778352 ], [ -3.3356061, 39.3777044 ], [ -3.3359171, 39.3775976 ], [ -3.3363036, 39.3774677 ], [ -3.3373126, 39.3771072 ], [ -3.337926, 39.376886 ], [ -3.3381622, 39.3768043 ], [ -3.3383124, 39.3767371 ], [ -3.3384687, 39.3766675 ], [ -3.3387048, 39.3765619 ], [ -3.3388795, 39.3764755 ], [ -3.3391185, 39.376358 ], [ -3.3399215, 39.3759551 ], [ -3.3407552, 39.3755521 ], [ -3.3413314, 39.3752738 ], [ -3.3417483, 39.3750747 ], [ -3.3418126, 39.3750387 ], [ -3.3420455, 39.3749141 ], [ -3.3423489, 39.3747582 ], [ -3.3431211, 39.3743539 ], [ -3.3433923, 39.3742118 ], [ -3.343714, 39.3740445 ], [ -3.3438772, 39.37396 ], [ -3.3439019, 39.3739439 ], [ -3.3440174, 39.3738827 ], [ -3.3442265, 39.373773 ], [ -3.344369, 39.3736993 ], [ -3.3445505, 39.373604 ], [ -3.3448884, 39.3734259 ], [ -3.345433, 39.3731364 ], [ -3.3460948, 39.3727804 ], [ -3.3463355, 39.3726538 ], [ -3.3464872, 39.3725729 ], [ -3.3468337, 39.3723948 ], [ -3.3474236, 39.3720925 ], [ -3.3478941, 39.3718506 ], [ -3.3481772, 39.3717009 ], [ -3.3484435, 39.3715603 ], [ -3.3486917, 39.3714278 ], [ -3.3489773, 39.3712771 ], [ -3.3491389, 39.3711901 ], [ -3.3494168, 39.3710444 ], [ -3.3495525, 39.3709716 ], [ -3.3496909, 39.3709007 ], [ -3.3500437, 39.3707176 ], [ -3.3502661, 39.3706023 ], [ -3.3505647, 39.3704455 ], [ -3.350884, 39.3702805 ], [ -3.3512717, 39.3700782 ], [ -3.351688, 39.3698617 ], [ -3.3519529, 39.3697211 ], [ -3.3522903, 39.369542 ], [ -3.3525371, 39.3694105 ], [ -3.3525604, 39.3693963 ], [ -3.35278, 39.3692548 ], [ -3.3529699, 39.3691325 ], [ -3.3529918, 39.3691093 ], [ -3.3530253, 39.3690761 ], [ -3.3531736, 39.3689269 ], [ -3.3532297, 39.3688694 ], [ -3.3532915, 39.3687937 ], [ -3.3534074, 39.3686485 ], [ -3.3534867, 39.3685532 ], [ -3.3535089, 39.368523 ], [ -3.3536288, 39.3685973 ], [ -3.3537219, 39.3685578 ], [ -3.3539139, 39.368475 ], [ -3.3539731, 39.3684499 ], [ -3.3539803, 39.3684473 ], [ -3.3539848, 39.3684451 ], [ -3.3541377, 39.36838 ], [ -3.3543135, 39.3683056 ], [ -3.3544947, 39.368227 ], [ -3.3546047, 39.3681806 ], [ -3.3546132, 39.3681763 ], [ -3.3546752, 39.3681529 ], [ -3.3546809, 39.3681488 ], [ -3.354794, 39.3680942 ], [ -3.3548978, 39.3680433 ], [ -3.3551052, 39.3679064 ], [ -3.3551908, 39.3677971 ], [ -3.3551932, 39.367794 ], [ -3.3551976, 39.3677446 ], [ -3.3552081, 39.3676734 ], [ -3.3552095, 39.3676264 ], [ -3.3551477, 39.3669943 ], [ -3.3545312, 39.3669863 ], [ -3.3544428, 39.3669343 ], [ -3.3541093, 39.3667383 ], [ -3.3540894, 39.3666237 ], [ -3.3541884, 39.3663573 ], [ -3.3542216, 39.3662877 ], [ -3.3542491, 39.3662315 ], [ -3.3542623, 39.3662068 ], [ -3.3542829, 39.3661695 ], [ -3.3543236, 39.3660967 ], [ -3.3543477, 39.3660513 ], [ -3.3543998, 39.3659506 ], [ -3.3544158, 39.3659196 ], [ -3.3544811, 39.3657973 ], [ -3.3545338, 39.3656962 ], [ -3.3545979, 39.3655753 ], [ -3.3546552, 39.3654669 ], [ -3.3546555, 39.3654663 ], [ -3.3546489, 39.3654666 ], [ -3.3546489, 39.3654666 ], [ -3.3546346, 39.3654676 ], [ -3.3545987, 39.3654697 ], [ -3.3545512, 39.3654725 ], [ -3.354548, 39.365473 ], [ -3.3545458, 39.3654727 ], [ -3.3544825, 39.3654769 ], [ -3.3543311, 39.3654855 ], [ -3.3543064, 39.3654873 ], [ -3.3541812, 39.3655132 ], [ -3.3540829, 39.3655343 ], [ -3.3540251, 39.3655462 ], [ -3.35401, 39.3655496 ], [ -3.3539924, 39.3654137 ], [ -3.3539786, 39.365304 ], [ -3.3539767, 39.3652843 ], [ -3.3539675, 39.3652307 ], [ -3.3539677, 39.3652296 ], [ -3.3539762, 39.3651698 ], [ -3.3539813, 39.365136 ], [ -3.3539813, 39.3651339 ], [ -3.3539891, 39.3650763 ], [ -3.3539947, 39.3650412 ], [ -3.3540072, 39.3649917 ], [ -3.3540351, 39.3648836 ], [ -3.3540675, 39.364758 ], [ -3.3540794, 39.3647098 ], [ -3.3540954, 39.3646652 ], [ -3.3541154, 39.3646094 ], [ -3.3541411, 39.3645369 ], [ -3.3541783, 39.3644337 ], [ -3.3542149, 39.3643405 ], [ -3.3542453, 39.3642664 ], [ -3.3542468, 39.364264 ], [ -3.3542686, 39.3642087 ], [ -3.3541853, 39.3642437 ], [ -3.3540187, 39.3643133 ], [ -3.3539121, 39.3643584 ], [ -3.3537938, 39.3644084 ], [ -3.3536278, 39.364478 ], [ -3.3534753, 39.3645447 ], [ -3.3532622, 39.364639 ], [ -3.3531888, 39.3646693 ], [ -3.3531863, 39.3646729 ], [ -3.353072, 39.3647977 ], [ -3.3528359, 39.3648867 ], [ -3.3526583, 39.3649508 ], [ -3.3525493, 39.3649918 ], [ -3.3520821, 39.3652047 ], [ -3.3519674, 39.3652633 ], [ -3.3517754, 39.3653519 ], [ -3.3516742, 39.3654007 ], [ -3.3516321, 39.365419 ], [ -3.351577, 39.3654628 ], [ -3.351566, 39.3654684 ], [ -3.3515438, 39.3654836 ], [ -3.3515071, 39.3655097 ], [ -3.3514744, 39.3655326 ], [ -3.3514514, 39.3655478 ], [ -3.3514365, 39.3655582 ], [ -3.351425, 39.3655662 ], [ -3.351413, 39.3655792 ], [ -3.3513809, 39.3656057 ], [ -3.3513648, 39.3656218 ], [ -3.3513396, 39.3656434 ], [ -3.3513121, 39.3656686 ], [ -3.3512914, 39.3656896 ], [ -3.3512795, 39.3656966 ], [ -3.3512118, 39.3657599 ], [ -3.3511667, 39.3658128 ], [ -3.3511404, 39.3658422 ], [ -3.351086, 39.3659246 ], [ -3.3509865, 39.366076 ], [ -3.3508627, 39.3662671 ], [ -3.3508102, 39.3663524 ], [ -3.3507852, 39.3663947 ], [ -3.3507843, 39.3663946 ], [ -3.3507787, 39.3664057 ], [ -3.3506538, 39.3663919 ], [ -3.350399, 39.3663627 ], [ -3.3502487, 39.3663451 ], [ -3.3501707, 39.3663362 ], [ -3.3499381, 39.3663141 ], [ -3.3498532, 39.3663101 ], [ -3.3497334, 39.3663029 ], [ -3.3495692, 39.3662937 ], [ -3.349508, 39.3662912 ], [ -3.3494835, 39.3662749 ], [ -3.3494821, 39.3662719 ], [ -3.3493914, 39.3662137 ], [ -3.3491973, 39.3660834 ], [ -3.3489437, 39.3659258 ], [ -3.3487746, 39.3658209 ], [ -3.3485619, 39.3656893 ], [ -3.3484257, 39.3656043 ], [ -3.3482842, 39.3655173 ], [ -3.3481961, 39.3654618 ], [ -3.3481119, 39.3654113 ], [ -3.3477392, 39.3651761 ], [ -3.3477571, 39.3651669 ], [ -3.3477571, 39.3651636 ], [ -3.3479338, 39.3650364 ], [ -3.3482932, 39.3647835 ], [ -3.3487188, 39.3644757 ], [ -3.3488313, 39.3643971 ], [ -3.3487908, 39.3643644 ], [ -3.3488872, 39.3642953 ], [ -3.3493169, 39.3639875 ], [ -3.3493389, 39.3639733 ], [ -3.3491305, 39.363791 ], [ -3.3487744, 39.3634886 ], [ -3.3485093, 39.3632595 ], [ -3.3483535, 39.3631286 ], [ -3.3483333, 39.3631067 ], [ -3.3485159, 39.3629686 ], [ -3.3486104, 39.3629245 ], [ -3.3486695, 39.3628985 ], [ -3.3486675, 39.3628965 ], [ -3.3486707, 39.3628965 ], [ -3.3488742, 39.362808 ], [ -3.349197, 39.3626488 ], [ -3.3495748, 39.3624642 ], [ -3.3497749, 39.3623657 ], [ -3.3499688, 39.3622922 ], [ -3.3503563, 39.3621202 ], [ -3.3506467, 39.361956 ], [ -3.3507726, 39.3618828 ], [ -3.3508471, 39.3618901 ], [ -3.3508567, 39.3618775 ], [ -3.350915, 39.3618824 ], [ -3.3511868, 39.361874 ], [ -3.3514813, 39.3618631 ], [ -3.3516981, 39.3618574 ], [ -3.3517369, 39.3618598 ], [ -3.3518406, 39.3618746 ], [ -3.3520058, 39.3619092 ], [ -3.3521939, 39.3619966 ], [ -3.3522913, 39.362044 ], [ -3.3526138, 39.361832 ], [ -3.3528816, 39.3616503 ], [ -3.3530719, 39.3615267 ], [ -3.3533138, 39.3613626 ], [ -3.3535299, 39.3612188 ], [ -3.3536718, 39.3611229 ], [ -3.3538234, 39.3610244 ], [ -3.3538911, 39.3609765 ], [ -3.3538334, 39.3609211 ], [ -3.3538343, 39.3609206 ], [ -3.353829, 39.3609198 ], [ -3.3537525, 39.3608363 ], [ -3.3536503, 39.3606742 ], [ -3.3537001, 39.3605018 ], [ -3.3537314, 39.360423 ], [ -3.3538132, 39.3602849 ], [ -3.3538685, 39.3599353 ], [ -3.3539052, 39.3596842 ], [ -3.3539353, 39.3593642 ], [ -3.3539951, 39.3586406 ], [ -3.3540376, 39.3582615 ], [ -3.3540813, 39.3581285 ], [ -3.354131, 39.3579413 ], [ -3.354181, 39.3577985 ], [ -3.3542751, 39.3575865 ], [ -3.3543947, 39.3574238 ], [ -3.3545587, 39.357251 ], [ -3.3547229, 39.3571226 ], [ -3.3549058, 39.3569497 ], [ -3.3550131, 39.3568461 ], [ -3.3551136, 39.3566686 ], [ -3.3551635, 39.3565109 ], [ -3.3552005, 39.3562992 ], [ -3.355225, 39.3561269 ], [ -3.3552621, 39.3559447 ], [ -3.355362, 39.3556491 ], [ -3.3555251, 39.3553041 ], [ -3.3557573, 39.3548407 ], [ -3.3558388, 39.3546486 ], [ -3.3558945, 39.3543777 ], [ -3.3559316, 39.3541906 ], [ -3.3559689, 39.3540477 ], [ -3.3561577, 39.3537814 ], [ -3.3563906, 39.3534559 ], [ -3.356554, 39.3531798 ], [ -3.3567048, 39.3529135 ], [ -3.3568746, 39.3526473 ], [ -3.3569373, 39.3525093 ], [ -3.3569815, 39.3524648 ], [ -3.357029, 39.3524163 ], [ -3.3571492, 39.3518246 ], [ -3.3553782, 39.3377755 ], [ -3.3558552, 39.3364649 ], [ -3.3561394, 39.3339046 ], [ -3.3562168, 39.333191 ], [ -3.3564544, 39.3320994 ], [ -3.3565333, 39.3316585 ], [ -3.3564703, 39.3298964 ], [ -3.3566197, 39.3273994 ], [ -3.3567956, 39.3247974 ], [ -3.3568186, 39.3240001 ], [ -3.3569218, 39.3230347 ], [ -3.3573713, 39.3211242 ], [ -3.358194, 39.3182475 ], [ -3.3584854, 39.3171347 ], [ -3.3587477, 39.3156023 ], [ -3.3588533, 39.3151195 ], [ -3.3588185, 39.3135881 ], [ -3.3588108, 39.3120776 ], [ -3.3586581, 39.3107331 ] ] ] } },
{ "type": "Feature", "properties": { "CCAA": "08 - Castilla-La Mancha", "PROVINCIA": "13 - Ciudad Real", "MUNICIPIO": "13047 - Herencia", "COD_MUNICIPIO": "13047", "DISTRITO": "02", "SECCION": "1304702002", "V1_H": 78.77, "V1_M": 84.85, "V2_H": 78.83270398000001, "V2_M": 84.81764444, "V3_H": 78.82199574000001, "V3_M": 85.12573797 }, "geometry": { "type": "Polygon", "coordinates": [ [ [ -3.3552115, 39.3681628 ], [ -3.3552445, 39.3681627 ], [ -3.3552845, 39.3681622 ], [ -3.3553165, 39.3681617 ], [ -3.3553201, 39.3681617 ], [ -3.3553877, 39.3681611 ], [ -3.3554672, 39.3681601 ], [ -3.3555063, 39.3681596 ], [ -3.3556491, 39.3681579 ], [ -3.3556932, 39.3681574 ], [ -3.3557803, 39.3681566 ], [ -3.3558502, 39.3681573 ], [ -3.3558857, 39.3681575 ], [ -3.3560455, 39.3681589 ], [ -3.356077, 39.3681592 ], [ -3.3561102, 39.36816 ], [ -3.3562073, 39.3681662 ], [ -3.3562521, 39.3681696 ], [ -3.3562996, 39.3681727 ], [ -3.3563183, 39.3681731 ], [ -3.3563203, 39.3681735 ], [ -3.3564349, 39.368182 ], [ -3.3565518, 39.3681893 ], [ -3.3566375, 39.3681955 ], [ -3.356721, 39.3682005 ], [ -3.3567638, 39.3681233 ], [ -3.3567908, 39.3680725 ], [ -3.3568157, 39.3680407 ], [ -3.3568644, 39.3679811 ], [ -3.3568686, 39.367974 ], [ -3.356885, 39.3679534 ], [ -3.3569239, 39.3679092 ], [ -3.3569464, 39.3678843 ], [ -3.3569743, 39.367853 ], [ -3.3569831, 39.3678427 ], [ -3.3570112, 39.3678205 ], [ -3.3570114, 39.3678203 ], [ -3.3570117, 39.3678202 ], [ -3.3570297, 39.3678055 ], [ -3.3570556, 39.3677844 ], [ -3.357067, 39.3677754 ], [ -3.3570691, 39.3677737 ], [ -3.3570695, 39.367773 ], [ -3.3571099, 39.3677403 ], [ -3.3571532, 39.3677219 ], [ -3.3572176, 39.3676936 ], [ -3.3572941, 39.3676604 ], [ -3.357335, 39.3676427 ], [ -3.3573577, 39.3676327 ], [ -3.3573692, 39.3676271 ], [ -3.3573868, 39.3676199 ], [ -3.3574118, 39.3676074 ], [ -3.3574401, 39.3675937 ], [ -3.3574671, 39.3675806 ], [ -3.3574978, 39.3675657 ], [ -3.3575368, 39.3675464 ], [ -3.357571, 39.3675288 ], [ -3.3576194, 39.3675052 ], [ -3.357894, 39.3673619 ], [ -3.3578943, 39.3673617 ], [ -3.3579215, 39.3673452 ], [ -3.3579814, 39.3673143 ], [ -3.3580413, 39.3672823 ], [ -3.358108, 39.3672461 ], [ -3.3581484, 39.367214 ], [ -3.3581548, 39.3672081 ], [ -3.358137, 39.367185 ], [ -3.3580827, 39.3671165 ], [ -3.3580399, 39.3670614 ], [ -3.3580016, 39.3670133 ], [ -3.357991, 39.3669988 ], [ -3.3579905, 39.3669984 ], [ -3.3579337, 39.3669267 ], [ -3.3578854, 39.3668652 ], [ -3.3578716, 39.3668478 ], [ -3.3578542, 39.3668071 ], [ -3.3577913, 39.3666639 ], [ -3.357708, 39.3664736 ], [ -3.3576346, 39.3663053 ], [ -3.3576275, 39.3662905 ], [ -3.3568103, 39.3662516 ], [ -3.3567551, 39.3661044 ], [ -3.3567497, 39.366094 ], [ -3.3566751, 39.3659151 ], [ -3.3566556, 39.3658692 ], [ -3.3566098, 39.3656828 ], [ -3.3565885, 39.3655946 ], [ -3.3565636, 39.3654842 ], [ -3.3565603, 39.3654733 ], [ -3.3565583, 39.3654604 ], [ -3.3565289, 39.3653288 ], [ -3.3565138, 39.365267 ], [ -3.3565043, 39.3652188 ], [ -3.3564666, 39.3651095 ], [ -3.356451, 39.3650643 ], [ -3.3564498, 39.3650593 ], [ -3.3564488, 39.3650578 ], [ -3.3564234, 39.3649852 ], [ -3.3564008, 39.3649191 ], [ -3.356392, 39.3648442 ], [ -3.3563814, 39.3647652 ], [ -3.3563785, 39.3647529 ], [ -3.3563786, 39.3647507 ], [ -3.3563689, 39.3646716 ], [ -3.3563497, 39.3645464 ], [ -3.3563288, 39.3644314 ], [ -3.3563144, 39.3643487 ], [ -3.3563097, 39.3643278 ], [ -3.3562852, 39.3642552 ], [ -3.3562671, 39.3642014 ], [ -3.3562671, 39.3642013 ], [ -3.3562667, 39.3642006 ], [ -3.3562599, 39.364181 ], [ -3.3562487, 39.3641476 ], [ -3.3562373, 39.364113 ], [ -3.3560789, 39.3637414 ], [ -3.3560714, 39.3637203 ], [ -3.3560545, 39.3636601 ], [ -3.3560471, 39.3636363 ], [ -3.3560459, 39.3636295 ], [ -3.3560113, 39.3635022 ], [ -3.3559524, 39.3633145 ], [ -3.3559043, 39.3633606 ], [ -3.3558491, 39.363412 ], [ -3.3558347, 39.3634255 ], [ -3.355802, 39.3634794 ], [ -3.3557779, 39.3635199 ], [ -3.3557458, 39.3635707 ], [ -3.3556896, 39.3636629 ], [ -3.3556386, 39.3637474 ], [ -3.3555422, 39.3639043 ], [ -3.3554924, 39.3639852 ], [ -3.3554195, 39.3641057 ], [ -3.3553444, 39.3642294 ], [ -3.3552963, 39.3643067 ], [ -3.3552613, 39.3643638 ], [ -3.3552085, 39.3644501 ], [ -3.3551804, 39.3644973 ], [ -3.3551318, 39.3645904 ], [ -3.3550722, 39.3647027 ], [ -3.3550419, 39.3647616 ], [ -3.35498, 39.3648767 ], [ -3.3549382, 39.3649563 ], [ -3.3548849, 39.3650583 ], [ -3.3548357, 39.3651513 ], [ -3.3548082, 39.3652026 ], [ -3.3547521, 39.3653105 ], [ -3.3547481, 39.3653177 ], [ -3.3547028, 39.3653896 ], [ -3.3546655, 39.365448 ], [ -3.3546555, 39.3654663 ], [ -3.3546552, 39.3654669 ], [ -3.3545979, 39.3655753 ], [ -3.3545338, 39.3656962 ], [ -3.3544811, 39.3657973 ], [ -3.3544158, 39.3659196 ], [ -3.3543998, 39.3659506 ], [ -3.3543477, 39.3660513 ], [ -3.3543236, 39.3660967 ], [ -3.3542829, 39.3661695 ], [ -3.3542623, 39.3662068 ], [ -3.3542491, 39.3662315 ], [ -3.3542216, 39.3662877 ], [ -3.3541884, 39.3663573 ], [ -3.3540894, 39.3666237 ], [ -3.3541093, 39.3667383 ], [ -3.3544428, 39.3669343 ], [ -3.3545312, 39.3669863 ], [ -3.3551477, 39.3669943 ], [ -3.3552095, 39.3676264 ], [ -3.3552081, 39.3676734 ], [ -3.3551976, 39.3677446 ], [ -3.3551932, 39.367794 ], [ -3.3551908, 39.3677971 ], [ -3.3551908, 39.3678056 ], [ -3.355197, 39.3679344 ], [ -3.3552068, 39.368072 ], [ -3.3552082, 39.3681058 ], [ -3.3552092, 39.368125 ], [ -3.3552108, 39.3681505 ], [ -3.3552115, 39.3681628 ] ] ] } },
{ "type": "Feature", "properties": { "CCAA": "08 - Castilla-La Mancha", "PROVINCIA": "13 - Ciudad Real", "MUNICIPIO": "13047 - Herencia", "COD_MUNICIPIO": "13047", "DISTRITO": "01", "SECCION": "1304701002", "V1_H": 79.19, "V1_M": 85.12, "V2_H": 79.38537767, "V2_M": 85.11224236, "V3_H": 79.115857, "V3_M": 85.3484756 }, "geometry": { "type": "Polygon", "coordinates": [ [ [ -3.3552115, 39.3681628 ], [ -3.3552116, 39.3681656 ], [ -3.3552116, 39.3681655 ], [ -3.3552191, 39.3682108 ], [ -3.3552663, 39.3684806 ], [ -3.3553045, 39.3687011 ], [ -3.3553041, 39.3687093 ], [ -3.3553987, 39.3690123 ], [ -3.3556167, 39.3689568 ], [ -3.3559758, 39.3688461 ], [ -3.3563608, 39.3687751 ], [ -3.3566109, 39.3687245 ], [ -3.356554, 39.3688792 ], [ -3.3565301, 39.3692381 ], [ -3.3582902, 39.3693374 ], [ -3.3596201, 39.369438 ], [ -3.3596238, 39.3694387 ], [ -3.3596292, 39.3694405 ], [ -3.3597107, 39.3694651 ], [ -3.3598417, 39.369501 ], [ -3.3599513, 39.3695317 ], [ -3.3600703, 39.3695654 ], [ -3.3601128, 39.3695882 ], [ -3.3605114, 39.3697706 ], [ -3.3607892, 39.3699612 ], [ -3.3609514, 39.3701756 ], [ -3.360967, 39.3701905 ], [ -3.3612224, 39.3704963 ], [ -3.3614702, 39.3707805 ], [ -3.3616147, 39.3709341 ], [ -3.3616674, 39.3709835 ], [ -3.361711, 39.3710312 ], [ -3.361911, 39.3713421 ], [ -3.3620696, 39.3715841 ], [ -3.3621224, 39.3716548 ], [ -3.36215, 39.3716848 ], [ -3.3621707, 39.3717219 ], [ -3.3622097, 39.371766 ], [ -3.3622487, 39.3718048 ], [ -3.3622601, 39.371819 ], [ -3.3622878, 39.3718667 ], [ -3.3623313, 39.3719126 ], [ -3.3623588, 39.3719408 ], [ -3.3624115, 39.3719725 ], [ -3.3625075, 39.3720306 ], [ -3.3627591, 39.3721626 ], [ -3.363129, 39.3722429 ], [ -3.3633483, 39.3723024 ], [ -3.363531, 39.372362 ], [ -3.3638714, 39.3724672 ], [ -3.3641814, 39.372586 ], [ -3.3645934, 39.3727917 ], [ -3.3652728, 39.3731476 ], [ -3.3658222, 39.3734536 ], [ -3.3662656, 39.3737021 ], [ -3.3675326, 39.3744762 ], [ -3.3676569, 39.37457 ], [ -3.3681529, 39.3748799 ], [ -3.3687017, 39.3752574 ], [ -3.3692387, 39.3756124 ], [ -3.3697233, 39.3759675 ], [ -3.3701379, 39.3762686 ], [ -3.3703422, 39.3764034 ], [ -3.3706283, 39.3766147 ], [ -3.3709961, 39.3768663 ], [ -3.3713054, 39.3770504 ], [ -3.3716204, 39.3772119 ], [ -3.3719236, 39.3773509 ], [ -3.3721103, 39.3774496 ], [ -3.3725129, 39.3776876 ], [ -3.3731549, 39.3781009 ], [ -3.3739021, 39.3785861 ], [ -3.3741064, 39.3787208 ], [ -3.3742757, 39.3788286 ], [ -3.3744799, 39.3789454 ], [ -3.3747659, 39.3791295 ], [ -3.3752328, 39.379417 ], [ -3.3758633, 39.3798393 ], [ -3.3762253, 39.3800819 ], [ -3.3766048, 39.380338 ], [ -3.3770076, 39.3806121 ], [ -3.3773638, 39.3808502 ], [ -3.3777375, 39.3811108 ], [ -3.3780936, 39.381358 ], [ -3.3784323, 39.3816006 ], [ -3.3787827, 39.3818388 ], [ -3.3792031, 39.3821263 ], [ -3.3796293, 39.3824139 ], [ -3.3799972, 39.382679 ], [ -3.3803242, 39.3829082 ], [ -3.3805753, 39.3830744 ], [ -3.3807796, 39.3832092 ], [ -3.3813169, 39.3835956 ], [ -3.3815565, 39.3837845 ], [ -3.3817375, 39.3839193 ], [ -3.3818779, 39.3840498 ], [ -3.3821408, 39.3842611 ], [ -3.3822928, 39.384396 ], [ -3.382579, 39.3846073 ], [ -3.3828769, 39.384832 ], [ -3.3831047, 39.3849983 ], [ -3.383309, 39.385133 ], [ -3.3835076, 39.3852769 ], [ -3.3837178, 39.3854071 ], [ -3.3839046, 39.3855329 ], [ -3.3841733, 39.3857216 ], [ -3.3844361, 39.3859103 ], [ -3.3846872, 39.3860901 ], [ -3.3849616, 39.3862652 ], [ -3.3851718, 39.3864045 ], [ -3.3852302, 39.3864494 ], [ -3.3853994, 39.3865347 ], [ -3.3855862, 39.3866379 ], [ -3.3857961, 39.386723 ], [ -3.3866941, 39.3871037 ], [ -3.3876679, 39.3875158 ], [ -3.3879653, 39.3876367 ], [ -3.3900645, 39.3885055 ], [ -3.3921171, 39.3893428 ], [ -3.3925895, 39.3895444 ], [ -3.3930269, 39.389737 ], [ -3.3934003, 39.3899208 ], [ -3.3937502, 39.3900777 ], [ -3.3941528, 39.390284 ], [ -3.3945904, 39.3905082 ], [ -3.3953838, 39.3908847 ], [ -3.3962238, 39.3912837 ], [ -3.3967723, 39.3915572 ], [ -3.3973264, 39.3918081 ], [ -3.3980381, 39.3921307 ], [ -3.3987031, 39.3924444 ], [ -3.3994149, 39.3927987 ], [ -3.4004012, 39.393328 ], [ -3.4010198, 39.3936464 ], [ -3.4012825, 39.3938035 ], [ -3.4016914, 39.3940774 ], [ -3.4019835, 39.3942886 ], [ -3.4023515, 39.3945447 ], [ -3.4027021, 39.3948008 ], [ -3.4030467, 39.3950343 ], [ -3.4034556, 39.3953218 ], [ -3.4037479, 39.3955466 ], [ -3.4043031, 39.3959735 ], [ -3.4043907, 39.3960364 ], [ -3.4046951, 39.3963514 ], [ -3.4048121, 39.3964638 ], [ -3.405011, 39.3966572 ], [ -3.4051866, 39.3968327 ], [ -3.4053386, 39.3969631 ], [ -3.4056016, 39.3971653 ], [ -3.4059114, 39.397399 ], [ -3.4063497, 39.3977315 ], [ -3.4066653, 39.3979652 ], [ -3.4068814, 39.3981134 ], [ -3.4070626, 39.3982482 ], [ -3.4073548, 39.3984729 ], [ -3.4076881, 39.3987471 ], [ -3.4077759, 39.3988416 ], [ -3.4081035, 39.3991474 ], [ -3.4084546, 39.3994893 ], [ -3.4085775, 39.3996108 ], [ -3.4087062, 39.3997277 ], [ -3.4088292, 39.3998627 ], [ -3.4089638, 39.3999977 ], [ -3.4090984, 39.4001281 ], [ -3.4092505, 39.4002675 ], [ -3.4094085, 39.400425 ], [ -3.4095254, 39.4005148 ], [ -3.4096424, 39.4006138 ], [ -3.4097886, 39.4007442 ], [ -3.4099932, 39.400906 ], [ -3.4104431, 39.4012204 ], [ -3.4106184, 39.4013417 ], [ -3.4107411, 39.4014225 ], [ -3.4108403, 39.4014853 ], [ -3.410963, 39.4015616 ], [ -3.4111613, 39.4016422 ], [ -3.4113188, 39.4017139 ], [ -3.4115754, 39.4018033 ], [ -3.4118843, 39.4018834 ], [ -3.4120046, 39.4019112 ], [ -3.4120159, 39.4018893 ], [ -3.4124414, 39.4012398 ], [ -3.4124419, 39.401239 ], [ -3.4154466, 39.4006787 ], [ -3.418241, 39.3998938 ], [ -3.4199678, 39.3992749 ], [ -3.4214037, 39.3985669 ], [ -3.4227811, 39.397787 ], [ -3.4240306, 39.3969985 ], [ -3.4253596, 39.3959214 ], [ -3.4262598, 39.394981 ], [ -3.4270225, 39.3943565 ], [ -3.4325167, 39.3926692 ], [ -3.4368528, 39.3915178 ], [ -3.4388578, 39.3908795 ], [ -3.4432827, 39.3891147 ], [ -3.4479142, 39.3870065 ], [ -3.4510458, 39.3846336 ], [ -3.4557052, 39.3815339 ], [ -3.4587349, 39.3796387 ], [ -3.4613719, 39.3780785 ], [ -3.4670475, 39.3742894 ], [ -3.4704812, 39.3721401 ], [ -3.4713791, 39.365811 ], [ -3.4719096, 39.3635562 ], [ -3.4731185, 39.3569014 ], [ -3.4735646, 39.3524844 ], [ -3.4739031, 39.3510413 ], [ -3.4743576, 39.3495977 ], [ -3.4749742, 39.3480994 ], [ -3.4762041, 39.3446343 ], [ -3.476558, 39.3437678 ], [ -3.4768788, 39.3431448 ], [ -3.4768787, 39.3431448 ], [ -3.468251, 39.3440718 ], [ -3.4593867, 39.3443503 ], [ -3.4593866, 39.3443503 ], [ -3.4588523, 39.3442623 ], [ -3.4588522, 39.3442623 ], [ -3.4607875, 39.3420651 ], [ -3.4612007, 39.3413696 ], [ -3.4612007, 39.3413696 ], [ -3.4617235, 39.3397005 ], [ -3.4620301, 39.3386721 ], [ -3.4620616, 39.3384831 ], [ -3.4604946, 39.338722 ], [ -3.456533, 39.3393149 ], [ -3.4542855, 39.3396494 ], [ -3.4532952, 39.3398161 ], [ -3.4500573, 39.3403172 ], [ -3.4492628, 39.340435 ], [ -3.449162, 39.340439 ], [ -3.4468762, 39.3407587 ], [ -3.4440191, 39.341199 ], [ -3.4421906, 39.3414724 ], [ -3.441162, 39.3416243 ], [ -3.4407431, 39.3417147 ], [ -3.4390874, 39.3421947 ], [ -3.4377741, 39.3425697 ], [ -3.4367567, 39.3428694 ], [ -3.4365984, 39.3429003 ], [ -3.4365181, 39.3429446 ], [ -3.4351288, 39.3433495 ], [ -3.4325213, 39.3440846 ], [ -3.4288862, 39.3451787 ], [ -3.4277252, 39.3455087 ], [ -3.425346, 39.3461984 ], [ -3.4166095, 39.3487614 ], [ -3.4133355, 39.3497353 ], [ -3.4021042, 39.3530167 ], [ -3.3995723, 39.3537657 ], [ -3.3922617, 39.3558927 ], [ -3.3864929, 39.3575848 ], [ -3.3845127, 39.358154 ], [ -3.3720027, 39.3617772 ], [ -3.3694893, 39.3625402 ], [ -3.3665611, 39.3634184 ], [ -3.3665137, 39.363428 ], [ -3.3655197, 39.3637121 ], [ -3.3650567, 39.3638628 ], [ -3.3647521, 39.364013 ], [ -3.3639288, 39.3644316 ], [ -3.363343, 39.3647049 ], [ -3.3631747, 39.3647916 ], [ -3.3627704, 39.3649922 ], [ -3.3624822, 39.3651426 ], [ -3.3620339, 39.3653652 ], [ -3.3617657, 39.3654968 ], [ -3.3615015, 39.3656191 ], [ -3.3610651, 39.3658261 ], [ -3.3606765, 39.3659581 ], [ -3.360372, 39.3660556 ], [ -3.3603715, 39.3660557 ], [ -3.3602125, 39.3661173 ], [ -3.360185, 39.3661246 ], [ -3.3600906, 39.3661494 ], [ -3.3599503, 39.366181 ], [ -3.3597098, 39.3662463 ], [ -3.3595409, 39.3662891 ], [ -3.3594951, 39.3663204 ], [ -3.3594245, 39.36636 ], [ -3.359419, 39.3663649 ], [ -3.3593341, 39.3664125 ], [ -3.3592572, 39.3664564 ], [ -3.3591899, 39.3664953 ], [ -3.3591418, 39.3665229 ], [ -3.3590666, 39.3665755 ], [ -3.3589977, 39.3666256 ], [ -3.3589442, 39.3666681 ], [ -3.3588642, 39.366734 ], [ -3.358796, 39.3667946 ], [ -3.3587203, 39.3668624 ], [ -3.3586739, 39.366896 ], [ -3.3586352, 39.3669237 ], [ -3.3586059, 39.3669445 ], [ -3.3585948, 39.3669537 ], [ -3.3585837, 39.3669609 ], [ -3.3585646, 39.3669746 ], [ -3.3585385, 39.3669939 ], [ -3.3585229, 39.3670041 ], [ -3.3585089, 39.3670131 ], [ -3.358427, 39.3670662 ], [ -3.3583999, 39.3670836 ], [ -3.3583985, 39.3670844 ], [ -3.3583973, 39.3670857 ], [ -3.3583739, 39.3671005 ], [ -3.3583502, 39.367116 ], [ -3.3583386, 39.3671234 ], [ -3.3583197, 39.3671322 ], [ -3.3583001, 39.3671412 ], [ -3.3582951, 39.3671433 ], [ -3.3582946, 39.3671435 ], [ -3.3582797, 39.3671502 ], [ -3.3582281, 39.3671742 ], [ -3.3581775, 39.3671978 ], [ -3.3581549, 39.367208 ], [ -3.3581548, 39.3672081 ], [ -3.3581484, 39.367214 ], [ -3.358108, 39.3672461 ], [ -3.3580413, 39.3672823 ], [ -3.3579814, 39.3673143 ], [ -3.3579215, 39.3673452 ], [ -3.3578943, 39.3673617 ], [ -3.357894, 39.3673619 ], [ -3.3576194, 39.3675052 ], [ -3.357571, 39.3675288 ], [ -3.3575368, 39.3675464 ], [ -3.3574978, 39.3675657 ], [ -3.3574671, 39.3675806 ], [ -3.3574401, 39.3675937 ], [ -3.3574118, 39.3676074 ], [ -3.3573868, 39.3676199 ], [ -3.3573692, 39.3676271 ], [ -3.3573577, 39.3676327 ], [ -3.357335, 39.3676427 ], [ -3.3572941, 39.3676604 ], [ -3.3572176, 39.3676936 ], [ -3.3571532, 39.3677219 ], [ -3.3571099, 39.3677403 ], [ -3.3570695, 39.367773 ], [ -3.3570691, 39.3677737 ], [ -3.357067, 39.3677754 ], [ -3.3570556, 39.3677844 ], [ -3.3570297, 39.3678055 ], [ -3.3570117, 39.3678202 ], [ -3.3570114, 39.3678203 ], [ -3.3570112, 39.3678205 ], [ -3.3569831, 39.3678427 ], [ -3.3569743, 39.367853 ], [ -3.3569464, 39.3678843 ], [ -3.3569239, 39.3679092 ], [ -3.356885, 39.3679534 ], [ -3.3568686, 39.367974 ], [ -3.3568644, 39.3679811 ], [ -3.3568157, 39.3680407 ], [ -3.3567908, 39.3680725 ], [ -3.3567638, 39.3681233 ], [ -3.356721, 39.3682005 ], [ -3.3566375, 39.3681955 ], [ -3.3565518, 39.3681893 ], [ -3.3564349, 39.368182 ], [ -3.3563203, 39.3681735 ], [ -3.3563183, 39.3681731 ], [ -3.3562996, 39.3681727 ], [ -3.3562521, 39.3681696 ], [ -3.3562073, 39.3681662 ], [ -3.3561102, 39.36816 ], [ -3.356077, 39.3681592 ], [ -3.3560455, 39.3681589 ], [ -3.3558857, 39.3681575 ], [ -3.3558502, 39.3681573 ], [ -3.3557803, 39.3681566 ], [ -3.3556932, 39.3681574 ], [ -3.3556491, 39.3681579 ], [ -3.3555063, 39.3681596 ], [ -3.3554672, 39.3681601 ], [ -3.3553877, 39.3681611 ], [ -3.3553201, 39.3681617 ], [ -3.3553165, 39.3681617 ], [ -3.3552845, 39.3681622 ], [ -3.3552445, 39.3681627 ], [ -3.3552115, 39.3681628 ] ] ] } }
]
}
