{
"type": "FeatureCollection",
"name": "13052",
"features": [
{ "type": "Feature", "properties": { "CCAA": "08 - Castilla-La Mancha", "PROVINCIA": "13 - Ciudad Real", "MUNICIPIO": "13052 - Malagón", "COD_MUNICIPIO": "13052", "DISTRITO": "01", "SECCION": "1305201003", "V1_H": 79.27, "V1_M": 85.17, "V2_H": 79.19654882, "V2_M": 85.28496149, "V3_H": 79.61871206, "V3_M": 85.37047204 }, "geometry": { "type": "Polygon", "coordinates": [ [ [ -3.8080203, 39.2038496 ], [ -3.8081182, 39.2040579 ], [ -3.8086236, 39.203721 ], [ -3.8096215, 39.2030534 ], [ -3.8110407, 39.2021047 ], [ -3.8115804, 39.2017474 ], [ -3.812534, 39.2011207 ], [ -3.8131696, 39.2006932 ], [ -3.8136723, 39.2003593 ], [ -3.8142488, 39.1999728 ], [ -3.8147588, 39.1996331 ], [ -3.8152467, 39.1993168 ], [ -3.8158527, 39.1989068 ], [ -3.8163036, 39.1986081 ], [ -3.8169171, 39.1982039 ], [ -3.8173827, 39.1978877 ], [ -3.817767, 39.19763 ], [ -3.8180848, 39.1974192 ], [ -3.8183139, 39.1972611 ], [ -3.8185947, 39.1970737 ], [ -3.8190012, 39.1967984 ], [ -3.8194889, 39.1964705 ], [ -3.8197624, 39.1962889 ], [ -3.8200185, 39.1961225 ], [ -3.8203737, 39.1958663 ], [ -3.8218229, 39.1949449 ], [ -3.8252925, 39.1926253 ], [ -3.8295416, 39.189773 ], [ -3.8298039, 39.1896378 ], [ -3.8301536, 39.1894464 ], [ -3.8305093, 39.1892408 ], [ -3.8307984, 39.1890545 ], [ -3.8312799, 39.188711 ], [ -3.8317254, 39.1884056 ], [ -3.8322852, 39.1880143 ], [ -3.8328451, 39.1876277 ], [ -3.8330317, 39.1874989 ], [ -3.8332483, 39.1873462 ], [ -3.8337481, 39.1870073 ], [ -3.8339895, 39.1868104 ], [ -3.8340559, 39.1867662 ], [ -3.8367107, 39.18502 ], [ -3.8387014, 39.1836926 ], [ -3.8408121, 39.1822341 ], [ -3.842201, 39.1813611 ], [ -3.8424583, 39.1811909 ], [ -3.8426419, 39.1809877 ], [ -3.8427243, 39.1808834 ], [ -3.84273, 39.1808978 ], [ -3.8428535, 39.1804432 ], [ -3.8428652, 39.180281 ], [ -3.8429286, 39.1794016 ], [ -3.8429346, 39.1792883 ], [ -3.8429693, 39.178623 ], [ -3.8431397, 39.1782326 ], [ -3.8436085, 39.1777136 ], [ -3.84398, 39.177419 ], [ -3.8442545, 39.1772267 ], [ -3.8445245, 39.1770104 ], [ -3.8446689, 39.1768786 ], [ -3.8447433, 39.1767917 ], [ -3.8456613, 39.1760996 ], [ -3.8441781, 39.1746667 ], [ -3.8419985, 39.1727179 ], [ -3.8429232, 39.1721772 ], [ -3.8439713, 39.1717214 ], [ -3.8448747, 39.1714478 ], [ -3.8477737, 39.1700439 ], [ -3.8482013, 39.1699455 ], [ -3.8492552, 39.16986 ], [ -3.8492184, 39.1698426 ], [ -3.8492926, 39.1698228 ], [ -3.8492926, 39.1698226 ], [ -3.8493588, 39.1698046 ], [ -3.8494508, 39.1697798 ], [ -3.8495259, 39.1697613 ], [ -3.8497408, 39.1697065 ], [ -3.8499221, 39.1696596 ], [ -3.8500087, 39.1696348 ], [ -3.850068, 39.1696171 ], [ -3.8501016, 39.1696072 ], [ -3.8504445, 39.1695081 ], [ -3.8506726, 39.1694394 ], [ -3.850753, 39.1694133 ], [ -3.8508042, 39.1693915 ], [ -3.8508942, 39.1693536 ], [ -3.851076, 39.1692742 ], [ -3.851301, 39.1691793 ], [ -3.8513892, 39.169138 ], [ -3.8514977, 39.1690854 ], [ -3.851704, 39.1689775 ], [ -3.8519376, 39.168855 ], [ -3.8521703, 39.1687331 ], [ -3.8522523, 39.1686904 ], [ -3.852291, 39.1686694 ], [ -3.8522964, 39.1686694 ], [ -3.8523411, 39.1686256 ], [ -3.8523788, 39.168588 ], [ -3.8523937, 39.1685768 ], [ -3.8524615, 39.1685322 ], [ -3.8525953, 39.1684462 ], [ -3.8527704, 39.1683317 ], [ -3.8529394, 39.1682214 ], [ -3.8530353, 39.1681585 ], [ -3.8530357, 39.1681591 ], [ -3.8530358, 39.168159 ], [ -3.8530358, 39.1681583 ], [ -3.8529476, 39.1680399 ], [ -3.8527561, 39.1677711 ], [ -3.8527053, 39.1677027 ], [ -3.8526335, 39.1676037 ], [ -3.8524001, 39.1672791 ], [ -3.8524045, 39.1672756 ], [ -3.8523626, 39.1672186 ], [ -3.852264, 39.1670866 ], [ -3.8520936, 39.1668611 ], [ -3.8519351, 39.1666447 ], [ -3.8518827, 39.1665718 ], [ -3.8518049, 39.1664625 ], [ -3.8516478, 39.1662438 ], [ -3.8515686, 39.1661356 ], [ -3.8514878, 39.1660251 ], [ -3.8513613, 39.1658967 ], [ -3.8512957, 39.1658285 ], [ -3.8512347, 39.1657682 ], [ -3.8510441, 39.1655738 ], [ -3.8509696, 39.1654965 ], [ -3.8508613, 39.165416 ], [ -3.8507975, 39.1653684 ], [ -3.8506842, 39.1652399 ], [ -3.8506469, 39.1651955 ], [ -3.8504948, 39.1650226 ], [ -3.8504202, 39.1649372 ], [ -3.8504098, 39.1649259 ], [ -3.8503947, 39.1648973 ], [ -3.8503828, 39.1648837 ], [ -3.8503078, 39.1647675 ], [ -3.8502479, 39.1646752 ], [ -3.8501966, 39.1645668 ], [ -3.8501255, 39.1644058 ], [ -3.8500197, 39.1641696 ], [ -3.850003, 39.1641239 ], [ -3.8499286, 39.1639298 ], [ -3.8499058, 39.163867 ], [ -3.8498602, 39.1637471 ], [ -3.8497949, 39.1635736 ], [ -3.8497357, 39.1634252 ], [ -3.8496812, 39.1632951 ], [ -3.8496312, 39.1631741 ], [ -3.8495721, 39.1630222 ], [ -3.8495309, 39.1629 ], [ -3.8494867, 39.1627767 ], [ -3.8494746, 39.1627436 ], [ -3.8494604, 39.1626624 ], [ -3.8494412, 39.1625377 ], [ -3.8494047, 39.1623136 ], [ -3.8493682, 39.1620871 ], [ -3.8493586, 39.16203 ], [ -3.8493142, 39.1618837 ], [ -3.8492777, 39.1617787 ], [ -3.8492308, 39.1616748 ], [ -3.8491946, 39.1615984 ], [ -3.8490909, 39.1614079 ], [ -3.8489931, 39.1612277 ], [ -3.8489508, 39.161133 ], [ -3.8488769, 39.1609801 ], [ -3.848809, 39.1608364 ], [ -3.8487773, 39.1607713 ], [ -3.848741, 39.1606903 ], [ -3.8486792, 39.1605625 ], [ -3.8486117, 39.1604237 ], [ -3.8486038, 39.1604074 ], [ -3.8485706, 39.1603401 ], [ -3.848558, 39.1601478 ], [ -3.8485417, 39.1598926 ], [ -3.848517, 39.1595493 ], [ -3.8485091, 39.1595047 ], [ -3.8484845, 39.1594133 ], [ -3.8484736, 39.1593595 ], [ -3.8484502, 39.1592487 ], [ -3.8484046, 39.159004 ], [ -3.8483889, 39.1589262 ], [ -3.8483529, 39.1587387 ], [ -3.8482884, 39.1583946 ], [ -3.8482696, 39.1582962 ], [ -3.8482586, 39.1582402 ], [ -3.848235, 39.1581122 ], [ -3.8482154, 39.1580254 ], [ -3.8481024, 39.1576105 ], [ -3.8481017, 39.1576082 ], [ -3.8480721, 39.1576057 ], [ -3.8479517, 39.1573553 ], [ -3.8475772, 39.1568039 ], [ -3.8461263, 39.1558679 ], [ -3.8452244, 39.1553514 ], [ -3.8441036, 39.1545874 ], [ -3.8431365, 39.1539716 ], [ -3.8427563, 39.153607 ], [ -3.8423414, 39.1530247 ], [ -3.8422033, 39.1528389 ], [ -3.8419969, 39.1522986 ], [ -3.8419308, 39.1521185 ], [ -3.8412903, 39.1513884 ], [ -3.8408049, 39.1509248 ], [ -3.8397597, 39.1497866 ], [ -3.8394113, 39.1494093 ], [ -3.8391342, 39.1489692 ], [ -3.8386404, 39.1484683 ], [ -3.8379693, 39.147838 ], [ -3.8370985, 39.1472402 ], [ -3.8361334, 39.1467802 ], [ -3.835267, 39.1465498 ], [ -3.834711, 39.1461926 ], [ -3.8342594, 39.145872 ], [ -3.8338619, 39.1453891 ], [ -3.8332699, 39.1446897 ], [ -3.8326491, 39.1442583 ], [ -3.8316108, 39.1436866 ], [ -3.8310541, 39.1432671 ], [ -3.8305816, 39.1429858 ], [ -3.8304292, 39.1428823 ], [ -3.8302379, 39.1427489 ], [ -3.8302346, 39.142744 ], [ -3.8302329, 39.1427415 ], [ -3.8297942, 39.1423877 ], [ -3.829173, 39.1419251 ], [ -3.8284094, 39.141588 ], [ -3.8270185, 39.1409441 ], [ -3.8260865, 39.1405646 ], [ -3.8256998, 39.140312 ], [ -3.8252389, 39.1398732 ], [ -3.8247591, 39.1392056 ], [ -3.8224825, 39.1384229 ], [ -3.8207424, 39.1380297 ], [ -3.8192244, 39.1378421 ], [ -3.8169321, 39.137732 ], [ -3.8160743, 39.1375938 ], [ -3.8152299, 39.1376088 ], [ -3.8144875, 39.1374517 ], [ -3.8127924, 39.1369499 ], [ -3.8120147, 39.1367301 ], [ -3.8107136, 39.1362795 ], [ -3.809573, 39.1356928 ], [ -3.8093158, 39.1354603 ], [ -3.8086148, 39.1348704 ], [ -3.8079989, 39.1346314 ], [ -3.8068379, 39.134288 ], [ -3.8058996, 39.1341863 ], [ -3.8053797, 39.134253 ], [ -3.8043524, 39.1344674 ], [ -3.8037499, 39.1343904 ], [ -3.8028006, 39.1343429 ], [ -3.8021536, 39.1344284 ], [ -3.8001479, 39.135082 ], [ -3.7991462, 39.1355214 ], [ -3.7988123, 39.1356678 ], [ -3.7959311, 39.1366787 ], [ -3.7943394, 39.1371221 ], [ -3.7920631, 39.1373989 ], [ -3.7899621, 39.1378366 ], [ -3.78919, 39.1381122 ], [ -3.7872549, 39.1389092 ], [ -3.7852164, 39.139761 ], [ -3.7833954, 39.140413 ], [ -3.7822209, 39.1409345 ], [ -3.7806631, 39.1413234 ], [ -3.7793699, 39.1415753 ], [ -3.778872, 39.1415426 ], [ -3.7784792, 39.1415993 ], [ -3.7796536, 39.1442136 ], [ -3.7864095, 39.1585947 ], [ -3.7875836, 39.1611279 ], [ -3.7903786, 39.1667948 ], [ -3.7904024, 39.1668487 ], [ -3.8016337, 39.1905787 ], [ -3.8025673, 39.1922393 ], [ -3.8079731, 39.2037491 ], [ -3.8080203, 39.2038496 ] ] ] } },
{ "type": "Feature", "properties": { "CCAA": "08 - Castilla-La Mancha", "PROVINCIA": "13 - Ciudad Real", "MUNICIPIO": "13052 - Malagón", "COD_MUNICIPIO": "13052", "DISTRITO": "02", "SECCION": "1305202002", "V1_H": 79.85, "V1_M": 85.78, "V2_H": 79.86035794, "V2_M": 85.76242541000001, "V3_H": 79.99500792000001, "V3_M": 85.93655133 }, "geometry": { "type": "Polygon", "coordinates": [ [ [ -3.8538311, 39.1689866 ], [ -3.8538479, 39.1689996 ], [ -3.8538526, 39.169002 ], [ -3.8539748, 39.1690982 ], [ -3.8541408, 39.1692265 ], [ -3.854261, 39.1693199 ], [ -3.8543324, 39.1692767 ], [ -3.8544331, 39.1693186 ], [ -3.8547466, 39.1694458 ], [ -3.8548169, 39.1694762 ], [ -3.8549309, 39.1695225 ], [ -3.8550771, 39.1695758 ], [ -3.8551264, 39.1695887 ], [ -3.8551606, 39.1695958 ], [ -3.8552971, 39.1696302 ], [ -3.8554146, 39.1696573 ], [ -3.8554037, 39.1696868 ], [ -3.8554871, 39.1697068 ], [ -3.8556087, 39.1697589 ], [ -3.8558345, 39.1698264 ], [ -3.8561003, 39.1699113 ], [ -3.8565634, 39.170058 ], [ -3.8566601, 39.1700867 ], [ -3.8566937, 39.1700497 ], [ -3.8567905, 39.1700813 ], [ -3.8570241, 39.170162 ], [ -3.8571513, 39.1702067 ], [ -3.8575405, 39.1703407 ], [ -3.8578652, 39.1704517 ], [ -3.8580588, 39.1705179 ], [ -3.8581728, 39.1705583 ], [ -3.858224, 39.1705741 ], [ -3.8582711, 39.1704884 ], [ -3.8582716, 39.1704855 ], [ -3.8583079, 39.1704187 ], [ -3.8583454, 39.1703995 ], [ -3.8584808, 39.1700739 ], [ -3.8585436, 39.169939 ], [ -3.8586166, 39.1698108 ], [ -3.8588432, 39.1693943 ], [ -3.8593526, 39.1684121 ], [ -3.8594921, 39.1684517 ], [ -3.8597945, 39.1685486 ], [ -3.8598585, 39.1685707 ], [ -3.8599854, 39.1686293 ], [ -3.8599813, 39.1684926 ], [ -3.8603706, 39.167928 ], [ -3.8604828, 39.1675909 ], [ -3.8606265, 39.1671908 ], [ -3.8613498, 39.1658427 ], [ -3.8629352, 39.1640435 ], [ -3.8658852, 39.1611839 ], [ -3.8676989, 39.1592934 ], [ -3.86818, 39.1587537 ], [ -3.8681801, 39.1587536 ], [ -3.8681801, 39.1587536 ], [ -3.8687846, 39.1581579 ], [ -3.866991, 39.1571602 ], [ -3.8669884, 39.1571587 ], [ -3.8665592, 39.1575018 ], [ -3.8662331, 39.1577175 ], [ -3.8660686, 39.157852 ], [ -3.8659262, 39.1579691 ], [ -3.8657617, 39.1580983 ], [ -3.865582, 39.1582409 ], [ -3.8653904, 39.158393 ], [ -3.8652039, 39.158541 ], [ -3.8649851, 39.1587132 ], [ -3.8648138, 39.1588478 ], [ -3.8646731, 39.1589595 ], [ -3.8645289, 39.1590752 ], [ -3.8644204, 39.1591626 ], [ -3.8642187, 39.1593254 ], [ -3.8640576, 39.1594559 ], [ -3.8638948, 39.1595864 ], [ -3.8636828, 39.159756 ], [ -3.8635692, 39.1598421 ], [ -3.8634234, 39.1599605 ], [ -3.8632605, 39.160087 ], [ -3.8631401, 39.1601826 ], [ -3.8630248, 39.1602741 ], [ -3.8627959, 39.1604571 ], [ -3.8626911, 39.1605671 ], [ -3.8626321, 39.1606462 ], [ -3.8620945, 39.1607902 ], [ -3.8619976, 39.1608469 ], [ -3.8619314, 39.16089 ], [ -3.8619128, 39.1609128 ], [ -3.8618874, 39.1609343 ], [ -3.8617606, 39.1610726 ], [ -3.8616104, 39.161247 ], [ -3.8615344, 39.1613342 ], [ -3.8615074, 39.1613677 ], [ -3.8613689, 39.161522 ], [ -3.8612422, 39.1616616 ], [ -3.8611172, 39.1618038 ], [ -3.8609044, 39.1620467 ], [ -3.8608791, 39.1620775 ], [ -3.8608182, 39.1621433 ], [ -3.8607761, 39.1621943 ], [ -3.8607625, 39.1622037 ], [ -3.8606358, 39.1623433 ], [ -3.8605175, 39.1624734 ], [ -3.8602926, 39.1627057 ], [ -3.8601286, 39.1628789 ], [ -3.8599731, 39.1630507 ], [ -3.8598946, 39.1630686 ], [ -3.8596761, 39.1631248 ], [ -3.8595262, 39.1631899 ], [ -3.8591702, 39.1633405 ], [ -3.858918, 39.1634464 ], [ -3.8587426, 39.1635236 ], [ -3.8586864, 39.1635494 ], [ -3.8585775, 39.1636035 ], [ -3.8584652, 39.163663 ], [ -3.8583716, 39.163713 ], [ -3.8582576, 39.1637738 ], [ -3.8581607, 39.1638305 ], [ -3.8581047, 39.1638696 ], [ -3.8580521, 39.1639086 ], [ -3.857996, 39.163949 ], [ -3.8579536, 39.1639827 ], [ -3.8579265, 39.1640029 ], [ -3.8578348, 39.1640689 ], [ -3.8577686, 39.1641173 ], [ -3.8576855, 39.1641793 ], [ -3.8576498, 39.1642049 ], [ -3.8575937, 39.1642399 ], [ -3.8574595, 39.1643236 ], [ -3.8573065, 39.164414 ], [ -3.8571756, 39.1644909 ], [ -3.857099, 39.1645342 ], [ -3.8569273, 39.1646314 ], [ -3.8569175, 39.1646344 ], [ -3.8569113, 39.1646397 ], [ -3.8568243, 39.1646892 ], [ -3.8567729, 39.1647176 ], [ -3.8567721, 39.1647184 ], [ -3.8567056, 39.1647559 ], [ -3.8567052, 39.1647556 ], [ -3.8566499, 39.1647943 ], [ -3.8562542, 39.1650203 ], [ -3.8559453, 39.1651967 ], [ -3.8556919, 39.1653455 ], [ -3.855773, 39.165402 ], [ -3.8558929, 39.1654882 ], [ -3.8559139, 39.1654962 ], [ -3.8559631, 39.1655122 ], [ -3.8560935, 39.165601 ], [ -3.8563401, 39.1657625 ], [ -3.856406, 39.1658107 ], [ -3.8563218, 39.1660769 ], [ -3.8563196, 39.1660799 ], [ -3.8563141, 39.1661021 ], [ -3.8562997, 39.1661553 ], [ -3.8562534, 39.1662204 ], [ -3.8561411, 39.1663788 ], [ -3.8560829, 39.1664573 ], [ -3.856007, 39.16656 ], [ -3.8559242, 39.1666714 ], [ -3.8558374, 39.1667883 ], [ -3.8558177, 39.1668173 ], [ -3.8557851, 39.1668581 ], [ -3.8557397, 39.1669146 ], [ -3.8556983, 39.1669687 ], [ -3.8556568, 39.167019 ], [ -3.8556193, 39.1670707 ], [ -3.8555148, 39.167208 ], [ -3.8554674, 39.1672716 ], [ -3.8553935, 39.1673735 ], [ -3.8553403, 39.1674504 ], [ -3.8552629, 39.1675134 ], [ -3.8551887, 39.1675982 ], [ -3.8551442, 39.1676476 ], [ -3.8550602, 39.1677419 ], [ -3.8550068, 39.1678008 ], [ -3.8549217, 39.1678888 ], [ -3.854793, 39.1680224 ], [ -3.8546346, 39.1681866 ], [ -3.8544258, 39.1684058 ], [ -3.8543812, 39.1684498 ], [ -3.8543139, 39.1685166 ], [ -3.8542257, 39.1686031 ], [ -3.8541624, 39.1686659 ], [ -3.8541257, 39.1687021 ], [ -3.8540881, 39.1687383 ], [ -3.8540199, 39.1688064 ], [ -3.8539686, 39.1688555 ], [ -3.8539045, 39.1689183 ], [ -3.8538772, 39.1689444 ], [ -3.853877, 39.1689445 ], [ -3.8538771, 39.1689445 ], [ -3.8538448, 39.1689747 ], [ -3.8538405, 39.1689787 ], [ -3.8538311, 39.1689866 ] ] ] } },
{ "type": "Feature", "properties": { "CCAA": "08 - Castilla-La Mancha", "PROVINCIA": "13 - Ciudad Real", "MUNICIPIO": "13052 - Malagón", "COD_MUNICIPIO": "13052", "DISTRITO": "02", "SECCION": "1305202003", "V1_H": 79.19, "V1_M": 85.12, "V2_H": 79.38537767, "V2_M": 85.11224236, "V3_H": 79.115857, "V3_M": 85.3484756 }, "geometry": { "type": "Polygon", "coordinates": [ [ [ -3.8567052, 39.1647556 ], [ -3.8567056, 39.1647559 ], [ -3.8567721, 39.1647184 ], [ -3.8567729, 39.1647176 ], [ -3.8568243, 39.1646892 ], [ -3.8569113, 39.1646397 ], [ -3.8569175, 39.1646344 ], [ -3.8569273, 39.1646314 ], [ -3.857099, 39.1645342 ], [ -3.8571756, 39.1644909 ], [ -3.8573065, 39.164414 ], [ -3.8574595, 39.1643236 ], [ -3.8575937, 39.1642399 ], [ -3.8576498, 39.1642049 ], [ -3.8576855, 39.1641793 ], [ -3.8577686, 39.1641173 ], [ -3.8578348, 39.1640689 ], [ -3.8579265, 39.1640029 ], [ -3.8579536, 39.1639827 ], [ -3.857996, 39.163949 ], [ -3.8580521, 39.1639086 ], [ -3.8581047, 39.1638696 ], [ -3.8581607, 39.1638305 ], [ -3.8582576, 39.1637738 ], [ -3.8583716, 39.163713 ], [ -3.8584652, 39.163663 ], [ -3.8585775, 39.1636035 ], [ -3.8586864, 39.1635494 ], [ -3.8587426, 39.1635236 ], [ -3.858918, 39.1634464 ], [ -3.8591702, 39.1633405 ], [ -3.8595262, 39.1631899 ], [ -3.8596761, 39.1631248 ], [ -3.8598946, 39.1630686 ], [ -3.8599731, 39.1630507 ], [ -3.8601286, 39.1628789 ], [ -3.8602926, 39.1627057 ], [ -3.8605175, 39.1624734 ], [ -3.8606358, 39.1623433 ], [ -3.8607625, 39.1622037 ], [ -3.8607761, 39.1621943 ], [ -3.8608182, 39.1621433 ], [ -3.8608791, 39.1620775 ], [ -3.8609044, 39.1620467 ], [ -3.8611172, 39.1618038 ], [ -3.8612422, 39.1616616 ], [ -3.8613689, 39.161522 ], [ -3.8615074, 39.1613677 ], [ -3.8615344, 39.1613342 ], [ -3.8616104, 39.161247 ], [ -3.8617606, 39.1610726 ], [ -3.8618874, 39.1609343 ], [ -3.8619128, 39.1609128 ], [ -3.8619314, 39.16089 ], [ -3.8619976, 39.1608469 ], [ -3.8620945, 39.1607902 ], [ -3.8626321, 39.1606462 ], [ -3.8626911, 39.1605671 ], [ -3.8627959, 39.1604571 ], [ -3.8630248, 39.1602741 ], [ -3.8631401, 39.1601826 ], [ -3.8632605, 39.160087 ], [ -3.8634234, 39.1599605 ], [ -3.8635692, 39.1598421 ], [ -3.8636828, 39.159756 ], [ -3.8638948, 39.1595864 ], [ -3.8640576, 39.1594559 ], [ -3.8642187, 39.1593254 ], [ -3.8644204, 39.1591626 ], [ -3.8645289, 39.1590752 ], [ -3.8646731, 39.1589595 ], [ -3.8648138, 39.1588478 ], [ -3.8649851, 39.1587132 ], [ -3.8652039, 39.158541 ], [ -3.8653904, 39.158393 ], [ -3.865582, 39.1582409 ], [ -3.8657617, 39.1580983 ], [ -3.8659262, 39.1579691 ], [ -3.8660686, 39.157852 ], [ -3.8662331, 39.1577175 ], [ -3.8665592, 39.1575018 ], [ -3.8669884, 39.1571587 ], [ -3.866991, 39.1571602 ], [ -3.8674287, 39.1568047 ], [ -3.8680185, 39.1563309 ], [ -3.8706564, 39.1542192 ], [ -3.8711585, 39.1538207 ], [ -3.8716859, 39.1533971 ], [ -3.8720417, 39.1531097 ], [ -3.8723911, 39.1528223 ], [ -3.8727595, 39.1525197 ], [ -3.8730709, 39.1522676 ], [ -3.8734648, 39.1519498 ], [ -3.8738714, 39.151622 ], [ -3.8740682, 39.1514507 ], [ -3.8741634, 39.151365 ], [ -3.8745066, 39.1510927 ], [ -3.8750214, 39.1506941 ], [ -3.8756735, 39.1501988 ], [ -3.8753385, 39.1500587 ], [ -3.8744704, 39.1496957 ], [ -3.8725199, 39.1491877 ], [ -3.8691107, 39.1486275 ], [ -3.868008, 39.1483563 ], [ -3.8678216, 39.1482586 ], [ -3.8676703, 39.1481877 ], [ -3.8643762, 39.1475724 ], [ -3.8610003, 39.1468764 ], [ -3.8568591, 39.1460599 ], [ -3.854294, 39.1454209 ], [ -3.8532614, 39.1451942 ], [ -3.8495664, 39.1448968 ], [ -3.8478961, 39.1445666 ], [ -3.8328244, 39.1421521 ], [ -3.8304557, 39.1414571 ], [ -3.8278411, 39.1405205 ], [ -3.8261653, 39.1396944 ], [ -3.8249221, 39.1392617 ], [ -3.8247591, 39.1392056 ], [ -3.8252389, 39.1398732 ], [ -3.8256998, 39.140312 ], [ -3.8260865, 39.1405646 ], [ -3.8270185, 39.1409441 ], [ -3.8284094, 39.141588 ], [ -3.829173, 39.1419251 ], [ -3.8297942, 39.1423877 ], [ -3.8302329, 39.1427415 ], [ -3.8302346, 39.142744 ], [ -3.8302379, 39.1427489 ], [ -3.8304292, 39.1428823 ], [ -3.8305816, 39.1429858 ], [ -3.8310541, 39.1432671 ], [ -3.8316108, 39.1436866 ], [ -3.8326491, 39.1442583 ], [ -3.8332699, 39.1446897 ], [ -3.8338619, 39.1453891 ], [ -3.8342594, 39.145872 ], [ -3.834711, 39.1461926 ], [ -3.835267, 39.1465498 ], [ -3.8361334, 39.1467802 ], [ -3.8370985, 39.1472402 ], [ -3.8379693, 39.147838 ], [ -3.8386404, 39.1484683 ], [ -3.8391342, 39.1489692 ], [ -3.8394113, 39.1494093 ], [ -3.8397597, 39.1497866 ], [ -3.8408049, 39.1509248 ], [ -3.8412903, 39.1513884 ], [ -3.8419308, 39.1521185 ], [ -3.8419969, 39.1522986 ], [ -3.8422033, 39.1528389 ], [ -3.8423414, 39.1530247 ], [ -3.8427563, 39.153607 ], [ -3.8431365, 39.1539716 ], [ -3.8441036, 39.1545874 ], [ -3.8452244, 39.1553514 ], [ -3.8461263, 39.1558679 ], [ -3.8475772, 39.1568039 ], [ -3.8479517, 39.1573553 ], [ -3.8480721, 39.1576057 ], [ -3.8481017, 39.1576082 ], [ -3.8481024, 39.1576105 ], [ -3.8482154, 39.1580254 ], [ -3.848235, 39.1581122 ], [ -3.8482586, 39.1582402 ], [ -3.8482696, 39.1582962 ], [ -3.8482884, 39.1583946 ], [ -3.8483529, 39.1587387 ], [ -3.8483889, 39.1589262 ], [ -3.8484046, 39.159004 ], [ -3.8484502, 39.1592487 ], [ -3.8484736, 39.1593595 ], [ -3.8484845, 39.1594133 ], [ -3.8485091, 39.1595047 ], [ -3.848517, 39.1595493 ], [ -3.8485417, 39.1598926 ], [ -3.848558, 39.1601478 ], [ -3.8485706, 39.1603401 ], [ -3.8486038, 39.1604074 ], [ -3.8486117, 39.1604237 ], [ -3.848699, 39.1604038 ], [ -3.8487027, 39.1603949 ], [ -3.8489214, 39.160352 ], [ -3.8491931, 39.1602931 ], [ -3.8493258, 39.1602766 ], [ -3.8495976, 39.1602333 ], [ -3.8499357, 39.1601687 ], [ -3.8503596, 39.1600674 ], [ -3.8508963, 39.1599497 ], [ -3.8512848, 39.160268 ], [ -3.8513198, 39.1603052 ], [ -3.8514686, 39.1604298 ], [ -3.8516825, 39.16061 ], [ -3.8518011, 39.1606899 ], [ -3.8518603, 39.1607324 ], [ -3.8520241, 39.1608735 ], [ -3.8521912, 39.1610118 ], [ -3.8523026, 39.1610996 ], [ -3.8525013, 39.16127 ], [ -3.8527033, 39.1614376 ], [ -3.852947, 39.1616345 ], [ -3.8531942, 39.1618313 ], [ -3.8533022, 39.1619165 ], [ -3.8538177, 39.1623422 ], [ -3.8541625, 39.1626296 ], [ -3.8545387, 39.162941 ], [ -3.8550891, 39.1634014 ], [ -3.8553887, 39.1636488 ], [ -3.8559914, 39.1641571 ], [ -3.8565385, 39.1646202 ], [ -3.8567052, 39.1647556 ] ] ] } },
{ "type": "Feature", "properties": { "CCAA": "08 - Castilla-La Mancha", "PROVINCIA": "13 - Ciudad Real", "MUNICIPIO": "13052 - Malagón", "COD_MUNICIPIO": "13052", "DISTRITO": "01", "SECCION": "1305201002", "V1_H": 79.19, "V1_M": 85.12, "V2_H": 79.38537767, "V2_M": 85.11224236, "V3_H": 79.115857, "V3_M": 85.3484756 }, "geometry": { "type": "Polygon", "coordinates": [ [ [ -3.8530357, 39.1681591 ], [ -3.8530353, 39.1681585 ], [ -3.8529394, 39.1682214 ], [ -3.8527704, 39.1683317 ], [ -3.8525953, 39.1684462 ], [ -3.8524615, 39.1685322 ], [ -3.8523937, 39.1685768 ], [ -3.8523788, 39.168588 ], [ -3.8523411, 39.1686256 ], [ -3.8522964, 39.1686694 ], [ -3.852291, 39.1686694 ], [ -3.8522523, 39.1686904 ], [ -3.8521703, 39.1687331 ], [ -3.8519376, 39.168855 ], [ -3.851704, 39.1689775 ], [ -3.8514977, 39.1690854 ], [ -3.8513892, 39.169138 ], [ -3.851301, 39.1691793 ], [ -3.851076, 39.1692742 ], [ -3.8508942, 39.1693536 ], [ -3.8508042, 39.1693915 ], [ -3.850753, 39.1694133 ], [ -3.8506726, 39.1694394 ], [ -3.8504445, 39.1695081 ], [ -3.8501016, 39.1696072 ], [ -3.850068, 39.1696171 ], [ -3.8500087, 39.1696348 ], [ -3.8499221, 39.1696596 ], [ -3.8497408, 39.1697065 ], [ -3.8495259, 39.1697613 ], [ -3.8494508, 39.1697798 ], [ -3.8493588, 39.1698046 ], [ -3.8492926, 39.1698226 ], [ -3.8492926, 39.1698228 ], [ -3.8492184, 39.1698426 ], [ -3.8492552, 39.16986 ], [ -3.8482013, 39.1699455 ], [ -3.8477737, 39.1700439 ], [ -3.8448747, 39.1714478 ], [ -3.8439713, 39.1717214 ], [ -3.8429232, 39.1721772 ], [ -3.8419985, 39.1727179 ], [ -3.8441781, 39.1746667 ], [ -3.8456613, 39.1760996 ], [ -3.8457179, 39.176057 ], [ -3.8463571, 39.17565 ], [ -3.8471768, 39.1750313 ], [ -3.8481305, 39.1743311 ], [ -3.848643, 39.1739622 ], [ -3.8486398, 39.1739533 ], [ -3.8486415, 39.1739521 ], [ -3.8496009, 39.1732813 ], [ -3.8503879, 39.1727624 ], [ -3.8511635, 39.1722263 ], [ -3.851651, 39.1718836 ], [ -3.8516399, 39.1718741 ], [ -3.8516049, 39.1718515 ], [ -3.851519, 39.1717845 ], [ -3.85147, 39.1717922 ], [ -3.8513623, 39.1718003 ], [ -3.8514597, 39.1716987 ], [ -3.8514588, 39.1716963 ], [ -3.8514612, 39.1716951 ], [ -3.8515546, 39.1715958 ], [ -3.8516255, 39.1715202 ], [ -3.851687, 39.1714462 ], [ -3.8517615, 39.1713544 ], [ -3.8518566, 39.1712448 ], [ -3.8519294, 39.1711678 ], [ -3.85206, 39.1710182 ], [ -3.8521904, 39.1708553 ], [ -3.8523583, 39.1706686 ], [ -3.8524683, 39.1705427 ], [ -3.8525447, 39.1704451 ], [ -3.8526266, 39.17034 ], [ -3.852675, 39.1702778 ], [ -3.8527718, 39.1701535 ], [ -3.8528631, 39.1700424 ], [ -3.8529898, 39.1698899 ], [ -3.8530568, 39.1698011 ], [ -3.8531557, 39.16969 ], [ -3.8532601, 39.169573 ], [ -3.8533385, 39.1694885 ], [ -3.85343, 39.1693907 ], [ -3.8535234, 39.1692958 ], [ -3.8536093, 39.1692098 ], [ -3.8537008, 39.169115 ], [ -3.8537736, 39.1690394 ], [ -3.8537845, 39.1690299 ], [ -3.8537994, 39.1690134 ], [ -3.8538311, 39.1689866 ], [ -3.8538405, 39.1689787 ], [ -3.8538448, 39.1689747 ], [ -3.853822, 39.1689531 ], [ -3.8537843, 39.1689202 ], [ -3.8537278, 39.1688702 ], [ -3.8536157, 39.1687702 ], [ -3.853535, 39.1686983 ], [ -3.8534875, 39.1686552 ], [ -3.8534507, 39.1686202 ], [ -3.8534031, 39.1685715 ], [ -3.853342, 39.1685098 ], [ -3.8532899, 39.1684515 ], [ -3.8531892, 39.1683411 ], [ -3.8531101, 39.1682519 ], [ -3.8530741, 39.1682149 ], [ -3.8530357, 39.1681591 ] ] ] } },
{ "type": "Feature", "properties": { "CCAA": "08 - Castilla-La Mancha", "PROVINCIA": "13 - Ciudad Real", "MUNICIPIO": "13052 - Malagón", "COD_MUNICIPIO": "13052", "DISTRITO": "02", "SECCION": "1305202001", "V1_H": 79.78, "V1_M": 85.67, "V2_H": 79.78305357000001, "V2_M": 85.83721796, "V3_H": 80.07461692, "V3_M": 85.64972132 }, "geometry": { "type": "Polygon", "coordinates": [ [ [ -3.8530357, 39.1681591 ], [ -3.8530741, 39.1682149 ], [ -3.8531101, 39.1682519 ], [ -3.8531892, 39.1683411 ], [ -3.8532899, 39.1684515 ], [ -3.853342, 39.1685098 ], [ -3.8534031, 39.1685715 ], [ -3.8534507, 39.1686202 ], [ -3.8534875, 39.1686552 ], [ -3.853535, 39.1686983 ], [ -3.8536157, 39.1687702 ], [ -3.8537278, 39.1688702 ], [ -3.8537843, 39.1689202 ], [ -3.853822, 39.1689531 ], [ -3.8538448, 39.1689747 ], [ -3.8538771, 39.1689445 ], [ -3.853877, 39.1689445 ], [ -3.8538772, 39.1689444 ], [ -3.8539045, 39.1689183 ], [ -3.8539686, 39.1688555 ], [ -3.8540199, 39.1688064 ], [ -3.8540881, 39.1687383 ], [ -3.8541257, 39.1687021 ], [ -3.8541624, 39.1686659 ], [ -3.8542257, 39.1686031 ], [ -3.8543139, 39.1685166 ], [ -3.8543812, 39.1684498 ], [ -3.8544258, 39.1684058 ], [ -3.8546346, 39.1681866 ], [ -3.854793, 39.1680224 ], [ -3.8549217, 39.1678888 ], [ -3.8550068, 39.1678008 ], [ -3.8550602, 39.1677419 ], [ -3.8551442, 39.1676476 ], [ -3.8551887, 39.1675982 ], [ -3.8552629, 39.1675134 ], [ -3.8553403, 39.1674504 ], [ -3.8553935, 39.1673735 ], [ -3.8554674, 39.1672716 ], [ -3.8555148, 39.167208 ], [ -3.8556193, 39.1670707 ], [ -3.8556568, 39.167019 ], [ -3.8556983, 39.1669687 ], [ -3.8557397, 39.1669146 ], [ -3.8557851, 39.1668581 ], [ -3.8558177, 39.1668173 ], [ -3.8558374, 39.1667883 ], [ -3.8559242, 39.1666714 ], [ -3.856007, 39.16656 ], [ -3.8560829, 39.1664573 ], [ -3.8561411, 39.1663788 ], [ -3.8562534, 39.1662204 ], [ -3.8562997, 39.1661553 ], [ -3.8563141, 39.1661021 ], [ -3.8563196, 39.1660799 ], [ -3.8563218, 39.1660769 ], [ -3.856406, 39.1658107 ], [ -3.8563401, 39.1657625 ], [ -3.8560935, 39.165601 ], [ -3.8559631, 39.1655122 ], [ -3.8559139, 39.1654962 ], [ -3.8558929, 39.1654882 ], [ -3.855773, 39.165402 ], [ -3.8556919, 39.1653455 ], [ -3.8559453, 39.1651967 ], [ -3.8562542, 39.1650203 ], [ -3.8566499, 39.1647943 ], [ -3.8567052, 39.1647556 ], [ -3.8565385, 39.1646202 ], [ -3.8559914, 39.1641571 ], [ -3.8553887, 39.1636488 ], [ -3.8550891, 39.1634014 ], [ -3.8545387, 39.162941 ], [ -3.8541625, 39.1626296 ], [ -3.8538177, 39.1623422 ], [ -3.8533022, 39.1619165 ], [ -3.8531942, 39.1618313 ], [ -3.852947, 39.1616345 ], [ -3.8527033, 39.1614376 ], [ -3.8525013, 39.16127 ], [ -3.8523026, 39.1610996 ], [ -3.8521912, 39.1610118 ], [ -3.8520241, 39.1608735 ], [ -3.8518603, 39.1607324 ], [ -3.8518011, 39.1606899 ], [ -3.8516825, 39.16061 ], [ -3.8514686, 39.1604298 ], [ -3.8513198, 39.1603052 ], [ -3.8512848, 39.160268 ], [ -3.8508963, 39.1599497 ], [ -3.8503596, 39.1600674 ], [ -3.8499357, 39.1601687 ], [ -3.8495976, 39.1602333 ], [ -3.8493258, 39.1602766 ], [ -3.8491931, 39.1602931 ], [ -3.8489214, 39.160352 ], [ -3.8487027, 39.1603949 ], [ -3.848699, 39.1604038 ], [ -3.8486117, 39.1604237 ], [ -3.8486792, 39.1605625 ], [ -3.848741, 39.1606903 ], [ -3.8487773, 39.1607713 ], [ -3.848809, 39.1608364 ], [ -3.8488769, 39.1609801 ], [ -3.8489508, 39.161133 ], [ -3.8489931, 39.1612277 ], [ -3.8490909, 39.1614079 ], [ -3.8491946, 39.1615984 ], [ -3.8492308, 39.1616748 ], [ -3.8492777, 39.1617787 ], [ -3.8493142, 39.1618837 ], [ -3.8493586, 39.16203 ], [ -3.8493682, 39.1620871 ], [ -3.8494047, 39.1623136 ], [ -3.8494412, 39.1625377 ], [ -3.8494604, 39.1626624 ], [ -3.8494746, 39.1627436 ], [ -3.8494867, 39.1627767 ], [ -3.8495309, 39.1629 ], [ -3.8495721, 39.1630222 ], [ -3.8496312, 39.1631741 ], [ -3.8496812, 39.1632951 ], [ -3.8497357, 39.1634252 ], [ -3.8497949, 39.1635736 ], [ -3.8498602, 39.1637471 ], [ -3.8499058, 39.163867 ], [ -3.8499286, 39.1639298 ], [ -3.850003, 39.1641239 ], [ -3.8500197, 39.1641696 ], [ -3.8501255, 39.1644058 ], [ -3.8501966, 39.1645668 ], [ -3.8502479, 39.1646752 ], [ -3.8503078, 39.1647675 ], [ -3.8503828, 39.1648837 ], [ -3.8503947, 39.1648973 ], [ -3.8504098, 39.1649259 ], [ -3.8504202, 39.1649372 ], [ -3.8504948, 39.1650226 ], [ -3.8506469, 39.1651955 ], [ -3.8506842, 39.1652399 ], [ -3.8507975, 39.1653684 ], [ -3.8508613, 39.165416 ], [ -3.8509696, 39.1654965 ], [ -3.8510441, 39.1655738 ], [ -3.8512347, 39.1657682 ], [ -3.8512957, 39.1658285 ], [ -3.8513613, 39.1658967 ], [ -3.8514878, 39.1660251 ], [ -3.8515686, 39.1661356 ], [ -3.8516478, 39.1662438 ], [ -3.8518049, 39.1664625 ], [ -3.8518827, 39.1665718 ], [ -3.8519351, 39.1666447 ], [ -3.8520936, 39.1668611 ], [ -3.852264, 39.1670866 ], [ -3.8523626, 39.1672186 ], [ -3.8524045, 39.1672756 ], [ -3.8524001, 39.1672791 ], [ -3.8526335, 39.1676037 ], [ -3.8527053, 39.1677027 ], [ -3.8527561, 39.1677711 ], [ -3.8529476, 39.1680399 ], [ -3.8530358, 39.1681583 ], [ -3.8530358, 39.168159 ], [ -3.8530357, 39.1681591 ] ] ] } },
{ "type": "Feature", "properties": { "CCAA": "08 - Castilla-La Mancha", "PROVINCIA": "13 - Ciudad Real", "MUNICIPIO": "13052 - Malagón", "COD_MUNICIPIO": "13052", "DISTRITO": "01", "SECCION": "1305201001", "V1_H": 79.47, "V1_M": 85.31, "V2_H": 79.34656828, "V2_M": 85.44731594, "V3_H": 79.76976452, "V3_M": 85.31663719 }, "geometry": { "type": "Polygon", "coordinates": [ [ [ -4.1314108, 39.3227419 ], [ -4.1315501, 39.3227496 ], [ -4.1333331, 39.3232458 ], [ -4.1353709, 39.3251543 ], [ -4.1364342, 39.3263423 ], [ -4.1364342, 39.3263423 ], [ -4.1451002, 39.3277531 ], [ -4.1492385, 39.3247028 ], [ -4.1489318, 39.3229759 ], [ -4.1486391, 39.3221048 ], [ -4.1484088, 39.3207915 ], [ -4.148548, 39.3200783 ], [ -4.1490305, 39.3183706 ], [ -4.1492648, 39.3170978 ], [ -4.1492309, 39.3164404 ], [ -4.1490708, 39.3158743 ], [ -4.1484411, 39.3149614 ], [ -4.1475921, 39.3141138 ], [ -4.1469356, 39.3136878 ], [ -4.1463399, 39.3134323 ], [ -4.1443164, 39.3131098 ], [ -4.1443163, 39.3131098 ], [ -4.1414436, 39.3129112 ], [ -4.1410069, 39.312881 ], [ -4.1392453, 39.3129703 ], [ -4.140612, 39.3107043 ], [ -4.1425914, 39.3076033 ], [ -4.1434256, 39.3061265 ], [ -4.1442086, 39.3050645 ], [ -4.1455697, 39.3038978 ], [ -4.1458091, 39.3036431 ], [ -4.1491369, 39.3000512 ], [ -4.1491369, 39.3000512 ], [ -4.149389, 39.2998685 ], [ -4.1529205, 39.2995273 ], [ -4.1534061, 39.2994375 ], [ -4.1550826, 39.2991274 ], [ -4.1555232, 39.2990294 ], [ -4.1567349, 39.2987596 ], [ -4.1611077, 39.299509 ], [ -4.1618742, 39.2995825 ], [ -4.1630109, 39.2995891 ], [ -4.1653594, 39.2992503 ], [ -4.1660873, 39.298387 ], [ -4.1668781, 39.2978205 ], [ -4.1693854, 39.2972727 ], [ -4.1719262, 39.2966435 ], [ -4.1729713, 39.2963229 ], [ -4.1757218, 39.295479 ], [ -4.175722, 39.2954789 ], [ -4.1746108, 39.2872726 ], [ -4.1744141, 39.285914 ], [ -4.1728605, 39.284524 ], [ -4.1694712, 39.2801159 ], [ -4.1679165, 39.277951 ], [ -4.1671238, 39.2769948 ], [ -4.1426576, 39.2738583 ], [ -4.1388469, 39.2676153 ], [ -4.1392947, 39.2587626 ], [ -4.1393208, 39.2582217 ], [ -4.1392549, 39.2577358 ], [ -4.1390634, 39.2573592 ], [ -4.1388726, 39.2570277 ], [ -4.1384007, 39.2565097 ], [ -4.1379445, 39.2562528 ], [ -4.1340991, 39.2549658 ], [ -4.1335399, 39.254782 ], [ -4.1324448, 39.2501071 ], [ -4.1294473, 39.2373502 ], [ -4.1276068, 39.2309435 ], [ -4.1183171, 39.2223107 ], [ -4.117988, 39.2220075 ], [ -4.1175695, 39.2146138 ], [ -4.1113976, 39.2095818 ], [ -4.1099359, 39.2086947 ], [ -4.1049807, 39.2058583 ], [ -4.1053901, 39.1994659 ], [ -4.1075305, 39.196391 ], [ -4.1032487, 39.1921245 ], [ -4.1013636, 39.1848527 ], [ -4.092954, 39.1703976 ], [ -4.0926588, 39.1699384 ], [ -4.0921593, 39.1691615 ], [ -4.0907926, 39.1668586 ], [ -4.0907103, 39.1667782 ], [ -4.0903467, 39.1664663 ], [ -4.0878419, 39.1631647 ], [ -4.0861496, 39.1607476 ], [ -4.0824258, 39.1549072 ], [ -4.081817, 39.1536964 ], [ -4.0814117, 39.1529252 ], [ -4.0814451, 39.1528785 ], [ -4.0814451, 39.1528784 ], [ -4.0862152, 39.1461947 ], [ -4.08769, 39.1442796 ], [ -4.0886566, 39.1431713 ], [ -4.0893415, 39.1425702 ], [ -4.0900127, 39.141825 ], [ -4.0910843, 39.1407788 ], [ -4.0927743, 39.1393212 ], [ -4.0929894, 39.1390219 ], [ -4.0937513, 39.1366629 ], [ -4.0946202, 39.1344922 ], [ -4.0950396, 39.1339296 ], [ -4.0956472, 39.1335725 ], [ -4.0964382, 39.1316097 ], [ -4.0948387, 39.1314175 ], [ -4.0932131, 39.1310362 ], [ -4.0919042, 39.1309314 ], [ -4.0869417, 39.1302298 ], [ -4.084397, 39.1272439 ], [ -4.082311, 39.1277679 ], [ -4.0807879, 39.1280253 ], [ -4.0795895, 39.1283337 ], [ -4.0782376, 39.1284454 ], [ -4.077762, 39.1283597 ], [ -4.077028, 39.128024 ], [ -4.0766072, 39.1277396 ], [ -4.0763229, 39.1273007 ], [ -4.0758298, 39.1275846 ], [ -4.0753721, 39.1279222 ], [ -4.0750559, 39.1284297 ], [ -4.0749347, 39.1288273 ], [ -4.0757417, 39.1301624 ], [ -4.0751664, 39.1318888 ], [ -4.0745491, 39.1323811 ], [ -4.070654, 39.1349309 ], [ -4.0668188, 39.1368583 ], [ -4.0663236, 39.137016 ], [ -4.0633301, 39.1372236 ], [ -4.0622941, 39.1375844 ], [ -4.0618934, 39.1378674 ], [ -4.0616322, 39.1381942 ], [ -4.0613707, 39.1392688 ], [ -4.0613706, 39.1392689 ], [ -4.0610324, 39.1398577 ], [ -4.0599482, 39.1400928 ], [ -4.0590269, 39.1403805 ], [ -4.0580275, 39.1408671 ], [ -4.0567732, 39.141329 ], [ -4.0559783, 39.1415615 ], [ -4.0546174, 39.1418622 ], [ -4.0528513, 39.1421484 ], [ -4.0522409, 39.1423432 ], [ -4.0511026, 39.142831 ], [ -4.0502084, 39.1433977 ], [ -4.0494614, 39.1437379 ], [ -4.0452365, 39.1444336 ], [ -4.0452365, 39.1444336 ], [ -4.0443126, 39.14455 ], [ -4.0426865, 39.144925 ], [ -4.0422229, 39.144875 ], [ -4.0416536, 39.144718 ], [ -4.0412246, 39.1446587 ], [ -4.0403342, 39.1447027 ], [ -4.0393764, 39.1448824 ], [ -4.03895, 39.1450034 ], [ -4.0373671, 39.1459546 ], [ -4.0361038, 39.1466146 ], [ -4.0350501, 39.1473538 ], [ -4.0344992, 39.1476651 ], [ -4.0332894, 39.1480272 ], [ -4.0309573, 39.1483993 ], [ -4.030265, 39.1485406 ], [ -4.030265, 39.1485406 ], [ -4.0289641, 39.1490026 ], [ -4.0284008, 39.1492599 ], [ -4.0277553, 39.1494368 ], [ -4.0274969, 39.149442 ], [ -4.0269802, 39.1494526 ], [ -4.026308, 39.1493566 ], [ -4.0260293, 39.1493168 ], [ -4.0260292, 39.1493168 ], [ -4.025081, 39.1493612 ], [ -4.024678, 39.1494999 ], [ -4.0240025, 39.1500014 ], [ -4.0235544, 39.1502306 ], [ -4.0227553, 39.1501835 ], [ -4.0215122, 39.149852 ], [ -4.0209685, 39.1498658 ], [ -4.0205405, 39.1498786 ], [ -4.0183682, 39.1501048 ], [ -4.0167512, 39.1503262 ], [ -4.0155026, 39.1504091 ], [ -4.0141606, 39.1504388 ], [ -4.0124175, 39.1507423 ], [ -4.0109308, 39.1511697 ], [ -4.0106422, 39.1511953 ], [ -4.01048, 39.1512097 ], [ -4.0102704, 39.1511546 ], [ -4.0100154, 39.1510876 ], [ -4.0098432, 39.1510003 ], [ -4.0097356, 39.1509458 ], [ -4.0095491, 39.1508573 ], [ -4.0092097, 39.1505899 ], [ -4.0086729, 39.1502792 ], [ -4.0083709, 39.1502007 ], [ -4.0080588, 39.1502214 ], [ -4.0076089, 39.1503244 ], [ -4.0071484, 39.1505045 ], [ -4.0066192, 39.1507114 ], [ -4.0065163, 39.1507238 ], [ -4.0064574, 39.1507309 ], [ -4.0051183, 39.1509587 ], [ -4.0049227, 39.1510414 ], [ -4.0036458, 39.1515841 ], [ -4.0025866, 39.1519716 ], [ -4.0015303, 39.1525574 ], [ -3.9997829, 39.1533834 ], [ -3.9990331, 39.153552 ], [ -3.9965798, 39.153573 ], [ -3.9942561, 39.153746 ], [ -3.9913212, 39.1540773 ], [ -3.9913211, 39.1540774 ], [ -3.9900279, 39.1542866 ], [ -3.9892196, 39.1544196 ], [ -3.9882471, 39.1543918 ], [ -3.9881762, 39.1543855 ], [ -3.987042, 39.1542849 ], [ -3.9851832, 39.1543306 ], [ -3.9842538, 39.1543535 ], [ -3.9812835, 39.1546398 ], [ -3.979812, 39.154517 ], [ -3.9785471, 39.1542664 ], [ -3.9782894, 39.1542211 ], [ -3.9781062, 39.1541889 ], [ -3.9775479, 39.1539864 ], [ -3.9769896, 39.1537838 ], [ -3.9765952, 39.153715 ], [ -3.9765951, 39.153715 ], [ -3.9757277, 39.1537493 ], [ -3.9757276, 39.1537493 ], [ -3.975393, 39.1538242 ], [ -3.9736625, 39.1542171 ], [ -3.9731082, 39.1543028 ], [ -3.9709864, 39.1548612 ], [ -3.9698091, 39.1550962 ], [ -3.9682128, 39.1551546 ], [ -3.9682128, 39.1551546 ], [ -3.9666249, 39.1549785 ], [ -3.9666248, 39.1549785 ], [ -3.964885, 39.1546956 ], [ -3.964885, 39.1546956 ], [ -3.9637381, 39.154615 ], [ -3.9631134, 39.1546291 ], [ -3.9598588, 39.1552957 ], [ -3.957609, 39.1558188 ], [ -3.9541973, 39.156856 ], [ -3.9527191, 39.1570934 ], [ -3.9502548, 39.1571585 ], [ -3.9487949, 39.1570353 ], [ -3.9479267, 39.1570243 ], [ -3.9448156, 39.1571937 ], [ -3.942989, 39.1573437 ], [ -3.9387027, 39.1579099 ], [ -3.9377805, 39.1581876 ], [ -3.9374122, 39.1583438 ], [ -3.9366324, 39.1588907 ], [ -3.9359352, 39.1595541 ], [ -3.9353135, 39.1598599 ], [ -3.9351533, 39.1599388 ], [ -3.9351532, 39.1599388 ], [ -3.934732, 39.1600561 ], [ -3.9345536, 39.1601058 ], [ -3.9344351, 39.1600927 ], [ -3.9328845, 39.1599209 ], [ -3.9303621, 39.1599861 ], [ -3.9294244, 39.1599666 ], [ -3.9272912, 39.1596952 ], [ -3.925628, 39.1590777 ], [ -3.9251389, 39.1588473 ], [ -3.9240351, 39.1585226 ], [ -3.9235361, 39.1584184 ], [ -3.9226208, 39.1583446 ], [ -3.9226207, 39.1583446 ], [ -3.9187798, 39.158465 ], [ -3.9187798, 39.158465 ], [ -3.9167424, 39.158433 ], [ -3.9157237, 39.158417 ], [ -3.9146685, 39.1582676 ], [ -3.9136133, 39.1581182 ], [ -3.9135205, 39.1580988 ], [ -3.9126153, 39.1579097 ], [ -3.9108259, 39.157365 ], [ -3.9070952, 39.1561596 ], [ -3.9059208, 39.1557273 ], [ -3.9050498, 39.1554997 ], [ -3.9029628, 39.1552005 ], [ -3.8977841, 39.1547719 ], [ -3.897784, 39.1547719 ], [ -3.8933278, 39.1547341 ], [ -3.8914858, 39.154586 ], [ -3.889644, 39.1544559 ], [ -3.8880708, 39.1545219 ], [ -3.8865593, 39.1539567 ], [ -3.8854561, 39.1536712 ], [ -3.8842255, 39.1533527 ], [ -3.8841791, 39.153344 ], [ -3.8816468, 39.1525973 ], [ -3.8808098, 39.1522972 ], [ -3.8795196, 39.1518474 ], [ -3.8779395, 39.1513457 ], [ -3.8769721, 39.1508005 ], [ -3.8766458, 39.1506166 ], [ -3.8765875, 39.1505809 ], [ -3.8756735, 39.1501988 ], [ -3.8750214, 39.1506941 ], [ -3.8745066, 39.1510927 ], [ -3.8741634, 39.151365 ], [ -3.8740682, 39.1514507 ], [ -3.8738714, 39.151622 ], [ -3.8734648, 39.1519498 ], [ -3.8730709, 39.1522676 ], [ -3.8727595, 39.1525197 ], [ -3.8723911, 39.1528223 ], [ -3.8720417, 39.1531097 ], [ -3.8716859, 39.1533971 ], [ -3.8711585, 39.1538207 ], [ -3.8706564, 39.1542192 ], [ -3.8680185, 39.1563309 ], [ -3.8674287, 39.1568047 ], [ -3.866991, 39.1571602 ], [ -3.8687846, 39.1581579 ], [ -3.8681801, 39.1587536 ], [ -3.8681801, 39.1587536 ], [ -3.86818, 39.1587537 ], [ -3.8676989, 39.1592934 ], [ -3.8658852, 39.1611839 ], [ -3.8629352, 39.1640435 ], [ -3.8613498, 39.1658427 ], [ -3.8606265, 39.1671908 ], [ -3.8604828, 39.1675909 ], [ -3.8603706, 39.167928 ], [ -3.8599813, 39.1684926 ], [ -3.8599854, 39.1686293 ], [ -3.8598585, 39.1685707 ], [ -3.8597945, 39.1685486 ], [ -3.8594921, 39.1684517 ], [ -3.8593526, 39.1684121 ], [ -3.8588432, 39.1693943 ], [ -3.8586166, 39.1698108 ], [ -3.8585436, 39.169939 ], [ -3.8584808, 39.1700739 ], [ -3.8583454, 39.1703995 ], [ -3.8583079, 39.1704187 ], [ -3.8582716, 39.1704855 ], [ -3.8582711, 39.1704884 ], [ -3.858224, 39.1705741 ], [ -3.8581728, 39.1705583 ], [ -3.8580588, 39.1705179 ], [ -3.8578652, 39.1704517 ], [ -3.8575405, 39.1703407 ], [ -3.8571513, 39.1702067 ], [ -3.8570241, 39.170162 ], [ -3.8567905, 39.1700813 ], [ -3.8566937, 39.1700497 ], [ -3.8566601, 39.1700867 ], [ -3.8565634, 39.170058 ], [ -3.8561003, 39.1699113 ], [ -3.8558345, 39.1698264 ], [ -3.8556087, 39.1697589 ], [ -3.8554871, 39.1697068 ], [ -3.8554037, 39.1696868 ], [ -3.8554146, 39.1696573 ], [ -3.8552971, 39.1696302 ], [ -3.8551606, 39.1695958 ], [ -3.8551264, 39.1695887 ], [ -3.8550771, 39.1695758 ], [ -3.8549309, 39.1695225 ], [ -3.8548169, 39.1694762 ], [ -3.8547466, 39.1694458 ], [ -3.8544331, 39.1693186 ], [ -3.8543324, 39.1692767 ], [ -3.854261, 39.1693199 ], [ -3.8541408, 39.1692265 ], [ -3.8539748, 39.1690982 ], [ -3.8538526, 39.169002 ], [ -3.8538479, 39.1689996 ], [ -3.8538311, 39.1689866 ], [ -3.8537994, 39.1690134 ], [ -3.8537845, 39.1690299 ], [ -3.8537736, 39.1690394 ], [ -3.8537008, 39.169115 ], [ -3.8536093, 39.1692098 ], [ -3.8535234, 39.1692958 ], [ -3.85343, 39.1693907 ], [ -3.8533385, 39.1694885 ], [ -3.8532601, 39.169573 ], [ -3.8531557, 39.16969 ], [ -3.8530568, 39.1698011 ], [ -3.8529898, 39.1698899 ], [ -3.8528631, 39.1700424 ], [ -3.8527718, 39.1701535 ], [ -3.852675, 39.1702778 ], [ -3.8526266, 39.17034 ], [ -3.8525447, 39.1704451 ], [ -3.8524683, 39.1705427 ], [ -3.8523583, 39.1706686 ], [ -3.8521904, 39.1708553 ], [ -3.85206, 39.1710182 ], [ -3.8519294, 39.1711678 ], [ -3.8518566, 39.1712448 ], [ -3.8517615, 39.1713544 ], [ -3.851687, 39.1714462 ], [ -3.8516255, 39.1715202 ], [ -3.8515546, 39.1715958 ], [ -3.8514612, 39.1716951 ], [ -3.8514588, 39.1716963 ], [ -3.8514597, 39.1716987 ], [ -3.8513623, 39.1718003 ], [ -3.85147, 39.1717922 ], [ -3.851519, 39.1717845 ], [ -3.8516049, 39.1718515 ], [ -3.8516399, 39.1718741 ], [ -3.851651, 39.1718836 ], [ -3.8511635, 39.1722263 ], [ -3.8503879, 39.1727624 ], [ -3.8496009, 39.1732813 ], [ -3.8486415, 39.1739521 ], [ -3.8486398, 39.1739533 ], [ -3.848643, 39.1739622 ], [ -3.8481305, 39.1743311 ], [ -3.8471768, 39.1750313 ], [ -3.8463571, 39.17565 ], [ -3.8457179, 39.176057 ], [ -3.8456613, 39.1760996 ], [ -3.8447433, 39.1767917 ], [ -3.8446689, 39.1768786 ], [ -3.8445245, 39.1770104 ], [ -3.8442545, 39.1772267 ], [ -3.84398, 39.177419 ], [ -3.8436085, 39.1777136 ], [ -3.8431397, 39.1782326 ], [ -3.8429693, 39.178623 ], [ -3.8429346, 39.1792883 ], [ -3.8429286, 39.1794016 ], [ -3.8428652, 39.180281 ], [ -3.8428535, 39.1804432 ], [ -3.84273, 39.1808978 ], [ -3.8427243, 39.1808834 ], [ -3.8426419, 39.1809877 ], [ -3.8424583, 39.1811909 ], [ -3.842201, 39.1813611 ], [ -3.8408121, 39.1822341 ], [ -3.8387014, 39.1836926 ], [ -3.8367107, 39.18502 ], [ -3.8340559, 39.1867662 ], [ -3.8339895, 39.1868104 ], [ -3.8337481, 39.1870073 ], [ -3.8332483, 39.1873462 ], [ -3.8330317, 39.1874989 ], [ -3.8328451, 39.1876277 ], [ -3.8322852, 39.1880143 ], [ -3.8317254, 39.1884056 ], [ -3.8312799, 39.188711 ], [ -3.8307984, 39.1890545 ], [ -3.8305093, 39.1892408 ], [ -3.8301536, 39.1894464 ], [ -3.8298039, 39.1896378 ], [ -3.8295416, 39.189773 ], [ -3.8252925, 39.1926253 ], [ -3.8218229, 39.1949449 ], [ -3.8203737, 39.1958663 ], [ -3.8200185, 39.1961225 ], [ -3.8197624, 39.1962889 ], [ -3.8194889, 39.1964705 ], [ -3.8190012, 39.1967984 ], [ -3.8185947, 39.1970737 ], [ -3.8183139, 39.1972611 ], [ -3.8180848, 39.1974192 ], [ -3.817767, 39.19763 ], [ -3.8173827, 39.1978877 ], [ -3.8169171, 39.1982039 ], [ -3.8163036, 39.1986081 ], [ -3.8158527, 39.1989068 ], [ -3.8152467, 39.1993168 ], [ -3.8147588, 39.1996331 ], [ -3.8142488, 39.1999728 ], [ -3.8136723, 39.2003593 ], [ -3.8131696, 39.2006932 ], [ -3.812534, 39.2011207 ], [ -3.8115804, 39.2017474 ], [ -3.8110407, 39.2021047 ], [ -3.8096215, 39.2030534 ], [ -3.8086236, 39.203721 ], [ -3.8081182, 39.2040579 ], [ -3.80849, 39.2048495 ], [ -3.8110546, 39.2103193 ], [ -3.8172062, 39.2234231 ], [ -3.8219583, 39.2335628 ], [ -3.8379345, 39.2353954 ], [ -3.854283, 39.2372861 ], [ -3.8567201, 39.2376106 ], [ -3.8640636, 39.2383404 ], [ -3.8722084, 39.2391988 ], [ -3.8735659, 39.2393418 ], [ -3.8778239, 39.2397874 ], [ -3.878323, 39.2398467 ], [ -3.8809872, 39.2388534 ], [ -3.8847586, 39.2374553 ], [ -3.8870985, 39.2364823 ], [ -3.887772, 39.2356752 ], [ -3.8889121, 39.2351259 ], [ -3.8905333, 39.2341314 ], [ -3.894203, 39.2347971 ], [ -3.8958271, 39.2349558 ], [ -3.8975309, 39.2349968 ], [ -3.9006111, 39.2348559 ], [ -3.9019184, 39.2347016 ], [ -3.9033038, 39.2343124 ], [ -3.9046997, 39.2374553 ], [ -3.909955, 39.2415413 ], [ -3.9119181, 39.2419134 ], [ -3.9157359, 39.2441182 ], [ -3.9174741, 39.2450056 ], [ -3.9182675, 39.2454228 ], [ -3.9193193, 39.2452073 ], [ -3.9197469, 39.2451228 ], [ -3.9201193, 39.245246 ], [ -3.9218729, 39.2464216 ], [ -3.9246866, 39.2480122 ], [ -3.9256927, 39.2487341 ], [ -3.9262884, 39.2490807 ], [ -3.9278034, 39.2497265 ], [ -3.9290486, 39.250122 ], [ -3.9307131, 39.2506764 ], [ -3.931308, 39.250969 ], [ -3.9327286, 39.2523453 ], [ -3.9332078, 39.2526479 ], [ -3.9414507, 39.2563299 ], [ -3.9420994, 39.2563067 ], [ -3.9431517, 39.256127 ], [ -3.9449282, 39.2563649 ], [ -3.9481578, 39.2569334 ], [ -3.9492524, 39.2573119 ], [ -3.9506355, 39.257598 ], [ -3.9515664, 39.2578697 ], [ -3.9520804, 39.257933 ], [ -3.9523906, 39.2579711 ], [ -3.9536069, 39.2579161 ], [ -3.954328, 39.2581084 ], [ -3.9568588, 39.2592591 ], [ -3.9607185, 39.2601104 ], [ -3.9632616, 39.2604678 ], [ -3.964646, 39.2608348 ], [ -3.9653576, 39.2611713 ], [ -3.9663463, 39.2614244 ], [ -3.9668223, 39.2614836 ], [ -3.9679231, 39.2614564 ], [ -3.9689061, 39.261295 ], [ -3.9696793, 39.2610544 ], [ -3.9708194, 39.2605132 ], [ -3.9712811, 39.2603742 ], [ -3.9719778, 39.2604675 ], [ -3.974758, 39.2620302 ], [ -3.9755045, 39.2623663 ], [ -3.9788676, 39.2633203 ], [ -3.9817989, 39.2640615 ], [ -3.9826118, 39.2641718 ], [ -3.9847206, 39.264118 ], [ -3.9846528, 39.2650737 ], [ -3.9847642, 39.2655773 ], [ -3.9850653, 39.2663858 ], [ -3.9853625, 39.2669149 ], [ -3.986223, 39.2679348 ], [ -3.9872661, 39.2687459 ], [ -3.9880006, 39.2690461 ], [ -3.9893979, 39.2694937 ], [ -3.9902373, 39.269829 ], [ -3.9913464, 39.2703872 ], [ -3.9930079, 39.2706614 ], [ -3.9950854, 39.2716529 ], [ -3.9953631, 39.2718124 ], [ -3.9955646, 39.2719281 ], [ -3.9957069, 39.2720705 ], [ -3.9960114, 39.2723749 ], [ -3.9971037, 39.2741946 ], [ -3.9973869, 39.2745436 ], [ -3.9978313, 39.2748192 ], [ -4.0005771, 39.2763274 ], [ -4.0020204, 39.2767295 ], [ -4.0020204, 39.2767295 ], [ -4.0037057, 39.2770304 ], [ -4.0041145, 39.2772431 ], [ -4.0053189, 39.2803954 ], [ -4.00569, 39.2812122 ], [ -4.0061646, 39.281974 ], [ -4.0068203, 39.2824189 ], [ -4.0084136, 39.2827655 ], [ -4.0121374, 39.2829044 ], [ -4.0157483, 39.2832604 ], [ -4.0157484, 39.2832604 ], [ -4.0173568, 39.2830392 ], [ -4.0209549, 39.284107 ], [ -4.0228182, 39.2846673 ], [ -4.0230815, 39.2845727 ], [ -4.0240523, 39.284224 ], [ -4.0252388, 39.2836909 ], [ -4.0269504, 39.2825946 ], [ -4.0277463, 39.2823082 ], [ -4.0305284, 39.2814817 ], [ -4.0311063, 39.2813685 ], [ -4.0332916, 39.2809617 ], [ -4.0348078, 39.280786 ], [ -4.0348079, 39.280786 ], [ -4.0355615, 39.2807883 ], [ -4.0367118, 39.2809583 ], [ -4.0384675, 39.2812941 ], [ -4.0389341, 39.2814882 ], [ -4.0393784, 39.2817455 ], [ -4.0408557, 39.2828496 ], [ -4.041355, 39.2836832 ], [ -4.0417387, 39.2853287 ], [ -4.0428901, 39.2855617 ], [ -4.0447442, 39.2878337 ], [ -4.045324, 39.2886124 ], [ -4.0460264, 39.2890657 ], [ -4.0476128, 39.2897002 ], [ -4.0496427, 39.2913038 ], [ -4.0496427, 39.2913038 ], [ -4.0500982, 39.291525 ], [ -4.0509728, 39.2918505 ], [ -4.0510563, 39.2918736 ], [ -4.0515084, 39.2919988 ], [ -4.0522873, 39.292127 ], [ -4.0546329, 39.292349 ], [ -4.0584332, 39.2929093 ], [ -4.061807, 39.2936355 ], [ -4.0627348, 39.2951768 ], [ -4.0629122, 39.2954094 ], [ -4.0631373, 39.2957228 ], [ -4.0636525, 39.2960515 ], [ -4.0646296, 39.2962498 ], [ -4.0661855, 39.2963797 ], [ -4.0685606, 39.2969977 ], [ -4.0698157, 39.2971754 ], [ -4.0713473, 39.2972334 ], [ -4.0724648, 39.2975115 ], [ -4.0748449, 39.2984447 ], [ -4.0801857, 39.29735 ], [ -4.0842253, 39.296853 ], [ -4.0848995, 39.2969548 ], [ -4.0860404, 39.2972415 ], [ -4.0886973, 39.2980818 ], [ -4.0907997, 39.2990443 ], [ -4.0931794, 39.2984453 ], [ -4.0947033, 39.2987463 ], [ -4.0955902, 39.2991536 ], [ -4.0985112, 39.3004945 ], [ -4.100075, 39.3018674 ], [ -4.100953, 39.3023817 ], [ -4.1038062, 39.3032942 ], [ -4.1047294, 39.3035894 ], [ -4.1062708, 39.3057283 ], [ -4.1068446, 39.3060743 ], [ -4.109731, 39.3074525 ], [ -4.1154289, 39.3098399 ], [ -4.1193111, 39.311821 ], [ -4.1196178, 39.3120426 ], [ -4.1198158, 39.3121856 ], [ -4.1200299, 39.3125259 ], [ -4.1202348, 39.3130105 ], [ -4.1202671, 39.3135778 ], [ -4.1202694, 39.313722 ], [ -4.1202694, 39.313722 ], [ -4.1204515, 39.3149547 ], [ -4.1204515, 39.3149547 ], [ -4.1207529, 39.3156726 ], [ -4.1212763, 39.3164876 ], [ -4.1216901, 39.3169791 ], [ -4.1216902, 39.3169792 ], [ -4.1227429, 39.3175277 ], [ -4.1242136, 39.3180991 ], [ -4.1244605, 39.318304 ], [ -4.1245499, 39.3188167 ], [ -4.1243951, 39.3200166 ], [ -4.1254083, 39.320989 ], [ -4.1259482, 39.322101 ], [ -4.1262796, 39.3225124 ], [ -4.1265965, 39.3227435 ], [ -4.1270391, 39.3228564 ], [ -4.1274567, 39.3228524 ], [ -4.1283697, 39.3226363 ], [ -4.1290439, 39.322539 ], [ -4.1302446, 39.3223658 ], [ -4.1314108, 39.3227419 ] ] ] } }
]
}
