{
"type": "FeatureCollection",
"name": "13064",
"features": [
{ "type": "Feature", "properties": { "CCAA": "08 - Castilla-La Mancha", "PROVINCIA": "13 - Ciudad Real", "MUNICIPIO": "13064 - Poblete", "COD_MUNICIPIO": "13064", "DISTRITO": "01", "SECCION": "1306401001", "V1_H": 80.3, "V1_M": 86.18, "V2_H": 80.25682951, "V2_M": 86.26310791, "V3_H": 80.49886239, "V3_M": 86.29802272000001 }, "geometry": { "type": "Polygon", "coordinates": [ [ [ -4.0259436, 38.8996148 ], [ -4.0251188, 38.9015955 ], [ -4.0248825, 38.9020031 ], [ -4.0237489, 38.9033736 ], [ -4.023569, 38.9036906 ], [ -4.0237422, 38.9045091 ], [ -4.0237734, 38.9050765 ], [ -4.0234116, 38.9063863 ], [ -4.0229557, 38.9067598 ], [ -4.0209638, 38.9077955 ], [ -4.0217212, 38.9083385 ], [ -4.0221939, 38.9083344 ], [ -4.0225994, 38.908457 ], [ -4.022904, 38.9087877 ], [ -4.023026, 38.9092552 ], [ -4.0229514, 38.9096794 ], [ -4.0226125, 38.910178 ], [ -4.0220643, 38.9105522 ], [ -4.0213865, 38.9107384 ], [ -4.0209607, 38.9108052 ], [ -4.0203508, 38.9109006 ], [ -4.018771, 38.9109234 ], [ -4.0183205, 38.9108733 ], [ -4.0187126, 38.9124829 ], [ -4.0166222, 38.9139068 ], [ -4.0148368, 38.9148865 ], [ -4.0136857, 38.9142387 ], [ -4.0130079, 38.9136138 ], [ -4.012397, 38.9128352 ], [ -4.0113264, 38.9113486 ], [ -4.0104776, 38.9116803 ], [ -4.0095656, 38.9124361 ], [ -4.0085186, 38.9134364 ], [ -4.0066453, 38.9155431 ], [ -4.0062493, 38.9160962 ], [ -4.0058233, 38.9161449 ], [ -4.0043468, 38.9161396 ], [ -4.0038787, 38.9164861 ], [ -4.0047595, 38.9167759 ], [ -4.0051768, 38.9169255 ], [ -4.0049423, 38.9174682 ], [ -4.0041116, 38.9174573 ], [ -4.0029902, 38.9172777 ], [ -4.0015003, 38.9171373 ], [ -4.0008298, 38.918675 ], [ -4.0005416, 38.9186864 ], [ -4.0000441, 38.9185825 ], [ -3.9994682, 38.9186416 ], [ -3.9987985, 38.9185932 ], [ -3.9981391, 38.9184547 ], [ -3.9973282, 38.9182093 ], [ -3.9967696, 38.9178536 ], [ -3.9966189, 38.9178008 ], [ -3.9935249, 38.9167819 ], [ -3.9931078, 38.9166503 ], [ -3.9915557, 38.9161859 ], [ -3.9916879, 38.9157342 ], [ -3.9916167, 38.9147616 ], [ -3.9920622, 38.9144514 ], [ -3.9923923, 38.9141332 ], [ -3.9921667, 38.9111885 ], [ -3.9911817, 38.9125125 ], [ -3.9898725, 38.9120911 ], [ -3.9896004, 38.9124268 ], [ -3.9881308, 38.9129078 ], [ -3.9877277, 38.9129563 ], [ -3.9869526, 38.9127826 ], [ -3.9859828, 38.9127187 ], [ -3.9854506, 38.912597 ], [ -3.9848732, 38.9125479 ], [ -3.9828459, 38.9127361 ], [ -3.9808395, 38.9144561 ], [ -3.9796014, 38.9158452 ], [ -3.9781956, 38.9167851 ], [ -3.9766184, 38.9178526 ], [ -3.976492, 38.9178897 ], [ -3.9737459, 38.9186696 ], [ -3.9717852, 38.9195329 ], [ -3.9710037, 38.9197467 ], [ -3.9700374, 38.9199349 ], [ -3.9690575, 38.9199791 ], [ -3.9672332, 38.9198501 ], [ -3.9666914, 38.9198726 ], [ -3.9570463, 38.923178 ], [ -3.9566664, 38.9240912 ], [ -3.9556829, 38.9255951 ], [ -3.9553423, 38.9260034 ], [ -3.9549445, 38.9273043 ], [ -3.9546508, 38.9277753 ], [ -3.9541511, 38.9283651 ], [ -3.9534789, 38.9289923 ], [ -3.9528726, 38.9293757 ], [ -3.9544364, 38.9298586 ], [ -3.9570514, 38.9304319 ], [ -3.9583228, 38.9306017 ], [ -3.9592251, 38.9307835 ], [ -3.9600242, 38.9310112 ], [ -3.9610334, 38.9314175 ], [ -3.9622838, 38.9317496 ], [ -3.9635423, 38.9318203 ], [ -3.9646521, 38.9319823 ], [ -3.9638308, 38.9335301 ], [ -3.9633538, 38.9340927 ], [ -3.963287, 38.9342645 ], [ -3.9627838, 38.935449 ], [ -3.9626325, 38.9362072 ], [ -3.9623782, 38.9370293 ], [ -3.9620075, 38.9377713 ], [ -3.9611173, 38.9393466 ], [ -3.9607817, 38.9401333 ], [ -3.9603319, 38.9418581 ], [ -3.960165, 38.9423191 ], [ -3.9597372, 38.9431065 ], [ -3.9593117, 38.9440742 ], [ -3.9587719, 38.945115 ], [ -3.9588664, 38.9452764 ], [ -3.9606798, 38.9462617 ], [ -3.9623442, 38.9473203 ], [ -3.9632645, 38.9479615 ], [ -3.9641279, 38.9486573 ], [ -3.9656405, 38.9495819 ], [ -3.9661503, 38.9497309 ], [ -3.9664641, 38.9498905 ], [ -3.966627, 38.9499883 ], [ -3.9671869, 38.9504342 ], [ -3.9669492, 38.9507695 ], [ -3.9662314, 38.9514513 ], [ -3.967076, 38.9516065 ], [ -3.9688404, 38.9515198 ], [ -3.9701428, 38.9514009 ], [ -3.9712685, 38.9510131 ], [ -3.9716033, 38.9510283 ], [ -3.9724365, 38.9511926 ], [ -3.9739343, 38.9510179 ], [ -3.974475, 38.9508963 ], [ -3.975613, 38.9514094 ], [ -3.9763895, 38.9516552 ], [ -3.9770832, 38.9517485 ], [ -3.9790394, 38.9521737 ], [ -3.979976, 38.95231 ], [ -3.9803941, 38.9525048 ], [ -3.9808372, 38.9528344 ], [ -3.9813595, 38.9530463 ], [ -3.9818911, 38.9531049 ], [ -3.9828524, 38.9541872 ], [ -3.9831907, 38.9544547 ], [ -3.9839335, 38.9547548 ], [ -3.984949, 38.9555843 ], [ -3.9856692, 38.9559206 ], [ -3.9867979, 38.9557489 ], [ -3.9872607, 38.9558351 ], [ -3.9884138, 38.9566003 ], [ -3.9889586, 38.9567669 ], [ -3.9895941, 38.9568246 ], [ -3.9902208, 38.9570715 ], [ -3.990521, 38.957078 ], [ -3.9909394, 38.9572907 ], [ -3.9916816, 38.9575458 ], [ -3.9922625, 38.9578202 ], [ -3.9933397, 38.9589284 ], [ -3.9937012, 38.9591956 ], [ -3.9939093, 38.9592209 ], [ -3.9950858, 38.9583458 ], [ -3.9943974, 38.956982 ], [ -3.9943949, 38.9568018 ], [ -3.9945771, 38.956629 ], [ -3.9949375, 38.9568152 ], [ -3.9954916, 38.9568285 ], [ -3.996336, 38.9569565 ], [ -3.9969983, 38.9572752 ], [ -3.9976511, 38.9577472 ], [ -3.9989823, 38.9572042 ], [ -4.0001272, 38.9565456 ], [ -4.0013092, 38.9560669 ], [ -4.0021447, 38.9563931 ], [ -4.003832, 38.9565588 ], [ -4.0043081, 38.956762 ], [ -4.0048288, 38.9568566 ], [ -4.0052903, 38.9568527 ], [ -4.0084952, 38.9574198 ], [ -4.0095462, 38.9574738 ], [ -4.0099251, 38.9573353 ], [ -4.0119753, 38.9554253 ], [ -4.0127353, 38.9544905 ], [ -4.0135598, 38.9540418 ], [ -4.014604, 38.9536183 ], [ -4.0155717, 38.9535017 ], [ -4.0184331, 38.9534588 ], [ -4.0193924, 38.9535585 ], [ -4.0209587, 38.9541396 ], [ -4.0214925, 38.9543421 ], [ -4.0216699, 38.9506191 ], [ -4.0217736, 38.9498071 ], [ -4.02214, 38.9488037 ], [ -4.0219597, 38.9483007 ], [ -4.0210913, 38.946488 ], [ -4.0203018, 38.9461435 ], [ -4.0199464, 38.9455068 ], [ -4.0201453, 38.9448923 ], [ -4.0200569, 38.9443614 ], [ -4.0197597, 38.9437513 ], [ -4.01982, 38.943129 ], [ -4.0198276, 38.9412366 ], [ -4.020158, 38.9393324 ], [ -4.0202176, 38.938665 ], [ -4.020034, 38.9379278 ], [ -4.0199417, 38.9363155 ], [ -4.0202984, 38.9354474 ], [ -4.0204845, 38.9347429 ], [ -4.0203946, 38.9341039 ], [ -4.0199572, 38.9333688 ], [ -4.0194774, 38.9328954 ], [ -4.018888, 38.9320174 ], [ -4.0185964, 38.9309927 ], [ -4.0179119, 38.9291064 ], [ -4.0176866, 38.9286758 ], [ -4.0177132, 38.9281169 ], [ -4.0179389, 38.9277635 ], [ -4.0184296, 38.9273897 ], [ -4.0185031, 38.9268844 ], [ -4.0183873, 38.9260474 ], [ -4.0188981, 38.9254663 ], [ -4.0198951, 38.924998 ], [ -4.0212287, 38.92468 ], [ -4.0223107, 38.9245173 ], [ -4.0247232, 38.9246223 ], [ -4.0260424, 38.9249081 ], [ -4.0272334, 38.9251049 ], [ -4.028306, 38.9250865 ], [ -4.0295591, 38.9247871 ], [ -4.0307423, 38.9244432 ], [ -4.0321613, 38.9236557 ], [ -4.0329551, 38.9219096 ], [ -4.0328562, 38.9214599 ], [ -4.0323974, 38.9208422 ], [ -4.031802, 38.9203518 ], [ -4.031217, 38.9197803 ], [ -4.0306867, 38.919001 ], [ -4.0304917, 38.9182818 ], [ -4.0306649, 38.9174964 ], [ -4.0310722, 38.9169521 ], [ -4.0316552, 38.9165865 ], [ -4.0324937, 38.9163358 ], [ -4.0351963, 38.9165822 ], [ -4.0372798, 38.9170864 ], [ -4.0384102, 38.9170853 ], [ -4.039058, 38.9172147 ], [ -4.0390151, 38.9190173 ], [ -4.0388423, 38.9198299 ], [ -4.0385674, 38.9207514 ], [ -4.0384282, 38.9214916 ], [ -4.0385142, 38.9218512 ], [ -4.0388611, 38.9226952 ], [ -4.0395496, 38.9248247 ], [ -4.0411725, 38.9261529 ], [ -4.0417057, 38.9263284 ], [ -4.042768, 38.926391 ], [ -4.0439496, 38.9267319 ], [ -4.0452744, 38.9273869 ], [ -4.0465462, 38.9283667 ], [ -4.0471609, 38.9285865 ], [ -4.0474641, 38.929593 ], [ -4.0477382, 38.9301943 ], [ -4.0483004, 38.9307659 ], [ -4.0484023, 38.9314138 ], [ -4.0489804, 38.9338506 ], [ -4.049186, 38.9344976 ], [ -4.0505281, 38.9339719 ], [ -4.0511152, 38.9338765 ], [ -4.051335, 38.9339196 ], [ -4.0517547, 38.9342131 ], [ -4.0516286, 38.9327094 ], [ -4.0516393, 38.9318713 ], [ -4.0514884, 38.9302417 ], [ -4.0520082, 38.9295071 ], [ -4.0524127, 38.9287735 ], [ -4.0526904, 38.9280502 ], [ -4.0514661, 38.9256012 ], [ -4.0508438, 38.9240839 ], [ -4.0504816, 38.9229878 ], [ -4.049809, 38.9196147 ], [ -4.0495519, 38.9178238 ], [ -4.0495389, 38.9177248 ], [ -4.0493663, 38.9169694 ], [ -4.0493635, 38.9167802 ], [ -4.0492999, 38.9148073 ], [ -4.0491289, 38.91416 ], [ -4.0490078, 38.9137736 ], [ -4.0491112, 38.9106099 ], [ -4.0494331, 38.9089669 ], [ -4.0489398, 38.9083676 ], [ -4.0484617, 38.9080115 ], [ -4.0473604, 38.9068409 ], [ -4.0466147, 38.9063249 ], [ -4.0450786, 38.9053835 ], [ -4.0440936, 38.9050589 ], [ -4.0417372, 38.9048006 ], [ -4.0397871, 38.9047279 ], [ -4.0381048, 38.9048329 ], [ -4.0375145, 38.904685 ], [ -4.0367871, 38.9046193 ], [ -4.0361856, 38.9044985 ], [ -4.034678, 38.9031332 ], [ -4.0340808, 38.9024987 ], [ -4.0337387, 38.90197 ], [ -4.0334224, 38.9016304 ], [ -4.0321141, 38.9012725 ], [ -4.0311979, 38.9009202 ], [ -4.0299809, 38.9004894 ], [ -4.0293178, 38.9000898 ], [ -4.0287693, 38.899635 ], [ -4.0282925, 38.8993598 ], [ -4.027912, 38.8993632 ], [ -4.0269246, 38.8996602 ], [ -4.0264523, 38.8997005 ], [ -4.0259436, 38.8996148 ] ] ] } }
]
}
