{
"type": "FeatureCollection",
"name": "13081",
"features": [
{ "type": "Feature", "properties": { "CCAA": "08 - Castilla-La Mancha", "PROVINCIA": "13 - Ciudad Real", "MUNICIPIO": "13081 - Terrinches", "COD_MUNICIPIO": "13081", "DISTRITO": "01", "SECCION": "1308101001", "V1_H": 78.55, "V1_M": 84.66, "V2_H": 78.61689556, "V2_M": 84.78747684, "V3_H": 78.67326671, "V3_M": 84.67928018000001 }, "geometry": { "type": "Polygon", "coordinates": [ [ [ -2.8085913, 38.5585311 ], [ -2.8086246, 38.5589547 ], [ -2.8090045, 38.5594185 ], [ -2.8099403, 38.560561 ], [ -2.8101116, 38.5609127 ], [ -2.8095481, 38.5613173 ], [ -2.8089989, 38.5615011 ], [ -2.8088243, 38.5615595 ], [ -2.8080887, 38.5619098 ], [ -2.8080887, 38.5619098 ], [ -2.8080189, 38.5622611 ], [ -2.808259, 38.562622 ], [ -2.8084883, 38.5627984 ], [ -2.8087287, 38.5629832 ], [ -2.8096342, 38.5634263 ], [ -2.8096343, 38.5634263 ], [ -2.8098169, 38.5637781 ], [ -2.8095823, 38.5656703 ], [ -2.8100176, 38.5659954 ], [ -2.8106017, 38.566528 ], [ -2.8109215, 38.5671143 ], [ -2.8109109, 38.5672582 ], [ -2.8108381, 38.5682497 ], [ -2.811055, 38.5687187 ], [ -2.8130486, 38.5701819 ], [ -2.815659, 38.5728536 ], [ -2.8161052, 38.5734581 ], [ -2.8162757, 38.5741433 ], [ -2.8162848, 38.5750535 ], [ -2.8161895, 38.5764142 ], [ -2.8166922, 38.5773432 ], [ -2.8165978, 38.5783704 ], [ -2.8163999, 38.5794425 ], [ -2.8168892, 38.5811286 ], [ -2.8166923, 38.5817951 ], [ -2.8161731, 38.5827676 ], [ -2.8153318, 38.5839919 ], [ -2.815756, 38.5842179 ], [ -2.8171884, 38.5853557 ], [ -2.8173821, 38.5859418 ], [ -2.8174834, 38.586735 ], [ -2.8172062, 38.5873474 ], [ -2.8166875, 38.5881306 ], [ -2.8166164, 38.5889866 ], [ -2.8160951, 38.5907522 ], [ -2.8160004, 38.5918785 ], [ -2.816143, 38.5944562 ], [ -2.8167147, 38.5954213 ], [ -2.8167147, 38.5954214 ], [ -2.8173902, 38.5962245 ], [ -2.8183752, 38.5972714 ], [ -2.8195785, 38.5982105 ], [ -2.8195785, 38.5982105 ], [ -2.8206327, 38.5991584 ], [ -2.8205595, 38.6008435 ], [ -2.8190504, 38.6026887 ], [ -2.8188993, 38.6034004 ], [ -2.8189773, 38.6043287 ], [ -2.820187, 38.6074127 ], [ -2.8198303, 38.6076555 ], [ -2.8194501, 38.6081235 ], [ -2.8191728, 38.608763 ], [ -2.8190786, 38.609673 ], [ -2.8191907, 38.6107456 ], [ -2.8194184, 38.6115571 ], [ -2.8199104, 38.6122878 ], [ -2.8212389, 38.6138849 ], [ -2.8212389, 38.6138849 ], [ -2.8214993, 38.6142035 ], [ -2.821674, 38.6144173 ], [ -2.8222459, 38.6153915 ], [ -2.8227956, 38.6160772 ], [ -2.8249175, 38.6173421 ], [ -2.8252146, 38.6179644 ], [ -2.8255109, 38.6189651 ], [ -2.8260822, 38.6201826 ], [ -2.8265388, 38.6214179 ], [ -2.8284278, 38.6240792 ], [ -2.8293321, 38.6254323 ], [ -2.8304205, 38.6267226 ], [ -2.8313817, 38.6283011 ], [ -2.8323778, 38.6297806 ], [ -2.8324467, 38.6298565 ], [ -2.8333519, 38.6308543 ], [ -2.8348431, 38.6318567 ], [ -2.8348432, 38.6318568 ], [ -2.8363922, 38.6327421 ], [ -2.838412, 38.6337903 ], [ -2.839525, 38.6344227 ], [ -2.8395251, 38.6344227 ], [ -2.8395251, 38.6344227 ], [ -2.840237, 38.6346039 ], [ -2.840237, 38.6346039 ], [ -2.8428038, 38.6325707 ], [ -2.8458413, 38.6305471 ], [ -2.8458414, 38.6305471 ], [ -2.848534, 38.628631 ], [ -2.8507901, 38.6265522 ], [ -2.8511155, 38.6260669 ], [ -2.8511704, 38.6259849 ], [ -2.852588, 38.6238149 ], [ -2.8538323, 38.6220591 ], [ -2.854259, 38.6212666 ], [ -2.855184, 38.6203152 ], [ -2.8557555, 38.6197274 ], [ -2.8563261, 38.6192264 ], [ -2.8571594, 38.6184945 ], [ -2.8571595, 38.6184945 ], [ -2.8571711, 38.6184857 ], [ -2.8579993, 38.6178557 ], [ -2.8586318, 38.617505 ], [ -2.8592066, 38.6172804 ], [ -2.8592066, 38.6172804 ], [ -2.8598683, 38.6171422 ], [ -2.8604937, 38.6170116 ], [ -2.8620447, 38.6168512 ], [ -2.8620448, 38.6168512 ], [ -2.8637679, 38.6167901 ], [ -2.8670766, 38.6165506 ], [ -2.8670766, 38.6165506 ], [ -2.8686853, 38.6162551 ], [ -2.8686854, 38.6162551 ], [ -2.8702826, 38.6158964 ], [ -2.8702827, 38.6158964 ], [ -2.872259, 38.6155201 ], [ -2.8722591, 38.6155201 ], [ -2.8736383, 38.615098 ], [ -2.8736383, 38.615098 ], [ -2.8760282, 38.6147041 ], [ -2.8765689, 38.613946 ], [ -2.8775826, 38.6125248 ], [ -2.8780781, 38.6116332 ], [ -2.8801135, 38.6101843 ], [ -2.8806772, 38.6096713 ], [ -2.8809911, 38.609241 ], [ -2.881886, 38.6080143 ], [ -2.8822204, 38.6072216 ], [ -2.8827386, 38.606411 ], [ -2.8839118, 38.6053488 ], [ -2.8852228, 38.6043407 ], [ -2.8879585, 38.6028655 ], [ -2.8879586, 38.6028654 ], [ -2.8880505, 38.6027989 ], [ -2.8891658, 38.6019924 ], [ -2.8891658, 38.6019924 ], [ -2.8919009, 38.6008144 ], [ -2.8932688, 38.6000136 ], [ -2.8958663, 38.5985921 ], [ -2.8972799, 38.5979175 ], [ -2.8988655, 38.5973421 ], [ -2.8988655, 38.5973421 ], [ -2.8997075, 38.5971113 ], [ -2.9010942, 38.5967312 ], [ -2.9010942, 38.5967312 ], [ -2.9014848, 38.5965905 ], [ -2.901818, 38.5964704 ], [ -2.9022087, 38.5962545 ], [ -2.9026932, 38.5946958 ], [ -2.9027291, 38.5936775 ], [ -2.9024786, 38.5921272 ], [ -2.9021311, 38.591013 ], [ -2.9017926, 38.5899277 ], [ -2.9011391, 38.5892242 ], [ -2.9006748, 38.588611 ], [ -2.9004972, 38.5883765 ], [ -2.8998098, 38.5872945 ], [ -2.8990892, 38.5847097 ], [ -2.8990558, 38.5845902 ], [ -2.898426, 38.5834361 ], [ -2.8982542, 38.5831386 ], [ -2.8948851, 38.5787557 ], [ -2.8937282, 38.5769703 ], [ -2.8933502, 38.5763932 ], [ -2.8926405, 38.5750137 ], [ -2.8920342, 38.5735622 ], [ -2.8919773, 38.5732737 ], [ -2.8917377, 38.5722462 ], [ -2.8913604, 38.5712455 ], [ -2.8911086, 38.5707856 ], [ -2.8907765, 38.5702266 ], [ -2.8901015, 38.568757 ], [ -2.8893358, 38.5665483 ], [ -2.8887289, 38.5656555 ], [ -2.8881215, 38.5650692 ], [ -2.8881214, 38.5650691 ], [ -2.887652, 38.5642306 ], [ -2.8871951, 38.5628603 ], [ -2.8871967, 38.561887 ], [ -2.8863971, 38.559489 ], [ -2.886111, 38.558939 ], [ -2.8857099, 38.5585421 ], [ -2.8857099, 38.558542 ], [ -2.8820866, 38.5562944 ], [ -2.8801382, 38.5547153 ], [ -2.8781666, 38.5532443 ], [ -2.8766996, 38.5520531 ], [ -2.8759779, 38.5513134 ], [ -2.8753827, 38.5503665 ], [ -2.8746383, 38.5494735 ], [ -2.8737573, 38.5479765 ], [ -2.873139, 38.5472008 ], [ -2.8719355, 38.5464155 ], [ -2.8710418, 38.5455583 ], [ -2.8697804, 38.5450883 ], [ -2.8692648, 38.5447362 ], [ -2.8692646, 38.5447362 ], [ -2.8688184, 38.5440508 ], [ -2.8684062, 38.5435366 ], [ -2.8680738, 38.543338 ], [ -2.8676837, 38.5433105 ], [ -2.8668226, 38.5435889 ], [ -2.8668225, 38.543589 ], [ -2.8654448, 38.5439568 ], [ -2.8646874, 38.543983 ], [ -2.8646874, 38.543983 ], [ -2.8639994, 38.5437298 ], [ -2.862177, 38.5425742 ], [ -2.8607547, 38.542275 ], [ -2.8607547, 38.542275 ], [ -2.8606547, 38.5422546 ], [ -2.8603992, 38.5422025 ], [ -2.8603991, 38.5422025 ], [ -2.8598257, 38.5419859 ], [ -2.8592983, 38.5417867 ], [ -2.8581763, 38.5404966 ], [ -2.8565854, 38.5384489 ], [ -2.8562761, 38.5382051 ], [ -2.8558976, 38.5381326 ], [ -2.8558976, 38.5381326 ], [ -2.8542673, 38.5385992 ], [ -2.8520625, 38.5394345 ], [ -2.8499149, 38.5402969 ], [ -2.8488355, 38.5406831 ], [ -2.84724, 38.5408973 ], [ -2.8472399, 38.5408973 ], [ -2.8425227, 38.5414047 ], [ -2.8425226, 38.5414047 ], [ -2.8371962, 38.5423527 ], [ -2.8371961, 38.5423527 ], [ -2.8348541, 38.5428631 ], [ -2.8348541, 38.5428631 ], [ -2.8330173, 38.543212 ], [ -2.8322253, 38.5433009 ], [ -2.8322252, 38.5433009 ], [ -2.830068, 38.5432528 ], [ -2.830068, 38.5432528 ], [ -2.8261544, 38.5434633 ], [ -2.8218844, 38.5439706 ], [ -2.8218843, 38.5439706 ], [ -2.8185324, 38.544425 ], [ -2.8185324, 38.544425 ], [ -2.8129071, 38.5453264 ], [ -2.812907, 38.5453264 ], [ -2.8120924, 38.5453341 ], [ -2.8120923, 38.5453341 ], [ -2.8115533, 38.545189 ], [ -2.8098342, 38.5443301 ], [ -2.8086652, 38.5438325 ], [ -2.8087437, 38.5445176 ], [ -2.8086142, 38.5457069 ], [ -2.8086683, 38.5469597 ], [ -2.8089425, 38.5473837 ], [ -2.8090366, 38.5474202 ], [ -2.809573, 38.5476281 ], [ -2.810216, 38.547503 ], [ -2.8102161, 38.5475029 ], [ -2.8116747, 38.5470186 ], [ -2.8116748, 38.5470186 ], [ -2.8126389, 38.5469121 ], [ -2.812639, 38.5469121 ], [ -2.8132239, 38.5470752 ], [ -2.8133378, 38.5473818 ], [ -2.8130159, 38.5475796 ], [ -2.812166, 38.5478576 ], [ -2.8119473, 38.5481186 ], [ -2.8121302, 38.5483802 ], [ -2.8131739, 38.5485982 ], [ -2.813174, 38.5485982 ], [ -2.8134485, 38.5489591 ], [ -2.8129764, 38.5495802 ], [ -2.8131478, 38.5498238 ], [ -2.8139398, 38.5497529 ], [ -2.8139399, 38.5497529 ], [ -2.8142019, 38.5498146 ], [ -2.8143642, 38.5498527 ], [ -2.8143643, 38.5498528 ], [ -2.814398, 38.5501142 ], [ -2.8141845, 38.5503129 ], [ -2.8141564, 38.5503391 ], [ -2.8138704, 38.5504549 ], [ -2.813536, 38.5505905 ], [ -2.8133402, 38.5508424 ], [ -2.8135922, 38.5510321 ], [ -2.8135922, 38.5510321 ], [ -2.8135922, 38.5510321 ], [ -2.8137918, 38.5510875 ], [ -2.8139929, 38.5511432 ], [ -2.8141506, 38.5511869 ], [ -2.8141506, 38.551187 ], [ -2.8142459, 38.5512134 ], [ -2.814246, 38.5512134 ], [ -2.8141405, 38.5520423 ], [ -2.8136914, 38.5526094 ], [ -2.8135872, 38.5529787 ], [ -2.8137688, 38.553238 ], [ -2.8138273, 38.5533216 ], [ -2.8144915, 38.5538813 ], [ -2.8149949, 38.5544499 ], [ -2.8154753, 38.5550996 ], [ -2.8153481, 38.5554869 ], [ -2.8149802, 38.5557656 ], [ -2.8149801, 38.5557657 ], [ -2.8149219, 38.5557607 ], [ -2.8147891, 38.5557494 ], [ -2.8144408, 38.5557197 ], [ -2.8135918, 38.5555164 ], [ -2.812812, 38.5553296 ], [ -2.812192, 38.5554367 ], [ -2.8118119, 38.5559138 ], [ -2.811592, 38.5566254 ], [ -2.8114177, 38.5574542 ], [ -2.8109569, 38.5580843 ], [ -2.8104511, 38.5583809 ], [ -2.8088101, 38.5582881 ], [ -2.80881, 38.5582882 ], [ -2.8085913, 38.5585311 ] ] ] } }
]
}
