{
"type": "FeatureCollection",
"name": "14027",
"features": [
{ "type": "Feature", "properties": { "CCAA": "01 - Andalucía", "PROVINCIA": "14 - Córdoba", "MUNICIPIO": "14027 - Fernán-Núñez", "COD_MUNICIPIO": "14027", "DISTRITO": "01", "SECCION": "1402701001", "V1_H": 79.78, "V1_M": 85.67, "V2_H": 79.78305357000001, "V2_M": 85.83721796, "V3_H": 80.07461692, "V3_M": 85.64972132 }, "geometry": { "type": "Polygon", "coordinates": [ [ [ -4.6934471, 37.6903608 ], [ -4.6960098, 37.6914835 ], [ -4.6971621, 37.6904155 ], [ -4.6978931, 37.6898642 ], [ -4.6988706, 37.6892599 ], [ -4.6992975, 37.6889563 ], [ -4.7003123, 37.6886218 ], [ -4.7021887, 37.6880292 ], [ -4.7025258, 37.6878778 ], [ -4.7028867, 37.687404 ], [ -4.7038577, 37.6865023 ], [ -4.7044975, 37.6860266 ], [ -4.7054145, 37.6854952 ], [ -4.706275, 37.6851875 ], [ -4.7072629, 37.6850268 ], [ -4.7089577, 37.6846327 ], [ -4.7095126, 37.6845256 ], [ -4.710154, 37.684122 ], [ -4.7118596, 37.6828423 ], [ -4.7143262, 37.6809837 ], [ -4.7168857, 37.6791372 ], [ -4.7178292, 37.6784093 ], [ -4.7187074, 37.6775358 ], [ -4.718977, 37.6771376 ], [ -4.7194903, 37.6765646 ], [ -4.7196228, 37.6764523 ], [ -4.7197519, 37.6763175 ], [ -4.71983, 37.6762375 ], [ -4.7199831, 37.6760956 ], [ -4.72065, 37.675518 ], [ -4.7212057, 37.6750435 ], [ -4.7213254, 37.6749314 ], [ -4.7214164, 37.6748422 ], [ -4.7217208, 37.6744998 ], [ -4.7216814, 37.6741331 ], [ -4.7216916, 37.6739888 ], [ -4.7217332, 37.6737944 ], [ -4.7217714, 37.6737488 ], [ -4.7222, 37.6732356 ], [ -4.7224072, 37.6729554 ], [ -4.7227462, 37.6725404 ], [ -4.7226337, 37.6724677 ], [ -4.7228658, 37.6720723 ], [ -4.7230128, 37.6718381 ], [ -4.7231705, 37.6717795 ], [ -4.7232437, 37.6717604 ], [ -4.7233015, 37.671746 ], [ -4.7234166, 37.6717263 ], [ -4.7235467, 37.6716996 ], [ -4.723725, 37.6716903 ], [ -4.723894, 37.6717035 ], [ -4.7239975, 37.6717381 ], [ -4.7240223, 37.671749 ], [ -4.7240613, 37.6717664 ], [ -4.7241829, 37.671803 ], [ -4.724256, 37.6718064 ], [ -4.7242954, 37.6717968 ], [ -4.7243779, 37.6717438 ], [ -4.724394, 37.6717345 ], [ -4.7244406, 37.6716978 ], [ -4.7244761, 37.6716702 ], [ -4.7245564, 37.6715744 ], [ -4.7246292, 37.6714584 ], [ -4.7247125, 37.6713063 ], [ -4.7247434, 37.6712472 ], [ -4.7247661, 37.6712041 ], [ -4.7247914, 37.6711654 ], [ -4.7248611, 37.671054 ], [ -4.7249129, 37.6709947 ], [ -4.724925, 37.670981 ], [ -4.7250087, 37.6708761 ], [ -4.7250706, 37.6707964 ], [ -4.7253927, 37.6703996 ], [ -4.7254272, 37.6703563 ], [ -4.7257179, 37.6700457 ], [ -4.7255174, 37.6699539 ], [ -4.7252258, 37.6698771 ], [ -4.7251912, 37.6698686 ], [ -4.7249443, 37.6698069 ], [ -4.7249343, 37.6698048 ], [ -4.7247591, 37.669769 ], [ -4.7246413, 37.6697437 ], [ -4.7246794, 37.6696305 ], [ -4.724032, 37.6694597 ], [ -4.7240308, 37.6694594 ], [ -4.723974, 37.6694448 ], [ -4.7235187, 37.669323 ], [ -4.7229772, 37.66918 ], [ -4.7229469, 37.6691714 ], [ -4.7223544, 37.6690156 ], [ -4.7223109, 37.6690027 ], [ -4.7222986, 37.6689997 ], [ -4.7222849, 37.6689963 ], [ -4.7216053, 37.6688238 ], [ -4.7209602, 37.6686597 ], [ -4.7204562, 37.6685296 ], [ -4.7203596, 37.6684409 ], [ -4.7201327, 37.6682324 ], [ -4.7198336, 37.6680002 ], [ -4.7196838, 37.6679146 ], [ -4.7193872, 37.6677409 ], [ -4.7190077, 37.6675391 ], [ -4.718601, 37.667322 ], [ -4.7180268, 37.6669293 ], [ -4.7180104, 37.6669071 ], [ -4.7179475, 37.6668246 ], [ -4.7177837, 37.666649 ], [ -4.7176555, 37.6665112 ], [ -4.7174101, 37.6662444 ], [ -4.7171275, 37.6659375 ], [ -4.7170449, 37.6658442 ], [ -4.7168282, 37.6656017 ], [ -4.7166478, 37.6654308 ], [ -4.7164809, 37.6652913 ], [ -4.716334, 37.6651854 ], [ -4.7161348, 37.665044 ], [ -4.7159865, 37.6649313 ], [ -4.7158947, 37.6648515 ], [ -4.7158398, 37.6647915 ], [ -4.7157744, 37.6647046 ], [ -4.7156975, 37.6645773 ], [ -4.7156169, 37.6643531 ], [ -4.7156052, 37.664324 ], [ -4.715595, 37.6642994 ], [ -4.7155594, 37.664212 ], [ -4.7155318, 37.6641493 ], [ -4.7153603, 37.664118 ], [ -4.7150999, 37.6640429 ], [ -4.7149925, 37.6640062 ], [ -4.7148528, 37.6639587 ], [ -4.7146365, 37.6638717 ], [ -4.7143993, 37.6637558 ], [ -4.7141497, 37.6636242 ], [ -4.7138911, 37.6634387 ], [ -4.7138369, 37.6633922 ], [ -4.7136122, 37.6632039 ], [ -4.7132638, 37.6629071 ], [ -4.7131322, 37.6627873 ], [ -4.7130709, 37.6627296 ], [ -4.7129696, 37.6626365 ], [ -4.7128085, 37.6624834 ], [ -4.712656, 37.6623256 ], [ -4.7124669, 37.6621143 ], [ -4.7123764, 37.6620142 ], [ -4.7114803, 37.6610764 ], [ -4.7109302, 37.660199 ], [ -4.7107104, 37.6603033 ], [ -4.7097008, 37.6607823 ], [ -4.7085771, 37.6612132 ], [ -4.7077533, 37.6613783 ], [ -4.7068592, 37.6614453 ], [ -4.7060803, 37.6615918 ], [ -4.7051255, 37.6619751 ], [ -4.704041, 37.6626397 ], [ -4.7031395, 37.6633737 ], [ -4.7010957, 37.6657193 ], [ -4.7006715, 37.6665096 ], [ -4.7007107, 37.6667343 ], [ -4.7007134, 37.6668514 ], [ -4.700586, 37.6672317 ], [ -4.6997002, 37.6681638 ], [ -4.6972162, 37.6706058 ], [ -4.6935192, 37.6745613 ], [ -4.6955481, 37.6760282 ], [ -4.6973211, 37.6772103 ], [ -4.6975583, 37.6776665 ], [ -4.6979805, 37.6782823 ], [ -4.6981767, 37.6784327 ], [ -4.6990657, 37.6791318 ], [ -4.7018255, 37.6808134 ], [ -4.7021615, 37.6811239 ], [ -4.7020322, 37.6814232 ], [ -4.7017871, 37.681616 ], [ -4.7012475, 37.6818221 ], [ -4.6995337, 37.682748 ], [ -4.6981861, 37.6838218 ], [ -4.6966763, 37.6852495 ], [ -4.6935492, 37.6888633 ], [ -4.6927949, 37.6901088 ], [ -4.6934471, 37.6903608 ] ] ] } },
{ "type": "Feature", "properties": { "CCAA": "01 - Andalucía", "PROVINCIA": "14 - Córdoba", "MUNICIPIO": "14027 - Fernán-Núñez", "COD_MUNICIPIO": "14027", "DISTRITO": "02", "SECCION": "1402702001", "V1_H": 80.21, "V1_M": 86.35, "V2_H": 80.00126986, "V2_M": 86.33312861, "V3_H": 80.58114521, "V3_M": 86.56210486000001 }, "geometry": { "type": "Polygon", "coordinates": [ [ [ -4.7249129, 37.6709947 ], [ -4.7251711, 37.6711441 ], [ -4.7258265, 37.6715356 ], [ -4.7261137, 37.6717184 ], [ -4.7262625, 37.6718085 ], [ -4.7262726, 37.6718129 ], [ -4.7266333, 37.6720442 ], [ -4.7267765, 37.6721412 ], [ -4.7268373, 37.6721786 ], [ -4.7271006, 37.6723348 ], [ -4.7271979, 37.6723897 ], [ -4.7273757, 37.672493 ], [ -4.7275324, 37.6725876 ], [ -4.7278233, 37.6727726 ], [ -4.727918, 37.6727599 ], [ -4.7279828, 37.6726688 ], [ -4.7279942, 37.6725627 ], [ -4.7279854, 37.6721979 ], [ -4.7282228, 37.6717686 ], [ -4.7282697, 37.6716868 ], [ -4.7284537, 37.6713687 ], [ -4.7287269, 37.670896 ], [ -4.7291571, 37.6701642 ], [ -4.7293557, 37.6698233 ], [ -4.729368, 37.6698029 ], [ -4.7299324, 37.6688551 ], [ -4.7300526, 37.6686483 ], [ -4.7301902, 37.6684097 ], [ -4.7301371, 37.6683767 ], [ -4.7300029, 37.6683066 ], [ -4.7298236, 37.6682281 ], [ -4.7296955, 37.6681736 ], [ -4.7287767, 37.6677883 ], [ -4.7286193, 37.6677208 ], [ -4.7280442, 37.6674746 ], [ -4.7279916, 37.6674529 ], [ -4.7279702, 37.6674441 ], [ -4.7279327, 37.6674785 ], [ -4.7278977, 37.6675105 ], [ -4.7278443, 37.6675587 ], [ -4.7273211, 37.6680372 ], [ -4.7272317, 37.6681557 ], [ -4.7271695, 37.6682557 ], [ -4.7271409, 37.6683057 ], [ -4.7270669, 37.6684307 ], [ -4.7269282, 37.6686693 ], [ -4.7269197, 37.668683 ], [ -4.7268921, 37.6687307 ], [ -4.7263621, 37.6693287 ], [ -4.7257179, 37.6700457 ], [ -4.7254272, 37.6703563 ], [ -4.7253927, 37.6703996 ], [ -4.7250706, 37.6707964 ], [ -4.7250087, 37.6708761 ], [ -4.724925, 37.670981 ], [ -4.7249129, 37.6709947 ] ] ] } },
{ "type": "Feature", "properties": { "CCAA": "01 - Andalucía", "PROVINCIA": "14 - Córdoba", "MUNICIPIO": "14027 - Fernán-Núñez", "COD_MUNICIPIO": "14027", "DISTRITO": "02", "SECCION": "1402702002", "V1_H": 79.83, "V1_M": 85.66, "V2_H": 79.86201885, "V2_M": 85.75249, "V3_H": 79.86616026, "V3_M": 85.80070523000001 }, "geometry": { "type": "Polygon", "coordinates": [ [ [ -4.727918, 37.6727599 ], [ -4.7279928, 37.672885 ], [ -4.7280475, 37.6730734 ], [ -4.7281445, 37.6732522 ], [ -4.7282494, 37.6734107 ], [ -4.7283449, 37.6735241 ], [ -4.7286619, 37.6737336 ], [ -4.7291477, 37.6739472 ], [ -4.7293346, 37.6735885 ], [ -4.7297341, 37.6732605 ], [ -4.7301652, 37.6730874 ], [ -4.7307758, 37.6728644 ], [ -4.7309631, 37.6735466 ], [ -4.7311547, 37.6742738 ], [ -4.7315304, 37.6752709 ], [ -4.7348073, 37.6795846 ], [ -4.7356906, 37.6807071 ], [ -4.7365593, 37.6818569 ], [ -4.7370753, 37.6826018 ], [ -4.7374725, 37.683531 ], [ -4.737737, 37.6843112 ], [ -4.7381452, 37.685159 ], [ -4.7386004, 37.6857899 ], [ -4.7392776, 37.686778 ], [ -4.739839, 37.6875222 ], [ -4.7402497, 37.6879173 ], [ -4.7411837, 37.6885321 ], [ -4.7425248, 37.6893662 ], [ -4.7445844, 37.690478 ], [ -4.7472955, 37.6922921 ], [ -4.7498196, 37.6938589 ], [ -4.7516284, 37.694758 ], [ -4.7539764, 37.6954441 ], [ -4.7553557, 37.695712 ], [ -4.7569866, 37.6962037 ], [ -4.7590775, 37.6969543 ], [ -4.7598097, 37.697252 ], [ -4.7604661, 37.6976117 ], [ -4.7609289, 37.6984415 ], [ -4.7622158, 37.6969773 ], [ -4.763505, 37.6958586 ], [ -4.7666788, 37.6933868 ], [ -4.7682297, 37.6923091 ], [ -4.7698764, 37.6909686 ], [ -4.7705469, 37.690553 ], [ -4.7711869, 37.6902821 ], [ -4.7714879, 37.6900613 ], [ -4.7725269, 37.6879729 ], [ -4.7727622, 37.6873745 ], [ -4.7724115, 37.6864606 ], [ -4.771605, 37.6849676 ], [ -4.7703406, 37.6833014 ], [ -4.7703721, 37.6812822 ], [ -4.7705508, 37.6802161 ], [ -4.770523, 37.6795226 ], [ -4.7704437, 37.679046 ], [ -4.7656047, 37.6777307 ], [ -4.7612548, 37.676471 ], [ -4.7565437, 37.6752705 ], [ -4.7488123, 37.6734027 ], [ -4.7473631, 37.6730096 ], [ -4.7469739, 37.6728531 ], [ -4.7470845, 37.6722477 ], [ -4.7471311, 37.6713368 ], [ -4.7469133, 37.6697809 ], [ -4.7469076, 37.669051 ], [ -4.7470212, 37.668094 ], [ -4.7472645, 37.6673514 ], [ -4.747105, 37.666831 ], [ -4.7470654, 37.6667618 ], [ -4.7468329, 37.6663484 ], [ -4.7462963, 37.6647341 ], [ -4.7470571, 37.663335 ], [ -4.7463257, 37.6630845 ], [ -4.7453051, 37.6630725 ], [ -4.7442123, 37.6628814 ], [ -4.7423078, 37.6623959 ], [ -4.7423123, 37.6616207 ], [ -4.7419451, 37.6614279 ], [ -4.7406643, 37.6614378 ], [ -4.7393805, 37.6613216 ], [ -4.7379737, 37.6612702 ], [ -4.7366494, 37.6613618 ], [ -4.7341713, 37.6620472 ], [ -4.7329054, 37.66221 ], [ -4.7325761, 37.6621878 ], [ -4.7323351, 37.6620561 ], [ -4.7320444, 37.6612583 ], [ -4.7315593, 37.6603822 ], [ -4.7310815, 37.6598215 ], [ -4.7304817, 37.6593797 ], [ -4.729919, 37.6590635 ], [ -4.7290733, 37.6587695 ], [ -4.7290013, 37.6587525 ], [ -4.7262697, 37.6581256 ], [ -4.7240397, 37.6577708 ], [ -4.7233825, 37.6577804 ], [ -4.7221487, 37.6578615 ], [ -4.7201064, 37.6577831 ], [ -4.7184188, 37.6578438 ], [ -4.7175116, 37.6578299 ], [ -4.7166143, 37.6577529 ], [ -4.716004, 37.6578339 ], [ -4.7147293, 37.6586004 ], [ -4.7136646, 37.6591296 ], [ -4.7114727, 37.6599455 ], [ -4.7114054, 37.6599735 ], [ -4.7109302, 37.660199 ], [ -4.7114803, 37.6610764 ], [ -4.7123764, 37.6620142 ], [ -4.7124669, 37.6621143 ], [ -4.712656, 37.6623256 ], [ -4.7128085, 37.6624834 ], [ -4.7129696, 37.6626365 ], [ -4.7130709, 37.6627296 ], [ -4.7131322, 37.6627873 ], [ -4.7132638, 37.6629071 ], [ -4.7136122, 37.6632039 ], [ -4.7138369, 37.6633922 ], [ -4.7138911, 37.6634387 ], [ -4.7141497, 37.6636242 ], [ -4.7143993, 37.6637558 ], [ -4.7146365, 37.6638717 ], [ -4.7148528, 37.6639587 ], [ -4.7149925, 37.6640062 ], [ -4.7150999, 37.6640429 ], [ -4.7153603, 37.664118 ], [ -4.7155318, 37.6641493 ], [ -4.7187548, 37.6641722 ], [ -4.7202052, 37.6642187 ], [ -4.7209916, 37.6644933 ], [ -4.7222016, 37.6649871 ], [ -4.7224465, 37.6650827 ], [ -4.7224803, 37.6650951 ], [ -4.7225172, 37.6651087 ], [ -4.7233545, 37.6654344 ], [ -4.7251846, 37.6662277 ], [ -4.7256475, 37.6664192 ], [ -4.7256606, 37.6664247 ], [ -4.726676, 37.666848 ], [ -4.728005, 37.6674324 ], [ -4.7279916, 37.6674529 ], [ -4.7280442, 37.6674746 ], [ -4.7286193, 37.6677208 ], [ -4.7287767, 37.6677883 ], [ -4.7296955, 37.6681736 ], [ -4.7298236, 37.6682281 ], [ -4.7300029, 37.6683066 ], [ -4.7301371, 37.6683767 ], [ -4.7301902, 37.6684097 ], [ -4.7300526, 37.6686483 ], [ -4.7299324, 37.6688551 ], [ -4.729368, 37.6698029 ], [ -4.7293557, 37.6698233 ], [ -4.7291571, 37.6701642 ], [ -4.7287269, 37.670896 ], [ -4.7284537, 37.6713687 ], [ -4.7282697, 37.6716868 ], [ -4.7282228, 37.6717686 ], [ -4.7279854, 37.6721979 ], [ -4.7279942, 37.6725627 ], [ -4.7279828, 37.6726688 ], [ -4.727918, 37.6727599 ] ] ] } },
{ "type": "Feature", "properties": { "CCAA": "01 - Andalucía", "PROVINCIA": "14 - Córdoba", "MUNICIPIO": "14027 - Fernán-Núñez", "COD_MUNICIPIO": "14027", "DISTRITO": "01", "SECCION": "1402701002", "V1_H": 80.02, "V1_M": 86.02, "V2_H": 79.96138623, "V2_M": 86.18252023, "V3_H": 80.18726569, "V3_M": 86.15258899 }, "geometry": { "type": "Polygon", "coordinates": [ [ [ -4.7240308, 37.6694594 ], [ -4.724032, 37.6694597 ], [ -4.7246794, 37.6696305 ], [ -4.7246413, 37.6697437 ], [ -4.7247591, 37.669769 ], [ -4.7249343, 37.6698048 ], [ -4.7249443, 37.6698069 ], [ -4.7251912, 37.6698686 ], [ -4.7252258, 37.6698771 ], [ -4.7255174, 37.6699539 ], [ -4.7257179, 37.6700457 ], [ -4.7263621, 37.6693287 ], [ -4.7268921, 37.6687307 ], [ -4.7269197, 37.668683 ], [ -4.7269282, 37.6686693 ], [ -4.7270669, 37.6684307 ], [ -4.7271409, 37.6683057 ], [ -4.7271695, 37.6682557 ], [ -4.7272317, 37.6681557 ], [ -4.7273211, 37.6680372 ], [ -4.7278443, 37.6675587 ], [ -4.7278977, 37.6675105 ], [ -4.7279327, 37.6674785 ], [ -4.7279702, 37.6674441 ], [ -4.7279916, 37.6674529 ], [ -4.728005, 37.6674324 ], [ -4.726676, 37.666848 ], [ -4.7256606, 37.6664247 ], [ -4.7249689, 37.6675145 ], [ -4.7240308, 37.6694594 ] ] ] } },
{ "type": "Feature", "properties": { "CCAA": "01 - Andalucía", "PROVINCIA": "14 - Córdoba", "MUNICIPIO": "14027 - Fernán-Núñez", "COD_MUNICIPIO": "14027", "DISTRITO": "01", "SECCION": "1402701004", "V1_H": 80.02, "V1_M": 86.02, "V2_H": 79.96138623, "V2_M": 86.18252023, "V3_H": 80.18726569, "V3_M": 86.15258899 }, "geometry": { "type": "Polygon", "coordinates": [ [ [ -4.7224803, 37.6650951 ], [ -4.7224465, 37.6650827 ], [ -4.7222016, 37.6649871 ], [ -4.7209916, 37.6644933 ], [ -4.7202052, 37.6642187 ], [ -4.7187548, 37.6641722 ], [ -4.7155318, 37.6641493 ], [ -4.7155594, 37.664212 ], [ -4.715595, 37.6642994 ], [ -4.7156052, 37.664324 ], [ -4.7156169, 37.6643531 ], [ -4.7156975, 37.6645773 ], [ -4.7157744, 37.6647046 ], [ -4.7158398, 37.6647915 ], [ -4.7158947, 37.6648515 ], [ -4.7159865, 37.6649313 ], [ -4.7161348, 37.665044 ], [ -4.716334, 37.6651854 ], [ -4.7164809, 37.6652913 ], [ -4.7166478, 37.6654308 ], [ -4.7168282, 37.6656017 ], [ -4.7170449, 37.6658442 ], [ -4.7171275, 37.6659375 ], [ -4.7174101, 37.6662444 ], [ -4.7176555, 37.6665112 ], [ -4.7177837, 37.666649 ], [ -4.7179475, 37.6668246 ], [ -4.7180104, 37.6669071 ], [ -4.7180268, 37.6669293 ], [ -4.718601, 37.667322 ], [ -4.7190077, 37.6675391 ], [ -4.7193872, 37.6677409 ], [ -4.7196838, 37.6679146 ], [ -4.7198336, 37.6680002 ], [ -4.7201327, 37.6682324 ], [ -4.7203596, 37.6684409 ], [ -4.7204562, 37.6685296 ], [ -4.7209602, 37.6686597 ], [ -4.7216053, 37.6688238 ], [ -4.7222849, 37.6689963 ], [ -4.7222986, 37.6689997 ], [ -4.723132, 37.6666925 ], [ -4.7232743, 37.6666189 ], [ -4.7224803, 37.6650951 ] ] ] } },
{ "type": "Feature", "properties": { "CCAA": "01 - Andalucía", "PROVINCIA": "14 - Córdoba", "MUNICIPIO": "14027 - Fernán-Núñez", "COD_MUNICIPIO": "14027", "DISTRITO": "03", "SECCION": "1402703001", "V1_H": 79.2, "V1_M": 85.22, "V2_H": 79.18248439, "V2_M": 85.25623492, "V3_H": 79.42953696, "V3_M": 85.41396632 }, "geometry": { "type": "Polygon", "coordinates": [ [ [ -4.7266287, 37.7088861 ], [ -4.7273557, 37.7089296 ], [ -4.7280046, 37.7090282 ], [ -4.7284926, 37.7095257 ], [ -4.7290209, 37.7098064 ], [ -4.7311097, 37.7103615 ], [ -4.7344681, 37.7113575 ], [ -4.7349496, 37.7120624 ], [ -4.7356963, 37.7134393 ], [ -4.7368544, 37.7163962 ], [ -4.7387072, 37.7165491 ], [ -4.7396218, 37.716851 ], [ -4.7405954, 37.7172512 ], [ -4.7415505, 37.7178229 ], [ -4.7419216, 37.7157446 ], [ -4.7415924, 37.7142805 ], [ -4.7416096, 37.7135593 ], [ -4.7422124, 37.7121716 ], [ -4.7424068, 37.7112675 ], [ -4.7423305, 37.7080062 ], [ -4.7424647, 37.7064722 ], [ -4.7426825, 37.7060814 ], [ -4.7430178, 37.7058692 ], [ -4.7436387, 37.7057428 ], [ -4.7460677, 37.705806 ], [ -4.7470614, 37.7056111 ], [ -4.7480973, 37.7052893 ], [ -4.7500539, 37.7045574 ], [ -4.7507437, 37.704466 ], [ -4.7518223, 37.7045131 ], [ -4.7524032, 37.7046126 ], [ -4.7529588, 37.7046043 ], [ -4.7556895, 37.7030316 ], [ -4.7564993, 37.7027402 ], [ -4.7575361, 37.7024544 ], [ -4.7596897, 37.699989 ], [ -4.7609236, 37.6984476 ], [ -4.7609289, 37.6984415 ], [ -4.7604661, 37.6976117 ], [ -4.7598097, 37.697252 ], [ -4.7590775, 37.6969543 ], [ -4.7569866, 37.6962037 ], [ -4.7553557, 37.695712 ], [ -4.7539764, 37.6954441 ], [ -4.7516284, 37.694758 ], [ -4.7498196, 37.6938589 ], [ -4.7472955, 37.6922921 ], [ -4.7445844, 37.690478 ], [ -4.7425248, 37.6893662 ], [ -4.7411837, 37.6885321 ], [ -4.7402497, 37.6879173 ], [ -4.739839, 37.6875222 ], [ -4.7392776, 37.686778 ], [ -4.7386004, 37.6857899 ], [ -4.7381452, 37.685159 ], [ -4.737737, 37.6843112 ], [ -4.7374725, 37.683531 ], [ -4.7370753, 37.6826018 ], [ -4.7365593, 37.6818569 ], [ -4.7356906, 37.6807071 ], [ -4.7348073, 37.6795846 ], [ -4.7315304, 37.6752709 ], [ -4.7311547, 37.6742738 ], [ -4.7309631, 37.6735466 ], [ -4.7307758, 37.6728644 ], [ -4.7301652, 37.6730874 ], [ -4.7297341, 37.6732605 ], [ -4.7293346, 37.6735885 ], [ -4.7291477, 37.6739472 ], [ -4.7286619, 37.6737336 ], [ -4.7283449, 37.6735241 ], [ -4.7282494, 37.6734107 ], [ -4.7281445, 37.6732522 ], [ -4.7280475, 37.6730734 ], [ -4.7279928, 37.672885 ], [ -4.727918, 37.6727599 ], [ -4.7278233, 37.6727726 ], [ -4.7275324, 37.6725876 ], [ -4.7273757, 37.672493 ], [ -4.7271979, 37.6723897 ], [ -4.7271006, 37.6723348 ], [ -4.7268373, 37.6721786 ], [ -4.7267765, 37.6721412 ], [ -4.7266333, 37.6720442 ], [ -4.7262726, 37.6718129 ], [ -4.7262625, 37.6718085 ], [ -4.7261137, 37.6717184 ], [ -4.7258265, 37.6715356 ], [ -4.7251711, 37.6711441 ], [ -4.7249129, 37.6709947 ], [ -4.7248611, 37.671054 ], [ -4.7247914, 37.6711654 ], [ -4.7247661, 37.6712041 ], [ -4.7247434, 37.6712472 ], [ -4.7247125, 37.6713063 ], [ -4.7246292, 37.6714584 ], [ -4.7245564, 37.6715744 ], [ -4.7244761, 37.6716702 ], [ -4.7244406, 37.6716978 ], [ -4.724394, 37.6717345 ], [ -4.7243779, 37.6717438 ], [ -4.7242954, 37.6717968 ], [ -4.724256, 37.6718064 ], [ -4.7241829, 37.671803 ], [ -4.7240613, 37.6717664 ], [ -4.7240223, 37.671749 ], [ -4.7239975, 37.6717381 ], [ -4.723894, 37.6717035 ], [ -4.723725, 37.6716903 ], [ -4.7235467, 37.6716996 ], [ -4.7234166, 37.6717263 ], [ -4.7233015, 37.671746 ], [ -4.7232437, 37.6717604 ], [ -4.7231705, 37.6717795 ], [ -4.7230128, 37.6718381 ], [ -4.7228658, 37.6720723 ], [ -4.7226337, 37.6724677 ], [ -4.7227462, 37.6725404 ], [ -4.7224072, 37.6729554 ], [ -4.7222, 37.6732356 ], [ -4.7217714, 37.6737488 ], [ -4.7217332, 37.6737944 ], [ -4.7216916, 37.6739888 ], [ -4.7216814, 37.6741331 ], [ -4.7217208, 37.6744998 ], [ -4.7214164, 37.6748422 ], [ -4.7213254, 37.6749314 ], [ -4.7212057, 37.6750435 ], [ -4.72065, 37.675518 ], [ -4.7199831, 37.6760956 ], [ -4.71983, 37.6762375 ], [ -4.7197519, 37.6763175 ], [ -4.7196228, 37.6764523 ], [ -4.7194903, 37.6765646 ], [ -4.718977, 37.6771376 ], [ -4.7187074, 37.6775358 ], [ -4.7178292, 37.6784093 ], [ -4.7168857, 37.6791372 ], [ -4.7143262, 37.6809837 ], [ -4.7118596, 37.6828423 ], [ -4.710154, 37.684122 ], [ -4.7095126, 37.6845256 ], [ -4.7089577, 37.6846327 ], [ -4.7072629, 37.6850268 ], [ -4.706275, 37.6851875 ], [ -4.7054145, 37.6854952 ], [ -4.7044975, 37.6860266 ], [ -4.7038577, 37.6865023 ], [ -4.7028867, 37.687404 ], [ -4.7025258, 37.6878778 ], [ -4.7021887, 37.6880292 ], [ -4.7003123, 37.6886218 ], [ -4.6992975, 37.6889563 ], [ -4.6988706, 37.6892599 ], [ -4.6978931, 37.6898642 ], [ -4.6971621, 37.6904155 ], [ -4.6960098, 37.6914835 ], [ -4.6961161, 37.6915301 ], [ -4.6962538, 37.6916002 ], [ -4.6976082, 37.6923107 ], [ -4.6979199, 37.6925495 ], [ -4.6980923, 37.6936466 ], [ -4.6985377, 37.69428 ], [ -4.6994183, 37.6950964 ], [ -4.6996543, 37.6954986 ], [ -4.6998041, 37.6961002 ], [ -4.6996897, 37.6965525 ], [ -4.6989329, 37.6971853 ], [ -4.6979814, 37.6977397 ], [ -4.6975374, 37.6976391 ], [ -4.6974887, 37.6978311 ], [ -4.6967319, 37.6984639 ], [ -4.6957804, 37.6990183 ], [ -4.6949243, 37.6988243 ], [ -4.6933579, 37.699915 ], [ -4.6935859, 37.7004615 ], [ -4.6935128, 37.7012376 ], [ -4.6940088, 37.7016 ], [ -4.6945074, 37.7015839 ], [ -4.7052983, 37.699779 ], [ -4.7054734, 37.6999927 ], [ -4.7055541, 37.7005503 ], [ -4.7051744, 37.7013038 ], [ -4.7047415, 37.7017156 ], [ -4.7038228, 37.7022156 ], [ -4.703321, 37.7025923 ], [ -4.7031647, 37.7031984 ], [ -4.7031503, 37.7045504 ], [ -4.7033251, 37.7062422 ], [ -4.7028345, 37.7076101 ], [ -4.7026213, 37.708208 ], [ -4.7023955, 37.7092477 ], [ -4.7024446, 37.7099049 ], [ -4.7055771, 37.7089854 ], [ -4.7066303, 37.7103941 ], [ -4.7080869, 37.712572 ], [ -4.7092, 37.7141149 ], [ -4.70989, 37.7145195 ], [ -4.7114889, 37.7149829 ], [ -4.713212, 37.7164088 ], [ -4.7136305, 37.7168443 ], [ -4.7144606, 37.7164358 ], [ -4.7163955, 37.7153239 ], [ -4.7184353, 37.7141518 ], [ -4.7210013, 37.7127716 ], [ -4.7205412, 37.7115166 ], [ -4.7203887, 37.7108068 ], [ -4.7240343, 37.7100056 ], [ -4.7261113, 37.709074 ], [ -4.7266287, 37.7088861 ] ], [ [ -4.7252847, 37.6728359 ], [ -4.7254828, 37.6727114 ], [ -4.7257659, 37.6724998 ], [ -4.726342, 37.6727656 ], [ -4.7269229, 37.6731028 ], [ -4.7270264, 37.6731705 ], [ -4.7271153, 37.6732503 ], [ -4.7272563, 37.6733793 ], [ -4.7275178, 37.6735329 ], [ -4.7289317, 37.6744641 ], [ -4.7282077, 37.6753398 ], [ -4.727908, 37.6756089 ], [ -4.7277218, 37.6757308 ], [ -4.7271677, 37.6757699 ], [ -4.7265542, 37.675705 ], [ -4.7260037, 37.6753816 ], [ -4.7253104, 37.6745953 ], [ -4.7251959, 37.674442 ], [ -4.7249618, 37.6740496 ], [ -4.7246556, 37.6736511 ], [ -4.7245589, 37.6734904 ], [ -4.7244071, 37.6732827 ], [ -4.724828, 37.6730644 ], [ -4.7251037, 37.6729244 ], [ -4.7252847, 37.6728359 ] ] ] } },
{ "type": "Feature", "properties": { "CCAA": "01 - Andalucía", "PROVINCIA": "14 - Córdoba", "MUNICIPIO": "14027 - Fernán-Núñez", "COD_MUNICIPIO": "14027", "DISTRITO": "03", "SECCION": "1402703002", "V1_H": 79.36, "V1_M": 85.46, "V2_H": 79.32780616, "V2_M": 85.51002556, "V3_H": 79.53169609, "V3_M": 85.5666933 }, "geometry": { "type": "Polygon", "coordinates": [ [ [ -4.7254828, 37.6727114 ], [ -4.7252847, 37.6728359 ], [ -4.7251037, 37.6729244 ], [ -4.724828, 37.6730644 ], [ -4.7244071, 37.6732827 ], [ -4.7245589, 37.6734904 ], [ -4.7246556, 37.6736511 ], [ -4.7249618, 37.6740496 ], [ -4.7251959, 37.674442 ], [ -4.7253104, 37.6745953 ], [ -4.7260037, 37.6753816 ], [ -4.7265542, 37.675705 ], [ -4.7271677, 37.6757699 ], [ -4.7277218, 37.6757308 ], [ -4.727908, 37.6756089 ], [ -4.7282077, 37.6753398 ], [ -4.7289317, 37.6744641 ], [ -4.7275178, 37.6735329 ], [ -4.7272563, 37.6733793 ], [ -4.7271153, 37.6732503 ], [ -4.7270264, 37.6731705 ], [ -4.7269229, 37.6731028 ], [ -4.726342, 37.6727656 ], [ -4.7257659, 37.6724998 ], [ -4.7254828, 37.6727114 ] ] ] } },
{ "type": "Feature", "properties": { "CCAA": "01 - Andalucía", "PROVINCIA": "14 - Córdoba", "MUNICIPIO": "14027 - Fernán-Núñez", "COD_MUNICIPIO": "14027", "DISTRITO": "01", "SECCION": "1402701003", "V1_H": 79.81, "V1_M": 85.63, "V2_H": 79.83092799000001, "V2_M": 85.85143097, "V3_H": 80.00184088, "V3_M": 85.62912109 }, "geometry": { "type": "Polygon", "coordinates": [ [ [ -4.7222986, 37.6689997 ], [ -4.7223109, 37.6690027 ], [ -4.7223544, 37.6690156 ], [ -4.7229469, 37.6691714 ], [ -4.7229772, 37.66918 ], [ -4.7235187, 37.669323 ], [ -4.723974, 37.6694448 ], [ -4.7240308, 37.6694594 ], [ -4.7249689, 37.6675145 ], [ -4.7256606, 37.6664247 ], [ -4.7256475, 37.6664192 ], [ -4.7251846, 37.6662277 ], [ -4.7233545, 37.6654344 ], [ -4.7225172, 37.6651087 ], [ -4.7224803, 37.6650951 ], [ -4.7232743, 37.6666189 ], [ -4.723132, 37.6666925 ], [ -4.7222986, 37.6689997 ] ] ] } }
]
}
