{
"type": "FeatureCollection",
"name": "14056",
"features": [
{ "type": "Feature", "properties": { "CCAA": "01 - Andalucía", "PROVINCIA": "14 - Córdoba", "MUNICIPIO": "14056 - Puente Genil", "COD_MUNICIPIO": "14056", "DISTRITO": "03", "SECCION": "1405603002", "V1_H": 80.3, "V1_M": 86.18, "V2_H": 80.25682951, "V2_M": 86.26310791, "V3_H": 80.49886239, "V3_M": 86.29802272000001 }, "geometry": { "type": "Polygon", "coordinates": [ [ [ -4.7639351, 37.393122 ], [ -4.7638898, 37.3931596 ], [ -4.7653169, 37.3929388 ], [ -4.7659794, 37.393074 ], [ -4.7666406, 37.3931549 ], [ -4.767256, 37.3932182 ], [ -4.7681158, 37.3931825 ], [ -4.7681515, 37.3931095 ], [ -4.7683067, 37.392944 ], [ -4.7686416, 37.392685 ], [ -4.7690214, 37.3923982 ], [ -4.7693789, 37.3921298 ], [ -4.7695331, 37.3919189 ], [ -4.7698466, 37.391234 ], [ -4.7702011, 37.3908386 ], [ -4.7707025, 37.3903712 ], [ -4.7707252, 37.3903405 ], [ -4.770668, 37.3903208 ], [ -4.7706067, 37.3901646 ], [ -4.7705467, 37.3901523 ], [ -4.7696453, 37.3904071 ], [ -4.7687229, 37.3908199 ], [ -4.7684335, 37.3909465 ], [ -4.7683567, 37.39098 ], [ -4.7682503, 37.3910266 ], [ -4.7672597, 37.3914404 ], [ -4.7665197, 37.3917839 ], [ -4.7664272, 37.3918268 ], [ -4.7652806, 37.3923589 ], [ -4.7643135, 37.3928086 ], [ -4.7642587, 37.392854 ], [ -4.7639683, 37.3929023 ], [ -4.7639162, 37.392911 ], [ -4.7639351, 37.393122 ] ] ] } },
{ "type": "Feature", "properties": { "CCAA": "01 - Andalucía", "PROVINCIA": "14 - Córdoba", "MUNICIPIO": "14056 - Puente Genil", "COD_MUNICIPIO": "14056", "DISTRITO": "03", "SECCION": "1405603003", "V1_H": 79.27, "V1_M": 85.17, "V2_H": 79.19654882, "V2_M": 85.28496149, "V3_H": 79.61871206, "V3_M": 85.37047204 }, "geometry": { "type": "Polygon", "coordinates": [ [ [ -4.7658586, 37.3885256 ], [ -4.7684279, 37.3888411 ], [ -4.7685119, 37.3888445 ], [ -4.7686342, 37.3870391 ], [ -4.7687117, 37.3857677 ], [ -4.7683851, 37.3857457 ], [ -4.7683851, 37.3857457 ], [ -4.765189, 37.3853458 ], [ -4.7658586, 37.3885256 ] ] ] } },
{ "type": "Feature", "properties": { "CCAA": "01 - Andalucía", "PROVINCIA": "14 - Córdoba", "MUNICIPIO": "14056 - Puente Genil", "COD_MUNICIPIO": "14056", "DISTRITO": "03", "SECCION": "1405603001", "V1_H": 80.06, "V1_M": 86.09, "V2_H": 79.80248703, "V2_M": 86.14116428, "V3_H": 80.46064959, "V3_M": 86.17412372 }, "geometry": { "type": "Polygon", "coordinates": [ [ [ -4.773664, 37.3873795 ], [ -4.7735355, 37.3874519 ], [ -4.7728938, 37.388363 ], [ -4.7725145, 37.3886922 ], [ -4.7710092, 37.3891571 ], [ -4.7709974, 37.3892487 ], [ -4.7707271, 37.3901263 ], [ -4.7714789, 37.3898872 ], [ -4.7721778, 37.3897174 ], [ -4.7722686, 37.3897034 ], [ -4.7728107, 37.3895492 ], [ -4.7741726, 37.3892721 ], [ -4.7744597, 37.3892295 ], [ -4.7755132, 37.3891064 ], [ -4.7761281, 37.3890181 ], [ -4.7762421, 37.3890084 ], [ -4.7762153, 37.388772 ], [ -4.7762113, 37.3886035 ], [ -4.7762081, 37.388467 ], [ -4.7762275, 37.3882218 ], [ -4.7762294, 37.3878765 ], [ -4.7760934, 37.387445 ], [ -4.7757108, 37.3874347 ], [ -4.7753206, 37.3873161 ], [ -4.7745488, 37.3872313 ], [ -4.7742222, 37.3872522 ], [ -4.7737561, 37.3873275 ], [ -4.773664, 37.3873795 ] ] ] } },
{ "type": "Feature", "properties": { "CCAA": "01 - Andalucía", "PROVINCIA": "14 - Córdoba", "MUNICIPIO": "14056 - Puente Genil", "COD_MUNICIPIO": "14056", "DISTRITO": "04", "SECCION": "1405604003", "V1_H": 79.35, "V1_M": 85.2, "V2_H": 79.29922448000001, "V2_M": 85.22530012, "V3_H": 79.59037894, "V3_M": 85.4114479 }, "geometry": { "type": "Polygon", "coordinates": [ [ [ -4.7615946, 37.3871361 ], [ -4.7616107, 37.3872722 ], [ -4.7619546, 37.3893225 ], [ -4.7603379, 37.3893291 ], [ -4.7603364, 37.3904399 ], [ -4.7623892, 37.3903306 ], [ -4.7624583, 37.3907324 ], [ -4.7635627, 37.390662 ], [ -4.7661707, 37.3904957 ], [ -4.766258, 37.3904925 ], [ -4.7659007, 37.3887295 ], [ -4.7658312, 37.3887092 ], [ -4.7650244, 37.3884399 ], [ -4.7634387, 37.3878188 ], [ -4.7624424, 37.3874469 ], [ -4.7617277, 37.3872139 ], [ -4.7615946, 37.3871361 ] ] ] } },
{ "type": "Feature", "properties": { "CCAA": "01 - Andalucía", "PROVINCIA": "14 - Córdoba", "MUNICIPIO": "14056 - Puente Genil", "COD_MUNICIPIO": "14056", "DISTRITO": "05", "SECCION": "1405605004", "V1_H": 79.47, "V1_M": 85.31, "V2_H": 79.34656828, "V2_M": 85.44731594, "V3_H": 79.76976452, "V3_M": 85.31663719 }, "geometry": { "type": "Polygon", "coordinates": [ [ [ -4.7468763, 37.3557918 ], [ -4.7463782, 37.3563628 ], [ -4.746483, 37.3569942 ], [ -4.7464949, 37.3575118 ], [ -4.7465039, 37.3579 ], [ -4.7465743, 37.3586037 ], [ -4.7466372, 37.3597679 ], [ -4.7466325, 37.36112 ], [ -4.7465257, 37.3619558 ], [ -4.7462421, 37.3629381 ], [ -4.7459685, 37.3635749 ], [ -4.74579, 37.3644262 ], [ -4.7455067, 37.3654228 ], [ -4.7450044, 37.3670771 ], [ -4.7442902, 37.3697054 ], [ -4.7445222, 37.3703852 ], [ -4.7448097, 37.3711289 ], [ -4.7451297, 37.3717139 ], [ -4.7456251, 37.3720949 ], [ -4.7461539, 37.3723604 ], [ -4.7464314, 37.3726727 ], [ -4.7465848, 37.3730732 ], [ -4.746473, 37.3744701 ], [ -4.7464513, 37.3750889 ], [ -4.7464987, 37.3755772 ], [ -4.7464513, 37.3758655 ], [ -4.7461153, 37.3761438 ], [ -4.7458332, 37.3764141 ], [ -4.7451445, 37.3770283 ], [ -4.744701, 37.3773369 ], [ -4.7439005, 37.3777946 ], [ -4.7432409, 37.3781064 ], [ -4.7428155, 37.3784147 ], [ -4.7424477, 37.3788804 ], [ -4.7423839, 37.3792409 ], [ -4.7424997, 37.37957 ], [ -4.7429601, 37.3799947 ], [ -4.7432387, 37.3803502 ], [ -4.7433194, 37.380723 ], [ -4.7433257, 37.3809962 ], [ -4.7431545, 37.381387 ], [ -4.7434029, 37.3819947 ], [ -4.7444408, 37.3840074 ], [ -4.745015, 37.3854516 ], [ -4.7451157, 37.3859104 ], [ -4.745038, 37.3864438 ], [ -4.7449174, 37.38669 ], [ -4.7448536, 37.3870434 ], [ -4.7451842, 37.3873118 ], [ -4.7458055, 37.3876766 ], [ -4.7469728, 37.3882634 ], [ -4.7479969, 37.3888955 ], [ -4.7487247, 37.3891868 ], [ -4.7495603, 37.3894622 ], [ -4.7508658, 37.389788 ], [ -4.7522263, 37.3901562 ], [ -4.7530613, 37.3904027 ], [ -4.7556579, 37.3912037 ], [ -4.7557729, 37.3910766 ], [ -4.7554881, 37.3909931 ], [ -4.7550977, 37.3898102 ], [ -4.7540243, 37.3879 ], [ -4.7523319, 37.3848937 ], [ -4.7525455, 37.3847169 ], [ -4.7527583, 37.3845085 ], [ -4.7530307, 37.384315 ], [ -4.7533641, 37.3841838 ], [ -4.7536787, 37.3841001 ], [ -4.7539523, 37.383954 ], [ -4.7541643, 37.383714 ], [ -4.7543171, 37.3834749 ], [ -4.7547504, 37.3833896 ], [ -4.7549679, 37.3833863 ], [ -4.7556291, 37.3837397 ], [ -4.7563496, 37.3840921 ], [ -4.7565877, 37.3841201 ], [ -4.7569261, 37.3842098 ], [ -4.7572898, 37.384536 ], [ -4.7575488, 37.3846111 ], [ -4.758344, 37.3848095 ], [ -4.7582445, 37.3847623 ], [ -4.7578304, 37.3841927 ], [ -4.7578273, 37.3841884 ], [ -4.7574132, 37.3840097 ], [ -4.757311, 37.3838351 ], [ -4.7581714, 37.3838223 ], [ -4.7585762, 37.3837352 ], [ -4.7591523, 37.3837266 ], [ -4.7595919, 37.3836795 ], [ -4.7600472, 37.383578 ], [ -4.7603874, 37.3836271 ], [ -4.7606431, 37.3836909 ], [ -4.7610669, 37.3836913 ], [ -4.761385, 37.3835243 ], [ -4.7617691, 37.3832751 ], [ -4.7620684, 37.3830272 ], [ -4.7622779, 37.3825642 ], [ -4.7624768, 37.3823719 ], [ -4.7630773, 37.3819572 ], [ -4.7635976, 37.3817329 ], [ -4.7639873, 37.3817271 ], [ -4.7644532, 37.3815751 ], [ -4.7645088, 37.3815571 ], [ -4.7646877, 37.3814983 ], [ -4.7642902, 37.3807174 ], [ -4.7644245, 37.3804925 ], [ -4.76391, 37.3793861 ], [ -4.763723, 37.3793517 ], [ -4.7635998, 37.3790564 ], [ -4.7637293, 37.3786274 ], [ -4.763722, 37.3783118 ], [ -4.7636698, 37.3780712 ], [ -4.7636409, 37.3778302 ], [ -4.7636835, 37.3776625 ], [ -4.7636787, 37.3774583 ], [ -4.7636201, 37.3774082 ], [ -4.7635592, 37.3774026 ], [ -4.7634555, 37.3774423 ], [ -4.7632045, 37.3776988 ], [ -4.7631083, 37.3776741 ], [ -4.7629585, 37.3779124 ], [ -4.7630286, 37.3779709 ], [ -4.7630877, 37.3780702 ], [ -4.7631729, 37.3782621 ], [ -4.7632189, 37.378569 ], [ -4.7632121, 37.3786621 ], [ -4.7630788, 37.3788382 ], [ -4.7630506, 37.3789101 ], [ -4.7629367, 37.3790239 ], [ -4.7628313, 37.3792425 ], [ -4.762782, 37.3793076 ], [ -4.7627139, 37.3793349 ], [ -4.7625949, 37.3793557 ], [ -4.7623945, 37.379218 ], [ -4.7621264, 37.3790002 ], [ -4.7620317, 37.378911 ], [ -4.761593, 37.3788079 ], [ -4.761531, 37.3787134 ], [ -4.7613492, 37.378604 ], [ -4.7611402, 37.3786143 ], [ -4.7607526, 37.3785223 ], [ -4.760758, 37.3782432 ], [ -4.7607922, 37.377916 ], [ -4.7608446, 37.3774741 ], [ -4.7608866, 37.3772255 ], [ -4.7609904, 37.3768066 ], [ -4.7617203, 37.3764571 ], [ -4.762233, 37.3762359 ], [ -4.7622044, 37.3762134 ], [ -4.7616516, 37.3757261 ], [ -4.7615656, 37.3756211 ], [ -4.7611933, 37.3750217 ], [ -4.7609694, 37.374288 ], [ -4.7606715, 37.3733355 ], [ -4.7604551, 37.3729207 ], [ -4.7599046, 37.3729564 ], [ -4.7594278, 37.3731945 ], [ -4.7589609, 37.3732674 ], [ -4.7578722, 37.3738666 ], [ -4.7562579, 37.3749796 ], [ -4.7541809, 37.3767076 ], [ -4.7542417, 37.3759175 ], [ -4.7540628, 37.3754091 ], [ -4.7535732, 37.3747055 ], [ -4.7535366, 37.3743283 ], [ -4.7536948, 37.3739483 ], [ -4.753852, 37.3735239 ], [ -4.753586, 37.3728613 ], [ -4.7533232, 37.372332 ], [ -4.7533979, 37.3719532 ], [ -4.7537426, 37.371215 ], [ -4.7542785, 37.3703184 ], [ -4.755115, 37.369184 ], [ -4.7557869, 37.3681521 ], [ -4.7572998, 37.3673743 ], [ -4.758203, 37.3667165 ], [ -4.7587528, 37.3664196 ], [ -4.7591382, 37.3662361 ], [ -4.7594113, 37.3660099 ], [ -4.7595704, 37.3656743 ], [ -4.7598105, 37.3652264 ], [ -4.7598878, 37.3649586 ], [ -4.7598259, 37.3646929 ], [ -4.759762, 37.3643384 ], [ -4.7597799, 37.363916 ], [ -4.7596331, 37.363585 ], [ -4.7594037, 37.3632995 ], [ -4.7583912, 37.3628481 ], [ -4.7575498, 37.3625717 ], [ -4.7563079, 37.3618348 ], [ -4.7555432, 37.3612686 ], [ -4.7550079, 37.3609877 ], [ -4.7541347, 37.3605452 ], [ -4.7530677, 37.3601389 ], [ -4.7516385, 37.3592543 ], [ -4.7516199, 37.3591887 ], [ -4.7512248, 37.3588517 ], [ -4.7508916, 37.3584999 ], [ -4.7501929, 37.3581535 ], [ -4.7496611, 37.3579992 ], [ -4.7488428, 37.3577518 ], [ -4.7481433, 37.357373 ], [ -4.747565, 37.3569599 ], [ -4.7471896, 37.3565439 ], [ -4.7470175, 37.3561248 ], [ -4.746849, 37.3558678 ], [ -4.7468763, 37.3557918 ] ] ] } },
{ "type": "Feature", "properties": { "CCAA": "01 - Andalucía", "PROVINCIA": "14 - Córdoba", "MUNICIPIO": "14056 - Puente Genil", "COD_MUNICIPIO": "14056", "DISTRITO": "05", "SECCION": "1405605005", "V1_H": 78.77, "V1_M": 84.85, "V2_H": 78.83270398000001, "V2_M": 84.81764444, "V3_H": 78.82199574000001, "V3_M": 85.12573797 }, "geometry": { "type": "Polygon", "coordinates": [ [ [ -4.7500238, 37.3981115 ], [ -4.7505741, 37.3982488 ], [ -4.7519968, 37.3974494 ], [ -4.7529154, 37.3983814 ], [ -4.7539416, 37.3979806 ], [ -4.7540686, 37.3975605 ], [ -4.7546307, 37.3972248 ], [ -4.7545826, 37.3971164 ], [ -4.7558042, 37.3967163 ], [ -4.7558096, 37.3967272 ], [ -4.7558759, 37.3968607 ], [ -4.759564, 37.3956784 ], [ -4.7593715, 37.3952447 ], [ -4.759574, 37.3951326 ], [ -4.7596356, 37.3948407 ], [ -4.7604495, 37.3942508 ], [ -4.7604803, 37.3942284 ], [ -4.7600847, 37.3938118 ], [ -4.7598582, 37.393849 ], [ -4.758006, 37.3944022 ], [ -4.7559306, 37.3950235 ], [ -4.7542893, 37.3955863 ], [ -4.7537937, 37.3958021 ], [ -4.7529381, 37.3964574 ], [ -4.7518432, 37.3971162 ], [ -4.7509381, 37.3975117 ], [ -4.7500238, 37.3981115 ] ] ] } },
{ "type": "Feature", "properties": { "CCAA": "01 - Andalucía", "PROVINCIA": "14 - Córdoba", "MUNICIPIO": "14056 - Puente Genil", "COD_MUNICIPIO": "14056", "DISTRITO": "01", "SECCION": "1405601001", "V1_H": 78.9, "V1_M": 84.87, "V2_H": 79.02373168, "V2_M": 85.07467156, "V3_H": 78.82484982, "V3_M": 84.79604014 }, "geometry": { "type": "Polygon", "coordinates": [ [ [ -4.8080783, 37.3991818 ], [ -4.8080993, 37.3990989 ], [ -4.8083072, 37.3990957 ], [ -4.8086538, 37.3990904 ], [ -4.8092999, 37.3990437 ], [ -4.809793, 37.3993681 ], [ -4.8102857, 37.399674 ], [ -4.810962, 37.3999218 ], [ -4.8114738, 37.4000615 ], [ -4.8121265, 37.4002912 ], [ -4.8127348, 37.4005953 ], [ -4.8133897, 37.4009172 ], [ -4.8139029, 37.4011122 ], [ -4.8144578, 37.4011221 ], [ -4.8151074, 37.4012227 ], [ -4.8156238, 37.4015467 ], [ -4.8160908, 37.4017424 ], [ -4.8164391, 37.4018108 ], [ -4.8169461, 37.4017477 ], [ -4.8179858, 37.4017317 ], [ -4.8190967, 37.4017884 ], [ -4.8198844, 37.4018685 ], [ -4.820439, 37.40186 ], [ -4.8214778, 37.4018071 ], [ -4.8223563, 37.401812 ], [ -4.8228437, 37.4018967 ], [ -4.8238666, 37.4021391 ], [ -4.8244251, 37.4022964 ], [ -4.8254294, 37.4027235 ], [ -4.8264771, 37.4030392 ], [ -4.8278511, 37.4034605 ], [ -4.8289686, 37.4037936 ], [ -4.82994, 37.4038155 ], [ -4.831121, 37.4039079 ], [ -4.8322754, 37.4038531 ], [ -4.8328735, 37.4037332 ], [ -4.8338807, 37.4033303 ], [ -4.8349142, 37.4030562 ], [ -4.835422, 37.4030299 ], [ -4.8361179, 37.4031297 ], [ -4.8367693, 37.403304 ], [ -4.8372808, 37.4034251 ], [ -4.8378815, 37.4034158 ], [ -4.8385797, 37.4036078 ], [ -4.8394671, 37.4039812 ], [ -4.840403, 37.4044461 ], [ -4.8409684, 37.4048798 ], [ -4.8417701, 37.4046919 ], [ -4.8410107, 37.4042352 ], [ -4.8408926, 37.4040207 ], [ -4.8413517, 37.4033917 ], [ -4.8424481, 37.4024914 ], [ -4.8432098, 37.4017676 ], [ -4.8436762, 37.4009762 ], [ -4.8439549, 37.3998994 ], [ -4.843823, 37.399586 ], [ -4.843391, 37.3994756 ], [ -4.8410822, 37.3997639 ], [ -4.8405174, 37.3997636 ], [ -4.8397998, 37.3995225 ], [ -4.8378057, 37.3983548 ], [ -4.8371881, 37.3975803 ], [ -4.8363784, 37.3963402 ], [ -4.83541, 37.3950754 ], [ -4.8323316, 37.3915812 ], [ -4.8312848, 37.3908043 ], [ -4.8309701, 37.3904037 ], [ -4.8307307, 37.3898486 ], [ -4.8307803, 37.3890998 ], [ -4.8310402, 37.3881765 ], [ -4.8311543, 37.3872915 ], [ -4.8311526, 37.3862911 ], [ -4.8310461, 37.3856258 ], [ -4.8308384, 37.3849802 ], [ -4.8305336, 37.3845252 ], [ -4.8301505, 37.3840986 ], [ -4.8295197, 37.3837028 ], [ -4.8287415, 37.3832822 ], [ -4.8285096, 37.3830334 ], [ -4.8282957, 37.3825951 ], [ -4.8280516, 37.3823105 ], [ -4.8275992, 37.3822814 ], [ -4.8251967, 37.3833459 ], [ -4.8252331, 37.3825162 ], [ -4.8250067, 37.3810958 ], [ -4.8250828, 37.3805088 ], [ -4.825439, 37.3798274 ], [ -4.8260195, 37.3790794 ], [ -4.8250729, 37.3786975 ], [ -4.824425, 37.3785272 ], [ -4.8234964, 37.3784243 ], [ -4.8203126, 37.3784643 ], [ -4.8197794, 37.3783644 ], [ -4.8193565, 37.3781546 ], [ -4.8188782, 37.3779907 ], [ -4.8180552, 37.3780484 ], [ -4.8175207, 37.3778944 ], [ -4.8169278, 37.3776602 ], [ -4.8165098, 37.3776576 ], [ -4.8154434, 37.3779263 ], [ -4.8151951, 37.3779301 ], [ -4.81492, 37.3777631 ], [ -4.8146886, 37.3775323 ], [ -4.814744, 37.3770178 ], [ -4.8149926, 37.3765543 ], [ -4.815071, 37.3760574 ], [ -4.8150341, 37.3754632 ], [ -4.8146553, 37.3742703 ], [ -4.814522, 37.3734252 ], [ -4.8145339, 37.3729834 ], [ -4.8147283, 37.3726109 ], [ -4.8151605, 37.3722708 ], [ -4.8168709, 37.3715506 ], [ -4.818613, 37.3707397 ], [ -4.8199391, 37.3700074 ], [ -4.8208897, 37.3696232 ], [ -4.8219201, 37.3692739 ], [ -4.8229076, 37.3690154 ], [ -4.8236128, 37.3687611 ], [ -4.8232808, 37.3676374 ], [ -4.8229979, 37.3666798 ], [ -4.8228926, 37.3655909 ], [ -4.8229468, 37.3650312 ], [ -4.8235376, 37.3637784 ], [ -4.8236139, 37.3632005 ], [ -4.8234565, 37.361824 ], [ -4.8231846, 37.3608548 ], [ -4.8221267, 37.3581944 ], [ -4.8181945, 37.3552537 ], [ -4.8172663, 37.3546822 ], [ -4.8150951, 37.3535979 ], [ -4.8130918, 37.352448 ], [ -4.809225, 37.3503261 ], [ -4.8076511, 37.3491876 ], [ -4.8062189, 37.3483082 ], [ -4.8036224, 37.3468878 ], [ -4.802278, 37.3458989 ], [ -4.801368, 37.3451377 ], [ -4.8005669, 37.3446812 ], [ -4.7999303, 37.3444926 ], [ -4.7981207, 37.3429249 ], [ -4.7962338, 37.3414304 ], [ -4.794712, 37.3400926 ], [ -4.7913626, 37.3373675 ], [ -4.7899768, 37.3365233 ], [ -4.7892998, 37.3360559 ], [ -4.7886311, 37.3354622 ], [ -4.7878989, 37.3345719 ], [ -4.7872861, 37.3334816 ], [ -4.7872592, 37.333428 ], [ -4.7870141, 37.332954 ], [ -4.7865391, 37.3324385 ], [ -4.7858494, 37.3319081 ], [ -4.7840014, 37.3306022 ], [ -4.7832879, 37.3300181 ], [ -4.7827416, 37.3293504 ], [ -4.782225, 37.3285019 ], [ -4.7818827, 37.3297779 ], [ -4.7814897, 37.3317756 ], [ -4.7808852, 37.333425 ], [ -4.7808574, 37.3334862 ], [ -4.7806169, 37.3340148 ], [ -4.7800855, 37.3354108 ], [ -4.7796361, 37.3354986 ], [ -4.777818, 37.3354629 ], [ -4.777511, 37.3353683 ], [ -4.7774048, 37.3351716 ], [ -4.7775307, 37.3342866 ], [ -4.7773881, 37.3339823 ], [ -4.7766429, 37.3334888 ], [ -4.776523, 37.3334342 ], [ -4.7756505, 37.333044 ], [ -4.7752532, 37.3334285 ], [ -4.7750753, 37.334026 ], [ -4.7747216, 37.3348244 ], [ -4.7742806, 37.3352726 ], [ -4.7734145, 37.3358804 ], [ -4.7730962, 37.3362637 ], [ -4.7724604, 37.3365887 ], [ -4.771856, 37.3368051 ], [ -4.769988, 37.3370493 ], [ -4.7685022, 37.3374466 ], [ -4.7679956, 37.3389233 ], [ -4.7676002, 37.3406709 ], [ -4.7675112, 37.3423524 ], [ -4.7672449, 37.3452251 ], [ -4.7669593, 37.3472784 ], [ -4.7664585, 37.3494579 ], [ -4.7658045, 37.3511274 ], [ -4.7653626, 37.3508881 ], [ -4.764895, 37.3506492 ], [ -4.7637679, 37.3507479 ], [ -4.7632776, 37.3506323 ], [ -4.7628627, 37.350454 ], [ -4.7616753, 37.3501644 ], [ -4.7605668, 37.3499555 ], [ -4.7594853, 37.3498076 ], [ -4.7584794, 37.3495972 ], [ -4.7571109, 37.3492487 ], [ -4.75623, 37.348893 ], [ -4.7553473, 37.3483019 ], [ -4.7554107, 37.3483756 ], [ -4.755539, 37.3485246 ], [ -4.7553543, 37.3493405 ], [ -4.7550542, 37.3502046 ], [ -4.7545867, 37.3513732 ], [ -4.7539547, 37.3517311 ], [ -4.7538945, 37.3517999 ], [ -4.7521265, 37.3521898 ], [ -4.7510803, 37.3526269 ], [ -4.7505238, 37.3531541 ], [ -4.750047, 37.3536152 ], [ -4.7497289, 37.3539118 ], [ -4.7494092, 37.3541435 ], [ -4.7491271, 37.354245 ], [ -4.7486826, 37.3543488 ], [ -4.7481976, 37.3544533 ], [ -4.7478749, 37.3545554 ], [ -4.7475162, 37.3548526 ], [ -4.7473168, 37.3550177 ], [ -4.7470017, 37.3554439 ], [ -4.7468763, 37.3557918 ], [ -4.746849, 37.3558678 ], [ -4.7470175, 37.3561248 ], [ -4.7471896, 37.3565439 ], [ -4.747565, 37.3569599 ], [ -4.7481433, 37.357373 ], [ -4.7488428, 37.3577518 ], [ -4.7496611, 37.3579992 ], [ -4.7501929, 37.3581535 ], [ -4.7508916, 37.3584999 ], [ -4.7512248, 37.3588517 ], [ -4.7516199, 37.3591887 ], [ -4.7516385, 37.3592543 ], [ -4.7530677, 37.3601389 ], [ -4.7541347, 37.3605452 ], [ -4.7550079, 37.3609877 ], [ -4.7555432, 37.3612686 ], [ -4.7563079, 37.3618348 ], [ -4.7575498, 37.3625717 ], [ -4.7583912, 37.3628481 ], [ -4.7594037, 37.3632995 ], [ -4.7596331, 37.363585 ], [ -4.7597799, 37.363916 ], [ -4.759762, 37.3643384 ], [ -4.7598259, 37.3646929 ], [ -4.7598878, 37.3649586 ], [ -4.7598105, 37.3652264 ], [ -4.7595704, 37.3656743 ], [ -4.7594113, 37.3660099 ], [ -4.7591382, 37.3662361 ], [ -4.7587528, 37.3664196 ], [ -4.758203, 37.3667165 ], [ -4.7572998, 37.3673743 ], [ -4.7557869, 37.3681521 ], [ -4.755115, 37.369184 ], [ -4.7542785, 37.3703184 ], [ -4.7537426, 37.371215 ], [ -4.7533979, 37.3719532 ], [ -4.7533232, 37.372332 ], [ -4.753586, 37.3728613 ], [ -4.753852, 37.3735239 ], [ -4.7536948, 37.3739483 ], [ -4.7535366, 37.3743283 ], [ -4.7535732, 37.3747055 ], [ -4.7540628, 37.3754091 ], [ -4.7542417, 37.3759175 ], [ -4.7541809, 37.3767076 ], [ -4.7562579, 37.3749796 ], [ -4.7578722, 37.3738666 ], [ -4.7589609, 37.3732674 ], [ -4.7594278, 37.3731945 ], [ -4.7599046, 37.3729564 ], [ -4.7604551, 37.3729207 ], [ -4.7606715, 37.3733355 ], [ -4.7609694, 37.374288 ], [ -4.7611933, 37.3750217 ], [ -4.7615656, 37.3756211 ], [ -4.7616516, 37.3757261 ], [ -4.7622044, 37.3762134 ], [ -4.762233, 37.3762359 ], [ -4.762311, 37.3762976 ], [ -4.7627942, 37.3765169 ], [ -4.7628815, 37.3765466 ], [ -4.7629113, 37.3766039 ], [ -4.763019, 37.3765494 ], [ -4.7631802, 37.3765422 ], [ -4.7635033, 37.3765564 ], [ -4.7635311, 37.3764702 ], [ -4.7637192, 37.3760811 ], [ -4.7639264, 37.3759969 ], [ -4.7639834, 37.3758768 ], [ -4.764084, 37.3758372 ], [ -4.7643618, 37.3757043 ], [ -4.7643894, 37.3756085 ], [ -4.7646081, 37.375505 ], [ -4.7647269, 37.3754746 ], [ -4.7648593, 37.3755108 ], [ -4.7649657, 37.3754615 ], [ -4.7647125, 37.3751124 ], [ -4.7647892, 37.3750731 ], [ -4.764727, 37.3749691 ], [ -4.7647832, 37.3748157 ], [ -4.7648483, 37.3747861 ], [ -4.7650211, 37.3747644 ], [ -4.7651524, 37.3747577 ], [ -4.7651802, 37.3746714 ], [ -4.765146, 37.3744859 ], [ -4.7654536, 37.3743526 ], [ -4.7659012, 37.3743268 ], [ -4.7662221, 37.3742505 ], [ -4.7665645, 37.3743264 ], [ -4.7668911, 37.3742357 ], [ -4.766981, 37.3742487 ], [ -4.7671799, 37.3740645 ], [ -4.7676353, 37.3738621 ], [ -4.7685188, 37.3733148 ], [ -4.7686238, 37.3732035 ], [ -4.7691319, 37.3729574 ], [ -4.7694641, 37.3728523 ], [ -4.7698353, 37.3726274 ], [ -4.7698865, 37.3725169 ], [ -4.770087, 37.3724042 ], [ -4.7703521, 37.3730059 ], [ -4.7708252, 37.3738096 ], [ -4.7714117, 37.373591 ], [ -4.7720554, 37.3732666 ], [ -4.7722328, 37.3731876 ], [ -4.7727346, 37.3729225 ], [ -4.7729422, 37.3728574 ], [ -4.7734856, 37.372587 ], [ -4.7737116, 37.3727934 ], [ -4.774213, 37.3725188 ], [ -4.7744575, 37.3727489 ], [ -4.7747731, 37.372954 ], [ -4.7752141, 37.3731572 ], [ -4.7754587, 37.3731392 ], [ -4.775704, 37.3731546 ], [ -4.7760524, 37.3732304 ], [ -4.7765428, 37.3734997 ], [ -4.7766579, 37.3735647 ], [ -4.7768741, 37.3736092 ], [ -4.7771341, 37.3737388 ], [ -4.7773762, 37.3736159 ], [ -4.777619, 37.3735217 ], [ -4.7781374, 37.3734566 ], [ -4.7783351, 37.3734775 ], [ -4.7788538, 37.3736796 ], [ -4.7792382, 37.3740172 ], [ -4.7795115, 37.3744518 ], [ -4.7796037, 37.3761138 ], [ -4.7796752, 37.3761255 ], [ -4.7801173, 37.3761739 ], [ -4.7804187, 37.3760923 ], [ -4.7807041, 37.375923 ], [ -4.7809246, 37.3759197 ], [ -4.7811081, 37.3761039 ], [ -4.7810746, 37.3764344 ], [ -4.780955, 37.3766233 ], [ -4.7807373, 37.3769211 ], [ -4.7807424, 37.3769216 ], [ -4.7804184, 37.3770368 ], [ -4.7801289, 37.3774033 ], [ -4.7797529, 37.3777041 ], [ -4.7794519, 37.3778246 ], [ -4.7791944, 37.3781025 ], [ -4.7791627, 37.3784403 ], [ -4.7792922, 37.3788916 ], [ -4.779079, 37.3793692 ], [ -4.778917, 37.3797827 ], [ -4.7787939, 37.380164 ], [ -4.778481, 37.3803374 ], [ -4.7784353, 37.3806437 ], [ -4.7773931, 37.3815395 ], [ -4.7770159, 37.3817876 ], [ -4.7768798, 37.3819797 ], [ -4.7762657, 37.3817679 ], [ -4.7758168, 37.3815669 ], [ -4.7754144, 37.3813896 ], [ -4.7753853, 37.3813805 ], [ -4.7749655, 37.3812482 ], [ -4.774696, 37.3815654 ], [ -4.7745935, 37.3817906 ], [ -4.7745818, 37.3818162 ], [ -4.7745424, 37.382181 ], [ -4.7745261, 37.3825071 ], [ -4.7746266, 37.3826972 ], [ -4.7749713, 37.3830563 ], [ -4.775244, 37.3834163 ], [ -4.7753722, 37.3837594 ], [ -4.7753866, 37.3843726 ], [ -4.7753268, 37.384891 ], [ -4.7756257, 37.3853465 ], [ -4.7769382, 37.3861247 ], [ -4.7770316, 37.3862756 ], [ -4.7770651, 37.3865001 ], [ -4.7771831, 37.3867234 ], [ -4.7774401, 37.3868545 ], [ -4.7778217, 37.3868938 ], [ -4.7780611, 37.3862826 ], [ -4.7787535, 37.386364 ], [ -4.7787445, 37.3864681 ], [ -4.7789139, 37.3869294 ], [ -4.7792515, 37.3872405 ], [ -4.7793582, 37.3873128 ], [ -4.7796853, 37.3875345 ], [ -4.7797079, 37.3875499 ], [ -4.7803635, 37.3878984 ], [ -4.7808327, 37.3881865 ], [ -4.7811541, 37.3883714 ], [ -4.7812569, 37.3884212 ], [ -4.781555, 37.3885656 ], [ -4.782031, 37.3888236 ], [ -4.7826214, 37.3889153 ], [ -4.7829934, 37.3890975 ], [ -4.7831521, 37.3885099 ], [ -4.7833198, 37.3883387 ], [ -4.7834897, 37.3882624 ], [ -4.783794, 37.3882788 ], [ -4.7840581, 37.3882749 ], [ -4.7844249, 37.3881429 ], [ -4.7846842, 37.3879386 ], [ -4.7848422, 37.3879152 ], [ -4.7846132, 37.3877289 ], [ -4.7844644, 37.3875836 ], [ -4.7844737, 37.3874148 ], [ -4.7847176, 37.387116 ], [ -4.7848451, 37.3869243 ], [ -4.7849323, 37.3867016 ], [ -4.7850484, 37.3865839 ], [ -4.7852138, 37.3864469 ], [ -4.7853607, 37.38655 ], [ -4.785785, 37.3868077 ], [ -4.7862042, 37.386857 ], [ -4.7864908, 37.3871863 ], [ -4.7867777, 37.3875295 ], [ -4.787291, 37.3878692 ], [ -4.7878789, 37.3884164 ], [ -4.7887809, 37.3889866 ], [ -4.7893776, 37.3891722 ], [ -4.7900783, 37.3893284 ], [ -4.7907936, 37.3893732 ], [ -4.7913913, 37.3896004 ], [ -4.7923009, 37.3897535 ], [ -4.7928498, 37.3901205 ], [ -4.7933306, 37.390558 ], [ -4.7935521, 37.3910829 ], [ -4.7938662, 37.3914674 ], [ -4.7946467, 37.3920533 ], [ -4.7953984, 37.3928898 ], [ -4.7963108, 37.3938907 ], [ -4.7968613, 37.3943272 ], [ -4.7975091, 37.3944564 ], [ -4.7990655, 37.3946968 ], [ -4.8005171, 37.394925 ], [ -4.8011327, 37.3951658 ], [ -4.8024565, 37.3958824 ], [ -4.804032, 37.3969149 ], [ -4.8053974, 37.3979089 ], [ -4.8062478, 37.3984936 ], [ -4.8073031, 37.3989084 ], [ -4.8080783, 37.3991818 ] ] ] } },
{ "type": "Feature", "properties": { "CCAA": "01 - Andalucía", "PROVINCIA": "14 - Córdoba", "MUNICIPIO": "14056 - Puente Genil", "COD_MUNICIPIO": "14056", "DISTRITO": "01", "SECCION": "1405601003", "V1_H": 79.85, "V1_M": 85.78, "V2_H": 79.86035794, "V2_M": 85.76242541000001, "V3_H": 79.99500792000001, "V3_M": 85.93655133 }, "geometry": { "type": "MultiPolygon", "coordinates": [ [ [ [ -4.7732031, 37.3771934 ], [ -4.7737133, 37.3772669 ], [ -4.7742609, 37.3774887 ], [ -4.7746544, 37.3776451 ], [ -4.775085, 37.3779361 ], [ -4.7755354, 37.3783487 ], [ -4.7760066, 37.3789232 ], [ -4.7762734, 37.3794603 ], [ -4.7763217, 37.3800682 ], [ -4.7760413, 37.3803971 ], [ -4.7756953, 37.3808215 ], [ -4.7753861, 37.3813672 ], [ -4.7753853, 37.3813805 ], [ -4.7754144, 37.3813896 ], [ -4.7758168, 37.3815669 ], [ -4.7762657, 37.3817679 ], [ -4.7768798, 37.3819797 ], [ -4.7770159, 37.3817876 ], [ -4.7773931, 37.3815395 ], [ -4.7784353, 37.3806437 ], [ -4.778481, 37.3803374 ], [ -4.7787939, 37.380164 ], [ -4.778917, 37.3797827 ], [ -4.779079, 37.3793692 ], [ -4.7792922, 37.3788916 ], [ -4.7791627, 37.3784403 ], [ -4.7791944, 37.3781025 ], [ -4.7794519, 37.3778246 ], [ -4.7797529, 37.3777041 ], [ -4.7801289, 37.3774033 ], [ -4.7804184, 37.3770368 ], [ -4.7807424, 37.3769216 ], [ -4.7807373, 37.3769211 ], [ -4.780955, 37.3766233 ], [ -4.7810746, 37.3764344 ], [ -4.7811081, 37.3761039 ], [ -4.7809246, 37.3759197 ], [ -4.7807041, 37.375923 ], [ -4.7804187, 37.3760923 ], [ -4.7801173, 37.3761739 ], [ -4.7796752, 37.3761255 ], [ -4.7796037, 37.3761138 ], [ -4.7795115, 37.3744518 ], [ -4.7792382, 37.3740172 ], [ -4.7788538, 37.3736796 ], [ -4.7783351, 37.3734775 ], [ -4.7781374, 37.3734566 ], [ -4.777619, 37.3735217 ], [ -4.7773762, 37.3736159 ], [ -4.7771341, 37.3737388 ], [ -4.7768741, 37.3736092 ], [ -4.7766579, 37.3735647 ], [ -4.7765428, 37.3734997 ], [ -4.7760524, 37.3732304 ], [ -4.775704, 37.3731546 ], [ -4.7754587, 37.3731392 ], [ -4.7752141, 37.3731572 ], [ -4.7747731, 37.372954 ], [ -4.7744575, 37.3727489 ], [ -4.774213, 37.3725188 ], [ -4.7737116, 37.3727934 ], [ -4.7734856, 37.372587 ], [ -4.7729422, 37.3728574 ], [ -4.7727346, 37.3729225 ], [ -4.7722328, 37.3731876 ], [ -4.7720554, 37.3732666 ], [ -4.7714117, 37.373591 ], [ -4.7708252, 37.3738096 ], [ -4.7703521, 37.3730059 ], [ -4.770087, 37.3724042 ], [ -4.7698865, 37.3725169 ], [ -4.7698353, 37.3726274 ], [ -4.7694641, 37.3728523 ], [ -4.7691319, 37.3729574 ], [ -4.7686238, 37.3732035 ], [ -4.7685188, 37.3733148 ], [ -4.7676353, 37.3738621 ], [ -4.7671799, 37.3740645 ], [ -4.766981, 37.3742487 ], [ -4.7668911, 37.3742357 ], [ -4.7665645, 37.3743264 ], [ -4.7662221, 37.3742505 ], [ -4.7659012, 37.3743268 ], [ -4.7654536, 37.3743526 ], [ -4.765146, 37.3744859 ], [ -4.7651802, 37.3746714 ], [ -4.7651524, 37.3747577 ], [ -4.7650211, 37.3747644 ], [ -4.7648483, 37.3747861 ], [ -4.7647832, 37.3748157 ], [ -4.764727, 37.3749691 ], [ -4.7647892, 37.3750731 ], [ -4.7647125, 37.3751124 ], [ -4.7649657, 37.3754615 ], [ -4.7648593, 37.3755108 ], [ -4.7647269, 37.3754746 ], [ -4.7646081, 37.375505 ], [ -4.7643894, 37.3756085 ], [ -4.7643618, 37.3757043 ], [ -4.764084, 37.3758372 ], [ -4.7639834, 37.3758768 ], [ -4.7639264, 37.3759969 ], [ -4.7637192, 37.3760811 ], [ -4.7635311, 37.3764702 ], [ -4.7635033, 37.3765564 ], [ -4.7631802, 37.3765422 ], [ -4.763019, 37.3765494 ], [ -4.7629113, 37.3766039 ], [ -4.7628815, 37.3765466 ], [ -4.7627942, 37.3765169 ], [ -4.762311, 37.3762976 ], [ -4.762233, 37.3762359 ], [ -4.7617203, 37.3764571 ], [ -4.7609904, 37.3768066 ], [ -4.7608866, 37.3772255 ], [ -4.7608446, 37.3774741 ], [ -4.7607922, 37.377916 ], [ -4.760758, 37.3782432 ], [ -4.7607526, 37.3785223 ], [ -4.7611402, 37.3786143 ], [ -4.7613492, 37.378604 ], [ -4.761531, 37.3787134 ], [ -4.761593, 37.3788079 ], [ -4.7620317, 37.378911 ], [ -4.7621264, 37.3790002 ], [ -4.7623945, 37.379218 ], [ -4.7625949, 37.3793557 ], [ -4.7627139, 37.3793349 ], [ -4.762782, 37.3793076 ], [ -4.7628313, 37.3792425 ], [ -4.7629367, 37.3790239 ], [ -4.7630506, 37.3789101 ], [ -4.7630788, 37.3788382 ], [ -4.7632121, 37.3786621 ], [ -4.7632189, 37.378569 ], [ -4.7631729, 37.3782621 ], [ -4.7630877, 37.3780702 ], [ -4.7630286, 37.3779709 ], [ -4.7629585, 37.3779124 ], [ -4.7631083, 37.3776741 ], [ -4.7632045, 37.3776988 ], [ -4.7634555, 37.3774423 ], [ -4.7635592, 37.3774026 ], [ -4.7636201, 37.3774082 ], [ -4.7636787, 37.3774583 ], [ -4.7636835, 37.3776625 ], [ -4.7636409, 37.3778302 ], [ -4.7636698, 37.3780712 ], [ -4.763722, 37.3783118 ], [ -4.7637293, 37.3786274 ], [ -4.7635998, 37.3790564 ], [ -4.763723, 37.3793517 ], [ -4.76391, 37.3793861 ], [ -4.7644245, 37.3804925 ], [ -4.7642902, 37.3807174 ], [ -4.7646877, 37.3814983 ], [ -4.7647257, 37.3814858 ], [ -4.7655011, 37.3812312 ], [ -4.7663088, 37.3809756 ], [ -4.7670972, 37.3806257 ], [ -4.7678274, 37.3801986 ], [ -4.7678329, 37.3801954 ], [ -4.7684531, 37.3799021 ], [ -4.7692256, 37.379593 ], [ -4.769559, 37.3794791 ], [ -4.7697636, 37.3794091 ], [ -4.7701489, 37.379214 ], [ -4.7706003, 37.3789502 ], [ -4.7708469, 37.3786219 ], [ -4.7713757, 37.3780459 ], [ -4.7713547, 37.3778704 ], [ -4.7716357, 37.3775686 ], [ -4.7721737, 37.3773847 ], [ -4.7732031, 37.3771934 ] ] ], [ [ [ -4.7922141, 37.4059125 ], [ -4.7928278, 37.4062378 ], [ -4.7936751, 37.4065844 ], [ -4.7942885, 37.4068974 ], [ -4.7947407, 37.4069649 ], [ -4.7951727, 37.4068344 ], [ -4.7954789, 37.4066438 ], [ -4.795873, 37.4062288 ], [ -4.7961194, 37.4061383 ], [ -4.7966516, 37.4063037 ], [ -4.7975895, 37.4065374 ], [ -4.7987266, 37.4066565 ], [ -4.7991618, 37.4066622 ], [ -4.7995009, 37.4065455 ], [ -4.8000207, 37.4061905 ], [ -4.8005715, 37.4058351 ], [ -4.8011714, 37.4055781 ], [ -4.8017679, 37.4051848 ], [ -4.8024879, 37.4047524 ], [ -4.8031193, 37.4045196 ], [ -4.8047429, 37.4044064 ], [ -4.804316, 37.4042275 ], [ -4.803638, 37.4039059 ], [ -4.8032835, 37.4035794 ], [ -4.8029081, 37.4033455 ], [ -4.803105, 37.4028814 ], [ -4.8033774, 37.4026744 ], [ -4.8037436, 37.4025214 ], [ -4.8041804, 37.4024225 ], [ -4.8046341, 37.4020652 ], [ -4.8051593, 37.4017991 ], [ -4.8056619, 37.4015517 ], [ -4.8064835, 37.4011151 ], [ -4.8071669, 37.4006989 ], [ -4.8075766, 37.4004345 ], [ -4.8078699, 37.400135 ], [ -4.8079726, 37.3995987 ], [ -4.8080783, 37.3991818 ], [ -4.8073031, 37.3989084 ], [ -4.8062478, 37.3984936 ], [ -4.8053974, 37.3979089 ], [ -4.804032, 37.3969149 ], [ -4.8024565, 37.3958824 ], [ -4.8011327, 37.3951658 ], [ -4.8005171, 37.394925 ], [ -4.7990655, 37.3946968 ], [ -4.7975091, 37.3944564 ], [ -4.7968613, 37.3943272 ], [ -4.7963108, 37.3938907 ], [ -4.7953984, 37.3928898 ], [ -4.7946467, 37.3920533 ], [ -4.7938662, 37.3914674 ], [ -4.7935521, 37.3910829 ], [ -4.7933306, 37.390558 ], [ -4.7928498, 37.3901205 ], [ -4.7923009, 37.3897535 ], [ -4.7913913, 37.3896004 ], [ -4.7907936, 37.3893732 ], [ -4.7900783, 37.3893284 ], [ -4.7893776, 37.3891722 ], [ -4.7887809, 37.3889866 ], [ -4.7878789, 37.3884164 ], [ -4.787291, 37.3878692 ], [ -4.7867777, 37.3875295 ], [ -4.7864908, 37.3871863 ], [ -4.7862042, 37.386857 ], [ -4.785785, 37.3868077 ], [ -4.7853607, 37.38655 ], [ -4.7852138, 37.3864469 ], [ -4.7850484, 37.3865839 ], [ -4.7849323, 37.3867016 ], [ -4.7848451, 37.3869243 ], [ -4.7847176, 37.387116 ], [ -4.7844737, 37.3874148 ], [ -4.7844644, 37.3875836 ], [ -4.7846132, 37.3877289 ], [ -4.7848422, 37.3879152 ], [ -4.7846842, 37.3879386 ], [ -4.7844249, 37.3881429 ], [ -4.7840581, 37.3882749 ], [ -4.783794, 37.3882788 ], [ -4.7834897, 37.3882624 ], [ -4.7833198, 37.3883387 ], [ -4.7831521, 37.3885099 ], [ -4.7829934, 37.3890975 ], [ -4.7830142, 37.3891077 ], [ -4.7833286, 37.3892641 ], [ -4.7836252, 37.3893216 ], [ -4.783939, 37.3894532 ], [ -4.7842683, 37.3895846 ], [ -4.7845375, 37.3898036 ], [ -4.7847925, 37.3900725 ], [ -4.7847544, 37.3904325 ], [ -4.7846958, 37.3905821 ], [ -4.7845127, 37.3907213 ], [ -4.7842809, 37.3907743 ], [ -4.7839536, 37.3907297 ], [ -4.7839268, 37.3907156 ], [ -4.7834579, 37.3905899 ], [ -4.7829969, 37.3907065 ], [ -4.7827595, 37.3908334 ], [ -4.7825032, 37.3908921 ], [ -4.7822119, 37.3909239 ], [ -4.7820214, 37.3908582 ], [ -4.7818439, 37.3907907 ], [ -4.7817801, 37.3907872 ], [ -4.7815345, 37.3907675 ], [ -4.781259, 37.3907868 ], [ -4.7812469, 37.3907877 ], [ -4.7807343, 37.390905 ], [ -4.780125, 37.3910687 ], [ -4.7796128, 37.391105 ], [ -4.7787147, 37.39123 ], [ -4.7780795, 37.3913016 ], [ -4.7777739, 37.3915169 ], [ -4.7776864, 37.3916233 ], [ -4.7774676, 37.3918896 ], [ -4.7772774, 37.3921768 ], [ -4.7772647, 37.3921932 ], [ -4.7770312, 37.3926312 ], [ -4.7767009, 37.3931196 ], [ -4.776263, 37.393505 ], [ -4.7762139, 37.3935483 ], [ -4.7761989, 37.3935748 ], [ -4.7761401, 37.3936784 ], [ -4.7757813, 37.3943109 ], [ -4.775734, 37.3944121 ], [ -4.7755595, 37.3947852 ], [ -4.7754006, 37.3952958 ], [ -4.7752565, 37.395769 ], [ -4.7747471, 37.3965699 ], [ -4.774061, 37.3971255 ], [ -4.7736019, 37.3977522 ], [ -4.7735907, 37.3978867 ], [ -4.7736585, 37.3982312 ], [ -4.7738369, 37.3986959 ], [ -4.7740985, 37.3991428 ], [ -4.7743377, 37.3995231 ], [ -4.774396, 37.4002234 ], [ -4.7744714, 37.4002217 ], [ -4.7744054, 37.400624 ], [ -4.7743422, 37.4007094 ], [ -4.7743189, 37.4008154 ], [ -4.7741429, 37.4012642 ], [ -4.7741558, 37.4018094 ], [ -4.7741634, 37.4027885 ], [ -4.7742714, 37.403419 ], [ -4.774621, 37.4037485 ], [ -4.775033, 37.4040893 ], [ -4.7753791, 37.4042701 ], [ -4.7758977, 37.4045226 ], [ -4.7764938, 37.4047615 ], [ -4.7771359, 37.404975 ], [ -4.7779634, 37.4051484 ], [ -4.7788958, 37.4054815 ], [ -4.7793999, 37.4057713 ], [ -4.779702, 37.4060643 ], [ -4.7801946, 37.4065279 ], [ -4.7806972, 37.4067558 ], [ -4.7811823, 37.4068972 ], [ -4.7817901, 37.4069749 ], [ -4.7826288, 37.4069622 ], [ -4.7833741, 37.4069386 ], [ -4.7839315, 37.4068558 ], [ -4.7842099, 37.406802 ], [ -4.784483, 37.4065252 ], [ -4.7847723, 37.4062729 ], [ -4.7851266, 37.4061437 ], [ -4.7854932, 37.4058778 ], [ -4.7859811, 37.4054862 ], [ -4.7865194, 37.405255 ], [ -4.7872098, 37.4052074 ], [ -4.7884368, 37.4051888 ], [ -4.7896031, 37.4052331 ], [ -4.790878, 37.4052634 ], [ -4.7914872, 37.4054029 ], [ -4.7918808, 37.40562 ], [ -4.7922141, 37.4059125 ] ] ] ] } },
{ "type": "Feature", "properties": { "CCAA": "01 - Andalucía", "PROVINCIA": "14 - Córdoba", "MUNICIPIO": "14056 - Puente Genil", "COD_MUNICIPIO": "14056", "DISTRITO": "05", "SECCION": "1405605001", "V1_H": 79.94, "V1_M": 85.93, "V2_H": 80.18978947, "V2_M": 86.02067046000001, "V3_H": 79.89390484, "V3_M": 85.97042077 }, "geometry": { "type": "Polygon", "coordinates": [ [ [ -4.692156, 37.4271048 ], [ -4.6921987, 37.4273046 ], [ -4.6921482, 37.4273921 ], [ -4.6917636, 37.4280589 ], [ -4.6916785, 37.4293039 ], [ -4.6907559, 37.4309934 ], [ -4.6901303, 37.4323272 ], [ -4.6898992, 37.4331056 ], [ -4.6910163, 37.4335313 ], [ -4.6916575, 37.4354057 ], [ -4.691919, 37.4358844 ], [ -4.6921997, 37.4363983 ], [ -4.6935519, 37.4382266 ], [ -4.694217, 37.4381449 ], [ -4.6959503, 37.4378226 ], [ -4.7000106, 37.4369351 ], [ -4.7002717, 37.4354894 ], [ -4.701814, 37.4362152 ], [ -4.7024382, 37.4363324 ], [ -4.7029378, 37.435433 ], [ -4.7032787, 37.4350135 ], [ -4.7039137, 37.4346078 ], [ -4.7046043, 37.4351566 ], [ -4.7056794, 37.4362135 ], [ -4.7043874, 37.4365567 ], [ -4.7060524, 37.438209 ], [ -4.7066482, 37.4390656 ], [ -4.7065309, 37.4393737 ], [ -4.7061269, 37.4400014 ], [ -4.7057519, 37.4409081 ], [ -4.7056197, 37.4415589 ], [ -4.7055895, 37.4432176 ], [ -4.7046149, 37.4460977 ], [ -4.7045764, 37.4468914 ], [ -4.7046082, 37.4482969 ], [ -4.704425, 37.4491918 ], [ -4.70406, 37.4500443 ], [ -4.7025481, 37.4516703 ], [ -4.7021501, 37.4525683 ], [ -4.7022142, 37.4529008 ], [ -4.7050134, 37.4532029 ], [ -4.7058836, 37.4531904 ], [ -4.7068419, 37.4530774 ], [ -4.7068269, 37.451915 ], [ -4.7075489, 37.4518505 ], [ -4.7077486, 37.4521811 ], [ -4.708398, 37.4529017 ], [ -4.7105116, 37.4523845 ], [ -4.7108174, 37.45092 ], [ -4.7119806, 37.4508671 ], [ -4.7122824, 37.4522055 ], [ -4.7135976, 37.4523757 ], [ -4.7138292, 37.4516244 ], [ -4.7142286, 37.4507984 ], [ -4.7152638, 37.4510808 ], [ -4.717009, 37.4517675 ], [ -4.7165094, 37.4526579 ], [ -4.7162082, 37.4533293 ], [ -4.7161309, 37.4539072 ], [ -4.7162867, 37.4542925 ], [ -4.7170868, 37.4551731 ], [ -4.71728, 37.455711 ], [ -4.7173606, 37.4562686 ], [ -4.7173491, 37.4567555 ], [ -4.7175918, 37.4569863 ], [ -4.7194951, 37.4576526 ], [ -4.719546, 37.4579042 ], [ -4.7194816, 37.458545 ], [ -4.7195655, 37.4592468 ], [ -4.7211696, 37.4596831 ], [ -4.7217873, 37.4599985 ], [ -4.7221813, 37.4604164 ], [ -4.7224144, 37.4612151 ], [ -4.7240547, 37.4612542 ], [ -4.7245952, 37.4601739 ], [ -4.7250274, 37.459789 ], [ -4.7269631, 37.4589135 ], [ -4.727665, 37.4584617 ], [ -4.7281302, 37.4580403 ], [ -4.728444, 37.4574319 ], [ -4.7287465, 37.4573103 ], [ -4.7291538, 37.4573223 ], [ -4.7298235, 37.4574387 ], [ -4.7305876, 37.4577249 ], [ -4.731253, 37.4581478 ], [ -4.7326558, 37.4596593 ], [ -4.7333259, 37.4602804 ], [ -4.7341316, 37.4608995 ], [ -4.7345537, 37.4610645 ], [ -4.7349951, 37.4610851 ], [ -4.7351588, 37.4608303 ], [ -4.7353402, 37.460359 ], [ -4.7357735, 37.4600282 ], [ -4.7357446, 37.4597582 ], [ -4.7353412, 37.458935 ], [ -4.7354369, 37.4586722 ], [ -4.7358285, 37.4584952 ], [ -4.7363264, 37.4585149 ], [ -4.7373688, 37.4591035 ], [ -4.7379283, 37.4593386 ], [ -4.7385758, 37.4594733 ], [ -4.7391529, 37.4590051 ], [ -4.7395361, 37.4589544 ], [ -4.7398936, 37.4587689 ], [ -4.7403911, 37.4582839 ], [ -4.7408616, 37.4580967 ], [ -4.7414949, 37.4581054 ], [ -4.7420517, 37.4582234 ], [ -4.7425432, 37.4584595 ], [ -4.7427885, 37.4587983 ], [ -4.7429254, 37.4593371 ], [ -4.7429084, 37.4600673 ], [ -4.7426419, 37.4612519 ], [ -4.7424233, 37.4625529 ], [ -4.7423549, 37.4635003 ], [ -4.7423814, 37.4641578 ], [ -4.7425633, 37.4646869 ], [ -4.7427943, 37.4648998 ], [ -4.7431144, 37.4650483 ], [ -4.743862, 37.4651093 ], [ -4.747108, 37.4651515 ], [ -4.747373, 37.4653639 ], [ -4.7477228, 37.4658183 ], [ -4.7486598, 37.4676972 ], [ -4.7489836, 37.4680077 ], [ -4.750632, 37.4683889 ], [ -4.7509535, 37.4686005 ], [ -4.7513975, 37.4687291 ], [ -4.751791, 37.4686331 ], [ -4.7531315, 37.4679283 ], [ -4.75366, 37.4678033 ], [ -4.7551002, 37.4670158 ], [ -4.7563363, 37.4666911 ], [ -4.7571082, 37.4663371 ], [ -4.7577415, 37.4663367 ], [ -4.7582745, 37.4664099 ], [ -4.7584989, 37.4663344 ], [ -4.7589275, 37.4658053 ], [ -4.7594343, 37.4657166 ], [ -4.7599661, 37.4657358 ], [ -4.7621261, 37.4662353 ], [ -4.7625426, 37.466157 ], [ -4.7631311, 37.4656976 ], [ -4.7634582, 37.4656657 ], [ -4.7643463, 37.4654451 ], [ -4.7646069, 37.4654683 ], [ -4.7649613, 37.4656342 ], [ -4.7653059, 37.4658634 ], [ -4.7656921, 37.4659387 ], [ -4.7663943, 37.4659913 ], [ -4.766589, 37.4660966 ], [ -4.7667191, 37.466338 ], [ -4.7668929, 37.4665156 ], [ -4.7672341, 37.4666007 ], [ -4.7677099, 37.4666386 ], [ -4.7685237, 37.4666264 ], [ -4.7708525, 37.4661319 ], [ -4.772629, 37.4661864 ], [ -4.7733636, 37.466653 ], [ -4.773614, 37.4667214 ], [ -4.7739183, 37.4666808 ], [ -4.7743103, 37.4665216 ], [ -4.7752675, 37.4644434 ], [ -4.7756729, 37.4638965 ], [ -4.7760578, 37.4639178 ], [ -4.7764905, 37.4640465 ], [ -4.7766274, 37.4650538 ], [ -4.7774529, 37.4650594 ], [ -4.7783484, 37.4651541 ], [ -4.7788035, 37.4652735 ], [ -4.7789892, 37.4654779 ], [ -4.7792607, 37.4664382 ], [ -4.7796507, 37.4666757 ], [ -4.7801508, 37.4667853 ], [ -4.780433, 37.466763 ], [ -4.7817264, 37.4659955 ], [ -4.7826605, 37.4658101 ], [ -4.7834741, 37.4657889 ], [ -4.7841259, 37.4656258 ], [ -4.7845049, 37.4653948 ], [ -4.7854592, 37.4646323 ], [ -4.7861396, 37.4642435 ], [ -4.7866437, 37.4640466 ], [ -4.7871762, 37.4640926 ], [ -4.7875652, 37.464285 ], [ -4.7878657, 37.4645599 ], [ -4.7886824, 37.4651423 ], [ -4.7891607, 37.4652883 ], [ -4.7899329, 37.4654298 ], [ -4.7903676, 37.4656396 ], [ -4.7907131, 37.4659047 ], [ -4.7911678, 37.4664836 ], [ -4.7915479, 37.4667753 ], [ -4.7927335, 37.4671809 ], [ -4.7929215, 37.4674754 ], [ -4.7930128, 37.4679877 ], [ -4.7930053, 37.4686188 ], [ -4.7931819, 37.4689135 ], [ -4.793482, 37.4691703 ], [ -4.7939396, 37.4693887 ], [ -4.7945436, 37.4695868 ], [ -4.795145, 37.4696768 ], [ -4.7952536, 37.4709099 ], [ -4.7948028, 37.4709707 ], [ -4.7942417, 37.4711505 ], [ -4.7938997, 37.4715072 ], [ -4.793829, 37.4718598 ], [ -4.7948647, 37.4721415 ], [ -4.7969323, 37.4725426 ], [ -4.7985256, 37.472969 ], [ -4.7982162, 37.4732712 ], [ -4.7976789, 37.4739733 ], [ -4.7964481, 37.4759387 ], [ -4.7960692, 37.4761698 ], [ -4.795295, 37.4764249 ], [ -4.7945367, 37.476869 ], [ -4.7940178, 37.4773996 ], [ -4.7936477, 37.4780001 ], [ -4.7932289, 37.479881 ], [ -4.7928791, 37.4808596 ], [ -4.7919945, 37.4826485 ], [ -4.7927252, 37.4824662 ], [ -4.7947551, 37.4817505 ], [ -4.7956492, 37.4813043 ], [ -4.7962728, 37.4808983 ], [ -4.7973513, 37.4796562 ], [ -4.7999564, 37.4793551 ], [ -4.8007976, 37.479063 ], [ -4.8012992, 37.4787579 ], [ -4.8016312, 37.4784555 ], [ -4.8021149, 37.4783489 ], [ -4.8029721, 37.4782548 ], [ -4.8037482, 37.4780807 ], [ -4.8042639, 37.4778926 ], [ -4.804855, 37.4775501 ], [ -4.8061514, 37.4764398 ], [ -4.8084293, 37.4742961 ], [ -4.8102114, 37.4727006 ], [ -4.8110997, 37.4720201 ], [ -4.8133523, 37.4697775 ], [ -4.8148621, 37.4676815 ], [ -4.8164172, 37.4651251 ], [ -4.8171807, 37.4639687 ], [ -4.8183486, 37.4627071 ], [ -4.8191045, 37.4621728 ], [ -4.8197196, 37.4618929 ], [ -4.8200843, 37.4615448 ], [ -4.8211176, 37.4603303 ], [ -4.8228511, 37.4586182 ], [ -4.8248116, 37.4569477 ], [ -4.8270639, 37.4551916 ], [ -4.8287242, 37.4537329 ], [ -4.8298712, 37.4525525 ], [ -4.8298712, 37.4525525 ], [ -4.8309692, 37.4512197 ], [ -4.8334417, 37.4478468 ], [ -4.8360082, 37.4432377 ], [ -4.8366321, 37.4419392 ], [ -4.8368279, 37.4411611 ], [ -4.8369693, 37.439086 ], [ -4.8371282, 37.4377227 ], [ -4.8369375, 37.4350039 ], [ -4.8373021, 37.4337365 ], [ -4.8372448, 37.4332417 ], [ -4.8369021, 37.4321655 ], [ -4.8360435, 37.4298627 ], [ -4.8352735, 37.4274863 ], [ -4.8345587, 37.4255147 ], [ -4.8346257, 37.425018 ], [ -4.8352217, 37.4249006 ], [ -4.8358163, 37.4247201 ], [ -4.8364312, 37.4244492 ], [ -4.8368649, 37.4241631 ], [ -4.8372549, 37.4237019 ], [ -4.8376448, 37.4232407 ], [ -4.8380726, 37.4222517 ], [ -4.8392022, 37.4203866 ], [ -4.8395532, 37.4194889 ], [ -4.83987, 37.4190424 ], [ -4.8403341, 37.4186115 ], [ -4.8409569, 37.4182053 ], [ -4.8412439, 37.4179305 ], [ -4.841339, 37.4176586 ], [ -4.8412068, 37.4173362 ], [ -4.8409845, 37.4170243 ], [ -4.8409097, 37.416737 ], [ -4.8411866, 37.4160478 ], [ -4.8420659, 37.4150427 ], [ -4.8427725, 37.4143648 ], [ -4.8432839, 37.4140233 ], [ -4.8442473, 37.4136839 ], [ -4.8456848, 37.413328 ], [ -4.8473821, 37.4125084 ], [ -4.8480498, 37.4120924 ], [ -4.8492331, 37.4110465 ], [ -4.8498111, 37.410659 ], [ -4.8479866, 37.4095159 ], [ -4.8474912, 37.409127 ], [ -4.8471879, 37.4087353 ], [ -4.8467585, 37.4078136 ], [ -4.8463536, 37.4065042 ], [ -4.8458282, 37.4044305 ], [ -4.8454753, 37.4038592 ], [ -4.8452088, 37.403584 ], [ -4.8448558, 37.4034723 ], [ -4.8443248, 37.4034716 ], [ -4.8437537, 37.4036787 ], [ -4.8429311, 37.4044198 ], [ -4.8425931, 37.4047243 ], [ -4.8422376, 37.4049731 ], [ -4.8417701, 37.4046919 ], [ -4.8409684, 37.4048798 ], [ -4.840403, 37.4044461 ], [ -4.8394671, 37.4039812 ], [ -4.8385797, 37.4036078 ], [ -4.8378815, 37.4034158 ], [ -4.8372808, 37.4034251 ], [ -4.8367693, 37.403304 ], [ -4.8361179, 37.4031297 ], [ -4.835422, 37.4030299 ], [ -4.8349142, 37.4030562 ], [ -4.8338807, 37.4033303 ], [ -4.8328735, 37.4037332 ], [ -4.8322754, 37.4038531 ], [ -4.831121, 37.4039079 ], [ -4.82994, 37.4038155 ], [ -4.8289686, 37.4037936 ], [ -4.8278511, 37.4034605 ], [ -4.8264771, 37.4030392 ], [ -4.8254294, 37.4027235 ], [ -4.8244251, 37.4022964 ], [ -4.8238666, 37.4021391 ], [ -4.8228437, 37.4018967 ], [ -4.8223563, 37.401812 ], [ -4.8214778, 37.4018071 ], [ -4.820439, 37.40186 ], [ -4.8198844, 37.4018685 ], [ -4.8190967, 37.4017884 ], [ -4.8179858, 37.4017317 ], [ -4.8169461, 37.4017477 ], [ -4.8164391, 37.4018108 ], [ -4.8160908, 37.4017424 ], [ -4.8156238, 37.4015467 ], [ -4.8151074, 37.4012227 ], [ -4.8144578, 37.4011221 ], [ -4.8139029, 37.4011122 ], [ -4.8133897, 37.4009172 ], [ -4.8127348, 37.4005953 ], [ -4.8121265, 37.4002912 ], [ -4.8114738, 37.4000615 ], [ -4.810962, 37.3999218 ], [ -4.8102857, 37.399674 ], [ -4.809793, 37.3993681 ], [ -4.8092999, 37.3990437 ], [ -4.8086538, 37.3990904 ], [ -4.8083072, 37.3990957 ], [ -4.8080993, 37.3990989 ], [ -4.8080783, 37.3991818 ], [ -4.8079726, 37.3995987 ], [ -4.8078699, 37.400135 ], [ -4.8075766, 37.4004345 ], [ -4.8071669, 37.4006989 ], [ -4.8064835, 37.4011151 ], [ -4.8056619, 37.4015517 ], [ -4.8051593, 37.4017991 ], [ -4.8046341, 37.4020652 ], [ -4.8041804, 37.4024225 ], [ -4.8037436, 37.4025214 ], [ -4.8033774, 37.4026744 ], [ -4.803105, 37.4028814 ], [ -4.8029081, 37.4033455 ], [ -4.8032835, 37.4035794 ], [ -4.803638, 37.4039059 ], [ -4.804316, 37.4042275 ], [ -4.8047429, 37.4044064 ], [ -4.8031193, 37.4045196 ], [ -4.8024879, 37.4047524 ], [ -4.8017679, 37.4051848 ], [ -4.8011714, 37.4055781 ], [ -4.8005715, 37.4058351 ], [ -4.8000207, 37.4061905 ], [ -4.7995009, 37.4065455 ], [ -4.7991618, 37.4066622 ], [ -4.7987266, 37.4066565 ], [ -4.7975895, 37.4065374 ], [ -4.7966516, 37.4063037 ], [ -4.7961194, 37.4061383 ], [ -4.795873, 37.4062288 ], [ -4.7954789, 37.4066438 ], [ -4.7951727, 37.4068344 ], [ -4.7947407, 37.4069649 ], [ -4.7942885, 37.4068974 ], [ -4.7936751, 37.4065844 ], [ -4.7928278, 37.4062378 ], [ -4.7922141, 37.4059125 ], [ -4.7918808, 37.40562 ], [ -4.7914872, 37.4054029 ], [ -4.790878, 37.4052634 ], [ -4.7896031, 37.4052331 ], [ -4.7884368, 37.4051888 ], [ -4.7872098, 37.4052074 ], [ -4.7865194, 37.405255 ], [ -4.7859811, 37.4054862 ], [ -4.7854932, 37.4058778 ], [ -4.7851266, 37.4061437 ], [ -4.7847723, 37.4062729 ], [ -4.784483, 37.4065252 ], [ -4.7842099, 37.406802 ], [ -4.7839315, 37.4068558 ], [ -4.7833741, 37.4069386 ], [ -4.7826288, 37.4069622 ], [ -4.7817901, 37.4069749 ], [ -4.7811823, 37.4068972 ], [ -4.7806972, 37.4067558 ], [ -4.7801946, 37.4065279 ], [ -4.779702, 37.4060643 ], [ -4.7793999, 37.4057713 ], [ -4.7788958, 37.4054815 ], [ -4.7779634, 37.4051484 ], [ -4.7771359, 37.404975 ], [ -4.7764938, 37.4047615 ], [ -4.7758977, 37.4045226 ], [ -4.7753791, 37.4042701 ], [ -4.775033, 37.4040893 ], [ -4.774621, 37.4037485 ], [ -4.7742714, 37.403419 ], [ -4.7741634, 37.4027885 ], [ -4.7741558, 37.4018094 ], [ -4.7741429, 37.4012642 ], [ -4.7743189, 37.4008154 ], [ -4.7743422, 37.4007094 ], [ -4.7744054, 37.400624 ], [ -4.7744714, 37.4002217 ], [ -4.774396, 37.4002234 ], [ -4.7743377, 37.3995231 ], [ -4.7740985, 37.3991428 ], [ -4.7738369, 37.3986959 ], [ -4.7736585, 37.3982312 ], [ -4.7735907, 37.3978867 ], [ -4.7736019, 37.3977522 ], [ -4.774061, 37.3971255 ], [ -4.7747471, 37.3965699 ], [ -4.7752565, 37.395769 ], [ -4.7754006, 37.3952958 ], [ -4.7755595, 37.3947852 ], [ -4.775734, 37.3944121 ], [ -4.7753891, 37.394407 ], [ -4.7746704, 37.3950067 ], [ -4.7743457, 37.3949563 ], [ -4.7736253, 37.3949833 ], [ -4.7732777, 37.3950191 ], [ -4.7724692, 37.3949587 ], [ -4.7719651, 37.3947939 ], [ -4.7716972, 37.3946681 ], [ -4.7714387, 37.3945644 ], [ -4.7711231, 37.3943272 ], [ -4.7708705, 37.394105 ], [ -4.7707831, 37.3940282 ], [ -4.7705484, 37.3939594 ], [ -4.7701388, 37.3940247 ], [ -4.7697978, 37.3941373 ], [ -4.7693481, 37.3942139 ], [ -4.7688221, 37.3942003 ], [ -4.76853, 37.3941025 ], [ -4.7681061, 37.39384 ], [ -4.7678808, 37.3937197 ], [ -4.7678026, 37.3936694 ], [ -4.7679996, 37.3934202 ], [ -4.7681158, 37.3931825 ], [ -4.767256, 37.3932182 ], [ -4.7666406, 37.3931549 ], [ -4.7659794, 37.393074 ], [ -4.7653169, 37.3929388 ], [ -4.7638898, 37.3931596 ], [ -4.7639351, 37.393122 ], [ -4.762487, 37.3933599 ], [ -4.7609563, 37.393669 ], [ -4.7600847, 37.3938118 ], [ -4.7604803, 37.3942284 ], [ -4.7604495, 37.3942508 ], [ -4.7614013, 37.3950232 ], [ -4.7614852, 37.3951455 ], [ -4.7616643, 37.3952427 ], [ -4.7618722, 37.3953102 ], [ -4.7622006, 37.395176 ], [ -4.7630767, 37.3959915 ], [ -4.762884, 37.3964262 ], [ -4.7628113, 37.3963956 ], [ -4.7625334, 37.3961705 ], [ -4.7621948, 37.3958698 ], [ -4.7617818, 37.3955408 ], [ -4.7613208, 37.395677 ], [ -4.7609324, 37.395771 ], [ -4.7601215, 37.3960712 ], [ -4.7589309, 37.396524 ], [ -4.7575659, 37.3970793 ], [ -4.7565948, 37.3974641 ], [ -4.7561549, 37.3976882 ], [ -4.7565521, 37.3987934 ], [ -4.7558662, 37.3990858 ], [ -4.7543962, 37.3998836 ], [ -4.7529154, 37.3983814 ], [ -4.7519968, 37.3974494 ], [ -4.7505741, 37.3982488 ], [ -4.7500238, 37.3981115 ], [ -4.7489093, 37.399201 ], [ -4.7482236, 37.4001023 ], [ -4.7478931, 37.4005982 ], [ -4.7459122, 37.4007002 ], [ -4.7452901, 37.4004184 ], [ -4.7448348, 37.399786 ], [ -4.7412571, 37.4009216 ], [ -4.7389173, 37.4016611 ], [ -4.7378138, 37.4019667 ], [ -4.7371213, 37.4020272 ], [ -4.735595, 37.4023601 ], [ -4.7350703, 37.402442 ], [ -4.7334558, 37.402268 ], [ -4.7321458, 37.4018672 ], [ -4.7309282, 37.4014403 ], [ -4.7303394, 37.4014242 ], [ -4.7291669, 37.4016143 ], [ -4.7275322, 37.40191 ], [ -4.726237, 37.4021512 ], [ -4.7245415, 37.4024972 ], [ -4.7236631, 37.402683 ], [ -4.7230309, 37.4021239 ], [ -4.7198374, 37.4019727 ], [ -4.7140382, 37.4016369 ], [ -4.7111865, 37.40153 ], [ -4.7080319, 37.4017239 ], [ -4.7065221, 37.4020669 ], [ -4.70471, 37.4027355 ], [ -4.7034418, 37.4034949 ], [ -4.702286, 37.4044257 ], [ -4.7006199, 37.4060805 ], [ -4.6979526, 37.4086637 ], [ -4.6955902, 37.4110448 ], [ -4.6946686, 37.412071 ], [ -4.6926068, 37.4140525 ], [ -4.6914302, 37.4154529 ], [ -4.6906855, 37.4167731 ], [ -4.6904384, 37.418185 ], [ -4.6905906, 37.4194429 ], [ -4.6913849, 37.4217046 ], [ -4.6922241, 37.4245834 ], [ -4.692156, 37.4271048 ] ] ] } },
{ "type": "Feature", "properties": { "CCAA": "01 - Andalucía", "PROVINCIA": "14 - Córdoba", "MUNICIPIO": "14056 - Puente Genil", "COD_MUNICIPIO": "14056", "DISTRITO": "05", "SECCION": "1405605003", "V1_H": 79.19, "V1_M": 85.12, "V2_H": 79.38537767, "V2_M": 85.11224236, "V3_H": 79.115857, "V3_M": 85.3484756 }, "geometry": { "type": "Polygon", "coordinates": [ [ [ -4.703532, 37.3482722 ], [ -4.7016263, 37.3483718 ], [ -4.7006389, 37.3486383 ], [ -4.7000815, 37.3489528 ], [ -4.6990417, 37.349905 ], [ -4.6983189, 37.3503931 ], [ -4.6977921, 37.3505629 ], [ -4.6972403, 37.3506249 ], [ -4.6964152, 37.3505826 ], [ -4.6946949, 37.350391 ], [ -4.6936892, 37.3503513 ], [ -4.6928897, 37.3504438 ], [ -4.690012, 37.3509987 ], [ -4.6890301, 37.3515175 ], [ -4.6884479, 37.351733 ], [ -4.687682, 37.3518161 ], [ -4.6867376, 37.3519918 ], [ -4.6863244, 37.352196 ], [ -4.6850317, 37.3539628 ], [ -4.68348, 37.3562742 ], [ -4.6819442, 37.3587925 ], [ -4.681381, 37.3593593 ], [ -4.6804727, 37.3601473 ], [ -4.6805064, 37.3611563 ], [ -4.6806886, 37.3617305 ], [ -4.6811197, 37.3623282 ], [ -4.6814107, 37.3632253 ], [ -4.6814211, 37.3636939 ], [ -4.6812799, 37.3644529 ], [ -4.6813188, 37.3651824 ], [ -4.681558, 37.3657828 ], [ -4.6816743, 37.3664391 ], [ -4.6815511, 37.3669906 ], [ -4.6811648, 37.3673927 ], [ -4.6805982, 37.3678063 ], [ -4.679782, 37.3681784 ], [ -4.6795952, 37.3684064 ], [ -4.6794618, 37.3695169 ], [ -4.6792908, 37.3699519 ], [ -4.6785961, 37.3707008 ], [ -4.6777492, 37.3717222 ], [ -4.677506, 37.3724647 ], [ -4.6774033, 37.3734306 ], [ -4.6768531, 37.374592 ], [ -4.6767543, 37.3752242 ], [ -4.6768263, 37.3764309 ], [ -4.6769846, 37.3774561 ], [ -4.6773085, 37.3783077 ], [ -4.677336, 37.3790374 ], [ -4.6770587, 37.3812945 ], [ -4.6771701, 37.3822392 ], [ -4.6776872, 37.3841606 ], [ -4.6775716, 37.3845498 ], [ -4.6773109, 37.3850131 ], [ -4.677112, 37.3857189 ], [ -4.6771551, 37.3861329 ], [ -4.6779164, 37.3878616 ], [ -4.6785478, 37.388826 ], [ -4.678988, 37.3893154 ], [ -4.6796557, 37.3908922 ], [ -4.679902, 37.391808 ], [ -4.6802813, 37.3926047 ], [ -4.6808779, 37.3935245 ], [ -4.6814427, 37.3940302 ], [ -4.682983, 37.395225 ], [ -4.6828098, 37.3955609 ], [ -4.682641, 37.3960951 ], [ -4.6827668, 37.3966701 ], [ -4.6825784, 37.3978445 ], [ -4.6829857, 37.3988841 ], [ -4.6826039, 37.3999981 ], [ -4.6827081, 37.4016279 ], [ -4.682683, 37.4030343 ], [ -4.6826174, 37.403639 ], [ -4.6823528, 37.4044359 ], [ -4.6821475, 37.4053581 ], [ -4.6821347, 37.4057999 ], [ -4.6823475, 37.4062205 ], [ -4.6826363, 37.4065048 ], [ -4.6828376, 37.4069165 ], [ -4.6828125, 37.4073134 ], [ -4.6825551, 37.40793 ], [ -4.6824888, 37.4084987 ], [ -4.6826618, 37.4091632 ], [ -4.6825952, 37.4097229 ], [ -4.68274, 37.4106401 ], [ -4.6832595, 37.4131563 ], [ -4.68363, 37.4140613 ], [ -4.6841235, 37.4149105 ], [ -4.6847259, 37.4155688 ], [ -4.6854008, 37.4164424 ], [ -4.685997, 37.4173352 ], [ -4.6869516, 37.419088 ], [ -4.687788, 37.4201035 ], [ -4.6895834, 37.421556 ], [ -4.690189, 37.4223584 ], [ -4.6907781, 37.4234315 ], [ -4.6915408, 37.4251871 ], [ -4.6920471, 37.4265948 ], [ -4.692156, 37.4271048 ], [ -4.6922241, 37.4245834 ], [ -4.6913849, 37.4217046 ], [ -4.6905906, 37.4194429 ], [ -4.6904384, 37.418185 ], [ -4.6906855, 37.4167731 ], [ -4.6914302, 37.4154529 ], [ -4.6926068, 37.4140525 ], [ -4.6946686, 37.412071 ], [ -4.6955902, 37.4110448 ], [ -4.6979526, 37.4086637 ], [ -4.7006199, 37.4060805 ], [ -4.702286, 37.4044257 ], [ -4.7034418, 37.4034949 ], [ -4.70471, 37.4027355 ], [ -4.7065221, 37.4020669 ], [ -4.7080319, 37.4017239 ], [ -4.7111865, 37.40153 ], [ -4.7140382, 37.4016369 ], [ -4.7198374, 37.4019727 ], [ -4.7230309, 37.4021239 ], [ -4.7236631, 37.402683 ], [ -4.7245415, 37.4024972 ], [ -4.726237, 37.4021512 ], [ -4.7275322, 37.40191 ], [ -4.7291669, 37.4016143 ], [ -4.7303394, 37.4014242 ], [ -4.7309282, 37.4014403 ], [ -4.7321458, 37.4018672 ], [ -4.7334558, 37.402268 ], [ -4.7350703, 37.402442 ], [ -4.735595, 37.4023601 ], [ -4.7371213, 37.4020272 ], [ -4.7378138, 37.4019667 ], [ -4.7389173, 37.4016611 ], [ -4.7412571, 37.4009216 ], [ -4.7448348, 37.399786 ], [ -4.7452901, 37.4004184 ], [ -4.7459122, 37.4007002 ], [ -4.7478931, 37.4005982 ], [ -4.7482236, 37.4001023 ], [ -4.7489093, 37.399201 ], [ -4.7500238, 37.3981115 ], [ -4.7509381, 37.3975117 ], [ -4.7518432, 37.3971162 ], [ -4.7529381, 37.3964574 ], [ -4.7537937, 37.3958021 ], [ -4.7542893, 37.3955863 ], [ -4.7559306, 37.3950235 ], [ -4.758006, 37.3944022 ], [ -4.7598582, 37.393849 ], [ -4.7600847, 37.3938118 ], [ -4.7579566, 37.3925479 ], [ -4.7568129, 37.3918695 ], [ -4.756215, 37.3915103 ], [ -4.7555943, 37.3912741 ], [ -4.7556579, 37.3912037 ], [ -4.7530613, 37.3904027 ], [ -4.7522263, 37.3901562 ], [ -4.7508658, 37.389788 ], [ -4.7495603, 37.3894622 ], [ -4.7487247, 37.3891868 ], [ -4.7479969, 37.3888955 ], [ -4.7469728, 37.3882634 ], [ -4.7458055, 37.3876766 ], [ -4.7451842, 37.3873118 ], [ -4.7448536, 37.3870434 ], [ -4.7449174, 37.38669 ], [ -4.745038, 37.3864438 ], [ -4.7451157, 37.3859104 ], [ -4.745015, 37.3854516 ], [ -4.7444408, 37.3840074 ], [ -4.7434029, 37.3819947 ], [ -4.7431545, 37.381387 ], [ -4.7433257, 37.3809962 ], [ -4.7433194, 37.380723 ], [ -4.7432387, 37.3803502 ], [ -4.7429601, 37.3799947 ], [ -4.7424997, 37.37957 ], [ -4.7423839, 37.3792409 ], [ -4.7424477, 37.3788804 ], [ -4.7428155, 37.3784147 ], [ -4.7432409, 37.3781064 ], [ -4.7439005, 37.3777946 ], [ -4.744701, 37.3773369 ], [ -4.7451445, 37.3770283 ], [ -4.7458332, 37.3764141 ], [ -4.7461153, 37.3761438 ], [ -4.7464513, 37.3758655 ], [ -4.7464987, 37.3755772 ], [ -4.7464513, 37.3750889 ], [ -4.746473, 37.3744701 ], [ -4.7465848, 37.3730732 ], [ -4.7464314, 37.3726727 ], [ -4.7461539, 37.3723604 ], [ -4.7456251, 37.3720949 ], [ -4.7451297, 37.3717139 ], [ -4.7448097, 37.3711289 ], [ -4.7445222, 37.3703852 ], [ -4.7442902, 37.3697054 ], [ -4.7450044, 37.3670771 ], [ -4.7455067, 37.3654228 ], [ -4.74579, 37.3644262 ], [ -4.7459685, 37.3635749 ], [ -4.7462421, 37.3629381 ], [ -4.7465257, 37.3619558 ], [ -4.7466325, 37.36112 ], [ -4.7466372, 37.3597679 ], [ -4.7465743, 37.3586037 ], [ -4.7465039, 37.3579 ], [ -4.7464949, 37.3575118 ], [ -4.746483, 37.3569942 ], [ -4.7463782, 37.3563628 ], [ -4.7468763, 37.3557918 ], [ -4.7470017, 37.3554439 ], [ -4.7473168, 37.3550177 ], [ -4.7475162, 37.3548526 ], [ -4.7478749, 37.3545554 ], [ -4.7481976, 37.3544533 ], [ -4.7486826, 37.3543488 ], [ -4.7491271, 37.354245 ], [ -4.7494092, 37.3541435 ], [ -4.7497289, 37.3539118 ], [ -4.750047, 37.3536152 ], [ -4.7505238, 37.3531541 ], [ -4.7510803, 37.3526269 ], [ -4.7521265, 37.3521898 ], [ -4.7538945, 37.3517999 ], [ -4.7539547, 37.3517311 ], [ -4.7545867, 37.3513732 ], [ -4.7550542, 37.3502046 ], [ -4.7553543, 37.3493405 ], [ -4.755539, 37.3485246 ], [ -4.7554107, 37.3483756 ], [ -4.7553473, 37.3483019 ], [ -4.75623, 37.348893 ], [ -4.7571109, 37.3492487 ], [ -4.7584794, 37.3495972 ], [ -4.7594853, 37.3498076 ], [ -4.7605668, 37.3499555 ], [ -4.7616753, 37.3501644 ], [ -4.7628627, 37.350454 ], [ -4.7632776, 37.3506323 ], [ -4.7637679, 37.3507479 ], [ -4.764895, 37.3506492 ], [ -4.7653626, 37.3508881 ], [ -4.7658045, 37.3511274 ], [ -4.7664585, 37.3494579 ], [ -4.7669593, 37.3472784 ], [ -4.7672449, 37.3452251 ], [ -4.7675112, 37.3423524 ], [ -4.7676002, 37.3406709 ], [ -4.7679956, 37.3389233 ], [ -4.7685022, 37.3374466 ], [ -4.7674529, 37.3377271 ], [ -4.7664732, 37.3378229 ], [ -4.7648722, 37.3379008 ], [ -4.7640578, 37.3378319 ], [ -4.7633639, 37.3375989 ], [ -4.7625885, 37.3367812 ], [ -4.7611707, 37.3364869 ], [ -4.7604289, 37.3361374 ], [ -4.7595976, 37.3353387 ], [ -4.7591506, 37.3345613 ], [ -4.7588012, 37.3340978 ], [ -4.7584677, 37.3338324 ], [ -4.7579674, 37.3336776 ], [ -4.7571958, 37.3334998 ], [ -4.7571015, 37.3334313 ], [ -4.7563232, 37.3328638 ], [ -4.7556993, 37.3327289 ], [ -4.7547494, 37.3326528 ], [ -4.7536605, 37.3329033 ], [ -4.753033, 37.3331019 ], [ -4.7527401, 37.3331242 ], [ -4.7518297, 37.3318309 ], [ -4.7515179, 37.3315291 ], [ -4.7511201, 37.3314088 ], [ -4.7506705, 37.3314876 ], [ -4.7503876, 37.3314557 ], [ -4.7490554, 37.3309526 ], [ -4.7487272, 37.3309124 ], [ -4.7486774, 37.3316882 ], [ -4.7486015, 37.3318245 ], [ -4.748023, 37.3316979 ], [ -4.7476588, 37.3315681 ], [ -4.7472343, 37.3312679 ], [ -4.7468582, 37.3311113 ], [ -4.7464061, 37.3310819 ], [ -4.7460483, 37.3312314 ], [ -4.745783, 37.3314696 ], [ -4.7450525, 37.3316066 ], [ -4.7442297, 37.3316548 ], [ -4.7411266, 37.3326648 ], [ -4.7384871, 37.3332264 ], [ -4.7380289, 37.3334224 ], [ -4.7378502, 37.3335061 ], [ -4.7372887, 37.3336315 ], [ -4.7358906, 37.3336971 ], [ -4.7351089, 37.3340601 ], [ -4.7325718, 37.3341693 ], [ -4.7318086, 37.3343608 ], [ -4.7311606, 37.3346497 ], [ -4.7300922, 37.3353142 ], [ -4.7297092, 37.3353468 ], [ -4.7292234, 37.3353269 ], [ -4.728978, 37.3354566 ], [ -4.7287464, 37.3356943 ], [ -4.7285766, 37.3361655 ], [ -4.7283709, 37.336547 ], [ -4.7281069, 37.3368483 ], [ -4.7278573, 37.3372846 ], [ -4.7268085, 37.3378226 ], [ -4.7263215, 37.3382443 ], [ -4.7260978, 37.3388244 ], [ -4.7259563, 37.3395474 ], [ -4.725982, 37.3406736 ], [ -4.7259345, 37.3415576 ], [ -4.7260647, 37.341826 ], [ -4.7263266, 37.3419214 ], [ -4.7268137, 37.3419954 ], [ -4.7278414, 37.3420164 ], [ -4.7305495, 37.3419678 ], [ -4.7324199, 37.3423099 ], [ -4.7329214, 37.3425189 ], [ -4.73295, 37.3427799 ], [ -4.7324494, 37.3435983 ], [ -4.7314458, 37.3441358 ], [ -4.7307677, 37.3441006 ], [ -4.7294164, 37.3442466 ], [ -4.727888, 37.3445483 ], [ -4.726818, 37.344654 ], [ -4.7258844, 37.3448028 ], [ -4.7237049, 37.3457539 ], [ -4.7226139, 37.3464277 ], [ -4.7221103, 37.347111 ], [ -4.7216122, 37.3480465 ], [ -4.7214061, 37.3489058 ], [ -4.721473, 37.3493644 ], [ -4.7218093, 37.3497561 ], [ -4.7224073, 37.3502341 ], [ -4.723312, 37.3507977 ], [ -4.7253549, 37.3517593 ], [ -4.7251817, 37.352582 ], [ -4.7249074, 37.3534242 ], [ -4.7243567, 37.3545227 ], [ -4.7237676, 37.3554235 ], [ -4.7230511, 37.356182 ], [ -4.7220763, 37.3570073 ], [ -4.7208295, 37.3577826 ], [ -4.7196101, 37.358278 ], [ -4.7186667, 37.358499 ], [ -4.7176626, 37.3585316 ], [ -4.7172078, 37.358394 ], [ -4.716886, 37.3581463 ], [ -4.7167641, 37.3577515 ], [ -4.716758, 37.3564898 ], [ -4.7159858, 37.3548067 ], [ -4.7151735, 37.3538361 ], [ -4.7143445, 37.3531271 ], [ -4.7132479, 37.3525662 ], [ -4.7070912, 37.3509067 ], [ -4.7045988, 37.3510238 ], [ -4.7039275, 37.3507901 ], [ -4.7035599, 37.350507 ], [ -4.7033246, 37.3500868 ], [ -4.7032703, 37.349682 ], [ -4.7033252, 37.3491134 ], [ -4.703532, 37.3482722 ] ] ] } },
{ "type": "Feature", "properties": { "CCAA": "01 - Andalucía", "PROVINCIA": "14 - Córdoba", "MUNICIPIO": "14056 - Puente Genil", "COD_MUNICIPIO": "14056", "DISTRITO": "02", "SECCION": "1405602001", "V1_H": 80.31, "V1_M": 85.98, "V2_H": 80.51251293, "V2_M": 86.22129475, "V3_H": 80.221823, "V3_M": 85.87405604 }, "geometry": { "type": "Polygon", "coordinates": [ [ [ -4.7763283, 37.3899031 ], [ -4.7765704, 37.3899257 ], [ -4.77664, 37.3899113 ], [ -4.7766753, 37.3899119 ], [ -4.7766778, 37.389821 ], [ -4.7769599, 37.3898368 ], [ -4.7774187, 37.3898741 ], [ -4.7776446, 37.3898546 ], [ -4.7783036, 37.3896319 ], [ -4.7785635, 37.3895598 ], [ -4.7787442, 37.389549 ], [ -4.77887, 37.3895431 ], [ -4.7787853, 37.3874857 ], [ -4.778789, 37.3873884 ], [ -4.7792331, 37.3874459 ], [ -4.7793582, 37.3873128 ], [ -4.7792515, 37.3872405 ], [ -4.7789139, 37.3869294 ], [ -4.7787445, 37.3864681 ], [ -4.7787535, 37.386364 ], [ -4.7780611, 37.3862826 ], [ -4.7778217, 37.3868938 ], [ -4.7774401, 37.3868545 ], [ -4.7771831, 37.3867234 ], [ -4.7770651, 37.3865001 ], [ -4.7770316, 37.3862756 ], [ -4.7769382, 37.3861247 ], [ -4.7756257, 37.3853465 ], [ -4.7753268, 37.384891 ], [ -4.7753866, 37.3843726 ], [ -4.7753722, 37.3837594 ], [ -4.775244, 37.3834163 ], [ -4.7749713, 37.3830563 ], [ -4.7746266, 37.3826972 ], [ -4.7745261, 37.3825071 ], [ -4.7745424, 37.382181 ], [ -4.7745818, 37.3818162 ], [ -4.7745935, 37.3817906 ], [ -4.774696, 37.3815654 ], [ -4.7749655, 37.3812482 ], [ -4.7753853, 37.3813805 ], [ -4.7753861, 37.3813672 ], [ -4.7756953, 37.3808215 ], [ -4.7760413, 37.3803971 ], [ -4.7763217, 37.3800682 ], [ -4.7762734, 37.3794603 ], [ -4.7760066, 37.3789232 ], [ -4.7755354, 37.3783487 ], [ -4.775085, 37.3779361 ], [ -4.7746544, 37.3776451 ], [ -4.7742609, 37.3774887 ], [ -4.7737133, 37.3772669 ], [ -4.7732031, 37.3771934 ], [ -4.7721737, 37.3773847 ], [ -4.7716357, 37.3775686 ], [ -4.7713547, 37.3778704 ], [ -4.7713757, 37.3780459 ], [ -4.7708469, 37.3786219 ], [ -4.7706003, 37.3789502 ], [ -4.7701489, 37.379214 ], [ -4.7697636, 37.3794091 ], [ -4.769559, 37.3794791 ], [ -4.7696653, 37.3809426 ], [ -4.7696222, 37.3818391 ], [ -4.7694447, 37.3820407 ], [ -4.769517, 37.3821462 ], [ -4.7693169, 37.3822778 ], [ -4.7690898, 37.3824599 ], [ -4.7691153, 37.3825906 ], [ -4.7695776, 37.3829731 ], [ -4.7697283, 37.3832664 ], [ -4.7699012, 37.3839548 ], [ -4.7704651, 37.3847624 ], [ -4.7719212, 37.3863726 ], [ -4.7725235, 37.3865899 ], [ -4.7732421, 37.3869902 ], [ -4.7735231, 37.3871944 ], [ -4.773664, 37.3873795 ], [ -4.7737561, 37.3873275 ], [ -4.7742222, 37.3872522 ], [ -4.7745488, 37.3872313 ], [ -4.7753206, 37.3873161 ], [ -4.7757108, 37.3874347 ], [ -4.7760934, 37.387445 ], [ -4.7762294, 37.3878765 ], [ -4.7762275, 37.3882218 ], [ -4.7762081, 37.388467 ], [ -4.7762113, 37.3886035 ], [ -4.7762153, 37.388772 ], [ -4.7762421, 37.3890084 ], [ -4.7762471, 37.3890526 ], [ -4.7761993, 37.3893745 ], [ -4.7765195, 37.3895102 ], [ -4.7763531, 37.3896171 ], [ -4.77624, 37.3896839 ], [ -4.7760686, 37.3898106 ], [ -4.7760184, 37.3898828 ], [ -4.7760695, 37.3898789 ], [ -4.7763283, 37.3899031 ] ] ] } },
{ "type": "Feature", "properties": { "CCAA": "01 - Andalucía", "PROVINCIA": "14 - Córdoba", "MUNICIPIO": "14056 - Puente Genil", "COD_MUNICIPIO": "14056", "DISTRITO": "02", "SECCION": "1405602003", "V1_H": 79.27, "V1_M": 85.17, "V2_H": 79.19654882, "V2_M": 85.28496149, "V3_H": 79.61871206, "V3_M": 85.37047204 }, "geometry": { "type": "Polygon", "coordinates": [ [ [ -4.7681158, 37.3931825 ], [ -4.7679996, 37.3934202 ], [ -4.7678026, 37.3936694 ], [ -4.7678808, 37.3937197 ], [ -4.7681061, 37.39384 ], [ -4.76853, 37.3941025 ], [ -4.7688221, 37.3942003 ], [ -4.7693481, 37.3942139 ], [ -4.7697978, 37.3941373 ], [ -4.7701388, 37.3940247 ], [ -4.7705484, 37.3939594 ], [ -4.7707831, 37.3940282 ], [ -4.7708705, 37.394105 ], [ -4.7711231, 37.3943272 ], [ -4.7714387, 37.3945644 ], [ -4.7716972, 37.3946681 ], [ -4.7719651, 37.3947939 ], [ -4.7724692, 37.3949587 ], [ -4.7732777, 37.3950191 ], [ -4.7736253, 37.3949833 ], [ -4.7743457, 37.3949563 ], [ -4.7746704, 37.3950067 ], [ -4.7753891, 37.394407 ], [ -4.775734, 37.3944121 ], [ -4.7757813, 37.3943109 ], [ -4.7761401, 37.3936784 ], [ -4.7761989, 37.3935748 ], [ -4.7762139, 37.3935483 ], [ -4.7754843, 37.3929073 ], [ -4.7755071, 37.3928612 ], [ -4.7758638, 37.3926914 ], [ -4.7759805, 37.3925389 ], [ -4.7760588, 37.3924412 ], [ -4.7758687, 37.3923795 ], [ -4.7759464, 37.3919589 ], [ -4.7759843, 37.3912809 ], [ -4.7760369, 37.3911559 ], [ -4.7759608, 37.3911496 ], [ -4.7755542, 37.3910482 ], [ -4.7753597, 37.3909477 ], [ -4.7749387, 37.3908085 ], [ -4.7743224, 37.3912801 ], [ -4.7736661, 37.3918238 ], [ -4.7722628, 37.3907566 ], [ -4.7717655, 37.3904346 ], [ -4.7716544, 37.3904094 ], [ -4.7707745, 37.3903575 ], [ -4.7707252, 37.3903405 ], [ -4.7707025, 37.3903712 ], [ -4.7702011, 37.3908386 ], [ -4.7698466, 37.391234 ], [ -4.7695331, 37.3919189 ], [ -4.7693789, 37.3921298 ], [ -4.7690214, 37.3923982 ], [ -4.7686416, 37.392685 ], [ -4.7683067, 37.392944 ], [ -4.7681515, 37.3931095 ], [ -4.7681158, 37.3931825 ] ] ] } },
{ "type": "Feature", "properties": { "CCAA": "01 - Andalucía", "PROVINCIA": "14 - Córdoba", "MUNICIPIO": "14056 - Puente Genil", "COD_MUNICIPIO": "14056", "DISTRITO": "04", "SECCION": "1405604002", "V1_H": 80.06, "V1_M": 86.12, "V2_H": 80.10460866, "V2_M": 86.20761786, "V3_H": 80.17898723, "V3_M": 86.18020212 }, "geometry": { "type": "Polygon", "coordinates": [ [ [ -4.7635627, 37.390662 ], [ -4.7635673, 37.3907348 ], [ -4.7639683, 37.3929023 ], [ -4.7642587, 37.392854 ], [ -4.7643135, 37.3928086 ], [ -4.7652806, 37.3923589 ], [ -4.7664272, 37.3918268 ], [ -4.7665197, 37.3917839 ], [ -4.766258, 37.3904925 ], [ -4.7661707, 37.3904957 ], [ -4.7635627, 37.390662 ] ] ] } },
{ "type": "Feature", "properties": { "CCAA": "01 - Andalucía", "PROVINCIA": "14 - Córdoba", "MUNICIPIO": "14056 - Puente Genil", "COD_MUNICIPIO": "14056", "DISTRITO": "04", "SECCION": "1405604004", "V1_H": 78.9, "V1_M": 84.87, "V2_H": 79.02373168, "V2_M": 85.07467156, "V3_H": 78.82484982, "V3_M": 84.79604014 }, "geometry": { "type": "Polygon", "coordinates": [ [ [ -4.7615946, 37.3871361 ], [ -4.7617277, 37.3872139 ], [ -4.7624424, 37.3874469 ], [ -4.7634387, 37.3878188 ], [ -4.7650244, 37.3884399 ], [ -4.7658312, 37.3887092 ], [ -4.7659007, 37.3887295 ], [ -4.7658799, 37.3886267 ], [ -4.7658586, 37.3885256 ], [ -4.765189, 37.3853458 ], [ -4.7649211, 37.384085 ], [ -4.764971, 37.3840143 ], [ -4.7650188, 37.3839719 ], [ -4.7652028, 37.3836287 ], [ -4.7652649, 37.3829015 ], [ -4.7647257, 37.3814858 ], [ -4.7646877, 37.3814983 ], [ -4.7645088, 37.3815571 ], [ -4.7644532, 37.3815751 ], [ -4.7639873, 37.3817271 ], [ -4.7635976, 37.3817329 ], [ -4.7630773, 37.3819572 ], [ -4.7624768, 37.3823719 ], [ -4.7622779, 37.3825642 ], [ -4.7620684, 37.3830272 ], [ -4.7617691, 37.3832751 ], [ -4.761385, 37.3835243 ], [ -4.7610669, 37.3836913 ], [ -4.7606431, 37.3836909 ], [ -4.7603874, 37.3836271 ], [ -4.7600472, 37.383578 ], [ -4.7595919, 37.3836795 ], [ -4.7591523, 37.3837266 ], [ -4.7585762, 37.3837352 ], [ -4.7581714, 37.3838223 ], [ -4.757311, 37.3838351 ], [ -4.7574132, 37.3840097 ], [ -4.7578273, 37.3841884 ], [ -4.7578304, 37.3841927 ], [ -4.7582445, 37.3847623 ], [ -4.758344, 37.3848095 ], [ -4.7587898, 37.3850213 ], [ -4.7596571, 37.3855277 ], [ -4.7603024, 37.386082 ], [ -4.7606826, 37.3864326 ], [ -4.7614132, 37.3869942 ], [ -4.7614326, 37.3870414 ], [ -4.7615946, 37.3871361 ] ] ] } },
{ "type": "Feature", "properties": { "CCAA": "01 - Andalucía", "PROVINCIA": "14 - Córdoba", "MUNICIPIO": "14056 - Puente Genil", "COD_MUNICIPIO": "14056", "DISTRITO": "03", "SECCION": "1405603004", "V1_H": 79.9, "V1_M": 85.71, "V2_H": 79.8721496, "V2_M": 85.86187756, "V3_H": 80.05417582, "V3_M": 85.81846709 }, "geometry": { "type": "Polygon", "coordinates": [ [ [ -4.7685119, 37.3888445 ], [ -4.7684335, 37.3909465 ], [ -4.7687229, 37.3908199 ], [ -4.7696453, 37.3904071 ], [ -4.7705467, 37.3901523 ], [ -4.7706067, 37.3901646 ], [ -4.7707271, 37.3901263 ], [ -4.7709974, 37.3892487 ], [ -4.7710092, 37.3891571 ], [ -4.7725145, 37.3886922 ], [ -4.7728938, 37.388363 ], [ -4.7735355, 37.3874519 ], [ -4.773664, 37.3873795 ], [ -4.7735231, 37.3871944 ], [ -4.7732421, 37.3869902 ], [ -4.7725235, 37.3865899 ], [ -4.7719212, 37.3863726 ], [ -4.7704651, 37.3847624 ], [ -4.7699012, 37.3839548 ], [ -4.7697283, 37.3832664 ], [ -4.7695776, 37.3829731 ], [ -4.7691153, 37.3825906 ], [ -4.7690898, 37.3824599 ], [ -4.7693169, 37.3822778 ], [ -4.769517, 37.3821462 ], [ -4.7694447, 37.3820407 ], [ -4.7696222, 37.3818391 ], [ -4.7696653, 37.3809426 ], [ -4.769559, 37.3794791 ], [ -4.7692256, 37.379593 ], [ -4.7684531, 37.3799021 ], [ -4.7678329, 37.3801954 ], [ -4.7678274, 37.3801986 ], [ -4.7687435, 37.3811825 ], [ -4.7685037, 37.3819468 ], [ -4.7686621, 37.3825063 ], [ -4.7688999, 37.3826355 ], [ -4.7688765, 37.3832632 ], [ -4.7688904, 37.3832689 ], [ -4.7688189, 37.3832815 ], [ -4.7687776, 37.3834635 ], [ -4.7687677, 37.3840078 ], [ -4.7687327, 37.3854233 ], [ -4.7687117, 37.3857677 ], [ -4.7686342, 37.3870391 ], [ -4.7685119, 37.3888445 ] ] ] } },
{ "type": "Feature", "properties": { "CCAA": "01 - Andalucía", "PROVINCIA": "14 - Córdoba", "MUNICIPIO": "14056 - Puente Genil", "COD_MUNICIPIO": "14056", "DISTRITO": "03", "SECCION": "1405603005", "V1_H": 78.77, "V1_M": 84.85, "V2_H": 78.83270398000001, "V2_M": 84.81764444, "V3_H": 78.82199574000001, "V3_M": 85.12573797 }, "geometry": { "type": "Polygon", "coordinates": [ [ [ -4.765189, 37.3853458 ], [ -4.7683851, 37.3857457 ], [ -4.7683851, 37.3857457 ], [ -4.7687117, 37.3857677 ], [ -4.7687327, 37.3854233 ], [ -4.7687677, 37.3840078 ], [ -4.7687776, 37.3834635 ], [ -4.7688189, 37.3832815 ], [ -4.7688904, 37.3832689 ], [ -4.7688765, 37.3832632 ], [ -4.7688999, 37.3826355 ], [ -4.7686621, 37.3825063 ], [ -4.7685037, 37.3819468 ], [ -4.7687435, 37.3811825 ], [ -4.7678274, 37.3801986 ], [ -4.7670972, 37.3806257 ], [ -4.7663088, 37.3809756 ], [ -4.7655011, 37.3812312 ], [ -4.7647257, 37.3814858 ], [ -4.7652649, 37.3829015 ], [ -4.7652028, 37.3836287 ], [ -4.7650188, 37.3839719 ], [ -4.764971, 37.3840143 ], [ -4.7649211, 37.384085 ], [ -4.765189, 37.3853458 ] ] ] } },
{ "type": "Feature", "properties": { "CCAA": "01 - Andalucía", "PROVINCIA": "14 - Córdoba", "MUNICIPIO": "14056 - Puente Genil", "COD_MUNICIPIO": "14056", "DISTRITO": "01", "SECCION": "1405601002", "V1_H": 80.01, "V1_M": 85.96, "V2_H": 79.87654463, "V2_M": 85.8497366, "V3_H": 80.24882261, "V3_M": 86.17409879 }, "geometry": { "type": "Polygon", "coordinates": [ [ [ -4.7760369, 37.3911559 ], [ -4.7759843, 37.3912809 ], [ -4.7759464, 37.3919589 ], [ -4.7758687, 37.3923795 ], [ -4.7760588, 37.3924412 ], [ -4.7759805, 37.3925389 ], [ -4.7758638, 37.3926914 ], [ -4.7755071, 37.3928612 ], [ -4.7754843, 37.3929073 ], [ -4.7762139, 37.3935483 ], [ -4.776263, 37.393505 ], [ -4.7767009, 37.3931196 ], [ -4.7770312, 37.3926312 ], [ -4.7772647, 37.3921932 ], [ -4.7772774, 37.3921768 ], [ -4.7774676, 37.3918896 ], [ -4.7776864, 37.3916233 ], [ -4.7777739, 37.3915169 ], [ -4.7780795, 37.3913016 ], [ -4.7787147, 37.39123 ], [ -4.7796128, 37.391105 ], [ -4.780125, 37.3910687 ], [ -4.7807343, 37.390905 ], [ -4.7812469, 37.3907877 ], [ -4.781259, 37.3907868 ], [ -4.7815345, 37.3907675 ], [ -4.7817801, 37.3907872 ], [ -4.7818439, 37.3907907 ], [ -4.7820214, 37.3908582 ], [ -4.7822119, 37.3909239 ], [ -4.7825032, 37.3908921 ], [ -4.7827595, 37.3908334 ], [ -4.7829969, 37.3907065 ], [ -4.7834579, 37.3905899 ], [ -4.7839268, 37.3907156 ], [ -4.7839536, 37.3907297 ], [ -4.7842809, 37.3907743 ], [ -4.7845127, 37.3907213 ], [ -4.7846958, 37.3905821 ], [ -4.7847544, 37.3904325 ], [ -4.7847925, 37.3900725 ], [ -4.7845375, 37.3898036 ], [ -4.7842683, 37.3895846 ], [ -4.783939, 37.3894532 ], [ -4.7836252, 37.3893216 ], [ -4.7833286, 37.3892641 ], [ -4.7830142, 37.3891077 ], [ -4.7829934, 37.3890975 ], [ -4.7826214, 37.3889153 ], [ -4.782031, 37.3888236 ], [ -4.781555, 37.3885656 ], [ -4.7812569, 37.3884212 ], [ -4.7811541, 37.3883714 ], [ -4.7808327, 37.3881865 ], [ -4.7803635, 37.3878984 ], [ -4.7797079, 37.3875499 ], [ -4.7796853, 37.3875345 ], [ -4.7793582, 37.3873128 ], [ -4.7792331, 37.3874459 ], [ -4.778789, 37.3873884 ], [ -4.7787853, 37.3874857 ], [ -4.77887, 37.3895431 ], [ -4.7787442, 37.389549 ], [ -4.7785635, 37.3895598 ], [ -4.7783036, 37.3896319 ], [ -4.7776446, 37.3898546 ], [ -4.7774187, 37.3898741 ], [ -4.7769599, 37.3898368 ], [ -4.7766778, 37.389821 ], [ -4.7766753, 37.3899119 ], [ -4.77664, 37.3899113 ], [ -4.7765704, 37.3899257 ], [ -4.7763283, 37.3899031 ], [ -4.7763119, 37.3899794 ], [ -4.7762211, 37.3904137 ], [ -4.7760369, 37.3911559 ] ] ] } },
{ "type": "Feature", "properties": { "CCAA": "01 - Andalucía", "PROVINCIA": "14 - Córdoba", "MUNICIPIO": "14056 - Puente Genil", "COD_MUNICIPIO": "14056", "DISTRITO": "04", "SECCION": "1405604006", "V1_H": 79.36, "V1_M": 85.46, "V2_H": 79.32780616, "V2_M": 85.51002556, "V3_H": 79.53169609, "V3_M": 85.5666933 }, "geometry": { "type": "Polygon", "coordinates": [ [ [ -4.7557729, 37.3910766 ], [ -4.7559304, 37.3911228 ], [ -4.7562722, 37.3911376 ], [ -4.7573234, 37.3911291 ], [ -4.7574871, 37.3911028 ], [ -4.7596693, 37.3909853 ], [ -4.7596614, 37.3909985 ], [ -4.7604851, 37.3909003 ], [ -4.7615076, 37.3908563 ], [ -4.7624662, 37.3907782 ], [ -4.7624583, 37.3907324 ], [ -4.7623892, 37.3903306 ], [ -4.7603364, 37.3904399 ], [ -4.7603379, 37.3893291 ], [ -4.7619546, 37.3893225 ], [ -4.7616107, 37.3872722 ], [ -4.7615946, 37.3871361 ], [ -4.7614326, 37.3870414 ], [ -4.7614132, 37.3869942 ], [ -4.7606826, 37.3864326 ], [ -4.7603024, 37.386082 ], [ -4.7596571, 37.3855277 ], [ -4.7587898, 37.3850213 ], [ -4.758344, 37.3848095 ], [ -4.7575488, 37.3846111 ], [ -4.7572898, 37.384536 ], [ -4.7569261, 37.3842098 ], [ -4.7565877, 37.3841201 ], [ -4.7563496, 37.3840921 ], [ -4.7556291, 37.3837397 ], [ -4.7549679, 37.3833863 ], [ -4.7547504, 37.3833896 ], [ -4.7543171, 37.3834749 ], [ -4.7541643, 37.383714 ], [ -4.7539523, 37.383954 ], [ -4.7536787, 37.3841001 ], [ -4.7533641, 37.3841838 ], [ -4.7530307, 37.384315 ], [ -4.7527583, 37.3845085 ], [ -4.7525455, 37.3847169 ], [ -4.7523319, 37.3848937 ], [ -4.7540243, 37.3879 ], [ -4.7550977, 37.3898102 ], [ -4.7554881, 37.3909931 ], [ -4.7557729, 37.3910766 ] ] ] } },
{ "type": "Feature", "properties": { "CCAA": "01 - Andalucía", "PROVINCIA": "14 - Córdoba", "MUNICIPIO": "14056 - Puente Genil", "COD_MUNICIPIO": "14056", "DISTRITO": "05", "SECCION": "1405605002", "V1_H": 75.48, "V1_M": 82.31, "V2_H": 75.36985678000001, "V2_M": 82.56533706, "V3_H": 75.8600571, "V3_M": 82.01450712 }, "geometry": { "type": "Polygon", "coordinates": [ [ [ -4.7529154, 37.3983814 ], [ -4.7543962, 37.3998836 ], [ -4.7558662, 37.3990858 ], [ -4.7565521, 37.3987934 ], [ -4.7561549, 37.3976882 ], [ -4.7565948, 37.3974641 ], [ -4.7575659, 37.3970793 ], [ -4.7589309, 37.396524 ], [ -4.7601215, 37.3960712 ], [ -4.7609324, 37.395771 ], [ -4.7613208, 37.395677 ], [ -4.7617818, 37.3955408 ], [ -4.7621948, 37.3958698 ], [ -4.7625334, 37.3961705 ], [ -4.7628113, 37.3963956 ], [ -4.762884, 37.3964262 ], [ -4.7630767, 37.3959915 ], [ -4.7622006, 37.395176 ], [ -4.7618722, 37.3953102 ], [ -4.7616643, 37.3952427 ], [ -4.7614852, 37.3951455 ], [ -4.7614013, 37.3950232 ], [ -4.7604495, 37.3942508 ], [ -4.7596356, 37.3948407 ], [ -4.759574, 37.3951326 ], [ -4.7593715, 37.3952447 ], [ -4.759564, 37.3956784 ], [ -4.7558759, 37.3968607 ], [ -4.7558096, 37.3967272 ], [ -4.7558042, 37.3967163 ], [ -4.7545826, 37.3971164 ], [ -4.7546307, 37.3972248 ], [ -4.7540686, 37.3975605 ], [ -4.7539416, 37.3979806 ], [ -4.7529154, 37.3983814 ] ] ] } },
{ "type": "Feature", "properties": { "CCAA": "01 - Andalucía", "PROVINCIA": "14 - Córdoba", "MUNICIPIO": "14056 - Puente Genil", "COD_MUNICIPIO": "14056", "DISTRITO": "02", "SECCION": "1405602002", "V1_H": 80.0, "V1_M": 86.03, "V2_H": 79.84963877, "V2_M": 86.04281727, "V3_H": 80.29290896000001, "V3_M": 86.20578322 }, "geometry": { "type": "Polygon", "coordinates": [ [ [ -4.7707252, 37.3903405 ], [ -4.7707745, 37.3903575 ], [ -4.7716544, 37.3904094 ], [ -4.7717655, 37.3904346 ], [ -4.7722628, 37.3907566 ], [ -4.7736661, 37.3918238 ], [ -4.7743224, 37.3912801 ], [ -4.7749387, 37.3908085 ], [ -4.7753597, 37.3909477 ], [ -4.7755542, 37.3910482 ], [ -4.7759608, 37.3911496 ], [ -4.7760369, 37.3911559 ], [ -4.7762211, 37.3904137 ], [ -4.7763119, 37.3899794 ], [ -4.7763283, 37.3899031 ], [ -4.7760695, 37.3898789 ], [ -4.7760184, 37.3898828 ], [ -4.7760686, 37.3898106 ], [ -4.77624, 37.3896839 ], [ -4.7763531, 37.3896171 ], [ -4.7765195, 37.3895102 ], [ -4.7761993, 37.3893745 ], [ -4.7762471, 37.3890526 ], [ -4.7762421, 37.3890084 ], [ -4.7761281, 37.3890181 ], [ -4.7755132, 37.3891064 ], [ -4.7744597, 37.3892295 ], [ -4.7741726, 37.3892721 ], [ -4.7728107, 37.3895492 ], [ -4.7722686, 37.3897034 ], [ -4.7721778, 37.3897174 ], [ -4.7714789, 37.3898872 ], [ -4.7707271, 37.3901263 ], [ -4.7706067, 37.3901646 ], [ -4.770668, 37.3903208 ], [ -4.7707252, 37.3903405 ] ] ] } },
{ "type": "Feature", "properties": { "CCAA": "01 - Andalucía", "PROVINCIA": "14 - Córdoba", "MUNICIPIO": "14056 - Puente Genil", "COD_MUNICIPIO": "14056", "DISTRITO": "04", "SECCION": "1405604001", "V1_H": 80.31, "V1_M": 85.98, "V2_H": 80.51251293, "V2_M": 86.22129475, "V3_H": 80.221823, "V3_M": 85.87405604 }, "geometry": { "type": "Polygon", "coordinates": [ [ [ -4.766258, 37.3904925 ], [ -4.7665197, 37.3917839 ], [ -4.7672597, 37.3914404 ], [ -4.7682503, 37.3910266 ], [ -4.7683567, 37.39098 ], [ -4.7684335, 37.3909465 ], [ -4.7685119, 37.3888445 ], [ -4.7684279, 37.3888411 ], [ -4.7658586, 37.3885256 ], [ -4.7658799, 37.3886267 ], [ -4.7659007, 37.3887295 ], [ -4.766258, 37.3904925 ] ] ] } },
{ "type": "Feature", "properties": { "CCAA": "01 - Andalucía", "PROVINCIA": "14 - Córdoba", "MUNICIPIO": "14056 - Puente Genil", "COD_MUNICIPIO": "14056", "DISTRITO": "04", "SECCION": "1405604005", "V1_H": 79.63, "V1_M": 85.51, "V2_H": 79.79644461, "V2_M": 85.57767022, "V3_H": 79.53263393, "V3_M": 85.68344389000001 }, "geometry": { "type": "Polygon", "coordinates": [ [ [ -4.7556579, 37.3912037 ], [ -4.7555943, 37.3912741 ], [ -4.756215, 37.3915103 ], [ -4.7568129, 37.3918695 ], [ -4.7579566, 37.3925479 ], [ -4.7600847, 37.3938118 ], [ -4.7609563, 37.393669 ], [ -4.762487, 37.3933599 ], [ -4.7639351, 37.393122 ], [ -4.7639162, 37.392911 ], [ -4.7639683, 37.3929023 ], [ -4.7635673, 37.3907348 ], [ -4.7635627, 37.390662 ], [ -4.7624583, 37.3907324 ], [ -4.7624662, 37.3907782 ], [ -4.7615076, 37.3908563 ], [ -4.7604851, 37.3909003 ], [ -4.7596614, 37.3909985 ], [ -4.7596693, 37.3909853 ], [ -4.7574871, 37.3911028 ], [ -4.7573234, 37.3911291 ], [ -4.7562722, 37.3911376 ], [ -4.7559304, 37.3911228 ], [ -4.7557729, 37.3910766 ], [ -4.7556579, 37.3912037 ] ] ] } }
]
}
