{
"type": "FeatureCollection",
"name": "15025",
"features": [
{ "type": "Feature", "properties": { "CCAA": "12 - Galicia", "PROVINCIA": "15 - Coruña, A", "MUNICIPIO": "15025 - Cerdido", "COD_MUNICIPIO": "15025", "DISTRITO": "01", "SECCION": "1502501001", "V1_H": 79.94, "V1_M": 85.93, "V2_H": 80.18978947, "V2_M": 86.02067046000001, "V3_H": 79.89390484, "V3_M": 85.97042077 }, "geometry": { "type": "Polygon", "coordinates": [ [ [ -7.9298144, 43.6399539 ], [ -7.933945, 43.6395322 ], [ -7.9352172, 43.6394772 ], [ -7.9359163, 43.6395369 ], [ -7.9374123, 43.6393371 ], [ -7.9377073, 43.6393063 ], [ -7.9395009, 43.6389586 ], [ -7.9407957, 43.6388755 ], [ -7.9428743, 43.6386774 ], [ -7.9437194, 43.6387038 ], [ -7.9441868, 43.6388095 ], [ -7.945, 43.6382971 ], [ -7.9482558, 43.6370396 ], [ -7.948986, 43.6370259 ], [ -7.9497988, 43.6368106 ], [ -7.9501282, 43.6364452 ], [ -7.9502966, 43.6362308 ], [ -7.9505542, 43.6360485 ], [ -7.9507954, 43.635966 ], [ -7.9518859, 43.6359637 ], [ -7.9527213, 43.6357204 ], [ -7.9539404, 43.6351723 ], [ -7.954539, 43.6350652 ], [ -7.9558605, 43.6350078 ], [ -7.9561105, 43.635033 ], [ -7.9563926, 43.6351467 ], [ -7.957114, 43.6356286 ], [ -7.9574019, 43.6356714 ], [ -7.9578168, 43.635733 ], [ -7.9579911, 43.6361936 ], [ -7.9585483, 43.6366375 ], [ -7.9588614, 43.637128 ], [ -7.9590331, 43.6372556 ], [ -7.9594342, 43.6373102 ], [ -7.9604789, 43.6372017 ], [ -7.9606563, 43.637248 ], [ -7.960983, 43.6376029 ], [ -7.9611478, 43.6379469 ], [ -7.9613224, 43.6381103 ], [ -7.9615884, 43.6381797 ], [ -7.9631091, 43.6381316 ], [ -7.9643485, 43.6379786 ], [ -7.9676159, 43.637017 ], [ -7.967982, 43.6369471 ], [ -7.9685932, 43.6369925 ], [ -7.9695812, 43.6373995 ], [ -7.9725777, 43.6382592 ], [ -7.9728548, 43.6384632 ], [ -7.9732107, 43.6391679 ], [ -7.9737381, 43.63955 ], [ -7.9738517, 43.6397251 ], [ -7.9739469, 43.6401261 ], [ -7.9740422, 43.6402299 ], [ -7.9748113, 43.6403855 ], [ -7.9755573, 43.640713 ], [ -7.976399, 43.6408473 ], [ -7.9777759, 43.6408592 ], [ -7.9780282, 43.6409112 ], [ -7.9787007, 43.6415481 ], [ -7.9789073, 43.6416471 ], [ -7.9792205, 43.6416874 ], [ -7.9794797, 43.6419732 ], [ -7.9799116, 43.6420984 ], [ -7.9805954, 43.6421225 ], [ -7.9814729, 43.6423903 ], [ -7.9821365, 43.6424693 ], [ -7.983012, 43.642413 ], [ -7.9835659, 43.6425149 ], [ -7.9839032, 43.6429953 ], [ -7.9841031, 43.6430136 ], [ -7.9843805, 43.6429204 ], [ -7.9852849, 43.6420166 ], [ -7.985709, 43.641899 ], [ -7.9865053, 43.6417832 ], [ -7.987309, 43.64146 ], [ -7.9878794, 43.641462 ], [ -7.9885265, 43.6416408 ], [ -7.988672, 43.6417514 ], [ -7.9887317, 43.6421719 ], [ -7.9888278, 43.6422848 ], [ -7.989067, 43.6423283 ], [ -7.9906431, 43.6423494 ], [ -7.992008, 43.6425147 ], [ -7.9930493, 43.6425141 ], [ -7.9940861, 43.6424597 ], [ -7.9954295, 43.6423648 ], [ -7.9959535, 43.6424049 ], [ -7.9964014, 43.6425743 ], [ -7.9970046, 43.642971 ], [ -7.997935, 43.6431283 ], [ -7.9985956, 43.6431714 ], [ -7.9989393, 43.6431293 ], [ -7.999986, 43.6425972 ], [ -8.0004094, 43.6421736 ], [ -8.0007007, 43.6418007 ], [ -8.0011416, 43.6417363 ], [ -8.0013427, 43.6416195 ], [ -8.0015015, 43.6411444 ], [ -8.0016889, 43.6404159 ], [ -8.0019592, 43.640089 ], [ -8.0029541, 43.6398293 ], [ -8.0048588, 43.6396287 ], [ -8.0051246, 43.639545 ], [ -8.0055517, 43.6391661 ], [ -8.0058991, 43.6385747 ], [ -8.00605, 43.638451 ], [ -8.0066492, 43.6383527 ], [ -8.0086769, 43.6382906 ], [ -8.0091426, 43.6382252 ], [ -8.0094787, 43.6380934 ], [ -8.0096533, 43.6379259 ], [ -8.0096853, 43.6378952 ], [ -8.0097658, 43.6372255 ], [ -8.0094987, 43.6366971 ], [ -8.009342, 43.6364519 ], [ -8.0092025, 43.6355218 ], [ -8.0089257, 43.6351738 ], [ -8.0078393, 43.6347804 ], [ -8.0076051, 43.6346467 ], [ -8.0074535, 43.6344643 ], [ -8.0073978, 43.6342416 ], [ -8.0074372, 43.6339698 ], [ -8.0077464, 43.6335151 ], [ -8.0084063, 43.632955 ], [ -8.0090589, 43.6327553 ], [ -8.0094998, 43.6326909 ], [ -8.0102992, 43.6327638 ], [ -8.0105678, 43.632716 ], [ -8.011901, 43.63146 ], [ -8.0120934, 43.6313885 ], [ -8.0124261, 43.6313649 ], [ -8.0136583, 43.6314278 ], [ -8.0143372, 43.6312449 ], [ -8.0146598, 43.6309516 ], [ -8.0146549, 43.6307448 ], [ -8.0143422, 43.6302634 ], [ -8.0141622, 43.6294431 ], [ -8.014185, 43.629271 ], [ -8.014569, 43.6291191 ], [ -8.0148684, 43.6291419 ], [ -8.0157096, 43.6288258 ], [ -8.0159401, 43.6286176 ], [ -8.0161916, 43.6280664 ], [ -8.0161573, 43.6273567 ], [ -8.0162265, 43.6271466 ], [ -8.0164091, 43.6269585 ], [ -8.017092, 43.6266764 ], [ -8.0185439, 43.6262524 ], [ -8.0190348, 43.6258977 ], [ -8.0198891, 43.62559 ], [ -8.0213954, 43.6240382 ], [ -8.0215395, 43.6235368 ], [ -8.0216719, 43.6230448 ], [ -8.0220469, 43.6227852 ], [ -8.0234712, 43.6221823 ], [ -8.0245521, 43.6216215 ], [ -8.0252214, 43.6211778 ], [ -8.025973, 43.6208296 ], [ -8.0271216, 43.6206349 ], [ -8.0288924, 43.6206199 ], [ -8.0299373, 43.6205198 ], [ -8.0305696, 43.6203748 ], [ -8.0314663, 43.6196871 ], [ -8.0318265, 43.6196982 ], [ -8.0322119, 43.6198612 ], [ -8.0338968, 43.6208942 ], [ -8.0345707, 43.6210985 ], [ -8.0355024, 43.6212734 ], [ -8.0361141, 43.6213274 ], [ -8.0366135, 43.6212243 ], [ -8.0369847, 43.6212169 ], [ -8.0373106, 43.6214096 ], [ -8.0376493, 43.6217547 ], [ -8.0380014, 43.6219642 ], [ -8.0386745, 43.6221595 ], [ -8.0393488, 43.6222198 ], [ -8.0407786, 43.6218325 ], [ -8.0415935, 43.6217964 ], [ -8.0421625, 43.6219333 ], [ -8.043268, 43.6224065 ], [ -8.0437268, 43.6218191 ], [ -8.0440807, 43.6216054 ], [ -8.0449056, 43.6215418 ], [ -8.045863, 43.6215805 ], [ -8.0474484, 43.6217174 ], [ -8.0471863, 43.6212518 ], [ -8.0460288, 43.6198627 ], [ -8.0440663, 43.6172937 ], [ -8.0428331, 43.6157369 ], [ -8.0425457, 43.6152634 ], [ -8.0415941, 43.6119807 ], [ -8.0415872, 43.6119568 ], [ -8.0415397, 43.6118329 ], [ -8.0400705, 43.6113037 ], [ -8.0375404, 43.6102362 ], [ -8.0346478, 43.6088335 ], [ -8.0305884, 43.6063659 ], [ -8.0269357, 43.6037182 ], [ -8.0238267, 43.6020907 ], [ -8.0222124, 43.6017477 ], [ -8.0214101, 43.601486 ], [ -8.0195019, 43.6008858 ], [ -8.0139459, 43.5972411 ], [ -8.0076335, 43.5926841 ], [ -7.9956818, 43.5979257 ], [ -7.9881184, 43.5969424 ], [ -7.9826577, 43.5921757 ], [ -7.9792547, 43.5920365 ], [ -7.9726528, 43.5917661 ], [ -7.9718877, 43.5913494 ], [ -7.9648018, 43.5875799 ], [ -7.96069, 43.5908918 ], [ -7.9570151, 43.5910876 ], [ -7.9402313, 43.5919869 ], [ -7.9385306, 43.5910343 ], [ -7.9362997, 43.5898075 ], [ -7.9360963, 43.5897443 ], [ -7.9354538, 43.5897631 ], [ -7.9345345, 43.5895778 ], [ -7.9341504, 43.5895764 ], [ -7.9337606, 43.5896563 ], [ -7.9320459, 43.5906487 ], [ -7.9308538, 43.5907633 ], [ -7.9284727, 43.5911813 ], [ -7.9275698, 43.5914994 ], [ -7.9274323, 43.5911813 ], [ -7.9273131, 43.5910874 ], [ -7.926838, 43.5907298 ], [ -7.9265719, 43.5903542 ], [ -7.9265797, 43.5901468 ], [ -7.9272148, 43.5882197 ], [ -7.9272605, 43.5881728 ], [ -7.9279365, 43.5873513 ], [ -7.9280176, 43.5871317 ], [ -7.9280254, 43.5860151 ], [ -7.9280674, 43.5859232 ], [ -7.928237, 43.5855738 ], [ -7.9282048, 43.5853321 ], [ -7.9278408, 43.5849697 ], [ -7.9268478, 43.5843374 ], [ -7.9266669, 43.5840932 ], [ -7.9264841, 43.5833719 ], [ -7.9263969, 43.5824573 ], [ -7.9261607, 43.5821435 ], [ -7.9254071, 43.5820139 ], [ -7.92364, 43.5819102 ], [ -7.9234497, 43.5817023 ], [ -7.923394, 43.5810205 ], [ -7.9233009, 43.5807905 ], [ -7.9231578, 43.5807066 ], [ -7.9231293, 43.5805098 ], [ -7.923397, 43.5803002 ], [ -7.9228635, 43.5793779 ], [ -7.9230892, 43.5783509 ], [ -7.923314, 43.577918 ], [ -7.9233434, 43.5775207 ], [ -7.9238508, 43.5766075 ], [ -7.9235168, 43.5755506 ], [ -7.9232528, 43.5739865 ], [ -7.9228876, 43.5737592 ], [ -7.9223452, 43.5734855 ], [ -7.9221984, 43.5733568 ], [ -7.9220893, 43.5730824 ], [ -7.9220986, 43.5727399 ], [ -7.9224842, 43.5721561 ], [ -7.9225022, 43.5719213 ], [ -7.9221032, 43.5711283 ], [ -7.9215298, 43.571234 ], [ -7.920336, 43.5704123 ], [ -7.919919, 43.5698541 ], [ -7.9196101, 43.5692552 ], [ -7.9189404, 43.5684828 ], [ -7.9184449, 43.567721 ], [ -7.9182914, 43.5672054 ], [ -7.9182068, 43.5664709 ], [ -7.9177538, 43.5663824 ], [ -7.9164865, 43.5661759 ], [ -7.9104151, 43.5655102 ], [ -7.9099862, 43.5655647 ], [ -7.909225, 43.5657955 ], [ -7.9083035, 43.5661863 ], [ -7.9075047, 43.5667158 ], [ -7.9072791, 43.5669866 ], [ -7.9068238, 43.5680865 ], [ -7.9062797, 43.5685511 ], [ -7.9058329, 43.5691465 ], [ -7.9055821, 43.5698685 ], [ -7.905597, 43.5708131 ], [ -7.9059408, 43.5718427 ], [ -7.9061067, 43.5726638 ], [ -7.9059522, 43.5728955 ], [ -7.9050024, 43.5737015 ], [ -7.9045091, 43.5741819 ], [ -7.9044919, 43.5747318 ], [ -7.9040696, 43.5750201 ], [ -7.9039543, 43.5754302 ], [ -7.9042412, 43.5774344 ], [ -7.9041324, 43.5776192 ], [ -7.9034118, 43.5781993 ], [ -7.9024778, 43.5787436 ], [ -7.9024366, 43.5791505 ], [ -7.902503, 43.5793997 ], [ -7.9025435, 43.579551 ], [ -7.9023266, 43.5799294 ], [ -7.9017917, 43.5803576 ], [ -7.9013484, 43.5808448 ], [ -7.9012933, 43.5810812 ], [ -7.9014678, 43.5817039 ], [ -7.9017634, 43.5821413 ], [ -7.9023502, 43.5826563 ], [ -7.9025289, 43.5828737 ], [ -7.9023955, 43.5833656 ], [ -7.9018913, 43.5841704 ], [ -7.9015194, 43.5853838 ], [ -7.9013395, 43.5857606 ], [ -7.9012853, 43.5863121 ], [ -7.9010902, 43.5868067 ], [ -7.9006563, 43.5874105 ], [ -7.9005961, 43.5875841 ], [ -7.9007248, 43.5881008 ], [ -7.9007016, 43.5882728 ], [ -7.8999714, 43.5885833 ], [ -7.8998095, 43.5887253 ], [ -7.8996863, 43.5891897 ], [ -7.8999145, 43.5898641 ], [ -7.9004224, 43.5909316 ], [ -7.9006217, 43.5917063 ], [ -7.9013884, 43.5932128 ], [ -7.9016817, 43.5933172 ], [ -7.9028407, 43.5935555 ], [ -7.9035699, 43.5939923 ], [ -7.9051368, 43.5952843 ], [ -7.9052029, 43.5954885 ], [ -7.905045, 43.5962876 ], [ -7.9044205, 43.5977459 ], [ -7.9031389, 43.5993494 ], [ -7.9025112, 43.6003127 ], [ -7.9023625, 43.6007692 ], [ -7.9023997, 43.6010737 ], [ -7.9028555, 43.6021075 ], [ -7.9038974, 43.603188 ], [ -7.9038955, 43.6039263 ], [ -7.9039349, 43.6041047 ], [ -7.9037658, 43.6044631 ], [ -7.9037007, 43.60488 ], [ -7.9032295, 43.6051793 ], [ -7.9029397, 43.6052728 ], [ -7.9025585, 43.6053072 ], [ -7.9016501, 43.6055623 ], [ -7.9010483, 43.6062364 ], [ -7.900225, 43.6067759 ], [ -7.8986807, 43.6080486 ], [ -7.9003106, 43.6082847 ], [ -7.9018909, 43.6082168 ], [ -7.9025846, 43.608367 ], [ -7.9037396, 43.6088575 ], [ -7.9044268, 43.60908 ], [ -7.9054671, 43.6095304 ], [ -7.9058057, 43.609885 ], [ -7.9063397, 43.6102041 ], [ -7.9065286, 43.6103941 ], [ -7.9072185, 43.6115617 ], [ -7.9076226, 43.6119585 ], [ -7.9078456, 43.6121109 ], [ -7.9079852, 43.6123029 ], [ -7.9082146, 43.6134454 ], [ -7.9089906, 43.6155182 ], [ -7.9089908, 43.6155186 ], [ -7.9094501, 43.615985 ], [ -7.9102754, 43.6162286 ], [ -7.9107295, 43.6163261 ], [ -7.9115244, 43.6166519 ], [ -7.9119036, 43.6167437 ], [ -7.9127055, 43.6167001 ], [ -7.9131005, 43.61653 ], [ -7.9136377, 43.6161288 ], [ -7.9138956, 43.6160997 ], [ -7.9141514, 43.6161967 ], [ -7.9145688, 43.6169079 ], [ -7.9148487, 43.617301 ], [ -7.9149418, 43.617531 ], [ -7.9149093, 43.6177395 ], [ -7.9146966, 43.6180187 ], [ -7.9141957, 43.6184094 ], [ -7.9123213, 43.6203447 ], [ -7.9120884, 43.6208319 ], [ -7.9120944, 43.6210567 ], [ -7.9137775, 43.6231538 ], [ -7.9149258, 43.6249229 ], [ -7.9157659, 43.6265612 ], [ -7.915616, 43.6271528 ], [ -7.9145338, 43.6296842 ], [ -7.9143799, 43.6299249 ], [ -7.9135667, 43.6305901 ], [ -7.9133648, 43.6308509 ], [ -7.9132097, 43.6313797 ], [ -7.9133355, 43.6315544 ], [ -7.9138698, 43.6318735 ], [ -7.9140545, 43.6321626 ], [ -7.9145203, 43.6322505 ], [ -7.9148523, 43.6322182 ], [ -7.9155797, 43.6323309 ], [ -7.916108, 43.6324162 ], [ -7.9184067, 43.6332443 ], [ -7.9187382, 43.6335091 ], [ -7.9202985, 43.6357645 ], [ -7.9231469, 43.6358847 ], [ -7.9242413, 43.6360805 ], [ -7.9245982, 43.6362001 ], [ -7.9248999, 43.6364031 ], [ -7.9254667, 43.6372699 ], [ -7.9259494, 43.6375642 ], [ -7.9290535, 43.6391405 ], [ -7.9296434, 43.6396822 ], [ -7.9298144, 43.6399539 ] ] ] } }
]
}
