{
"type": "FeatureCollection",
"name": "15053",
"features": [
{ "type": "Feature", "properties": { "CCAA": "12 - Galicia", "PROVINCIA": "15 - Coruña, A", "MUNICIPIO": "15053 - Muros", "COD_MUNICIPIO": "15053", "DISTRITO": "01", "SECCION": "1505301006", "V1_H": 79.89, "V1_M": 85.97, "V2_H": 79.67266264, "V2_M": 85.8368825, "V3_H": 80.33686579, "V3_M": 86.2809331 }, "geometry": { "type": "Polygon", "coordinates": [ [ [ -9.0015491, 42.8436739 ], [ -9.0068342, 42.8477072 ], [ -9.0099691, 42.8507557 ], [ -9.0177858, 42.8546374 ], [ -9.0214051, 42.8557427 ], [ -9.026081, 42.857143 ], [ -9.0267698, 42.8573047 ], [ -9.0275637, 42.8574158 ], [ -9.0279794, 42.8575379 ], [ -9.0282551, 42.8577303 ], [ -9.0285195, 42.8578064 ], [ -9.0290003, 42.8578439 ], [ -9.0292908, 42.8579366 ], [ -9.0294796, 42.8581157 ], [ -9.0296703, 42.8584387 ], [ -9.029926, 42.8586772 ], [ -9.0309064, 42.8593185 ], [ -9.0322909, 42.8597134 ], [ -9.0340173, 42.8602252 ], [ -9.0360071, 42.8594268 ], [ -9.0430133, 42.8566253 ], [ -9.0471988, 42.853388 ], [ -9.0480587, 42.8493006 ], [ -9.0505209, 42.8514565 ], [ -9.0523651, 42.8516737 ], [ -9.0530389, 42.8516829 ], [ -9.0530333, 42.8512512 ], [ -9.0529906, 42.8501912 ], [ -9.0519964, 42.8477865 ], [ -9.0516644, 42.8440234 ], [ -9.0518125, 42.8435385 ], [ -9.0525751, 42.8409596 ], [ -9.0526937, 42.8400664 ], [ -9.0528074, 42.8392099 ], [ -9.0530254, 42.8381901 ], [ -9.0533497, 42.8372548 ], [ -9.053577, 42.8349563 ], [ -9.0493145, 42.8319216 ], [ -9.0461214, 42.8295742 ], [ -9.042849, 42.8273441 ], [ -9.0406936, 42.8251135 ], [ -9.0390169, 42.8229415 ], [ -9.0382972, 42.8200057 ], [ -9.03678, 42.8173638 ], [ -9.0362203, 42.8149565 ], [ -9.0351806, 42.8100831 ], [ -9.0354181, 42.8069121 ], [ -9.0352557, 42.801921 ], [ -9.0346955, 42.7984567 ], [ -9.0333385, 42.7958147 ], [ -9.0324246, 42.7937545 ], [ -9.0317442, 42.794471 ], [ -9.0316253, 42.7947563 ], [ -9.0317774, 42.7949373 ], [ -9.0315423, 42.7955349 ], [ -9.0317187, 42.7957146 ], [ -9.0318762, 42.7962013 ], [ -9.0318129, 42.7964297 ], [ -9.0309739, 42.7967262 ], [ -9.0309055, 42.7970268 ], [ -9.0307127, 42.797307 ], [ -9.0304391, 42.7973845 ], [ -9.0300596, 42.7976296 ], [ -9.0299579, 42.797464 ], [ -9.0297095, 42.7974231 ], [ -9.0295315, 42.7977295 ], [ -9.0289671, 42.7980834 ], [ -9.028678, 42.7986298 ], [ -9.0283185, 42.7988289 ], [ -9.0261225, 42.7987468 ], [ -9.025907, 42.7986682 ], [ -9.0257825, 42.7980177 ], [ -9.0256356, 42.7978904 ], [ -9.0254089, 42.7979473 ], [ -9.0253968, 42.798074 ], [ -9.0252371, 42.7981905 ], [ -9.0250554, 42.797957 ], [ -9.0249077, 42.7979468 ], [ -9.0247897, 42.7981151 ], [ -9.0246429, 42.7981139 ], [ -9.0239155, 42.7975492 ], [ -9.0237313, 42.7972888 ], [ -9.0236964, 42.7970566 ], [ -9.0233131, 42.7963837 ], [ -9.0229517, 42.7961868 ], [ -9.0225278, 42.7961011 ], [ -9.0223391, 42.795796 ], [ -9.022398, 42.7952708 ], [ -9.0225491, 42.7950648 ], [ -9.0224987, 42.7949234 ], [ -9.0222224, 42.794722 ], [ -9.0220391, 42.7947226 ], [ -9.0221104, 42.7949529 ], [ -9.0217379, 42.7951436 ], [ -9.02207, 42.7961703 ], [ -9.0222682, 42.7964479 ], [ -9.0224169, 42.7969711 ], [ -9.0224197, 42.7976281 ], [ -9.0226293, 42.7982742 ], [ -9.0225512, 42.7984763 ], [ -9.0223914, 42.7985928 ], [ -9.0223585, 42.7991346 ], [ -9.0214083, 42.7994188 ], [ -9.02114, 42.7998021 ], [ -9.021029, 42.800168 ], [ -9.0208562, 42.8006542 ], [ -9.0205652, 42.8006786 ], [ -9.0200899, 42.8003166 ], [ -9.0196929, 42.8001305 ], [ -9.0188719, 42.8002368 ], [ -9.0183316, 42.8002113 ], [ -9.0178885, 42.8000546 ], [ -9.0170718, 42.7994496 ], [ -9.0161883, 42.7992891 ], [ -9.0158607, 42.7991894 ], [ -9.0160084, 42.7989476 ], [ -9.0155279, 42.7986579 ], [ -9.0152995, 42.7986969 ], [ -9.0151361, 42.7986515 ], [ -9.0147894, 42.7982287 ], [ -9.0143333, 42.7979377 ], [ -9.0137139, 42.7977273 ], [ -9.0132612, 42.797346 ], [ -9.0130552, 42.7968618 ], [ -9.0121438, 42.7959107 ], [ -9.0119296, 42.7954547 ], [ -9.0091211, 42.7973752 ], [ -9.0054285, 42.7998383 ], [ -9.0019447, 42.8017882 ], [ -8.9992271, 42.803071 ], [ -8.99663, 42.804185 ], [ -8.9977862, 42.8063522 ], [ -8.999141, 42.8102974 ], [ -8.9999417, 42.8126554 ], [ -9.0015432, 42.8163284 ], [ -9.0022209, 42.8189131 ], [ -9.0025289, 42.8210897 ], [ -9.0038228, 42.8248081 ], [ -9.0044391, 42.8283451 ], [ -9.004501, 42.831882 ], [ -9.0043164, 42.8346028 ], [ -9.003454, 42.8379131 ], [ -9.0015491, 42.8436739 ] ] ] } },
{ "type": "Feature", "properties": { "CCAA": "12 - Galicia", "PROVINCIA": "15 - Coruña, A", "MUNICIPIO": "15053 - Muros", "COD_MUNICIPIO": "15053", "DISTRITO": "01", "SECCION": "1505301003", "V1_H": 80.23, "V1_M": 86.04, "V2_H": 80.01377171, "V2_M": 86.1814847, "V3_H": 80.55154758, "V3_M": 86.06989916000001 }, "geometry": { "type": "Polygon", "coordinates": [ [ [ -9.0715409, 42.7826523 ], [ -9.0780186, 42.7838852 ], [ -9.086452, 42.7852645 ], [ -9.0998082, 42.7889621 ], [ -9.0998084, 42.7889617 ], [ -9.0998437, 42.7854762 ], [ -9.0992384, 42.7837982 ], [ -9.0979232, 42.7812401 ], [ -9.0982324, 42.7768128 ], [ -9.0979176, 42.7759744 ], [ -9.1010776, 42.7728259 ], [ -9.1079454, 42.7676336 ], [ -9.1110019, 42.7644364 ], [ -9.1142556, 42.7610125 ], [ -9.1135528, 42.7597089 ], [ -9.1134547, 42.7592101 ], [ -9.1135174, 42.7588557 ], [ -9.1136949, 42.7585491 ], [ -9.1140703, 42.7582679 ], [ -9.114458, 42.7581121 ], [ -9.1148649, 42.7580273 ], [ -9.1152443, 42.758034 ], [ -9.1155317, 42.7580996 ], [ -9.1161079, 42.7579967 ], [ -9.1160937, 42.7578534 ], [ -9.1158635, 42.7577487 ], [ -9.1159002, 42.7573777 ], [ -9.1156441, 42.7573824 ], [ -9.115387, 42.7572522 ], [ -9.1151103, 42.756925 ], [ -9.11525, 42.7568545 ], [ -9.1156156, 42.7569699 ], [ -9.1158228, 42.7568418 ], [ -9.1157992, 42.756726 ], [ -9.1155595, 42.7566489 ], [ -9.1154941, 42.7564813 ], [ -9.115774, 42.7562232 ], [ -9.1157345, 42.7559463 ], [ -9.1155553, 42.7557399 ], [ -9.1155281, 42.7555884 ], [ -9.1161591, 42.7555455 ], [ -9.1162498, 42.7553516 ], [ -9.1160517, 42.7552002 ], [ -9.1161244, 42.7550703 ], [ -9.1153919, 42.7542094 ], [ -9.1151976, 42.7542198 ], [ -9.114947, 42.7544043 ], [ -9.1148516, 42.7539323 ], [ -9.1145368, 42.7535891 ], [ -9.1140686, 42.7534252 ], [ -9.1138736, 42.7530575 ], [ -9.1137249, 42.7529125 ], [ -9.1134514, 42.7528641 ], [ -9.1132345, 42.7528938 ], [ -9.1129051, 42.7526503 ], [ -9.1127549, 42.7526134 ], [ -9.1126475, 42.7527632 ], [ -9.1128651, 42.7531116 ], [ -9.1128046, 42.7532409 ], [ -9.112572, 42.7532353 ], [ -9.1125388, 42.7536422 ], [ -9.1128298, 42.7537436 ], [ -9.1129638, 42.7539885 ], [ -9.1126707, 42.7541122 ], [ -9.1126601, 42.7544998 ], [ -9.112482, 42.7549234 ], [ -9.1126811, 42.7550838 ], [ -9.1126884, 42.7552814 ], [ -9.1125235, 42.7553443 ], [ -9.1124064, 42.7558906 ], [ -9.1121782, 42.7559299 ], [ -9.1118994, 42.7558278 ], [ -9.1116341, 42.7554909 ], [ -9.1106738, 42.7547953 ], [ -9.1104219, 42.7547187 ], [ -9.1102571, 42.7547816 ], [ -9.110436, 42.7553571 ], [ -9.1103468, 42.7554429 ], [ -9.1101419, 42.7554718 ], [ -9.1095471, 42.7547656 ], [ -9.1093169, 42.7546609 ], [ -9.1091533, 42.7549847 ], [ -9.109171, 42.7551638 ], [ -9.108915, 42.7551685 ], [ -9.1086479, 42.7553088 ], [ -9.1083317, 42.7551997 ], [ -9.1076629, 42.7554785 ], [ -9.1073514, 42.7555402 ], [ -9.1070532, 42.7557363 ], [ -9.1067105, 42.7558536 ], [ -9.106344, 42.7557292 ], [ -9.1060694, 42.7555459 ], [ -9.1058005, 42.7556683 ], [ -9.1055573, 42.7555553 ], [ -9.1051457, 42.7554693 ], [ -9.1048344, 42.7561521 ], [ -9.1043534, 42.7561058 ], [ -9.1038974, 42.7559412 ], [ -9.1035384, 42.7561404 ], [ -9.103218, 42.7561125 ], [ -9.1021795, 42.755862 ], [ -9.1011483, 42.7553141 ], [ -9.0986207, 42.7535859 ], [ -9.0977241, 42.7530397 ], [ -9.0961635, 42.7518268 ], [ -9.0951526, 42.7508637 ], [ -9.0948113, 42.7507469 ], [ -9.0941897, 42.7500149 ], [ -9.0938519, 42.7493129 ], [ -9.0922941, 42.7475057 ], [ -9.0917727, 42.7470475 ], [ -9.0915588, 42.7467348 ], [ -9.0915597, 42.7461227 ], [ -9.0911739, 42.7458012 ], [ -9.0911206, 42.745507 ], [ -9.0914865, 42.7446323 ], [ -9.0912703, 42.7445448 ], [ -9.0910283, 42.7446928 ], [ -9.0906672, 42.744622 ], [ -9.0906521, 42.7443438 ], [ -9.0908428, 42.7441716 ], [ -9.0912185, 42.7441425 ], [ -9.091318, 42.7439122 ], [ -9.0909203, 42.7430963 ], [ -9.090652, 42.7429755 ], [ -9.0904393, 42.7423028 ], [ -9.0898347, 42.741867 ], [ -9.089952, 42.7413206 ], [ -9.0901071, 42.7411593 ], [ -9.0902369, 42.7408643 ], [ -9.0905553, 42.7407483 ], [ -9.0904168, 42.7404586 ], [ -9.090166, 42.740391 ], [ -9.0899661, 42.7402217 ], [ -9.0900205, 42.7400297 ], [ -9.0897591, 42.7398547 ], [ -9.0896755, 42.7396251 ], [ -9.0898812, 42.738984 ], [ -9.0901562, 42.7389243 ], [ -9.0898016, 42.7385471 ], [ -9.0896677, 42.7383022 ], [ -9.0893388, 42.7383108 ], [ -9.0887759, 42.7385479 ], [ -9.0883683, 42.7387497 ], [ -9.0878433, 42.7387507 ], [ -9.0879366, 42.7384577 ], [ -9.0878349, 42.738292 ], [ -9.0875675, 42.7381803 ], [ -9.0873221, 42.7382924 ], [ -9.0871784, 42.737949 ], [ -9.0870603, 42.7378653 ], [ -9.0867792, 42.7378623 ], [ -9.0865549, 42.7383153 ], [ -9.0860916, 42.738322 ], [ -9.0856181, 42.7385993 ], [ -9.0855631, 42.7382872 ], [ -9.0852706, 42.7382938 ], [ -9.0851597, 42.7384077 ], [ -9.0847224, 42.7384311 ], [ -9.084601, 42.7385635 ], [ -9.0843547, 42.7386667 ], [ -9.0835452, 42.7387549 ], [ -9.0829999, 42.7385499 ], [ -9.0828018, 42.7382724 ], [ -9.0825414, 42.7382323 ], [ -9.0820983, 42.738571 ], [ -9.0817156, 42.7385284 ], [ -9.0815808, 42.7382745 ], [ -9.0809159, 42.7380939 ], [ -9.0804178, 42.7381205 ], [ -9.0802313, 42.7382114 ], [ -9.0804059, 42.7383731 ], [ -9.0803905, 42.73859 ], [ -9.0796481, 42.7388636 ], [ -9.0793278, 42.7388356 ], [ -9.0792912, 42.7387116 ], [ -9.0788998, 42.7387054 ], [ -9.0784767, 42.738998 ], [ -9.0783814, 42.7391471 ], [ -9.078484, 42.7393217 ], [ -9.0780947, 42.7395854 ], [ -9.0781877, 42.7397875 ], [ -9.0781263, 42.7399079 ], [ -9.0778799, 42.740011 ], [ -9.0778455, 42.7402829 ], [ -9.0772899, 42.7408435 ], [ -9.0768897, 42.741495 ], [ -9.0768891, 42.741738 ], [ -9.076594, 42.7424649 ], [ -9.0763802, 42.7437725 ], [ -9.0765478, 42.7438626 ], [ -9.0764804, 42.7440462 ], [ -9.0766775, 42.7441888 ], [ -9.0765034, 42.7445311 ], [ -9.0767068, 42.7447363 ], [ -9.0764673, 42.7455322 ], [ -9.0765579, 42.7458334 ], [ -9.0767645, 42.7459484 ], [ -9.0766833, 42.7462408 ], [ -9.0770864, 42.7466154 ], [ -9.0773546, 42.7473573 ], [ -9.077585, 42.7477141 ], [ -9.0780194, 42.748033 ], [ -9.0781048, 42.7484065 ], [ -9.0791839, 42.7493212 ], [ -9.0795098, 42.7496549 ], [ -9.0794701, 42.749873 ], [ -9.0795561, 42.7500035 ], [ -9.0798747, 42.7500135 ], [ -9.0799364, 42.7500193 ], [ -9.0806992, 42.7506987 ], [ -9.0807404, 42.7509936 ], [ -9.0806063, 42.7513698 ], [ -9.0810194, 42.7520949 ], [ -9.0809842, 42.7523578 ], [ -9.0805699, 42.752866 ], [ -9.0789761, 42.7541751 ], [ -9.0788757, 42.7543965 ], [ -9.0789089, 42.7546108 ], [ -9.078791, 42.7547791 ], [ -9.0783252, 42.755011 ], [ -9.0779615, 42.7550394 ], [ -9.0775494, 42.7551963 ], [ -9.0772982, 42.7556238 ], [ -9.0768537, 42.7570697 ], [ -9.076191, 42.7575371 ], [ -9.0744316, 42.7584049 ], [ -9.0734181, 42.7587829 ], [ -9.0724166, 42.7590343 ], [ -9.0715251, 42.7590367 ], [ -9.0704584, 42.7592465 ], [ -9.0696747, 42.7594772 ], [ -9.0693553, 42.7594582 ], [ -9.0692517, 42.7591487 ], [ -9.0689904, 42.7592256 ], [ -9.06889, 42.759447 ], [ -9.0686096, 42.7594529 ], [ -9.0683534, 42.7593315 ], [ -9.0681209, 42.7594519 ], [ -9.0679963, 42.7599266 ], [ -9.0667072, 42.7599861 ], [ -9.0658773, 42.7598682 ], [ -9.065325, 42.7597176 ], [ -9.0649586, 42.759719 ], [ -9.0640603, 42.7599018 ], [ -9.0629342, 42.7597546 ], [ -9.0625584, 42.7597836 ], [ -9.0621011, 42.7599789 ], [ -9.0614345, 42.7601584 ], [ -9.061116, 42.7601483 ], [ -9.0606146, 42.7596438 ], [ -9.060215, 42.759431 ], [ -9.0597271, 42.7593129 ], [ -9.059366, 42.7593681 ], [ -9.0589191, 42.7595448 ], [ -9.0586126, 42.7595341 ], [ -9.0583028, 42.7596136 ], [ -9.0580002, 42.7600167 ], [ -9.0578098, 42.7608189 ], [ -9.0573272, 42.7608806 ], [ -9.0566574, 42.7612762 ], [ -9.0564883, 42.7615463 ], [ -9.0565969, 42.7616575 ], [ -9.0563428, 42.7619321 ], [ -9.0564922, 42.7620861 ], [ -9.056225, 42.7622263 ], [ -9.0561063, 42.7625117 ], [ -9.056273, 42.7625928 ], [ -9.0557401, 42.7637644 ], [ -9.0555502, 42.7661959 ], [ -9.0555495, 42.766197 ], [ -9.0612679, 42.7660763 ], [ -9.0640579, 42.7679378 ], [ -9.0673669, 42.7699424 ], [ -9.0705484, 42.7735712 ], [ -9.073646, 42.7790502 ], [ -9.0738663, 42.7796971 ], [ -9.0740835, 42.7803925 ], [ -9.0739808, 42.7806479 ], [ -9.0733723, 42.7811245 ], [ -9.0728855, 42.7814492 ], [ -9.0723333, 42.7819051 ], [ -9.0718278, 42.7823609 ], [ -9.0715409, 42.7826523 ] ] ] } },
{ "type": "Feature", "properties": { "CCAA": "12 - Galicia", "PROVINCIA": "15 - Coruña, A", "MUNICIPIO": "15053 - Muros", "COD_MUNICIPIO": "15053", "DISTRITO": "01", "SECCION": "1505301002", "V1_H": 80.02, "V1_M": 86.02, "V2_H": 79.96138623, "V2_M": 86.18252023, "V3_H": 80.18726569, "V3_M": 86.15258899 }, "geometry": { "type": "Polygon", "coordinates": [ [ [ -9.0652669, 42.7826491 ], [ -9.0656442, 42.78262 ], [ -9.065813, 42.782751 ], [ -9.0661504, 42.782875 ], [ -9.0665407, 42.7830042 ], [ -9.0666855, 42.7829705 ], [ -9.0669928, 42.7829805 ], [ -9.0674907, 42.7832676 ], [ -9.0687, 42.7838052 ], [ -9.0693841, 42.7839221 ], [ -9.0698245, 42.7838943 ], [ -9.0704519, 42.7835902 ], [ -9.0711072, 42.7830929 ], [ -9.0715409, 42.7826523 ], [ -9.0718278, 42.7823609 ], [ -9.0723333, 42.7819051 ], [ -9.0728855, 42.7814492 ], [ -9.0733723, 42.7811245 ], [ -9.0739808, 42.7806479 ], [ -9.0740835, 42.7803925 ], [ -9.0738663, 42.7796971 ], [ -9.073646, 42.7790502 ], [ -9.071787, 42.7792239 ], [ -9.0693132, 42.7793872 ], [ -9.0678931, 42.7793233 ], [ -9.0663999, 42.7792918 ], [ -9.0653604, 42.7792062 ], [ -9.0641453, 42.7791206 ], [ -9.0640755, 42.7790912 ], [ -9.063893, 42.7789282 ], [ -9.0637756, 42.7788381 ], [ -9.0635854, 42.7787883 ], [ -9.0633769, 42.7787596 ], [ -9.0631424, 42.7787194 ], [ -9.0629469, 42.7786735 ], [ -9.0627723, 42.7786045 ], [ -9.0626393, 42.778522 ], [ -9.0626002, 42.7784222 ], [ -9.0625948, 42.7783013 ], [ -9.0626051, 42.7781382 ], [ -9.0626283, 42.7779635 ], [ -9.0626568, 42.7778023 ], [ -9.0626489, 42.7776852 ], [ -9.0626097, 42.7776084 ], [ -9.0625236, 42.7774089 ], [ -9.0624008, 42.7771403 ], [ -9.062312, 42.7769407 ], [ -9.062218, 42.7767047 ], [ -9.0621445, 42.7766196 ], [ -9.0619939, 42.7765788 ], [ -9.0618671, 42.7765584 ], [ -9.061768, 42.776506 ], [ -9.0616806, 42.7763367 ], [ -9.0615734, 42.7761528 ], [ -9.0614465, 42.7759777 ], [ -9.0613631, 42.7758289 ], [ -9.06126, 42.7757093 ], [ -9.0612084, 42.7756247 ], [ -9.0611013, 42.7755371 ], [ -9.0609189, 42.7754409 ], [ -9.0607478, 42.7753377 ], [ -9.0605887, 42.7752517 ], [ -9.0604625, 42.7751726 ], [ -9.0603221, 42.7750246 ], [ -9.0599666, 42.7746529 ], [ -9.0597045, 42.7743776 ], [ -9.0595455, 42.7742193 ], [ -9.0593724, 42.7740679 ], [ -9.059218, 42.7738958 ], [ -9.0590683, 42.7737444 ], [ -9.0587974, 42.7738341 ], [ -9.0584703, 42.7739616 ], [ -9.0583816, 42.7740822 ], [ -9.0584191, 42.7741751 ], [ -9.0583292, 42.7742474 ], [ -9.0582631, 42.77432 ], [ -9.0581862, 42.7743887 ], [ -9.0581417, 42.7744365 ], [ -9.0581201, 42.7744942 ], [ -9.0580918, 42.774534 ], [ -9.058, 42.7745519 ], [ -9.0579176, 42.7745768 ], [ -9.0578653, 42.7748767 ], [ -9.0578655, 42.7748766 ], [ -9.0591067, 42.7761969 ], [ -9.0581389, 42.7766714 ], [ -9.0576157, 42.7761951 ], [ -9.0572284, 42.7762337 ], [ -9.0578492, 42.7770829 ], [ -9.0585905, 42.7767915 ], [ -9.0590142, 42.7767509 ], [ -9.0596326, 42.7768261 ], [ -9.0599676, 42.7776275 ], [ -9.0603668, 42.7792086 ], [ -9.0606097, 42.7798168 ], [ -9.0608574, 42.7801007 ], [ -9.0609343, 42.7806367 ], [ -9.0610744, 42.7809443 ], [ -9.0621464, 42.7812834 ], [ -9.0623608, 42.781227 ], [ -9.0627759, 42.781223 ], [ -9.0630583, 42.781361 ], [ -9.0635314, 42.7812008 ], [ -9.0638492, 42.7812019 ], [ -9.0638824, 42.7814162 ], [ -9.0637882, 42.7818263 ], [ -9.0639499, 42.7819797 ], [ -9.0646357, 42.7817452 ], [ -9.064998, 42.781951 ], [ -9.0652336, 42.7822355 ], [ -9.0652714, 42.7826206 ], [ -9.0652669, 42.7826491 ] ] ] } },
{ "type": "Feature", "properties": { "CCAA": "12 - Galicia", "PROVINCIA": "15 - Coruña, A", "MUNICIPIO": "15053 - Muros", "COD_MUNICIPIO": "15053", "DISTRITO": "01", "SECCION": "1505301001", "V1_H": 80.11, "V1_M": 85.95, "V2_H": 80.1609953, "V2_M": 86.03869322, "V3_H": 80.32004483, "V3_M": 85.9872989 }, "geometry": { "type": "Polygon", "coordinates": [ [ [ -9.0578653, 42.7748767 ], [ -9.0579176, 42.7745768 ], [ -9.058, 42.7745519 ], [ -9.0580918, 42.774534 ], [ -9.0581201, 42.7744942 ], [ -9.0581417, 42.7744365 ], [ -9.0581862, 42.7743887 ], [ -9.0582631, 42.77432 ], [ -9.0583292, 42.7742474 ], [ -9.0584191, 42.7741751 ], [ -9.0583816, 42.7740822 ], [ -9.0584703, 42.7739616 ], [ -9.0587974, 42.7738341 ], [ -9.0590683, 42.7737444 ], [ -9.059218, 42.7738958 ], [ -9.0593724, 42.7740679 ], [ -9.0595455, 42.7742193 ], [ -9.0597045, 42.7743776 ], [ -9.0599666, 42.7746529 ], [ -9.0603221, 42.7750246 ], [ -9.0604625, 42.7751726 ], [ -9.0605887, 42.7752517 ], [ -9.0607478, 42.7753377 ], [ -9.0609189, 42.7754409 ], [ -9.0611013, 42.7755371 ], [ -9.0612084, 42.7756247 ], [ -9.06126, 42.7757093 ], [ -9.0613631, 42.7758289 ], [ -9.0614465, 42.7759777 ], [ -9.0615734, 42.7761528 ], [ -9.0616806, 42.7763367 ], [ -9.061768, 42.776506 ], [ -9.0618671, 42.7765584 ], [ -9.0619939, 42.7765788 ], [ -9.0621445, 42.7766196 ], [ -9.062218, 42.7767047 ], [ -9.062312, 42.7769407 ], [ -9.0624008, 42.7771403 ], [ -9.0625236, 42.7774089 ], [ -9.0626097, 42.7776084 ], [ -9.0626489, 42.7776852 ], [ -9.0626568, 42.7778023 ], [ -9.0626283, 42.7779635 ], [ -9.0626051, 42.7781382 ], [ -9.0625948, 42.7783013 ], [ -9.0626002, 42.7784222 ], [ -9.0626393, 42.778522 ], [ -9.0627723, 42.7786045 ], [ -9.0629469, 42.7786735 ], [ -9.0631424, 42.7787194 ], [ -9.0633769, 42.7787596 ], [ -9.0635854, 42.7787883 ], [ -9.0637756, 42.7788381 ], [ -9.063893, 42.7789282 ], [ -9.0640755, 42.7790912 ], [ -9.0641453, 42.7791206 ], [ -9.0653604, 42.7792062 ], [ -9.0663999, 42.7792918 ], [ -9.0678931, 42.7793233 ], [ -9.0693132, 42.7793872 ], [ -9.071787, 42.7792239 ], [ -9.073646, 42.7790502 ], [ -9.0705484, 42.7735712 ], [ -9.0673669, 42.7699424 ], [ -9.0640579, 42.7679378 ], [ -9.0612679, 42.7660763 ], [ -9.0555495, 42.766197 ], [ -9.0551722, 42.7668281 ], [ -9.0539262, 42.7678303 ], [ -9.0533699, 42.7680129 ], [ -9.0530728, 42.7678486 ], [ -9.0528392, 42.767834 ], [ -9.0523802, 42.7681374 ], [ -9.0516476, 42.7683923 ], [ -9.0507073, 42.7683972 ], [ -9.049195, 42.7686754 ], [ -9.0487646, 42.7688963 ], [ -9.0484167, 42.7693378 ], [ -9.0483442, 42.7698457 ], [ -9.0483891, 42.7708066 ], [ -9.0486475, 42.771576 ], [ -9.0489354, 42.7721458 ], [ -9.0496339, 42.7727929 ], [ -9.0499788, 42.7729457 ], [ -9.0503001, 42.7729826 ], [ -9.0508716, 42.7732044 ], [ -9.051452, 42.7736417 ], [ -9.0525174, 42.7736662 ], [ -9.0532712, 42.7738782 ], [ -9.0537073, 42.7740891 ], [ -9.0548543, 42.7750725 ], [ -9.0547547, 42.7754288 ], [ -9.054471, 42.7756509 ], [ -9.054473, 42.7759208 ], [ -9.0552204, 42.7776905 ], [ -9.0554965, 42.7777658 ], [ -9.054802, 42.7759124 ], [ -9.0558471, 42.7754788 ], [ -9.0561008, 42.7755734 ], [ -9.0564278, 42.7761682 ], [ -9.0566562, 42.776255 ], [ -9.0567465, 42.7761782 ], [ -9.056757, 42.7752865 ], [ -9.0578653, 42.7748767 ] ] ] } },
{ "type": "Feature", "properties": { "CCAA": "12 - Galicia", "PROVINCIA": "15 - Coruña, A", "MUNICIPIO": "15053 - Muros", "COD_MUNICIPIO": "15053", "DISTRITO": "01", "SECCION": "1505301004", "V1_H": 80.06, "V1_M": 86.12, "V2_H": 80.10460866, "V2_M": 86.20761786, "V3_H": 80.17898723, "V3_M": 86.18020212 }, "geometry": { "type": "Polygon", "coordinates": [ [ [ -9.0675952, 42.7965509 ], [ -9.0712732, 42.7968154 ], [ -9.0739999, 42.7974425 ], [ -9.0827798, 42.7994343 ], [ -9.0866551, 42.8012867 ], [ -9.0871233, 42.8007742 ], [ -9.0870339, 42.7996178 ], [ -9.0874899, 42.7989093 ], [ -9.0878205, 42.7986666 ], [ -9.0890361, 42.7983497 ], [ -9.0897999, 42.7979128 ], [ -9.0908505, 42.7976587 ], [ -9.0911636, 42.797363 ], [ -9.0915395, 42.7972079 ], [ -9.0923064, 42.7971759 ], [ -9.0928959, 42.7969554 ], [ -9.0933775, 42.7966326 ], [ -9.0935872, 42.7962794 ], [ -9.0942046, 42.7939874 ], [ -9.0942047, 42.793987 ], [ -9.0939223, 42.7927329 ], [ -9.096961, 42.7936777 ], [ -9.0998082, 42.7889621 ], [ -9.086452, 42.7852645 ], [ -9.0780186, 42.7838852 ], [ -9.0715409, 42.7826523 ], [ -9.0711072, 42.7830929 ], [ -9.0704519, 42.7835902 ], [ -9.0698245, 42.7838943 ], [ -9.0693841, 42.7839221 ], [ -9.0687, 42.7838052 ], [ -9.0674907, 42.7832676 ], [ -9.0669928, 42.7829805 ], [ -9.0666855, 42.7829705 ], [ -9.0665407, 42.7830042 ], [ -9.0661504, 42.782875 ], [ -9.065813, 42.782751 ], [ -9.0656442, 42.78262 ], [ -9.0652669, 42.7826491 ], [ -9.0651808, 42.7831925 ], [ -9.0655296, 42.7837591 ], [ -9.0657881, 42.7851496 ], [ -9.0650504, 42.7856029 ], [ -9.0647259, 42.7859082 ], [ -9.0646724, 42.7862351 ], [ -9.0644208, 42.7865365 ], [ -9.0642397, 42.7869332 ], [ -9.0637014, 42.7870519 ], [ -9.0631359, 42.786982 ], [ -9.0654578, 42.7889914 ], [ -9.065565, 42.7895573 ], [ -9.0651725, 42.7904355 ], [ -9.0646951, 42.7918994 ], [ -9.0650123, 42.7928924 ], [ -9.0664268, 42.7926743 ], [ -9.0675952, 42.7965509 ] ] ] } },
{ "type": "Feature", "properties": { "CCAA": "12 - Galicia", "PROVINCIA": "15 - Coruña, A", "MUNICIPIO": "15053 - Muros", "COD_MUNICIPIO": "15053", "DISTRITO": "01", "SECCION": "1505301005", "V1_H": 79.83, "V1_M": 85.66, "V2_H": 79.86201885, "V2_M": 85.75249, "V3_H": 79.86616026, "V3_M": 85.80070523000001 }, "geometry": { "type": "Polygon", "coordinates": [ [ [ -9.0351806, 42.8100831 ], [ -9.0362203, 42.8149565 ], [ -9.03678, 42.8173638 ], [ -9.0382972, 42.8200057 ], [ -9.0390169, 42.8229415 ], [ -9.0406936, 42.8251135 ], [ -9.042849, 42.8273441 ], [ -9.0461214, 42.8295742 ], [ -9.0493145, 42.8319216 ], [ -9.053577, 42.8349563 ], [ -9.0546046, 42.8333354 ], [ -9.054937, 42.8328587 ], [ -9.0554947, 42.8325591 ], [ -9.0564945, 42.8320289 ], [ -9.0582791, 42.8296477 ], [ -9.0587125, 42.8293276 ], [ -9.0588956, 42.8290749 ], [ -9.0589917, 42.8286827 ], [ -9.0614576, 42.8281376 ], [ -9.0615598, 42.8278081 ], [ -9.0616199, 42.8263016 ], [ -9.0617517, 42.8260246 ], [ -9.0623952, 42.8256033 ], [ -9.0628909, 42.8251719 ], [ -9.0629888, 42.8247976 ], [ -9.0627028, 42.8238767 ], [ -9.0627974, 42.8229715 ], [ -9.0637466, 42.8215528 ], [ -9.0654581, 42.8212997 ], [ -9.0661997, 42.8207562 ], [ -9.0666678, 42.8205423 ], [ -9.0686882, 42.8198227 ], [ -9.0694961, 42.8189606 ], [ -9.0700415, 42.8186615 ], [ -9.0704434, 42.818271 ], [ -9.0705704, 42.8176972 ], [ -9.0707952, 42.8174962 ], [ -9.0717246, 42.8172487 ], [ -9.0724722, 42.8167678 ], [ -9.072686, 42.8160813 ], [ -9.072642, 42.8148864 ], [ -9.0726912, 42.8138936 ], [ -9.0767649, 42.8101841 ], [ -9.077676, 42.8092534 ], [ -9.0777182, 42.8089361 ], [ -9.0775016, 42.8087226 ], [ -9.0774283, 42.8084744 ], [ -9.077699, 42.808244 ], [ -9.0780872, 42.8080883 ], [ -9.0786682, 42.8072831 ], [ -9.078752, 42.8068916 ], [ -9.0791646, 42.8068606 ], [ -9.0802118, 42.8064448 ], [ -9.0810032, 42.8057905 ], [ -9.0814879, 42.8057466 ], [ -9.0826566, 42.8059453 ], [ -9.0830839, 42.8058145 ], [ -9.0834952, 42.8055226 ], [ -9.0843959, 42.8041153 ], [ -9.0843214, 42.802985 ], [ -9.0844999, 42.8026875 ], [ -9.084939, 42.802304 ], [ -9.085368, 42.8021911 ], [ -9.0865443, 42.8017233 ], [ -9.0866047, 42.801342 ], [ -9.0866551, 42.8012867 ], [ -9.0827798, 42.7994343 ], [ -9.0739999, 42.7974425 ], [ -9.0712732, 42.7968154 ], [ -9.0675952, 42.7965509 ], [ -9.0664268, 42.7926743 ], [ -9.0650123, 42.7928924 ], [ -9.0646951, 42.7918994 ], [ -9.0651725, 42.7904355 ], [ -9.065565, 42.7895573 ], [ -9.0654578, 42.7889914 ], [ -9.0631359, 42.786982 ], [ -9.0628354, 42.7869448 ], [ -9.062548, 42.7870051 ], [ -9.0620661, 42.7872018 ], [ -9.0617273, 42.7871118 ], [ -9.0616628, 42.7868271 ], [ -9.0616911, 42.7864926 ], [ -9.0615511, 42.786311 ], [ -9.0613565, 42.7861953 ], [ -9.0606147, 42.7861087 ], [ -9.0600071, 42.7855198 ], [ -9.0592385, 42.7855336 ], [ -9.0590014, 42.7854832 ], [ -9.0592643, 42.7861714 ], [ -9.0590917, 42.7864056 ], [ -9.0587001, 42.7865254 ], [ -9.0579209, 42.7863058 ], [ -9.0572721, 42.7862952 ], [ -9.0564774, 42.7861664 ], [ -9.0561317, 42.7862567 ], [ -9.0554396, 42.7863025 ], [ -9.054194, 42.7870617 ], [ -9.0533726, 42.7872853 ], [ -9.0519721, 42.7878367 ], [ -9.0509049, 42.7880464 ], [ -9.0505106, 42.7880133 ], [ -9.0499936, 42.7877256 ], [ -9.0482931, 42.7877078 ], [ -9.0481495, 42.7874903 ], [ -9.0484152, 42.7873789 ], [ -9.0484196, 42.787377 ], [ -9.0483022, 42.7871762 ], [ -9.0480208, 42.7871731 ], [ -9.0477496, 42.7868994 ], [ -9.0470303, 42.7866675 ], [ -9.0469104, 42.7865658 ], [ -9.0467903, 42.7862121 ], [ -9.046422, 42.7861956 ], [ -9.0462767, 42.7869595 ], [ -9.0459988, 42.7871182 ], [ -9.0451921, 42.787242 ], [ -9.0428038, 42.7873145 ], [ -9.0417801, 42.7877198 ], [ -9.041174, 42.7878959 ], [ -9.0404916, 42.7882921 ], [ -9.0403388, 42.7884803 ], [ -9.0403424, 42.7887681 ], [ -9.0402384, 42.7889536 ], [ -9.0400178, 42.7890734 ], [ -9.039449, 42.7891305 ], [ -9.0390391, 42.7893142 ], [ -9.0383123, 42.7895057 ], [ -9.0371157, 42.7900191 ], [ -9.0367814, 42.7902258 ], [ -9.0366175, 42.7906756 ], [ -9.0367384, 42.7910383 ], [ -9.0366475, 42.7914842 ], [ -9.036089, 42.7915227 ], [ -9.0359458, 42.7916833 ], [ -9.0359564, 42.7919168 ], [ -9.0358748, 42.7920831 ], [ -9.0354259, 42.7922419 ], [ -9.0352278, 42.7922164 ], [ -9.0348488, 42.7915883 ], [ -9.0343831, 42.7913249 ], [ -9.0340287, 42.7913257 ], [ -9.0335565, 42.7919987 ], [ -9.0331397, 42.7922368 ], [ -9.0329652, 42.7924531 ], [ -9.0332045, 42.7931515 ], [ -9.0329475, 42.7933992 ], [ -9.0326531, 42.7935138 ], [ -9.0324246, 42.7937545 ], [ -9.0333385, 42.7958147 ], [ -9.0346955, 42.7984567 ], [ -9.0352557, 42.801921 ], [ -9.0354181, 42.8069121 ], [ -9.0351806, 42.8100831 ] ] ] } },
{ "type": "Feature", "properties": { "CCAA": "12 - Galicia", "PROVINCIA": "15 - Coruña, A", "MUNICIPIO": "15053 - Muros", "COD_MUNICIPIO": "15053", "DISTRITO": "01", "SECCION": "1505301008", "V1_H": 80.34, "V1_M": 85.99, "V2_H": 80.22806877, "V2_M": 85.94669411, "V3_H": 80.64200885, "V3_M": 86.09540763 }, "geometry": { "type": "Polygon", "coordinates": [ [ [ -8.9789451, 42.7896244 ], [ -8.9789117, 42.7898705 ], [ -8.9781271, 42.7906048 ], [ -8.9773539, 42.7909513 ], [ -8.9769577, 42.7910261 ], [ -8.9752959, 42.7912842 ], [ -8.9747192, 42.7912604 ], [ -8.9746107, 42.791149 ], [ -8.9746472, 42.7910211 ], [ -8.9745691, 42.7908451 ], [ -8.9742811, 42.789888 ], [ -8.9740242, 42.7895054 ], [ -8.9730349, 42.7893862 ], [ -8.9728073, 42.7894341 ], [ -8.9724746, 42.7896586 ], [ -8.972194, 42.7896643 ], [ -8.9719613, 42.7894064 ], [ -8.9719571, 42.7892355 ], [ -8.9718355, 42.7891159 ], [ -8.9716063, 42.7890198 ], [ -8.9713387, 42.7890339 ], [ -8.9709104, 42.7892813 ], [ -8.9707506, 42.7892717 ], [ -8.9703016, 42.7890521 ], [ -8.9687349, 42.788648 ], [ -8.9683146, 42.788472 ], [ -8.967778, 42.788104 ], [ -8.9677694, 42.7880144 ], [ -8.9679875, 42.787868 ], [ -8.9680101, 42.7877228 ], [ -8.9677063, 42.7874866 ], [ -8.9675449, 42.787207 ], [ -8.9676866, 42.7869025 ], [ -8.9676623, 42.7867777 ], [ -8.9672637, 42.7868256 ], [ -8.9668738, 42.786711 ], [ -8.9667434, 42.7867538 ], [ -8.9666939, 42.7868734 ], [ -8.9667832, 42.7870398 ], [ -8.9666762, 42.7873244 ], [ -8.966585, 42.7872662 ], [ -8.9665573, 42.7871056 ], [ -8.9664271, 42.7870224 ], [ -8.9662334, 42.7870415 ], [ -8.9661259, 42.7868131 ], [ -8.9662026, 42.786341 ], [ -8.9663694, 42.7861702 ], [ -8.9663714, 42.78581 ], [ -8.9666496, 42.7852734 ], [ -8.9666636, 42.7850386 ], [ -8.9669851, 42.7849498 ], [ -8.9670616, 42.7847298 ], [ -8.9669975, 42.7844451 ], [ -8.967182, 42.7838233 ], [ -8.9668784, 42.783083 ], [ -8.9670627, 42.7828393 ], [ -8.9672538, 42.7827933 ], [ -8.9678672, 42.7824372 ], [ -8.9680149, 42.7821954 ], [ -8.9680437, 42.7819869 ], [ -8.9679405, 42.7818032 ], [ -8.9677182, 42.7817789 ], [ -8.9676088, 42.7816585 ], [ -8.9676037, 42.7814787 ], [ -8.9675065, 42.7813578 ], [ -8.9672494, 42.7813533 ], [ -8.9671678, 42.7812675 ], [ -8.9672887, 42.7810001 ], [ -8.9672297, 42.7808952 ], [ -8.9669979, 42.7807723 ], [ -8.9665142, 42.7806986 ], [ -8.9663822, 42.7805975 ], [ -8.9663675, 42.7804452 ], [ -8.9665431, 42.780238 ], [ -8.9664841, 42.780133 ], [ -8.9664747, 42.7799085 ], [ -8.9667154, 42.7797429 ], [ -8.9666659, 42.7796104 ], [ -8.9665279, 42.7795727 ], [ -8.9666061, 42.7793705 ], [ -8.9665333, 42.7791223 ], [ -8.966087, 42.7790556 ], [ -8.9656649, 42.7791137 ], [ -8.9655694, 42.7790106 ], [ -8.9652282, 42.7788934 ], [ -8.9648765, 42.7789208 ], [ -8.9647037, 42.7787768 ], [ -8.9643538, 42.7786961 ], [ -8.9642687, 42.7785745 ], [ -8.9640438, 42.7785233 ], [ -8.9636912, 42.7785417 ], [ -8.9633575, 42.7790092 ], [ -8.9632055, 42.7790802 ], [ -8.9630456, 42.7790706 ], [ -8.9628418, 42.7787301 ], [ -8.9626403, 42.7787947 ], [ -8.9619973, 42.7792244 ], [ -8.9618644, 42.7792403 ], [ -8.9618037, 42.7791174 ], [ -8.9616934, 42.7791142 ], [ -8.9614971, 42.7792325 ], [ -8.9610246, 42.7792752 ], [ -8.9607257, 42.7794708 ], [ -8.9605286, 42.7794541 ], [ -8.9604122, 42.7795142 ], [ -8.9601933, 42.7795256 ], [ -8.9600031, 42.7794545 ], [ -8.9595636, 42.7795855 ], [ -8.9591952, 42.7799468 ], [ -8.958846, 42.7800011 ], [ -8.9586635, 42.7801367 ], [ -8.9585739, 42.7803484 ], [ -8.9586388, 42.780642 ], [ -8.9585544, 42.7809075 ], [ -8.9583624, 42.7809445 ], [ -8.9586789, 42.7829624 ], [ -8.9604877, 42.7950203 ], [ -8.964288, 42.7969101 ], [ -8.9650052, 42.798898 ], [ -8.9649311, 42.799397 ], [ -8.9650829, 42.7998302 ], [ -8.9653129, 42.8001872 ], [ -8.9653882, 42.8005884 ], [ -8.9655349, 42.8009678 ], [ -8.9654763, 42.8015019 ], [ -8.9652815, 42.8018902 ], [ -8.9653825, 42.8029381 ], [ -8.9659419, 42.8031609 ], [ -8.966325, 42.8033299 ], [ -8.9663492, 42.8035807 ], [ -8.9682057, 42.8071113 ], [ -8.9724036, 42.8099432 ], [ -8.9726939, 42.8157342 ], [ -8.9745289, 42.8256121 ], [ -8.9745801, 42.8256364 ], [ -8.9774886, 42.8271313 ], [ -8.976952, 42.8333437 ], [ -8.976369, 42.8404375 ], [ -8.9763115, 42.8411367 ], [ -8.9763121, 42.8411368 ], [ -8.9892554, 42.8429244 ], [ -8.9963501, 42.8417865 ], [ -8.9984792, 42.8448162 ], [ -9.0015487, 42.8436736 ], [ -9.0015491, 42.8436739 ], [ -9.003454, 42.8379131 ], [ -9.0043164, 42.8346028 ], [ -9.004501, 42.831882 ], [ -9.0044391, 42.8283451 ], [ -9.0038228, 42.8248081 ], [ -9.0025289, 42.8210897 ], [ -9.0022209, 42.8189131 ], [ -9.0015432, 42.8163284 ], [ -8.9999417, 42.8126554 ], [ -8.999141, 42.8102974 ], [ -8.9977862, 42.8063522 ], [ -8.99663, 42.804185 ], [ -8.9957541, 42.8025431 ], [ -8.9952617, 42.7996863 ], [ -8.9941535, 42.796648 ], [ -8.9927992, 42.7935644 ], [ -8.9926595, 42.7931615 ], [ -8.9854194, 42.7931617 ], [ -8.9850408, 42.7925909 ], [ -8.9850197, 42.7923729 ], [ -8.9848092, 42.7922029 ], [ -8.9841355, 42.7919239 ], [ -8.9828439, 42.7918106 ], [ -8.9821176, 42.7920583 ], [ -8.9815586, 42.7921638 ], [ -8.9800906, 42.7918311 ], [ -8.9805591, 42.7902537 ], [ -8.9805565, 42.7899585 ], [ -8.9802247, 42.7897377 ], [ -8.9796374, 42.7895494 ], [ -8.9789451, 42.7896244 ] ] ] } },
{ "type": "Feature", "properties": { "CCAA": "12 - Galicia", "PROVINCIA": "15 - Coruña, A", "MUNICIPIO": "15053 - Muros", "COD_MUNICIPIO": "15053", "DISTRITO": "01", "SECCION": "1505301007", "V1_H": 80.01, "V1_M": 85.88, "V2_H": 79.90171161000001, "V2_M": 85.93881404, "V3_H": 80.29104055000001, "V3_M": 85.88520273 }, "geometry": { "type": "Polygon", "coordinates": [ [ [ -8.9941535, 42.796648 ], [ -8.9952617, 42.7996863 ], [ -8.9957541, 42.8025431 ], [ -8.99663, 42.804185 ], [ -8.9992271, 42.803071 ], [ -9.0019447, 42.8017882 ], [ -9.0054285, 42.7998383 ], [ -9.0091211, 42.7973752 ], [ -9.0119296, 42.7954547 ], [ -9.0119127, 42.7954187 ], [ -9.0121019, 42.7945986 ], [ -9.0122487, 42.7944739 ], [ -9.0128524, 42.7945231 ], [ -9.0125926, 42.7939877 ], [ -9.0126412, 42.7938591 ], [ -9.0128714, 42.7938379 ], [ -9.0133397, 42.7942543 ], [ -9.0135308, 42.7943343 ], [ -9.0136324, 42.7942479 ], [ -9.0136567, 42.7941206 ], [ -9.0134159, 42.7934042 ], [ -9.0135167, 42.7933088 ], [ -9.0134505, 42.7927542 ], [ -9.0134366, 42.7922328 ], [ -9.0137302, 42.7923614 ], [ -9.0138361, 42.7923198 ], [ -9.0138838, 42.7921823 ], [ -9.01379, 42.7915931 ], [ -9.0138733, 42.7914447 ], [ -9.0140713, 42.7913442 ], [ -9.0145716, 42.7913358 ], [ -9.0150884, 42.7908675 ], [ -9.0156226, 42.7913344 ], [ -9.0163123, 42.7913881 ], [ -9.0165216, 42.7912781 ], [ -9.0161827, 42.7905578 ], [ -9.0161635, 42.7903608 ], [ -9.0163198, 42.7899564 ], [ -9.0163006, 42.7897594 ], [ -9.0161346, 42.7894351 ], [ -9.0163829, 42.7889719 ], [ -9.0161501, 42.7885881 ], [ -9.015906, 42.788466 ], [ -9.015958, 42.7883732 ], [ -9.0161508, 42.788345 ], [ -9.0162872, 42.7881128 ], [ -9.0166615, 42.7880661 ], [ -9.016889, 42.787892 ], [ -9.016955, 42.7876905 ], [ -9.0167282, 42.7872434 ], [ -9.0168594, 42.7872095 ], [ -9.0169244, 42.787125 ], [ -9.0167273, 42.7869824 ], [ -9.01649, 42.7866799 ], [ -9.0161662, 42.78712 ], [ -9.0160836, 42.7865212 ], [ -9.0157742, 42.7856014 ], [ -9.0155916, 42.7846028 ], [ -9.0154734, 42.784393 ], [ -9.0154473, 42.7841243 ], [ -9.0155072, 42.7839861 ], [ -9.015693, 42.7838863 ], [ -9.0164095, 42.7838395 ], [ -9.0164746, 42.7837551 ], [ -9.0163782, 42.7836432 ], [ -9.0162002, 42.7835715 ], [ -9.0164841, 42.7833495 ], [ -9.0165761, 42.7831646 ], [ -9.0162104, 42.7826708 ], [ -9.0157996, 42.7824674 ], [ -9.0155346, 42.7821303 ], [ -9.0153349, 42.7820869 ], [ -9.0150752, 42.7821816 ], [ -9.0149536, 42.782314 ], [ -9.0151195, 42.7826383 ], [ -9.0151005, 42.7828194 ], [ -9.0152438, 42.7830369 ], [ -9.0152119, 42.7837137 ], [ -9.0145222, 42.783408 ], [ -9.0143311, 42.783202 ], [ -9.0141071, 42.7832858 ], [ -9.0139533, 42.7834649 ], [ -9.0136572, 42.7834355 ], [ -9.0135191, 42.7835238 ], [ -9.0134923, 42.7837503 ], [ -9.013349, 42.7839109 ], [ -9.0130467, 42.7838188 ], [ -9.0128366, 42.7837939 ], [ -9.0126212, 42.7838412 ], [ -9.0121444, 42.7837133 ], [ -9.0114557, 42.7836686 ], [ -9.0111847, 42.7837729 ], [ -9.0107218, 42.7836623 ], [ -9.0104361, 42.7837403 ], [ -9.0103188, 42.7836655 ], [ -9.0102823, 42.7832893 ], [ -9.0101668, 42.7831064 ], [ -9.0099905, 42.7830527 ], [ -9.0098741, 42.7831128 ], [ -9.0097742, 42.7833431 ], [ -9.0096127, 42.7833156 ], [ -9.0094668, 42.7831973 ], [ -9.0093079, 42.7831966 ], [ -9.0096353, 42.7839265 ], [ -9.0095772, 42.7840826 ], [ -9.0093774, 42.7842912 ], [ -9.0091039, 42.7843686 ], [ -9.0088321, 42.7843379 ], [ -9.0086227, 42.7841959 ], [ -9.0082614, 42.7837469 ], [ -9.0082961, 42.783601 ], [ -9.0081954, 42.7833182 ], [ -9.0079843, 42.7832844 ], [ -9.0076699, 42.7833189 ], [ -9.0072704, 42.7831059 ], [ -9.0070845, 42.7830797 ], [ -9.0070359, 42.7832082 ], [ -9.0071905, 42.7834162 ], [ -9.0071176, 42.783546 ], [ -9.006877, 42.7835857 ], [ -9.0066356, 42.7834904 ], [ -9.0059624, 42.7829767 ], [ -9.005767, 42.782726 ], [ -9.0054127, 42.7824745 ], [ -9.0049759, 42.7825065 ], [ -9.0046901, 42.7823325 ], [ -9.0043019, 42.782362 ], [ -9.0041882, 42.782449 ], [ -9.004209, 42.7826639 ], [ -9.0040883, 42.7828053 ], [ -9.0038937, 42.7828155 ], [ -9.0037401, 42.7827426 ], [ -9.0032337, 42.7829403 ], [ -9.0029575, 42.7824867 ], [ -9.0027691, 42.7819295 ], [ -9.0028359, 42.7814849 ], [ -9.0030096, 42.7813858 ], [ -9.0034612, 42.78138 ], [ -9.0037374, 42.7814555 ], [ -9.0038738, 42.7813493 ], [ -9.0039319, 42.7810672 ], [ -9.0042098, 42.7810345 ], [ -9.0041751, 42.7809284 ], [ -9.0034238, 42.7802387 ], [ -9.003489, 42.7801543 ], [ -9.0037695, 42.7801485 ], [ -9.0038346, 42.7800641 ], [ -9.003753, 42.7799784 ], [ -9.0035836, 42.7799963 ], [ -9.0025416, 42.779331 ], [ -9.0024747, 42.7790195 ], [ -9.0023452, 42.7789452 ], [ -9.0020526, 42.7789516 ], [ -9.0019996, 42.7790354 ], [ -9.0020621, 42.7791762 ], [ -9.0020101, 42.779269 ], [ -9.0015584, 42.7794007 ], [ -9.0015193, 42.7797538 ], [ -9.0012753, 42.7800097 ], [ -9.0018225, 42.7801069 ], [ -9.0021064, 42.7802631 ], [ -9.0022202, 42.7804281 ], [ -9.0021637, 42.7806021 ], [ -9.00133, 42.7805739 ], [ -9.0014264, 42.7806859 ], [ -9.0020361, 42.7807979 ], [ -9.0020057, 42.7809885 ], [ -9.0017729, 42.7811088 ], [ -9.001667, 42.7808983 ], [ -9.0014742, 42.7808004 ], [ -9.0013474, 42.7808791 ], [ -9.0015202, 42.7810231 ], [ -9.0015749, 42.7812092 ], [ -9.0013231, 42.7813845 ], [ -9.001271, 42.7816033 ], [ -9.0007925, 42.7819615 ], [ -8.9998805, 42.7822615 ], [ -8.9994107, 42.7823312 ], [ -8.9992118, 42.7822967 ], [ -8.999217, 42.7822244 ], [ -8.9989973, 42.7819749 ], [ -8.9986673, 42.7818482 ], [ -8.9988271, 42.7817318 ], [ -8.99824, 42.7813485 ], [ -8.998234, 42.7811598 ], [ -8.997805, 42.7806423 ], [ -8.9976496, 42.7806775 ], [ -8.997448, 42.7809941 ], [ -8.997105, 42.7808591 ], [ -8.9969495, 42.7808943 ], [ -8.9969764, 42.781298 ], [ -8.9968045, 42.781415 ], [ -8.9965161, 42.7814662 ], [ -8.9959527, 42.7814151 ], [ -8.9958874, 42.7814092 ], [ -8.9957137, 42.7815084 ], [ -8.9955044, 42.7814924 ], [ -8.9951509, 42.7812499 ], [ -8.9947132, 42.7812729 ], [ -8.9947228, 42.7811193 ], [ -8.9946351, 42.7809709 ], [ -8.9935574, 42.7808205 ], [ -8.9933637, 42.7807137 ], [ -8.9930337, 42.780713 ], [ -8.9928435, 42.7806419 ], [ -8.9927932, 42.7805006 ], [ -8.9929504, 42.7803573 ], [ -8.9929982, 42.7802198 ], [ -8.9927298, 42.7799728 ], [ -8.9924815, 42.7799318 ], [ -8.992181, 42.7799836 ], [ -8.9918909, 42.7801429 ], [ -8.9917259, 42.7800795 ], [ -8.9915374, 42.7802785 ], [ -8.9913516, 42.7801262 ], [ -8.991316, 42.780011 ], [ -8.991587, 42.7797807 ], [ -8.991528, 42.7796758 ], [ -8.9913109, 42.7795792 ], [ -8.9909757, 42.7795248 ], [ -8.9909002, 42.7793757 ], [ -8.9909185, 42.7791857 ], [ -8.990809, 42.7790655 ], [ -8.9897843, 42.7789572 ], [ -8.9897531, 42.7788869 ], [ -8.9900067, 42.7786035 ], [ -8.9899416, 42.7783099 ], [ -8.98992, 42.7779599 ], [ -8.9897767, 42.7778684 ], [ -8.9897169, 42.7775025 ], [ -8.9895771, 42.7774468 ], [ -8.9894051, 42.7775639 ], [ -8.9894537, 42.7776874 ], [ -8.9893807, 42.7778172 ], [ -8.9891757, 42.7778459 ], [ -8.9883326, 42.7777192 ], [ -8.9881953, 42.7778164 ], [ -8.9882343, 42.7779674 ], [ -8.9881544, 42.7782776 ], [ -8.9882603, 42.7783621 ], [ -8.9882221, 42.7784721 ], [ -8.9880562, 42.7785258 ], [ -8.9878261, 42.7784209 ], [ -8.9876689, 42.7784381 ], [ -8.9876177, 42.7785399 ], [ -8.9877132, 42.7786429 ], [ -8.9875454, 42.7793088 ], [ -8.9873882, 42.7794521 ], [ -8.9871259, 42.7795199 ], [ -8.986642, 42.7799503 ], [ -8.9864545, 42.7800322 ], [ -8.9860932, 42.7799611 ], [ -8.9852804, 42.7796437 ], [ -8.9849695, 42.779588 ], [ -8.9848879, 42.7795023 ], [ -8.9848654, 42.7791433 ], [ -8.9845771, 42.7790685 ], [ -8.9843271, 42.7786315 ], [ -8.9841292, 42.7786059 ], [ -8.9838694, 42.7787005 ], [ -8.9834909, 42.7784503 ], [ -8.9829872, 42.7784227 ], [ -8.9827327, 42.7785711 ], [ -8.9825747, 42.7785794 ], [ -8.9823316, 42.77834 ], [ -8.9816368, 42.7784845 ], [ -8.9813587, 42.7790212 ], [ -8.9811746, 42.7791388 ], [ -8.9810529, 42.7795233 ], [ -8.9813548, 42.7801196 ], [ -8.9813357, 42.7803007 ], [ -8.981524, 42.7808579 ], [ -8.9817288, 42.7810812 ], [ -8.981839, 42.7814625 ], [ -8.9821046, 42.7816826 ], [ -8.9821072, 42.7818355 ], [ -8.9816738, 42.7820292 ], [ -8.9816806, 42.7822269 ], [ -8.9821903, 42.7826953 ], [ -8.982271, 42.7828981 ], [ -8.9822154, 42.7830811 ], [ -8.9816385, 42.7835614 ], [ -8.9814813, 42.7835786 ], [ -8.9813632, 42.7834948 ], [ -8.9811939, 42.7835127 ], [ -8.9809888, 42.7837935 ], [ -8.980993, 42.7840903 ], [ -8.9808306, 42.7841798 ], [ -8.9807376, 42.7843558 ], [ -8.980959, 42.7844972 ], [ -8.9809216, 42.7846162 ], [ -8.9807853, 42.7847223 ], [ -8.9809702, 42.7849917 ], [ -8.9811749, 42.7855931 ], [ -8.9807718, 42.7858483 ], [ -8.9806858, 42.7859698 ], [ -8.9806927, 42.7861675 ], [ -8.980618, 42.7862794 ], [ -8.9803443, 42.7863568 ], [ -8.9801627, 42.7865013 ], [ -8.9797839, 42.7870073 ], [ -8.9795902, 42.7870264 ], [ -8.9793774, 42.7869746 ], [ -8.979228, 42.7870724 ], [ -8.9787483, 42.7876737 ], [ -8.9786874, 42.7880549 ], [ -8.9783163, 42.7883894 ], [ -8.9778932, 42.7888167 ], [ -8.9780624, 42.7891769 ], [ -8.978421, 42.7894731 ], [ -8.9789474, 42.7896076 ], [ -8.9789469, 42.7896107 ], [ -8.9789451, 42.7896244 ], [ -8.9796374, 42.7895494 ], [ -8.9802247, 42.7897377 ], [ -8.9805565, 42.7899585 ], [ -8.9805591, 42.7902537 ], [ -8.9800906, 42.7918311 ], [ -8.9815586, 42.7921638 ], [ -8.9821176, 42.7920583 ], [ -8.9828439, 42.7918106 ], [ -8.9841355, 42.7919239 ], [ -8.9848092, 42.7922029 ], [ -8.9850197, 42.7923729 ], [ -8.9850408, 42.7925909 ], [ -8.9854194, 42.7931617 ], [ -8.9926595, 42.7931615 ], [ -8.9927992, 42.7935644 ], [ -8.9941535, 42.796648 ] ] ] } }
]
}
