{
"type": "FeatureCollection",
"name": "15060",
"features": [
{ "type": "Feature", "properties": { "CCAA": "12 - Galicia", "PROVINCIA": "15 - Coruña, A", "MUNICIPIO": "15060 - Oroso", "COD_MUNICIPIO": "15060", "DISTRITO": "01", "SECCION": "1506001005", "V1_H": 80.16, "V1_M": 86.09, "V2_H": 80.12695049, "V2_M": 86.02539962, "V3_H": 80.31827198000001, "V3_M": 86.38244546 }, "geometry": { "type": "Polygon", "coordinates": [ [ [ -8.4458278, 42.9657657 ], [ -8.4449399, 42.9659947 ], [ -8.4446284, 42.9661356 ], [ -8.4443417, 42.9664095 ], [ -8.4442106, 42.9666082 ], [ -8.4440911, 42.9669683 ], [ -8.4439569, 42.9675087 ], [ -8.4438211, 42.968239 ], [ -8.4436301, 42.9693581 ], [ -8.4434812, 42.9701073 ], [ -8.4434074, 42.9711321 ], [ -8.4433172, 42.9720625 ], [ -8.4433084, 42.9730362 ], [ -8.4431448, 42.9743709 ], [ -8.4429922, 42.9751782 ], [ -8.4435507, 42.9748241 ], [ -8.4450207, 42.9740191 ], [ -8.4467043, 42.9732675 ], [ -8.4500689, 42.9720262 ], [ -8.4516864, 42.9710157 ], [ -8.451404, 42.9708232 ], [ -8.450937, 42.9703954 ], [ -8.4503627, 42.9695856 ], [ -8.4498334, 42.9690077 ], [ -8.4492955, 42.9686103 ], [ -8.447599, 42.9678631 ], [ -8.4470251, 42.9676114 ], [ -8.4466019, 42.9672625 ], [ -8.4463304, 42.9668254 ], [ -8.4458278, 42.9657657 ] ] ] } },
{ "type": "Feature", "properties": { "CCAA": "12 - Galicia", "PROVINCIA": "15 - Coruña, A", "MUNICIPIO": "15060 - Oroso", "COD_MUNICIPIO": "15060", "DISTRITO": "02", "SECCION": "1506002001", "V1_H": 80.56, "V1_M": 86.09, "V2_H": 80.29410508, "V2_M": 85.89209003000001, "V3_H": 80.91212464, "V3_M": 86.35342073 }, "geometry": { "type": "Polygon", "coordinates": [ [ [ -8.3563487, 43.0445811 ], [ -8.3576653, 43.0446183 ], [ -8.3579638, 43.0452255 ], [ -8.3596964, 43.0439828 ], [ -8.3629519, 43.0442979 ], [ -8.3647011, 43.0440896 ], [ -8.3661278, 43.0455259 ], [ -8.3664106, 43.0452612 ], [ -8.3673531, 43.044379 ], [ -8.3683465, 43.0431079 ], [ -8.370024, 43.0409584 ], [ -8.3711325, 43.0415634 ], [ -8.3719252, 43.0401037 ], [ -8.3730222, 43.039737 ], [ -8.3755976, 43.0387334 ], [ -8.3763032, 43.0354413 ], [ -8.3749601, 43.033416 ], [ -8.3749353, 43.0303293 ], [ -8.3751933, 43.029912 ], [ -8.3751012, 43.029313 ], [ -8.3750092, 43.028714 ], [ -8.3748225, 43.0274989 ], [ -8.3754569, 43.0270369 ], [ -8.3750992, 43.0256133 ], [ -8.3741291, 43.025605 ], [ -8.372055, 43.0264409 ], [ -8.3713759, 43.0261127 ], [ -8.3685337, 43.0264446 ], [ -8.3681381, 43.0268323 ], [ -8.3670997, 43.0270252 ], [ -8.3661726, 43.0263846 ], [ -8.3657007, 43.0264608 ], [ -8.3658503, 43.0274711 ], [ -8.3644173, 43.0284837 ], [ -8.3630107, 43.0265693 ], [ -8.363273, 43.0256387 ], [ -8.3622895, 43.0257569 ], [ -8.3609395, 43.0249112 ], [ -8.3599242, 43.0248058 ], [ -8.3575141, 43.0231995 ], [ -8.3573349, 43.0218486 ], [ -8.3567007, 43.0217523 ], [ -8.3562527, 43.0211162 ], [ -8.3566415, 43.0207919 ], [ -8.3567164, 43.019681 ], [ -8.3565021, 43.0190519 ], [ -8.3559354, 43.0183223 ], [ -8.3550239, 43.0177169 ], [ -8.3547415, 43.0174331 ], [ -8.3546062, 43.0170073 ], [ -8.3544743, 43.0163383 ], [ -8.3540504, 43.015557 ], [ -8.3536661, 43.0150889 ], [ -8.3531453, 43.0147442 ], [ -8.3528588, 43.0142715 ], [ -8.3526713, 43.0140913 ], [ -8.3522793, 43.0139566 ], [ -8.3529611, 43.0134745 ], [ -8.353039, 43.0126787 ], [ -8.3547489, 43.011185 ], [ -8.3555559, 43.010733 ], [ -8.3591141, 43.0097558 ], [ -8.36003, 43.0095687 ], [ -8.3619883, 43.0093776 ], [ -8.3665461, 43.0081911 ], [ -8.3689654, 43.0079422 ], [ -8.370503, 43.0081309 ], [ -8.3744853, 43.0082225 ], [ -8.3758381, 43.0074206 ], [ -8.3799917, 43.0069457 ], [ -8.3812514, 43.0071834 ], [ -8.3816736, 43.0065423 ], [ -8.3804726, 43.0052936 ], [ -8.3812101, 43.0046106 ], [ -8.3833957, 43.0047776 ], [ -8.3874411, 43.002372 ], [ -8.3880694, 43.0014241 ], [ -8.3880859, 43.0014289 ], [ -8.388725, 43.0001768 ], [ -8.3888196, 42.9999915 ], [ -8.3886474, 42.9994968 ], [ -8.3886263, 42.9991115 ], [ -8.3883715, 42.9983491 ], [ -8.3883255, 42.9979454 ], [ -8.3878082, 42.9971999 ], [ -8.3878569, 42.9960723 ], [ -8.3892863, 42.9955298 ], [ -8.3895637, 42.9952746 ], [ -8.3899321, 42.9946438 ], [ -8.3903318, 42.9933806 ], [ -8.3904966, 42.9931339 ], [ -8.3904982, 42.9929689 ], [ -8.3905556, 42.9909519 ], [ -8.3906961, 42.9906317 ], [ -8.390988, 42.9901656 ], [ -8.3911378, 42.9889102 ], [ -8.3915938, 42.9882616 ], [ -8.3916212, 42.9880142 ], [ -8.3915861, 42.9877756 ], [ -8.3912777, 42.9873797 ], [ -8.3912617, 42.9864718 ], [ -8.3911641, 42.9862329 ], [ -8.391021, 42.9855444 ], [ -8.3908495, 42.9852042 ], [ -8.3907905, 42.9848647 ], [ -8.39093, 42.9846453 ], [ -8.3911821, 42.9844083 ], [ -8.3914727, 42.9840706 ], [ -8.3914917, 42.9834013 ], [ -8.3920898, 42.9822766 ], [ -8.3921918, 42.9820663 ], [ -8.392456, 42.981866 ], [ -8.3928328, 42.9816479 ], [ -8.3930324, 42.9816673 ], [ -8.3930959, 42.9815667 ], [ -8.3931849, 42.9814022 ], [ -8.393398, 42.9813208 ], [ -8.3938977, 42.9813051 ], [ -8.3942379, 42.9809951 ], [ -8.3947214, 42.9813645 ], [ -8.3952804, 42.9816608 ], [ -8.3958893, 42.9819758 ], [ -8.396698, 42.9822918 ], [ -8.3971099, 42.9823123 ], [ -8.3973984, 42.9821855 ], [ -8.3978394, 42.9817935 ], [ -8.3991616, 42.9806634 ], [ -8.3992895, 42.9803615 ], [ -8.3993306, 42.9799858 ], [ -8.399111, 42.9794528 ], [ -8.3988796, 42.9788464 ], [ -8.3987724, 42.9783049 ], [ -8.3988315, 42.9773699 ], [ -8.3990257, 42.9766557 ], [ -8.3993932, 42.9761075 ], [ -8.399671, 42.9757972 ], [ -8.3999602, 42.9755786 ], [ -8.4005631, 42.9752241 ], [ -8.4010028, 42.9749514 ], [ -8.4012411, 42.9746984 ], [ -8.4013327, 42.9744055 ], [ -8.4013148, 42.9737725 ], [ -8.4010671, 42.9738833 ], [ -8.4004133, 42.9739772 ], [ -8.3998576, 42.9739315 ], [ -8.3988385, 42.9729355 ], [ -8.3979385, 42.972879 ], [ -8.3948836, 42.9725734 ], [ -8.3934466, 42.9722632 ], [ -8.3922758, 42.9719134 ], [ -8.3900119, 42.9711201 ], [ -8.3885753, 42.9724933 ], [ -8.3871992, 42.9727384 ], [ -8.3870985, 42.972149 ], [ -8.3840359, 42.9714742 ], [ -8.3840732, 42.9707793 ], [ -8.3818108, 42.9702829 ], [ -8.3823809, 42.9696528 ], [ -8.3818658, 42.9686688 ], [ -8.3805063, 42.968823 ], [ -8.3793658, 42.9689578 ], [ -8.378166, 42.9685552 ], [ -8.3775021, 42.9685325 ], [ -8.3768218, 42.9687446 ], [ -8.3756251, 42.9693591 ], [ -8.3747894, 42.9696146 ], [ -8.373982, 42.9696346 ], [ -8.3733504, 42.9694213 ], [ -8.3729576, 42.9691337 ], [ -8.3728148, 42.9687623 ], [ -8.373108, 42.9667859 ], [ -8.3730472, 42.9662306 ], [ -8.3724729, 42.9652674 ], [ -8.3722058, 42.9638936 ], [ -8.3719113, 42.9631873 ], [ -8.3715929, 42.9627701 ], [ -8.3709902, 42.9624654 ], [ -8.3702079, 42.9623492 ], [ -8.3695702, 42.9624872 ], [ -8.3691901, 42.9627662 ], [ -8.3687061, 42.9634011 ], [ -8.3684474, 42.9640885 ], [ -8.3678782, 42.9644484 ], [ -8.3672748, 42.9645578 ], [ -8.3667028, 42.9643236 ], [ -8.3657117, 42.963641 ], [ -8.3655558, 42.9635403 ], [ -8.3646381, 42.9632774 ], [ -8.363678, 42.9628094 ], [ -8.3625023, 42.9621174 ], [ -8.3619734, 42.9632226 ], [ -8.3598935, 42.9610157 ], [ -8.3606691, 42.9558478 ], [ -8.3584475, 42.9551059 ], [ -8.3561303, 42.9566461 ], [ -8.3555501, 42.9564572 ], [ -8.3547429, 42.9569002 ], [ -8.3545447, 42.9570176 ], [ -8.3538469, 42.9571674 ], [ -8.3534957, 42.9570758 ], [ -8.3521304, 42.9564556 ], [ -8.3485835, 42.9552715 ], [ -8.3470562, 42.9544789 ], [ -8.3470561, 42.9544789 ], [ -8.346919, 42.9545933 ], [ -8.3484729, 42.9565371 ], [ -8.3490255, 42.9571143 ], [ -8.3503896, 42.9582838 ], [ -8.3521273, 42.9605069 ], [ -8.3525582, 42.9612339 ], [ -8.3526813, 42.9618043 ], [ -8.3527814, 42.963096 ], [ -8.3529186, 42.9638277 ], [ -8.3532859, 42.9643867 ], [ -8.3537078, 42.964727 ], [ -8.3543549, 42.9651197 ], [ -8.3545463, 42.9654889 ], [ -8.3545089, 42.9659047 ], [ -8.3540744, 42.9665463 ], [ -8.3536122, 42.9670091 ], [ -8.353055, 42.9673683 ], [ -8.352483, 42.9675572 ], [ -8.3516484, 42.9676864 ], [ -8.3505561, 42.9679537 ], [ -8.3494459, 42.9684378 ], [ -8.3488295, 42.9685387 ], [ -8.3483307, 42.9687242 ], [ -8.347015, 42.969524 ], [ -8.3461206, 42.9703762 ], [ -8.3455779, 42.9707617 ], [ -8.3449283, 42.9710442 ], [ -8.3442242, 42.9712662 ], [ -8.3432474, 42.971312 ], [ -8.3422182, 42.9714592 ], [ -8.340847, 42.9720455 ], [ -8.3403313, 42.9721777 ], [ -8.3388672, 42.9723992 ], [ -8.3381943, 42.9725567 ], [ -8.3376895, 42.9728144 ], [ -8.3370576, 42.9733031 ], [ -8.336299, 42.9737437 ], [ -8.3355759, 42.9740296 ], [ -8.3347167, 42.9741598 ], [ -8.3339405, 42.974115 ], [ -8.3323023, 42.9738855 ], [ -8.3315897, 42.9740088 ], [ -8.3311184, 42.9742289 ], [ -8.3299944, 42.9744165 ], [ -8.3294926, 42.97471 ], [ -8.3295271, 42.9752485 ], [ -8.3305394, 42.9784421 ], [ -8.3306039, 42.9791864 ], [ -8.3303359, 42.979631 ], [ -8.329526, 42.9800469 ], [ -8.3287569, 42.9802269 ], [ -8.3281118, 42.98014 ], [ -8.3271408, 42.9801133 ], [ -8.3263893, 42.9803554 ], [ -8.3251329, 42.980288 ], [ -8.3244356, 42.9800235 ], [ -8.3240794, 42.9791669 ], [ -8.3237482, 42.9791643 ], [ -8.3233706, 42.979335 ], [ -8.3226186, 42.9802793 ], [ -8.3222874, 42.9808439 ], [ -8.3222453, 42.98135 ], [ -8.322754, 42.9826946 ], [ -8.3224793, 42.9832026 ], [ -8.3219318, 42.9836783 ], [ -8.3211415, 42.9840392 ], [ -8.3194025, 42.9844894 ], [ -8.3189037, 42.9848187 ], [ -8.3188835, 42.9851527 ], [ -8.3193141, 42.986303 ], [ -8.3190481, 42.9866305 ], [ -8.317343, 42.9873312 ], [ -8.3168079, 42.9873831 ], [ -8.3155792, 42.9870712 ], [ -8.3150876, 42.9870581 ], [ -8.3147564, 42.9871996 ], [ -8.3145851, 42.9874867 ], [ -8.3143691, 42.9881089 ], [ -8.3139883, 42.9888108 ], [ -8.3131927, 42.9899642 ], [ -8.3130917, 42.990356 ], [ -8.3131791, 42.990658 ], [ -8.3135246, 42.990966 ], [ -8.3139084, 42.9914343 ], [ -8.3138029, 42.9919163 ], [ -8.313495, 42.9923268 ], [ -8.3128833, 42.9927694 ], [ -8.311802, 42.9931708 ], [ -8.3112739, 42.9933034 ], [ -8.309811, 42.9932635 ], [ -8.3092714, 42.9934056 ], [ -8.3085452, 42.9939436 ], [ -8.3067657, 42.9946385 ], [ -8.3062179, 42.99497 ], [ -8.306061, 42.9952834 ], [ -8.3061033, 42.9956325 ], [ -8.3069431, 42.9968358 ], [ -8.3069267, 42.9972147 ], [ -8.3065903, 42.9974375 ], [ -8.3054463, 42.9978237 ], [ -8.3050328, 42.998149 ], [ -8.3031605, 43.0000456 ], [ -8.3027918, 43.0001797 ], [ -8.302203, 43.0000361 ], [ -8.3015775, 42.9998941 ], [ -8.3012843, 42.9999077 ], [ -8.3011684, 42.9999851 ], [ -8.300989, 43.0000384 ], [ -8.299805, 43.0003905 ], [ -8.2986878, 43.0009465 ], [ -8.2977856, 43.0012945 ], [ -8.2967294, 43.0018477 ], [ -8.2961947, 43.0023317 ], [ -8.2961346, 43.0026315 ], [ -8.2962281, 43.0028612 ], [ -8.2964015, 43.0030243 ], [ -8.297244, 43.0032642 ], [ -8.2973603, 43.0034749 ], [ -8.2970301, 43.0046245 ], [ -8.2956964, 43.0065139 ], [ -8.2952897, 43.0067759 ], [ -8.29524, 43.0067692 ], [ -8.2950965, 43.0067624 ], [ -8.2968535, 43.0081257 ], [ -8.2969382, 43.0095352 ], [ -8.3008541, 43.0121261 ], [ -8.2996935, 43.0144576 ], [ -8.2997967, 43.0145159 ], [ -8.3006239, 43.0145765 ], [ -8.3017976, 43.0145309 ], [ -8.3021574, 43.0145773 ], [ -8.3036034, 43.0154103 ], [ -8.3044398, 43.0155785 ], [ -8.3052296, 43.0156318 ], [ -8.3065506, 43.0154443 ], [ -8.3088164, 43.0158251 ], [ -8.3092303, 43.0157878 ], [ -8.3094752, 43.0156414 ], [ -8.3096079, 43.0154732 ], [ -8.3096618, 43.0152456 ], [ -8.3096165, 43.0150046 ], [ -8.309693, 43.0144699 ], [ -8.3098507, 43.0141655 ], [ -8.3102927, 43.0140279 ], [ -8.3108716, 43.0140549 ], [ -8.3117036, 43.0143133 ], [ -8.3128706, 43.0148982 ], [ -8.3138964, 43.0149855 ], [ -8.3142926, 43.014886 ], [ -8.3151406, 43.0144774 ], [ -8.3159559, 43.0142593 ], [ -8.3166081, 43.014283 ], [ -8.3171132, 43.0144485 ], [ -8.3175065, 43.0144571 ], [ -8.3191984, 43.0145854 ], [ -8.3200414, 43.0145461 ], [ -8.3222555, 43.0140467 ], [ -8.3231065, 43.0136739 ], [ -8.3233572, 43.0133111 ], [ -8.3234202, 43.0130471 ], [ -8.3232365, 43.0127676 ], [ -8.3229384, 43.0125834 ], [ -8.3225899, 43.0123836 ], [ -8.3222066, 43.0119244 ], [ -8.3220011, 43.0108267 ], [ -8.322132, 43.0104965 ], [ -8.322347, 43.0102884 ], [ -8.3231178, 43.0099823 ], [ -8.3237937, 43.0099958 ], [ -8.3246348, 43.0102176 ], [ -8.3249994, 43.0104617 ], [ -8.3257255, 43.0113371 ], [ -8.3261013, 43.0114276 ], [ -8.326328, 43.011354 ], [ -8.3264362, 43.0111869 ], [ -8.3264321, 43.010998 ], [ -8.3262341, 43.0098459 ], [ -8.3261854, 43.0094251 ], [ -8.3260997, 43.0088619 ], [ -8.3262948, 43.0085647 ], [ -8.3272346, 43.0079447 ], [ -8.3282032, 43.0076564 ], [ -8.3281492, 43.0077399 ], [ -8.327756, 43.0082985 ], [ -8.3285716, 43.0093587 ], [ -8.3292103, 43.0095089 ], [ -8.3310018, 43.0099383 ], [ -8.3317448, 43.0104438 ], [ -8.3335453, 43.011683 ], [ -8.3345787, 43.0141194 ], [ -8.3341007, 43.018787 ], [ -8.3354629, 43.0199207 ], [ -8.3361063, 43.0205478 ], [ -8.3361744, 43.0206256 ], [ -8.3365136, 43.0211409 ], [ -8.336688, 43.022128 ], [ -8.3368275, 43.0229177 ], [ -8.33726, 43.0239417 ], [ -8.3383379, 43.0253317 ], [ -8.3388797, 43.0259185 ], [ -8.3390711, 43.0261436 ], [ -8.3390593, 43.0272785 ], [ -8.3388711, 43.0279355 ], [ -8.3384716, 43.0284223 ], [ -8.3381489, 43.0286625 ], [ -8.3361655, 43.0306908 ], [ -8.3357951, 43.0316534 ], [ -8.3341696, 43.0344121 ], [ -8.3376844, 43.0343287 ], [ -8.339351, 43.0341607 ], [ -8.3417398, 43.0345351 ], [ -8.3418082, 43.0347569 ], [ -8.3425754, 43.0360984 ], [ -8.3425874, 43.0372232 ], [ -8.3428945, 43.0376499 ], [ -8.3432606, 43.0377678 ], [ -8.3438283, 43.0378042 ], [ -8.344945, 43.0376619 ], [ -8.3444261, 43.0408641 ], [ -8.3469993, 43.0416617 ], [ -8.347538, 43.0416455 ], [ -8.3478692, 43.0446008 ], [ -8.3517238, 43.0453113 ], [ -8.3518117, 43.0453341 ], [ -8.3518189, 43.0451358 ], [ -8.3521005, 43.0445644 ], [ -8.3521912, 43.044056 ], [ -8.3520751, 43.0437104 ], [ -8.3515407, 43.0427902 ], [ -8.3531254, 43.0428058 ], [ -8.3540248, 43.04397 ], [ -8.3547228, 43.0438112 ], [ -8.3547389, 43.0438555 ], [ -8.3548032, 43.0438884 ], [ -8.3552719, 43.0440555 ], [ -8.3563487, 43.0445811 ] ] ] } },
{ "type": "Feature", "properties": { "CCAA": "12 - Galicia", "PROVINCIA": "15 - Coruña, A", "MUNICIPIO": "15060 - Oroso", "COD_MUNICIPIO": "15060", "DISTRITO": "01", "SECCION": "1506001001", "V1_H": 80.34, "V1_M": 85.99, "V2_H": 80.22806877, "V2_M": 85.94669411, "V3_H": 80.64200885, "V3_M": 86.09540763 }, "geometry": { "type": "Polygon", "coordinates": [ [ [ -8.4351388, 42.9778742 ], [ -8.438801, 42.9792807 ], [ -8.4411088, 42.9765936 ], [ -8.4424025, 42.975552 ], [ -8.4429922, 42.9751782 ], [ -8.4431448, 42.9743709 ], [ -8.4433084, 42.9730362 ], [ -8.4433172, 42.9720625 ], [ -8.4434074, 42.9711321 ], [ -8.4434812, 42.9701073 ], [ -8.4436301, 42.9693581 ], [ -8.4438211, 42.968239 ], [ -8.4439569, 42.9675087 ], [ -8.4440911, 42.9669683 ], [ -8.4442106, 42.9666082 ], [ -8.4443417, 42.9664095 ], [ -8.4446284, 42.9661356 ], [ -8.4449399, 42.9659947 ], [ -8.4458278, 42.9657657 ], [ -8.4454412, 42.9649503 ], [ -8.4428911, 42.9667464 ], [ -8.4336576, 42.9699053 ], [ -8.4328651, 42.9669002 ], [ -8.4321645, 42.9668795 ], [ -8.4313201, 42.9655063 ], [ -8.430563, 42.9666497 ], [ -8.4303743, 42.9675679 ], [ -8.4300714, 42.9683025 ], [ -8.4290231, 42.9703149 ], [ -8.4304557, 42.9711183 ], [ -8.4324157, 42.975241 ], [ -8.4348366, 42.9758032 ], [ -8.4335958, 42.9773538 ], [ -8.4345189, 42.9778148 ], [ -8.4351388, 42.9778742 ] ] ] } },
{ "type": "Feature", "properties": { "CCAA": "12 - Galicia", "PROVINCIA": "15 - Coruña, A", "MUNICIPIO": "15060 - Oroso", "COD_MUNICIPIO": "15060", "DISTRITO": "01", "SECCION": "1506001003", "V1_H": 80.91, "V1_M": 86.7, "V2_H": 80.91796575, "V2_M": 86.73459974, "V3_H": 81.00259482, "V3_M": 86.81948346 }, "geometry": { "type": "Polygon", "coordinates": [ [ [ -8.4336387, 42.9773002 ], [ -8.4348366, 42.9758032 ], [ -8.4324157, 42.975241 ], [ -8.4304557, 42.9711183 ], [ -8.4290231, 42.9703149 ], [ -8.4284856, 42.9704755 ], [ -8.4276653, 42.9704875 ], [ -8.4269486, 42.9704226 ], [ -8.4252243, 42.9697754 ], [ -8.4236399, 42.9694636 ], [ -8.422421, 42.9691255 ], [ -8.4211139, 42.9688995 ], [ -8.4206311, 42.9689854 ], [ -8.4197841, 42.9692507 ], [ -8.4194147, 42.9692322 ], [ -8.4175326, 42.9683224 ], [ -8.4173691, 42.9679971 ], [ -8.4173021, 42.9675141 ], [ -8.4167876, 42.9666833 ], [ -8.4164284, 42.9665023 ], [ -8.4141169, 42.9661439 ], [ -8.4127086, 42.9657426 ], [ -8.411495, 42.965602 ], [ -8.4103995, 42.96569 ], [ -8.4091312, 42.9659032 ], [ -8.4081936, 42.9662537 ], [ -8.4072832, 42.966774 ], [ -8.4065027, 42.9670991 ], [ -8.4054878, 42.9674082 ], [ -8.4049735, 42.9676937 ], [ -8.404514, 42.9681835 ], [ -8.4038685, 42.9693484 ], [ -8.401888, 42.9717829 ], [ -8.4015051, 42.9724491 ], [ -8.4013184, 42.9731152 ], [ -8.4013148, 42.973771 ], [ -8.4013148, 42.9737725 ], [ -8.4013327, 42.9744055 ], [ -8.4012411, 42.9746984 ], [ -8.4010028, 42.9749514 ], [ -8.4005631, 42.9752241 ], [ -8.3999602, 42.9755786 ], [ -8.399671, 42.9757972 ], [ -8.3993932, 42.9761075 ], [ -8.3990257, 42.9766557 ], [ -8.3988315, 42.9773699 ], [ -8.3987724, 42.9783049 ], [ -8.3988796, 42.9788464 ], [ -8.399111, 42.9794528 ], [ -8.3993306, 42.9799858 ], [ -8.3992895, 42.9803615 ], [ -8.3991616, 42.9806634 ], [ -8.3978394, 42.9817935 ], [ -8.3973984, 42.9821855 ], [ -8.3971099, 42.9823123 ], [ -8.396698, 42.9822918 ], [ -8.3958893, 42.9819758 ], [ -8.3952804, 42.9816608 ], [ -8.3947214, 42.9813645 ], [ -8.3942379, 42.9809951 ], [ -8.3938977, 42.9813051 ], [ -8.393398, 42.9813208 ], [ -8.3931849, 42.9814022 ], [ -8.3930959, 42.9815667 ], [ -8.3930324, 42.9816673 ], [ -8.3928328, 42.9816479 ], [ -8.392456, 42.981866 ], [ -8.3921918, 42.9820663 ], [ -8.3920898, 42.9822766 ], [ -8.3914917, 42.9834013 ], [ -8.3914727, 42.9840706 ], [ -8.3911821, 42.9844083 ], [ -8.39093, 42.9846453 ], [ -8.3907905, 42.9848647 ], [ -8.3908495, 42.9852042 ], [ -8.391021, 42.9855444 ], [ -8.3911641, 42.9862329 ], [ -8.3912617, 42.9864718 ], [ -8.3912777, 42.9873797 ], [ -8.3915861, 42.9877756 ], [ -8.3916212, 42.9880142 ], [ -8.3915938, 42.9882616 ], [ -8.3911378, 42.9889102 ], [ -8.390988, 42.9901656 ], [ -8.3906961, 42.9906317 ], [ -8.3905556, 42.9909519 ], [ -8.3904982, 42.9929689 ], [ -8.3904966, 42.9931339 ], [ -8.3903318, 42.9933806 ], [ -8.3899321, 42.9946438 ], [ -8.3895637, 42.9952746 ], [ -8.3892863, 42.9955298 ], [ -8.3878569, 42.9960723 ], [ -8.3878082, 42.9971999 ], [ -8.3883255, 42.9979454 ], [ -8.3883715, 42.9983491 ], [ -8.3886263, 42.9991115 ], [ -8.3886474, 42.9994968 ], [ -8.3888196, 42.9999915 ], [ -8.388725, 43.0001768 ], [ -8.3880859, 43.0014289 ], [ -8.3931658, 43.0028938 ], [ -8.3955054, 43.0006226 ], [ -8.3969514, 43.0011664 ], [ -8.4015219, 43.0026516 ], [ -8.4029554, 43.0027727 ], [ -8.4058837, 43.002598 ], [ -8.4064511, 43.0031923 ], [ -8.407625, 43.0041269 ], [ -8.4079942, 43.0042805 ], [ -8.4082685, 43.0043305 ], [ -8.4083355, 43.0043791 ], [ -8.4088041, 43.0041345 ], [ -8.4090944, 43.0039482 ], [ -8.4093336, 43.0032772 ], [ -8.4105589, 43.0017569 ], [ -8.4119357, 43.0006133 ], [ -8.4123606, 43.0000116 ], [ -8.4124089, 42.9998182 ], [ -8.4126615, 42.9993752 ], [ -8.4124918, 42.9992717 ], [ -8.4123858, 42.9989864 ], [ -8.4123886, 42.9986902 ], [ -8.4125756, 42.9986114 ], [ -8.4135261, 42.9982175 ], [ -8.4134499, 42.9980804 ], [ -8.4138423, 42.9976153 ], [ -8.4138449, 42.9973419 ], [ -8.4139392, 42.9972171 ], [ -8.4142492, 42.9972642 ], [ -8.4144054, 42.9971625 ], [ -8.4152903, 42.9971328 ], [ -8.4155243, 42.9970087 ], [ -8.4156521, 42.996622 ], [ -8.4158698, 42.9965889 ], [ -8.4161666, 42.9963853 ], [ -8.4164776, 42.9963186 ], [ -8.4172561, 42.9960605 ], [ -8.4182843, 42.9956556 ], [ -8.4186443, 42.995327 ], [ -8.4185814, 42.9947644 ], [ -8.4184094, 42.9944749 ], [ -8.4183817, 42.9927753 ], [ -8.4232747, 42.9897207 ], [ -8.4244076, 42.988134 ], [ -8.4255879, 42.9862519 ], [ -8.4280077, 42.9833254 ], [ -8.4282478, 42.9832431 ], [ -8.4283513, 42.9832077 ], [ -8.4283564, 42.9831196 ], [ -8.4335787, 42.977307 ], [ -8.4336387, 42.9773002 ] ] ] } },
{ "type": "Feature", "properties": { "CCAA": "12 - Galicia", "PROVINCIA": "15 - Coruña, A", "MUNICIPIO": "15060 - Oroso", "COD_MUNICIPIO": "15060", "DISTRITO": "01", "SECCION": "1506001002", "V1_H": 80.56, "V1_M": 86.09, "V2_H": 80.29410508, "V2_M": 85.89209003000001, "V3_H": 80.91212464, "V3_M": 86.35342073 }, "geometry": { "type": "Polygon", "coordinates": [ [ [ -8.4119357, 43.0006133 ], [ -8.4105589, 43.0017569 ], [ -8.4093336, 43.0032772 ], [ -8.4090944, 43.0039482 ], [ -8.4088041, 43.0041345 ], [ -8.4083355, 43.0043791 ], [ -8.4083733, 43.0044065 ], [ -8.4076968, 43.0046637 ], [ -8.4073686, 43.0049763 ], [ -8.4071673, 43.0058951 ], [ -8.4070144, 43.0063885 ], [ -8.406583, 43.006643 ], [ -8.4064195, 43.0068757 ], [ -8.4064695, 43.0070265 ], [ -8.4065886, 43.0075429 ], [ -8.4064795, 43.0078362 ], [ -8.4061445, 43.0082122 ], [ -8.4060354, 43.0085054 ], [ -8.4061276, 43.0087171 ], [ -8.4049905, 43.0097342 ], [ -8.402158, 43.0112818 ], [ -8.4002612, 43.0113355 ], [ -8.4001154, 43.0113515 ], [ -8.3994506, 43.0114639 ], [ -8.3990813, 43.0115895 ], [ -8.3988315, 43.0118174 ], [ -8.3988272, 43.0119075 ], [ -8.398813, 43.0120253 ], [ -8.3989087, 43.0121378 ], [ -8.3994534, 43.0124721 ], [ -8.399931, 43.0131607 ], [ -8.4001276, 43.0141416 ], [ -8.3989464, 43.0170333 ], [ -8.3988159, 43.0209916 ], [ -8.3979691, 43.0258749 ], [ -8.4007413, 43.0260048 ], [ -8.4003775, 43.0245186 ], [ -8.4014149, 43.0240374 ], [ -8.4019896, 43.0255496 ], [ -8.4070922, 43.0262261 ], [ -8.4091843, 43.0254607 ], [ -8.4098878, 43.0249503 ], [ -8.4111488, 43.0251966 ], [ -8.4119294, 43.0241693 ], [ -8.4140348, 43.0248076 ], [ -8.4140148, 43.0237462 ], [ -8.4151452, 43.0234855 ], [ -8.41676, 43.0232918 ], [ -8.418405, 43.024276 ], [ -8.4189457, 43.0240073 ], [ -8.4217812, 43.0248538 ], [ -8.4232826, 43.023099 ], [ -8.424815, 43.0229451 ], [ -8.4248969, 43.0237334 ], [ -8.4251244, 43.0239476 ], [ -8.4253117, 43.0239838 ], [ -8.42601, 43.0238335 ], [ -8.4267948, 43.0239673 ], [ -8.4261993, 43.0250039 ], [ -8.4282562, 43.0262023 ], [ -8.4280406, 43.0270949 ], [ -8.4286107, 43.0274368 ], [ -8.4305455, 43.0286411 ], [ -8.4288474, 43.0295591 ], [ -8.4326094, 43.0307484 ], [ -8.4327555, 43.0312906 ], [ -8.4345288, 43.0316382 ], [ -8.4364687, 43.0310957 ], [ -8.4362613, 43.0316637 ], [ -8.4371235, 43.0325319 ], [ -8.4377248, 43.0321161 ], [ -8.4383599, 43.0333281 ], [ -8.4396045, 43.0329717 ], [ -8.4400286, 43.0338788 ], [ -8.4389409, 43.0339306 ], [ -8.439678, 43.0361551 ], [ -8.4400223, 43.0345002 ], [ -8.4415601, 43.0345439 ], [ -8.4411714, 43.0356968 ], [ -8.4418991, 43.035599 ], [ -8.4420334, 43.0360067 ], [ -8.4431787, 43.0367443 ], [ -8.4435057, 43.0369718 ], [ -8.4442345, 43.0367479 ], [ -8.4453309, 43.0367946 ], [ -8.4462246, 43.03677 ], [ -8.4466549, 43.0366414 ], [ -8.4473325, 43.0359789 ], [ -8.4477097, 43.0359429 ], [ -8.4481544, 43.0359756 ], [ -8.4484942, 43.0359324 ], [ -8.4492301, 43.0353751 ], [ -8.4498117, 43.0354284 ], [ -8.4502768, 43.0354151 ], [ -8.4519306, 43.0341388 ], [ -8.4523894, 43.0340539 ], [ -8.4529693, 43.0340892 ], [ -8.4532974, 43.0341905 ], [ -8.4538932, 43.0344051 ], [ -8.454391, 43.0347594 ], [ -8.4547602, 43.0350478 ], [ -8.456482, 43.0339842 ], [ -8.4589968, 43.0330087 ], [ -8.4593716, 43.0325316 ], [ -8.4593427, 43.032344 ], [ -8.4591732, 43.0319559 ], [ -8.4589468, 43.0314807 ], [ -8.4586427, 43.03082 ], [ -8.4576126, 43.0286187 ], [ -8.4574564, 43.0281041 ], [ -8.4567095, 43.0268795 ], [ -8.4559589, 43.0258891 ], [ -8.4557812, 43.0255465 ], [ -8.4557865, 43.0249161 ], [ -8.4565744, 43.0235641 ], [ -8.4566966, 43.02273 ], [ -8.4564239, 43.0218698 ], [ -8.4559607, 43.0209377 ], [ -8.4560773, 43.0200409 ], [ -8.4561964, 43.0195851 ], [ -8.4560447, 43.018431 ], [ -8.4562115, 43.018099 ], [ -8.4563571, 43.017804 ], [ -8.4564843, 43.0177169 ], [ -8.4570518, 43.0173386 ], [ -8.4581606, 43.0167004 ], [ -8.4585547, 43.0163034 ], [ -8.4590312, 43.0154524 ], [ -8.4590118, 43.0153723 ], [ -8.4591443, 43.0146548 ], [ -8.4592298, 43.0142366 ], [ -8.4599659, 43.0129951 ], [ -8.4600509, 43.0124329 ], [ -8.459953, 43.0121585 ], [ -8.459553, 43.0117995 ], [ -8.4592975, 43.0112716 ], [ -8.4589022, 43.009445 ], [ -8.4588579, 43.0092221 ], [ -8.4590631, 43.0083571 ], [ -8.4591723, 43.0079287 ], [ -8.4591168, 43.0075803 ], [ -8.4590106, 43.0073513 ], [ -8.4583967, 43.0069306 ], [ -8.4564833, 43.0061039 ], [ -8.4555383, 43.0055459 ], [ -8.4554358, 43.0054967 ], [ -8.4550286, 43.0051922 ], [ -8.454783, 43.0046367 ], [ -8.4549774, 43.0043394 ], [ -8.4552377, 43.0041517 ], [ -8.4503853, 43.0043675 ], [ -8.4483716, 43.0041359 ], [ -8.4448925, 43.004341 ], [ -8.4417121, 43.0049543 ], [ -8.4376196, 43.0063442 ], [ -8.4357564, 43.0064139 ], [ -8.4331135, 43.0067684 ], [ -8.4306029, 43.006564 ], [ -8.4263723, 43.0056982 ], [ -8.4229459, 43.0051179 ], [ -8.4166938, 43.0019817 ], [ -8.4143811, 43.0014151 ], [ -8.4119357, 43.0006133 ] ] ] } },
{ "type": "Feature", "properties": { "CCAA": "12 - Galicia", "PROVINCIA": "15 - Coruña, A", "MUNICIPIO": "15060 - Oroso", "COD_MUNICIPIO": "15060", "DISTRITO": "01", "SECCION": "1506001004", "V1_H": 80.55, "V1_M": 86.21, "V2_H": 80.25181467, "V2_M": 85.94546636, "V3_H": 81.01047082, "V3_M": 86.65561049 }, "geometry": { "type": "Polygon", "coordinates": [ [ [ -8.4119357, 43.0006133 ], [ -8.4143811, 43.0014151 ], [ -8.4166938, 43.0019817 ], [ -8.4229459, 43.0051179 ], [ -8.4263723, 43.0056982 ], [ -8.4306029, 43.006564 ], [ -8.4331135, 43.0067684 ], [ -8.4357564, 43.0064139 ], [ -8.4376196, 43.0063442 ], [ -8.4417121, 43.0049543 ], [ -8.4448925, 43.004341 ], [ -8.4483716, 43.0041359 ], [ -8.4503853, 43.0043675 ], [ -8.4552377, 43.0041517 ], [ -8.455646, 43.0038573 ], [ -8.4569011, 43.0036262 ], [ -8.4578565, 43.0034725 ], [ -8.4580625, 43.0034446 ], [ -8.458298, 43.0033343 ], [ -8.4585983, 43.0029869 ], [ -8.4586838, 43.0025687 ], [ -8.4586276, 43.0022113 ], [ -8.4580761, 43.0015265 ], [ -8.457427, 43.0004322 ], [ -8.4573798, 43.0000384 ], [ -8.4564387, 42.9988321 ], [ -8.4552939, 42.9976805 ], [ -8.4550221, 42.9972434 ], [ -8.4540001, 42.9947085 ], [ -8.4539077, 42.9944969 ], [ -8.4538998, 42.9939932 ], [ -8.454066, 42.9935171 ], [ -8.4544446, 42.9930849 ], [ -8.455176, 42.9924827 ], [ -8.4555172, 42.9920433 ], [ -8.4565886, 42.9900206 ], [ -8.4568738, 42.9886746 ], [ -8.4568393, 42.98801 ], [ -8.4565763, 42.9872574 ], [ -8.4562318, 42.9865537 ], [ -8.4561888, 42.9864837 ], [ -8.4561425, 42.9860988 ], [ -8.4563033, 42.9858391 ], [ -8.4566487, 42.9857235 ], [ -8.4569481, 42.9857812 ], [ -8.457747, 42.9859411 ], [ -8.4583851, 42.9859466 ], [ -8.4589192, 42.985885 ], [ -8.4593277, 42.9855144 ], [ -8.459662, 42.9848592 ], [ -8.4598422, 42.9842654 ], [ -8.4608142, 42.9833367 ], [ -8.4621586, 42.9817689 ], [ -8.4622027, 42.9817128 ], [ -8.463633, 42.9806991 ], [ -8.4642896, 42.9803615 ], [ -8.4671964, 42.9788539 ], [ -8.468782, 42.9773826 ], [ -8.4690877, 42.9770978 ], [ -8.4681336, 42.9768465 ], [ -8.4673419, 42.9767674 ], [ -8.4665131, 42.976546 ], [ -8.4658392, 42.9761372 ], [ -8.4644941, 42.9752114 ], [ -8.4639955, 42.9747041 ], [ -8.4635109, 42.9740791 ], [ -8.4629876, 42.9737081 ], [ -8.4621296, 42.9733514 ], [ -8.4610654, 42.9729089 ], [ -8.4602032, 42.9727251 ], [ -8.4574347, 42.9723354 ], [ -8.4565039, 42.9719298 ], [ -8.4559776, 42.9718019 ], [ -8.4537458, 42.9716566 ], [ -8.4536458, 42.9716343 ], [ -8.4526347, 42.9714306 ], [ -8.4518607, 42.9711345 ], [ -8.4516864, 42.9710157 ], [ -8.4500689, 42.9720262 ], [ -8.4467043, 42.9732675 ], [ -8.4450207, 42.9740191 ], [ -8.4435507, 42.9748241 ], [ -8.4429922, 42.9751782 ], [ -8.4424025, 42.975552 ], [ -8.4411088, 42.9765936 ], [ -8.438801, 42.9792807 ], [ -8.4351388, 42.9778742 ], [ -8.4345189, 42.9778148 ], [ -8.4335958, 42.9773538 ], [ -8.4336036, 42.9773442 ], [ -8.4336387, 42.9773002 ], [ -8.4335787, 42.977307 ], [ -8.4283564, 42.9831196 ], [ -8.4283513, 42.9832077 ], [ -8.4280077, 42.9833254 ], [ -8.4255879, 42.9862519 ], [ -8.4244076, 42.988134 ], [ -8.4232747, 42.9897207 ], [ -8.4183817, 42.9927753 ], [ -8.4184094, 42.9944749 ], [ -8.4185814, 42.9947644 ], [ -8.4186443, 42.995327 ], [ -8.4182843, 42.9956556 ], [ -8.4172561, 42.9960605 ], [ -8.4164776, 42.9963186 ], [ -8.4161666, 42.9963853 ], [ -8.4158698, 42.9965889 ], [ -8.4156521, 42.996622 ], [ -8.4155243, 42.9970087 ], [ -8.4152903, 42.9971328 ], [ -8.4144054, 42.9971625 ], [ -8.4142492, 42.9972642 ], [ -8.4139392, 42.9972171 ], [ -8.4138449, 42.9973419 ], [ -8.4138423, 42.9976153 ], [ -8.4134499, 42.9980804 ], [ -8.4135261, 42.9982175 ], [ -8.4125756, 42.9986114 ], [ -8.4123886, 42.9986902 ], [ -8.4123858, 42.9989864 ], [ -8.4124918, 42.9992717 ], [ -8.4126615, 42.9993752 ], [ -8.4124089, 42.9998182 ], [ -8.4123606, 43.0000116 ], [ -8.4119357, 43.0006133 ] ] ] } }
]
}
