{
"type": "FeatureCollection",
"name": "15069",
"features": [
{ "type": "Feature", "properties": { "CCAA": "12 - Galicia", "PROVINCIA": "15 - Coruña, A", "MUNICIPIO": "15069 - Pontedeume", "COD_MUNICIPIO": "15069", "DISTRITO": "02", "SECCION": "1506902001", "V1_H": 80.21, "V1_M": 86.17, "V2_H": 80.05188782, "V2_M": 86.17746221, "V3_H": 80.45086201, "V3_M": 86.3559927 }, "geometry": { "type": "Polygon", "coordinates": [ [ [ -8.1733228, 43.4035712 ], [ -8.173522, 43.4036043 ], [ -8.1742167, 43.4035967 ], [ -8.1745472, 43.4035547 ], [ -8.1748257, 43.4035061 ], [ -8.1754101, 43.4033078 ], [ -8.1756017, 43.4032585 ], [ -8.1756974, 43.4032465 ], [ -8.1758103, 43.4032473 ], [ -8.1759139, 43.4032861 ], [ -8.1760433, 43.4033503 ], [ -8.1761376, 43.4034396 ], [ -8.1762744, 43.4035925 ], [ -8.1763925, 43.4038529 ], [ -8.1764776, 43.4039738 ], [ -8.1765891, 43.4040759 ], [ -8.1767011, 43.40414 ], [ -8.1767873, 43.4041849 ], [ -8.1768732, 43.4042552 ], [ -8.1772065, 43.4046501 ], [ -8.1773864, 43.4048286 ], [ -8.1776442, 43.4050204 ], [ -8.1777902, 43.4051417 ], [ -8.1781957, 43.4053345 ], [ -8.178515, 43.4054761 ], [ -8.1788435, 43.4055797 ], [ -8.1791298, 43.4056008 ], [ -8.1793122, 43.4055958 ], [ -8.1796086, 43.4055093 ], [ -8.1803688, 43.4051475 ], [ -8.1804907, 43.4051231 ], [ -8.1806205, 43.4051557 ], [ -8.1809483, 43.40531 ], [ -8.181345, 43.4055154 ], [ -8.1819982, 43.4060075 ], [ -8.1824265, 43.406441 ], [ -8.1830639, 43.406849 ], [ -8.1835664, 43.4071205 ], [ -8.1843113, 43.4063839 ], [ -8.1863341, 43.404425 ], [ -8.1871625, 43.4021987 ], [ -8.1871874, 43.4019919 ], [ -8.1881732, 43.4003453 ], [ -8.1880919, 43.4003315 ], [ -8.1880227, 43.4003886 ], [ -8.1880921, 43.398603 ], [ -8.1894178, 43.3943294 ], [ -8.188653, 43.3943372 ], [ -8.1880835, 43.3941741 ], [ -8.187441, 43.3940232 ], [ -8.1864511, 43.3939963 ], [ -8.1850923, 43.3941301 ], [ -8.1844006, 43.3941255 ], [ -8.1834176, 43.3941792 ], [ -8.1828941, 43.394266 ], [ -8.1823238, 43.3942379 ], [ -8.1815376, 43.3941386 ], [ -8.1808896, 43.3943571 ], [ -8.1803369, 43.3948234 ], [ -8.1801347, 43.3950576 ], [ -8.1780686, 43.3929818 ], [ -8.1765051, 43.3914413 ], [ -8.1764421, 43.3912822 ], [ -8.1764153, 43.3909683 ], [ -8.1766056, 43.3898703 ], [ -8.1768164, 43.3893026 ], [ -8.1772415, 43.3887881 ], [ -8.1779925, 43.3881869 ], [ -8.178327, 43.3877666 ], [ -8.1783963, 43.3872773 ], [ -8.1783505, 43.3863071 ], [ -8.1786682, 43.3852574 ], [ -8.179288, 43.3841309 ], [ -8.1801444, 43.3828857 ], [ -8.1806356, 43.3819901 ], [ -8.180768, 43.3815159 ], [ -8.1809463, 43.3811477 ], [ -8.1815929, 43.3803351 ], [ -8.1819571, 43.3799765 ], [ -8.1831063, 43.3784029 ], [ -8.1834268, 43.3782532 ], [ -8.1840438, 43.3782522 ], [ -8.1844533, 43.3781346 ], [ -8.1847546, 43.3779048 ], [ -8.1846448, 43.3776307 ], [ -8.1846126, 43.3773981 ], [ -8.1847839, 43.3772372 ], [ -8.1845512, 43.3766807 ], [ -8.1847234, 43.3763848 ], [ -8.1852045, 43.3760928 ], [ -8.1855104, 43.3757728 ], [ -8.1855119, 43.375765 ], [ -8.1855796, 43.3754276 ], [ -8.18529, 43.3750717 ], [ -8.1845579, 43.3747358 ], [ -8.1838872, 43.3745413 ], [ -8.1831788, 43.3744834 ], [ -8.1826433, 43.3742827 ], [ -8.180858, 43.3731755 ], [ -8.1800552, 43.3730229 ], [ -8.1777156, 43.3733722 ], [ -8.1772553, 43.3734741 ], [ -8.1767474, 43.3735962 ], [ -8.1738038, 43.3739549 ], [ -8.1730808, 43.3740147 ], [ -8.1724931, 43.3739243 ], [ -8.1674145, 43.3737044 ], [ -8.1671224, 43.3740418 ], [ -8.1669479, 43.3741667 ], [ -8.1660404, 43.3743789 ], [ -8.1657116, 43.3742857 ], [ -8.1640454, 43.3750094 ], [ -8.1590437, 43.3758389 ], [ -8.1557946, 43.376382 ], [ -8.1546685, 43.3770721 ], [ -8.1523147, 43.3803114 ], [ -8.1514525, 43.3814936 ], [ -8.1500893, 43.3814291 ], [ -8.1491973, 43.3812444 ], [ -8.1486901, 43.3812313 ], [ -8.1480799, 43.3813129 ], [ -8.147222, 43.3816757 ], [ -8.1466201, 43.3819999 ], [ -8.1456992, 43.3823475 ], [ -8.1447346, 43.3824721 ], [ -8.1439339, 43.3824902 ], [ -8.1433505, 43.3825975 ], [ -8.1428293, 43.3828551 ], [ -8.1422987, 43.3832932 ], [ -8.1417665, 43.3837273 ], [ -8.1440425, 43.3847397 ], [ -8.1442953, 43.3846748 ], [ -8.144408, 43.3848093 ], [ -8.1449104, 43.3849132 ], [ -8.1449997, 43.385081 ], [ -8.1452273, 43.3851829 ], [ -8.1454556, 43.3852347 ], [ -8.14575, 43.3854708 ], [ -8.1461137, 43.385674 ], [ -8.1461116, 43.3858243 ], [ -8.1464747, 43.3860609 ], [ -8.1469975, 43.3863488 ], [ -8.1470637, 43.3865331 ], [ -8.1471749, 43.3867678 ], [ -8.1474705, 43.3869203 ], [ -8.1480885, 43.3869583 ], [ -8.1482701, 43.3870766 ], [ -8.148634, 43.3872631 ], [ -8.1490686, 43.3872997 ], [ -8.1493194, 43.3873851 ], [ -8.1496632, 43.387371 ], [ -8.1500073, 43.3873401 ], [ -8.1505073, 43.3876111 ], [ -8.1509575, 43.3881825 ], [ -8.151295, 43.3886193 ], [ -8.1517928, 43.3890574 ], [ -8.1520156, 43.3895101 ], [ -8.1525824, 43.3899319 ], [ -8.1528061, 43.3903178 ], [ -8.1530772, 43.3905871 ], [ -8.1533946, 43.3908233 ], [ -8.1539187, 43.3910277 ], [ -8.1543289, 43.3911811 ], [ -8.1545311, 43.3914666 ], [ -8.1551169, 43.3921726 ], [ -8.1553892, 43.3923583 ], [ -8.1555944, 43.3924267 ], [ -8.155637, 43.3926608 ], [ -8.1556552, 43.3929951 ], [ -8.155537, 43.3932615 ], [ -8.1557531, 43.3941987 ], [ -8.1562211, 43.3951376 ], [ -8.1568083, 43.3957434 ], [ -8.1572799, 43.3964318 ], [ -8.1575779, 43.3964173 ], [ -8.1577582, 43.3966358 ], [ -8.1579831, 43.3969381 ], [ -8.1583251, 43.3970576 ], [ -8.1586016, 43.3969427 ], [ -8.1590137, 43.3969624 ], [ -8.1599071, 43.396969 ], [ -8.1606605, 43.3971583 ], [ -8.1604969, 43.3973909 ], [ -8.1604886, 43.3979923 ], [ -8.1603916, 43.3983758 ], [ -8.1605905, 43.3989119 ], [ -8.1607885, 43.399498 ], [ -8.1608992, 43.3997828 ], [ -8.161171, 43.400002 ], [ -8.1612824, 43.4002367 ], [ -8.1614388, 43.4005218 ], [ -8.161552, 43.4006229 ], [ -8.1621217, 43.4008442 ], [ -8.1623023, 43.4010461 ], [ -8.162342, 43.4014807 ], [ -8.1625925, 43.4015995 ], [ -8.1625313, 43.4017626 ], [ -8.1627157, 43.4019456 ], [ -8.1630098, 43.4020727 ], [ -8.1632848, 43.4024608 ], [ -8.1635056, 43.402258 ], [ -8.1638036, 43.4021012 ], [ -8.1641653, 43.4018427 ], [ -8.1643555, 43.4016057 ], [ -8.1645297, 43.4013912 ], [ -8.1645945, 43.40121 ], [ -8.1651102, 43.4010775 ], [ -8.1652823, 43.401022 ], [ -8.1652942, 43.4011325 ], [ -8.1653947, 43.4012165 ], [ -8.1656347, 43.4013109 ], [ -8.165849, 43.4014236 ], [ -8.1660886, 43.401555 ], [ -8.1663019, 43.4017418 ], [ -8.1665281, 43.4019193 ], [ -8.1667169, 43.4020411 ], [ -8.1669314, 43.4021445 ], [ -8.1671844, 43.4022205 ], [ -8.1673741, 43.4022774 ], [ -8.1676902, 43.4023816 ], [ -8.1678671, 43.4024477 ], [ -8.1679933, 43.4025042 ], [ -8.1681181, 43.4026718 ], [ -8.1682055, 43.4027743 ], [ -8.1683699, 43.402831 ], [ -8.1685853, 43.4028697 ], [ -8.1687657, 43.4028609 ], [ -8.1688709, 43.4027857 ], [ -8.169029, 43.4026475 ], [ -8.1690737, 43.4025592 ], [ -8.16906, 43.4025283 ], [ -8.16904, 43.402483 ], [ -8.1690068, 43.4023688 ], [ -8.1689834, 43.4021787 ], [ -8.1689601, 43.4019697 ], [ -8.1689366, 43.4017922 ], [ -8.168931, 43.4015643 ], [ -8.1689849, 43.4014318 ], [ -8.1691344, 43.4012936 ], [ -8.1692661, 43.4011806 ], [ -8.1693606, 43.4012572 ], [ -8.1693935, 43.4013904 ], [ -8.1698074, 43.401596 ], [ -8.1705925, 43.4019625 ], [ -8.1713423, 43.4023668 ], [ -8.1719528, 43.4028017 ], [ -8.1723744, 43.4030832 ], [ -8.1728654, 43.4033717 ], [ -8.1731239, 43.4035128 ], [ -8.1733228, 43.4035712 ] ] ] } },
{ "type": "Feature", "properties": { "CCAA": "12 - Galicia", "PROVINCIA": "15 - Coruña, A", "MUNICIPIO": "15069 - Pontedeume", "COD_MUNICIPIO": "15069", "DISTRITO": "01", "SECCION": "1506901001", "V1_H": 80.55, "V1_M": 86.21, "V2_H": 80.25181467, "V2_M": 85.94546636, "V3_H": 81.01047082, "V3_M": 86.65561049 }, "geometry": { "type": "Polygon", "coordinates": [ [ [ -8.1625801, 43.4088671 ], [ -8.1633526, 43.4086294 ], [ -8.1648019, 43.4083928 ], [ -8.1656783, 43.4083891 ], [ -8.1666123, 43.4084818 ], [ -8.1672357, 43.4086966 ], [ -8.167859, 43.4089114 ], [ -8.1693551, 43.4096131 ], [ -8.1693551, 43.4096131 ], [ -8.1693551, 43.4096131 ], [ -8.1699131, 43.407896 ], [ -8.1699857, 43.4076467 ], [ -8.1701378, 43.4075047 ], [ -8.1702449, 43.4072697 ], [ -8.1703631, 43.4070742 ], [ -8.1707616, 43.4066421 ], [ -8.1709071, 43.4064102 ], [ -8.1709821, 43.4062732 ], [ -8.1710076, 43.4060995 ], [ -8.1710058, 43.4059451 ], [ -8.1709145, 43.4058686 ], [ -8.1707802, 43.4058424 ], [ -8.1706345, 43.4057965 ], [ -8.1705725, 43.405549 ], [ -8.1704475, 43.4053938 ], [ -8.170355, 43.4048459 ], [ -8.1702262, 43.4041293 ], [ -8.170087, 43.4038954 ], [ -8.1699766, 43.4037246 ], [ -8.1698872, 43.403661 ], [ -8.1698124, 43.4036776 ], [ -8.1697567, 43.4037259 ], [ -8.169562, 43.4038877 ], [ -8.1694748, 43.40395 ], [ -8.1693569, 43.4039578 ], [ -8.169212, 43.4039252 ], [ -8.1691146, 43.4038701 ], [ -8.1690723, 43.4038039 ], [ -8.1691124, 43.4037412 ], [ -8.1691604, 43.4036815 ], [ -8.1692201, 43.4036218 ], [ -8.1693562, 43.4034309 ], [ -8.1693778, 43.4032879 ], [ -8.1694193, 43.403125 ], [ -8.1694618, 43.4028876 ], [ -8.1694642, 43.402713 ], [ -8.1694139, 43.4026553 ], [ -8.1693596, 43.4026091 ], [ -8.1692345, 43.4025681 ], [ -8.16906, 43.4025283 ], [ -8.1690737, 43.4025592 ], [ -8.169029, 43.4026475 ], [ -8.1688709, 43.4027857 ], [ -8.1687657, 43.4028609 ], [ -8.1685853, 43.4028697 ], [ -8.1683699, 43.402831 ], [ -8.1682055, 43.4027743 ], [ -8.1681181, 43.4026718 ], [ -8.1679933, 43.4025042 ], [ -8.1678671, 43.4024477 ], [ -8.1676902, 43.4023816 ], [ -8.1673741, 43.4022774 ], [ -8.1671844, 43.4022205 ], [ -8.1669314, 43.4021445 ], [ -8.1667169, 43.4020411 ], [ -8.1665281, 43.4019193 ], [ -8.1663019, 43.4017418 ], [ -8.1660886, 43.401555 ], [ -8.165849, 43.4014236 ], [ -8.1656347, 43.4013109 ], [ -8.1653947, 43.4012165 ], [ -8.1652942, 43.4011325 ], [ -8.1652823, 43.401022 ], [ -8.1651102, 43.4010775 ], [ -8.1645945, 43.40121 ], [ -8.1645297, 43.4013912 ], [ -8.1643555, 43.4016057 ], [ -8.1641653, 43.4018427 ], [ -8.1638036, 43.4021012 ], [ -8.1635056, 43.402258 ], [ -8.1632848, 43.4024608 ], [ -8.1630098, 43.4020727 ], [ -8.1627157, 43.4019456 ], [ -8.1625313, 43.4017626 ], [ -8.1624196, 43.4019548 ], [ -8.1622594, 43.402283 ], [ -8.1621291, 43.4027021 ], [ -8.1621871, 43.4030091 ], [ -8.1624487, 43.4032382 ], [ -8.1621436, 43.4039058 ], [ -8.1623917, 43.4039871 ], [ -8.1621119, 43.4048509 ], [ -8.1611505, 43.4045554 ], [ -8.1611061, 43.4046595 ], [ -8.1608901, 43.4047415 ], [ -8.1608606, 43.4048039 ], [ -8.1609448, 43.4049298 ], [ -8.1609431, 43.4050552 ], [ -8.1611569, 43.4051298 ], [ -8.1613564, 43.4052044 ], [ -8.161282, 43.4054023 ], [ -8.1611659, 43.4055163 ], [ -8.1610384, 43.4054109 ], [ -8.1609246, 43.4053579 ], [ -8.1607655, 43.4054716 ], [ -8.1607063, 43.4056069 ], [ -8.160817, 43.4058897 ], [ -8.1611155, 43.406059 ], [ -8.1615488, 43.4061275 ], [ -8.1625801, 43.4088671 ] ] ] } },
{ "type": "Feature", "properties": { "CCAA": "12 - Galicia", "PROVINCIA": "15 - Coruña, A", "MUNICIPIO": "15069 - Pontedeume", "COD_MUNICIPIO": "15069", "DISTRITO": "01", "SECCION": "1506901002", "V1_H": 80.27, "V1_M": 86.36, "V2_H": 80.04050342, "V2_M": 86.25745667, "V3_H": 80.55487256000001, "V3_M": 86.64917866 }, "geometry": { "type": "Polygon", "coordinates": [ [ [ -8.1693551, 43.4096131 ], [ -8.169557, 43.4097077 ], [ -8.1700542, 43.4098924 ], [ -8.1717842, 43.4082874 ], [ -8.1720367, 43.4081441 ], [ -8.1721588, 43.4079395 ], [ -8.1720983, 43.4078706 ], [ -8.1721143, 43.4077574 ], [ -8.1721483, 43.4076523 ], [ -8.1722117, 43.4075052 ], [ -8.1723776, 43.4075275 ], [ -8.1724523, 43.4073462 ], [ -8.1726268, 43.4070077 ], [ -8.1725813, 43.406902 ], [ -8.1726, 43.406852 ], [ -8.1726125, 43.4067283 ], [ -8.1726403, 43.4065414 ], [ -8.1726541, 43.4063281 ], [ -8.1725444, 43.4061587 ], [ -8.1723562, 43.4059176 ], [ -8.1722421, 43.4058009 ], [ -8.1720851, 43.4056601 ], [ -8.1721343, 43.405634 ], [ -8.1722277, 43.4056262 ], [ -8.1723501, 43.4056292 ], [ -8.1724642, 43.4056045 ], [ -8.172634, 43.4055526 ], [ -8.1727683, 43.405545 ], [ -8.1728297, 43.4055348 ], [ -8.1728511, 43.4054542 ], [ -8.1728812, 43.4053885 ], [ -8.1729172, 43.4053165 ], [ -8.1729502, 43.4052465 ], [ -8.1732338, 43.4043557 ], [ -8.1733228, 43.4035712 ], [ -8.1731239, 43.4035128 ], [ -8.1728654, 43.4033717 ], [ -8.1723744, 43.4030832 ], [ -8.1719528, 43.4028017 ], [ -8.1713423, 43.4023668 ], [ -8.1705925, 43.4019625 ], [ -8.1698074, 43.401596 ], [ -8.1693935, 43.4013904 ], [ -8.1693606, 43.4012572 ], [ -8.1692661, 43.4011806 ], [ -8.1691344, 43.4012936 ], [ -8.1689849, 43.4014318 ], [ -8.168931, 43.4015643 ], [ -8.1689366, 43.4017922 ], [ -8.1689601, 43.4019697 ], [ -8.1689834, 43.4021787 ], [ -8.1690068, 43.4023688 ], [ -8.16904, 43.402483 ], [ -8.16906, 43.4025283 ], [ -8.1692345, 43.4025681 ], [ -8.1693596, 43.4026091 ], [ -8.1694139, 43.4026553 ], [ -8.1694642, 43.402713 ], [ -8.1694618, 43.4028876 ], [ -8.1694193, 43.403125 ], [ -8.1693778, 43.4032879 ], [ -8.1693562, 43.4034309 ], [ -8.1692201, 43.4036218 ], [ -8.1691604, 43.4036815 ], [ -8.1691124, 43.4037412 ], [ -8.1690723, 43.4038039 ], [ -8.1691146, 43.4038701 ], [ -8.169212, 43.4039252 ], [ -8.1693569, 43.4039578 ], [ -8.1694748, 43.40395 ], [ -8.169562, 43.4038877 ], [ -8.1697567, 43.4037259 ], [ -8.1698124, 43.4036776 ], [ -8.1698872, 43.403661 ], [ -8.1699766, 43.4037246 ], [ -8.170087, 43.4038954 ], [ -8.1702262, 43.4041293 ], [ -8.170355, 43.4048459 ], [ -8.1704475, 43.4053938 ], [ -8.1705725, 43.405549 ], [ -8.1706345, 43.4057965 ], [ -8.1707802, 43.4058424 ], [ -8.1709145, 43.4058686 ], [ -8.1710058, 43.4059451 ], [ -8.1710076, 43.4060995 ], [ -8.1709821, 43.4062732 ], [ -8.1709071, 43.4064102 ], [ -8.1707616, 43.4066421 ], [ -8.1703631, 43.4070742 ], [ -8.1702449, 43.4072697 ], [ -8.1701378, 43.4075047 ], [ -8.1699857, 43.4076467 ], [ -8.1699131, 43.407896 ], [ -8.1693551, 43.4096131 ], [ -8.1693551, 43.4096131 ] ] ] } },
{ "type": "Feature", "properties": { "CCAA": "12 - Galicia", "PROVINCIA": "15 - Coruña, A", "MUNICIPIO": "15069 - Pontedeume", "COD_MUNICIPIO": "15069", "DISTRITO": "01", "SECCION": "1506901003", "V1_H": 80.56, "V1_M": 86.09, "V2_H": 80.29410508, "V2_M": 85.89209003000001, "V3_H": 80.91212464, "V3_M": 86.35342073 }, "geometry": { "type": "Polygon", "coordinates": [ [ [ -8.1748843, 43.412662 ], [ -8.1757148, 43.4122642 ], [ -8.1761469, 43.4122626 ], [ -8.1772925, 43.4120845 ], [ -8.1774878, 43.4120577 ], [ -8.1778391, 43.4119787 ], [ -8.1783265, 43.4120466 ], [ -8.1785064, 43.4121285 ], [ -8.179036, 43.4124015 ], [ -8.1792589, 43.4125534 ], [ -8.1794941, 43.4128488 ], [ -8.1798854, 43.4129481 ], [ -8.1801498, 43.4128683 ], [ -8.1823642, 43.4083093 ], [ -8.1835664, 43.4071205 ], [ -8.1830639, 43.406849 ], [ -8.1824265, 43.406441 ], [ -8.1819982, 43.4060075 ], [ -8.181345, 43.4055154 ], [ -8.1809483, 43.40531 ], [ -8.1806205, 43.4051557 ], [ -8.1804907, 43.4051231 ], [ -8.1803688, 43.4051475 ], [ -8.1796086, 43.4055093 ], [ -8.1793122, 43.4055958 ], [ -8.1791298, 43.4056008 ], [ -8.1788435, 43.4055797 ], [ -8.178515, 43.4054761 ], [ -8.1781957, 43.4053345 ], [ -8.1777902, 43.4051417 ], [ -8.1776442, 43.4050204 ], [ -8.1773864, 43.4048286 ], [ -8.1772065, 43.4046501 ], [ -8.1768732, 43.4042552 ], [ -8.1767873, 43.4041849 ], [ -8.1767011, 43.40414 ], [ -8.1765891, 43.4040759 ], [ -8.1764776, 43.4039738 ], [ -8.1763925, 43.4038529 ], [ -8.1762744, 43.4035925 ], [ -8.1761376, 43.4034396 ], [ -8.1760433, 43.4033503 ], [ -8.1759139, 43.4032861 ], [ -8.1758103, 43.4032473 ], [ -8.1756974, 43.4032465 ], [ -8.1756017, 43.4032585 ], [ -8.1754101, 43.4033078 ], [ -8.1748257, 43.4035061 ], [ -8.1745472, 43.4035547 ], [ -8.1742167, 43.4035967 ], [ -8.173522, 43.4036043 ], [ -8.1733228, 43.4035712 ], [ -8.1732338, 43.4043557 ], [ -8.1729502, 43.4052465 ], [ -8.1729172, 43.4053165 ], [ -8.1728812, 43.4053885 ], [ -8.1728511, 43.4054542 ], [ -8.1728297, 43.4055348 ], [ -8.1727683, 43.405545 ], [ -8.172634, 43.4055526 ], [ -8.1724642, 43.4056045 ], [ -8.1723501, 43.4056292 ], [ -8.1722277, 43.4056262 ], [ -8.1721343, 43.405634 ], [ -8.1720851, 43.4056601 ], [ -8.1722421, 43.4058009 ], [ -8.1723562, 43.4059176 ], [ -8.1725444, 43.4061587 ], [ -8.1726541, 43.4063281 ], [ -8.1726403, 43.4065414 ], [ -8.1726125, 43.4067283 ], [ -8.1726, 43.406852 ], [ -8.1725813, 43.406902 ], [ -8.1726268, 43.4070077 ], [ -8.1724523, 43.4073462 ], [ -8.1723776, 43.4075275 ], [ -8.1722117, 43.4075052 ], [ -8.1721483, 43.4076523 ], [ -8.1721143, 43.4077574 ], [ -8.1720983, 43.4078706 ], [ -8.1721588, 43.4079395 ], [ -8.1720367, 43.4081441 ], [ -8.1717842, 43.4082874 ], [ -8.1700542, 43.4098924 ], [ -8.1706154, 43.4101009 ], [ -8.1712972, 43.410277 ], [ -8.1723096, 43.4105642 ], [ -8.1728292, 43.4108647 ], [ -8.1732389, 43.4110352 ], [ -8.1736369, 43.4116473 ], [ -8.1738693, 43.4118588 ], [ -8.1738693, 43.4118588 ], [ -8.1738913, 43.4118788 ], [ -8.1741349, 43.4121289 ], [ -8.1745, 43.4123553 ], [ -8.1748843, 43.412662 ] ] ] } },
{ "type": "Feature", "properties": { "CCAA": "12 - Galicia", "PROVINCIA": "15 - Coruña, A", "MUNICIPIO": "15069 - Pontedeume", "COD_MUNICIPIO": "15069", "DISTRITO": "02", "SECCION": "1506902002", "V1_H": 80.78, "V1_M": 86.63, "V2_H": 80.78050334, "V2_M": 86.59104663, "V3_H": 80.85502768000001, "V3_M": 86.88271981 }, "geometry": { "type": "Polygon", "coordinates": [ [ [ -8.1801498, 43.4128683 ], [ -8.1803067, 43.4128209 ], [ -8.1804275, 43.4127884 ], [ -8.1808296, 43.4127251 ], [ -8.1814846, 43.4127314 ], [ -8.1822333, 43.4131115 ], [ -8.182381, 43.4131048 ], [ -8.1825294, 43.412963 ], [ -8.1826739, 43.4129204 ], [ -8.1829645, 43.4128532 ], [ -8.1834658, 43.4127944 ], [ -8.1839886, 43.4129867 ], [ -8.1842884, 43.4130271 ], [ -8.184815, 43.4131201 ], [ -8.1849818, 43.4131936 ], [ -8.1850941, 43.4130624 ], [ -8.1853186, 43.4129442 ], [ -8.1863726, 43.4131393 ], [ -8.1869323, 43.4133299 ], [ -8.1871491, 43.4134101 ], [ -8.1878072, 43.4133082 ], [ -8.1880894, 43.4132863 ], [ -8.1889197, 43.4136086 ], [ -8.1894048, 43.4136495 ], [ -8.1899607, 43.4135072 ], [ -8.1901667, 43.4133178 ], [ -8.1904666, 43.4132141 ], [ -8.1906457, 43.4129989 ], [ -8.1909048, 43.4128521 ], [ -8.1909394, 43.4125354 ], [ -8.1907803, 43.4121196 ], [ -8.1910117, 43.412082 ], [ -8.1916444, 43.4122602 ], [ -8.1919989, 43.4122171 ], [ -8.1922633, 43.411989 ], [ -8.1922488, 43.4116746 ], [ -8.1924571, 43.4116561 ], [ -8.1926516, 43.4117642 ], [ -8.1930882, 43.4118164 ], [ -8.1933689, 43.4116325 ], [ -8.1936103, 43.4115676 ], [ -8.1936157, 43.4113422 ], [ -8.1938309, 43.4109723 ], [ -8.1947258, 43.4107515 ], [ -8.1951786, 43.4109919 ], [ -8.195473, 43.4109696 ], [ -8.1957029, 43.4110581 ], [ -8.1962987, 43.4109499 ], [ -8.1965032, 43.4107426 ], [ -8.1967846, 43.4107117 ], [ -8.1970083, 43.4105845 ], [ -8.1975257, 43.4105699 ], [ -8.197814, 43.4107638 ], [ -8.1983436, 43.4108927 ], [ -8.1990256, 43.4107806 ], [ -8.199167, 43.4108462 ], [ -8.1993485, 43.4108019 ], [ -8.1995306, 43.4106225 ], [ -8.1997459, 43.4105407 ], [ -8.1998911, 43.410363 ], [ -8.1999219, 43.4101455 ], [ -8.2000242, 43.4100419 ], [ -8.20059, 43.4101601 ], [ -8.2008906, 43.4103534 ], [ -8.2011127, 43.4103523 ], [ -8.2012734, 43.4102099 ], [ -8.201394, 43.4097453 ], [ -8.2017231, 43.4094062 ], [ -8.2019245, 43.409307 ], [ -8.2024641, 43.4095524 ], [ -8.2026579, 43.4097957 ], [ -8.2032191, 43.4097161 ], [ -8.2032544, 43.4095524 ], [ -8.2034335, 43.4094812 ], [ -8.2035581, 43.4092054 ], [ -8.2037372, 43.4091342 ], [ -8.2039962, 43.4088434 ], [ -8.2041384, 43.4089179 ], [ -8.2042245, 43.409058 ], [ -8.2045205, 43.4091975 ], [ -8.2048057, 43.4092115 ], [ -8.2053785, 43.4094104 ], [ -8.2058497, 43.4094339 ], [ -8.2060296, 43.4093717 ], [ -8.206241, 43.4093891 ], [ -8.2064055, 43.4092915 ], [ -8.2065346, 43.4090696 ], [ -8.207032, 43.4088218 ], [ -8.2073033, 43.4085303 ], [ -8.2075069, 43.4081699 ], [ -8.2075061, 43.4080169 ], [ -8.2073477, 43.4077541 ], [ -8.2073245, 43.407341 ], [ -8.2075406, 43.4072681 ], [ -8.2077942, 43.4069144 ], [ -8.2078941, 43.4066398 ], [ -8.208067, 43.4064969 ], [ -8.2080623, 43.406299 ], [ -8.2081907, 43.4062121 ], [ -8.2081661, 43.4060692 ], [ -8.2082745, 43.4058932 ], [ -8.2082713, 43.4057133 ], [ -8.2084189, 43.4054185 ], [ -8.2084665, 43.4051102 ], [ -8.2084149, 43.4049415 ], [ -8.2087577, 43.4046198 ], [ -8.2090305, 43.4042022 ], [ -8.2092519, 43.4040481 ], [ -8.209484, 43.4040194 ], [ -8.2096531, 43.4041197 ], [ -8.2099375, 43.4041248 ], [ -8.2102412, 43.4042099 ], [ -8.210411, 43.4041751 ], [ -8.2105624, 43.4039252 ], [ -8.2108691, 43.4039022 ], [ -8.2110566, 43.4037855 ], [ -8.2114679, 43.4038298 ], [ -8.2120759, 43.4035769 ], [ -8.2121289, 43.4034755 ], [ -8.2123364, 43.403448 ], [ -8.2125769, 43.4030859 ], [ -8.2128682, 43.4031716 ], [ -8.2131411, 43.4030421 ], [ -8.2133117, 43.4028722 ], [ -8.2133078, 43.4026833 ], [ -8.2134745, 43.4024687 ], [ -8.2134191, 43.4022552 ], [ -8.2135221, 43.4020164 ], [ -8.2136727, 43.4019014 ], [ -8.2136656, 43.4015327 ], [ -8.2135257, 43.401341 ], [ -8.2133589, 43.4012676 ], [ -8.2131122, 43.4012699 ], [ -8.2130076, 43.4012027 ], [ -8.2129415, 43.4010076 ], [ -8.213019, 43.400761 ], [ -8.2129274, 43.4004141 ], [ -8.2129743, 43.4002409 ], [ -8.2128682, 43.4000117 ], [ -8.2128796, 43.3995701 ], [ -8.2126835, 43.3992999 ], [ -8.2125021, 43.3992002 ], [ -8.2121885, 43.3991425 ], [ -8.212014, 43.3989795 ], [ -8.2120392, 43.3982671 ], [ -8.2122803, 43.3976259 ], [ -8.2129626, 43.3966584 ], [ -8.2132286, 43.3965922 ], [ -8.2134706, 43.3963921 ], [ -8.2136904, 43.3963641 ], [ -8.2137825, 43.3961438 ], [ -8.2139547, 43.3959919 ], [ -8.2140015, 43.3958187 ], [ -8.2142582, 43.3957889 ], [ -8.2143849, 43.3955401 ], [ -8.2145863, 43.3954409 ], [ -8.2146423, 43.3952312 ], [ -8.2152132, 43.394692 ], [ -8.2150532, 43.3942672 ], [ -8.2148787, 43.3941041 ], [ -8.2148702, 43.3940055 ], [ -8.2160384, 43.393952 ], [ -8.216491, 43.3934722 ], [ -8.2165524, 43.3933253 ], [ -8.216477, 43.3930227 ], [ -8.2160635, 43.3928076 ], [ -8.216141, 43.392705 ], [ -8.2163977, 43.3926752 ], [ -8.2166113, 43.3925754 ], [ -8.2166497, 43.3924476 ], [ -8.216828, 43.3923675 ], [ -8.2168455, 43.3918535 ], [ -8.217325, 43.3916875 ], [ -8.2176939, 43.3916706 ], [ -8.2179568, 43.3918567 ], [ -8.2180744, 43.3920764 ], [ -8.2180177, 43.3924211 ], [ -8.2180954, 43.3927506 ], [ -8.2183499, 43.392982 ], [ -8.2193428, 43.3930446 ], [ -8.2195535, 43.393197 ], [ -8.2198847, 43.3931728 ], [ -8.2200983, 43.393073 ], [ -8.2206637, 43.392471 ], [ -8.2208219, 43.3920136 ], [ -8.2210078, 43.3918791 ], [ -8.2206879, 43.3913176 ], [ -8.2206671, 43.3910754 ], [ -8.2204518, 43.3908692 ], [ -8.2200744, 43.3907875 ], [ -8.2197493, 43.3905953 ], [ -8.2195839, 43.3902518 ], [ -8.2191412, 43.389984 ], [ -8.2191103, 43.3897693 ], [ -8.2187399, 43.3894802 ], [ -8.2189589, 43.3894432 ], [ -8.2196675, 43.3895007 ], [ -8.2197204, 43.3892552 ], [ -8.2199417, 43.3892451 ], [ -8.2200316, 43.389142 ], [ -8.2202229, 43.3890702 ], [ -8.2201606, 43.38892 ], [ -8.2202343, 43.3887726 ], [ -8.2206162, 43.3887641 ], [ -8.2207591, 43.3887036 ], [ -8.2208144, 43.388485 ], [ -8.2204329, 43.3877822 ], [ -8.2203521, 43.3874168 ], [ -8.2205172, 43.3868961 ], [ -8.2207008, 43.3868787 ], [ -8.2211097, 43.38704 ], [ -8.2216484, 43.3871324 ], [ -8.2224553, 43.3870414 ], [ -8.2227166, 43.3870655 ], [ -8.2229647, 43.3869371 ], [ -8.2232214, 43.3869073 ], [ -8.2233489, 43.3866674 ], [ -8.2233127, 43.386534 ], [ -8.2231274, 43.3863895 ], [ -8.2230712, 43.386167 ], [ -8.2228314, 43.3859619 ], [ -8.2225832, 43.3859462 ], [ -8.222394, 43.3857569 ], [ -8.221986, 43.3857486 ], [ -8.2218077, 43.3856847 ], [ -8.2216371, 43.3857105 ], [ -8.2213481, 43.3855077 ], [ -8.2210822, 43.3854298 ], [ -8.2207695, 43.3855252 ], [ -8.220668, 43.3853498 ], [ -8.2207808, 43.3850835 ], [ -8.2205456, 43.3847882 ], [ -8.2203504, 43.3846711 ], [ -8.2200653, 43.3846572 ], [ -8.21986, 43.3842795 ], [ -8.2198714, 43.3839819 ], [ -8.2197522, 43.3836002 ], [ -8.2198349, 43.3829842 ], [ -8.2197304, 43.382773 ], [ -8.2197656, 43.3824653 ], [ -8.219608, 43.3822114 ], [ -8.219349, 43.3820702 ], [ -8.2191929, 43.3818343 ], [ -8.2187172, 43.381613 ], [ -8.2187663, 43.3814667 ], [ -8.218973, 43.3812862 ], [ -8.2185342, 43.3813513 ], [ -8.2185196, 43.3811809 ], [ -8.2186985, 43.3809657 ], [ -8.2185924, 43.3807365 ], [ -8.2181199, 43.380695 ], [ -8.2177394, 43.3804334 ], [ -8.2169956, 43.3803954 ], [ -8.216888, 43.3802923 ], [ -8.2175741, 43.3800899 ], [ -8.217843, 43.3799155 ], [ -8.2179559, 43.3796493 ], [ -8.2182132, 43.3794845 ], [ -8.2181286, 43.3792183 ], [ -8.2181738, 43.3788831 ], [ -8.2183597, 43.3784605 ], [ -8.2177548, 43.378029 ], [ -8.2169335, 43.3782377 ], [ -8.2167222, 43.3783644 ], [ -8.2165441, 43.3785886 ], [ -8.2160554, 43.3786469 ], [ -8.215695, 43.3784743 ], [ -8.2151792, 43.3777867 ], [ -8.214305, 43.3783849 ], [ -8.2128823, 43.3793502 ], [ -8.212403, 43.3803804 ], [ -8.2090254, 43.3817231 ], [ -8.2072109, 43.3845967 ], [ -8.2062032, 43.3879557 ], [ -8.207662, 43.3899957 ], [ -8.2064926, 43.3914715 ], [ -8.2025049, 43.393337 ], [ -8.2008079, 43.3941346 ], [ -8.2012876, 43.3958412 ], [ -8.1988683, 43.4004528 ], [ -8.1951288, 43.4004702 ], [ -8.1915623, 43.4009207 ], [ -8.1881732, 43.4003453 ], [ -8.1871874, 43.4019919 ], [ -8.1871625, 43.4021987 ], [ -8.1863341, 43.404425 ], [ -8.1843113, 43.4063839 ], [ -8.1835664, 43.4071205 ], [ -8.1823642, 43.4083093 ], [ -8.1801498, 43.4128683 ] ] ] } },
{ "type": "Feature", "properties": { "CCAA": "12 - Galicia", "PROVINCIA": "15 - Coruña, A", "MUNICIPIO": "15069 - Pontedeume", "COD_MUNICIPIO": "15069", "DISTRITO": "02", "SECCION": "1506902003", "V1_H": 80.55, "V1_M": 86.21, "V2_H": 80.25181467, "V2_M": 85.94546636, "V3_H": 81.01047082, "V3_M": 86.65561049 }, "geometry": { "type": "Polygon", "coordinates": [ [ [ -8.1005916, 43.4123542 ], [ -8.1009004, 43.4125024 ], [ -8.1012083, 43.4127857 ], [ -8.1013317, 43.4130773 ], [ -8.101372, 43.4138497 ], [ -8.1016073, 43.4142983 ], [ -8.1016357, 43.4143421 ], [ -8.1020348, 43.4148284 ], [ -8.1033158, 43.4158154 ], [ -8.1043417, 43.4167057 ], [ -8.1056603, 43.4188704 ], [ -8.1062291, 43.4200512 ], [ -8.1066042, 43.4206916 ], [ -8.1069191, 43.4209116 ], [ -8.1069814, 43.4209178 ], [ -8.1076748, 43.4210848 ], [ -8.1083604, 43.4213062 ], [ -8.1090343, 43.4216811 ], [ -8.1101914, 43.4223675 ], [ -8.1124785, 43.4234173 ], [ -8.1141881, 43.424502 ], [ -8.1151722, 43.4246019 ], [ -8.116724, 43.4246944 ], [ -8.1175398, 43.4248468 ], [ -8.1195692, 43.4254759 ], [ -8.1202711, 43.4255974 ], [ -8.1208286, 43.4256174 ], [ -8.1208771, 43.4256062 ], [ -8.1215347, 43.4254957 ], [ -8.1223711, 43.425161 ], [ -8.1245304, 43.4245509 ], [ -8.125564, 43.4245044 ], [ -8.1265327, 43.4247129 ], [ -8.1270439, 43.424915 ], [ -8.127677, 43.4253907 ], [ -8.1279459, 43.4256487 ], [ -8.1282363, 43.4265989 ], [ -8.1282884, 43.4267766 ], [ -8.1284506, 43.4275256 ], [ -8.1286801, 43.4279023 ], [ -8.1289108, 43.428 ], [ -8.1293873, 43.4282306 ], [ -8.1297779, 43.4283211 ], [ -8.1312085, 43.4281487 ], [ -8.132207, 43.4278337 ], [ -8.1324137, 43.427792 ], [ -8.1328386, 43.4277062 ], [ -8.133783, 43.4276277 ], [ -8.1341022, 43.4276043 ], [ -8.1348745, 43.4273895 ], [ -8.1351432, 43.4270623 ], [ -8.1349581, 43.4260443 ], [ -8.1348874, 43.4252103 ], [ -8.1350271, 43.4246728 ], [ -8.1353884, 43.4239813 ], [ -8.1354662, 43.4238788 ], [ -8.1359767, 43.4231986 ], [ -8.1366431, 43.4227545 ], [ -8.1387823, 43.4219109 ], [ -8.1402877, 43.4213119 ], [ -8.1413975, 43.4211448 ], [ -8.1423941, 43.4210999 ], [ -8.1439709, 43.4213438 ], [ -8.1441847, 43.4213882 ], [ -8.145039, 43.4214127 ], [ -8.1458748, 43.421366 ], [ -8.1469153, 43.421256 ], [ -8.1483827, 43.4209377 ], [ -8.1490042, 43.4206936 ], [ -8.1493765, 43.4204247 ], [ -8.1496783, 43.4199069 ], [ -8.1498372, 43.4193055 ], [ -8.1498466, 43.4179638 ], [ -8.1497146, 43.4167003 ], [ -8.1496296, 43.416137 ], [ -8.1496392, 43.4156684 ], [ -8.1497866, 43.4149326 ], [ -8.1503601, 43.4139794 ], [ -8.1508171, 43.4135446 ], [ -8.1511887, 43.4132668 ], [ -8.151814, 43.4129234 ], [ -8.1528814, 43.4125511 ], [ -8.1536257, 43.4124454 ], [ -8.1550661, 43.4119572 ], [ -8.1557804, 43.4117899 ], [ -8.1571207, 43.4114322 ], [ -8.1576881, 43.4112805 ], [ -8.1586894, 43.4108571 ], [ -8.1592101, 43.4105905 ], [ -8.160769, 43.4096107 ], [ -8.1615157, 43.4092438 ], [ -8.1624261, 43.4089145 ], [ -8.1625801, 43.4088671 ], [ -8.1615488, 43.4061275 ], [ -8.1611155, 43.406059 ], [ -8.160817, 43.4058897 ], [ -8.1607063, 43.4056069 ], [ -8.1607655, 43.4054716 ], [ -8.1609246, 43.4053579 ], [ -8.1610384, 43.4054109 ], [ -8.1611659, 43.4055163 ], [ -8.161282, 43.4054023 ], [ -8.1613564, 43.4052044 ], [ -8.1611569, 43.4051298 ], [ -8.1609431, 43.4050552 ], [ -8.1609448, 43.4049298 ], [ -8.1608606, 43.4048039 ], [ -8.1608901, 43.4047415 ], [ -8.1611061, 43.4046595 ], [ -8.1611505, 43.4045554 ], [ -8.1621119, 43.4048509 ], [ -8.1623917, 43.4039871 ], [ -8.1621436, 43.4039058 ], [ -8.1624487, 43.4032382 ], [ -8.1621871, 43.4030091 ], [ -8.1621291, 43.4027021 ], [ -8.1622594, 43.402283 ], [ -8.1624196, 43.4019548 ], [ -8.1625313, 43.4017626 ], [ -8.1625925, 43.4015995 ], [ -8.162342, 43.4014807 ], [ -8.1623023, 43.4010461 ], [ -8.1621217, 43.4008442 ], [ -8.161552, 43.4006229 ], [ -8.1614388, 43.4005218 ], [ -8.1612824, 43.4002367 ], [ -8.161171, 43.400002 ], [ -8.1608992, 43.3997828 ], [ -8.1607885, 43.399498 ], [ -8.1605905, 43.3989119 ], [ -8.1603916, 43.3983758 ], [ -8.1604886, 43.3979923 ], [ -8.1604969, 43.3973909 ], [ -8.1606605, 43.3971583 ], [ -8.1599071, 43.396969 ], [ -8.1590137, 43.3969624 ], [ -8.1586016, 43.3969427 ], [ -8.1583251, 43.3970576 ], [ -8.1579831, 43.3969381 ], [ -8.1577582, 43.3966358 ], [ -8.1575779, 43.3964173 ], [ -8.1572799, 43.3964318 ], [ -8.1568083, 43.3957434 ], [ -8.1562211, 43.3951376 ], [ -8.1557531, 43.3941987 ], [ -8.155537, 43.3932615 ], [ -8.1556552, 43.3929951 ], [ -8.155637, 43.3926608 ], [ -8.1555944, 43.3924267 ], [ -8.1553892, 43.3923583 ], [ -8.1551169, 43.3921726 ], [ -8.1545311, 43.3914666 ], [ -8.1543289, 43.3911811 ], [ -8.1539187, 43.3910277 ], [ -8.1533946, 43.3908233 ], [ -8.1530772, 43.3905871 ], [ -8.1528061, 43.3903178 ], [ -8.1525824, 43.3899319 ], [ -8.1520156, 43.3895101 ], [ -8.1517928, 43.3890574 ], [ -8.151295, 43.3886193 ], [ -8.1509575, 43.3881825 ], [ -8.1505073, 43.3876111 ], [ -8.1500073, 43.3873401 ], [ -8.1496632, 43.387371 ], [ -8.1493194, 43.3873851 ], [ -8.1490686, 43.3872997 ], [ -8.148634, 43.3872631 ], [ -8.1482701, 43.3870766 ], [ -8.1480885, 43.3869583 ], [ -8.1474705, 43.3869203 ], [ -8.1471749, 43.3867678 ], [ -8.1470637, 43.3865331 ], [ -8.1469975, 43.3863488 ], [ -8.1464747, 43.3860609 ], [ -8.1461116, 43.3858243 ], [ -8.1461137, 43.385674 ], [ -8.14575, 43.3854708 ], [ -8.1454556, 43.3852347 ], [ -8.1452273, 43.3851829 ], [ -8.1449997, 43.385081 ], [ -8.1449104, 43.3849132 ], [ -8.144408, 43.3848093 ], [ -8.1442953, 43.3846748 ], [ -8.1440425, 43.3847397 ], [ -8.1417665, 43.3837273 ], [ -8.13932, 43.3857231 ], [ -8.1324768, 43.3897494 ], [ -8.1284905, 43.3888844 ], [ -8.1277176, 43.3886491 ], [ -8.1259206, 43.3881267 ], [ -8.1197002, 43.387992 ], [ -8.1154972, 43.389531 ], [ -8.1160044, 43.3901294 ], [ -8.1161293, 43.3904389 ], [ -8.1160466, 43.3907757 ], [ -8.1157957, 43.3910211 ], [ -8.1148052, 43.3914256 ], [ -8.1140384, 43.3918471 ], [ -8.1135398, 43.3922296 ], [ -8.1124654, 43.39325 ], [ -8.1119199, 43.3936616 ], [ -8.1113007, 43.3939324 ], [ -8.1091345, 43.3945967 ], [ -8.1085234, 43.3946691 ], [ -8.1069431, 43.3946678 ], [ -8.1063321, 43.3945961 ], [ -8.1054917, 43.3942917 ], [ -8.1038988, 43.3939939 ], [ -8.1053167, 43.3951457 ], [ -8.1060797, 43.3958498 ], [ -8.1065539, 43.3963507 ], [ -8.1069, 43.3967944 ], [ -8.1070541, 43.3970125 ], [ -8.1075073, 43.3972623 ], [ -8.107728, 43.3976846 ], [ -8.1080419, 43.3980396 ], [ -8.1087356, 43.3983596 ], [ -8.1090642, 43.398597 ], [ -8.1097626, 43.4004383 ], [ -8.110183, 43.4010316 ], [ -8.1103313, 43.4016191 ], [ -8.1102723, 43.4025311 ], [ -8.1102915, 43.4036375 ], [ -8.1105193, 43.4045816 ], [ -8.1104956, 43.4050328 ], [ -8.110487, 43.4050781 ], [ -8.1102881, 43.4055012 ], [ -8.110178, 43.4056592 ], [ -8.1095895, 43.4064418 ], [ -8.108776, 43.4070454 ], [ -8.1087291, 43.4070745 ], [ -8.1086553, 43.4070778 ], [ -8.1076373, 43.4071594 ], [ -8.1071594, 43.4074959 ], [ -8.1067053, 43.4078223 ], [ -8.1065074, 43.4085514 ], [ -8.1061623, 43.408999 ], [ -8.1059588, 43.4093682 ], [ -8.1057255, 43.4101169 ], [ -8.1054768, 43.4103891 ], [ -8.1052926, 43.4106944 ], [ -8.1050501, 43.4108943 ], [ -8.1048093, 43.4109681 ], [ -8.1043655, 43.411123 ], [ -8.1041529, 43.4113846 ], [ -8.1037412, 43.4116281 ], [ -8.1032228, 43.4117774 ], [ -8.1031236, 43.4117728 ], [ -8.1025562, 43.4117802 ], [ -8.1017409, 43.4119247 ], [ -8.1012017, 43.4121198 ], [ -8.1009102, 43.4121779 ], [ -8.1005916, 43.4123542 ] ] ] } }
]
}
