{
"type": "FeatureCollection",
"name": "16001",
"features": [
{ "type": "Feature", "properties": { "CCAA": "08 - Castilla-La Mancha", "PROVINCIA": "16 - Cuenca", "MUNICIPIO": "16001 - Abia de la Obispalía", "COD_MUNICIPIO": "16001", "DISTRITO": "01", "SECCION": "1600101001", "V1_H": 75.48, "V1_M": 82.31, "V2_H": 75.36985678000001, "V2_M": 82.56533706, "V3_H": 75.8600571, "V3_M": 82.01450712 }, "geometry": { "type": "Polygon", "coordinates": [ [ [ -2.3257674, 40.0703094 ], [ -2.326066, 40.0709417 ], [ -2.3263285, 40.0728532 ], [ -2.3264925, 40.0740705 ], [ -2.3268392, 40.0757843 ], [ -2.3286761, 40.0762274 ], [ -2.3296461, 40.0765844 ], [ -2.3304516, 40.0769585 ], [ -2.3311152, 40.0774669 ], [ -2.3330297, 40.0795862 ], [ -2.3339393, 40.080123 ], [ -2.3347579, 40.0803709 ], [ -2.3353642, 40.0807348 ], [ -2.3366749, 40.0834633 ], [ -2.337763, 40.084947 ], [ -2.3384134, 40.0856174 ], [ -2.3400271, 40.0861402 ], [ -2.3405428, 40.0861792 ], [ -2.3417903, 40.0857448 ], [ -2.3422134, 40.0856662 ], [ -2.3433244, 40.0860148 ], [ -2.3443336, 40.0859665 ], [ -2.3463982, 40.0859512 ], [ -2.3470547, 40.0859909 ], [ -2.3486347, 40.0863602 ], [ -2.3519363, 40.0870184 ], [ -2.3536729, 40.0894337 ], [ -2.3542114, 40.0895538 ], [ -2.3584836, 40.0905597 ], [ -2.3611577, 40.0918628 ], [ -2.3617274, 40.0924156 ], [ -2.3623684, 40.0928606 ], [ -2.3635287, 40.0929751 ], [ -2.3664891, 40.0950635 ], [ -2.3694605, 40.0959627 ], [ -2.3716996, 40.096146 ], [ -2.3728716, 40.0949902 ], [ -2.3730856, 40.094685 ], [ -2.3733261, 40.0940376 ], [ -2.3746798, 40.0922611 ], [ -2.3748136, 40.0917392 ], [ -2.3770832, 40.0898505 ], [ -2.3777802, 40.0893136 ], [ -2.3766452, 40.0890012 ], [ -2.3801794, 40.086047 ], [ -2.3789249, 40.0846799 ], [ -2.378038, 40.0841886 ], [ -2.3773525, 40.0834642 ], [ -2.3767947, 40.0828935 ], [ -2.3763319, 40.0821973 ], [ -2.3761038, 40.0814933 ], [ -2.3760734, 40.0809706 ], [ -2.3767823, 40.0803978 ], [ -2.3774894, 40.0800322 ], [ -2.3781576, 40.0800718 ], [ -2.3788, 40.0790662 ], [ -2.3786662, 40.0782997 ], [ -2.379119, 40.0775273 ], [ -2.3793956, 40.076772 ], [ -2.3800746, 40.074316 ], [ -2.3811249, 40.0736008 ], [ -2.3837166, 40.0723083 ], [ -2.3841395, 40.0722295 ], [ -2.3842975, 40.0716177 ], [ -2.3845798, 40.071529 ], [ -2.3869198, 40.0708297 ], [ -2.385892, 40.0703648 ], [ -2.3865185, 40.0698185 ], [ -2.389771, 40.0680428 ], [ -2.389661, 40.0672224 ], [ -2.3899154, 40.0663137 ], [ -2.3898974, 40.06571 ], [ -2.3905364, 40.0650557 ], [ -2.3912322, 40.0646179 ], [ -2.3923859, 40.0641014 ], [ -2.3936681, 40.0636486 ], [ -2.3943264, 40.0634628 ], [ -2.398145, 40.0639242 ], [ -2.4016837, 40.061537 ], [ -2.4022034, 40.0584314 ], [ -2.4025746, 40.0561989 ], [ -2.4039984, 40.047539 ], [ -2.4155806, 40.0421112 ], [ -2.4172708, 40.0418494 ], [ -2.4458239, 40.0363677 ], [ -2.4468212, 40.0362463 ], [ -2.4474551, 40.0361232 ], [ -2.4486537, 40.0357505 ], [ -2.446916, 40.0303184 ], [ -2.4452419, 40.0243009 ], [ -2.4447519, 40.0225777 ], [ -2.441723, 40.0117424 ], [ -2.4407558, 40.011089 ], [ -2.4331077, 40.0050514 ], [ -2.4323184, 40.0041555 ], [ -2.4313331, 40.0028893 ], [ -2.4308917, 40.0024366 ], [ -2.4288983, 40.0012286 ], [ -2.4280601, 40.0005937 ], [ -2.427454, 40.0002213 ], [ -2.4264042, 39.9996756 ], [ -2.3801087, 39.9916255 ], [ -2.3688699, 39.9896636 ], [ -2.3653966, 39.989059 ], [ -2.3633149, 39.9887052 ], [ -2.3611353, 40.0001266 ], [ -2.3609353, 40.0014679 ], [ -2.3606942, 40.0021964 ], [ -2.3602628, 40.0032301 ], [ -2.3601145, 40.0040582 ], [ -2.3603922, 40.0069428 ], [ -2.3602964, 40.0096632 ], [ -2.360185, 40.0103113 ], [ -2.3599475, 40.0106344 ], [ -2.3576587, 40.0123155 ], [ -2.3567731, 40.0130493 ], [ -2.3543472, 40.0143332 ], [ -2.3542275, 40.0145939 ], [ -2.3546751, 40.0168398 ], [ -2.3544938, 40.0186677 ], [ -2.3542914, 40.0189999 ], [ -2.3532248, 40.0202643 ], [ -2.3523961, 40.0211607 ], [ -2.3522977, 40.0216466 ], [ -2.3523025, 40.0223765 ], [ -2.3518884, 40.0227886 ], [ -2.3514725, 40.0234079 ], [ -2.3513019, 40.0240827 ], [ -2.350882, 40.0251165 ], [ -2.3489907, 40.0255833 ], [ -2.3489908, 40.0255833 ], [ -2.3491519, 40.0258996 ], [ -2.3524518, 40.0289093 ], [ -2.3540301, 40.0305669 ], [ -2.3542169, 40.03064 ], [ -2.3550223, 40.0309869 ], [ -2.3548041, 40.0317605 ], [ -2.3541851, 40.0327661 ], [ -2.3534853, 40.0336452 ], [ -2.3526949, 40.0354247 ], [ -2.3514976, 40.0368415 ], [ -2.3506949, 40.0374406 ], [ -2.3499641, 40.037869 ], [ -2.3489055, 40.0382504 ], [ -2.3479896, 40.0384165 ], [ -2.3469308, 40.0388249 ], [ -2.3463983, 40.0393535 ], [ -2.3453383, 40.0398791 ], [ -2.344889, 40.040282 ], [ -2.3441302, 40.0411786 ], [ -2.3440207, 40.0415925 ], [ -2.3439892, 40.0424302 ], [ -2.3442282, 40.0431793 ], [ -2.345112, 40.0451484 ], [ -2.3453159, 40.0458974 ], [ -2.3448017, 40.0469486 ], [ -2.3447135, 40.0475878 ], [ -2.344753, 40.0483538 ], [ -2.3446754, 40.0491102 ], [ -2.3443674, 40.0506761 ], [ -2.3439926, 40.0518543 ], [ -2.3436695, 40.0525372 ], [ -2.3434083, 40.052878 ], [ -2.3427579, 40.0546763 ], [ -2.3423922, 40.0561337 ], [ -2.3408141, 40.0580708 ], [ -2.3389498, 40.0605018 ], [ -2.3383452, 40.0611831 ], [ -2.3368104, 40.0622555 ], [ -2.3345823, 40.063486 ], [ -2.3310245, 40.0651773 ], [ -2.3296338, 40.06589 ], [ -2.3282281, 40.066936 ], [ -2.3272321, 40.0680474 ], [ -2.3257674, 40.0703093 ], [ -2.3257674, 40.0703094 ] ] ] } }
]
}
