{
"type": "FeatureCollection",
"name": "16016",
"features": [
{ "type": "Feature", "properties": { "CCAA": "08 - Castilla-La Mancha", "PROVINCIA": "16 - Cuenca", "MUNICIPIO": "16016 - Almendros", "COD_MUNICIPIO": "16016", "DISTRITO": "01", "SECCION": "1601601001", "V1_H": 80.21, "V1_M": 86.35, "V2_H": 80.00126986, "V2_M": 86.33312861, "V3_H": 80.58114521, "V3_M": 86.56210486000001 }, "geometry": { "type": "Polygon", "coordinates": [ [ [ -2.8502028, 39.9226053 ], [ -2.8507519, 39.9230385 ], [ -2.8542313, 39.9266919 ], [ -2.855026, 39.9272065 ], [ -2.8609897, 39.9295023 ], [ -2.8719709, 39.9338307 ], [ -2.8738909, 39.9335355 ], [ -2.8768641, 39.9332865 ], [ -2.8773793, 39.9331428 ], [ -2.8777658, 39.9329811 ], [ -2.8806949, 39.9311821 ], [ -2.8813977, 39.9307955 ], [ -2.883354, 39.9297343 ], [ -2.8863257, 39.9303139 ], [ -2.8884672, 39.930415 ], [ -2.8887831, 39.9304334 ], [ -2.8988383, 39.9290731 ], [ -2.9029819, 39.9285811 ], [ -2.9107641, 39.9287226 ], [ -2.9141111, 39.9288603 ], [ -2.917411, 39.9291149 ], [ -2.927767, 39.9302481 ], [ -2.9323208, 39.9289714 ], [ -2.9303153, 39.9216812 ], [ -2.9272282, 39.9196341 ], [ -2.9264684, 39.9188948 ], [ -2.9245868, 39.9168124 ], [ -2.9239323, 39.9161091 ], [ -2.9203453, 39.9116558 ], [ -2.9198312, 39.9110248 ], [ -2.9194927, 39.9103307 ], [ -2.9190842, 39.9095556 ], [ -2.9183253, 39.9082216 ], [ -2.91641, 39.9054001 ], [ -2.9156674, 39.9003451 ], [ -2.9139176, 39.8964335 ], [ -2.9145778, 39.8922984 ], [ -2.9141119, 39.8906853 ], [ -2.911293, 39.8907642 ], [ -2.9108841, 39.8903495 ], [ -2.9096342, 39.8891412 ], [ -2.9046384, 39.881785 ], [ -2.9002035, 39.8754382 ], [ -2.8965708, 39.8726869 ], [ -2.8825748, 39.8652133 ], [ -2.8801559, 39.8644179 ], [ -2.8797823, 39.8641472 ], [ -2.8789303, 39.8632723 ], [ -2.8785453, 39.8627583 ], [ -2.8781267, 39.8614695 ], [ -2.876272, 39.8591339 ], [ -2.8758766, 39.8579261 ], [ -2.875305, 39.8572768 ], [ -2.8771575, 39.8542514 ], [ -2.8791579, 39.8534967 ], [ -2.8799304, 39.8529749 ], [ -2.881627, 39.8520847 ], [ -2.8824576, 39.8517161 ], [ -2.8829637, 39.8496893 ], [ -2.883539, 39.8482123 ], [ -2.8840082, 39.8472307 ], [ -2.884899, 39.845772 ], [ -2.8851447, 39.845619 ], [ -2.8866532, 39.845233 ], [ -2.8869456, 39.8451072 ], [ -2.8876716, 39.844333 ], [ -2.8889744, 39.8410637 ], [ -2.8889746, 39.8409015 ], [ -2.8885667, 39.8401262 ], [ -2.8884155, 39.8397206 ], [ -2.8884408, 39.8384953 ], [ -2.8880449, 39.837612 ], [ -2.8875439, 39.8367105 ], [ -2.8872067, 39.8356289 ], [ -2.8868245, 39.8334841 ], [ -2.8868136, 39.8329975 ], [ -2.8863836, 39.8315375 ], [ -2.8855806, 39.8295725 ], [ -2.8845785, 39.8277515 ], [ -2.8841482, 39.8265707 ], [ -2.8840325, 39.8258588 ], [ -2.8835679, 39.8241915 ], [ -2.8833828, 39.823083 ], [ -2.8832786, 39.8225604 ], [ -2.8831538, 39.8203167 ], [ -2.8828513, 39.8195956 ], [ -2.8812311, 39.8172783 ], [ -2.8808466, 39.8166472 ], [ -2.8802404, 39.8158898 ], [ -2.8785484, 39.8146626 ], [ -2.8779881, 39.8143737 ], [ -2.8775448, 39.8140038 ], [ -2.8766231, 39.813273 ], [ -2.8757593, 39.8128576 ], [ -2.8754562, 39.8124699 ], [ -2.8753525, 39.8116498 ], [ -2.8752477, 39.8114875 ], [ -2.8749442, 39.811334 ], [ -2.8732292, 39.8100707 ], [ -2.8728561, 39.8096378 ], [ -2.8726466, 39.8092321 ], [ -2.8716593, 39.8061316 ], [ -2.8708905, 39.8049143 ], [ -2.8707514, 39.8043555 ], [ -2.8708582, 39.8034817 ], [ -2.8709994, 39.8029412 ], [ -2.8710353, 39.8024727 ], [ -2.8709079, 39.8018599 ], [ -2.8703477, 39.801616 ], [ -2.8701146, 39.8013544 ], [ -2.8699633, 39.8010659 ], [ -2.8688686, 39.7992987 ], [ -2.8677731, 39.797973 ], [ -2.8674582, 39.7977384 ], [ -2.8671435, 39.7973956 ], [ -2.8647881, 39.7952755 ], [ -2.8644498, 39.7950859 ], [ -2.8635044, 39.7947334 ], [ -2.8631661, 39.7945257 ], [ -2.8629564, 39.7942462 ], [ -2.8627821, 39.7937774 ], [ -2.8625842, 39.7934618 ], [ -2.8623393, 39.7932363 ], [ -2.8619658, 39.7931187 ], [ -2.8608682, 39.7929732 ], [ -2.860285, 39.7925581 ], [ -2.8600061, 39.7918639 ], [ -2.8597267, 39.7914582 ], [ -2.8591786, 39.791052 ], [ -2.8591785, 39.791052 ], [ -2.8591775, 39.7910528 ], [ -2.8591774, 39.7910529 ], [ -2.8591767, 39.7910535 ], [ -2.8588141, 39.7913234 ], [ -2.8555872, 39.7928782 ], [ -2.8546757, 39.7934892 ], [ -2.8543408, 39.7937805 ], [ -2.8542321, 39.7938751 ], [ -2.8542319, 39.7938751 ], [ -2.8542309, 39.793876 ], [ -2.8542302, 39.7938766 ], [ -2.8542301, 39.7938766 ], [ -2.8530856, 39.7938841 ], [ -2.8507376, 39.7940163 ], [ -2.8500014, 39.7941955 ], [ -2.8493818, 39.79442 ], [ -2.8482824, 39.7951123 ], [ -2.847768, 39.7953189 ], [ -2.8477679, 39.7953189 ], [ -2.8468803, 39.7953087 ], [ -2.8457476, 39.795172 ], [ -2.8457475, 39.795172 ], [ -2.8431333, 39.7949974 ], [ -2.8430738, 39.7955454 ], [ -2.8433032, 39.7974018 ], [ -2.8434922, 39.8016188 ], [ -2.8442424, 39.8056473 ], [ -2.8441483, 39.8059175 ], [ -2.8436447, 39.8064935 ], [ -2.8429425, 39.8070422 ], [ -2.8428135, 39.8072401 ], [ -2.8428354, 39.8078799 ], [ -2.8425501, 39.810033 ], [ -2.8419843, 39.8122306 ], [ -2.8415847, 39.8132572 ], [ -2.8412097, 39.8137523 ], [ -2.8405779, 39.8141479 ], [ -2.8403202, 39.8144268 ], [ -2.8409586, 39.8162657 ], [ -2.8409453, 39.8169505 ], [ -2.8401655, 39.8206706 ], [ -2.8399893, 39.8210398 ], [ -2.8386648, 39.822813 ], [ -2.8370815, 39.8253065 ], [ -2.8368575, 39.8261261 ], [ -2.8368315, 39.8272433 ], [ -2.836061, 39.8318464 ], [ -2.835649, 39.8330982 ], [ -2.8355312, 39.8334675 ], [ -2.8359005, 39.8354322 ], [ -2.8361557, 39.8362254 ], [ -2.8362485, 39.8365319 ], [ -2.836271, 39.8368833 ], [ -2.8362702, 39.8372167 ], [ -2.8350243, 39.8401792 ], [ -2.8348005, 39.8408546 ], [ -2.8368701, 39.8405693 ], [ -2.8372208, 39.8405247 ], [ -2.8392672, 39.8400861 ], [ -2.84162, 39.8385576 ], [ -2.842331, 39.8393875 ], [ -2.8428208, 39.8398658 ], [ -2.8444193, 39.8411113 ], [ -2.8460651, 39.8420866 ], [ -2.8467186, 39.842538 ], [ -2.8474394, 39.8442959 ], [ -2.8478477, 39.8446928 ], [ -2.8492485, 39.8454966 ], [ -2.8500422, 39.8460383 ], [ -2.8509524, 39.8467512 ], [ -2.8506105, 39.8481023 ], [ -2.8505388, 39.848814 ], [ -2.8506419, 39.8497692 ], [ -2.8507332, 39.8507964 ], [ -2.8497485, 39.8520836 ], [ -2.8506934, 39.8529859 ], [ -2.8511605, 39.8532027 ], [ -2.8514409, 39.8532931 ], [ -2.8518498, 39.8534378 ], [ -2.8520457, 39.8547535 ], [ -2.8523819, 39.8560334 ], [ -2.8527769, 39.8572142 ], [ -2.8528806, 39.8578991 ], [ -2.8526089, 39.8592592 ], [ -2.8526657, 39.8599711 ], [ -2.8529327, 39.8608995 ], [ -2.8534424, 39.8630986 ], [ -2.8540001, 39.8647662 ], [ -2.8542331, 39.8651539 ], [ -2.8549443, 39.8661008 ], [ -2.8573789, 39.8704918 ], [ -2.8552345, 39.8726875 ], [ -2.8542384, 39.8737044 ], [ -2.8536754, 39.8744786 ], [ -2.8534755, 39.8750369 ], [ -2.8532608, 39.8769918 ], [ -2.8526733, 39.8782525 ], [ -2.852473, 39.879 ], [ -2.8523778, 39.8797657 ], [ -2.8520484, 39.8806573 ], [ -2.8518488, 39.8810175 ], [ -2.8512736, 39.8820439 ], [ -2.8505229, 39.8830791 ], [ -2.8501705, 39.8836913 ], [ -2.8500407, 39.8842497 ], [ -2.8499565, 39.8853489 ], [ -2.8498382, 39.8859794 ], [ -2.8492741, 39.887204 ], [ -2.8489909, 39.8883478 ], [ -2.8490952, 39.8888165 ], [ -2.8491268, 39.8903483 ], [ -2.8490073, 39.8915284 ], [ -2.8487463, 39.8932129 ], [ -2.8485336, 39.8941767 ], [ -2.8484146, 39.8951046 ], [ -2.8483747, 39.897294 ], [ -2.8481369, 39.8989965 ], [ -2.8479363, 39.8997892 ], [ -2.8477247, 39.9002574 ], [ -2.8471147, 39.9010134 ], [ -2.846868, 39.9015176 ], [ -2.8464331, 39.9023911 ], [ -2.8462447, 39.9029584 ], [ -2.8461715, 39.9042918 ], [ -2.8455731, 39.9050929 ], [ -2.84542, 39.9055341 ], [ -2.8453839, 39.9059756 ], [ -2.845709, 39.9070842 ], [ -2.8430866, 39.9078646 ], [ -2.8436447, 39.909379 ], [ -2.8452154, 39.9132554 ], [ -2.8466957, 39.9158072 ], [ -2.847185, 39.9167899 ], [ -2.8478255, 39.9181062 ], [ -2.848816, 39.9199725 ], [ -2.8492012, 39.9204416 ], [ -2.8495392, 39.9210186 ], [ -2.8498299, 39.9218479 ], [ -2.8502028, 39.9226053 ] ] ] } }
]
}
