{
"type": "FeatureCollection",
"name": "16045",
"features": [
{ "type": "Feature", "properties": { "CCAA": "08 - Castilla-La Mancha", "PROVINCIA": "16 - Cuenca", "MUNICIPIO": "16045 - Canalejas del Arroyo", "COD_MUNICIPIO": "16045", "DISTRITO": "01", "SECCION": "1604501001", "V1_H": 79.2, "V1_M": 85.22, "V2_H": 79.18248439, "V2_M": 85.25623492, "V3_H": 79.42953696, "V3_M": 85.41396632 }, "geometry": { "type": "Polygon", "coordinates": [ [ [ -2.4485234, 40.4381335 ], [ -2.4492649, 40.4382991 ], [ -2.4505837, 40.4385126 ], [ -2.451209, 40.4384525 ], [ -2.453653, 40.4380587 ], [ -2.4547249, 40.4381899 ], [ -2.4550773, 40.4383537 ], [ -2.4553111, 40.4385891 ], [ -2.4556722, 40.4391403 ], [ -2.4560944, 40.4394306 ], [ -2.4566468, 40.4396404 ], [ -2.457344, 40.4394635 ], [ -2.4586463, 40.4388029 ], [ -2.4598445, 40.4378807 ], [ -2.4611008, 40.4370757 ], [ -2.4639406, 40.4358186 ], [ -2.4652549, 40.435113 ], [ -2.4658484, 40.4346023 ], [ -2.4662177, 40.4341265 ], [ -2.4671083, 40.4318423 ], [ -2.4672236, 40.4306627 ], [ -2.4671586, 40.4299416 ], [ -2.4668498, 40.428751 ], [ -2.4667499, 40.4279668 ], [ -2.4667675, 40.4272281 ], [ -2.4669103, 40.4270576 ], [ -2.4672183, 40.4268608 ], [ -2.467928, 40.4265758 ], [ -2.4686027, 40.4262095 ], [ -2.4703532, 40.4254969 ], [ -2.4713723, 40.4248169 ], [ -2.4717293, 40.4243861 ], [ -2.4722678, 40.4233705 ], [ -2.4724497, 40.4227227 ], [ -2.4727637, 40.4217512 ], [ -2.473301, 40.4208797 ], [ -2.473633, 40.420638 ], [ -2.4740822, 40.4204689 ], [ -2.474708, 40.4203366 ], [ -2.4760644, 40.4202346 ], [ -2.4769352, 40.4204188 ], [ -2.4773483, 40.4203576 ], [ -2.478621, 40.4203993 ], [ -2.4795407, 40.4203675 ], [ -2.480214, 40.4201813 ], [ -2.4812164, 40.4201228 ], [ -2.4820757, 40.4202798 ], [ -2.483132, 40.4208791 ], [ -2.4845262, 40.4220025 ], [ -2.4849374, 40.4221664 ], [ -2.4854796, 40.4221778 ], [ -2.4863764, 40.4220737 ], [ -2.48692, 40.421878 ], [ -2.4886916, 40.4214354 ], [ -2.4889863, 40.4214367 ], [ -2.4901509, 40.4217572 ], [ -2.4906558, 40.4220206 ], [ -2.4911501, 40.4221219 ], [ -2.4911085, 40.421383 ], [ -2.4910239, 40.4200943 ], [ -2.4911335, 40.4196264 ], [ -2.4911262, 40.4190407 ], [ -2.491014, 40.4182835 ], [ -2.4912175, 40.417879 ], [ -2.4912822, 40.4171135 ], [ -2.491202, 40.4168068 ], [ -2.4910752, 40.4164279 ], [ -2.4908951, 40.4153009 ], [ -2.4909107, 40.4147965 ], [ -2.4910297, 40.4084006 ], [ -2.4925728, 40.4038128 ], [ -2.4933925, 40.401384 ], [ -2.496297, 40.3927479 ], [ -2.5208858, 40.3698164 ], [ -2.5252248, 40.3658523 ], [ -2.5272047, 40.3640045 ], [ -2.5317645, 40.3603564 ], [ -2.5321561, 40.3599346 ], [ -2.5325239, 40.3595486 ], [ -2.53269, 40.3593691 ], [ -2.5325617, 40.3591794 ], [ -2.5321516, 40.3588805 ], [ -2.5316958, 40.3583741 ], [ -2.5305064, 40.3566666 ], [ -2.5298524, 40.3558891 ], [ -2.5272087, 40.3533558 ], [ -2.5261437, 40.3524055 ], [ -2.5249679, 40.3504817 ], [ -2.5225539, 40.3488141 ], [ -2.5208798, 40.3474468 ], [ -2.5187799, 40.3463479 ], [ -2.5092688, 40.3410646 ], [ -2.5062569, 40.3391599 ], [ -2.5056363, 40.3386977 ], [ -2.5043508, 40.3374039 ], [ -2.5037884, 40.3370322 ], [ -2.5026155, 40.3364235 ], [ -2.501549, 40.3357702 ], [ -2.5011278, 40.335417 ], [ -2.4992603, 40.336409 ], [ -2.4973138, 40.3369321 ], [ -2.4950827, 40.3377331 ], [ -2.4936785, 40.3381594 ], [ -2.4905051, 40.3390014 ], [ -2.4808286, 40.3418863 ], [ -2.4757348, 40.3458903 ], [ -2.4743848, 40.3468662 ], [ -2.4716586, 40.3491691 ], [ -2.4695762, 40.3504298 ], [ -2.4570469, 40.3577772 ], [ -2.4552948, 40.3559851 ], [ -2.4550709, 40.356011 ], [ -2.4495642, 40.3597688 ], [ -2.4493972, 40.3600382 ], [ -2.4486593, 40.3624131 ], [ -2.447675, 40.3646787 ], [ -2.4464589, 40.3679162 ], [ -2.4461211, 40.3688965 ], [ -2.4453366, 40.3711811 ], [ -2.4451414, 40.372009 ], [ -2.4276836, 40.3818518 ], [ -2.4196454, 40.3877487 ], [ -2.4116716, 40.3942039 ], [ -2.4106504, 40.3951086 ], [ -2.4092729, 40.3963177 ], [ -2.4078098, 40.3978869 ], [ -2.4076069, 40.3981741 ], [ -2.4075331, 40.3985251 ], [ -2.4077599, 40.3995442 ], [ -2.4083348, 40.4011688 ], [ -2.4091226, 40.4027134 ], [ -2.40865, 40.4041885 ], [ -2.4085626, 40.4047556 ], [ -2.4086966, 40.4056121 ], [ -2.4086204, 40.4062334 ], [ -2.4104459, 40.4063688 ], [ -2.4128705, 40.4067325 ], [ -2.4210467, 40.4139179 ], [ -2.4214539, 40.4145416 ], [ -2.4226472, 40.4155836 ], [ -2.4237468, 40.4165621 ], [ -2.4240157, 40.4168156 ], [ -2.4262952, 40.4190522 ], [ -2.431833, 40.4249174 ], [ -2.4325785, 40.4259752 ], [ -2.4336911, 40.4282509 ], [ -2.4344123, 40.4294076 ], [ -2.4345274, 40.4297415 ], [ -2.4346239, 40.430886 ], [ -2.434462, 40.4333267 ], [ -2.4393176, 40.4363864 ], [ -2.440255, 40.4370847 ], [ -2.4403949, 40.4372655 ], [ -2.4405552, 40.4378519 ], [ -2.4414402, 40.437766 ], [ -2.4426665, 40.437763 ], [ -2.4444925, 40.4379519 ], [ -2.4454344, 40.4381097 ], [ -2.4466602, 40.4381605 ], [ -2.4478634, 40.4381033 ], [ -2.4485234, 40.4381335 ] ] ] } }
]
}
