{
"type": "FeatureCollection",
"name": "16126",
"features": [
{ "type": "Feature", "properties": { "CCAA": "08 - Castilla-La Mancha", "PROVINCIA": "16 - Cuenca", "MUNICIPIO": "16126 - Mira", "COD_MUNICIPIO": "16126", "DISTRITO": "01", "SECCION": "1612601001", "V1_H": 79.35, "V1_M": 85.2, "V2_H": 79.29922448000001, "V2_M": 85.22530012, "V3_H": 79.59037894, "V3_M": 85.4114479 }, "geometry": { "type": "Polygon", "coordinates": [ [ [ -1.3830276, 39.7471272 ], [ -1.3833886, 39.7471593 ], [ -1.3841785, 39.7473235 ], [ -1.384688, 39.7474927 ], [ -1.3856811, 39.7479481 ], [ -1.3861051, 39.7482872 ], [ -1.3866181, 39.7488079 ], [ -1.3874581, 39.7493241 ], [ -1.3886185, 39.7501151 ], [ -1.3888135, 39.7502619 ], [ -1.3894581, 39.7506493 ], [ -1.3903348, 39.7510939 ], [ -1.3913709, 39.7517119 ], [ -1.3919791, 39.7521618 ], [ -1.3935713, 39.7529587 ], [ -1.3964592, 39.7542599 ], [ -1.3976425, 39.7545736 ], [ -1.3987754, 39.7550487 ], [ -1.4001748, 39.7561131 ], [ -1.4010252, 39.7566925 ], [ -1.4017999, 39.7570094 ], [ -1.4034039, 39.7573108 ], [ -1.4145466, 39.7585447 ], [ -1.4157109, 39.7586777 ], [ -1.4185119, 39.759725 ], [ -1.4189516, 39.7598932 ], [ -1.4204144, 39.7648412 ], [ -1.4238161, 39.7677165 ], [ -1.425637, 39.7672186 ], [ -1.4297186, 39.7663911 ], [ -1.4307954, 39.7662705 ], [ -1.4315881, 39.7663262 ], [ -1.4320522, 39.7664496 ], [ -1.4332312, 39.7669702 ], [ -1.4335359, 39.7669202 ], [ -1.4339133, 39.7667541 ], [ -1.4344894, 39.7660591 ], [ -1.4347802, 39.7655945 ], [ -1.4349529, 39.7651824 ], [ -1.4350996, 39.7643735 ], [ -1.4352196, 39.764231 ], [ -1.4355038, 39.7640547 ], [ -1.436186, 39.7638296 ], [ -1.4366471, 39.7635746 ], [ -1.4373235, 39.7630881 ], [ -1.4382554, 39.7626592 ], [ -1.4393517, 39.7621874 ], [ -1.4398965, 39.7618434 ], [ -1.4422239, 39.7611359 ], [ -1.4442621, 39.7603073 ], [ -1.4447122, 39.7600161 ], [ -1.4449268, 39.7598207 ], [ -1.4451087, 39.7595168 ], [ -1.4451748, 39.7591753 ], [ -1.4451137, 39.7587781 ], [ -1.444888, 39.7584327 ], [ -1.4445902, 39.7581765 ], [ -1.4444895, 39.7579859 ], [ -1.4445531, 39.7577525 ], [ -1.4447469, 39.7574398 ], [ -1.4451745, 39.7571122 ], [ -1.4460111, 39.756763 ], [ -1.4478908, 39.7562295 ], [ -1.4486625, 39.7561678 ], [ -1.4494893, 39.7562599 ], [ -1.4517253, 39.7570106 ], [ -1.4525875, 39.7570851 ], [ -1.4533029, 39.7569325 ], [ -1.4553475, 39.756329 ], [ -1.4560288, 39.7561399 ], [ -1.4572577, 39.7559941 ], [ -1.4582156, 39.7559617 ], [ -1.4590833, 39.7557841 ], [ -1.4594621, 39.7555459 ], [ -1.4599263, 39.7551465 ], [ -1.460084, 39.7548785 ], [ -1.4602964, 39.7532054 ], [ -1.460481, 39.7527754 ], [ -1.4606613, 39.7525436 ], [ -1.4608623, 39.7524291 ], [ -1.461694, 39.752296 ], [ -1.4632491, 39.7521724 ], [ -1.4637943, 39.7512787 ], [ -1.4642635, 39.7501227 ], [ -1.4646133, 39.7496138 ], [ -1.4650306, 39.7492138 ], [ -1.4666648, 39.7481543 ], [ -1.4677014, 39.747204 ], [ -1.4680269, 39.7467308 ], [ -1.4687425, 39.7455149 ], [ -1.4690068, 39.7451761 ], [ -1.4696958, 39.7446265 ], [ -1.4703922, 39.7442754 ], [ -1.4720993, 39.7436041 ], [ -1.4724193, 39.7433831 ], [ -1.4725874, 39.7431691 ], [ -1.4730555, 39.742058 ], [ -1.473225, 39.741781 ], [ -1.4734154, 39.7416123 ], [ -1.4746328, 39.7409165 ], [ -1.4751632, 39.7406802 ], [ -1.4754444, 39.7406299 ], [ -1.4763663, 39.740633 ], [ -1.4771383, 39.740553 ], [ -1.4778779, 39.7403555 ], [ -1.4792613, 39.7395357 ], [ -1.4818766, 39.7384167 ], [ -1.4821937, 39.7383308 ], [ -1.4844734, 39.7381444 ], [ -1.4856793, 39.7379619 ], [ -1.4866417, 39.7377131 ], [ -1.4879376, 39.7371534 ], [ -1.4908892, 39.7355881 ], [ -1.4911874, 39.7352947 ], [ -1.4920303, 39.7340984 ], [ -1.4925067, 39.7336541 ], [ -1.4927788, 39.7334864 ], [ -1.4954123, 39.7325836 ], [ -1.496674, 39.7319783 ], [ -1.4975428, 39.7311967 ], [ -1.5011217, 39.7275851 ], [ -1.5015547, 39.726987 ], [ -1.5020418, 39.7260473 ], [ -1.5022382, 39.7255993 ], [ -1.5030494, 39.7236998 ], [ -1.5036151, 39.7223556 ], [ -1.5036923, 39.7220233 ], [ -1.5040696, 39.721839 ], [ -1.5048797, 39.7216061 ], [ -1.5073995, 39.7210799 ], [ -1.5076221, 39.7210378 ], [ -1.5092696, 39.7209238 ], [ -1.5097616, 39.720831 ], [ -1.5119442, 39.7191652 ], [ -1.5114624, 39.71824 ], [ -1.5111111, 39.717758 ], [ -1.5106191, 39.7173102 ], [ -1.5112755, 39.7149942 ], [ -1.5113384, 39.7147877 ], [ -1.5116922, 39.7135219 ], [ -1.5119543, 39.7121828 ], [ -1.5147608, 39.7107772 ], [ -1.5164401, 39.7102581 ], [ -1.5183869, 39.7092289 ], [ -1.5208494, 39.70808 ], [ -1.5234608, 39.7065095 ], [ -1.5265801, 39.7051887 ], [ -1.5310985, 39.7038854 ], [ -1.5345497, 39.7028479 ], [ -1.5355724, 39.7024734 ], [ -1.5374763, 39.7012451 ], [ -1.5392508, 39.7000601 ], [ -1.541458, 39.6982679 ], [ -1.5430868, 39.6973513 ], [ -1.5438134, 39.6966307 ], [ -1.5445558, 39.695712 ], [ -1.5455461, 39.6940937 ], [ -1.5454872, 39.6935704 ], [ -1.5464824, 39.692826 ], [ -1.5481271, 39.6911437 ], [ -1.5511333, 39.689037 ], [ -1.5517845, 39.6874504 ], [ -1.5523159, 39.686574 ], [ -1.5525153, 39.6859639 ], [ -1.5524831, 39.6852697 ], [ -1.5523402, 39.6848535 ], [ -1.5523479, 39.6844842 ], [ -1.553131, 39.6832777 ], [ -1.5545418, 39.6804932 ], [ -1.5551213, 39.6795454 ], [ -1.5565204, 39.677869 ], [ -1.5571467, 39.6774713 ], [ -1.5580175, 39.6770857 ], [ -1.5586133, 39.67703 ], [ -1.5590123, 39.6769088 ], [ -1.5594568, 39.6762747 ], [ -1.560014, 39.6752725 ], [ -1.56059, 39.6744868 ], [ -1.5621099, 39.6731631 ], [ -1.5624568, 39.672735 ], [ -1.5625319, 39.671925 ], [ -1.5624073, 39.6711847 ], [ -1.5620128, 39.6705311 ], [ -1.5614157, 39.6700912 ], [ -1.560384, 39.6698082 ], [ -1.5592463, 39.6695778 ], [ -1.5579331, 39.6688137 ], [ -1.556782, 39.667547 ], [ -1.5562421, 39.6671619 ], [ -1.5555153, 39.6667925 ], [ -1.5551067, 39.6662558 ], [ -1.5551788, 39.6655991 ], [ -1.5555724, 39.6651715 ], [ -1.555856, 39.6649858 ], [ -1.5567501, 39.6646005 ], [ -1.5576634, 39.6644046 ], [ -1.5586637, 39.6645161 ], [ -1.560469, 39.6645926 ], [ -1.5610002, 39.6648334 ], [ -1.5615128, 39.6648488 ], [ -1.5621745, 39.6644245 ], [ -1.5628637, 39.6637934 ], [ -1.5628014, 39.6634232 ], [ -1.561818, 39.662501 ], [ -1.5613422, 39.6618374 ], [ -1.5612395, 39.6600432 ], [ -1.5608122, 39.6592901 ], [ -1.5604705, 39.6588984 ], [ -1.5606418, 39.6585131 ], [ -1.5608923, 39.6582369 ], [ -1.5628705, 39.6567118 ], [ -1.5631812, 39.6563462 ], [ -1.5634134, 39.6558265 ], [ -1.5631061, 39.6554713 ], [ -1.5628752, 39.6553603 ], [ -1.558381, 39.6545569 ], [ -1.5580476, 39.6543365 ], [ -1.557788, 39.6539278 ], [ -1.5578874, 39.6536317 ], [ -1.5584581, 39.6530892 ], [ -1.5589302, 39.6528067 ], [ -1.5601518, 39.6523534 ], [ -1.5607551, 39.6519284 ], [ -1.5609103, 39.6517501 ], [ -1.5612506, 39.6510785 ], [ -1.5615956, 39.6507405 ], [ -1.5632149, 39.6496524 ], [ -1.5642325, 39.6483495 ], [ -1.564894, 39.6479252 ], [ -1.5653292, 39.6477324 ], [ -1.5657114, 39.6472866 ], [ -1.5656017, 39.6469519 ], [ -1.5650533, 39.6464226 ], [ -1.5649579, 39.6459619 ], [ -1.5651124, 39.645252 ], [ -1.5650819, 39.6450354 ], [ -1.5635148, 39.6436105 ], [ -1.5629812, 39.6429282 ], [ -1.5621, 39.6415838 ], [ -1.5616053, 39.6401541 ], [ -1.5612617, 39.6387354 ], [ -1.5601443, 39.6375502 ], [ -1.5583685, 39.6360866 ], [ -1.5578141, 39.6352869 ], [ -1.5574742, 39.6348232 ], [ -1.5560678, 39.6340939 ], [ -1.5553141, 39.6339134 ], [ -1.5546467, 39.6340673 ], [ -1.5533897, 39.6339975 ], [ -1.5526424, 39.6335107 ], [ -1.5520058, 39.6327459 ], [ -1.5517758, 39.6320403 ], [ -1.5505835, 39.6299892 ], [ -1.5500945, 39.6294155 ], [ -1.5486103, 39.6279554 ], [ -1.5484191, 39.6276286 ], [ -1.5485435, 39.6272518 ], [ -1.5489662, 39.6265363 ], [ -1.5501741, 39.6222537 ], [ -1.5505155, 39.6204109 ], [ -1.5505491, 39.6193572 ], [ -1.5496999, 39.6176257 ], [ -1.5495507, 39.6169572 ], [ -1.5495925, 39.6166333 ], [ -1.5500439, 39.6162155 ], [ -1.5525927, 39.6152111 ], [ -1.552829, 39.6150519 ], [ -1.5531863, 39.6146779 ], [ -1.5535595, 39.614097 ], [ -1.5536636, 39.6135757 ], [ -1.5536251, 39.6131878 ], [ -1.5532963, 39.6127512 ], [ -1.5529274, 39.6125665 ], [ -1.5524986, 39.612462 ], [ -1.5521496, 39.6124396 ], [ -1.5503348, 39.6128765 ], [ -1.5495822, 39.6132185 ], [ -1.5490674, 39.6133292 ], [ -1.5485205, 39.6132953 ], [ -1.5478479, 39.6131518 ], [ -1.5451111, 39.6120093 ], [ -1.5436629, 39.6116308 ], [ -1.5434339, 39.6114387 ], [ -1.5430612, 39.6108844 ], [ -1.5427175, 39.6106098 ], [ -1.5423137, 39.6104245 ], [ -1.5414534, 39.6103417 ], [ -1.540414, 39.6099141 ], [ -1.5390019, 39.6089323 ], [ -1.5372804, 39.6071538 ], [ -1.5367762, 39.60676 ], [ -1.5333402, 39.6051038 ], [ -1.5315673, 39.6041174 ], [ -1.5312284, 39.6041672 ], [ -1.5304949, 39.6047076 ], [ -1.5302803, 39.6049391 ], [ -1.5297835, 39.6053022 ], [ -1.5293967, 39.6054144 ], [ -1.5290602, 39.6053561 ], [ -1.5276401, 39.6047615 ], [ -1.5229096, 39.5999082 ], [ -1.5227103, 39.5994192 ], [ -1.5229382, 39.5985571 ], [ -1.5242433, 39.5974294 ], [ -1.5256823, 39.5965738 ], [ -1.5262072, 39.5959858 ], [ -1.5264089, 39.5952585 ], [ -1.5266741, 39.5937392 ], [ -1.5265762, 39.592864 ], [ -1.5262735, 39.5923106 ], [ -1.5258881, 39.5918101 ], [ -1.523271, 39.5905696 ], [ -1.5226628, 39.5901474 ], [ -1.5208468, 39.5884755 ], [ -1.5203371, 39.5883519 ], [ -1.5198881, 39.5875623 ], [ -1.5195587, 39.5871707 ], [ -1.5191015, 39.5867684 ], [ -1.5180571, 39.5860523 ], [ -1.5173638, 39.5858002 ], [ -1.5170091, 39.5855074 ], [ -1.5168173, 39.5852166 ], [ -1.5167429, 39.5848823 ], [ -1.5168295, 39.5840996 ], [ -1.5175318, 39.5833787 ], [ -1.517759, 39.5831023 ], [ -1.5179242, 39.5829963 ], [ -1.5180814, 39.582728 ], [ -1.5181451, 39.5824675 ], [ -1.5184824, 39.5819403 ], [ -1.5187561, 39.5816645 ], [ -1.5190611, 39.5810106 ], [ -1.5191325, 39.5803899 ], [ -1.5190985, 39.5798037 ], [ -1.5190128, 39.5794513 ], [ -1.5188008, 39.5790161 ], [ -1.5178383, 39.5777424 ], [ -1.5175168, 39.5775311 ], [ -1.5170754, 39.5774804 ], [ -1.5164921, 39.577536 ], [ -1.5156795, 39.5779671 ], [ -1.5154185, 39.5781981 ], [ -1.514937, 39.5783901 ], [ -1.5145859, 39.5784757 ], [ -1.5143389, 39.5785897 ], [ -1.5134862, 39.5792636 ], [ -1.5128391, 39.5795796 ], [ -1.5122451, 39.57959 ], [ -1.511665, 39.5794925 ], [ -1.5112161, 39.5792525 ], [ -1.5108164, 39.578887 ], [ -1.510321, 39.5780968 ], [ -1.5102788, 39.577889 ], [ -1.5103991, 39.5777103 ], [ -1.5107188, 39.5774622 ], [ -1.5119508, 39.5770184 ], [ -1.5124454, 39.5767544 ], [ -1.5131307, 39.5762857 ], [ -1.5135587, 39.5758767 ], [ -1.5136438, 39.5757066 ], [ -1.5136848, 39.5754189 ], [ -1.5135505, 39.5751649 ], [ -1.5133216, 39.5749818 ], [ -1.5129513, 39.5748779 ], [ -1.5120865, 39.575029 ], [ -1.5115508, 39.5750312 ], [ -1.5099636, 39.5746684 ], [ -1.5092013, 39.5743884 ], [ -1.5083651, 39.5737469 ], [ -1.5078, 39.5734964 ], [ -1.5075089, 39.5734926 ], [ -1.5067954, 39.5736547 ], [ -1.5064704, 39.5736054 ], [ -1.5056376, 39.5733515 ], [ -1.504659, 39.5728433 ], [ -1.5044438, 39.5725613 ], [ -1.5043695, 39.5722269 ], [ -1.5044941, 39.5718501 ], [ -1.5048323, 39.5712778 ], [ -1.5048723, 39.5710441 ], [ -1.5048408, 39.5708816 ], [ -1.5045859, 39.5708242 ], [ -1.5043852, 39.5704162 ], [ -1.50408, 39.5699887 ], [ -1.5037243, 39.5692093 ], [ -1.5036282, 39.5688026 ], [ -1.5036629, 39.5682715 ], [ -1.5038396, 39.5676341 ], [ -1.5040681, 39.5672946 ], [ -1.5044026, 39.5658124 ], [ -1.5044367, 39.5642271 ], [ -1.5043622, 39.5639017 ], [ -1.4961861, 39.5662559 ], [ -1.4904524, 39.567623 ], [ -1.4861017, 39.5685485 ], [ -1.4834922, 39.5691632 ], [ -1.4785564, 39.5691527 ], [ -1.4767993, 39.5691207 ], [ -1.4720575, 39.5708784 ], [ -1.4701399, 39.5717902 ], [ -1.4620816, 39.5766212 ], [ -1.4617959, 39.5769057 ], [ -1.4614601, 39.5773517 ], [ -1.460658, 39.5788728 ], [ -1.4603086, 39.5793998 ], [ -1.4595882, 39.5809128 ], [ -1.4592864, 39.5813954 ], [ -1.4575757, 39.583454 ], [ -1.4575441, 39.5835002 ], [ -1.4561919, 39.5854718 ], [ -1.454969, 39.5875819 ], [ -1.4529837, 39.5915017 ], [ -1.4500332, 39.5994719 ], [ -1.4456839, 39.6112169 ], [ -1.4409771, 39.6190374 ], [ -1.4365167, 39.628807 ], [ -1.4251779, 39.6448173 ], [ -1.4179315, 39.6549358 ], [ -1.4144159, 39.657798 ], [ -1.4040051, 39.6659803 ], [ -1.4021193, 39.6668733 ], [ -1.401797, 39.6672022 ], [ -1.4007958, 39.667648 ], [ -1.3986671, 39.668961 ], [ -1.3932993, 39.6726979 ], [ -1.3849618, 39.6787718 ], [ -1.3685344, 39.6896149 ], [ -1.3714394, 39.6935297 ], [ -1.3738217, 39.6968697 ], [ -1.3740797, 39.6973057 ], [ -1.3758656, 39.702214 ], [ -1.3775069, 39.7063362 ], [ -1.3790191, 39.7105017 ], [ -1.3811773, 39.7159827 ], [ -1.3813342, 39.7162551 ], [ -1.3824812, 39.7175955 ], [ -1.38266, 39.7179314 ], [ -1.3810042, 39.7453152 ], [ -1.3810552, 39.7456312 ], [ -1.3812597, 39.7458683 ], [ -1.3821806, 39.7464127 ], [ -1.3826739, 39.7467799 ], [ -1.3830276, 39.7471272 ] ] ] } }
]
}
