{
"type": "FeatureCollection",
"name": "17019",
"features": [
{ "type": "Feature", "properties": { "CCAA": "09 - Cataluña", "PROVINCIA": "17 - Girona", "MUNICIPIO": "17019 - Besalú", "COD_MUNICIPIO": "17019", "DISTRITO": "01", "SECCION": "1701901001", "V1_H": 81.02, "V1_M": 86.64, "V2_H": 80.81080237, "V2_M": 86.47452022, "V3_H": 81.32513937, "V3_M": 86.89244175 }, "geometry": { "type": "Polygon", "coordinates": [ [ [ 2.718173, 42.1978197 ], [ 2.7183771, 42.1987367 ], [ 2.718526, 42.2030592 ], [ 2.7182138, 42.203489 ], [ 2.716883, 42.205374 ], [ 2.7158171, 42.2060394 ], [ 2.7139688, 42.207023 ], [ 2.7100507, 42.2098925 ], [ 2.708911, 42.2097424 ], [ 2.7066796, 42.2091696 ], [ 2.7062094, 42.2089231 ], [ 2.7056184, 42.2084124 ], [ 2.7045973, 42.2089045 ], [ 2.7017693, 42.2103059 ], [ 2.7003206, 42.2110263 ], [ 2.6999103, 42.2102366 ], [ 2.6991186, 42.210051 ], [ 2.6975993, 42.2091815 ], [ 2.6964941, 42.2088765 ], [ 2.6954252, 42.2088398 ], [ 2.6951059, 42.2083876 ], [ 2.6933826, 42.2076722 ], [ 2.6926839, 42.2086522 ], [ 2.691558, 42.2087893 ], [ 2.6910485, 42.2106601 ], [ 2.6899304, 42.2103467 ], [ 2.6896867, 42.2097917 ], [ 2.68885, 42.2096443 ], [ 2.6898219, 42.2082006 ], [ 2.6887143, 42.2075986 ], [ 2.685212, 42.2077008 ], [ 2.6845781, 42.2080564 ], [ 2.6833763, 42.2069459 ], [ 2.6825854, 42.2064991 ], [ 2.682017, 42.2056992 ], [ 2.6810655, 42.2054854 ], [ 2.680286, 42.2055691 ], [ 2.6792854, 42.2048086 ], [ 2.6784689, 42.2050202 ], [ 2.6782213, 42.2045554 ], [ 2.6773268, 42.2043028 ], [ 2.6777744, 42.2037584 ], [ 2.6760048, 42.2031982 ], [ 2.6751712, 42.2020063 ], [ 2.6803965, 42.2000633 ], [ 2.6841286, 42.1984825 ], [ 2.6852679, 42.1982278 ], [ 2.6859918, 42.1979307 ], [ 2.6858308, 42.1970835 ], [ 2.6871901, 42.1964487 ], [ 2.686899, 42.195635 ], [ 2.6892201, 42.1950604 ], [ 2.6909426, 42.1945606 ], [ 2.6910944, 42.1942289 ], [ 2.6907349, 42.1934636 ], [ 2.6916067, 42.1936003 ], [ 2.6918491, 42.1929311 ], [ 2.6928069, 42.1932164 ], [ 2.6934601, 42.1929409 ], [ 2.6946089, 42.1927936 ], [ 2.6954323, 42.1925275 ], [ 2.696284, 42.1925751 ], [ 2.6963415, 42.1918701 ], [ 2.6978313, 42.192417 ], [ 2.6981739, 42.192994 ], [ 2.6989219, 42.1929657 ], [ 2.6994202, 42.193391 ], [ 2.7002107, 42.1931626 ], [ 2.7020344, 42.1929816 ], [ 2.702505, 42.192427 ], [ 2.7032011, 42.1930314 ], [ 2.7038923, 42.193447 ], [ 2.7051925, 42.1937692 ], [ 2.7059518, 42.1938663 ], [ 2.7069736, 42.1936533 ], [ 2.7070922, 42.1930892 ], [ 2.7080765, 42.1932651 ], [ 2.7081813, 42.193755 ], [ 2.7090839, 42.1942321 ], [ 2.7115469, 42.1946942 ], [ 2.7113642, 42.1954865 ], [ 2.7117073, 42.1955323 ], [ 2.7120753, 42.1955859 ], [ 2.7130083, 42.1967996 ], [ 2.7143501, 42.1967775 ], [ 2.7148469, 42.1971848 ], [ 2.7155808, 42.1975352 ], [ 2.7170077, 42.1973828 ], [ 2.7180608, 42.1971141 ], [ 2.7180673, 42.1971858 ], [ 2.7181626, 42.1977573 ], [ 2.718173, 42.1978197 ] ] ] } }
]
}
