{
"type": "FeatureCollection",
"name": "17023",
"features": [
{ "type": "Feature", "properties": { "CCAA": "09 - Cataluña", "PROVINCIA": "17 - Girona", "MUNICIPIO": "17023 - Blanes", "COD_MUNICIPIO": "17023", "DISTRITO": "02", "SECCION": "1702302001", "V1_H": 80.54, "V1_M": 86.2, "V2_H": 80.39552864, "V2_M": 86.0597654, "V3_H": 80.75568151, "V3_M": 86.47868922000001 }, "geometry": { "type": "Polygon", "coordinates": [ [ [ 2.7899982, 41.675867 ], [ 2.7880656, 41.6768447 ], [ 2.7868488, 41.6752209 ], [ 2.786816, 41.6751975 ], [ 2.7864774, 41.6749558 ], [ 2.7860977, 41.6748951 ], [ 2.7859704, 41.6747905 ], [ 2.785986, 41.6744676 ], [ 2.785968, 41.6742817 ], [ 2.7859669, 41.6742808 ], [ 2.7860759, 41.6741705 ], [ 2.7862899, 41.6734771 ], [ 2.7864711, 41.6732187 ], [ 2.7868326, 41.6729842 ], [ 2.7871795, 41.6724263 ], [ 2.7872926, 41.6722875 ], [ 2.7873636, 41.6721717 ], [ 2.7878594, 41.6716334 ], [ 2.7880145, 41.671424 ], [ 2.7880406, 41.6714353 ], [ 2.7881519, 41.6714834 ], [ 2.7882741, 41.6715683 ], [ 2.7883303, 41.6716367 ], [ 2.7884337, 41.6717145 ], [ 2.7884837, 41.6717664 ], [ 2.7885902, 41.671823 ], [ 2.7887189, 41.6718468 ], [ 2.7889135, 41.6718589 ], [ 2.7890389, 41.6718944 ], [ 2.7891736, 41.6719559 ], [ 2.7892928, 41.6720031 ], [ 2.7893972, 41.6720959 ], [ 2.78945, 41.6722442 ], [ 2.7894306, 41.6724512 ], [ 2.7893829, 41.6726711 ], [ 2.7893542, 41.6728098 ], [ 2.789379, 41.6729039 ], [ 2.7894104, 41.6729181 ], [ 2.7898529, 41.6729378 ], [ 2.790108, 41.6726629 ], [ 2.7901927, 41.6726607 ], [ 2.7902209, 41.6727032 ], [ 2.7902296, 41.6731302 ], [ 2.7902319, 41.673415 ], [ 2.7902189, 41.6735467 ], [ 2.7901678, 41.6738336 ], [ 2.7900727, 41.6741087 ], [ 2.7898924, 41.674642 ], [ 2.7898573, 41.6748113 ], [ 2.7898193, 41.674896 ], [ 2.7898468, 41.6751595 ], [ 2.7898836, 41.6753939 ], [ 2.7899982, 41.675867 ] ] ] } },
{ "type": "Feature", "properties": { "CCAA": "09 - Cataluña", "PROVINCIA": "17 - Girona", "MUNICIPIO": "17023 - Blanes", "COD_MUNICIPIO": "17023", "DISTRITO": "02", "SECCION": "1702302003", "V1_H": 79.94, "V1_M": 85.93, "V2_H": 80.18978947, "V2_M": 86.02067046000001, "V3_H": 79.89390484, "V3_M": 85.97042077 }, "geometry": { "type": "Polygon", "coordinates": [ [ [ 2.7914083, 41.6789454 ], [ 2.7915577, 41.6790666 ], [ 2.7918055, 41.6792367 ], [ 2.7920241, 41.6793904 ], [ 2.7922501, 41.6795276 ], [ 2.7924178, 41.6795991 ], [ 2.7925562, 41.6796979 ], [ 2.7926583, 41.6797802 ], [ 2.7926434, 41.6798458 ], [ 2.7925935, 41.680012 ], [ 2.7925784, 41.6801598 ], [ 2.7926219, 41.6802803 ], [ 2.7927242, 41.6804625 ], [ 2.7927064, 41.6805414 ], [ 2.7928118, 41.6806649 ], [ 2.7929602, 41.680809 ], [ 2.7930812, 41.6809384 ], [ 2.7931548, 41.6811999 ], [ 2.7932138, 41.6813187 ], [ 2.7932252, 41.6814362 ], [ 2.7931932, 41.6816387 ], [ 2.79322, 41.6818472 ], [ 2.7932547, 41.6820088 ], [ 2.7933363, 41.6823889 ], [ 2.7933982, 41.6826268 ], [ 2.7934762, 41.6827385 ], [ 2.7936672, 41.6830383 ], [ 2.7938783, 41.6833897 ], [ 2.7940384, 41.6835426 ], [ 2.7942182, 41.6836898 ], [ 2.7944175, 41.6838516 ], [ 2.7945465, 41.6839546 ], [ 2.7946362, 41.6840429 ], [ 2.7946525, 41.6841703 ], [ 2.7946755, 41.6843377 ], [ 2.7946831, 41.684417 ], [ 2.7949522, 41.684808 ], [ 2.7953075, 41.6853034 ], [ 2.7954437, 41.6855972 ], [ 2.7955294, 41.6857618 ], [ 2.7957183, 41.6858634 ], [ 2.7959059, 41.6860194 ], [ 2.7961521, 41.6862077 ], [ 2.7965743, 41.6865021 ], [ 2.7964171, 41.6866603 ], [ 2.7962515, 41.6867988 ], [ 2.7951211, 41.6860972 ], [ 2.7943664, 41.6856143 ], [ 2.7941114, 41.6854072 ], [ 2.7939437, 41.6851485 ], [ 2.7938975, 41.6849047 ], [ 2.7938667, 41.6847256 ], [ 2.793836, 41.6845141 ], [ 2.7937343, 41.6841776 ], [ 2.7936177, 41.6838896 ], [ 2.793536, 41.6836869 ], [ 2.7932428, 41.6833089 ], [ 2.7930986, 41.6830708 ], [ 2.7928761, 41.6827944 ], [ 2.7926144, 41.6825649 ], [ 2.7922739, 41.6822134 ], [ 2.7919734, 41.6818429 ], [ 2.7917967, 41.6816945 ], [ 2.7915548, 41.6813916 ], [ 2.791403, 41.6810831 ], [ 2.791294, 41.6808538 ], [ 2.7912554, 41.6806776 ], [ 2.7913817, 41.6803901 ], [ 2.791456, 41.6802707 ], [ 2.7915076, 41.6799992 ], [ 2.7915042, 41.6798145 ], [ 2.7914773, 41.6796976 ], [ 2.7913612, 41.6794541 ], [ 2.791279, 41.6793461 ], [ 2.791191, 41.6792457 ], [ 2.7909824, 41.6790886 ], [ 2.7908852, 41.6790242 ], [ 2.7907898, 41.6789769 ], [ 2.7907184, 41.678909 ], [ 2.7910512, 41.6787624 ], [ 2.7911922, 41.6787702 ], [ 2.7913683, 41.678913 ], [ 2.7914083, 41.6789454 ] ] ] } },
{ "type": "Feature", "properties": { "CCAA": "09 - Cataluña", "PROVINCIA": "17 - Girona", "MUNICIPIO": "17023 - Blanes", "COD_MUNICIPIO": "17023", "DISTRITO": "01", "SECCION": "1702301007", "V1_H": 82.08, "V1_M": 87.23, "V2_H": 81.77226367, "V2_M": 87.02227373, "V3_H": 82.52263661000001, "V3_M": 87.52638345 }, "geometry": { "type": "Polygon", "coordinates": [ [ [ 2.8160249, 41.687013 ], [ 2.8159177, 41.6871723 ], [ 2.8158192, 41.6873225 ], [ 2.8157518, 41.6874288 ], [ 2.8156895, 41.6875246 ], [ 2.8156092, 41.6875721 ], [ 2.8155499, 41.6876077 ], [ 2.815442, 41.6876801 ], [ 2.8152929, 41.6877339 ], [ 2.8150697, 41.6878133 ], [ 2.8148009, 41.688011 ], [ 2.8146836, 41.688021 ], [ 2.8145233, 41.6880339 ], [ 2.8143909, 41.6881158 ], [ 2.8142283, 41.6882155 ], [ 2.8138666, 41.6884103 ], [ 2.813603, 41.6885483 ], [ 2.8132398, 41.688681 ], [ 2.8129945, 41.6888181 ], [ 2.8130349, 41.6887589 ], [ 2.8128354, 41.6888982 ], [ 2.8124081, 41.6890243 ], [ 2.8117007, 41.6892412 ], [ 2.8110407, 41.6894481 ], [ 2.8106499, 41.6895689 ], [ 2.8107903, 41.6898571 ], [ 2.8099631, 41.6901022 ], [ 2.8095516, 41.6902255 ], [ 2.807998, 41.6906853 ], [ 2.8065044, 41.6911442 ], [ 2.8064849, 41.6911308 ], [ 2.806435, 41.6911457 ], [ 2.8061268, 41.6912116 ], [ 2.8062637, 41.6911018 ], [ 2.8059432, 41.6908993 ], [ 2.8054985, 41.6906254 ], [ 2.8041414, 41.6897511 ], [ 2.8038806, 41.6896093 ], [ 2.8035762, 41.6894456 ], [ 2.8031893, 41.6893334 ], [ 2.8020746, 41.6890962 ], [ 2.8021516, 41.6886743 ], [ 2.8022066, 41.6883985 ], [ 2.8021531, 41.6881874 ], [ 2.8018612, 41.6880246 ], [ 2.8015041, 41.6879185 ], [ 2.8012009, 41.687918 ], [ 2.8010168, 41.6879176 ], [ 2.8008762, 41.6878606 ], [ 2.8007898, 41.6877955 ], [ 2.8007903, 41.6876413 ], [ 2.8008447, 41.6875522 ], [ 2.8009857, 41.6874631 ], [ 2.801181, 41.687366 ], [ 2.8013871, 41.6872366 ], [ 2.8015716, 41.6870989 ], [ 2.8015938, 41.6869285 ], [ 2.8014859, 41.6867822 ], [ 2.8013131, 41.6866359 ], [ 2.8011069, 41.6864362 ], [ 2.8010097, 41.6863387 ], [ 2.8009017, 41.686233 ], [ 2.8009237, 41.6861113 ], [ 2.8009784, 41.6859409 ], [ 2.8010653, 41.6858599 ], [ 2.8013795, 41.6857956 ], [ 2.8016288, 41.6857392 ], [ 2.8018131, 41.6856746 ], [ 2.8019544, 41.68548 ], [ 2.8020851, 41.6852287 ], [ 2.8022493, 41.6848847 ], [ 2.8026474, 41.6840429 ], [ 2.8027688, 41.6837936 ], [ 2.8027693, 41.6836345 ], [ 2.802736, 41.6834826 ], [ 2.8026014, 41.6833233 ], [ 2.8022936, 41.6829938 ], [ 2.8021142, 41.6827986 ], [ 2.8019461, 41.6826113 ], [ 2.8019463, 41.6825203 ], [ 2.8019871, 41.6824497 ], [ 2.8020886, 41.6823234 ], [ 2.8022643, 41.6822176 ], [ 2.8023387, 41.6821318 ], [ 2.8021975, 41.681995 ], [ 2.8020141, 41.6817858 ], [ 2.8017852, 41.6816237 ], [ 2.8014483, 41.6815068 ], [ 2.8008484, 41.6813946 ], [ 2.8006058, 41.6813032 ], [ 2.8004105, 41.6812169 ], [ 2.8002354, 41.6811509 ], [ 2.8001342, 41.6811457 ], [ 2.7999387, 41.6811201 ], [ 2.799619, 41.681018 ], [ 2.7993561, 41.6809418 ], [ 2.7990462, 41.6808452 ], [ 2.7987392, 41.680751 ], [ 2.7986486, 41.6807232 ], [ 2.7983251, 41.6806468 ], [ 2.7979748, 41.6805299 ], [ 2.7976922, 41.6804199 ], [ 2.7972382, 41.6802702 ], [ 2.796987, 41.6801581 ], [ 2.7963457, 41.6799164 ], [ 2.7960449, 41.6797769 ], [ 2.7959015, 41.679669 ], [ 2.7955283, 41.6794302 ], [ 2.7941417, 41.678804 ], [ 2.7938409, 41.6786843 ], [ 2.7936953, 41.6786767 ], [ 2.7932309, 41.67807 ], [ 2.7930384, 41.6778186 ], [ 2.7929356, 41.677705 ], [ 2.7927486, 41.6775092 ], [ 2.7927467, 41.6775076 ], [ 2.7929688, 41.6773948 ], [ 2.7934829, 41.6771131 ], [ 2.7942787, 41.6766798 ], [ 2.7943822, 41.6768119 ], [ 2.7947022, 41.6762959 ], [ 2.7948212, 41.6763738 ], [ 2.7950201, 41.6763217 ], [ 2.7954461, 41.676304 ], [ 2.7955048, 41.6762781 ], [ 2.7955445, 41.676154 ], [ 2.7955853, 41.6760985 ], [ 2.7956223, 41.675944 ], [ 2.7956381, 41.6758936 ], [ 2.7965511, 41.676084 ], [ 2.7987991, 41.6765731 ], [ 2.7988685, 41.6763826 ], [ 2.7987771, 41.6762155 ], [ 2.7982453, 41.6752129 ], [ 2.7988525, 41.6753166 ], [ 2.7991329, 41.6752303 ], [ 2.7995425, 41.6752456 ], [ 2.8000824, 41.6749752 ], [ 2.8004962, 41.6745041 ], [ 2.8006794, 41.6744048 ], [ 2.800903, 41.6740875 ], [ 2.8008669, 41.6739542 ], [ 2.7978831, 41.672287 ], [ 2.7977924, 41.6723456 ], [ 2.7975659, 41.672231 ], [ 2.7977761, 41.6720313 ], [ 2.8009344, 41.6737708 ], [ 2.8020095, 41.6738423 ], [ 2.8025112, 41.6735468 ], [ 2.8025954, 41.6734165 ], [ 2.8024761, 41.6728915 ], [ 2.8025508, 41.6727887 ], [ 2.8026823, 41.672782 ], [ 2.8032824, 41.6734447 ], [ 2.8033696, 41.6737464 ], [ 2.8036018, 41.6740587 ], [ 2.8038473, 41.6741182 ], [ 2.8038236, 41.6742545 ], [ 2.8036739, 41.6743251 ], [ 2.8038345, 41.674641 ], [ 2.8038531, 41.6748471 ], [ 2.8035627, 41.6752219 ], [ 2.8032873, 41.6754969 ], [ 2.8033576, 41.6756104 ], [ 2.8037258, 41.6756998 ], [ 2.804191, 41.6755321 ], [ 2.8043218, 41.6756515 ], [ 2.8046636, 41.6755802 ], [ 2.8049083, 41.6756308 ], [ 2.8051792, 41.675572 ], [ 2.8053761, 41.6756251 ], [ 2.8057326, 41.6758501 ], [ 2.806127, 41.6758301 ], [ 2.8062809, 41.6759393 ], [ 2.8063139, 41.6761717 ], [ 2.8064168, 41.6762475 ], [ 2.806498, 41.6762164 ], [ 2.8064764, 41.6761094 ], [ 2.8065983, 41.6761302 ], [ 2.8067101, 41.6763046 ], [ 2.8069038, 41.6763218 ], [ 2.8070049, 41.6762446 ], [ 2.8071515, 41.6762732 ], [ 2.8071629, 41.6763987 ], [ 2.8072769, 41.6764649 ], [ 2.8072994, 41.6765808 ], [ 2.8074724, 41.676635 ], [ 2.8075775, 41.6766027 ], [ 2.8076037, 41.6764933 ], [ 2.8078986, 41.6765684 ], [ 2.8080064, 41.676698 ], [ 2.8083554, 41.6767072 ], [ 2.8084814, 41.6767729 ], [ 2.8085039, 41.6768887 ], [ 2.8083256, 41.6770419 ], [ 2.8084128, 41.6773435 ], [ 2.8083835, 41.677417 ], [ 2.8081205, 41.6774303 ], [ 2.8081391, 41.6776364 ], [ 2.808196, 41.6778676 ], [ 2.8078894, 41.6780631 ], [ 2.8077753, 41.6785281 ], [ 2.8078792, 41.6787478 ], [ 2.808018, 41.6788219 ], [ 2.8081861, 41.6788223 ], [ 2.8082864, 41.6787362 ], [ 2.808311, 41.6786089 ], [ 2.8084886, 41.6785819 ], [ 2.8090907, 41.6788664 ], [ 2.8094905, 41.6793052 ], [ 2.8104317, 41.6798876 ], [ 2.8108099, 41.6796884 ], [ 2.8109886, 41.6798053 ], [ 2.811181, 41.6800746 ], [ 2.8112491, 41.6797651 ], [ 2.8113456, 41.6797692 ], [ 2.8118779, 41.6803453 ], [ 2.8119148, 41.6804875 ], [ 2.8116435, 41.6808073 ], [ 2.811666, 41.6809232 ], [ 2.8118126, 41.6809518 ], [ 2.8123321, 41.6808534 ], [ 2.8125385, 41.6808789 ], [ 2.8129708, 41.681145 ], [ 2.8131736, 41.6813958 ], [ 2.8132003, 41.6816915 ], [ 2.8133024, 41.6817583 ], [ 2.8134825, 41.6817582 ], [ 2.8136732, 41.6818745 ], [ 2.813843, 41.6818929 ], [ 2.81405, 41.6817924 ], [ 2.8142007, 41.6818658 ], [ 2.8140593, 41.682161 ], [ 2.8140962, 41.6823032 ], [ 2.8144622, 41.6825006 ], [ 2.8146671, 41.6825082 ], [ 2.8148416, 41.6824453 ], [ 2.8153176, 41.6821331 ], [ 2.8154269, 41.6821455 ], [ 2.8158081, 41.6823782 ], [ 2.8162834, 41.6825881 ], [ 2.8161548, 41.6828918 ], [ 2.8162854, 41.6839383 ], [ 2.8165387, 41.6843486 ], [ 2.8163877, 41.6852024 ], [ 2.8165224, 41.6857627 ], [ 2.8169971, 41.6863482 ], [ 2.8164571, 41.68676 ], [ 2.8161045, 41.6868941 ], [ 2.8160249, 41.687013 ] ] ] } },
{ "type": "Feature", "properties": { "CCAA": "09 - Cataluña", "PROVINCIA": "17 - Girona", "MUNICIPIO": "17023 - Blanes", "COD_MUNICIPIO": "17023", "DISTRITO": "02", "SECCION": "1702302002", "V1_H": 80.21, "V1_M": 86.09, "V2_H": 80.08965404, "V2_M": 85.91309697, "V3_H": 80.44476746, "V3_M": 86.42186139 }, "geometry": { "type": "Polygon", "coordinates": [ [ [ 2.7911922, 41.6787702 ], [ 2.7910512, 41.6787624 ], [ 2.7907184, 41.678909 ], [ 2.7906228, 41.6788937 ], [ 2.7904367, 41.6788368 ], [ 2.7900142, 41.6786737 ], [ 2.7898282, 41.6785828 ], [ 2.789592, 41.6784126 ], [ 2.7894266, 41.6781669 ], [ 2.7892965, 41.6778184 ], [ 2.7891908, 41.6778069 ], [ 2.7890346, 41.677818 ], [ 2.7887826, 41.6778967 ], [ 2.7885711, 41.6778851 ], [ 2.788254, 41.6777477 ], [ 2.7878364, 41.6776337 ], [ 2.7875344, 41.6775878 ], [ 2.7870313, 41.6774586 ], [ 2.7870013, 41.677383 ], [ 2.7880656, 41.6768447 ], [ 2.7899982, 41.675867 ], [ 2.7900104, 41.675948 ], [ 2.7900666, 41.6760192 ], [ 2.7905807, 41.6761402 ], [ 2.790928, 41.6762051 ], [ 2.7909451, 41.6761516 ], [ 2.7910131, 41.6760807 ], [ 2.7911144, 41.6761451 ], [ 2.7914003, 41.6763757 ], [ 2.7916778, 41.676617 ], [ 2.7919907, 41.6768764 ], [ 2.792191, 41.6770476 ], [ 2.7924094, 41.6772273 ], [ 2.7927467, 41.6775076 ], [ 2.7927486, 41.6775092 ], [ 2.7929356, 41.677705 ], [ 2.7930384, 41.6778186 ], [ 2.7932309, 41.67807 ], [ 2.7931258, 41.6781169 ], [ 2.7929443, 41.6781619 ], [ 2.7927933, 41.6781654 ], [ 2.7925769, 41.6781122 ], [ 2.7923505, 41.6780552 ], [ 2.7921642, 41.6780322 ], [ 2.7919577, 41.6780507 ], [ 2.7917712, 41.6781107 ], [ 2.791645, 41.6782086 ], [ 2.791359, 41.6785894 ], [ 2.7911922, 41.6787702 ] ] ] } },
{ "type": "Feature", "properties": { "CCAA": "09 - Cataluña", "PROVINCIA": "17 - Girona", "MUNICIPIO": "17023 - Blanes", "COD_MUNICIPIO": "17023", "DISTRITO": "03", "SECCION": "1702303004", "V1_H": 80.16, "V1_M": 86.09, "V2_H": 80.12695049, "V2_M": 86.02539962, "V3_H": 80.31827198000001, "V3_M": 86.38244546 }, "geometry": { "type": "Polygon", "coordinates": [ [ [ 2.8061268, 41.6912116 ], [ 2.804577, 41.6924543 ], [ 2.7901638, 41.7040496 ], [ 2.7887228, 41.7072124 ], [ 2.7884427, 41.7067017 ], [ 2.7883744, 41.7064794 ], [ 2.7882899, 41.7063132 ], [ 2.7882425, 41.7061818 ], [ 2.7882223, 41.7060224 ], [ 2.7882013, 41.7057924 ], [ 2.788245, 41.7056028 ], [ 2.7884432, 41.7054224 ], [ 2.7885603, 41.705234 ], [ 2.7885875, 41.705068 ], [ 2.7885561, 41.7048704 ], [ 2.7885672, 41.7046392 ], [ 2.7886425, 41.7043981 ], [ 2.7887262, 41.7042333 ], [ 2.7889298, 41.7039945 ], [ 2.7890462, 41.7038746 ], [ 2.7888972, 41.7038138 ], [ 2.788604, 41.7037202 ], [ 2.7882121, 41.7035446 ], [ 2.7879901, 41.7033849 ], [ 2.7878732, 41.7031939 ], [ 2.7876896, 41.7029165 ], [ 2.7875648, 41.7028377 ], [ 2.787385, 41.702622 ], [ 2.7872714, 41.7024468 ], [ 2.7871407, 41.702258 ], [ 2.7869414, 41.7020725 ], [ 2.7867372, 41.7018636 ], [ 2.7865758, 41.7016579 ], [ 2.786379, 41.7012985 ], [ 2.7863161, 41.7010089 ], [ 2.786384, 41.7006735 ], [ 2.7865054, 41.7004571 ], [ 2.7868233, 41.7003195 ], [ 2.7870532, 41.7002245 ], [ 2.7872975, 41.7000632 ], [ 2.7874638, 41.6999041 ], [ 2.7874634, 41.6997392 ], [ 2.7872938, 41.6996177 ], [ 2.7870344, 41.699394 ], [ 2.7867762, 41.6990076 ], [ 2.7865896, 41.6988693 ], [ 2.7863575, 41.6986276 ], [ 2.7861274, 41.698294 ], [ 2.785912, 41.6980479 ], [ 2.7856694, 41.6975616 ], [ 2.7855522, 41.6972046 ], [ 2.7856368, 41.6969814 ], [ 2.785893, 41.6967932 ], [ 2.7861173, 41.6966174 ], [ 2.7862443, 41.6963628 ], [ 2.786158, 41.6961742 ], [ 2.7861639, 41.6960182 ], [ 2.7862547, 41.6958018 ], [ 2.7865038, 41.6956574 ], [ 2.7866705, 41.6955353 ], [ 2.7868109, 41.6953784 ], [ 2.7870317, 41.6951689 ], [ 2.7872925, 41.6951143 ], [ 2.7875094, 41.6949642 ], [ 2.7875142, 41.6947185 ], [ 2.7874879, 41.6945624 ], [ 2.7875812, 41.6942933 ], [ 2.7878195, 41.6941466 ], [ 2.7880665, 41.6940875 ], [ 2.7882072, 41.6939575 ], [ 2.7884232, 41.6938602 ], [ 2.7897386, 41.6934238 ], [ 2.7902252, 41.6932248 ], [ 2.7904896, 41.6930854 ], [ 2.790702, 41.6930104 ], [ 2.7908473, 41.6929521 ], [ 2.7909481, 41.6928575 ], [ 2.7910081, 41.692707 ], [ 2.7911281, 41.6924312 ], [ 2.7911696, 41.6922695 ], [ 2.7911927, 41.6920593 ], [ 2.7889959, 41.691692 ], [ 2.7883353, 41.6918168 ], [ 2.7874016, 41.6919792 ], [ 2.7872617, 41.6919807 ], [ 2.7861518, 41.6918573 ], [ 2.7861453, 41.691724 ], [ 2.7861188, 41.6915823 ], [ 2.7860591, 41.691481 ], [ 2.7859423, 41.6913998 ], [ 2.7858429, 41.6913344 ], [ 2.7856853, 41.6912312 ], [ 2.7855674, 41.691154 ], [ 2.7854469, 41.6911191 ], [ 2.7853879, 41.6911152 ], [ 2.7852592, 41.691057 ], [ 2.7850512, 41.6910011 ], [ 2.7848849, 41.6909454 ], [ 2.7847064, 41.6908642 ], [ 2.7845309, 41.6907807 ], [ 2.7844121, 41.6906599 ], [ 2.7842784, 41.6905864 ], [ 2.7841233, 41.6904469 ], [ 2.7840707, 41.6903844 ], [ 2.7839532, 41.6901638 ], [ 2.7838989, 41.6900377 ], [ 2.7838679, 41.6899527 ], [ 2.7838291, 41.6898706 ], [ 2.7837578, 41.6897465 ], [ 2.7836544, 41.6895454 ], [ 2.7833958, 41.6891321 ], [ 2.7832333, 41.68888 ], [ 2.7835144, 41.6887289 ], [ 2.783556, 41.6886842 ], [ 2.7835701, 41.6885705 ], [ 2.7835798, 41.6884326 ], [ 2.7835758, 41.68825 ], [ 2.7835763, 41.6881086 ], [ 2.7835491, 41.6879741 ], [ 2.7834943, 41.6878465 ], [ 2.7833336, 41.6877807 ], [ 2.7832411, 41.687731 ], [ 2.7830208, 41.6875859 ], [ 2.7829399, 41.6874918 ], [ 2.7828198, 41.6873436 ], [ 2.7826137, 41.6870448 ], [ 2.7825503, 41.6869373 ], [ 2.7824554, 41.686776 ], [ 2.7823524, 41.6865908 ], [ 2.7822574, 41.6864235 ], [ 2.7819845, 41.6859933 ], [ 2.7819359, 41.6858419 ], [ 2.7820077, 41.6856723 ], [ 2.7822593, 41.6854561 ], [ 2.7824128, 41.6852643 ], [ 2.7825007, 41.6850682 ], [ 2.7825175, 41.6849374 ], [ 2.7825731, 41.6846186 ], [ 2.7825418, 41.6841975 ], [ 2.7825644, 41.6839482 ], [ 2.7825486, 41.6838051 ], [ 2.7825116, 41.683433 ], [ 2.782479, 41.6833122 ], [ 2.7824521, 41.68321 ], [ 2.7824633, 41.6831201 ], [ 2.7825796, 41.6830148 ], [ 2.7827476, 41.6829957 ], [ 2.7833421, 41.6829194 ], [ 2.7840793, 41.6826594 ], [ 2.7845839, 41.6824279 ], [ 2.7848685, 41.6822929 ], [ 2.785179, 41.6821483 ], [ 2.7855156, 41.6819553 ], [ 2.7859167, 41.6817333 ], [ 2.7862532, 41.6815694 ], [ 2.7865639, 41.6813376 ], [ 2.7868105, 41.6809992 ], [ 2.7869326, 41.6808223 ], [ 2.7872562, 41.6809884 ], [ 2.7877299, 41.68131 ], [ 2.7885272, 41.6818307 ], [ 2.7906893, 41.6831977 ], [ 2.7925684, 41.6844375 ], [ 2.7936294, 41.685131 ], [ 2.7941114, 41.6854072 ], [ 2.7943664, 41.6856143 ], [ 2.7951211, 41.6860972 ], [ 2.7962515, 41.6867988 ], [ 2.796607, 41.6869994 ], [ 2.7971206, 41.6873059 ], [ 2.7978703, 41.6877358 ], [ 2.7985047, 41.6881015 ], [ 2.7990224, 41.688368 ], [ 2.799445, 41.6885344 ], [ 2.7999592, 41.688681 ], [ 2.8009868, 41.6888918 ], [ 2.8015354, 41.6889813 ], [ 2.8020746, 41.6890962 ], [ 2.8031893, 41.6893334 ], [ 2.8035762, 41.6894456 ], [ 2.8038806, 41.6896093 ], [ 2.8041414, 41.6897511 ], [ 2.8054985, 41.6906254 ], [ 2.8059432, 41.6908993 ], [ 2.8062637, 41.6911018 ], [ 2.8061268, 41.6912116 ] ] ] } },
{ "type": "Feature", "properties": { "CCAA": "09 - Cataluña", "PROVINCIA": "17 - Girona", "MUNICIPIO": "17023 - Blanes", "COD_MUNICIPIO": "17023", "DISTRITO": "01", "SECCION": "1702301006", "V1_H": 80.23, "V1_M": 86.04, "V2_H": 80.01377171, "V2_M": 86.1814847, "V3_H": 80.55154758, "V3_M": 86.06989916000001 }, "geometry": { "type": "Polygon", "coordinates": [ [ [ 2.7856457, 41.6640894 ], [ 2.7829252, 41.6651899 ], [ 2.7814697, 41.6657747 ], [ 2.7819048, 41.6665363 ], [ 2.7823062, 41.6672998 ], [ 2.7797378, 41.668166 ], [ 2.7796634, 41.6681649 ], [ 2.7793681, 41.6681248 ], [ 2.7791782, 41.6681086 ], [ 2.7790831, 41.6680453 ], [ 2.7785404, 41.6678276 ], [ 2.7780554, 41.6676446 ], [ 2.7773855, 41.6674353 ], [ 2.7768542, 41.6672523 ], [ 2.7763805, 41.66713 ], [ 2.7757912, 41.6670249 ], [ 2.775375, 41.6670154 ], [ 2.775109, 41.6670235 ], [ 2.7745073, 41.667161 ], [ 2.774056, 41.6672468 ], [ 2.7735701, 41.6673153 ], [ 2.7732232, 41.6673232 ], [ 2.7726217, 41.6673741 ], [ 2.7722401, 41.6673906 ], [ 2.7718353, 41.6674419 ], [ 2.7715806, 41.6675194 ], [ 2.771349, 41.6676056 ], [ 2.7710336, 41.6676997 ], [ 2.7705014, 41.6677767 ], [ 2.7702006, 41.6678281 ], [ 2.7697608, 41.6679572 ], [ 2.7695176, 41.6680521 ], [ 2.7692513, 41.6681556 ], [ 2.7690081, 41.6682591 ], [ 2.768927, 41.6683196 ], [ 2.7688476, 41.6682837 ], [ 2.7686552, 41.6681776 ], [ 2.7683876, 41.6679547 ], [ 2.7676987, 41.6673829 ], [ 2.7669802, 41.6668645 ], [ 2.7666919, 41.6666514 ], [ 2.7661309, 41.6662685 ], [ 2.7657494, 41.6660106 ], [ 2.7680259, 41.6638749 ], [ 2.7703931, 41.6613506 ], [ 2.7713073, 41.6603757 ], [ 2.7713129, 41.6603701 ], [ 2.7713138, 41.6603687 ], [ 2.7774413, 41.6513791 ], [ 2.7774445, 41.6513734 ], [ 2.7787265, 41.6488063 ], [ 2.7791055, 41.6495523 ], [ 2.7791547, 41.650234 ], [ 2.780619, 41.6533107 ], [ 2.780723, 41.6538005 ], [ 2.7826392, 41.6577636 ], [ 2.782823, 41.6584745 ], [ 2.7832769, 41.6591177 ], [ 2.7832766, 41.6596489 ], [ 2.7838781, 41.6604646 ], [ 2.7855744, 41.6639797 ], [ 2.7856457, 41.6640894 ] ] ] } },
{ "type": "Feature", "properties": { "CCAA": "09 - Cataluña", "PROVINCIA": "17 - Girona", "MUNICIPIO": "17023 - Blanes", "COD_MUNICIPIO": "17023", "DISTRITO": "02", "SECCION": "1702302006", "V1_H": 81.37, "V1_M": 86.85, "V2_H": 81.08688328, "V2_M": 86.76748373, "V3_H": 81.75507894, "V3_M": 87.07522296 }, "geometry": { "type": "Polygon", "coordinates": [ [ [ 2.7987392, 41.680751 ], [ 2.798589, 41.6817132 ], [ 2.79841, 41.6819128 ], [ 2.7968513, 41.6822442 ], [ 2.7961246, 41.6817951 ], [ 2.79572, 41.6816774 ], [ 2.7951907, 41.6815851 ], [ 2.794639, 41.6815273 ], [ 2.7943466, 41.6813849 ], [ 2.7941263, 41.6812674 ], [ 2.7939512, 41.6811572 ], [ 2.7937453, 41.681058 ], [ 2.7933555, 41.6809634 ], [ 2.7931847, 41.6809006 ], [ 2.793123, 41.6807422 ], [ 2.7929659, 41.680658 ], [ 2.7930234, 41.6801393 ], [ 2.793019, 41.6801183 ], [ 2.7930372, 41.6798268 ], [ 2.7929724, 41.6796014 ], [ 2.7927454, 41.6794081 ], [ 2.792536, 41.679271 ], [ 2.7923078, 41.6791348 ], [ 2.791955, 41.6789574 ], [ 2.7914083, 41.6789454 ], [ 2.7913683, 41.678913 ], [ 2.7911922, 41.6787702 ], [ 2.791359, 41.6785894 ], [ 2.791645, 41.6782086 ], [ 2.7917712, 41.6781107 ], [ 2.7919577, 41.6780507 ], [ 2.7921642, 41.6780322 ], [ 2.7923505, 41.6780552 ], [ 2.7925769, 41.6781122 ], [ 2.7927933, 41.6781654 ], [ 2.7929443, 41.6781619 ], [ 2.7931258, 41.6781169 ], [ 2.7932309, 41.67807 ], [ 2.7936953, 41.6786767 ], [ 2.7938409, 41.6786843 ], [ 2.7941417, 41.678804 ], [ 2.7955283, 41.6794302 ], [ 2.7959015, 41.679669 ], [ 2.7960449, 41.6797769 ], [ 2.7963457, 41.6799164 ], [ 2.796987, 41.6801581 ], [ 2.7972382, 41.6802702 ], [ 2.7976922, 41.6804199 ], [ 2.7979748, 41.6805299 ], [ 2.7983251, 41.6806468 ], [ 2.7986486, 41.6807232 ], [ 2.7987392, 41.680751 ] ] ] } },
{ "type": "Feature", "properties": { "CCAA": "09 - Cataluña", "PROVINCIA": "17 - Girona", "MUNICIPIO": "17023 - Blanes", "COD_MUNICIPIO": "17023", "DISTRITO": "01", "SECCION": "1702301001", "V1_H": 81.47, "V1_M": 86.8, "V2_H": 81.3148143, "V2_M": 86.48589846, "V3_H": 81.69126572, "V3_M": 87.1320201 }, "geometry": { "type": "MultiPolygon", "coordinates": [ [ [ [ 2.7923506, 41.6699114 ], [ 2.7924081, 41.6700166 ], [ 2.7926825, 41.6703987 ], [ 2.7927378, 41.670612 ], [ 2.7926413, 41.6706079 ], [ 2.792516, 41.6704162 ], [ 2.7923121, 41.6704175 ], [ 2.7922, 41.669973 ], [ 2.7923506, 41.6699114 ] ] ], [ [ [ 2.7922322, 41.672465 ], [ 2.7929675, 41.6730309 ], [ 2.7932546, 41.6734642 ], [ 2.7929066, 41.6737309 ], [ 2.7925652, 41.6740103 ], [ 2.7922542, 41.6742741 ], [ 2.7917533, 41.6747038 ], [ 2.7910176, 41.6753701 ], [ 2.7908669, 41.6755362 ], [ 2.7904289, 41.6757018 ], [ 2.7899982, 41.675867 ], [ 2.7898836, 41.6753939 ], [ 2.7898468, 41.6751595 ], [ 2.7898193, 41.674896 ], [ 2.7898573, 41.6748113 ], [ 2.7898924, 41.674642 ], [ 2.7900727, 41.6741087 ], [ 2.7901678, 41.6738336 ], [ 2.7902189, 41.6735467 ], [ 2.7902319, 41.673415 ], [ 2.7902296, 41.6731302 ], [ 2.7902209, 41.6727032 ], [ 2.7901927, 41.6726607 ], [ 2.790108, 41.6726629 ], [ 2.7898529, 41.6729378 ], [ 2.7894104, 41.6729181 ], [ 2.789379, 41.6729039 ], [ 2.7893542, 41.6728098 ], [ 2.7893829, 41.6726711 ], [ 2.7894306, 41.6724512 ], [ 2.78945, 41.6722442 ], [ 2.7893972, 41.6720959 ], [ 2.7892928, 41.6720031 ], [ 2.7891736, 41.6719559 ], [ 2.7890389, 41.6718944 ], [ 2.7889135, 41.6718589 ], [ 2.7887189, 41.6718468 ], [ 2.7885902, 41.671823 ], [ 2.7884837, 41.6717664 ], [ 2.7884337, 41.6717145 ], [ 2.7883303, 41.6716367 ], [ 2.7882741, 41.6715683 ], [ 2.7881519, 41.6714834 ], [ 2.7880406, 41.6714353 ], [ 2.7880145, 41.671424 ], [ 2.7878557, 41.671355 ], [ 2.7876991, 41.6712582 ], [ 2.7876053, 41.6711499 ], [ 2.7874398, 41.6708861 ], [ 2.7872735, 41.6708505 ], [ 2.787076, 41.6707936 ], [ 2.7870459, 41.670727 ], [ 2.7870651, 41.6706616 ], [ 2.7871867, 41.6706249 ], [ 2.7873163, 41.6706329 ], [ 2.7874568, 41.6706075 ], [ 2.7876051, 41.6705168 ], [ 2.7877421, 41.6703947 ], [ 2.7878106, 41.6703095 ], [ 2.7877197, 41.6700796 ], [ 2.7877304, 41.66982 ], [ 2.7890476, 41.669251 ], [ 2.789355, 41.6695768 ], [ 2.7896016, 41.6699154 ], [ 2.7897881, 41.669987 ], [ 2.7902036, 41.6703351 ], [ 2.7912892, 41.6706583 ], [ 2.7914381, 41.6705788 ], [ 2.7914503, 41.670047 ], [ 2.7915243, 41.6699352 ], [ 2.7916558, 41.6699285 ], [ 2.7922127, 41.6706476 ], [ 2.7921946, 41.6708465 ], [ 2.7918598, 41.6707284 ], [ 2.7916584, 41.6708917 ], [ 2.7914911, 41.6709001 ], [ 2.7913175, 41.6711069 ], [ 2.7919568, 41.6720738 ], [ 2.7922322, 41.672465 ] ] ] ] } },
{ "type": "Feature", "properties": { "CCAA": "09 - Cataluña", "PROVINCIA": "17 - Girona", "MUNICIPIO": "17023 - Blanes", "COD_MUNICIPIO": "17023", "DISTRITO": "01", "SECCION": "1702301004", "V1_H": 80.3, "V1_M": 86.18, "V2_H": 80.25682951, "V2_M": 86.26310791, "V3_H": 80.49886239, "V3_M": 86.29802272000001 }, "geometry": { "type": "Polygon", "coordinates": [ [ [ 2.7890476, 41.669251 ], [ 2.7877304, 41.66982 ], [ 2.786061, 41.6696385 ], [ 2.7849229, 41.669492 ], [ 2.7833652, 41.6694123 ], [ 2.7825836, 41.6693116 ], [ 2.7822051, 41.6691711 ], [ 2.7816397, 41.669161 ], [ 2.7811703, 41.6690419 ], [ 2.7808821, 41.6688926 ], [ 2.7805338, 41.668698 ], [ 2.7803696, 41.6686181 ], [ 2.7797378, 41.668166 ], [ 2.7823062, 41.6672998 ], [ 2.7819048, 41.6665363 ], [ 2.7814697, 41.6657747 ], [ 2.7829252, 41.6651899 ], [ 2.7856457, 41.6640894 ], [ 2.7860619, 41.6647292 ], [ 2.7865498, 41.6658838 ], [ 2.7871976, 41.6666792 ], [ 2.7875674, 41.6675877 ], [ 2.7877573, 41.6678302 ], [ 2.7881256, 41.6680546 ], [ 2.7882933, 41.6684512 ], [ 2.7890476, 41.669251 ] ] ] } },
{ "type": "Feature", "properties": { "CCAA": "09 - Cataluña", "PROVINCIA": "17 - Girona", "MUNICIPIO": "17023 - Blanes", "COD_MUNICIPIO": "17023", "DISTRITO": "02", "SECCION": "1702302009", "V1_H": 80.53, "V1_M": 86.43, "V2_H": 80.43347749, "V2_M": 86.30479166000001, "V3_H": 80.8868878, "V3_M": 86.74881461 }, "geometry": { "type": "Polygon", "coordinates": [ [ [ 2.7880145, 41.671424 ], [ 2.7878594, 41.6716334 ], [ 2.7873636, 41.6721717 ], [ 2.7872926, 41.6722875 ], [ 2.7871795, 41.6724263 ], [ 2.7857457, 41.6718342 ], [ 2.7853197, 41.6716739 ], [ 2.7854105, 41.6715552 ], [ 2.785405, 41.6715555 ], [ 2.785052, 41.6713551 ], [ 2.7845991, 41.6711433 ], [ 2.7841415, 41.6709399 ], [ 2.7838028, 41.6707759 ], [ 2.7833973, 41.6706028 ], [ 2.7830422, 41.6704396 ], [ 2.7826046, 41.6702764 ], [ 2.7824606, 41.6706295 ], [ 2.782333, 41.6708862 ], [ 2.7807411, 41.6701625 ], [ 2.7807407, 41.6702977 ], [ 2.7807476, 41.6705682 ], [ 2.7805507, 41.6708383 ], [ 2.7802132, 41.6709435 ], [ 2.7798996, 41.6709076 ], [ 2.7796332, 41.6708483 ], [ 2.7794278, 41.6708701 ], [ 2.7791779, 41.6707358 ], [ 2.7789488, 41.6706063 ], [ 2.778519, 41.6705238 ], [ 2.7779798, 41.6705357 ], [ 2.7775093, 41.6706165 ], [ 2.7772839, 41.6706244 ], [ 2.7770827, 41.6705513 ], [ 2.7765504, 41.67041 ], [ 2.7756351, 41.670137 ], [ 2.7753474, 41.6700609 ], [ 2.774923, 41.6699413 ], [ 2.7743763, 41.6697891 ], [ 2.7739879, 41.6696696 ], [ 2.7736354, 41.6695718 ], [ 2.7733333, 41.6694848 ], [ 2.7729736, 41.6693924 ], [ 2.7725777, 41.6693646 ], [ 2.772369, 41.6693157 ], [ 2.7723721, 41.6693045 ], [ 2.7723963, 41.6692167 ], [ 2.7724594, 41.6689966 ], [ 2.7726692, 41.6688136 ], [ 2.7728697, 41.6687372 ], [ 2.7735113, 41.6685583 ], [ 2.7740146, 41.6684458 ], [ 2.7745936, 41.6683202 ], [ 2.7748828, 41.6683408 ], [ 2.7752097, 41.6684081 ], [ 2.7753608, 41.6684651 ], [ 2.775512, 41.6685155 ], [ 2.7756318, 41.6686158 ], [ 2.7757071, 41.668716 ], [ 2.7758137, 41.6687896 ], [ 2.7762138, 41.6689105 ], [ 2.7767474, 41.6690483 ], [ 2.776994, 41.669079 ], [ 2.7771631, 41.6690961 ], [ 2.7776131, 41.6691417 ], [ 2.7780876, 41.6692217 ], [ 2.7786678, 41.6692624 ], [ 2.7787943, 41.6693101 ], [ 2.778679, 41.6690805 ], [ 2.7786688, 41.6689935 ], [ 2.7788494, 41.6685983 ], [ 2.7791782, 41.6681086 ], [ 2.7793681, 41.6681248 ], [ 2.7796634, 41.6681649 ], [ 2.7797378, 41.668166 ], [ 2.7803696, 41.6686181 ], [ 2.7805338, 41.668698 ], [ 2.7808821, 41.6688926 ], [ 2.7811703, 41.6690419 ], [ 2.7816397, 41.669161 ], [ 2.7822051, 41.6691711 ], [ 2.7825836, 41.6693116 ], [ 2.7833652, 41.6694123 ], [ 2.7849229, 41.669492 ], [ 2.786061, 41.6696385 ], [ 2.7877304, 41.66982 ], [ 2.7877197, 41.6700796 ], [ 2.7878106, 41.6703095 ], [ 2.7877421, 41.6703947 ], [ 2.7876051, 41.6705168 ], [ 2.7874568, 41.6706075 ], [ 2.7873163, 41.6706329 ], [ 2.7871867, 41.6706249 ], [ 2.7870651, 41.6706616 ], [ 2.7870459, 41.670727 ], [ 2.787076, 41.6707936 ], [ 2.7872735, 41.6708505 ], [ 2.7874398, 41.6708861 ], [ 2.7876053, 41.6711499 ], [ 2.7876991, 41.6712582 ], [ 2.7878557, 41.671355 ], [ 2.7880145, 41.671424 ] ] ] } },
{ "type": "Feature", "properties": { "CCAA": "09 - Cataluña", "PROVINCIA": "17 - Girona", "MUNICIPIO": "17023 - Blanes", "COD_MUNICIPIO": "17023", "DISTRITO": "02", "SECCION": "1702302010", "V1_H": 79.47, "V1_M": 85.31, "V2_H": 79.34656828, "V2_M": 85.44731594, "V3_H": 79.76976452, "V3_M": 85.31663719 }, "geometry": { "type": "Polygon", "coordinates": [ [ [ 2.7791782, 41.6681086 ], [ 2.7788494, 41.6685983 ], [ 2.7786688, 41.6689935 ], [ 2.778679, 41.6690805 ], [ 2.7787943, 41.6693101 ], [ 2.7786678, 41.6692624 ], [ 2.7780876, 41.6692217 ], [ 2.7776131, 41.6691417 ], [ 2.7771631, 41.6690961 ], [ 2.776994, 41.669079 ], [ 2.7767474, 41.6690483 ], [ 2.7762138, 41.6689105 ], [ 2.7758137, 41.6687896 ], [ 2.7757071, 41.668716 ], [ 2.7756318, 41.6686158 ], [ 2.775512, 41.6685155 ], [ 2.7753608, 41.6684651 ], [ 2.7752097, 41.6684081 ], [ 2.7748828, 41.6683408 ], [ 2.7745936, 41.6683202 ], [ 2.7740146, 41.6684458 ], [ 2.7735113, 41.6685583 ], [ 2.7728697, 41.6687372 ], [ 2.7726692, 41.6688136 ], [ 2.7724594, 41.6689966 ], [ 2.7723963, 41.6692167 ], [ 2.7723721, 41.6693045 ], [ 2.7703119, 41.6689328 ], [ 2.7700909, 41.6691687 ], [ 2.7700342, 41.6691279 ], [ 2.7698727, 41.6690062 ], [ 2.7696188, 41.6688757 ], [ 2.769411, 41.6687713 ], [ 2.7692611, 41.6686583 ], [ 2.768996, 41.6684238 ], [ 2.768927, 41.6683196 ], [ 2.7690081, 41.6682591 ], [ 2.7692513, 41.6681556 ], [ 2.7695176, 41.6680521 ], [ 2.7697608, 41.6679572 ], [ 2.7702006, 41.6678281 ], [ 2.7705014, 41.6677767 ], [ 2.7710336, 41.6676997 ], [ 2.771349, 41.6676056 ], [ 2.7715806, 41.6675194 ], [ 2.7718353, 41.6674419 ], [ 2.7722401, 41.6673906 ], [ 2.7726217, 41.6673741 ], [ 2.7732232, 41.6673232 ], [ 2.7735701, 41.6673153 ], [ 2.774056, 41.6672468 ], [ 2.7745073, 41.667161 ], [ 2.775109, 41.6670235 ], [ 2.775375, 41.6670154 ], [ 2.7757912, 41.6670249 ], [ 2.7763805, 41.66713 ], [ 2.7768542, 41.6672523 ], [ 2.7773855, 41.6674353 ], [ 2.7780554, 41.6676446 ], [ 2.7785404, 41.6678276 ], [ 2.7790831, 41.6680453 ], [ 2.7791782, 41.6681086 ] ] ] } },
{ "type": "Feature", "properties": { "CCAA": "09 - Cataluña", "PROVINCIA": "17 - Girona", "MUNICIPIO": "17023 - Blanes", "COD_MUNICIPIO": "17023", "DISTRITO": "02", "SECCION": "1702302013", "V1_H": 80.55, "V1_M": 86.21, "V2_H": 80.25181467, "V2_M": 85.94546636, "V3_H": 81.01047082, "V3_M": 86.65561049 }, "geometry": { "type": "Polygon", "coordinates": [ [ [ 2.7987392, 41.680751 ], [ 2.7990462, 41.6808452 ], [ 2.7993561, 41.6809418 ], [ 2.799619, 41.681018 ], [ 2.7999387, 41.6811201 ], [ 2.8001342, 41.6811457 ], [ 2.8002354, 41.6811509 ], [ 2.8004105, 41.6812169 ], [ 2.8006058, 41.6813032 ], [ 2.8008484, 41.6813946 ], [ 2.8014483, 41.6815068 ], [ 2.8017852, 41.6816237 ], [ 2.8020141, 41.6817858 ], [ 2.8021975, 41.681995 ], [ 2.8023387, 41.6821318 ], [ 2.8022643, 41.6822176 ], [ 2.8020886, 41.6823234 ], [ 2.8019871, 41.6824497 ], [ 2.8019463, 41.6825203 ], [ 2.8019461, 41.6826113 ], [ 2.8021142, 41.6827986 ], [ 2.8022936, 41.6829938 ], [ 2.8026014, 41.6833233 ], [ 2.802736, 41.6834826 ], [ 2.8027693, 41.6836345 ], [ 2.8027688, 41.6837936 ], [ 2.8026474, 41.6840429 ], [ 2.8022493, 41.6848847 ], [ 2.8020851, 41.6852287 ], [ 2.8019544, 41.68548 ], [ 2.8018131, 41.6856746 ], [ 2.8016288, 41.6857392 ], [ 2.8013795, 41.6857956 ], [ 2.8010653, 41.6858599 ], [ 2.8009784, 41.6859409 ], [ 2.8009237, 41.6861113 ], [ 2.8009017, 41.686233 ], [ 2.8010097, 41.6863387 ], [ 2.8011069, 41.6864362 ], [ 2.8013131, 41.6866359 ], [ 2.8014859, 41.6867822 ], [ 2.8015938, 41.6869285 ], [ 2.8015716, 41.6870989 ], [ 2.8013871, 41.6872366 ], [ 2.801181, 41.687366 ], [ 2.8009857, 41.6874631 ], [ 2.8008447, 41.6875522 ], [ 2.8007903, 41.6876413 ], [ 2.8007898, 41.6877955 ], [ 2.8008762, 41.6878606 ], [ 2.8010168, 41.6879176 ], [ 2.8012009, 41.687918 ], [ 2.8015041, 41.6879185 ], [ 2.8018612, 41.6880246 ], [ 2.8021531, 41.6881874 ], [ 2.8022066, 41.6883985 ], [ 2.8021516, 41.6886743 ], [ 2.8020746, 41.6890962 ], [ 2.8015354, 41.6889813 ], [ 2.8009868, 41.6888918 ], [ 2.7999592, 41.688681 ], [ 2.799445, 41.6885344 ], [ 2.7990224, 41.688368 ], [ 2.7985047, 41.6881015 ], [ 2.7978703, 41.6877358 ], [ 2.7971206, 41.6873059 ], [ 2.796607, 41.6869994 ], [ 2.7962515, 41.6867988 ], [ 2.7964171, 41.6866603 ], [ 2.7965743, 41.6865021 ], [ 2.7961521, 41.6862077 ], [ 2.7959059, 41.6860194 ], [ 2.7957183, 41.6858634 ], [ 2.7955294, 41.6857618 ], [ 2.7954437, 41.6855972 ], [ 2.7953075, 41.6853034 ], [ 2.7949522, 41.684808 ], [ 2.7946831, 41.684417 ], [ 2.7946755, 41.6843377 ], [ 2.7946525, 41.6841703 ], [ 2.7946362, 41.6840429 ], [ 2.7945465, 41.6839546 ], [ 2.7944175, 41.6838516 ], [ 2.7942182, 41.6836898 ], [ 2.7940384, 41.6835426 ], [ 2.7938783, 41.6833897 ], [ 2.7936672, 41.6830383 ], [ 2.7934762, 41.6827385 ], [ 2.7933982, 41.6826268 ], [ 2.7933363, 41.6823889 ], [ 2.7932547, 41.6820088 ], [ 2.79322, 41.6818472 ], [ 2.7931932, 41.6816387 ], [ 2.7932252, 41.6814362 ], [ 2.7932138, 41.6813187 ], [ 2.7931548, 41.6811999 ], [ 2.7930812, 41.6809384 ], [ 2.7929602, 41.680809 ], [ 2.7928118, 41.6806649 ], [ 2.7927064, 41.6805414 ], [ 2.7927242, 41.6804625 ], [ 2.7926219, 41.6802803 ], [ 2.7925784, 41.6801598 ], [ 2.7925935, 41.680012 ], [ 2.7926434, 41.6798458 ], [ 2.7926583, 41.6797802 ], [ 2.7925562, 41.6796979 ], [ 2.7924178, 41.6795991 ], [ 2.7922501, 41.6795276 ], [ 2.7920241, 41.6793904 ], [ 2.7918055, 41.6792367 ], [ 2.7915577, 41.6790666 ], [ 2.7914083, 41.6789454 ], [ 2.791955, 41.6789574 ], [ 2.7923078, 41.6791348 ], [ 2.792536, 41.679271 ], [ 2.7927454, 41.6794081 ], [ 2.7929724, 41.6796014 ], [ 2.7930372, 41.6798268 ], [ 2.793019, 41.6801183 ], [ 2.7930234, 41.6801393 ], [ 2.7929659, 41.680658 ], [ 2.793123, 41.6807422 ], [ 2.7931847, 41.6809006 ], [ 2.7933555, 41.6809634 ], [ 2.7937453, 41.681058 ], [ 2.7939512, 41.6811572 ], [ 2.7941263, 41.6812674 ], [ 2.7943466, 41.6813849 ], [ 2.794639, 41.6815273 ], [ 2.7951907, 41.6815851 ], [ 2.79572, 41.6816774 ], [ 2.7961246, 41.6817951 ], [ 2.7968513, 41.6822442 ], [ 2.79841, 41.6819128 ], [ 2.798589, 41.6817132 ], [ 2.7987392, 41.680751 ] ] ] } },
{ "type": "Feature", "properties": { "CCAA": "09 - Cataluña", "PROVINCIA": "17 - Girona", "MUNICIPIO": "17023 - Blanes", "COD_MUNICIPIO": "17023", "DISTRITO": "02", "SECCION": "1702302005", "V1_H": 80.27, "V1_M": 86.36, "V2_H": 80.04050342, "V2_M": 86.25745667, "V3_H": 80.55487256000001, "V3_M": 86.64917866 }, "geometry": { "type": "Polygon", "coordinates": [ [ [ 2.784997, 41.6784276 ], [ 2.7842395, 41.6788224 ], [ 2.782816, 41.6795541 ], [ 2.7816021, 41.6792767 ], [ 2.7790317, 41.6788145 ], [ 2.7783611, 41.6787042 ], [ 2.7739664, 41.6778647 ], [ 2.7709568, 41.677311 ], [ 2.7700073, 41.6770815 ], [ 2.7689628, 41.6767111 ], [ 2.7681076, 41.6762466 ], [ 2.7674917, 41.6758298 ], [ 2.7670856, 41.6755056 ], [ 2.7663443, 41.674928 ], [ 2.7655905, 41.674322 ], [ 2.7648843, 41.6737504 ], [ 2.7642561, 41.6732675 ], [ 2.7638164, 41.6728888 ], [ 2.7630837, 41.6723285 ], [ 2.7622915, 41.6718735 ], [ 2.7613733, 41.6714561 ], [ 2.761246, 41.6714007 ], [ 2.7612873, 41.6713437 ], [ 2.761372, 41.6710886 ], [ 2.7613724, 41.6710879 ], [ 2.7617846, 41.6692584 ], [ 2.7647126, 41.6666889 ], [ 2.7650886, 41.6664573 ], [ 2.7656227, 41.6661293 ], [ 2.7656235, 41.6661287 ], [ 2.7656239, 41.6661282 ], [ 2.7657494, 41.6660106 ], [ 2.7661309, 41.6662685 ], [ 2.7666919, 41.6666514 ], [ 2.7669802, 41.6668645 ], [ 2.7676987, 41.6673829 ], [ 2.7683876, 41.6679547 ], [ 2.7686552, 41.6681776 ], [ 2.7688476, 41.6682837 ], [ 2.768927, 41.6683196 ], [ 2.768996, 41.6684238 ], [ 2.7692611, 41.6686583 ], [ 2.769411, 41.6687713 ], [ 2.7696188, 41.6688757 ], [ 2.7698727, 41.6690062 ], [ 2.7700342, 41.6691279 ], [ 2.7700909, 41.6691687 ], [ 2.7702879, 41.6693104 ], [ 2.770629, 41.6695465 ], [ 2.7714061, 41.6700596 ], [ 2.7722858, 41.6705706 ], [ 2.7732105, 41.6710187 ], [ 2.7741017, 41.6714666 ], [ 2.7750772, 41.6718642 ], [ 2.7772408, 41.6728997 ], [ 2.7777166, 41.6733047 ], [ 2.7787225, 41.6747041 ], [ 2.7792085, 41.6754123 ], [ 2.7824231, 41.6756622 ], [ 2.7824785, 41.6769942 ], [ 2.7824903, 41.6772474 ], [ 2.7826039, 41.6772594 ], [ 2.7832133, 41.6774927 ], [ 2.7836486, 41.6777261 ], [ 2.7837515, 41.6777813 ], [ 2.784997, 41.6784276 ] ] ] } },
{ "type": "Feature", "properties": { "CCAA": "09 - Cataluña", "PROVINCIA": "17 - Girona", "MUNICIPIO": "17023 - Blanes", "COD_MUNICIPIO": "17023", "DISTRITO": "02", "SECCION": "1702302007", "V1_H": 80.02, "V1_M": 85.97, "V2_H": 79.96436773000001, "V2_M": 86.10256972000001, "V3_H": 80.28635595, "V3_M": 85.87857517 }, "geometry": { "type": "Polygon", "coordinates": [ [ [ 2.7871795, 41.6724263 ], [ 2.7868326, 41.6729842 ], [ 2.7864711, 41.6732187 ], [ 2.7862899, 41.6734771 ], [ 2.7860759, 41.6741705 ], [ 2.7859669, 41.6742808 ], [ 2.7858164, 41.6741566 ], [ 2.7855959, 41.6740123 ], [ 2.7852925, 41.6739398 ], [ 2.7847672, 41.6738976 ], [ 2.7823514, 41.6737348 ], [ 2.7823497, 41.6736772 ], [ 2.7824423, 41.6728618 ], [ 2.7824854, 41.6728645 ], [ 2.7831892, 41.672072 ], [ 2.7823511, 41.6717941 ], [ 2.7820297, 41.6717465 ], [ 2.7817395, 41.6717636 ], [ 2.781379, 41.6716865 ], [ 2.7811049, 41.6715801 ], [ 2.7805097, 41.6713614 ], [ 2.7800085, 41.6711724 ], [ 2.7796796, 41.6710189 ], [ 2.7794278, 41.6708701 ], [ 2.7796332, 41.6708483 ], [ 2.7798996, 41.6709076 ], [ 2.7802132, 41.6709435 ], [ 2.7805507, 41.6708383 ], [ 2.7807476, 41.6705682 ], [ 2.7807407, 41.6702977 ], [ 2.7807411, 41.6701625 ], [ 2.782333, 41.6708862 ], [ 2.7824606, 41.6706295 ], [ 2.7826046, 41.6702764 ], [ 2.7830422, 41.6704396 ], [ 2.7833973, 41.6706028 ], [ 2.7838028, 41.6707759 ], [ 2.7841415, 41.6709399 ], [ 2.7845991, 41.6711433 ], [ 2.785052, 41.6713551 ], [ 2.785405, 41.6715555 ], [ 2.7854105, 41.6715552 ], [ 2.7853197, 41.6716739 ], [ 2.7857457, 41.6718342 ], [ 2.7871795, 41.6724263 ] ] ] } },
{ "type": "Feature", "properties": { "CCAA": "09 - Cataluña", "PROVINCIA": "17 - Girona", "MUNICIPIO": "17023 - Blanes", "COD_MUNICIPIO": "17023", "DISTRITO": "02", "SECCION": "1702302012", "V1_H": 80.0, "V1_M": 86.03, "V2_H": 79.84963877, "V2_M": 86.04281727, "V3_H": 80.29290896000001, "V3_M": 86.20578322 }, "geometry": { "type": "Polygon", "coordinates": [ [ [ 2.7870013, 41.677383 ], [ 2.784997, 41.6784276 ], [ 2.7837515, 41.6777813 ], [ 2.7836486, 41.6777261 ], [ 2.7837389, 41.6776109 ], [ 2.7839647, 41.6776855 ], [ 2.7841205, 41.6776777 ], [ 2.7846887, 41.677383 ], [ 2.7851476, 41.6771486 ], [ 2.785331, 41.6771003 ], [ 2.7866082, 41.6768011 ], [ 2.7865826, 41.6767476 ], [ 2.7859444, 41.6762636 ], [ 2.7857233, 41.6761262 ], [ 2.7858558, 41.6756267 ], [ 2.7858965, 41.6754995 ], [ 2.786816, 41.6751975 ], [ 2.7868488, 41.6752209 ], [ 2.7880656, 41.6768447 ], [ 2.7870013, 41.677383 ] ] ] } },
{ "type": "Feature", "properties": { "CCAA": "09 - Cataluña", "PROVINCIA": "17 - Girona", "MUNICIPIO": "17023 - Blanes", "COD_MUNICIPIO": "17023", "DISTRITO": "03", "SECCION": "1702303001", "V1_H": 80.34, "V1_M": 85.99, "V2_H": 80.22806877, "V2_M": 85.94669411, "V3_H": 80.64200885, "V3_M": 86.09540763 }, "geometry": { "type": "Polygon", "coordinates": [ [ [ 2.7869326, 41.6808223 ], [ 2.7868105, 41.6809992 ], [ 2.7865639, 41.6813376 ], [ 2.7862532, 41.6815694 ], [ 2.7859167, 41.6817333 ], [ 2.7855156, 41.6819553 ], [ 2.785179, 41.6821483 ], [ 2.7848685, 41.6822929 ], [ 2.7845839, 41.6824279 ], [ 2.7840793, 41.6826594 ], [ 2.7833421, 41.6829194 ], [ 2.7827476, 41.6829957 ], [ 2.7825796, 41.6830148 ], [ 2.7820637, 41.6827814 ], [ 2.7812471, 41.6825798 ], [ 2.7793167, 41.6822725 ], [ 2.7793296, 41.6821965 ], [ 2.7794255, 41.6819357 ], [ 2.7794514, 41.6817649 ], [ 2.7794334, 41.6814801 ], [ 2.7794017, 41.6812682 ], [ 2.7799905, 41.680999 ], [ 2.7812787, 41.6803297 ], [ 2.782816, 41.6795541 ], [ 2.7835151, 41.6796557 ], [ 2.7841433, 41.6797732 ], [ 2.7848039, 41.6799457 ], [ 2.7854871, 41.6801482 ], [ 2.7861681, 41.6804452 ], [ 2.7866488, 41.6806766 ], [ 2.7869326, 41.6808223 ] ] ] } },
{ "type": "Feature", "properties": { "CCAA": "09 - Cataluña", "PROVINCIA": "17 - Girona", "MUNICIPIO": "17023 - Blanes", "COD_MUNICIPIO": "17023", "DISTRITO": "03", "SECCION": "1702303003", "V1_H": 80.0, "V1_M": 86.03, "V2_H": 79.84963877, "V2_M": 86.04281727, "V3_H": 80.29290896000001, "V3_M": 86.20578322 }, "geometry": { "type": "Polygon", "coordinates": [ [ [ 2.7732233, 41.6815255 ], [ 2.7729346, 41.6815995 ], [ 2.7726057, 41.6817927 ], [ 2.7721369, 41.6821645 ], [ 2.7712593, 41.6828262 ], [ 2.7684523, 41.6849255 ], [ 2.7676074, 41.6855528 ], [ 2.7702135, 41.6873409 ], [ 2.77023, 41.687389 ], [ 2.7701007, 41.6874031 ], [ 2.7670191, 41.6853519 ], [ 2.7653067, 41.6841977 ], [ 2.7595402, 41.6803435 ], [ 2.7578472, 41.6792302 ], [ 2.758709, 41.6764957 ], [ 2.7591057, 41.6766339 ], [ 2.7604733, 41.672469 ], [ 2.7604751, 41.6724648 ], [ 2.761246, 41.6714007 ], [ 2.7613733, 41.6714561 ], [ 2.7622915, 41.6718735 ], [ 2.7630837, 41.6723285 ], [ 2.7638164, 41.6728888 ], [ 2.7642561, 41.6732675 ], [ 2.7648843, 41.6737504 ], [ 2.7655905, 41.674322 ], [ 2.7663443, 41.674928 ], [ 2.7670856, 41.6755056 ], [ 2.7674917, 41.6758298 ], [ 2.7681076, 41.6762466 ], [ 2.7689628, 41.6767111 ], [ 2.7700073, 41.6770815 ], [ 2.7709568, 41.677311 ], [ 2.7739664, 41.6778647 ], [ 2.7783611, 41.6787042 ], [ 2.7790317, 41.6788145 ], [ 2.7816021, 41.6792767 ], [ 2.782816, 41.6795541 ], [ 2.7812787, 41.6803297 ], [ 2.7799905, 41.680999 ], [ 2.7794017, 41.6812682 ], [ 2.7792783, 41.681299 ], [ 2.7790808, 41.6813255 ], [ 2.7787172, 41.6813484 ], [ 2.7770616, 41.6813823 ], [ 2.7752327, 41.6814326 ], [ 2.7743177, 41.6814532 ], [ 2.7735617, 41.681489 ], [ 2.7732233, 41.6815255 ] ] ] } },
{ "type": "Feature", "properties": { "CCAA": "09 - Cataluña", "PROVINCIA": "17 - Girona", "MUNICIPIO": "17023 - Blanes", "COD_MUNICIPIO": "17023", "DISTRITO": "02", "SECCION": "1702302008", "V1_H": 81.13, "V1_M": 86.76, "V2_H": 80.8252038, "V2_M": 86.73512652, "V3_H": 81.48774648, "V3_M": 86.92091474 }, "geometry": { "type": "Polygon", "coordinates": [ [ [ 2.786816, 41.6751975 ], [ 2.7858965, 41.6754995 ], [ 2.7858558, 41.6756267 ], [ 2.7857233, 41.6761262 ], [ 2.7859444, 41.6762636 ], [ 2.7865826, 41.6767476 ], [ 2.7866082, 41.6768011 ], [ 2.785331, 41.6771003 ], [ 2.7851476, 41.6771486 ], [ 2.7846887, 41.677383 ], [ 2.7841205, 41.6776777 ], [ 2.7839647, 41.6776855 ], [ 2.7837389, 41.6776109 ], [ 2.7836486, 41.6777261 ], [ 2.7832133, 41.6774927 ], [ 2.7826039, 41.6772594 ], [ 2.7824903, 41.6772474 ], [ 2.7824785, 41.6769942 ], [ 2.7824231, 41.6756622 ], [ 2.7823765, 41.6746201 ], [ 2.7823514, 41.6737348 ], [ 2.7847672, 41.6738976 ], [ 2.7852925, 41.6739398 ], [ 2.7855959, 41.6740123 ], [ 2.7858164, 41.6741566 ], [ 2.7859669, 41.6742808 ], [ 2.785968, 41.6742817 ], [ 2.785986, 41.6744676 ], [ 2.7859704, 41.6747905 ], [ 2.7860977, 41.6748951 ], [ 2.7864774, 41.6749558 ], [ 2.786816, 41.6751975 ] ] ] } },
{ "type": "Feature", "properties": { "CCAA": "09 - Cataluña", "PROVINCIA": "17 - Girona", "MUNICIPIO": "17023 - Blanes", "COD_MUNICIPIO": "17023", "DISTRITO": "02", "SECCION": "1702302011", "V1_H": 80.72, "V1_M": 86.56, "V2_H": 80.63016227, "V2_M": 86.55369361, "V3_H": 80.94352394000001, "V3_M": 86.74641221 }, "geometry": { "type": "Polygon", "coordinates": [ [ [ 2.7823514, 41.6737348 ], [ 2.7823765, 41.6746201 ], [ 2.7824231, 41.6756622 ], [ 2.7792085, 41.6754123 ], [ 2.7787225, 41.6747041 ], [ 2.7777166, 41.6733047 ], [ 2.7772408, 41.6728997 ], [ 2.7750772, 41.6718642 ], [ 2.7741017, 41.6714666 ], [ 2.7732105, 41.6710187 ], [ 2.7722858, 41.6705706 ], [ 2.7714061, 41.6700596 ], [ 2.770629, 41.6695465 ], [ 2.7702879, 41.6693104 ], [ 2.7700909, 41.6691687 ], [ 2.7703119, 41.6689328 ], [ 2.7723721, 41.6693045 ], [ 2.772369, 41.6693157 ], [ 2.7725777, 41.6693646 ], [ 2.7729736, 41.6693924 ], [ 2.7733333, 41.6694848 ], [ 2.7736354, 41.6695718 ], [ 2.7739879, 41.6696696 ], [ 2.7743763, 41.6697891 ], [ 2.774923, 41.6699413 ], [ 2.7753474, 41.6700609 ], [ 2.7756351, 41.670137 ], [ 2.7765504, 41.67041 ], [ 2.7770827, 41.6705513 ], [ 2.7772839, 41.6706244 ], [ 2.7775093, 41.6706165 ], [ 2.7779798, 41.6705357 ], [ 2.778519, 41.6705238 ], [ 2.7789488, 41.6706063 ], [ 2.7791779, 41.6707358 ], [ 2.7794278, 41.6708701 ], [ 2.7796796, 41.6710189 ], [ 2.7800085, 41.6711724 ], [ 2.7805097, 41.6713614 ], [ 2.7811049, 41.6715801 ], [ 2.781379, 41.6716865 ], [ 2.7817395, 41.6717636 ], [ 2.7820297, 41.6717465 ], [ 2.7823511, 41.6717941 ], [ 2.7831892, 41.672072 ], [ 2.7824854, 41.6728645 ], [ 2.7824423, 41.6728618 ], [ 2.7823497, 41.6736772 ], [ 2.7823514, 41.6737348 ] ] ] } },
{ "type": "Feature", "properties": { "CCAA": "09 - Cataluña", "PROVINCIA": "17 - Girona", "MUNICIPIO": "17023 - Blanes", "COD_MUNICIPIO": "17023", "DISTRITO": "01", "SECCION": "1702301002", "V1_H": 81.02, "V1_M": 86.64, "V2_H": 80.81080237, "V2_M": 86.47452022, "V3_H": 81.32513937, "V3_M": 86.89244175 }, "geometry": { "type": "MultiPolygon", "coordinates": [ [ [ [ 2.803358, 41.6728198 ], [ 2.8036179, 41.6729056 ], [ 2.803721, 41.6731164 ], [ 2.8037937, 41.6732568 ], [ 2.8036543, 41.6733088 ], [ 2.8032924, 41.6731561 ], [ 2.803241, 41.6728527 ], [ 2.803358, 41.6728198 ] ] ], [ [ [ 2.8040745, 41.6729095 ], [ 2.8041566, 41.6728873 ], [ 2.8044645, 41.6731057 ], [ 2.8044998, 41.673365 ], [ 2.8044154, 41.6733603 ], [ 2.8041521, 41.6731036 ], [ 2.8040745, 41.6729095 ] ] ], [ [ [ 2.7943822, 41.6768119 ], [ 2.7942787, 41.6766798 ], [ 2.7934829, 41.6771131 ], [ 2.7929688, 41.6773948 ], [ 2.7927467, 41.6775076 ], [ 2.7924094, 41.6772273 ], [ 2.792191, 41.6770476 ], [ 2.7919907, 41.6768764 ], [ 2.7916778, 41.676617 ], [ 2.7914003, 41.6763757 ], [ 2.7911144, 41.6761451 ], [ 2.7910131, 41.6760807 ], [ 2.7909451, 41.6761516 ], [ 2.790928, 41.6762051 ], [ 2.7905807, 41.6761402 ], [ 2.7900666, 41.6760192 ], [ 2.7900104, 41.675948 ], [ 2.7899982, 41.675867 ], [ 2.7904289, 41.6757018 ], [ 2.7908669, 41.6755362 ], [ 2.7910176, 41.6753701 ], [ 2.7917533, 41.6747038 ], [ 2.7922542, 41.6742741 ], [ 2.7925652, 41.6740103 ], [ 2.7929066, 41.6737309 ], [ 2.7932546, 41.6734642 ], [ 2.7933426, 41.673597 ], [ 2.7937029, 41.6737319 ], [ 2.7941482, 41.6736103 ], [ 2.7942606, 41.6736586 ], [ 2.7942975, 41.6738008 ], [ 2.794245, 41.6738845 ], [ 2.7943017, 41.6739806 ], [ 2.7956385, 41.6744261 ], [ 2.7964783, 41.6736184 ], [ 2.7979861, 41.6744963 ], [ 2.7977616, 41.6746697 ], [ 2.7966477, 41.6740329 ], [ 2.796065, 41.6746295 ], [ 2.796219, 41.6747388 ], [ 2.7964705, 41.674465 ], [ 2.7965701, 41.6745049 ], [ 2.7963058, 41.6747704 ], [ 2.7964932, 41.6748509 ], [ 2.7967352, 41.6746046 ], [ 2.7967759, 41.6746566 ], [ 2.796569, 41.6748921 ], [ 2.7967197, 41.6749654 ], [ 2.7969497, 41.6747198 ], [ 2.7970127, 41.6747526 ], [ 2.7967954, 41.6750067 ], [ 2.7969963, 41.6751045 ], [ 2.7972128, 41.6748415 ], [ 2.7972997, 41.6748731 ], [ 2.7970824, 41.6751271 ], [ 2.7972586, 41.6752172 ], [ 2.7974767, 41.6749722 ], [ 2.7975516, 41.6750044 ], [ 2.7973344, 41.6752584 ], [ 2.7975218, 41.6753389 ], [ 2.7979127, 41.6750131 ], [ 2.7982428, 41.6752124 ], [ 2.7982453, 41.6752129 ], [ 2.7987771, 41.6762155 ], [ 2.7988685, 41.6763826 ], [ 2.7987991, 41.6765731 ], [ 2.7965511, 41.676084 ], [ 2.7956381, 41.6758936 ], [ 2.7956223, 41.675944 ], [ 2.7955853, 41.6760985 ], [ 2.7955445, 41.676154 ], [ 2.7955048, 41.6762781 ], [ 2.7954461, 41.676304 ], [ 2.7950201, 41.6763217 ], [ 2.7948212, 41.6763738 ], [ 2.7947022, 41.6762959 ], [ 2.7943822, 41.6768119 ] ] ] ] } },
{ "type": "Feature", "properties": { "CCAA": "09 - Cataluña", "PROVINCIA": "17 - Girona", "MUNICIPIO": "17023 - Blanes", "COD_MUNICIPIO": "17023", "DISTRITO": "02", "SECCION": "1702302004", "V1_H": 80.21, "V1_M": 86.09, "V2_H": 80.08965404, "V2_M": 85.91309697, "V3_H": 80.44476746, "V3_M": 86.42186139 }, "geometry": { "type": "Polygon", "coordinates": [ [ [ 2.7907184, 41.678909 ], [ 2.7907898, 41.6789769 ], [ 2.7908852, 41.6790242 ], [ 2.7909824, 41.6790886 ], [ 2.791191, 41.6792457 ], [ 2.791279, 41.6793461 ], [ 2.7913612, 41.6794541 ], [ 2.7914773, 41.6796976 ], [ 2.7915042, 41.6798145 ], [ 2.7915076, 41.6799992 ], [ 2.791456, 41.6802707 ], [ 2.7913817, 41.6803901 ], [ 2.7912554, 41.6806776 ], [ 2.791294, 41.6808538 ], [ 2.791403, 41.6810831 ], [ 2.7915548, 41.6813916 ], [ 2.7917967, 41.6816945 ], [ 2.7919734, 41.6818429 ], [ 2.7922739, 41.6822134 ], [ 2.7926144, 41.6825649 ], [ 2.7928761, 41.6827944 ], [ 2.7930986, 41.6830708 ], [ 2.7932428, 41.6833089 ], [ 2.793536, 41.6836869 ], [ 2.7936177, 41.6838896 ], [ 2.7937343, 41.6841776 ], [ 2.793836, 41.6845141 ], [ 2.7938667, 41.6847256 ], [ 2.7938975, 41.6849047 ], [ 2.7939437, 41.6851485 ], [ 2.7941114, 41.6854072 ], [ 2.7936294, 41.685131 ], [ 2.7925684, 41.6844375 ], [ 2.7906893, 41.6831977 ], [ 2.7885272, 41.6818307 ], [ 2.7877299, 41.68131 ], [ 2.7872562, 41.6809884 ], [ 2.7869326, 41.6808223 ], [ 2.7866488, 41.6806766 ], [ 2.7861681, 41.6804452 ], [ 2.7854871, 41.6801482 ], [ 2.7848039, 41.6799457 ], [ 2.7841433, 41.6797732 ], [ 2.7835151, 41.6796557 ], [ 2.782816, 41.6795541 ], [ 2.7842395, 41.6788224 ], [ 2.784997, 41.6784276 ], [ 2.7870013, 41.677383 ], [ 2.7870313, 41.6774586 ], [ 2.7875344, 41.6775878 ], [ 2.7878364, 41.6776337 ], [ 2.788254, 41.6777477 ], [ 2.7885711, 41.6778851 ], [ 2.7887826, 41.6778967 ], [ 2.7890346, 41.677818 ], [ 2.7891908, 41.6778069 ], [ 2.7892965, 41.6778184 ], [ 2.7894266, 41.6781669 ], [ 2.789592, 41.6784126 ], [ 2.7898282, 41.6785828 ], [ 2.7900142, 41.6786737 ], [ 2.7904367, 41.6788368 ], [ 2.7906228, 41.6788937 ], [ 2.7907184, 41.678909 ] ] ] } },
{ "type": "Feature", "properties": { "CCAA": "09 - Cataluña", "PROVINCIA": "17 - Girona", "MUNICIPIO": "17023 - Blanes", "COD_MUNICIPIO": "17023", "DISTRITO": "03", "SECCION": "1702303002", "V1_H": 79.89, "V1_M": 85.97, "V2_H": 79.67266264, "V2_M": 85.8368825, "V3_H": 80.33686579, "V3_M": 86.2809331 }, "geometry": { "type": "Polygon", "coordinates": [ [ [ 2.7887228, 41.7072124 ], [ 2.7870443, 41.7108959 ], [ 2.78699, 41.7160298 ], [ 2.7854291, 41.7209787 ], [ 2.7836178, 41.7238159 ], [ 2.7818705, 41.727766 ], [ 2.7788548, 41.7300427 ], [ 2.7775839, 41.7310068 ], [ 2.7775839, 41.7310065 ], [ 2.7772409, 41.730685 ], [ 2.777111, 41.7305628 ], [ 2.7770854, 41.7305547 ], [ 2.7759359, 41.73019 ], [ 2.7759092, 41.730159 ], [ 2.7757211, 41.7299398 ], [ 2.7754202, 41.729802 ], [ 2.77446, 41.7296714 ], [ 2.7738752, 41.7295918 ], [ 2.7736885, 41.7295202 ], [ 2.7735057, 41.7293503 ], [ 2.7735049, 41.7293495 ], [ 2.7732979, 41.7289188 ], [ 2.7731167, 41.7287749 ], [ 2.7723549, 41.7285882 ], [ 2.7723446, 41.7285869 ], [ 2.7708807, 41.7282305 ], [ 2.7698915, 41.726579 ], [ 2.7698911, 41.7265784 ], [ 2.7687102, 41.7268095 ], [ 2.7684022, 41.726591 ], [ 2.7679921, 41.7264406 ], [ 2.7678135, 41.7264058 ], [ 2.7666712, 41.7261831 ], [ 2.7663743, 41.725955 ], [ 2.7661932, 41.7256762 ], [ 2.7661931, 41.7256761 ], [ 2.7662088, 41.7253152 ], [ 2.7663457, 41.7249663 ], [ 2.7660323, 41.7240188 ], [ 2.7746486, 41.7002243 ], [ 2.77023, 41.687389 ], [ 2.7702135, 41.6873409 ], [ 2.7676074, 41.6855528 ], [ 2.7684523, 41.6849255 ], [ 2.7712593, 41.6828262 ], [ 2.7721369, 41.6821645 ], [ 2.7726057, 41.6817927 ], [ 2.7729346, 41.6815995 ], [ 2.7732233, 41.6815255 ], [ 2.7735617, 41.681489 ], [ 2.7743177, 41.6814532 ], [ 2.7752327, 41.6814326 ], [ 2.7770616, 41.6813823 ], [ 2.7787172, 41.6813484 ], [ 2.7790808, 41.6813255 ], [ 2.7792783, 41.681299 ], [ 2.7794017, 41.6812682 ], [ 2.7794334, 41.6814801 ], [ 2.7794514, 41.6817649 ], [ 2.7794255, 41.6819357 ], [ 2.7793296, 41.6821965 ], [ 2.7793167, 41.6822725 ], [ 2.7812471, 41.6825798 ], [ 2.7820637, 41.6827814 ], [ 2.7825796, 41.6830148 ], [ 2.7824633, 41.6831201 ], [ 2.7824521, 41.68321 ], [ 2.782479, 41.6833122 ], [ 2.7825116, 41.683433 ], [ 2.7825486, 41.6838051 ], [ 2.7825644, 41.6839482 ], [ 2.7825418, 41.6841975 ], [ 2.7825731, 41.6846186 ], [ 2.7825175, 41.6849374 ], [ 2.7825007, 41.6850682 ], [ 2.7824128, 41.6852643 ], [ 2.7822593, 41.6854561 ], [ 2.7820077, 41.6856723 ], [ 2.7819359, 41.6858419 ], [ 2.7819845, 41.6859933 ], [ 2.7822574, 41.6864235 ], [ 2.7823524, 41.6865908 ], [ 2.7824554, 41.686776 ], [ 2.7825503, 41.6869373 ], [ 2.7826137, 41.6870448 ], [ 2.7828198, 41.6873436 ], [ 2.7829399, 41.6874918 ], [ 2.7830208, 41.6875859 ], [ 2.7832411, 41.687731 ], [ 2.7833336, 41.6877807 ], [ 2.7834943, 41.6878465 ], [ 2.7835491, 41.6879741 ], [ 2.7835763, 41.6881086 ], [ 2.7835758, 41.68825 ], [ 2.7835798, 41.6884326 ], [ 2.7835701, 41.6885705 ], [ 2.783556, 41.6886842 ], [ 2.7835144, 41.6887289 ], [ 2.7832333, 41.68888 ], [ 2.7833958, 41.6891321 ], [ 2.7836544, 41.6895454 ], [ 2.7837578, 41.6897465 ], [ 2.7838291, 41.6898706 ], [ 2.7838679, 41.6899527 ], [ 2.7838989, 41.6900377 ], [ 2.7839532, 41.6901638 ], [ 2.7840707, 41.6903844 ], [ 2.7841233, 41.6904469 ], [ 2.7842784, 41.6905864 ], [ 2.7844121, 41.6906599 ], [ 2.7845309, 41.6907807 ], [ 2.7847064, 41.6908642 ], [ 2.7848849, 41.6909454 ], [ 2.7850512, 41.6910011 ], [ 2.7852592, 41.691057 ], [ 2.7853879, 41.6911152 ], [ 2.7854469, 41.6911191 ], [ 2.7855674, 41.691154 ], [ 2.7856853, 41.6912312 ], [ 2.7858429, 41.6913344 ], [ 2.7859423, 41.6913998 ], [ 2.7860591, 41.691481 ], [ 2.7861188, 41.6915823 ], [ 2.7861453, 41.691724 ], [ 2.7861518, 41.6918573 ], [ 2.7872617, 41.6919807 ], [ 2.7874016, 41.6919792 ], [ 2.7883353, 41.6918168 ], [ 2.7889959, 41.691692 ], [ 2.7911927, 41.6920593 ], [ 2.7911696, 41.6922695 ], [ 2.7911281, 41.6924312 ], [ 2.7910081, 41.692707 ], [ 2.7909481, 41.6928575 ], [ 2.7908473, 41.6929521 ], [ 2.790702, 41.6930104 ], [ 2.7904896, 41.6930854 ], [ 2.7902252, 41.6932248 ], [ 2.7897386, 41.6934238 ], [ 2.7884232, 41.6938602 ], [ 2.7882072, 41.6939575 ], [ 2.7880665, 41.6940875 ], [ 2.7878195, 41.6941466 ], [ 2.7875812, 41.6942933 ], [ 2.7874879, 41.6945624 ], [ 2.7875142, 41.6947185 ], [ 2.7875094, 41.6949642 ], [ 2.7872925, 41.6951143 ], [ 2.7870317, 41.6951689 ], [ 2.7868109, 41.6953784 ], [ 2.7866705, 41.6955353 ], [ 2.7865038, 41.6956574 ], [ 2.7862547, 41.6958018 ], [ 2.7861639, 41.6960182 ], [ 2.786158, 41.6961742 ], [ 2.7862443, 41.6963628 ], [ 2.7861173, 41.6966174 ], [ 2.785893, 41.6967932 ], [ 2.7856368, 41.6969814 ], [ 2.7855522, 41.6972046 ], [ 2.7856694, 41.6975616 ], [ 2.785912, 41.6980479 ], [ 2.7861274, 41.698294 ], [ 2.7863575, 41.6986276 ], [ 2.7865896, 41.6988693 ], [ 2.7867762, 41.6990076 ], [ 2.7870344, 41.699394 ], [ 2.7872938, 41.6996177 ], [ 2.7874634, 41.6997392 ], [ 2.7874638, 41.6999041 ], [ 2.7872975, 41.7000632 ], [ 2.7870532, 41.7002245 ], [ 2.7868233, 41.7003195 ], [ 2.7865054, 41.7004571 ], [ 2.786384, 41.7006735 ], [ 2.7863161, 41.7010089 ], [ 2.786379, 41.7012985 ], [ 2.7865758, 41.7016579 ], [ 2.7867372, 41.7018636 ], [ 2.7869414, 41.7020725 ], [ 2.7871407, 41.702258 ], [ 2.7872714, 41.7024468 ], [ 2.787385, 41.702622 ], [ 2.7875648, 41.7028377 ], [ 2.7876896, 41.7029165 ], [ 2.7878732, 41.7031939 ], [ 2.7879901, 41.7033849 ], [ 2.7882121, 41.7035446 ], [ 2.788604, 41.7037202 ], [ 2.7888972, 41.7038138 ], [ 2.7890462, 41.7038746 ], [ 2.7889298, 41.7039945 ], [ 2.7887262, 41.7042333 ], [ 2.7886425, 41.7043981 ], [ 2.7885672, 41.7046392 ], [ 2.7885561, 41.7048704 ], [ 2.7885875, 41.705068 ], [ 2.7885603, 41.705234 ], [ 2.7884432, 41.7054224 ], [ 2.788245, 41.7056028 ], [ 2.7882013, 41.7057924 ], [ 2.7882223, 41.7060224 ], [ 2.7882425, 41.7061818 ], [ 2.7882899, 41.7063132 ], [ 2.7883744, 41.7064794 ], [ 2.7884427, 41.7067017 ], [ 2.7887228, 41.7072124 ] ] ] } }
]
}
