{
"type": "FeatureCollection",
"name": "17057",
"features": [
{ "type": "Feature", "properties": { "CCAA": "09 - Cataluña", "PROVINCIA": "17 - Girona", "MUNICIPIO": "17057 - Corçà", "COD_MUNICIPIO": "17057", "DISTRITO": "01", "SECCION": "1705701001", "V1_H": 81.37, "V1_M": 86.85, "V2_H": 81.08688328, "V2_M": 86.76748373, "V3_H": 81.75507894, "V3_M": 87.07522296 }, "geometry": { "type": "Polygon", "coordinates": [ [ [ 2.9952198, 42.0164645 ], [ 2.9946373, 42.0164321 ], [ 2.9941066, 42.017333 ], [ 2.9937079, 42.0172009 ], [ 2.9936084, 42.0171701 ], [ 2.9931249, 42.0169074 ], [ 2.9926222, 42.0163126 ], [ 2.9921122, 42.0126937 ], [ 2.9906225, 42.0113586 ], [ 2.9916438, 42.011053 ], [ 2.9904442, 42.0085684 ], [ 2.9894284, 42.0086756 ], [ 2.9895008, 42.0073937 ], [ 2.9900455, 42.0074102 ], [ 2.9898133, 42.0050729 ], [ 2.9868761, 42.0041285 ], [ 2.9847087, 42.0035398 ], [ 2.9853694, 42.0023531 ], [ 2.9823629, 42.0014392 ], [ 2.9829615, 42.0004897 ], [ 2.9818054, 42.0000011 ], [ 2.9810842, 41.9974644 ], [ 2.9807319, 41.9973118 ], [ 2.9823707, 41.9954888 ], [ 2.9855362, 41.9914255 ], [ 2.9877392, 41.9889337 ], [ 2.9882913, 41.9895439 ], [ 2.9888224, 41.9899302 ], [ 2.9890903, 41.9902132 ], [ 2.9894194, 41.990376 ], [ 2.9903085, 41.9904645 ], [ 2.9924466, 41.9903615 ], [ 2.9941899, 41.9904232 ], [ 2.9955183, 41.9904346 ], [ 2.995984, 41.9903832 ], [ 2.9963092, 41.9902491 ], [ 2.9973916, 41.9890582 ], [ 2.9977487, 41.9887514 ], [ 2.9987298, 41.9876378 ], [ 2.9992843, 41.9872486 ], [ 2.9998704, 41.9869388 ], [ 3.0002453, 41.9868201 ], [ 3.0009792, 41.9869257 ], [ 3.0013874, 41.9869042 ], [ 3.0020964, 41.987002 ], [ 3.0026185, 41.9865246 ], [ 3.0029227, 41.9860405 ], [ 3.0043982, 41.9844148 ], [ 3.004766, 41.9838374 ], [ 3.0057569, 41.9828312 ], [ 3.0069574, 41.981904 ], [ 3.007005, 41.9818655 ], [ 3.0071563, 41.9815515 ], [ 3.0080877, 41.9808095 ], [ 3.0087355, 41.9803884 ], [ 3.0105567, 41.9797436 ], [ 3.0107868, 41.9794974 ], [ 3.0110954, 41.9789321 ], [ 3.0111856, 41.9786573 ], [ 3.0119114, 41.9764588 ], [ 3.012535, 41.9748867 ], [ 3.0130514, 41.9740945 ], [ 3.0133551, 41.9732233 ], [ 3.0134147, 41.9728331 ], [ 3.0132702, 41.9725797 ], [ 3.0126878, 41.9721602 ], [ 3.0125553, 41.9719061 ], [ 3.0135161, 41.9713515 ], [ 3.0146148, 41.9709787 ], [ 3.0153025, 41.9708525 ], [ 3.0204585, 41.9705273 ], [ 3.0219663, 41.9706549 ], [ 3.0228146, 41.9703132 ], [ 3.0248781, 41.9709606 ], [ 3.0259246, 41.9711846 ], [ 3.0270545, 41.971143 ], [ 3.0287211, 41.9711632 ], [ 3.0285561, 41.9731163 ], [ 3.0314833, 41.9747293 ], [ 3.0316869, 41.9748415 ], [ 3.0322786, 41.9756115 ], [ 3.0340179, 41.9784363 ], [ 3.0358605, 41.9829839 ], [ 3.0402207, 41.9858322 ], [ 3.0407511, 41.9862093 ], [ 3.0418617, 41.9869788 ], [ 3.0420434, 41.9871132 ], [ 3.042306, 41.9873262 ], [ 3.0430542, 41.9879331 ], [ 3.0434291, 41.9882372 ], [ 3.045297, 41.9899928 ], [ 3.0463151, 41.9908031 ], [ 3.0432585, 41.9945743 ], [ 3.0418344, 41.9963509 ], [ 3.0414523, 41.9969021 ], [ 3.0412288, 41.9974721 ], [ 3.0412295, 41.9977331 ], [ 3.0413811, 41.9979321 ], [ 3.0419819, 41.9984134 ], [ 3.0433025, 41.9997388 ], [ 3.0434987, 42.0000255 ], [ 3.0448553, 42.0014751 ], [ 3.0464265, 42.0039124 ], [ 3.0469824, 42.0049361 ], [ 3.0498144, 42.0065416 ], [ 3.0510469, 42.0079526 ], [ 3.0520167, 42.0085044 ], [ 3.0523013, 42.0088314 ], [ 3.0467302, 42.0123126 ], [ 3.0458358, 42.013062 ], [ 3.0448396, 42.0133757 ], [ 3.0439399, 42.0133062 ], [ 3.0436653, 42.0133387 ], [ 3.043057, 42.0135419 ], [ 3.0419573, 42.013528 ], [ 3.0414082, 42.013593 ], [ 3.0403675, 42.013819 ], [ 3.0399153, 42.0140139 ], [ 3.039485, 42.0145678 ], [ 3.0355315, 42.0142454 ], [ 3.0355765, 42.0128118 ], [ 3.0300075, 42.0109812 ], [ 3.029233, 42.010833 ], [ 3.0289072, 42.0107062 ], [ 3.028469, 42.0105402 ], [ 3.0280575, 42.0102739 ], [ 3.0265681, 42.0097132 ], [ 3.0249911, 42.0092472 ], [ 3.0242368, 42.0071447 ], [ 3.0233078, 42.0071486 ], [ 3.0212173, 42.0064845 ], [ 3.0189368, 42.0062355 ], [ 3.0168682, 42.0052912 ], [ 3.0166778, 42.003789 ], [ 3.0158064, 42.0037628 ], [ 3.0157263, 42.0026598 ], [ 3.0149639, 42.0025109 ], [ 3.0149517, 42.0019985 ], [ 3.0134069, 42.0019987 ], [ 3.0124424, 42.0023914 ], [ 3.0112899, 42.0022 ], [ 3.0105213, 42.0022404 ], [ 3.0103033, 42.0017207 ], [ 3.0090799, 42.001929 ], [ 3.0082129, 42.0018216 ], [ 3.0059094, 42.0041389 ], [ 3.0061423, 42.00635 ], [ 3.0034459, 42.0066806 ], [ 3.0031802, 42.0115373 ], [ 3.0023393, 42.0117074 ], [ 3.0010688, 42.0123142 ], [ 3.0012406, 42.0133674 ], [ 3.0004358, 42.0140487 ], [ 2.9987555, 42.0138938 ], [ 2.9985618, 42.0149121 ], [ 2.9976123, 42.0148268 ], [ 2.9955305, 42.0157911 ], [ 2.9952198, 42.0164645 ] ] ] } }
]
}
