{
"type": "FeatureCollection",
"name": "17080",
"features": [
{ "type": "Feature", "properties": { "CCAA": "09 - Cataluña", "PROVINCIA": "17 - Girona", "MUNICIPIO": "17080 - Gombrèn", "COD_MUNICIPIO": "17080", "DISTRITO": "01", "SECCION": "1708001001", "V1_H": 81.1, "V1_M": 86.64, "V2_H": 80.60081217, "V2_M": 86.48118059, "V3_H": 81.51550291, "V3_M": 86.87452308 }, "geometry": { "type": "Polygon", "coordinates": [ [ [ 2.0790856, 42.2860061 ], [ 2.0767913, 42.2870262 ], [ 2.0759498, 42.2875677 ], [ 2.0744796, 42.2896406 ], [ 2.0702586, 42.2915834 ], [ 2.0700808, 42.2892236 ], [ 2.0697757, 42.2884448 ], [ 2.0699106, 42.2877096 ], [ 2.0695016, 42.2868454 ], [ 2.0687772, 42.2861303 ], [ 2.0680617, 42.2856759 ], [ 2.0676807, 42.2850086 ], [ 2.0672962, 42.2838462 ], [ 2.0617421, 42.2826247 ], [ 2.0601834, 42.2825406 ], [ 2.0577525, 42.2808026 ], [ 2.0557506, 42.2809361 ], [ 2.0527062, 42.2788019 ], [ 2.0534859, 42.2780923 ], [ 2.0518211, 42.2760772 ], [ 2.0515919, 42.2756371 ], [ 2.0518744, 42.2752285 ], [ 2.0512139, 42.2748526 ], [ 2.0504264, 42.2747073 ], [ 2.0499297, 42.2747112 ], [ 2.0494518, 42.2751015 ], [ 2.0487773, 42.2750052 ], [ 2.0484011, 42.2746977 ], [ 2.0481743, 42.2736814 ], [ 2.0474498, 42.2732632 ], [ 2.0474145, 42.2726706 ], [ 2.046985, 42.2723024 ], [ 2.0464009, 42.2722742 ], [ 2.0455356, 42.2725194 ], [ 2.0425844, 42.2695706 ], [ 2.0424578, 42.2693511 ], [ 2.0432915, 42.2687112 ], [ 2.0436229, 42.2680033 ], [ 2.0426695, 42.2672981 ], [ 2.0421446, 42.2666461 ], [ 2.0421131, 42.2662513 ], [ 2.0424793, 42.265677 ], [ 2.0416044, 42.2653465 ], [ 2.0410726, 42.2649108 ], [ 2.0408918, 42.2643156 ], [ 2.0412236, 42.2633106 ], [ 2.0401039, 42.2623426 ], [ 2.0402611, 42.2605171 ], [ 2.0389707, 42.2602949 ], [ 2.0390677, 42.2596874 ], [ 2.0383527, 42.2593858 ], [ 2.0373734, 42.2600231 ], [ 2.0367265, 42.2593584 ], [ 2.0363076, 42.2585126 ], [ 2.0348258, 42.2589289 ], [ 2.0341011, 42.2588078 ], [ 2.033598, 42.2585778 ], [ 2.0329602, 42.2577236 ], [ 2.0324969, 42.2573839 ], [ 2.0307404, 42.256939 ], [ 2.0305198, 42.2561475 ], [ 2.0299694, 42.2551723 ], [ 2.029295, 42.2546168 ], [ 2.0283194, 42.2540835 ], [ 2.0274338, 42.2533122 ], [ 2.0290302, 42.253422 ], [ 2.0288402, 42.2528632 ], [ 2.0285566, 42.2524976 ], [ 2.028557, 42.2524976 ], [ 2.0286463, 42.2518016 ], [ 2.0295939, 42.2513716 ], [ 2.0277964, 42.2494469 ], [ 2.0277929, 42.249443 ], [ 2.027792, 42.2494421 ], [ 2.028853, 42.2490719 ], [ 2.0286586, 42.2487569 ], [ 2.0292351, 42.2485431 ], [ 2.0292352, 42.2485425 ], [ 2.0293249, 42.2466312 ], [ 2.029325, 42.2466288 ], [ 2.029793, 42.2464197 ], [ 2.029501, 42.245642 ], [ 2.0295012, 42.2456416 ], [ 2.0299311, 42.2449563 ], [ 2.0299308, 42.2449562 ], [ 2.0282563, 42.244112 ], [ 2.0282535, 42.2441106 ], [ 2.0282525, 42.2441101 ], [ 2.0287327, 42.2438794 ], [ 2.0293612, 42.2435775 ], [ 2.02936, 42.2435768 ], [ 2.0271114, 42.2422186 ], [ 2.0271082, 42.2422167 ], [ 2.0271078, 42.2422164 ], [ 2.0281548, 42.2412346 ], [ 2.028156, 42.2412335 ], [ 2.027262, 42.2412643 ], [ 2.0267427, 42.2400643 ], [ 2.0267423, 42.2400633 ], [ 2.026742, 42.2400633 ], [ 2.0250406, 42.2398399 ], [ 2.0253977, 42.2377929 ], [ 2.0253982, 42.2377903 ], [ 2.0253982, 42.2377901 ], [ 2.0245479, 42.2371438 ], [ 2.0248967, 42.236311 ], [ 2.0254435, 42.2350059 ], [ 2.0254436, 42.2350057 ], [ 2.0253841, 42.2346384 ], [ 2.0251571, 42.2332374 ], [ 2.0209942, 42.231907 ], [ 2.0209929, 42.2319066 ], [ 2.0198975, 42.2324498 ], [ 2.0194006, 42.232448 ], [ 2.0184196, 42.2324444 ], [ 2.0184135, 42.2324455 ], [ 2.0170708, 42.2327004 ], [ 2.0170705, 42.2327005 ], [ 2.0191427, 42.2307274 ], [ 2.019742, 42.2283604 ], [ 2.0207042, 42.2282731 ], [ 2.0210797, 42.2276644 ], [ 2.0211661, 42.2275242 ], [ 2.0235359, 42.2273217 ], [ 2.0235355, 42.2273211 ], [ 2.0230292, 42.2265786 ], [ 2.0239331, 42.2262239 ], [ 2.0239332, 42.2262234 ], [ 2.0241161, 42.225324 ], [ 2.0253461, 42.2241896 ], [ 2.0250616, 42.2238168 ], [ 2.024914, 42.2236234 ], [ 2.0261257, 42.2230216 ], [ 2.0261256, 42.223021 ], [ 2.0260447, 42.2223133 ], [ 2.0283829, 42.2203368 ], [ 2.0283831, 42.2203361 ], [ 2.0296406, 42.2169617 ], [ 2.0296473, 42.2169535 ], [ 2.0305451, 42.2158599 ], [ 2.0305462, 42.2158585 ], [ 2.0324483, 42.21663 ], [ 2.0340829, 42.2184487 ], [ 2.035399, 42.2193091 ], [ 2.039807, 42.2211226 ], [ 2.0447797, 42.2207503 ], [ 2.0453035, 42.2213935 ], [ 2.0475832, 42.2212749 ], [ 2.0492647, 42.2213987 ], [ 2.0536568, 42.2195212 ], [ 2.0566757, 42.2195589 ], [ 2.0576354, 42.2185351 ], [ 2.0605101, 42.2176787 ], [ 2.0614632, 42.2180867 ], [ 2.061769, 42.2185773 ], [ 2.0641078, 42.2179876 ], [ 2.0673591, 42.2162412 ], [ 2.0692356, 42.2163831 ], [ 2.0720244, 42.2152151 ], [ 2.0741825, 42.2150924 ], [ 2.0765185, 42.2147727 ], [ 2.078851, 42.2162177 ], [ 2.0813144, 42.2167294 ], [ 2.0825437, 42.2165038 ], [ 2.0880233, 42.2182228 ], [ 2.091001, 42.220305 ], [ 2.0931994, 42.2205312 ], [ 2.093237, 42.2205675 ], [ 2.0950516, 42.2223214 ], [ 2.0951497, 42.2225903 ], [ 2.0951231, 42.2228964 ], [ 2.0950585, 42.2231127 ], [ 2.0948962, 42.2235163 ], [ 2.0946995, 42.2238757 ], [ 2.0943306, 42.2243876 ], [ 2.0945314, 42.2252247 ], [ 2.0947959, 42.2263855 ], [ 2.0947701, 42.2266382 ], [ 2.0947189, 42.2269568 ], [ 2.094725, 42.2272233 ], [ 2.0947309, 42.2273603 ], [ 2.0947443, 42.2274626 ], [ 2.0947895, 42.2275787 ], [ 2.0947822, 42.2276781 ], [ 2.0947949, 42.2277729 ], [ 2.0946795, 42.2279952 ], [ 2.0945731, 42.228202 ], [ 2.0944287, 42.2285095 ], [ 2.0943838, 42.2286525 ], [ 2.0943696, 42.2287942 ], [ 2.0943721, 42.2288893 ], [ 2.0943056, 42.2290181 ], [ 2.0941065, 42.2293471 ], [ 2.0940448, 42.2295366 ], [ 2.0939289, 42.2300067 ], [ 2.0939305, 42.2300905 ], [ 2.0939447, 42.2303299 ], [ 2.0939714, 42.2304698 ], [ 2.0940177, 42.2307269 ], [ 2.0941015, 42.2310661 ], [ 2.0941164, 42.231378 ], [ 2.0941181, 42.2317171 ], [ 2.094128, 42.2321588 ], [ 2.0941337, 42.2325473 ], [ 2.094122, 42.2329747 ], [ 2.0941559, 42.2331408 ], [ 2.094214, 42.2333517 ], [ 2.0943693, 42.2336878 ], [ 2.094441, 42.2338142 ], [ 2.0944886, 42.2338959 ], [ 2.0945347, 42.2339586 ], [ 2.0946085, 42.2340468 ], [ 2.0946973, 42.2341305 ], [ 2.0947548, 42.234208 ], [ 2.0948335, 42.2343569 ], [ 2.0948933, 42.2345258 ], [ 2.0949196, 42.2346618 ], [ 2.0949413, 42.2348666 ], [ 2.0949852, 42.2350934 ], [ 2.0950105, 42.2353438 ], [ 2.0950472, 42.2355441 ], [ 2.0950813, 42.2356493 ], [ 2.0951588, 42.2357831 ], [ 2.0952405, 42.2359052 ], [ 2.0953175, 42.2359704 ], [ 2.0954563, 42.2361014 ], [ 2.0956092, 42.2362166 ], [ 2.0957894, 42.2362886 ], [ 2.0959996, 42.2363516 ], [ 2.0962625, 42.2364314 ], [ 2.09646, 42.2364645 ], [ 2.09663, 42.236537 ], [ 2.0968277, 42.2366349 ], [ 2.0969938, 42.2367227 ], [ 2.0972812, 42.2369805 ], [ 2.0975308, 42.2372133 ], [ 2.0976633, 42.2373294 ], [ 2.0978044, 42.237426 ], [ 2.0980849, 42.2375964 ], [ 2.0982982, 42.2376975 ], [ 2.0985629, 42.2378 ], [ 2.0981145, 42.2382811 ], [ 2.0979719, 42.2384209 ], [ 2.0976999, 42.2387493 ], [ 2.0975578, 42.2389203 ], [ 2.0972842, 42.239242 ], [ 2.0970651, 42.2395018 ], [ 2.0968889, 42.2397078 ], [ 2.0968031, 42.2398397 ], [ 2.0967536, 42.239912 ], [ 2.0967033, 42.2400515 ], [ 2.09667, 42.2401475 ], [ 2.0966678, 42.2401963 ], [ 2.0966794, 42.2402888 ], [ 2.0966969, 42.2403277 ], [ 2.0967269, 42.240369 ], [ 2.0966544, 42.2404881 ], [ 2.0966108, 42.2405327 ], [ 2.0965726, 42.240568 ], [ 2.0966301, 42.2406447 ], [ 2.0966658, 42.2406797 ], [ 2.0967132, 42.2407081 ], [ 2.0968069, 42.2407511 ], [ 2.0968984, 42.2407913 ], [ 2.0969695, 42.2408338 ], [ 2.0970372, 42.2408842 ], [ 2.0970874, 42.2409475 ], [ 2.0971151, 42.2410103 ], [ 2.0971261, 42.2410967 ], [ 2.0971329, 42.2411802 ], [ 2.0971337, 42.2412671 ], [ 2.0971475, 42.2413107 ], [ 2.0971697, 42.241357 ], [ 2.0971922, 42.2414063 ], [ 2.0972111, 42.2414634 ], [ 2.0972124, 42.2415045 ], [ 2.0971995, 42.2415477 ], [ 2.0971684, 42.2415949 ], [ 2.0971054, 42.2416525 ], [ 2.0970616, 42.2416956 ], [ 2.0969095, 42.241768 ], [ 2.0967893, 42.2418297 ], [ 2.096721, 42.2418724 ], [ 2.0966406, 42.2419446 ], [ 2.0966118, 42.2419947 ], [ 2.0965795, 42.2420769 ], [ 2.0965563, 42.2421969 ], [ 2.0965452, 42.242237 ], [ 2.0964417, 42.2424032 ], [ 2.0964081, 42.2424702 ], [ 2.096338, 42.2426441 ], [ 2.0962944, 42.242765 ], [ 2.0962719, 42.2428422 ], [ 2.0962705, 42.2428758 ], [ 2.096273, 42.2429062 ], [ 2.0962881, 42.2429406 ], [ 2.0963052, 42.2429749 ], [ 2.0963323, 42.2430057 ], [ 2.0963645, 42.2430225 ], [ 2.0964087, 42.2430373 ], [ 2.0964836, 42.2430751 ], [ 2.0965896, 42.2431177 ], [ 2.0966352, 42.2431233 ], [ 2.0967492, 42.243138 ], [ 2.0968147, 42.243161 ], [ 2.0968973, 42.2432183 ], [ 2.0969664, 42.243261 ], [ 2.0969845, 42.2432815 ], [ 2.0969809, 42.2433137 ], [ 2.0969609, 42.2433451 ], [ 2.0969484, 42.2433685 ], [ 2.0969029, 42.2434147 ], [ 2.0968378, 42.2434725 ], [ 2.0967711, 42.2435365 ], [ 2.0967361, 42.2435853 ], [ 2.0966988, 42.2436311 ], [ 2.096682, 42.2436776 ], [ 2.0966822, 42.243731 ], [ 2.0967167, 42.2437767 ], [ 2.0967734, 42.2438184 ], [ 2.0968469, 42.2438654 ], [ 2.0969085, 42.243916 ], [ 2.0969394, 42.2439436 ], [ 2.0969581, 42.2439717 ], [ 2.0969612, 42.2440097 ], [ 2.0969628, 42.2440554 ], [ 2.0969621, 42.2440981 ], [ 2.0969683, 42.2441237 ], [ 2.0969036, 42.244212 ], [ 2.0968732, 42.2442423 ], [ 2.0968193, 42.2442859 ], [ 2.0968078, 42.2443215 ], [ 2.0968195, 42.2443651 ], [ 2.0968629, 42.2443937 ], [ 2.0969146, 42.2444249 ], [ 2.0969822, 42.2444478 ], [ 2.0970406, 42.2444605 ], [ 2.0971187, 42.2444616 ], [ 2.0972416, 42.2444591 ], [ 2.0973472, 42.2444712 ], [ 2.0973907, 42.2445013 ], [ 2.0974506, 42.2445825 ], [ 2.0975114, 42.2446499 ], [ 2.0975502, 42.2447244 ], [ 2.0975917, 42.2447805 ], [ 2.0976133, 42.2448191 ], [ 2.0976818, 42.2449304 ], [ 2.0977128, 42.2449595 ], [ 2.0977972, 42.2450381 ], [ 2.0978224, 42.2450461 ], [ 2.0979347, 42.245064 ], [ 2.0980421, 42.2450729 ], [ 2.0982385, 42.2450916 ], [ 2.0983282, 42.2451105 ], [ 2.0984037, 42.24513 ], [ 2.0984316, 42.2451455 ], [ 2.0984563, 42.2451718 ], [ 2.0984691, 42.2452033 ], [ 2.0984681, 42.2452414 ], [ 2.0984323, 42.2453071 ], [ 2.0983964, 42.2453696 ], [ 2.0983346, 42.2454684 ], [ 2.0982855, 42.2455468 ], [ 2.098276, 42.2456067 ], [ 2.0982976, 42.2456332 ], [ 2.0983355, 42.2456582 ], [ 2.0983806, 42.2456447 ], [ 2.0984878, 42.2455752 ], [ 2.0987003, 42.2454742 ], [ 2.0988956, 42.245416 ], [ 2.0990339, 42.2454136 ], [ 2.0991509, 42.2454008 ], [ 2.0992104, 42.2454401 ], [ 2.0992012, 42.2455167 ], [ 2.0991212, 42.2456689 ], [ 2.0991827, 42.2457957 ], [ 2.0993232, 42.2460105 ], [ 2.0994504, 42.2461878 ], [ 2.0994144, 42.2462504 ], [ 2.0992907, 42.2463702 ], [ 2.0992686, 42.2464779 ], [ 2.0993487, 42.2465811 ], [ 2.0995184, 42.2466497 ], [ 2.0996943, 42.2467943 ], [ 2.0998323, 42.2469788 ], [ 2.099965, 42.2472244 ], [ 2.1001216, 42.2473851 ], [ 2.1002148, 42.2473962 ], [ 2.1004143, 42.2473263 ], [ 2.1005325, 42.2471381 ], [ 2.1007036, 42.2468914 ], [ 2.1008757, 42.2466408 ], [ 2.1011278, 42.2464295 ], [ 2.1015977, 42.2470087 ], [ 2.1023037, 42.2478917 ], [ 2.1029116, 42.2487504 ], [ 2.1034823, 42.2496252 ], [ 2.1037242, 42.2500002 ], [ 2.1037867, 42.2502974 ], [ 2.1038074, 42.2505537 ], [ 2.1044161, 42.2511838 ], [ 2.105211, 42.2519771 ], [ 2.1061157, 42.2529369 ], [ 2.1068881, 42.2536883 ], [ 2.1071162, 42.2538925 ], [ 2.1089951, 42.2542944 ], [ 2.1096199, 42.2544094 ], [ 2.1106066, 42.255194 ], [ 2.1114082, 42.2558298 ], [ 2.1116003, 42.2560641 ], [ 2.1119595, 42.2564624 ], [ 2.1124273, 42.257013 ], [ 2.1134693, 42.2577666 ], [ 2.1152248, 42.259017 ], [ 2.1169182, 42.2602129 ], [ 2.1176317, 42.2607097 ], [ 2.1177641, 42.2609181 ], [ 2.1179973, 42.2614221 ], [ 2.1181772, 42.2617426 ], [ 2.1182102, 42.2619126 ], [ 2.1182875, 42.2628665 ], [ 2.1183309, 42.2631646 ], [ 2.1187004, 42.2641626 ], [ 2.1191598, 42.2655566 ], [ 2.1194353, 42.2663444 ], [ 2.1198161, 42.2667703 ], [ 2.1209297, 42.2676921 ], [ 2.1212699, 42.2680912 ], [ 2.1220395, 42.2695142 ], [ 2.1227064, 42.2708561 ], [ 2.1227321, 42.2718837 ], [ 2.1244315, 42.2740937 ], [ 2.1246439, 42.2743605 ], [ 2.1246142, 42.2743689 ], [ 2.123644, 42.2749858 ], [ 2.1216748, 42.2762381 ], [ 2.1192634, 42.2764 ], [ 2.1180935, 42.2766235 ], [ 2.1172104, 42.2763479 ], [ 2.1141471, 42.2778893 ], [ 2.1116972, 42.2780259 ], [ 2.1103603, 42.2787339 ], [ 2.1085645, 42.2782649 ], [ 2.1061297, 42.279337 ], [ 2.1053946, 42.279991 ], [ 2.101956, 42.2809457 ], [ 2.1004993, 42.2806236 ], [ 2.0965346, 42.2824208 ], [ 2.0943544, 42.2833463 ], [ 2.0892402, 42.28668 ], [ 2.0811222, 42.2856995 ], [ 2.0790856, 42.2860061 ] ] ] } }
]
}
