{
"type": "FeatureCollection",
"name": "17090",
"features": [
{ "type": "Feature", "properties": { "CCAA": "09 - Cataluña", "PROVINCIA": "17 - Girona", "MUNICIPIO": "17090 - Llambilles", "COD_MUNICIPIO": "17090", "DISTRITO": "01", "SECCION": "1709001001", "V1_H": 81.88, "V1_M": 87.06, "V2_H": 81.54316391, "V2_M": 86.92154098, "V3_H": 82.24926416, "V3_M": 87.34198023 }, "geometry": { "type": "Polygon", "coordinates": [ [ [ 2.8886747, 41.9384994 ], [ 2.8877809, 41.9389341 ], [ 2.8836243, 41.9383591 ], [ 2.881165, 41.9380425 ], [ 2.8784777, 41.9376805 ], [ 2.8762422, 41.9373761 ], [ 2.8756793, 41.9372907 ], [ 2.8755337, 41.937303 ], [ 2.8743489, 41.9373924 ], [ 2.873245, 41.9374586 ], [ 2.8725292, 41.9375144 ], [ 2.8718811, 41.9375429 ], [ 2.8699426, 41.9376233 ], [ 2.8684156, 41.9376683 ], [ 2.8679902, 41.9376901 ], [ 2.8653644, 41.9378581 ], [ 2.8635184, 41.9379717 ], [ 2.8606385, 41.9381526 ], [ 2.8592932, 41.9382311 ], [ 2.8591663, 41.9380994 ], [ 2.8588928, 41.9377609 ], [ 2.8587615, 41.9375819 ], [ 2.8584083, 41.9372094 ], [ 2.8580012, 41.9368063 ], [ 2.8578951, 41.9366926 ], [ 2.857817, 41.9366061 ], [ 2.8575233, 41.9363258 ], [ 2.85705, 41.9358261 ], [ 2.8553734, 41.9341018 ], [ 2.8550125, 41.9337153 ], [ 2.8543942, 41.9330944 ], [ 2.8531875, 41.9318595 ], [ 2.8526336, 41.9312876 ], [ 2.8522797, 41.9309342 ], [ 2.852161, 41.9308088 ], [ 2.8521327, 41.9307502 ], [ 2.8520355, 41.9306923 ], [ 2.8518883, 41.9306312 ], [ 2.8514425, 41.9306112 ], [ 2.8512579, 41.9306435 ], [ 2.8511036, 41.9307142 ], [ 2.8504418, 41.930468 ], [ 2.8503353, 41.9306144 ], [ 2.8493041, 41.9304995 ], [ 2.8482621, 41.9303775 ], [ 2.8478779, 41.9303056 ], [ 2.8460944, 41.9300004 ], [ 2.8449126, 41.9297826 ], [ 2.843027, 41.9294515 ], [ 2.8412672, 41.9291287 ], [ 2.84094, 41.9290766 ], [ 2.8394971, 41.9289095 ], [ 2.8385722, 41.9287946 ], [ 2.8382581, 41.9287565 ], [ 2.8380849, 41.9282286 ], [ 2.8378812, 41.9278226 ], [ 2.8356672, 41.9234099 ], [ 2.8351428, 41.9213662 ], [ 2.8356753, 41.9194126 ], [ 2.8360525, 41.9166838 ], [ 2.8361781, 41.9163443 ], [ 2.8362792, 41.915736 ], [ 2.8364476, 41.9152053 ], [ 2.8364953, 41.9150679 ], [ 2.8366937, 41.9147337 ], [ 2.8380024, 41.9137577 ], [ 2.8389156, 41.912937 ], [ 2.8393141, 41.9122865 ], [ 2.8394917, 41.9119893 ], [ 2.8412919, 41.9108532 ], [ 2.8418962, 41.9103453 ], [ 2.8421243, 41.9100726 ], [ 2.8427603, 41.9087258 ], [ 2.8430418, 41.9083784 ], [ 2.8436182, 41.9079619 ], [ 2.8442157, 41.9076433 ], [ 2.8455171, 41.9073788 ], [ 2.8461047, 41.9069527 ], [ 2.8463562, 41.9074619 ], [ 2.8503828, 41.9081383 ], [ 2.8503828, 41.9081383 ], [ 2.8505877, 41.9078758 ], [ 2.8509469, 41.9075874 ], [ 2.8519294, 41.907132 ], [ 2.8524035, 41.9070448 ], [ 2.852905, 41.9071272 ], [ 2.8529051, 41.9071272 ], [ 2.8532688, 41.9072615 ], [ 2.8543395, 41.9076569 ], [ 2.8545922, 41.9079231 ], [ 2.8546329, 41.907966 ], [ 2.855368, 41.9083605 ], [ 2.8567426, 41.9086322 ], [ 2.8637466, 41.9089216 ], [ 2.8705992, 41.9103166 ], [ 2.8769659, 41.9089186 ], [ 2.8809964, 41.9083244 ], [ 2.881575, 41.9081957 ], [ 2.8819791, 41.9080039 ], [ 2.8849711, 41.9092183 ], [ 2.8851859, 41.9092598 ], [ 2.8854865, 41.9093178 ], [ 2.8863238, 41.9093711 ], [ 2.8863471, 41.9093726 ], [ 2.8863471, 41.9093726 ], [ 2.8875026, 41.9096192 ], [ 2.8877814, 41.9097669 ], [ 2.8895754, 41.9114479 ], [ 2.8901995, 41.9118119 ], [ 2.8909625, 41.9121147 ], [ 2.8921545, 41.9127554 ], [ 2.8930119, 41.9135575 ], [ 2.8967199, 41.9154728 ], [ 2.8987736, 41.9166993 ], [ 2.9024738, 41.919047 ], [ 2.9025409, 41.9225092 ], [ 2.9021245, 41.9233499 ], [ 2.901649, 41.9247246 ], [ 2.9010125, 41.9257927 ], [ 2.9005133, 41.9270427 ], [ 2.8992415, 41.9293227 ], [ 2.8984953, 41.9303784 ], [ 2.8979095, 41.9308227 ], [ 2.8982038, 41.9326392 ], [ 2.8980842, 41.9326507 ], [ 2.8979228, 41.9330882 ], [ 2.8970429, 41.933728 ], [ 2.8927679, 41.936067 ], [ 2.8886747, 41.9384994 ] ] ] } }
]
}
