{
"type": "FeatureCollection",
"name": "17135",
"features": [
{ "type": "Feature", "properties": { "CCAA": "09 - Cataluña", "PROVINCIA": "17 - Girona", "MUNICIPIO": "17135 - Pont de Molins", "COD_MUNICIPIO": "17135", "DISTRITO": "01", "SECCION": "1713501001", "V1_H": 81.04, "V1_M": 86.55, "V2_H": 80.90626992, "V2_M": 86.32523903000001, "V3_H": 81.22678782, "V3_M": 86.81274177 }, "geometry": { "type": "Polygon", "coordinates": [ [ [ 2.9427635, 42.3310831 ], [ 2.9421823, 42.3310953 ], [ 2.9410184, 42.3314889 ], [ 2.9378511, 42.3325087 ], [ 2.9375518, 42.3325513 ], [ 2.9362622, 42.3323843 ], [ 2.9358163, 42.3324164 ], [ 2.9349171, 42.3327872 ], [ 2.9343919, 42.3332646 ], [ 2.9342184, 42.3333546 ], [ 2.9339619, 42.333593 ], [ 2.9332241, 42.3338743 ], [ 2.9326248, 42.3343375 ], [ 2.9312333, 42.3350219 ], [ 2.9307063, 42.3350942 ], [ 2.9297796, 42.3354304 ], [ 2.9293741, 42.3355055 ], [ 2.9260328, 42.3362279 ], [ 2.9253187, 42.3358599 ], [ 2.9245239, 42.33528 ], [ 2.9246643, 42.3349667 ], [ 2.9249012, 42.3333611 ], [ 2.9251909, 42.3312847 ], [ 2.9253387, 42.3302778 ], [ 2.9147307, 42.3312597 ], [ 2.9143839, 42.3317007 ], [ 2.9140627, 42.3318974 ], [ 2.9133647, 42.3320866 ], [ 2.9124687, 42.3321059 ], [ 2.9112673, 42.331844 ], [ 2.9096972, 42.3314031 ], [ 2.9093673, 42.3312492 ], [ 2.9091823, 42.3310877 ], [ 2.9081567, 42.3297275 ], [ 2.9078683, 42.3294993 ], [ 2.9074885, 42.3293299 ], [ 2.9063433, 42.3290201 ], [ 2.9050748, 42.3290767 ], [ 2.9049377, 42.3290387 ], [ 2.9045629, 42.3289231 ], [ 2.9034035, 42.3280739 ], [ 2.9029771, 42.3279249 ], [ 2.9020806, 42.3278091 ], [ 2.9008957, 42.3278523 ], [ 2.9009514, 42.3262472 ], [ 2.9008288, 42.3259744 ], [ 2.9005629, 42.3257271 ], [ 2.9002777, 42.3256608 ], [ 2.8999714, 42.3243354 ], [ 2.898996, 42.3213072 ], [ 2.8993153, 42.3208316 ], [ 2.8994303, 42.3199885 ], [ 2.8993863, 42.3196487 ], [ 2.8994723, 42.3194012 ], [ 2.9006223, 42.3187297 ], [ 2.902008, 42.3172089 ], [ 2.9023524, 42.317002 ], [ 2.9031225, 42.3165482 ], [ 2.9040495, 42.3164732 ], [ 2.9044873, 42.3164866 ], [ 2.9049965, 42.3166133 ], [ 2.9056913, 42.3170365 ], [ 2.9058487, 42.3171634 ], [ 2.9065561, 42.3173338 ], [ 2.9086421, 42.317073 ], [ 2.9097526, 42.3162414 ], [ 2.9108889, 42.3165877 ], [ 2.9111661, 42.3156641 ], [ 2.9117645, 42.3151921 ], [ 2.9142114, 42.3146423 ], [ 2.9145601, 42.313319 ], [ 2.9150468, 42.3130778 ], [ 2.9165291, 42.3132351 ], [ 2.9154378, 42.3120764 ], [ 2.9176465, 42.3100266 ], [ 2.9221823, 42.3107997 ], [ 2.9239473, 42.309709 ], [ 2.9251877, 42.3097437 ], [ 2.9258219, 42.3093957 ], [ 2.9269309, 42.3095812 ], [ 2.9275123, 42.3102172 ], [ 2.9282866, 42.310069 ], [ 2.9300015, 42.3085757 ], [ 2.9320073, 42.3081115 ], [ 2.9333822, 42.3076441 ], [ 2.9406334, 42.3054488 ], [ 2.940541, 42.3051116 ], [ 2.9406691, 42.3042858 ], [ 2.9408913, 42.3039411 ], [ 2.9412055, 42.3036727 ], [ 2.9425106, 42.3031098 ], [ 2.942785, 42.3029334 ], [ 2.9447632, 42.3023084 ], [ 2.9454523, 42.3020295 ], [ 2.9493737, 42.3020774 ], [ 2.9509184, 42.302384 ], [ 2.9527558, 42.3024503 ], [ 2.9532579, 42.3026312 ], [ 2.9530058, 42.3029144 ], [ 2.9517706, 42.3035729 ], [ 2.9513677, 42.3038009 ], [ 2.9511983, 42.3040618 ], [ 2.9511926, 42.3043861 ], [ 2.9513201, 42.3049646 ], [ 2.9513074, 42.3053433 ], [ 2.9511983, 42.3056011 ], [ 2.9501121, 42.3068099 ], [ 2.9488, 42.3084535 ], [ 2.9483429, 42.3091345 ], [ 2.9468307, 42.3108425 ], [ 2.9442954, 42.313918 ], [ 2.9433875, 42.3149644 ], [ 2.9432908, 42.3150955 ], [ 2.9427825, 42.3158781 ], [ 2.9420934, 42.3165441 ], [ 2.9425867, 42.3168875 ], [ 2.9427321, 42.3180412 ], [ 2.9429298, 42.31885 ], [ 2.9426433, 42.3209533 ], [ 2.9424523, 42.3212423 ], [ 2.9422674, 42.3228812 ], [ 2.9421632, 42.3287108 ], [ 2.943712, 42.3300795 ], [ 2.9441325, 42.3311919 ], [ 2.9427635, 42.3310831 ] ] ] } }
]
}
