{
"type": "FeatureCollection",
"name": "17142",
"features": [
{ "type": "Feature", "properties": { "CCAA": "09 - Cataluña", "PROVINCIA": "17 - Girona", "MUNICIPIO": "17142 - Quart", "COD_MUNICIPIO": "17142", "DISTRITO": "01", "SECCION": "1714201001", "V1_H": 81.73, "V1_M": 86.8, "V2_H": 81.31626673, "V2_M": 86.83145999, "V3_H": 82.17064416, "V3_M": 87.00536352 }, "geometry": { "type": "Polygon", "coordinates": [ [ [ 2.8980842, 41.9326507 ], [ 2.8982038, 41.9326392 ], [ 2.8982465, 41.9329027 ], [ 2.9122968, 41.9350491 ], [ 2.9122266, 41.9341616 ], [ 2.9119711, 41.9321854 ], [ 2.9121025, 41.9315215 ], [ 2.912231, 41.9312178 ], [ 2.9130355, 41.9306631 ], [ 2.9130999, 41.9303177 ], [ 2.9132658, 41.9301561 ], [ 2.9138147, 41.9299657 ], [ 2.9141093, 41.9300225 ], [ 2.9142384, 41.9301148 ], [ 2.9143329, 41.9306141 ], [ 2.9144728, 41.9308229 ], [ 2.9146917, 41.9309736 ], [ 2.9149519, 41.9310502 ], [ 2.9156254, 41.9310333 ], [ 2.9168431, 41.9312944 ], [ 2.9175129, 41.9313678 ], [ 2.9184505, 41.9315984 ], [ 2.9191109, 41.9319603 ], [ 2.9196423, 41.9324909 ], [ 2.9212513, 41.9334609 ], [ 2.9211319, 41.9338631 ], [ 2.921199, 41.9340667 ], [ 2.9216213, 41.93472 ], [ 2.9216724, 41.9351404 ], [ 2.9214671, 41.9356551 ], [ 2.921468, 41.9359251 ], [ 2.9217565, 41.9363063 ], [ 2.9219959, 41.936807 ], [ 2.9221557, 41.9369698 ], [ 2.922291, 41.9369988 ], [ 2.9226572, 41.9369168 ], [ 2.9235095, 41.9370077 ], [ 2.9238542, 41.9369538 ], [ 2.9241574, 41.9369741 ], [ 2.924395, 41.9371959 ], [ 2.9247005, 41.9373691 ], [ 2.9254305, 41.9377004 ], [ 2.9266466, 41.9379435 ], [ 2.9276605, 41.9375669 ], [ 2.9288587, 41.9374868 ], [ 2.9360153, 41.9398972 ], [ 2.9379725, 41.9399396 ], [ 2.9445567, 41.9390486 ], [ 2.9452936, 41.9390643 ], [ 2.945969, 41.9393262 ], [ 2.9468943, 41.9394222 ], [ 2.9465275, 41.9401434 ], [ 2.9464726, 41.9426577 ], [ 2.9464341, 41.9429478 ], [ 2.9461557, 41.9450776 ], [ 2.9455366, 41.9473602 ], [ 2.9470095, 41.9475087 ], [ 2.9481857, 41.9477086 ], [ 2.9494237, 41.9479233 ], [ 2.9493089, 41.9482443 ], [ 2.9491656, 41.9486478 ], [ 2.9489887, 41.9492061 ], [ 2.9487143, 41.9500125 ], [ 2.9484786, 41.9507179 ], [ 2.9481802, 41.9515256 ], [ 2.9479272, 41.9523039 ], [ 2.9476519, 41.9531013 ], [ 2.9473688, 41.9535571 ], [ 2.9470213, 41.9540973 ], [ 2.9465574, 41.9547875 ], [ 2.9466243, 41.9552702 ], [ 2.9486835, 41.9620854 ], [ 2.9456426, 41.9662042 ], [ 2.9395544, 41.9661064 ], [ 2.9321647, 41.9704236 ], [ 2.9302408, 41.9701002 ], [ 2.9282841, 41.9695535 ], [ 2.9241042, 41.9677987 ], [ 2.9222562, 41.9667332 ], [ 2.9216051, 41.9659567 ], [ 2.9207828, 41.9663233 ], [ 2.9193293, 41.9667766 ], [ 2.9182588, 41.9675881 ], [ 2.9179152, 41.9675249 ], [ 2.917188, 41.9676166 ], [ 2.9167339, 41.967793 ], [ 2.9164425, 41.9677721 ], [ 2.9156742, 41.9675508 ], [ 2.9153517, 41.9675855 ], [ 2.9135067, 41.9685 ], [ 2.912718, 41.9690989 ], [ 2.9121652, 41.9696406 ], [ 2.9118287, 41.969784 ], [ 2.9104921, 41.9700691 ], [ 2.9100223, 41.9700754 ], [ 2.9097138, 41.9700013 ], [ 2.9093886, 41.9703962 ], [ 2.9087119, 41.9707732 ], [ 2.9083911, 41.9708257 ], [ 2.9080371, 41.970781 ], [ 2.9076555, 41.9708277 ], [ 2.9064911, 41.9711489 ], [ 2.9052066, 41.9714763 ], [ 2.9047489, 41.972004 ], [ 2.9049209, 41.9724272 ], [ 2.9049115, 41.9727157 ], [ 2.9047637, 41.9730744 ], [ 2.9037532, 41.9744048 ], [ 2.9027236, 41.9760513 ], [ 2.9026541, 41.9763429 ], [ 2.9026969, 41.9769348 ], [ 2.9024565, 41.9773343 ], [ 2.9024677, 41.9775858 ], [ 2.9026546, 41.9779092 ], [ 2.9029974, 41.9782245 ], [ 2.9038922, 41.9786375 ], [ 2.9045081, 41.9794248 ], [ 2.9047136, 41.9798193 ], [ 2.9047622, 41.9802128 ], [ 2.9045695, 41.981258 ], [ 2.9040989, 41.9817774 ], [ 2.8999072, 41.983803 ], [ 2.8996038, 41.9840437 ], [ 2.8985977, 41.9843836 ], [ 2.8933386, 41.9816841 ], [ 2.8838404, 41.976808 ], [ 2.8735747, 41.9715384 ], [ 2.8674906, 41.9684119 ], [ 2.8668996, 41.9681091 ], [ 2.866418, 41.9676464 ], [ 2.8664131, 41.967507 ], [ 2.8664132, 41.9672307 ], [ 2.8663874, 41.9670891 ], [ 2.8662525, 41.9670103 ], [ 2.8660185, 41.9669651 ], [ 2.8658608, 41.9669161 ], [ 2.8657404, 41.9668555 ], [ 2.865701, 41.9667051 ], [ 2.8657361, 41.9665318 ], [ 2.8657073, 41.9662189 ], [ 2.8655908, 41.966063 ], [ 2.8653551, 41.9659988 ], [ 2.8651839, 41.9659409 ], [ 2.8646627, 41.9655485 ], [ 2.864353, 41.9653738 ], [ 2.8639596, 41.9652606 ], [ 2.8637486, 41.9649094 ], [ 2.8635464, 41.9643767 ], [ 2.8634064, 41.9639647 ], [ 2.8629136, 41.9637422 ], [ 2.8621924, 41.9629789 ], [ 2.8620362, 41.9625297 ], [ 2.8617416, 41.9619636 ], [ 2.8613454, 41.9614028 ], [ 2.8610335, 41.9613425 ], [ 2.8604365, 41.9610968 ], [ 2.8599973, 41.9606239 ], [ 2.859399, 41.9595304 ], [ 2.8591478, 41.9590193 ], [ 2.8587538, 41.958344 ], [ 2.8585822, 41.9581432 ], [ 2.8583902, 41.9575814 ], [ 2.8580903, 41.9572348 ], [ 2.8577834, 41.9568122 ], [ 2.8576172, 41.956392 ], [ 2.8576361, 41.9561815 ], [ 2.8574847, 41.9559225 ], [ 2.8574096, 41.9553833 ], [ 2.8573274, 41.9550445 ], [ 2.8574034, 41.9546215 ], [ 2.85733, 41.9543775 ], [ 2.8573783, 41.9540702 ], [ 2.8574073, 41.9538305 ], [ 2.8576901, 41.953435 ], [ 2.8577257, 41.9531283 ], [ 2.8578169, 41.9530093 ], [ 2.8578828, 41.9526153 ], [ 2.8578935, 41.9521765 ], [ 2.8579449, 41.9517642 ], [ 2.8580191, 41.9515985 ], [ 2.8581349, 41.9511924 ], [ 2.858059, 41.9506438 ], [ 2.8578712, 41.9504057 ], [ 2.8572736, 41.9498742 ], [ 2.8569278, 41.9494441 ], [ 2.8569415, 41.9491767 ], [ 2.8568571, 41.9489523 ], [ 2.8566754, 41.9487806 ], [ 2.8563711, 41.9486628 ], [ 2.8562428, 41.948517 ], [ 2.8557817, 41.9483596 ], [ 2.8553606, 41.9479429 ], [ 2.8551775, 41.9478951 ], [ 2.8546383, 41.9479989 ], [ 2.8539503, 41.9471767 ], [ 2.8537329, 41.9466162 ], [ 2.8535765, 41.946024 ], [ 2.8532342, 41.9456318 ], [ 2.8531218, 41.9453804 ], [ 2.8529782, 41.9452067 ], [ 2.8529594, 41.945141 ], [ 2.8530007, 41.9450341 ], [ 2.8529058, 41.944696 ], [ 2.8526915, 41.9443068 ], [ 2.8523175, 41.9441259 ], [ 2.8519243, 41.9440126 ], [ 2.8516278, 41.9439801 ], [ 2.8513629, 41.9440127 ], [ 2.8512837, 41.9438453 ], [ 2.8512912, 41.9437877 ], [ 2.8513376, 41.9437377 ], [ 2.8514265, 41.9437332 ], [ 2.8515899, 41.9437058 ], [ 2.8516863, 41.9436437 ], [ 2.8518883, 41.9434809 ], [ 2.851924, 41.9431742 ], [ 2.8520424, 41.9427966 ], [ 2.8523457, 41.9424858 ], [ 2.8527248, 41.9420282 ], [ 2.8529151, 41.9415992 ], [ 2.852861, 41.9412876 ], [ 2.8524932, 41.9411731 ], [ 2.8515203, 41.9408608 ], [ 2.8510777, 41.9406262 ], [ 2.8507678, 41.9403086 ], [ 2.8505582, 41.9401097 ], [ 2.8500994, 41.9398379 ], [ 2.8497428, 41.9394274 ], [ 2.8496549, 41.9391651 ], [ 2.8495289, 41.9389048 ], [ 2.849547, 41.9386848 ], [ 2.8493423, 41.9383999 ], [ 2.8492411, 41.9378525 ], [ 2.8491059, 41.9376308 ], [ 2.8490293, 41.9374918 ], [ 2.8490497, 41.9371573 ], [ 2.8492199, 41.9367866 ], [ 2.849393, 41.9365872 ], [ 2.8496936, 41.9362479 ], [ 2.8499473, 41.936092 ], [ 2.8501365, 41.9359299 ], [ 2.8502987, 41.9357502 ], [ 2.8502414, 41.9355435 ], [ 2.850136, 41.9353679 ], [ 2.8499675, 41.9353384 ], [ 2.8498225, 41.9352886 ], [ 2.8496571, 41.9351542 ], [ 2.8494115, 41.9351191 ], [ 2.8492928, 41.9350775 ], [ 2.8490959, 41.934878 ], [ 2.848634, 41.9347111 ], [ 2.8483171, 41.9345939 ], [ 2.8481224, 41.9342799 ], [ 2.8477541, 41.9342988 ], [ 2.8475562, 41.934366 ], [ 2.8470209, 41.9346506 ], [ 2.8466665, 41.9348212 ], [ 2.8464911, 41.935135 ], [ 2.8462136, 41.9355874 ], [ 2.8459383, 41.9359254 ], [ 2.8455029, 41.9361858 ], [ 2.8453167, 41.9362429 ], [ 2.845121, 41.9361958 ], [ 2.8449218, 41.9361107 ], [ 2.8446482, 41.9360485 ], [ 2.844406, 41.9360513 ], [ 2.8438296, 41.9361665 ], [ 2.8435429, 41.9362141 ], [ 2.8435293, 41.9362305 ], [ 2.8432323, 41.937446 ], [ 2.8427287, 41.938634 ], [ 2.8412606, 41.9387661 ], [ 2.8407509, 41.9387731 ], [ 2.8399415, 41.9388525 ], [ 2.8395051, 41.9391034 ], [ 2.838234, 41.9394351 ], [ 2.837828, 41.9389032 ], [ 2.837559, 41.9390313 ], [ 2.8372657, 41.9388938 ], [ 2.8369488, 41.9387766 ], [ 2.8367894, 41.9387085 ], [ 2.8364338, 41.9387266 ], [ 2.8353253, 41.9383259 ], [ 2.8353304, 41.9382978 ], [ 2.8346994, 41.9382482 ], [ 2.834512, 41.9389199 ], [ 2.8332897, 41.940135 ], [ 2.8323091, 41.9401564 ], [ 2.831704, 41.9403063 ], [ 2.8312304, 41.9404305 ], [ 2.8306655, 41.9406022 ], [ 2.8300126, 41.9407879 ], [ 2.8293047, 41.9410002 ], [ 2.8289255, 41.94111 ], [ 2.828275, 41.9412527 ], [ 2.828044, 41.9413074 ], [ 2.8274873, 41.9417787 ], [ 2.8267485, 41.9424213 ], [ 2.8266005, 41.9425408 ], [ 2.8264596, 41.9422971 ], [ 2.8255339, 41.9415341 ], [ 2.824202, 41.9409447 ], [ 2.8224409, 41.9405393 ], [ 2.8218438, 41.9404706 ], [ 2.8211873, 41.940279 ], [ 2.8211576, 41.9402658 ], [ 2.8206595, 41.9400448 ], [ 2.8201247, 41.9394688 ], [ 2.8199725, 41.9389905 ], [ 2.8199725, 41.9385944 ], [ 2.8200478, 41.9382305 ], [ 2.8203342, 41.9378018 ], [ 2.8204177, 41.9375275 ], [ 2.8208528, 41.9370103 ], [ 2.8213721, 41.9362277 ], [ 2.8216505, 41.9358444 ], [ 2.8220386, 41.9354736 ], [ 2.8224638, 41.9352449 ], [ 2.8230316, 41.935126 ], [ 2.8234037, 41.9351071 ], [ 2.825154, 41.9353961 ], [ 2.8267031, 41.9354612 ], [ 2.8267159, 41.9350735 ], [ 2.8268697, 41.9347776 ], [ 2.8294832, 41.9346175 ], [ 2.8311515, 41.9342714 ], [ 2.8322069, 41.9339475 ], [ 2.833158, 41.933539 ], [ 2.834216, 41.9344302 ], [ 2.8348984, 41.9347735 ], [ 2.8371009, 41.9343371 ], [ 2.839924, 41.933833 ], [ 2.8382581, 41.9287565 ], [ 2.8385722, 41.9287946 ], [ 2.8394971, 41.9289095 ], [ 2.84094, 41.9290766 ], [ 2.8412672, 41.9291287 ], [ 2.843027, 41.9294515 ], [ 2.8449126, 41.9297826 ], [ 2.8460944, 41.9300004 ], [ 2.8478779, 41.9303056 ], [ 2.8482621, 41.9303775 ], [ 2.8493041, 41.9304995 ], [ 2.8503353, 41.9306144 ], [ 2.8504418, 41.930468 ], [ 2.8511036, 41.9307142 ], [ 2.8512579, 41.9306435 ], [ 2.8514425, 41.9306112 ], [ 2.8518883, 41.9306312 ], [ 2.8520355, 41.9306923 ], [ 2.8521327, 41.9307502 ], [ 2.852161, 41.9308088 ], [ 2.8522797, 41.9309342 ], [ 2.8526336, 41.9312876 ], [ 2.8531875, 41.9318595 ], [ 2.8543942, 41.9330944 ], [ 2.8550125, 41.9337153 ], [ 2.8553734, 41.9341018 ], [ 2.85705, 41.9358261 ], [ 2.8575233, 41.9363258 ], [ 2.857817, 41.9366061 ], [ 2.8578951, 41.9366926 ], [ 2.8580012, 41.9368063 ], [ 2.8584083, 41.9372094 ], [ 2.8587615, 41.9375819 ], [ 2.8588928, 41.9377609 ], [ 2.8591663, 41.9380994 ], [ 2.8592932, 41.9382311 ], [ 2.8606385, 41.9381526 ], [ 2.8635184, 41.9379717 ], [ 2.8653644, 41.9378581 ], [ 2.8679902, 41.9376901 ], [ 2.8684156, 41.9376683 ], [ 2.8699426, 41.9376233 ], [ 2.8718811, 41.9375429 ], [ 2.8725292, 41.9375144 ], [ 2.873245, 41.9374586 ], [ 2.8743489, 41.9373924 ], [ 2.8755337, 41.937303 ], [ 2.8756793, 41.9372907 ], [ 2.8762422, 41.9373761 ], [ 2.8784777, 41.9376805 ], [ 2.881165, 41.9380425 ], [ 2.8836243, 41.9383591 ], [ 2.8877809, 41.9389341 ], [ 2.8886747, 41.9384994 ], [ 2.8927679, 41.936067 ], [ 2.8970429, 41.933728 ], [ 2.8979228, 41.9330882 ], [ 2.8980842, 41.9326507 ] ] ] } },
{ "type": "Feature", "properties": { "CCAA": "09 - Cataluña", "PROVINCIA": "17 - Girona", "MUNICIPIO": "17142 - Quart", "COD_MUNICIPIO": "17142", "DISTRITO": "01", "SECCION": "1714201002", "V1_H": 81.73, "V1_M": 86.8, "V2_H": 81.31626673, "V2_M": 86.83145999, "V3_H": 82.17064416, "V3_M": 87.00536352 }, "geometry": { "type": "Polygon", "coordinates": [ [ [ 2.8332549, 41.9604381 ], [ 2.8334607, 41.9602202 ], [ 2.8335718, 41.9598072 ], [ 2.8338635, 41.9591997 ], [ 2.8339378, 41.9588891 ], [ 2.8336214, 41.9587657 ], [ 2.8335601, 41.9585974 ], [ 2.8328014, 41.958439 ], [ 2.833037, 41.9577604 ], [ 2.8332131, 41.9569736 ], [ 2.8331726, 41.9565312 ], [ 2.8332702, 41.9559707 ], [ 2.8335788, 41.9555475 ], [ 2.8340086, 41.9548219 ], [ 2.8343923, 41.9541357 ], [ 2.8347401, 41.9535994 ], [ 2.8344831, 41.9535014 ], [ 2.8337512, 41.9530943 ], [ 2.833392, 41.9529644 ], [ 2.8333549, 41.9525589 ], [ 2.8334524, 41.9519984 ], [ 2.8335365, 41.9512904 ], [ 2.8337362, 41.9507617 ], [ 2.8337215, 41.9500587 ], [ 2.8336708, 41.9495058 ], [ 2.8336337, 41.9491002 ], [ 2.8332007, 41.9486926 ], [ 2.8329861, 41.9486619 ], [ 2.8313467, 41.9487996 ], [ 2.8299334, 41.9491686 ], [ 2.8291915, 41.9490984 ], [ 2.8282481, 41.9488044 ], [ 2.8277083, 41.9485708 ], [ 2.8272475, 41.9482792 ], [ 2.8268593, 41.9478579 ], [ 2.826661, 41.947535 ], [ 2.826529, 41.9471456 ], [ 2.8265452, 41.9461366 ], [ 2.8268635, 41.9452652 ], [ 2.8269649, 41.9447919 ], [ 2.8268961, 41.9432471 ], [ 2.8267174, 41.9427431 ], [ 2.8266005, 41.9425408 ], [ 2.8267485, 41.9424213 ], [ 2.8274873, 41.9417787 ], [ 2.828044, 41.9413074 ], [ 2.828275, 41.9412527 ], [ 2.8289255, 41.94111 ], [ 2.8293047, 41.9410002 ], [ 2.8300126, 41.9407879 ], [ 2.8306655, 41.9406022 ], [ 2.8312304, 41.9404305 ], [ 2.831704, 41.9403063 ], [ 2.8323091, 41.9401564 ], [ 2.8332897, 41.940135 ], [ 2.834512, 41.9389199 ], [ 2.8346994, 41.9382482 ], [ 2.8353304, 41.9382978 ], [ 2.8353253, 41.9383259 ], [ 2.8364338, 41.9387266 ], [ 2.8367894, 41.9387085 ], [ 2.8369488, 41.9387766 ], [ 2.8372657, 41.9388938 ], [ 2.837559, 41.9390313 ], [ 2.837828, 41.9389032 ], [ 2.838234, 41.9394351 ], [ 2.8395051, 41.9391034 ], [ 2.8399415, 41.9388525 ], [ 2.8407509, 41.9387731 ], [ 2.8412606, 41.9387661 ], [ 2.8427287, 41.938634 ], [ 2.8432323, 41.937446 ], [ 2.8435293, 41.9362305 ], [ 2.8435429, 41.9362141 ], [ 2.8438296, 41.9361665 ], [ 2.844406, 41.9360513 ], [ 2.8446482, 41.9360485 ], [ 2.8449218, 41.9361107 ], [ 2.845121, 41.9361958 ], [ 2.8453167, 41.9362429 ], [ 2.8455029, 41.9361858 ], [ 2.8459383, 41.9359254 ], [ 2.8462136, 41.9355874 ], [ 2.8464911, 41.935135 ], [ 2.8466665, 41.9348212 ], [ 2.8470209, 41.9346506 ], [ 2.8475562, 41.934366 ], [ 2.8477541, 41.9342988 ], [ 2.8481224, 41.9342799 ], [ 2.8483171, 41.9345939 ], [ 2.848634, 41.9347111 ], [ 2.8490959, 41.934878 ], [ 2.8492928, 41.9350775 ], [ 2.8494115, 41.9351191 ], [ 2.8496571, 41.9351542 ], [ 2.8498225, 41.9352886 ], [ 2.8499675, 41.9353384 ], [ 2.850136, 41.9353679 ], [ 2.8502414, 41.9355435 ], [ 2.8502987, 41.9357502 ], [ 2.8501365, 41.9359299 ], [ 2.8499473, 41.936092 ], [ 2.8496936, 41.9362479 ], [ 2.849393, 41.9365872 ], [ 2.8492199, 41.9367866 ], [ 2.8490497, 41.9371573 ], [ 2.8490293, 41.9374918 ], [ 2.8491059, 41.9376308 ], [ 2.8492411, 41.9378525 ], [ 2.8493423, 41.9383999 ], [ 2.849547, 41.9386848 ], [ 2.8495289, 41.9389048 ], [ 2.8496549, 41.9391651 ], [ 2.8497428, 41.9394274 ], [ 2.8500994, 41.9398379 ], [ 2.8505582, 41.9401097 ], [ 2.8507678, 41.9403086 ], [ 2.8510777, 41.9406262 ], [ 2.8515203, 41.9408608 ], [ 2.8524932, 41.9411731 ], [ 2.852861, 41.9412876 ], [ 2.8529151, 41.9415992 ], [ 2.8527248, 41.9420282 ], [ 2.8523457, 41.9424858 ], [ 2.8520424, 41.9427966 ], [ 2.851924, 41.9431742 ], [ 2.8518883, 41.9434809 ], [ 2.8516863, 41.9436437 ], [ 2.8515899, 41.9437058 ], [ 2.8514265, 41.9437332 ], [ 2.8513376, 41.9437377 ], [ 2.8512912, 41.9437877 ], [ 2.8512837, 41.9438453 ], [ 2.8513629, 41.9440127 ], [ 2.8516278, 41.9439801 ], [ 2.8519243, 41.9440126 ], [ 2.8523175, 41.9441259 ], [ 2.8526915, 41.9443068 ], [ 2.8529058, 41.944696 ], [ 2.8530007, 41.9450341 ], [ 2.8529594, 41.945141 ], [ 2.8529782, 41.9452067 ], [ 2.8531218, 41.9453804 ], [ 2.8532342, 41.9456318 ], [ 2.8535765, 41.946024 ], [ 2.8537329, 41.9466162 ], [ 2.8539503, 41.9471767 ], [ 2.8546383, 41.9479989 ], [ 2.8551775, 41.9478951 ], [ 2.8553606, 41.9479429 ], [ 2.8557817, 41.9483596 ], [ 2.8562428, 41.948517 ], [ 2.8563711, 41.9486628 ], [ 2.8566754, 41.9487806 ], [ 2.8568571, 41.9489523 ], [ 2.8569415, 41.9491767 ], [ 2.8569278, 41.9494441 ], [ 2.8572736, 41.9498742 ], [ 2.8578712, 41.9504057 ], [ 2.858059, 41.9506438 ], [ 2.8581349, 41.9511924 ], [ 2.8580191, 41.9515985 ], [ 2.8579449, 41.9517642 ], [ 2.8578935, 41.9521765 ], [ 2.8578828, 41.9526153 ], [ 2.8578169, 41.9530093 ], [ 2.8577257, 41.9531283 ], [ 2.8576901, 41.953435 ], [ 2.8574073, 41.9538305 ], [ 2.8573783, 41.9540702 ], [ 2.85733, 41.9543775 ], [ 2.8574034, 41.9546215 ], [ 2.8573274, 41.9550445 ], [ 2.8574096, 41.9553833 ], [ 2.8574847, 41.9559225 ], [ 2.8576361, 41.9561815 ], [ 2.8576172, 41.956392 ], [ 2.8577834, 41.9568122 ], [ 2.8580903, 41.9572348 ], [ 2.8583902, 41.9575814 ], [ 2.8585822, 41.9581432 ], [ 2.8587538, 41.958344 ], [ 2.8591478, 41.9590193 ], [ 2.859399, 41.9595304 ], [ 2.8599973, 41.9606239 ], [ 2.8604365, 41.9610968 ], [ 2.8610335, 41.9613425 ], [ 2.8613454, 41.9614028 ], [ 2.8617416, 41.9619636 ], [ 2.8620362, 41.9625297 ], [ 2.8621924, 41.9629789 ], [ 2.8629136, 41.9637422 ], [ 2.8634064, 41.9639647 ], [ 2.8635464, 41.9643767 ], [ 2.8637486, 41.9649094 ], [ 2.8639596, 41.9652606 ], [ 2.864353, 41.9653738 ], [ 2.8646627, 41.9655485 ], [ 2.8651839, 41.9659409 ], [ 2.8653551, 41.9659988 ], [ 2.8655908, 41.966063 ], [ 2.8657073, 41.9662189 ], [ 2.8657361, 41.9665318 ], [ 2.865701, 41.9667051 ], [ 2.8657404, 41.9668555 ], [ 2.8658608, 41.9669161 ], [ 2.8660185, 41.9669651 ], [ 2.8662525, 41.9670103 ], [ 2.8663874, 41.9670891 ], [ 2.8664132, 41.9672307 ], [ 2.8664131, 41.967507 ], [ 2.866418, 41.9676464 ], [ 2.8663571, 41.9675879 ], [ 2.8652069, 41.9679349 ], [ 2.8617645, 41.9686694 ], [ 2.8587722, 41.9689217 ], [ 2.8581326, 41.9689185 ], [ 2.8546779, 41.9683392 ], [ 2.854251, 41.9682464 ], [ 2.851991, 41.9677549 ], [ 2.8512932, 41.9676032 ], [ 2.8480928, 41.967289 ], [ 2.8476797, 41.9673569 ], [ 2.8472765, 41.9672798 ], [ 2.8468875, 41.9672139 ], [ 2.8463786, 41.9671771 ], [ 2.8463622, 41.966915 ], [ 2.8456815, 41.9670926 ], [ 2.8445696, 41.9669951 ], [ 2.8434409, 41.9668813 ], [ 2.841378, 41.9667694 ], [ 2.8401625, 41.9667114 ], [ 2.8391321, 41.9666668 ], [ 2.838689, 41.9665123 ], [ 2.8387402, 41.9662353 ], [ 2.836785, 41.9661292 ], [ 2.8347929, 41.9656192 ], [ 2.8348271, 41.9649887 ], [ 2.8348381, 41.9647471 ], [ 2.8348226, 41.9646336 ], [ 2.8347815, 41.9645747 ], [ 2.8347508, 41.964462 ], [ 2.8346605, 41.9644246 ], [ 2.8345072, 41.9643677 ], [ 2.8343732, 41.9642983 ], [ 2.8341888, 41.9642353 ], [ 2.8340882, 41.9642519 ], [ 2.8338323, 41.9642458 ], [ 2.8335253, 41.9642386 ], [ 2.8331109, 41.9642293 ], [ 2.8331089, 41.9638178 ], [ 2.8330567, 41.9634699 ], [ 2.8331911, 41.962819 ], [ 2.8332666, 41.9623045 ], [ 2.8332328, 41.9618794 ], [ 2.8331642, 41.9613532 ], [ 2.8332224, 41.9608739 ], [ 2.8331875, 41.9607157 ], [ 2.833235, 41.9605646 ], [ 2.8332549, 41.9604381 ] ] ] } }
]
}
