{
"type": "FeatureCollection",
"name": "17161",
"features": [
{ "type": "Feature", "properties": { "CCAA": "09 - Cataluña", "PROVINCIA": "17 - Girona", "MUNICIPIO": "17161 - Sant Feliu de Pallerols", "COD_MUNICIPIO": "17161", "DISTRITO": "01", "SECCION": "1716101001", "V1_H": 81.37, "V1_M": 86.85, "V2_H": 81.08688328, "V2_M": 86.76748373, "V3_H": 81.75507894, "V3_M": 87.07522296 }, "geometry": { "type": "Polygon", "coordinates": [ [ [ 2.4986099, 42.1364638 ], [ 2.4972158, 42.1365668 ], [ 2.4963058, 42.1358363 ], [ 2.4952023, 42.1359434 ], [ 2.4926635, 42.134841 ], [ 2.4915239, 42.1349497 ], [ 2.4901768, 42.1357346 ], [ 2.4889354, 42.1355061 ], [ 2.485886, 42.1363276 ], [ 2.4851065, 42.1362659 ], [ 2.4887464, 42.1303928 ], [ 2.4901572, 42.1289477 ], [ 2.4909401, 42.1272357 ], [ 2.4924983, 42.1260986 ], [ 2.4923457, 42.1244764 ], [ 2.4928662, 42.122948 ], [ 2.4935026, 42.1224764 ], [ 2.4931549, 42.1216739 ], [ 2.4930352, 42.1208514 ], [ 2.4897804, 42.1202695 ], [ 2.4882018, 42.1190759 ], [ 2.4881875, 42.1182123 ], [ 2.4871123, 42.1178048 ], [ 2.4864151, 42.1174331 ], [ 2.4846907, 42.1156703 ], [ 2.4846605, 42.1147625 ], [ 2.4827855, 42.1129349 ], [ 2.4820903, 42.1124461 ], [ 2.4813436, 42.1120588 ], [ 2.4796234, 42.111601 ], [ 2.4787329, 42.1112296 ], [ 2.4779112, 42.1103957 ], [ 2.476765, 42.1094423 ], [ 2.4758054, 42.1088311 ], [ 2.474622, 42.1077264 ], [ 2.4738238, 42.1068824 ], [ 2.4733425, 42.1060682 ], [ 2.4723707, 42.1030719 ], [ 2.4753496, 42.0985092 ], [ 2.4757309, 42.0974646 ], [ 2.4767997, 42.0969634 ], [ 2.4777959, 42.0963215 ], [ 2.4790376, 42.0951637 ], [ 2.4775228, 42.0928777 ], [ 2.4776199, 42.0916217 ], [ 2.4767371, 42.0896564 ], [ 2.4787593, 42.0880202 ], [ 2.4796349, 42.0864028 ], [ 2.4811838, 42.0857255 ], [ 2.4812132, 42.0848059 ], [ 2.481093, 42.0842535 ], [ 2.4808399, 42.0838425 ], [ 2.4802635, 42.083465 ], [ 2.4797697, 42.0833446 ], [ 2.4796222, 42.0833156 ], [ 2.4787162, 42.0828999 ], [ 2.4779642, 42.0802082 ], [ 2.4771364, 42.0797167 ], [ 2.469762, 42.0753343 ], [ 2.4670618, 42.0737259 ], [ 2.4706827, 42.0693307 ], [ 2.4718448, 42.0666914 ], [ 2.4722587, 42.0644841 ], [ 2.4744694, 42.0636401 ], [ 2.4776646, 42.0673492 ], [ 2.4796255, 42.0680925 ], [ 2.4814364, 42.068915 ], [ 2.4907096, 42.0673089 ], [ 2.4919452, 42.0652511 ], [ 2.4921526, 42.0637377 ], [ 2.4945144, 42.0618508 ], [ 2.4957629, 42.0605036 ], [ 2.4984796, 42.060346 ], [ 2.5003815, 42.0601285 ], [ 2.5008243, 42.0600802 ], [ 2.5023658, 42.0614194 ], [ 2.5034634, 42.0623749 ], [ 2.5040601, 42.0657761 ], [ 2.5187269, 42.0585427 ], [ 2.5202665, 42.056659 ], [ 2.523365, 42.0585349 ], [ 2.5243319, 42.0592354 ], [ 2.5247799, 42.0596639 ], [ 2.5252004, 42.0601927 ], [ 2.5258685, 42.0607906 ], [ 2.5266554, 42.0613647 ], [ 2.5275036, 42.0618099 ], [ 2.5286043, 42.0622428 ], [ 2.5286796, 42.0622752 ], [ 2.5303971, 42.0634075 ], [ 2.5309864, 42.0637931 ], [ 2.531183, 42.0695181 ], [ 2.5309414, 42.0729866 ], [ 2.5319071, 42.0743623 ], [ 2.5279776, 42.0730849 ], [ 2.5258597, 42.0719359 ], [ 2.5263967, 42.0707487 ], [ 2.5259452, 42.0704194 ], [ 2.5250931, 42.0699294 ], [ 2.5241548, 42.0695607 ], [ 2.5239297, 42.0694725 ], [ 2.5239923, 42.0697755 ], [ 2.5240121, 42.0698646 ], [ 2.5239816, 42.0702082 ], [ 2.5238059, 42.0705497 ], [ 2.5230122, 42.0707321 ], [ 2.5231273, 42.0712217 ], [ 2.5219354, 42.0715493 ], [ 2.5220727, 42.0721548 ], [ 2.5219319, 42.0726207 ], [ 2.5211213, 42.0741363 ], [ 2.518723, 42.0735138 ], [ 2.5174732, 42.0748434 ], [ 2.5184549, 42.0751561 ], [ 2.5189674, 42.0754915 ], [ 2.5194307, 42.0759553 ], [ 2.5203289, 42.0760019 ], [ 2.5204464, 42.0777698 ], [ 2.5243024, 42.0783398 ], [ 2.5251432, 42.0782812 ], [ 2.5258839, 42.0784614 ], [ 2.5266243, 42.0787767 ], [ 2.5279585, 42.0786943 ], [ 2.528575, 42.0788355 ], [ 2.5291715, 42.0793018 ], [ 2.5298983, 42.080293 ], [ 2.5295589, 42.0809755 ], [ 2.5302709, 42.0824895 ], [ 2.5315444, 42.0833732 ], [ 2.5319944, 42.0836845 ], [ 2.5314713, 42.0854472 ], [ 2.5319326, 42.0882427 ], [ 2.5323716, 42.0888426 ], [ 2.5324257, 42.0897402 ], [ 2.5317055, 42.0910443 ], [ 2.5340186, 42.0927599 ], [ 2.5341071, 42.094052 ], [ 2.5346823, 42.0944112 ], [ 2.5346444, 42.0952233 ], [ 2.5321252, 42.0958583 ], [ 2.5309248, 42.0983109 ], [ 2.5306157, 42.0990641 ], [ 2.5305067, 42.0993394 ], [ 2.5300579, 42.1022329 ], [ 2.5302948, 42.1028696 ], [ 2.5296578, 42.1034675 ], [ 2.5288588, 42.1044244 ], [ 2.5281944, 42.1054017 ], [ 2.5277759, 42.1062862 ], [ 2.5277366, 42.1069453 ], [ 2.5282904, 42.1076117 ], [ 2.5282009, 42.1088043 ], [ 2.5285038, 42.110059 ], [ 2.529685, 42.110434 ], [ 2.532095, 42.1118659 ], [ 2.5334908, 42.1135898 ], [ 2.5395024, 42.1152793 ], [ 2.5403751, 42.115165 ], [ 2.5432646, 42.1158532 ], [ 2.5435823, 42.1160156 ], [ 2.5448088, 42.1166426 ], [ 2.5454381, 42.1165281 ], [ 2.5450555, 42.116999 ], [ 2.5453778, 42.1178751 ], [ 2.5456086, 42.1186413 ], [ 2.5457566, 42.1190458 ], [ 2.5459026, 42.1194274 ], [ 2.5460823, 42.1199598 ], [ 2.5463231, 42.1204893 ], [ 2.5465303, 42.120868 ], [ 2.5471093, 42.1218689 ], [ 2.5477361, 42.1230656 ], [ 2.547806, 42.1231622 ], [ 2.5483314, 42.1239583 ], [ 2.5483826, 42.1240327 ], [ 2.5485646, 42.1243087 ], [ 2.548656, 42.1244436 ], [ 2.5486629, 42.124454 ], [ 2.5481892, 42.1247338 ], [ 2.5443447, 42.1248843 ], [ 2.543694, 42.1267073 ], [ 2.5421281, 42.1288537 ], [ 2.540096, 42.1294023 ], [ 2.5391853, 42.1299145 ], [ 2.5386061, 42.1304827 ], [ 2.5380504, 42.1313199 ], [ 2.5359758, 42.1313843 ], [ 2.5300838, 42.1328847 ], [ 2.5263199, 42.1323014 ], [ 2.5248582, 42.1312107 ], [ 2.5224371, 42.1314627 ], [ 2.5215084, 42.1320477 ], [ 2.5209804, 42.1302907 ], [ 2.5186959, 42.1301669 ], [ 2.5168064, 42.1313834 ], [ 2.5153246, 42.1315898 ], [ 2.51321, 42.1328621 ], [ 2.5122568, 42.1323319 ], [ 2.509731, 42.133885 ], [ 2.5090809, 42.1335022 ], [ 2.5078233, 42.1339229 ], [ 2.5075908, 42.1347263 ], [ 2.504564, 42.1341338 ], [ 2.5036394, 42.1346284 ], [ 2.501441, 42.1346622 ], [ 2.4986099, 42.1364638 ] ] ] } }
]
}
