{
"type": "FeatureCollection",
"name": "17194",
"features": [
{ "type": "Feature", "properties": { "CCAA": "09 - Cataluña", "PROVINCIA": "17 - Girona", "MUNICIPIO": "17194 - Susqueda", "COD_MUNICIPIO": "17194", "DISTRITO": "01", "SECCION": "1719401001", "V1_H": 75.48, "V1_M": 82.31, "V2_H": 75.36985678000001, "V2_M": 82.56533706, "V3_H": 75.8600571, "V3_M": 82.01450712 }, "geometry": { "type": "Polygon", "coordinates": [ [ [ 2.5627583, 41.9770808 ], [ 2.5634458, 41.9776335 ], [ 2.5635865, 41.9777257 ], [ 2.56393, 41.9805537 ], [ 2.5641679, 41.9813433 ], [ 2.5641744, 41.9821082 ], [ 2.56856, 41.9830021 ], [ 2.5698134, 41.9834002 ], [ 2.5714882, 41.9837868 ], [ 2.572708, 41.9846276 ], [ 2.5727331, 41.9853286 ], [ 2.5718641, 41.98574 ], [ 2.5710218, 41.9864562 ], [ 2.5704985, 41.9883361 ], [ 2.5704342, 41.9892575 ], [ 2.5739546, 41.9910125 ], [ 2.5737207, 41.9916406 ], [ 2.5732001, 41.9930343 ], [ 2.5730159, 41.9935249 ], [ 2.5715178, 41.9962625 ], [ 2.5728594, 41.9976646 ], [ 2.5742862, 41.9978426 ], [ 2.5751043, 41.9979423 ], [ 2.5756912, 41.9989939 ], [ 2.5750374, 41.9995209 ], [ 2.5750604, 42.000033 ], [ 2.575062, 42.0000779 ], [ 2.5768443, 42.0029257 ], [ 2.5762491, 42.0042601 ], [ 2.5759785, 42.0046154 ], [ 2.572657, 42.0067937 ], [ 2.5715952, 42.0073496 ], [ 2.5699658, 42.007627 ], [ 2.5675432, 42.0079429 ], [ 2.567597, 42.0086965 ], [ 2.5656954, 42.0093112 ], [ 2.5655548, 42.0119827 ], [ 2.5633233, 42.0120012 ], [ 2.5611808, 42.0123484 ], [ 2.560665, 42.0130757 ], [ 2.5587712, 42.014059 ], [ 2.5574068, 42.0162408 ], [ 2.55476, 42.0204744 ], [ 2.5517376, 42.0253113 ], [ 2.5457541, 42.0296615 ], [ 2.5342843, 42.0284256 ], [ 2.5347409, 42.0278454 ], [ 2.534199, 42.0275835 ], [ 2.5252358, 42.0353176 ], [ 2.5231956, 42.0357402 ], [ 2.5188892, 42.0398281 ], [ 2.5176808, 42.0402375 ], [ 2.5155898, 42.0418867 ], [ 2.5129217, 42.0457963 ], [ 2.5116994, 42.0474396 ], [ 2.5097379, 42.0487764 ], [ 2.5087912, 42.0492811 ], [ 2.5082666, 42.0493604 ], [ 2.5073265, 42.0495227 ], [ 2.5068466, 42.050257 ], [ 2.5060869, 42.0504106 ], [ 2.5046633, 42.0514063 ], [ 2.5038694, 42.0514445 ], [ 2.5030848, 42.0513112 ], [ 2.5019868, 42.0531375 ], [ 2.5013186, 42.0537908 ], [ 2.5003194, 42.054388 ], [ 2.4985161, 42.0560231 ], [ 2.4976088, 42.0569849 ], [ 2.4968998, 42.0581443 ], [ 2.4966506, 42.0588945 ], [ 2.4955112, 42.0588502 ], [ 2.4943839, 42.0588053 ], [ 2.4931658, 42.0579906 ], [ 2.4919153, 42.0562412 ], [ 2.49131, 42.055667 ], [ 2.4905922, 42.0551884 ], [ 2.4896869, 42.0549168 ], [ 2.4874025, 42.0546213 ], [ 2.4860002, 42.0543284 ], [ 2.483745, 42.0521319 ], [ 2.4826011, 42.0523128 ], [ 2.4824329, 42.0514836 ], [ 2.4829103, 42.0508576 ], [ 2.4825771, 42.0492352 ], [ 2.4833821, 42.0482063 ], [ 2.4837129, 42.0475603 ], [ 2.4840787, 42.0464805 ], [ 2.4850546, 42.0461726 ], [ 2.4859136, 42.0463295 ], [ 2.4863677, 42.0454345 ], [ 2.4878801, 42.045605 ], [ 2.4882249, 42.0445622 ], [ 2.4926675, 42.0378313 ], [ 2.4955337, 42.0369014 ], [ 2.4969714, 42.0367693 ], [ 2.5001134, 42.0330264 ], [ 2.5040608, 42.0320353 ], [ 2.5065193, 42.0322591 ], [ 2.5052096, 42.0274519 ], [ 2.5036422, 42.0259429 ], [ 2.5034952, 42.0246626 ], [ 2.5016362, 42.0239689 ], [ 2.5005379, 42.0221582 ], [ 2.4995268, 42.0214956 ], [ 2.49824, 42.0211344 ], [ 2.4968741, 42.0209749 ], [ 2.4957299, 42.0211469 ], [ 2.4943946, 42.0212021 ], [ 2.4944792, 42.0205048 ], [ 2.4949296, 42.019709 ], [ 2.4949333, 42.0187726 ], [ 2.4947996, 42.0179238 ], [ 2.4948369, 42.0175169 ], [ 2.496246, 42.0163599 ], [ 2.4950366, 42.012421 ], [ 2.4955148, 42.0116688 ], [ 2.4979812, 42.0108751 ], [ 2.4990421, 42.0111392 ], [ 2.5018256, 42.0106633 ], [ 2.5036947, 42.0096642 ], [ 2.5002709, 42.0080374 ], [ 2.4994894, 42.0054193 ], [ 2.4992212, 42.0042708 ], [ 2.4992598, 42.0015053 ], [ 2.4935585, 42.0015902 ], [ 2.490321, 42.0000171 ], [ 2.4886223, 41.9990724 ], [ 2.4849592, 41.99914 ], [ 2.4832961, 41.996645 ], [ 2.4808981, 41.996967 ], [ 2.479871, 41.9982135 ], [ 2.4805556, 41.999297 ], [ 2.4803153, 42.0000107 ], [ 2.4802799, 42.0003005 ], [ 2.4800556, 42.0007794 ], [ 2.4796347, 42.0013576 ], [ 2.4768757, 42.0012736 ], [ 2.4767068, 42.0000124 ], [ 2.4769391, 41.9973816 ], [ 2.4766599, 41.997503 ], [ 2.4764729, 41.997854 ], [ 2.4744721, 41.9960592 ], [ 2.4691387, 41.9938205 ], [ 2.4796252, 41.9891867 ], [ 2.4807465, 41.9887549 ], [ 2.4840791, 41.9863986 ], [ 2.4883812, 41.9846529 ], [ 2.4799007, 41.9824306 ], [ 2.480569, 41.9794007 ], [ 2.4833598, 41.9783218 ], [ 2.4866663, 41.9779112 ], [ 2.4880595, 41.9747564 ], [ 2.4882873, 41.9713786 ], [ 2.4884918, 41.9708106 ], [ 2.4885293, 41.9688643 ], [ 2.4882258, 41.9675824 ], [ 2.4915584, 41.9623001 ], [ 2.4918038, 41.9619283 ], [ 2.4913486, 41.9605637 ], [ 2.4908322, 41.9603094 ], [ 2.4905426, 41.9594681 ], [ 2.4901854, 41.9592421 ], [ 2.4899553, 41.9590911 ], [ 2.4896881, 41.9587888 ], [ 2.4898374, 41.9584216 ], [ 2.4904311, 41.958033 ], [ 2.4911435, 41.9570625 ], [ 2.4917818, 41.9564918 ], [ 2.4918191, 41.9560849 ], [ 2.4925237, 41.9555829 ], [ 2.4935666, 41.9543895 ], [ 2.4938185, 41.9539544 ], [ 2.4936353, 41.9536481 ], [ 2.4933743, 41.9534175 ], [ 2.4933302, 41.9531855 ], [ 2.4936061, 41.9530283 ], [ 2.4944138, 41.9530255 ], [ 2.494884, 41.9521837 ], [ 2.4950539, 41.9516354 ], [ 2.494777, 41.9510815 ], [ 2.4937455, 41.9504468 ], [ 2.4936139, 41.950039 ], [ 2.4925163, 41.9490564 ], [ 2.4925323, 41.9485425 ], [ 2.4928811, 41.9481117 ], [ 2.493615, 41.9476713 ], [ 2.4940357, 41.9475161 ], [ 2.4954067, 41.9476123 ], [ 2.4959552, 41.947541 ], [ 2.4968692, 41.947092 ], [ 2.4970366, 41.9467958 ], [ 2.4971414, 41.9457735 ], [ 2.4973914, 41.9451763 ], [ 2.4980465, 41.9448028 ], [ 2.5004611, 41.9444167 ], [ 2.5008946, 41.9442698 ], [ 2.5014289, 41.9436139 ], [ 2.5031551, 41.9429368 ], [ 2.5056148, 41.9426565 ], [ 2.5055815, 41.9425501 ], [ 2.5051396, 41.9423192 ], [ 2.5049466, 41.9420337 ], [ 2.5053169, 41.9418355 ], [ 2.5059294, 41.9414802 ], [ 2.5062248, 41.9412659 ], [ 2.5068004, 41.9408381 ], [ 2.5070004, 41.9407599 ], [ 2.5074092, 41.9405287 ], [ 2.5077752, 41.9403339 ], [ 2.5080207, 41.940162 ], [ 2.5084632, 41.9398777 ], [ 2.5088937, 41.9395426 ], [ 2.5092681, 41.9392674 ], [ 2.5095236, 41.9391236 ], [ 2.5099398, 41.9389778 ], [ 2.5102932, 41.9389036 ], [ 2.5106715, 41.9388511 ], [ 2.5110277, 41.9387196 ], [ 2.5112857, 41.9386043 ], [ 2.5115784, 41.9384473 ], [ 2.5118253, 41.9382925 ], [ 2.5121473, 41.9382084 ], [ 2.5125584, 41.9380485 ], [ 2.5128526, 41.9379086 ], [ 2.5132623, 41.9376888 ], [ 2.5136129, 41.9375376 ], [ 2.5138065, 41.9374739 ], [ 2.5139082, 41.9374547 ], [ 2.5140971, 41.9374256 ], [ 2.5142927, 41.9373419 ], [ 2.5145036, 41.9371688 ], [ 2.5146588, 41.9370156 ], [ 2.5148973, 41.9368955 ], [ 2.5151223, 41.9368418 ], [ 2.5153097, 41.9367956 ], [ 2.5155286, 41.9367593 ], [ 2.5157747, 41.9367274 ], [ 2.516005, 41.9366906 ], [ 2.5162058, 41.9366666 ], [ 2.5164297, 41.9366444 ], [ 2.51673, 41.9366642 ], [ 2.5168645, 41.9366692 ], [ 2.5169881, 41.9368147 ], [ 2.5170294, 41.9369385 ], [ 2.5170855, 41.9370558 ], [ 2.5171782, 41.9372429 ], [ 2.5173291, 41.9373499 ], [ 2.5175049, 41.9374358 ], [ 2.5176868, 41.9374584 ], [ 2.5178549, 41.9374103 ], [ 2.5180512, 41.9372894 ], [ 2.518146, 41.9371905 ], [ 2.5183313, 41.9369872 ], [ 2.5184259, 41.9368855 ], [ 2.5184823, 41.9367856 ], [ 2.5185092, 41.9366985 ], [ 2.5186115, 41.9365535 ], [ 2.5186562, 41.9364942 ], [ 2.5189267, 41.9364354 ], [ 2.5191273, 41.9364972 ], [ 2.5192725, 41.9365388 ], [ 2.5194164, 41.9366091 ], [ 2.5195519, 41.9366711 ], [ 2.5196198, 41.9367479 ], [ 2.5197044, 41.936841 ], [ 2.5197933, 41.9369396 ], [ 2.5198607, 41.9370106 ], [ 2.5199543, 41.9370747 ], [ 2.5200159, 41.9371232 ], [ 2.5200842, 41.9371599 ], [ 2.5201355, 41.9371775 ], [ 2.5203585, 41.937101 ], [ 2.520471, 41.9370298 ], [ 2.5205657, 41.9369738 ], [ 2.5207455, 41.936928 ], [ 2.5208698, 41.9369048 ], [ 2.5210203, 41.9368747 ], [ 2.5211609, 41.9368622 ], [ 2.5214911, 41.9368291 ], [ 2.5218034, 41.9368112 ], [ 2.522102, 41.9368111 ], [ 2.5222359, 41.9368103 ], [ 2.5224303, 41.936801 ], [ 2.5225935, 41.9367845 ], [ 2.5227444, 41.9368029 ], [ 2.5228503, 41.9369207 ], [ 2.5230419, 41.9371001 ], [ 2.5233568, 41.9373765 ], [ 2.5235302, 41.9375225 ], [ 2.5235925, 41.9375701 ], [ 2.5237606, 41.9376736 ], [ 2.5240715, 41.9378691 ], [ 2.524319, 41.9380264 ], [ 2.5244751, 41.9381322 ], [ 2.5246219, 41.9382403 ], [ 2.5247974, 41.938347 ], [ 2.525025, 41.9384692 ], [ 2.5250879, 41.9385003 ], [ 2.5253342, 41.9385892 ], [ 2.5255516, 41.9386219 ], [ 2.5256463, 41.9385742 ], [ 2.5256682, 41.9384939 ], [ 2.525644, 41.9384645 ], [ 2.5255817, 41.9383019 ], [ 2.5255514, 41.9382026 ], [ 2.5255702, 41.9381135 ], [ 2.5256426, 41.9380866 ], [ 2.5257738, 41.9380983 ], [ 2.5258735, 41.9381367 ], [ 2.525959, 41.9381775 ], [ 2.5260565, 41.9382178 ], [ 2.5260852, 41.9382434 ], [ 2.5262115, 41.9383381 ], [ 2.5262887, 41.9383938 ], [ 2.5263663, 41.9384278 ], [ 2.5265167, 41.9384943 ], [ 2.5265875, 41.9385323 ], [ 2.5266948, 41.9386027 ], [ 2.526785, 41.9386703 ], [ 2.5268884, 41.9387229 ], [ 2.5270383, 41.9387841 ], [ 2.5272331, 41.9388341 ], [ 2.5273992, 41.9388315 ], [ 2.5276279, 41.9388006 ], [ 2.5276411, 41.9387752 ], [ 2.5277932, 41.9386154 ], [ 2.5279887, 41.9383678 ], [ 2.5282214, 41.9381088 ], [ 2.5284743, 41.9379347 ], [ 2.5286989, 41.9378762 ], [ 2.5291511, 41.9379401 ], [ 2.529427, 41.9380316 ], [ 2.5296689, 41.9381723 ], [ 2.5298132, 41.9383654 ], [ 2.5298407, 41.9385356 ], [ 2.5298055, 41.9387183 ], [ 2.5297965, 41.9389093 ], [ 2.5298859, 41.9390574 ], [ 2.529938, 41.9392168 ], [ 2.5299865, 41.9394813 ], [ 2.5300775, 41.9396484 ], [ 2.5302456, 41.9398213 ], [ 2.530374, 41.939977 ], [ 2.5304236, 41.940108 ], [ 2.5303859, 41.9402623 ], [ 2.530372, 41.9403963 ], [ 2.5304557, 41.940478 ], [ 2.5305537, 41.9405781 ], [ 2.5306743, 41.9407914 ], [ 2.5307366, 41.9409218 ], [ 2.5307904, 41.9411002 ], [ 2.53079, 41.9412431 ], [ 2.5307531, 41.9414069 ], [ 2.5308147, 41.9415278 ], [ 2.5309217, 41.9417322 ], [ 2.5309743, 41.9420441 ], [ 2.531033, 41.9422794 ], [ 2.5309211, 41.9426088 ], [ 2.530874, 41.9428016 ], [ 2.5309266, 41.9431134 ], [ 2.5309869, 41.9433678 ], [ 2.5310136, 41.9435285 ], [ 2.5303233, 41.9435142 ], [ 2.5296973, 41.9435063 ], [ 2.529045, 41.9434902 ], [ 2.5289704, 41.9435128 ], [ 2.5287554, 41.9441235 ], [ 2.5285303, 41.9447955 ], [ 2.5284564, 41.9450621 ], [ 2.5283861, 41.9453703 ], [ 2.5282353, 41.9457511 ], [ 2.5280987, 41.9460588 ], [ 2.5280254, 41.9463329 ], [ 2.5279309, 41.9465966 ], [ 2.5278911, 41.9467852 ], [ 2.5278024, 41.9469991 ], [ 2.5275959, 41.9474436 ], [ 2.5273551, 41.948023 ], [ 2.5271669, 41.9484437 ], [ 2.5269004, 41.9489025 ], [ 2.5267869, 41.9491252 ], [ 2.5262581, 41.949326 ], [ 2.5261784, 41.9493489 ], [ 2.525806, 41.9494698 ], [ 2.5253549, 41.9496249 ], [ 2.5254983, 41.9499839 ], [ 2.5255572, 41.9501335 ], [ 2.5255935, 41.9502575 ], [ 2.5256457, 41.9505065 ], [ 2.5257065, 41.9506788 ], [ 2.5257458, 41.9509552 ], [ 2.5257429, 41.9511573 ], [ 2.525747, 41.9513819 ], [ 2.5257139, 41.9515893 ], [ 2.525662, 41.9517557 ], [ 2.5256614, 41.9518662 ], [ 2.5256319, 41.9519972 ], [ 2.5255629, 41.9522026 ], [ 2.5254107, 41.95245 ], [ 2.5253512, 41.9526472 ], [ 2.5253442, 41.9527428 ], [ 2.5253444, 41.9529219 ], [ 2.5253618, 41.9530049 ], [ 2.5255019, 41.9533259 ], [ 2.5255889, 41.9535047 ], [ 2.5255737, 41.9537417 ], [ 2.5255544, 41.9538722 ], [ 2.5254539, 41.9541857 ], [ 2.5254203, 41.9543283 ], [ 2.5253413, 41.954477 ], [ 2.5252623, 41.9546256 ], [ 2.5251318, 41.9548872 ], [ 2.5250453, 41.9550096 ], [ 2.5249116, 41.9552332 ], [ 2.5247658, 41.9554956 ], [ 2.5245148, 41.9558393 ], [ 2.5241886, 41.956259 ], [ 2.5238669, 41.9566709 ], [ 2.5238082, 41.9568185 ], [ 2.5236269, 41.9572007 ], [ 2.5234485, 41.957499 ], [ 2.5237843, 41.9576619 ], [ 2.5241972, 41.9578897 ], [ 2.5244304, 41.9579851 ], [ 2.5251449, 41.9579811 ], [ 2.5253027, 41.9580345 ], [ 2.5255491, 41.9581674 ], [ 2.5259148, 41.9582641 ], [ 2.5262577, 41.9583314 ], [ 2.5263971, 41.9584085 ], [ 2.5265588, 41.9585074 ], [ 2.5268629, 41.9585994 ], [ 2.5270913, 41.9586417 ], [ 2.5274662, 41.9586084 ], [ 2.5276548, 41.9585459 ], [ 2.5279405, 41.9584254 ], [ 2.5282426, 41.9582584 ], [ 2.5286044, 41.9580732 ], [ 2.5288222, 41.9579941 ], [ 2.5294769, 41.9577719 ], [ 2.5306504, 41.9574103 ], [ 2.531109, 41.9572815 ], [ 2.53144, 41.9574484 ], [ 2.5317399, 41.9576092 ], [ 2.5319322, 41.9577066 ], [ 2.5323419, 41.9578393 ], [ 2.5327185, 41.957943 ], [ 2.5330788, 41.9580933 ], [ 2.5333314, 41.9581802 ], [ 2.5335771, 41.9583055 ], [ 2.5337654, 41.9583573 ], [ 2.5339075, 41.9584648 ], [ 2.5341411, 41.9585678 ], [ 2.5344127, 41.9586385 ], [ 2.5345308, 41.9585871 ], [ 2.5347155, 41.9584791 ], [ 2.5349627, 41.958269 ], [ 2.5352185, 41.9581575 ], [ 2.5354586, 41.9581002 ], [ 2.5357341, 41.9579801 ], [ 2.5360687, 41.9578344 ], [ 2.5362982, 41.9576556 ], [ 2.5364769, 41.9574793 ], [ 2.5365792, 41.9572456 ], [ 2.5365424, 41.9570569 ], [ 2.5364547, 41.9568706 ], [ 2.5363136, 41.9566564 ], [ 2.5362089, 41.956509 ], [ 2.5365883, 41.9562925 ], [ 2.5367756, 41.9562148 ], [ 2.5370964, 41.9561459 ], [ 2.537224, 41.9560864 ], [ 2.5374384, 41.9559693 ], [ 2.53763, 41.9558229 ], [ 2.5377956, 41.955731 ], [ 2.5379605, 41.9556316 ], [ 2.5381383, 41.955562 ], [ 2.5382659, 41.9555025 ], [ 2.538264, 41.955716 ], [ 2.5382752, 41.955845 ], [ 2.538308, 41.9559882 ], [ 2.5382294, 41.9562588 ], [ 2.5381908, 41.9565198 ], [ 2.5381443, 41.9566897 ], [ 2.5381811, 41.9568785 ], [ 2.5382498, 41.957081 ], [ 2.5383818, 41.9574252 ], [ 2.5384754, 41.9576798 ], [ 2.5384761, 41.9579237 ], [ 2.5384441, 41.9582606 ], [ 2.5383914, 41.9584766 ], [ 2.5382987, 41.9587021 ], [ 2.5381056, 41.9589477 ], [ 2.5378915, 41.9591867 ], [ 2.5375275, 41.9594635 ], [ 2.5373454, 41.9596019 ], [ 2.5371835, 41.9598536 ], [ 2.5370488, 41.9600659 ], [ 2.5369419, 41.9602464 ], [ 2.5367229, 41.9605466 ], [ 2.5366577, 41.9608547 ], [ 2.5365211, 41.9612805 ], [ 2.5363923, 41.9615611 ], [ 2.5362484, 41.9619034 ], [ 2.5361717, 41.9619605 ], [ 2.5359345, 41.9621701 ], [ 2.5357233, 41.9623252 ], [ 2.5355601, 41.9625617 ], [ 2.5353623, 41.9627542 ], [ 2.53484, 41.9634426 ], [ 2.534659, 41.9637105 ], [ 2.534664, 41.9638855 ], [ 2.5347516, 41.9640718 ], [ 2.5348678, 41.9642339 ], [ 2.5352356, 41.9643533 ], [ 2.5356064, 41.9643887 ], [ 2.5358042, 41.9644325 ], [ 2.5354519, 41.9646096 ], [ 2.5350472, 41.9648883 ], [ 2.5347865, 41.965061 ], [ 2.5347373, 41.9652006 ], [ 2.5345661, 41.9653461 ], [ 2.5342952, 41.9655192 ], [ 2.5338871, 41.96576 ], [ 2.5337396, 41.9659424 ], [ 2.5337737, 41.9661008 ], [ 2.5338561, 41.9662264 ], [ 2.5340749, 41.9663934 ], [ 2.5344598, 41.9665921 ], [ 2.5348831, 41.9668803 ], [ 2.5350983, 41.9670642 ], [ 2.5349768, 41.967253 ], [ 2.5349143, 41.9674161 ], [ 2.5347047, 41.967472 ], [ 2.534499, 41.9675734 ], [ 2.5341925, 41.9677483 ], [ 2.5338737, 41.967958 ], [ 2.5335234, 41.9681579 ], [ 2.5331126, 41.9685436 ], [ 2.532809, 41.9687527 ], [ 2.5327303, 41.9689051 ], [ 2.5328082, 41.9690957 ], [ 2.5328909, 41.9693432 ], [ 2.533045, 41.9695301 ], [ 2.5330121, 41.9696803 ], [ 2.532867, 41.9699503 ], [ 2.5327608, 41.9701384 ], [ 2.5327934, 41.9705141 ], [ 2.5329067, 41.9707601 ], [ 2.5324166, 41.9711154 ], [ 2.531899, 41.9715063 ], [ 2.531874, 41.9717476 ], [ 2.5317915, 41.9722089 ], [ 2.5317193, 41.9726125 ], [ 2.5316042, 41.9730525 ], [ 2.5314459, 41.973346 ], [ 2.5312106, 41.9734603 ], [ 2.5309134, 41.9735661 ], [ 2.5306393, 41.9737623 ], [ 2.5302762, 41.9741685 ], [ 2.5298418, 41.9746354 ], [ 2.529616, 41.975035 ], [ 2.5294108, 41.9753193 ], [ 2.5291668, 41.9756855 ], [ 2.528851, 41.9762839 ], [ 2.5284447, 41.976898 ], [ 2.5280403, 41.9775349 ], [ 2.5278789, 41.9777943 ], [ 2.5277013, 41.9780429 ], [ 2.5273746, 41.978516 ], [ 2.5271359, 41.9787676 ], [ 2.5267486, 41.9790722 ], [ 2.5263544, 41.979297 ], [ 2.5259071, 41.9796159 ], [ 2.5254962, 41.9800015 ], [ 2.5250548, 41.9803887 ], [ 2.5246089, 41.9809019 ], [ 2.5245302, 41.9810543 ], [ 2.5244786, 41.9813426 ], [ 2.5244147, 41.9816658 ], [ 2.5243458, 41.9819321 ], [ 2.5242464, 41.9821998 ], [ 2.5241811, 41.9826832 ], [ 2.5241487, 41.9830163 ], [ 2.5241468, 41.9833479 ], [ 2.5241252, 41.9838063 ], [ 2.5241115, 41.9840013 ], [ 2.5241396, 41.9841486 ], [ 2.5242523, 41.9842117 ], [ 2.524565, 41.9844596 ], [ 2.5247861, 41.9847119 ], [ 2.5250884, 41.9850174 ], [ 2.525213, 41.9852172 ], [ 2.5254587, 41.9853997 ], [ 2.5257054, 41.9855936 ], [ 2.5256094, 41.985724 ], [ 2.5255661, 41.9859319 ], [ 2.5255633, 41.9862521 ], [ 2.5254885, 41.9864501 ], [ 2.5255265, 41.9867112 ], [ 2.5256915, 41.9870234 ], [ 2.5259451, 41.987297 ], [ 2.5262026, 41.9876161 ], [ 2.5264715, 41.9878889 ], [ 2.526763, 41.9880692 ], [ 2.5269855, 41.9881613 ], [ 2.5273789, 41.9882795 ], [ 2.5277693, 41.9883636 ], [ 2.5278973, 41.988426 ], [ 2.5283035, 41.9886922 ], [ 2.5285237, 41.9889331 ], [ 2.5287222, 41.9892779 ], [ 2.5288537, 41.9895574 ], [ 2.5290153, 41.9900069 ], [ 2.5291793, 41.9903077 ], [ 2.5291971, 41.9905126 ], [ 2.5296235, 41.9904806 ], [ 2.5304008, 41.9904316 ], [ 2.5309817, 41.9904149 ], [ 2.5314195, 41.990691 ], [ 2.5317779, 41.9909367 ], [ 2.5320704, 41.9911283 ], [ 2.53236, 41.9912858 ], [ 2.5326569, 41.9913515 ], [ 2.5328267, 41.9913661 ], [ 2.533261, 41.9914252 ], [ 2.534091, 41.9914536 ], [ 2.5345843, 41.9914869 ], [ 2.5348192, 41.9915442 ], [ 2.5352923, 41.9915213 ], [ 2.5362262, 41.9915104 ], [ 2.5364507, 41.9916253 ], [ 2.5363458, 41.9925336 ], [ 2.5363568, 41.9930132 ], [ 2.5362921, 41.9936795 ], [ 2.5362403, 41.9944937 ], [ 2.5368942, 41.9946107 ], [ 2.5373152, 41.9946932 ], [ 2.5381611, 41.9949038 ], [ 2.5391951, 41.9951625 ], [ 2.5397481, 41.9953529 ], [ 2.5404444, 41.9956051 ], [ 2.5409718, 41.9958539 ], [ 2.5414322, 41.9960374 ], [ 2.5414554, 41.9961277 ], [ 2.5415004, 41.9964686 ], [ 2.5414134, 41.9967014 ], [ 2.5413648, 41.9970239 ], [ 2.5413527, 41.9974132 ], [ 2.5413509, 41.9977448 ], [ 2.541452, 41.9980258 ], [ 2.5416132, 41.9982924 ], [ 2.5419269, 41.9985516 ], [ 2.542251, 41.9987531 ], [ 2.5427981, 41.9988752 ], [ 2.5432171, 41.9989349 ], [ 2.5438887, 41.9989024 ], [ 2.5446051, 41.9988563 ], [ 2.5450855, 41.9987415 ], [ 2.5453055, 41.998628 ], [ 2.5456112, 41.9984417 ], [ 2.5457775, 41.9982392 ], [ 2.5460324, 41.9979982 ], [ 2.5463109, 41.9976761 ], [ 2.5466799, 41.997338 ], [ 2.5472748, 41.9968652 ], [ 2.5472541, 41.996628 ], [ 2.5474398, 41.9950947 ], [ 2.5474761, 41.9940449 ], [ 2.5474604, 41.9934978 ], [ 2.5491739, 41.9930098 ], [ 2.5507326, 41.992577 ], [ 2.5510224, 41.9918722 ], [ 2.5515025, 41.9904198 ], [ 2.5510222, 41.9900381 ], [ 2.5502261, 41.9896957 ], [ 2.5494003, 41.9893784 ], [ 2.548871, 41.9891659 ], [ 2.5492822, 41.9891222 ], [ 2.5496955, 41.9891021 ], [ 2.5504053, 41.9891868 ], [ 2.550831, 41.989309 ], [ 2.5530448, 41.9887015 ], [ 2.554913, 41.9881582 ], [ 2.5532004, 41.9853593 ], [ 2.5526284, 41.9842914 ], [ 2.5543675, 41.982635 ], [ 2.5575904, 41.9796918 ], [ 2.5580894, 41.9791912 ], [ 2.558923, 41.9777692 ], [ 2.5595907, 41.9766411 ], [ 2.5598783, 41.9759126 ], [ 2.5603315, 41.9759858 ], [ 2.5613575, 41.9767696 ], [ 2.5628002, 41.9779381 ], [ 2.5626862, 41.9777293 ], [ 2.5627583, 41.9770808 ] ] ] } }
]
}
