{
"type": "FeatureCollection",
"name": "17191",
"features": [
{ "type": "Feature", "properties": { "CCAA": "09 - Cataluña", "PROVINCIA": "17 - Girona", "MUNICIPIO": "17191 - Serra de Daró", "COD_MUNICIPIO": "17191", "DISTRITO": "01", "SECCION": "1719101001", "V1_H": 81.11, "V1_M": 86.51, "V2_H": 80.75023294, "V2_M": 86.37370028, "V3_H": 81.47997818, "V3_M": 86.68611994 }, "geometry": { "type": "Polygon", "coordinates": [ [ [ 3.059007, 42.0470291 ], [ 3.0574782, 42.0474611 ], [ 3.0553632, 42.0479512 ], [ 3.0517335, 42.0495295 ], [ 3.0511592, 42.049839 ], [ 3.0489008, 42.0514887 ], [ 3.0490186, 42.0512035 ], [ 3.0490583, 42.0507333 ], [ 3.0489336, 42.0498037 ], [ 3.0477202, 42.0451782 ], [ 3.0477757, 42.0386583 ], [ 3.0479181, 42.0360944 ], [ 3.0481243, 42.0357234 ], [ 3.048376, 42.035323 ], [ 3.0472251, 42.0316033 ], [ 3.0466007, 42.0312583 ], [ 3.0473293, 42.0310487 ], [ 3.0475115, 42.030553 ], [ 3.0483962, 42.0304612 ], [ 3.0480672, 42.0283993 ], [ 3.0491697, 42.02844 ], [ 3.0499309, 42.0283187 ], [ 3.0496552, 42.0273251 ], [ 3.0507827, 42.0272475 ], [ 3.0525595, 42.0273965 ], [ 3.0525375, 42.0269116 ], [ 3.052541, 42.0268214 ], [ 3.0526741, 42.0265713 ], [ 3.0529119, 42.0264057 ], [ 3.0538497, 42.026239 ], [ 3.0535069, 42.0255551 ], [ 3.0562154, 42.0242055 ], [ 3.0593138, 42.0236543 ], [ 3.0608817, 42.0246514 ], [ 3.0638083, 42.0243252 ], [ 3.0646088, 42.0242377 ], [ 3.0652327, 42.0239436 ], [ 3.0652357, 42.0228363 ], [ 3.0649001, 42.0209638 ], [ 3.0646713, 42.0203368 ], [ 3.0643558, 42.0198135 ], [ 3.0635017, 42.0189587 ], [ 3.0633963, 42.0187392 ], [ 3.063407, 42.0177125 ], [ 3.0630797, 42.0147864 ], [ 3.0631142, 42.0142625 ], [ 3.0633615, 42.0138173 ], [ 3.0643381, 42.0127933 ], [ 3.0646744, 42.0126495 ], [ 3.0678658, 42.0116881 ], [ 3.0682296, 42.0112007 ], [ 3.0685225, 42.010348 ], [ 3.0691851, 42.0089447 ], [ 3.0691716, 42.0085493 ], [ 3.0694298, 42.0084726 ], [ 3.0698878, 42.0084663 ], [ 3.0721068, 42.0084475 ], [ 3.0729327, 42.0087547 ], [ 3.0734276, 42.0088815 ], [ 3.0739035, 42.0093153 ], [ 3.0740818, 42.0096658 ], [ 3.0743541, 42.0112536 ], [ 3.0745471, 42.0115044 ], [ 3.0748756, 42.0116579 ], [ 3.0753473, 42.0116689 ], [ 3.0758294, 42.0117873 ], [ 3.076362, 42.01193 ], [ 3.0769308, 42.0119448 ], [ 3.0787532, 42.0135852 ], [ 3.0800902, 42.0154494 ], [ 3.0805685, 42.0175483 ], [ 3.0808378, 42.0182181 ], [ 3.0813052, 42.0193184 ], [ 3.0814416, 42.0196082 ], [ 3.0819767, 42.0206599 ], [ 3.0821491, 42.0211998 ], [ 3.0820796, 42.0214826 ], [ 3.0816617, 42.0220358 ], [ 3.0810285, 42.0226096 ], [ 3.0805523, 42.022932 ], [ 3.0795484, 42.0232914 ], [ 3.0785584, 42.023416 ], [ 3.0784837, 42.0238971 ], [ 3.0793278, 42.0240142 ], [ 3.0799567, 42.0240258 ], [ 3.0799995, 42.0244736 ], [ 3.0802009, 42.0262001 ], [ 3.0833308, 42.0261057 ], [ 3.0836326, 42.02825 ], [ 3.0837183, 42.0287675 ], [ 3.0829323, 42.0296374 ], [ 3.0829442, 42.030897 ], [ 3.084878, 42.0338185 ], [ 3.0852435, 42.0343572 ], [ 3.0825766, 42.0347511 ], [ 3.0821398, 42.0349814 ], [ 3.0817785, 42.0353696 ], [ 3.081279, 42.0360803 ], [ 3.0809735, 42.0364206 ], [ 3.0804612, 42.0367449 ], [ 3.0799264, 42.0377185 ], [ 3.0802241, 42.0380537 ], [ 3.0782374, 42.0393745 ], [ 3.0768213, 42.0400979 ], [ 3.0770237, 42.0410773 ], [ 3.0748636, 42.0413451 ], [ 3.0737067, 42.0416225 ], [ 3.0710515, 42.0418896 ], [ 3.0695058, 42.0420166 ], [ 3.0689136, 42.0420121 ], [ 3.0678366, 42.0422402 ], [ 3.067119, 42.0425664 ], [ 3.065895, 42.0432794 ], [ 3.064289, 42.0439136 ], [ 3.06352, 42.0443325 ], [ 3.0607814, 42.0461339 ], [ 3.0603891, 42.0464518 ], [ 3.059007, 42.0470291 ] ] ] } }
]
}
