{
"type": "FeatureCollection",
"name": "18016",
"features": [
{ "type": "Feature", "properties": { "CCAA": "01 - Andalucía", "PROVINCIA": "18 - Granada", "MUNICIPIO": "18016 - Almegíjar", "COD_MUNICIPIO": "18016", "DISTRITO": "01", "SECCION": "1801601001", "V1_H": 79.63, "V1_M": 85.51, "V2_H": 79.79644461, "V2_M": 85.57767022, "V3_H": 79.53263393, "V3_M": 85.68344389000001 }, "geometry": { "type": "Polygon", "coordinates": [ [ [ -3.2443638, 36.8786722 ], [ -3.2438387, 36.8794124 ], [ -3.2425086, 36.8810558 ], [ -3.2427566, 36.8814159 ], [ -3.243342, 36.8820006 ], [ -3.2434325, 36.8822438 ], [ -3.2440629, 36.8828735 ], [ -3.2441426, 36.8832159 ], [ -3.2443571, 36.8836301 ], [ -3.2449308, 36.8840887 ], [ -3.2455613, 36.8847004 ], [ -3.245652, 36.8850067 ], [ -3.2452952, 36.8857015 ], [ -3.2452621, 36.8858819 ], [ -3.2462592, 36.8888816 ], [ -3.2468582, 36.8901694 ], [ -3.2467593, 36.8908187 ], [ -3.2470558, 36.8922965 ], [ -3.247698, 36.8930704 ], [ -3.248361, 36.8933304 ], [ -3.2485187, 36.8935194 ], [ -3.248532, 36.8941413 ], [ -3.249375, 36.8945452 ], [ -3.2499604, 36.8950849 ], [ -3.2506233, 36.8953088 ], [ -3.2508822, 36.8955156 ], [ -3.2510963, 36.8957946 ], [ -3.2511422, 36.896092 ], [ -3.2512554, 36.8963712 ], [ -3.2512903, 36.8967768 ], [ -3.2516163, 36.8969203 ], [ -3.2526656, 36.8986038 ], [ -3.2528456, 36.8987026 ], [ -3.2537781, 36.8990161 ], [ -3.2545209, 36.8995914 ], [ -3.2537491, 36.9003953 ], [ -3.2538393, 36.9005394 ], [ -3.2538965, 36.9008458 ], [ -3.2537985, 36.9017384 ], [ -3.2539343, 36.9020987 ], [ -3.2540256, 36.9025492 ], [ -3.2538261, 36.9033159 ], [ -3.2538054, 36.9038207 ], [ -3.2539858, 36.9040998 ], [ -3.2541331, 36.9045141 ], [ -3.2541451, 36.9047574 ], [ -3.2538104, 36.9053261 ], [ -3.2537883, 36.9054524 ], [ -3.2537107, 36.905768 ], [ -3.2539467, 36.9058216 ], [ -3.2541828, 36.9059383 ], [ -3.2545883, 36.9063431 ], [ -3.2548803, 36.9064056 ], [ -3.255094, 36.9065222 ], [ -3.2559367, 36.9068089 ], [ -3.2565205, 36.9068347 ], [ -3.2572425, 36.9078698 ], [ -3.2574803, 36.9085093 ], [ -3.257515, 36.9088067 ], [ -3.2573815, 36.9091585 ], [ -3.2574498, 36.9094559 ], [ -3.2574396, 36.9097533 ], [ -3.2572949, 36.9101142 ], [ -3.257163, 36.9109619 ], [ -3.2569847, 36.9113499 ], [ -3.256752, 36.9122608 ], [ -3.2574874, 36.913954 ], [ -3.2573421, 36.9141436 ], [ -3.2573205, 36.9143961 ], [ -3.2572088, 36.9145766 ], [ -3.2570186, 36.9147483 ], [ -3.256783, 36.9148029 ], [ -3.2559674, 36.9159765 ], [ -3.2563293, 36.91676 ], [ -3.2575169, 36.9193986 ], [ -3.257967, 36.9196771 ], [ -3.25881, 36.9199727 ], [ -3.2604393, 36.9203929 ], [ -3.2607655, 36.9205544 ], [ -3.2612932, 36.9205983 ], [ -3.2616083, 36.9207959 ], [ -3.2619349, 36.9210927 ], [ -3.2630485, 36.9217122 ], [ -3.2638704, 36.9223594 ], [ -3.2653371, 36.9244475 ], [ -3.2657902, 36.9255642 ], [ -3.266062, 36.9262487 ], [ -3.2665467, 36.9267885 ], [ -3.2692876, 36.930361 ], [ -3.2712328, 36.9342688 ], [ -3.2724193, 36.9363484 ], [ -3.2734616, 36.9389151 ], [ -3.2756926, 36.9410013 ], [ -3.27576, 36.9410191 ], [ -3.276086, 36.9411266 ], [ -3.2758607, 36.9409017 ], [ -3.274948, 36.9400565 ], [ -3.2738994, 36.938878 ], [ -3.2740877, 36.9381655 ], [ -3.2741417, 36.9375524 ], [ -3.2740929, 36.9364617 ], [ -3.2771713, 36.9337954 ], [ -3.2779657, 36.9330273 ], [ -3.2787705, 36.9319978 ], [ -3.2792516, 36.9315369 ], [ -3.2803938, 36.9306688 ], [ -3.2812452, 36.930135 ], [ -3.2816705, 36.9297554 ], [ -3.2820624, 36.929484 ], [ -3.2830045, 36.9292113 ], [ -3.2831837, 36.9290667 ], [ -3.2836162, 36.9275873 ], [ -3.2839729, 36.9269014 ], [ -3.2842186, 36.9265492 ], [ -3.2851731, 36.926574 ], [ -3.2876885, 36.926649 ], [ -3.287924, 36.9265944 ], [ -3.2900174, 36.9249576 ], [ -3.2917662, 36.9242233 ], [ -3.2923834, 36.9241496 ], [ -3.2937319, 36.9244437 ], [ -3.2949221, 36.9244678 ], [ -3.295517, 36.9244393 ], [ -3.2959757, 36.9240145 ], [ -3.2963686, 36.9239955 ], [ -3.2967501, 36.9239224 ], [ -3.2974104, 36.9233979 ], [ -3.2979804, 36.9227114 ], [ -3.2983707, 36.9220253 ], [ -3.2985039, 36.9216554 ], [ -3.2985037, 36.9215743 ], [ -3.2984682, 36.9211417 ], [ -3.2981859, 36.9207097 ], [ -3.2991357, 36.9195715 ], [ -3.2994377, 36.9192913 ], [ -3.3027092, 36.9204008 ], [ -3.3039659, 36.9202263 ], [ -3.3069407, 36.9201285 ], [ -3.3085443, 36.9196827 ], [ -3.3094192, 36.9194911 ], [ -3.3098683, 36.9194718 ], [ -3.3110458, 36.9191443 ], [ -3.3121013, 36.9191956 ], [ -3.3144891, 36.918351 ], [ -3.3140003, 36.916892 ], [ -3.3143478, 36.9167468 ], [ -3.3153562, 36.9162573 ], [ -3.3165891, 36.9157763 ], [ -3.3169921, 36.9155048 ], [ -3.3172712, 36.9151345 ], [ -3.3175275, 36.914665 ], [ -3.3178969, 36.9144207 ], [ -3.3181317, 36.9141857 ], [ -3.3184328, 36.9137071 ], [ -3.3186793, 36.9135802 ], [ -3.3193765, 36.9138758 ], [ -3.3197137, 36.9139561 ], [ -3.3202536, 36.914225 ], [ -3.320568, 36.9142422 ], [ -3.3219356, 36.9137698 ], [ -3.3226311, 36.9136507 ], [ -3.3245028, 36.9129334 ], [ -3.3252536, 36.9125978 ], [ -3.3257356, 36.9124343 ], [ -3.3257716, 36.9103609 ], [ -3.3269526, 36.9056341 ], [ -3.3282542, 36.9029262 ], [ -3.3295048, 36.8987851 ], [ -3.3300839, 36.8951237 ], [ -3.3297341, 36.894701 ], [ -3.3295876, 36.8945752 ], [ -3.3295419, 36.8943951 ], [ -3.3296069, 36.893845 ], [ -3.3293907, 36.8931515 ], [ -3.3291984, 36.8928095 ], [ -3.3292414, 36.8923587 ], [ -3.3295097, 36.8921145 ], [ -3.3296193, 36.8915012 ], [ -3.3302682, 36.8910397 ], [ -3.3304805, 36.8908047 ], [ -3.3305454, 36.8902547 ], [ -3.3307017, 36.8900559 ], [ -3.3312506, 36.8898381 ], [ -3.3319335, 36.8894305 ], [ -3.3323479, 36.889249 ], [ -3.3327953, 36.8888962 ], [ -3.3330306, 36.8888325 ], [ -3.3331304, 36.8885437 ], [ -3.3333875, 36.8883176 ], [ -3.3337464, 36.8882806 ], [ -3.33406, 36.8881175 ], [ -3.3345411, 36.8877736 ], [ -3.3350112, 36.8875198 ], [ -3.3351452, 36.8873482 ], [ -3.3351443, 36.8871499 ], [ -3.3347725, 36.8868174 ], [ -3.334738, 36.8866101 ], [ -3.3347811, 36.8862224 ], [ -3.3347467, 36.8860602 ], [ -3.3330537, 36.8864075 ], [ -3.3320332, 36.8865637 ], [ -3.3310236, 36.8866386 ], [ -3.3282733, 36.8864479 ], [ -3.3274647, 36.8863059 ], [ -3.3252129, 36.8872045 ], [ -3.3234771, 36.8880566 ], [ -3.3228047, 36.8882657 ], [ -3.3222997, 36.8882851 ], [ -3.3207721, 36.8879467 ], [ -3.3193152, 36.8884374 ], [ -3.3188559, 36.888637 ], [ -3.3183521, 36.8889268 ], [ -3.3175567, 36.8892444 ], [ -3.3167716, 36.8893637 ], [ -3.3165357, 36.8893102 ], [ -3.3161192, 36.8889958 ], [ -3.315715, 36.8889428 ], [ -3.3148161, 36.8886928 ], [ -3.3140524, 36.8885416 ], [ -3.3129978, 36.8886165 ], [ -3.3123249, 36.8887355 ], [ -3.3119553, 36.8889077 ], [ -3.3117322, 36.8892238 ], [ -3.3116666, 36.8896747 ], [ -3.3122557, 36.8910163 ], [ -3.3123695, 36.8914126 ], [ -3.3122477, 36.8918186 ], [ -3.3117893, 36.8922345 ], [ -3.3113855, 36.8922896 ], [ -3.3104302, 36.8919676 ], [ -3.3097903, 36.8919151 ], [ -3.3091734, 36.8919979 ], [ -3.3078741, 36.8926323 ], [ -3.3071903, 36.8928234 ], [ -3.3064159, 36.8928343 ], [ -3.3059327, 36.8926733 ], [ -3.3055621, 36.8926202 ], [ -3.3050237, 36.8926937 ], [ -3.3046085, 36.8926948 ], [ -3.3035661, 36.89304 ], [ -3.3027921, 36.8931501 ], [ -3.3022765, 36.8933137 ], [ -3.301627, 36.8936759 ], [ -3.301492, 36.8935771 ], [ -3.3007492, 36.8930381 ], [ -3.3005351, 36.8928313 ], [ -3.300444, 36.8925161 ], [ -3.3001736, 36.8922283 ], [ -3.2999589, 36.8918593 ], [ -3.2997989, 36.8911205 ], [ -3.2994951, 36.8909049 ], [ -3.2993938, 36.8908601 ], [ -3.2990005, 36.8907258 ], [ -3.2970872, 36.8893244 ], [ -3.2945158, 36.8889252 ], [ -3.2921021, 36.8887148 ], [ -3.2879189, 36.8864624 ], [ -3.2871097, 36.8861218 ], [ -3.2864124, 36.8857178 ], [ -3.2862065, 36.8846726 ], [ -3.2856217, 36.8843315 ], [ -3.2851151, 36.8839 ], [ -3.2845286, 36.8830991 ], [ -3.2843136, 36.8826128 ], [ -3.2840654, 36.8822619 ], [ -3.2832438, 36.8815877 ], [ -3.2829514, 36.8814262 ], [ -3.2827156, 36.8813727 ], [ -3.2825455, 36.8809133 ], [ -3.2823205, 36.8807606 ], [ -3.2813075, 36.8798976 ], [ -3.2809466, 36.8794117 ], [ -3.2804202, 36.8796744 ], [ -3.2799505, 36.8801172 ], [ -3.2796937, 36.8804694 ], [ -3.2793692, 36.8807045 ], [ -3.2789658, 36.8808587 ], [ -3.2786181, 36.8809226 ], [ -3.2779578, 36.8813839 ], [ -3.2774762, 36.8816554 ], [ -3.2774314, 36.8816826 ], [ -3.2768818, 36.881756 ], [ -3.2769481, 36.8814583 ], [ -3.2769245, 36.8811429 ], [ -3.2767892, 36.8809719 ], [ -3.2765418, 36.8808012 ], [ -3.2761148, 36.880631 ], [ -3.2758673, 36.8804693 ], [ -3.2758892, 36.880307 ], [ -3.2760787, 36.879955 ], [ -3.2760097, 36.8795044 ], [ -3.2758625, 36.8791171 ], [ -3.275592, 36.8788022 ], [ -3.2750413, 36.8785511 ], [ -3.2746481, 36.8784438 ], [ -3.2736696, 36.877761 ], [ -3.2729391, 36.8774742 ], [ -3.2718834, 36.8771882 ], [ -3.2715459, 36.8769726 ], [ -3.2704335, 36.8765334 ], [ -3.2691206, 36.8764733 ], [ -3.2685701, 36.8762943 ], [ -3.2678613, 36.8757369 ], [ -3.2660686, 36.8764802 ], [ -3.2652727, 36.8767073 ], [ -3.264768, 36.8767716 ], [ -3.2639483, 36.8766021 ], [ -3.2634091, 36.876432 ], [ -3.2621404, 36.8761824 ], [ -3.2616797, 36.8759941 ], [ -3.261376, 36.8757874 ], [ -3.2607565, 36.8750857 ], [ -3.2605542, 36.874996 ], [ -3.2597579, 36.8750878 ], [ -3.2594885, 36.8750434 ], [ -3.2583088, 36.8745772 ], [ -3.2580731, 36.8745687 ], [ -3.2573221, 36.8748047 ], [ -3.2569072, 36.8748687 ], [ -3.25611, 36.8747081 ], [ -3.2543934, 36.8747479 ], [ -3.2540123, 36.8748839 ], [ -3.2533956, 36.8749573 ], [ -3.2527452, 36.875112 ], [ -3.2513329, 36.8755477 ], [ -3.2501338, 36.8760099 ], [ -3.2498203, 36.8762179 ], [ -3.2497427, 36.8764975 ], [ -3.2498239, 36.8773086 ], [ -3.2497234, 36.8774711 ], [ -3.2494883, 36.8776249 ], [ -3.2482663, 36.8779609 ], [ -3.24746, 36.8784404 ], [ -3.2471018, 36.8787386 ], [ -3.2467989, 36.8787663 ], [ -3.2461469, 36.87838 ], [ -3.2457314, 36.8782907 ], [ -3.245238, 36.8783729 ], [ -3.2443638, 36.8786722 ] ], [ [ -3.2950758, 36.914831 ], [ -3.2954571, 36.91474 ], [ -3.2958724, 36.9147119 ], [ -3.2966849, 36.9158096 ], [ -3.2967759, 36.9161069 ], [ -3.296958, 36.9167555 ], [ -3.2972299, 36.9173858 ], [ -3.2984947, 36.9192937 ], [ -3.2984851, 36.9197174 ], [ -3.2981281, 36.9202771 ], [ -3.2971215, 36.9212803 ], [ -3.2969981, 36.9213076 ], [ -3.2966841, 36.9213895 ], [ -3.2961674, 36.9213367 ], [ -3.2955265, 36.9210859 ], [ -3.2950982, 36.9206543 ], [ -3.2943498, 36.9187181 ], [ -3.2939661, 36.9182142 ], [ -3.2936396, 36.9179807 ], [ -3.2940167, 36.9167538 ], [ -3.294307, 36.9163564 ], [ -3.2944959, 36.9158421 ], [ -3.294584, 36.9153822 ], [ -3.2947623, 36.9150843 ], [ -3.2950758, 36.914831 ] ] ] } }
]
}
