{
"type": "FeatureCollection",
"name": "18027",
"features": [
{ "type": "Feature", "properties": { "CCAA": "01 - Andalucía", "PROVINCIA": "18 - Granada", "MUNICIPIO": "18027 - Benalúa", "COD_MUNICIPIO": "18027", "DISTRITO": "01", "SECCION": "1802701002", "V1_H": 79.16, "V1_M": 85.0, "V2_H": 79.432337, "V2_M": 85.16926182, "V3_H": 78.95181978, "V3_M": 84.90024095 }, "geometry": { "type": "Polygon", "coordinates": [ [ [ -3.1512474, 37.3439507 ], [ -3.151355, 37.3442164 ], [ -3.1523974, 37.3456556 ], [ -3.1540375, 37.3471607 ], [ -3.1583818, 37.3503699 ], [ -3.1586808, 37.350503 ], [ -3.1590397, 37.3506838 ], [ -3.1591713, 37.3507885 ], [ -3.159291, 37.3508742 ], [ -3.1594107, 37.3509409 ], [ -3.1595542, 37.3510074 ], [ -3.1596497, 37.3509596 ], [ -3.1597811, 37.3509594 ], [ -3.1607262, 37.3514351 ], [ -3.1612162, 37.3514917 ], [ -3.1613836, 37.3515392 ], [ -3.1616468, 37.3516533 ], [ -3.1618623, 37.3518629 ], [ -3.1619462, 37.3519868 ], [ -3.1621379, 37.3522155 ], [ -3.162772, 37.352558 ], [ -3.1633817, 37.352643 ], [ -3.1637642, 37.3526902 ], [ -3.1644691, 37.352632 ], [ -3.1651618, 37.3524784 ], [ -3.1653408, 37.3523255 ], [ -3.1655204, 37.3524874 ], [ -3.165688, 37.3526589 ], [ -3.1661306, 37.3528205 ], [ -3.1666318, 37.352505 ], [ -3.1669779, 37.3523328 ], [ -3.1671698, 37.3526378 ], [ -3.167469, 37.3528186 ], [ -3.1676125, 37.3528947 ], [ -3.1689288, 37.3536655 ], [ -3.1695996, 37.3543801 ], [ -3.1701509, 37.3550757 ], [ -3.1707022, 37.3557904 ], [ -3.1712662, 37.3568294 ], [ -3.1723463, 37.358793 ], [ -3.1735105, 37.3609472 ], [ -3.1738349, 37.3617195 ], [ -3.1750829, 37.3638736 ], [ -3.1752004, 37.364035 ], [ -3.1753621, 37.3637377 ], [ -3.1754354, 37.363546 ], [ -3.175654, 37.36298 ], [ -3.1760254, 37.3624026 ], [ -3.176262, 37.362204 ], [ -3.1768715, 37.3620768 ], [ -3.1792656, 37.3620823 ], [ -3.1792769, 37.3620823 ], [ -3.179277, 37.3620823 ], [ -3.1804511, 37.3619543 ], [ -3.1812294, 37.3616016 ], [ -3.1816246, 37.3615559 ], [ -3.1827429, 37.3616894 ], [ -3.182743, 37.3616894 ], [ -3.1831949, 37.361664 ], [ -3.183195, 37.361664 ], [ -3.1833978, 37.3616524 ], [ -3.1833979, 37.3616524 ], [ -3.1841428, 37.361498 ], [ -3.1841428, 37.361498 ], [ -3.1876243, 37.3628807 ], [ -3.1876244, 37.3628807 ], [ -3.1886011, 37.3619935 ], [ -3.1886385, 37.3619597 ], [ -3.1886017, 37.3619349 ], [ -3.1876205, 37.3612943 ], [ -3.1873944, 37.3612045 ], [ -3.1866932, 37.3607639 ], [ -3.1855279, 37.3599094 ], [ -3.1855941, 37.3592603 ], [ -3.1858068, 37.3584848 ], [ -3.1847644, 37.3570081 ], [ -3.1856085, 37.3559161 ], [ -3.1856085, 37.3559161 ], [ -3.1842738, 37.3549717 ], [ -3.1851869, 37.3543484 ], [ -3.1837503, 37.353278 ], [ -3.1821319, 37.3517301 ], [ -3.1813514, 37.3511363 ], [ -3.1790202, 37.3489224 ], [ -3.1784314, 37.3481842 ], [ -3.1779449, 37.3477523 ], [ -3.1770742, 37.3471857 ], [ -3.1757962, 37.3462411 ], [ -3.1748686, 37.3454493 ], [ -3.1740995, 37.3448644 ], [ -3.1732843, 37.3438741 ], [ -3.1732843, 37.3438741 ], [ -3.1710563, 37.3421287 ], [ -3.1695298, 37.3410762 ], [ -3.1695298, 37.3410762 ], [ -3.1676769, 37.3404388 ], [ -3.1665018, 37.3399537 ], [ -3.1661964, 37.3397288 ], [ -3.1658231, 37.3393597 ], [ -3.1652351, 37.3389099 ], [ -3.1646267, 37.3395147 ], [ -3.1641654, 37.3402364 ], [ -3.1632864, 37.3409587 ], [ -3.1615953, 37.3420968 ], [ -3.1613252, 37.3424847 ], [ -3.160987, 37.3427286 ], [ -3.1609026, 37.3428262 ], [ -3.1606829, 37.3430805 ], [ -3.1603228, 37.3436129 ], [ -3.1601085, 37.3437032 ], [ -3.1585848, 37.3439757 ], [ -3.1580095, 37.3441748 ], [ -3.1576034, 37.3443556 ], [ -3.1568015, 37.3441944 ], [ -3.1563151, 37.3437894 ], [ -3.1558976, 37.343871 ], [ -3.1551292, 37.3435476 ], [ -3.1550273, 37.3434215 ], [ -3.1541804, 37.3433505 ], [ -3.1530851, 37.3432528 ], [ -3.1522615, 37.3435693 ], [ -3.1513815, 37.3438859 ], [ -3.1512474, 37.3439507 ] ] ] } },
{ "type": "Feature", "properties": { "CCAA": "01 - Andalucía", "PROVINCIA": "18 - Granada", "MUNICIPIO": "18027 - Benalúa", "COD_MUNICIPIO": "18027", "DISTRITO": "01", "SECCION": "1802701001", "V1_H": 78.2, "V1_M": 84.44, "V2_H": 78.32882893, "V2_M": 84.51506174, "V3_H": 78.2023938, "V3_M": 84.51669805 }, "geometry": { "type": "Polygon", "coordinates": [ [ [ -3.1559884, 37.3717959 ], [ -3.1572075, 37.3715238 ], [ -3.158647, 37.3715895 ], [ -3.1587437, 37.3715939 ], [ -3.1587438, 37.3715939 ], [ -3.1593985, 37.3714398 ], [ -3.1598841, 37.3713941 ], [ -3.1602569, 37.3714657 ], [ -3.1602569, 37.3714657 ], [ -3.1612519, 37.3720142 ], [ -3.1634788, 37.3729126 ], [ -3.1634789, 37.3729126 ], [ -3.1647227, 37.3735688 ], [ -3.1651753, 37.3739559 ], [ -3.1657193, 37.3747844 ], [ -3.1681093, 37.3728071 ], [ -3.1681094, 37.372807 ], [ -3.168662, 37.3724547 ], [ -3.169339, 37.3721653 ], [ -3.170163, 37.3719388 ], [ -3.1707051, 37.371911 ], [ -3.1707051, 37.371911 ], [ -3.1717333, 37.3721258 ], [ -3.1717334, 37.3721258 ], [ -3.1721173, 37.3721162 ], [ -3.17337, 37.3716727 ], [ -3.1758509, 37.3700015 ], [ -3.1765122, 37.3678282 ], [ -3.1765676, 37.3673865 ], [ -3.175104, 37.3644591 ], [ -3.1750923, 37.3642338 ], [ -3.1751933, 37.364048 ], [ -3.1752004, 37.364035 ], [ -3.1750829, 37.3638736 ], [ -3.1738349, 37.3617195 ], [ -3.1735105, 37.3609472 ], [ -3.1723463, 37.358793 ], [ -3.1712662, 37.3568294 ], [ -3.1707022, 37.3557904 ], [ -3.1701509, 37.3550757 ], [ -3.1695996, 37.3543801 ], [ -3.1689288, 37.3536655 ], [ -3.1676125, 37.3528947 ], [ -3.167469, 37.3528186 ], [ -3.1671698, 37.3526378 ], [ -3.1669779, 37.3523328 ], [ -3.1666318, 37.352505 ], [ -3.1661306, 37.3528205 ], [ -3.165688, 37.3526589 ], [ -3.1655204, 37.3524874 ], [ -3.1653408, 37.3523255 ], [ -3.1651618, 37.3524784 ], [ -3.1644691, 37.352632 ], [ -3.1637642, 37.3526902 ], [ -3.1633817, 37.352643 ], [ -3.162772, 37.352558 ], [ -3.1621379, 37.3522155 ], [ -3.1619462, 37.3519868 ], [ -3.1618623, 37.3518629 ], [ -3.1616468, 37.3516533 ], [ -3.1613836, 37.3515392 ], [ -3.1612162, 37.3514917 ], [ -3.1607262, 37.3514351 ], [ -3.1597811, 37.3509594 ], [ -3.1596497, 37.3509596 ], [ -3.1595542, 37.3510074 ], [ -3.1594107, 37.3509409 ], [ -3.159291, 37.3508742 ], [ -3.1591713, 37.3507885 ], [ -3.1590397, 37.3506838 ], [ -3.1586808, 37.350503 ], [ -3.1583818, 37.3503699 ], [ -3.1540375, 37.3471607 ], [ -3.1523974, 37.3456556 ], [ -3.151355, 37.3442164 ], [ -3.1512474, 37.3439507 ], [ -3.1506709, 37.3442293 ], [ -3.1487075, 37.3447456 ], [ -3.146958, 37.3450182 ], [ -3.1463941, 37.3453253 ], [ -3.146101, 37.3456051 ], [ -3.1444333, 37.3472838 ], [ -3.1432387, 37.348457 ], [ -3.1426865, 37.3490435 ], [ -3.1423485, 37.3494585 ], [ -3.1424167, 37.3496928 ], [ -3.142564, 37.3499451 ], [ -3.1426772, 37.3501072 ], [ -3.1428468, 37.3502241 ], [ -3.1430389, 37.3503501 ], [ -3.1431859, 37.3504401 ], [ -3.1433329, 37.35053 ], [ -3.1434911, 37.350602 ], [ -3.1437056, 37.3506468 ], [ -3.143909, 37.3506916 ], [ -3.144135, 37.3507815 ], [ -3.1443384, 37.3508894 ], [ -3.1444515, 37.3509614 ], [ -3.1445308, 37.3510784 ], [ -3.1445874, 37.3511865 ], [ -3.1445538, 37.3513308 ], [ -3.1444976, 37.3514841 ], [ -3.1444754, 37.3516824 ], [ -3.1444645, 37.3518537 ], [ -3.1445326, 37.3520339 ], [ -3.1446234, 37.3523042 ], [ -3.1447368, 37.3525384 ], [ -3.144918, 37.3528447 ], [ -3.1451784, 37.353241 ], [ -3.1452216, 37.3533086 ], [ -3.1453597, 37.3535292 ], [ -3.1456087, 37.3538714 ], [ -3.145982, 37.3542315 ], [ -3.1484245, 37.3560223 ], [ -3.1490579, 37.3565623 ], [ -3.1495673, 37.3572017 ], [ -3.1498166, 37.357652 ], [ -3.1500668, 37.3585531 ], [ -3.1502278, 37.3600492 ], [ -3.1504116, 37.3616174 ], [ -3.1506268, 37.3619777 ], [ -3.1532853, 37.3643089 ], [ -3.1569161, 37.3670354 ], [ -3.1571763, 37.3672784 ], [ -3.1567388, 37.3687032 ], [ -3.1565265, 37.3698301 ], [ -3.1559884, 37.3717959 ] ] ] } }
]
}
