{
"type": "FeatureCollection",
"name": "18050",
"features": [
{ "type": "Feature", "properties": { "CCAA": "01 - Andalucía", "PROVINCIA": "18 - Granada", "MUNICIPIO": "18050 - Cogollos de la Vega", "COD_MUNICIPIO": "18050", "DISTRITO": "01", "SECCION": "1805001002", "V1_H": 79.36, "V1_M": 85.46, "V2_H": 79.32780616, "V2_M": 85.51002556, "V3_H": 79.53169609, "V3_M": 85.5666933 }, "geometry": { "type": "Polygon", "coordinates": [ [ [ -3.5055812, 37.2807279 ], [ -3.5044341, 37.2829592 ], [ -3.5045596, 37.2831661 ], [ -3.5052739, 37.2837038 ], [ -3.50549, 37.2839733 ], [ -3.5056053, 37.2843334 ], [ -3.5056191, 37.28473 ], [ -3.505475, 37.2850912 ], [ -3.5054321, 37.2854429 ], [ -3.5056298, 37.2863254 ], [ -3.505463, 37.2866867 ], [ -3.505376, 37.2871738 ], [ -3.5055063, 37.2881017 ], [ -3.5057348, 37.2885334 ], [ -3.506235, 37.2890991 ], [ -3.5065982, 37.2894221 ], [ -3.5070514, 37.2897086 ], [ -3.5074604, 37.2901305 ], [ -3.5079277, 37.2908406 ], [ -3.5085075, 37.2914961 ], [ -3.5047933, 37.2945317 ], [ -3.5042192, 37.2947234 ], [ -3.503691, 37.2950322 ], [ -3.5032983, 37.2953763 ], [ -3.5029402, 37.2958196 ], [ -3.5026279, 37.2963707 ], [ -3.5024311, 37.2973 ], [ -3.502333, 37.2991519 ], [ -3.5023308, 37.2991933 ], [ -3.5023307, 37.2991934 ], [ -3.5022326, 37.2996985 ], [ -3.5022325, 37.2996986 ], [ -3.502088, 37.3000237 ], [ -3.502088, 37.3000237 ], [ -3.5017178, 37.3003317 ], [ -3.501178, 37.3006135 ], [ -3.4993201, 37.3011982 ], [ -3.4990389, 37.3013346 ], [ -3.4986016, 37.301751 ], [ -3.4977681, 37.3019889 ], [ -3.4975434, 37.3021431 ], [ -3.49723, 37.302523 ], [ -3.4962972, 37.3030948 ], [ -3.4958931, 37.303412 ], [ -3.4954454, 37.3039817 ], [ -3.4951649, 37.3042172 ], [ -3.4945566, 37.304382 ], [ -3.4940041, 37.3044474 ], [ -3.4937228, 37.3045568 ], [ -3.4935777, 37.3048098 ], [ -3.4934785, 37.3051707 ], [ -3.4932881, 37.3053969 ], [ -3.4928264, 37.305543 ], [ -3.4915067, 37.3056206 ], [ -3.4915066, 37.3056206 ], [ -3.4908849, 37.3054429 ], [ -3.490888, 37.3059206 ], [ -3.4906801, 37.306922 ], [ -3.4909564, 37.3095079 ], [ -3.4909027, 37.3099318 ], [ -3.4902787, 37.3111602 ], [ -3.4900328, 37.3115308 ], [ -3.4899857, 37.3117242 ], [ -3.4899669, 37.3118015 ], [ -3.4899669, 37.3118016 ], [ -3.4900158, 37.3123872 ], [ -3.4899877, 37.3132707 ], [ -3.4900601, 37.3139916 ], [ -3.4894743, 37.3141562 ], [ -3.4886301, 37.3145022 ], [ -3.4875025, 37.3146511 ], [ -3.4868883, 37.3174119 ], [ -3.4865641, 37.3179 ], [ -3.4860673, 37.3184469 ], [ -3.4854546, 37.3191214 ], [ -3.4852206, 37.3196001 ], [ -3.4851677, 37.3201411 ], [ -3.485423, 37.3212308 ], [ -3.4854351, 37.321406 ], [ -3.4854479, 37.3215912 ], [ -3.4870119, 37.3239104 ], [ -3.4875333, 37.3246835 ], [ -3.4879458, 37.3252269 ], [ -3.4892864, 37.3269928 ], [ -3.4892865, 37.3269928 ], [ -3.4895674, 37.3268024 ], [ -3.4899391, 37.3266837 ], [ -3.4904581, 37.3266455 ], [ -3.4914402, 37.3266594 ], [ -3.49231, 37.326764 ], [ -3.4930983, 37.3264903 ], [ -3.4941109, 37.3259813 ], [ -3.4951918, 37.3255712 ], [ -3.4963525, 37.3252779 ], [ -3.4979761, 37.3250277 ], [ -3.4997906, 37.3246144 ], [ -3.5009733, 37.3242398 ], [ -3.5018858, 37.3239656 ], [ -3.5021342, 37.3239915 ], [ -3.5032876, 37.3243022 ], [ -3.5053538, 37.3244105 ], [ -3.5059753, 37.3245161 ], [ -3.5075698, 37.324969 ], [ -3.5080556, 37.32503 ], [ -3.5101123, 37.3253907 ], [ -3.5117843, 37.3256089 ], [ -3.5129824, 37.3258561 ], [ -3.5138307, 37.3261138 ], [ -3.5144648, 37.3264085 ], [ -3.5148268, 37.3265241 ], [ -3.5150751, 37.3265141 ], [ -3.5153904, 37.3264135 ], [ -3.5169767, 37.3256494 ], [ -3.5172127, 37.3254952 ], [ -3.5180538, 37.3247073 ], [ -3.5186164, 37.3244434 ], [ -3.5197425, 37.3240599 ], [ -3.5209701, 37.3236849 ], [ -3.5222961, 37.3228318 ], [ -3.5227114, 37.3224964 ], [ -3.5229571, 37.3221258 ], [ -3.5231791, 37.321575 ], [ -3.523649, 37.320978 ], [ -3.5245237, 37.3201628 ], [ -3.5250404, 37.319809 ], [ -3.5259293, 37.3194084 ], [ -3.5271001, 37.3189886 ], [ -3.5293841, 37.3179779 ], [ -3.5302396, 37.3176495 ], [ -3.5309943, 37.3174479 ], [ -3.5314453, 37.3173737 ], [ -3.53185, 37.3171556 ], [ -3.533164, 37.3162393 ], [ -3.5373888, 37.3136152 ], [ -3.5377042, 37.3135236 ], [ -3.5388887, 37.3134551 ], [ -3.5392824, 37.3132821 ], [ -3.5400352, 37.3128099 ], [ -3.5405977, 37.312573 ], [ -3.5413794, 37.3129841 ], [ -3.5423641, 37.3133852 ], [ -3.5429398, 37.3134006 ], [ -3.545376, 37.3132091 ], [ -3.5485108, 37.3128521 ], [ -3.5488487, 37.3127694 ], [ -3.5502053, 37.3130967 ], [ -3.5515031, 37.3130906 ], [ -3.5518761, 37.31317 ], [ -3.5526664, 37.3132204 ], [ -3.5529607, 37.3133272 ], [ -3.5550694, 37.3146424 ], [ -3.5554424, 37.3147218 ], [ -3.5560066, 37.3147011 ], [ -3.5576294, 37.314396 ], [ -3.5592736, 37.3139196 ], [ -3.5598934, 37.3137994 ], [ -3.5610753, 37.3133882 ], [ -3.5616374, 37.3130972 ], [ -3.5640804, 37.3123013 ], [ -3.5649378, 37.3122702 ], [ -3.5661005, 37.3123007 ], [ -3.5669466, 37.3122696 ], [ -3.5692457, 37.311853 ], [ -3.5699774, 37.3116151 ], [ -3.5709579, 37.3114391 ], [ -3.5715993, 37.3111927 ], [ -3.5724104, 37.3110084 ], [ -3.573311, 37.3107156 ], [ -3.5745725, 37.310403 ], [ -3.5751135, 37.3103103 ], [ -3.5763223, 37.3104847 ], [ -3.5767509, 37.3104555 ], [ -3.5781695, 37.310025 ], [ -3.5792605, 37.309551 ], [ -3.580206, 37.3092308 ], [ -3.5819063, 37.3087447 ], [ -3.5842603, 37.3081743 ], [ -3.5851395, 37.3080347 ], [ -3.5860306, 37.3079853 ], [ -3.5865724, 37.3080096 ], [ -3.5873633, 37.3081411 ], [ -3.5870058, 37.3073829 ], [ -3.5862257, 37.3055381 ], [ -3.585719, 37.3038279 ], [ -3.5854384, 37.3027554 ], [ -3.5847547, 37.3001557 ], [ -3.5843667, 37.2983905 ], [ -3.5841915, 37.2977389 ], [ -3.5838785, 37.2968637 ], [ -3.5830987, 37.2950324 ], [ -3.5825775, 37.2936349 ], [ -3.5822366, 37.2913461 ], [ -3.5819168, 37.2895805 ], [ -3.581255, 37.2875924 ], [ -3.581092, 37.2863018 ], [ -3.5811373, 37.285554 ], [ -3.5814936, 37.2854299 ], [ -3.5814751, 37.2852397 ], [ -3.5812859, 37.2849687 ], [ -3.5808755, 37.2846989 ], [ -3.5806859, 37.2843804 ], [ -3.5802243, 37.28407 ], [ -3.5791138, 37.2834501 ], [ -3.5786007, 37.2830992 ], [ -3.5783593, 37.282679 ], [ -3.5783723, 37.2821488 ], [ -3.5781312, 37.2817694 ], [ -3.5779086, 37.2815734 ], [ -3.5776092, 37.2813573 ], [ -3.5774036, 37.2811613 ], [ -3.5772661, 37.2809716 ], [ -3.5770776, 37.2807958 ], [ -3.5769407, 37.2806945 ], [ -3.5769308, 37.2805111 ], [ -3.5768571, 37.2803262 ], [ -3.5767196, 37.2801366 ], [ -3.5766037, 37.2799944 ], [ -3.5763896, 37.2798085 ], [ -3.5761718, 37.2796839 ], [ -3.5760993, 37.2796638 ], [ -3.5758052, 37.2795701 ], [ -3.5755619, 37.2794456 ], [ -3.5753735, 37.2792935 ], [ -3.5752064, 37.279121 ], [ -3.5750521, 37.2789587 ], [ -3.5748467, 37.2787965 ], [ -3.5745653, 37.278696 ], [ -3.5740807, 37.2787323 ], [ -3.5734683, 37.2787284 ], [ -3.5729747, 37.2786901 ], [ -3.5729061, 37.2786157 ], [ -3.5730158, 37.2784996 ], [ -3.573236, 37.2783694 ], [ -3.5734393, 37.2782664 ], [ -3.573651, 37.2781499 ], [ -3.5738884, 37.2780468 ], [ -3.5740828, 37.2778827 ], [ -3.5742518, 37.2777392 ], [ -3.5743612, 37.2775891 ], [ -3.574427, 37.2772897 ], [ -3.5743995, 37.2770248 ], [ -3.5743036, 37.2767092 ], [ -3.5741821, 37.276404 ], [ -3.5741554, 37.276241 ], [ -3.5740772, 37.2760307 ], [ -3.5739697, 37.2758664 ], [ -3.5738626, 37.2757683 ], [ -3.5737601, 37.2757043 ], [ -3.5736828, 37.2756095 ], [ -3.5736434, 37.2754635 ], [ -3.5736038, 37.275287 ], [ -3.5735554, 37.2750664 ], [ -3.5735764, 37.2750289 ], [ -3.57352, 37.2748865 ], [ -3.5734604, 37.2748833 ], [ -3.5731376, 37.2749257 ], [ -3.5729633, 37.274935 ], [ -3.5728272, 37.274939 ], [ -3.5727582, 37.2748069 ], [ -3.5726548, 37.2746306 ], [ -3.5726245, 37.2745662 ], [ -3.5727941, 37.2744872 ], [ -3.5728065, 37.2744498 ], [ -3.5727378, 37.2743618 ], [ -3.5726216, 37.2741788 ], [ -3.5726677, 37.2740903 ], [ -3.5727181, 37.2739983 ], [ -3.5726409, 37.2739137 ], [ -3.5725555, 37.2738665 ], [ -3.5723631, 37.2737332 ], [ -3.5723075, 37.2736859 ], [ -3.5722943, 37.2736282 ], [ -3.5723023, 37.2735602 ], [ -3.5723609, 37.2734444 ], [ -3.5723942, 37.2733422 ], [ -3.5723892, 37.2732437 ], [ -3.5723544, 37.2731351 ], [ -3.5722942, 37.2730573 ], [ -3.5722169, 37.2729506 ], [ -3.5720975, 37.2729104 ], [ -3.5718934, 37.2729148 ], [ -3.5716934, 37.2728954 ], [ -3.5715353, 37.2727908 ], [ -3.5714067, 37.2726622 ], [ -3.5712354, 37.2724864 ], [ -3.5711451, 37.2723543 ], [ -3.5708012, 37.2718683 ], [ -3.570638, 37.2716583 ], [ -3.5704159, 37.2715235 ], [ -3.5700493, 37.2714029 ], [ -3.569784, 37.2711935 ], [ -3.5694526, 37.2709399 ], [ -3.567759, 37.2716488 ], [ -3.5668936, 37.2720676 ], [ -3.5642388, 37.2730268 ], [ -3.5635517, 37.2731472 ], [ -3.5635516, 37.2731472 ], [ -3.5619727, 37.2731637 ], [ -3.5610144, 37.2732223 ], [ -3.5596974, 37.2735801 ], [ -3.5590227, 37.2738717 ], [ -3.5570566, 37.2749176 ], [ -3.5561232, 37.2753096 ], [ -3.5561232, 37.2753096 ], [ -3.5553801, 37.2754933 ], [ -3.5550124, 37.2755371 ], [ -3.5549857, 37.2755402 ], [ -3.5527952, 37.275244 ], [ -3.551915, 37.275185 ], [ -3.5513174, 37.2752239 ], [ -3.5503916, 37.2750929 ], [ -3.5494988, 37.2748627 ], [ -3.5473727, 37.2741064 ], [ -3.5464975, 37.2747414 ], [ -3.5439591, 37.2762313 ], [ -3.5424965, 37.2767609 ], [ -3.5424964, 37.2767609 ], [ -3.5421706, 37.2769336 ], [ -3.5419023, 37.2772684 ], [ -3.5414423, 37.277622 ], [ -3.5405124, 37.2785096 ], [ -3.5398945, 37.278864 ], [ -3.5389502, 37.279319 ], [ -3.5371842, 37.2800301 ], [ -3.5371842, 37.2800301 ], [ -3.5359331, 37.2801709 ], [ -3.5355491, 37.2802832 ], [ -3.5352127, 37.2803815 ], [ -3.5352126, 37.2803815 ], [ -3.534514, 37.2804838 ], [ -3.5338935, 37.2804776 ], [ -3.5326881, 37.280569 ], [ -3.531492, 37.2806597 ], [ -3.531026, 37.2806146 ], [ -3.5306906, 37.2805821 ], [ -3.5286571, 37.2801495 ], [ -3.528217, 37.2801245 ], [ -3.5277688, 37.2800243 ], [ -3.5273471, 37.27993 ], [ -3.5271211, 37.279886 ], [ -3.525, 37.2798233 ], [ -3.5232618, 37.2796777 ], [ -3.5232617, 37.2796777 ], [ -3.5223148, 37.279754 ], [ -3.5209716, 37.2796337 ], [ -3.5200212, 37.2792232 ], [ -3.519513, 37.2791353 ], [ -3.5189607, 37.2792098 ], [ -3.5189607, 37.2792099 ], [ -3.5185333, 37.279383 ], [ -3.5185333, 37.279383 ], [ -3.5179591, 37.2795388 ], [ -3.517959, 37.2795388 ], [ -3.5169782, 37.2796151 ], [ -3.5162471, 37.2799248 ], [ -3.5159429, 37.2799802 ], [ -3.5155501, 37.2802794 ], [ -3.5155501, 37.2802793 ], [ -3.5150417, 37.2801734 ], [ -3.5145906, 37.2801754 ], [ -3.5137231, 37.2803414 ], [ -3.5137231, 37.2803414 ], [ -3.5136362, 37.28033 ], [ -3.5131247, 37.2802629 ], [ -3.5118152, 37.2802509 ], [ -3.5117823, 37.2802506 ], [ -3.5117822, 37.2802506 ], [ -3.5114321, 37.2801891 ], [ -3.5109248, 37.2802273 ], [ -3.5104958, 37.280175 ], [ -3.5100663, 37.2800597 ], [ -3.5099032, 37.2801059 ], [ -3.5093232, 37.2802702 ], [ -3.5080853, 37.2806992 ], [ -3.5080852, 37.2806992 ], [ -3.507601, 37.2808184 ], [ -3.5070719, 37.2808614 ], [ -3.5070147, 37.280866 ], [ -3.5070147, 37.280866 ], [ -3.5068563, 37.2808439 ], [ -3.5060775, 37.2807348 ], [ -3.5055812, 37.2807279 ] ] ] } },
{ "type": "Feature", "properties": { "CCAA": "01 - Andalucía", "PROVINCIA": "18 - Granada", "MUNICIPIO": "18050 - Cogollos de la Vega", "COD_MUNICIPIO": "18050", "DISTRITO": "01", "SECCION": "1805001001", "V1_H": 78.9, "V1_M": 84.87, "V2_H": 79.02373168, "V2_M": 85.07467156, "V3_H": 78.82484982, "V3_M": 84.79604014 }, "geometry": { "type": "Polygon", "coordinates": [ [ [ -3.5956132, 37.3110589 ], [ -3.5956692, 37.311056 ], [ -3.5973202, 37.3114804 ], [ -3.5975921, 37.3116142 ], [ -3.5978081, 37.3118114 ], [ -3.5982086, 37.3125125 ], [ -3.5984635, 37.3133405 ], [ -3.5983551, 37.3138999 ], [ -3.5980231, 37.3147399 ], [ -3.5979473, 37.3151369 ], [ -3.5979498, 37.3154614 ], [ -3.598065, 37.3157492 ], [ -3.5985424, 37.3161794 ], [ -3.6036583, 37.3180284 ], [ -3.6042027, 37.3183592 ], [ -3.605474, 37.319254 ], [ -3.6072288, 37.3199391 ], [ -3.6080768, 37.3201241 ], [ -3.6087104, 37.3203281 ], [ -3.610116, 37.3210781 ], [ -3.6114317, 37.3218645 ], [ -3.6128843, 37.3228395 ], [ -3.6131166, 37.3222704 ], [ -3.6132462, 37.3215486 ], [ -3.6138144, 37.3206353 ], [ -3.6157431, 37.3190839 ], [ -3.6165067, 37.3186112 ], [ -3.6172261, 37.3182649 ], [ -3.6181604, 37.3179536 ], [ -3.620931, 37.3172541 ], [ -3.6226122, 37.3172182 ], [ -3.6232678, 37.3173319 ], [ -3.6237746, 37.317203 ], [ -3.6271815, 37.3170318 ], [ -3.6276206, 37.3169033 ], [ -3.6278227, 37.3167761 ], [ -3.6279334, 37.3165141 ], [ -3.6279425, 37.3162526 ], [ -3.6278151, 37.3158567 ], [ -3.6271755, 37.3149406 ], [ -3.6269109, 37.3143381 ], [ -3.6267597, 37.3137981 ], [ -3.6267986, 37.3130498 ], [ -3.6269648, 37.3126703 ], [ -3.6277799, 37.3116204 ], [ -3.6279905, 37.3111685 ], [ -3.6282027, 37.310897 ], [ -3.6292225, 37.3100443 ], [ -3.6295231, 37.3095469 ], [ -3.6298883, 37.3086796 ], [ -3.6301447, 37.3083087 ], [ -3.6304144, 37.308172 ], [ -3.6326221, 37.3076916 ], [ -3.6331736, 37.3075083 ], [ -3.6337123, 37.3071539 ], [ -3.6344406, 37.3065371 ], [ -3.635486, 37.3060537 ], [ -3.6362853, 37.3058331 ], [ -3.637333, 37.3056292 ], [ -3.6377607, 37.3055007 ], [ -3.6388171, 37.3049902 ], [ -3.6396589, 37.3044628 ], [ -3.6393051, 37.3039871 ], [ -3.6389949, 37.3033307 ], [ -3.6385832, 37.3026749 ], [ -3.6384144, 37.3013958 ], [ -3.638457, 37.3010981 ], [ -3.638457, 37.3010981 ], [ -3.6380735, 37.3011182 ], [ -3.6380735, 37.3011182 ], [ -3.6376683, 37.3012376 ], [ -3.6369378, 37.3015841 ], [ -3.6363298, 37.3017496 ], [ -3.6355181, 37.3018261 ], [ -3.6355181, 37.3018261 ], [ -3.634876, 37.3019557 ], [ -3.6342543, 37.3021352 ], [ -3.6341444, 37.3021669 ], [ -3.6331189, 37.3023256 ], [ -3.6331131, 37.3023256 ], [ -3.6320581, 37.3023222 ], [ -3.6314591, 37.3021993 ], [ -3.6309963, 37.3021837 ], [ -3.6300171, 37.3024774 ], [ -3.629441, 37.3023993 ], [ -3.6293319, 37.3023999 ], [ -3.6291137, 37.3024011 ], [ -3.6281004, 37.3026588 ], [ -3.6272185, 37.3024472 ], [ -3.6262453, 37.3021188 ], [ -3.6258046, 37.302031 ], [ -3.6258045, 37.302031 ], [ -3.6253249, 37.3013394 ], [ -3.6250668, 37.300142 ], [ -3.6251125, 37.2974916 ], [ -3.6250527, 37.2970773 ], [ -3.6226685, 37.295278 ], [ -3.6217115, 37.2941474 ], [ -3.6217115, 37.2941473 ], [ -3.6213594, 37.2938697 ], [ -3.6209812, 37.2931506 ], [ -3.6204679, 37.2924682 ], [ -3.6202733, 37.2921268 ], [ -3.6194637, 37.2924645 ], [ -3.6186868, 37.2926488 ], [ -3.6177725, 37.2925995 ], [ -3.6177724, 37.2925995 ], [ -3.616721, 37.2923166 ], [ -3.6167209, 37.2923165 ], [ -3.6157243, 37.291853 ], [ -3.6135221, 37.2901878 ], [ -3.612673, 37.2898226 ], [ -3.6125432, 37.2891292 ], [ -3.612491, 37.2882462 ], [ -3.6121189, 37.2854808 ], [ -3.6121188, 37.2854808 ], [ -3.6113192, 37.2854234 ], [ -3.611182, 37.2854135 ], [ -3.611182, 37.2854135 ], [ -3.61073, 37.2853257 ], [ -3.6105035, 37.2852097 ], [ -3.610196, 37.2848417 ], [ -3.610196, 37.2848417 ], [ -3.6098952, 37.2839238 ], [ -3.6095907, 37.2825372 ], [ -3.6097544, 37.2824743 ], [ -3.6104454, 37.2822084 ], [ -3.6104454, 37.2822083 ], [ -3.6104885, 37.2820632 ], [ -3.610665, 37.2814681 ], [ -3.6108276, 37.280647 ], [ -3.6109707, 37.2802046 ], [ -3.611257, 37.2779406 ], [ -3.6100613, 37.2779377 ], [ -3.6090466, 37.277997 ], [ -3.6070853, 37.2776563 ], [ -3.606426, 37.2775417 ], [ -3.6064259, 37.2775417 ], [ -3.6055577, 37.2775732 ], [ -3.6055576, 37.2775732 ], [ -3.6040819, 37.2778151 ], [ -3.6040819, 37.2778151 ], [ -3.601713, 37.2778091 ], [ -3.6016691, 37.2778026 ], [ -3.6006515, 37.2776523 ], [ -3.6000184, 37.2774752 ], [ -3.6000183, 37.2774752 ], [ -3.5990087, 37.2767502 ], [ -3.5983862, 37.2764829 ], [ -3.5969055, 37.2760938 ], [ -3.5954931, 37.2757854 ], [ -3.595493, 37.2757854 ], [ -3.5927727, 37.2755376 ], [ -3.5919933, 37.2753973 ], [ -3.5915632, 37.2752101 ], [ -3.591291, 37.2750222 ], [ -3.5911575, 37.2747775 ], [ -3.5911194, 37.2747076 ], [ -3.5911194, 37.2747075 ], [ -3.5911275, 37.2743019 ], [ -3.5913271, 37.2738592 ], [ -3.5921409, 37.2726383 ], [ -3.5925962, 37.2717256 ], [ -3.5910319, 37.2707238 ], [ -3.5908046, 37.2704996 ], [ -3.5905444, 37.2704108 ], [ -3.5902962, 37.270385 ], [ -3.5902961, 37.2703849 ], [ -3.5900739, 37.2700886 ], [ -3.5899998, 37.2699898 ], [ -3.5895584, 37.2697937 ], [ -3.5891066, 37.2697148 ], [ -3.5886673, 37.2697003 ], [ -3.5886328, 37.2696992 ], [ -3.5884628, 37.2695919 ], [ -3.5883032, 37.2693853 ], [ -3.5881333, 37.269287 ], [ -3.5881333, 37.269287 ], [ -3.587885, 37.2692702 ], [ -3.587615, 37.2693617 ], [ -3.5874469, 37.2694977 ], [ -3.5874469, 37.2694977 ], [ -3.5857552, 37.2695151 ], [ -3.5849649, 37.2694018 ], [ -3.5844449, 37.2692602 ], [ -3.5840702, 37.2689375 ], [ -3.5836852, 37.2687321 ], [ -3.5836682, 37.2687312 ], [ -3.5832225, 37.2687073 ], [ -3.5827957, 37.2689348 ], [ -3.5824808, 37.2690445 ], [ -3.5821853, 37.2689891 ], [ -3.5821532, 37.268983 ], [ -3.5818356, 37.2687502 ], [ -3.5809548, 37.267141 ], [ -3.5806406, 37.267359 ], [ -3.5793736, 37.267958 ], [ -3.5791573, 37.2680602 ], [ -3.578312, 37.2681455 ], [ -3.578312, 37.2681455 ], [ -3.5777601, 37.2682473 ], [ -3.5772879, 37.2684389 ], [ -3.5768938, 37.268522 ], [ -3.5764779, 37.2687133 ], [ -3.5761751, 37.2689401 ], [ -3.5755221, 37.2690875 ], [ -3.5745769, 37.2693896 ], [ -3.5740021, 37.2694374 ], [ -3.5732474, 37.2695672 ], [ -3.5732474, 37.2695672 ], [ -3.572606, 37.2697596 ], [ -3.5726059, 37.2697596 ], [ -3.5716149, 37.2699627 ], [ -3.5716148, 37.2699627 ], [ -3.5710077, 37.2702 ], [ -3.5707551, 37.2703546 ], [ -3.5705474, 37.2704817 ], [ -3.56984, 37.2707778 ], [ -3.5694527, 37.2709399 ], [ -3.5694526, 37.2709399 ], [ -3.569784, 37.2711935 ], [ -3.5700493, 37.2714029 ], [ -3.5704159, 37.2715235 ], [ -3.570638, 37.2716583 ], [ -3.5708012, 37.2718683 ], [ -3.5711451, 37.2723543 ], [ -3.5712354, 37.2724864 ], [ -3.5714067, 37.2726622 ], [ -3.5715353, 37.2727908 ], [ -3.5716934, 37.2728954 ], [ -3.5718934, 37.2729148 ], [ -3.5720975, 37.2729104 ], [ -3.5722169, 37.2729506 ], [ -3.5722942, 37.2730573 ], [ -3.5723544, 37.2731351 ], [ -3.5723892, 37.2732437 ], [ -3.5723942, 37.2733422 ], [ -3.5723609, 37.2734444 ], [ -3.5723023, 37.2735602 ], [ -3.5722943, 37.2736282 ], [ -3.5723075, 37.2736859 ], [ -3.5723631, 37.2737332 ], [ -3.5725555, 37.2738665 ], [ -3.5726409, 37.2739137 ], [ -3.5727181, 37.2739983 ], [ -3.5726677, 37.2740903 ], [ -3.5726216, 37.2741788 ], [ -3.5727378, 37.2743618 ], [ -3.5728065, 37.2744498 ], [ -3.5727941, 37.2744872 ], [ -3.5726245, 37.2745662 ], [ -3.5726548, 37.2746306 ], [ -3.5727582, 37.2748069 ], [ -3.5728272, 37.274939 ], [ -3.5729633, 37.274935 ], [ -3.5731376, 37.2749257 ], [ -3.5734604, 37.2748833 ], [ -3.57352, 37.2748865 ], [ -3.5735764, 37.2750289 ], [ -3.5735554, 37.2750664 ], [ -3.5736038, 37.275287 ], [ -3.5736434, 37.2754635 ], [ -3.5736828, 37.2756095 ], [ -3.5737601, 37.2757043 ], [ -3.5738626, 37.2757683 ], [ -3.5739697, 37.2758664 ], [ -3.5740772, 37.2760307 ], [ -3.5741554, 37.276241 ], [ -3.5741821, 37.276404 ], [ -3.5743036, 37.2767092 ], [ -3.5743995, 37.2770248 ], [ -3.574427, 37.2772897 ], [ -3.5743612, 37.2775891 ], [ -3.5742518, 37.2777392 ], [ -3.5740828, 37.2778827 ], [ -3.5738884, 37.2780468 ], [ -3.573651, 37.2781499 ], [ -3.5734393, 37.2782664 ], [ -3.573236, 37.2783694 ], [ -3.5730158, 37.2784996 ], [ -3.5729061, 37.2786157 ], [ -3.5729747, 37.2786901 ], [ -3.5734683, 37.2787284 ], [ -3.5740807, 37.2787323 ], [ -3.5745653, 37.278696 ], [ -3.5748467, 37.2787965 ], [ -3.5750521, 37.2789587 ], [ -3.5752064, 37.279121 ], [ -3.5753735, 37.2792935 ], [ -3.5755619, 37.2794456 ], [ -3.5758052, 37.2795701 ], [ -3.5760993, 37.2796638 ], [ -3.5761718, 37.2796839 ], [ -3.5763896, 37.2798085 ], [ -3.5766037, 37.2799944 ], [ -3.5767196, 37.2801366 ], [ -3.5768571, 37.2803262 ], [ -3.5769308, 37.2805111 ], [ -3.5769407, 37.2806945 ], [ -3.5770776, 37.2807958 ], [ -3.5772661, 37.2809716 ], [ -3.5774036, 37.2811613 ], [ -3.5776092, 37.2813573 ], [ -3.5779086, 37.2815734 ], [ -3.5781312, 37.2817694 ], [ -3.5783723, 37.2821488 ], [ -3.5783593, 37.282679 ], [ -3.5786007, 37.2830992 ], [ -3.5791138, 37.2834501 ], [ -3.5802243, 37.28407 ], [ -3.5806859, 37.2843804 ], [ -3.5808755, 37.2846989 ], [ -3.5812859, 37.2849687 ], [ -3.5814751, 37.2852397 ], [ -3.5814936, 37.2854299 ], [ -3.5811373, 37.285554 ], [ -3.581092, 37.2863018 ], [ -3.581255, 37.2875924 ], [ -3.5819168, 37.2895805 ], [ -3.5822366, 37.2913461 ], [ -3.5825775, 37.2936349 ], [ -3.5830987, 37.2950324 ], [ -3.5838785, 37.2968637 ], [ -3.5841915, 37.2977389 ], [ -3.5843667, 37.2983905 ], [ -3.5847547, 37.3001557 ], [ -3.5854384, 37.3027554 ], [ -3.585719, 37.3038279 ], [ -3.5862257, 37.3055381 ], [ -3.5870058, 37.3073829 ], [ -3.5873633, 37.3081411 ], [ -3.5888888, 37.3083948 ], [ -3.5893179, 37.3084377 ], [ -3.5901323, 37.308677 ], [ -3.5908341, 37.3089529 ], [ -3.591197, 37.3091765 ], [ -3.5918119, 37.3098855 ], [ -3.5922455, 37.3104873 ], [ -3.5935581, 37.3109494 ], [ -3.594476, 37.3114406 ], [ -3.5952857, 37.311076 ], [ -3.5956132, 37.3110589 ] ] ] } }
]
}
