{
"type": "FeatureCollection",
"name": "18094",
"features": [
{ "type": "Feature", "properties": { "CCAA": "01 - Andalucía", "PROVINCIA": "18 - Granada", "MUNICIPIO": "18094 - Güéjar Sierra", "COD_MUNICIPIO": "18094", "DISTRITO": "01", "SECCION": "1809401003", "V1_H": 80.31, "V1_M": 85.98, "V2_H": 80.51251293, "V2_M": 86.22129475, "V3_H": 80.221823, "V3_M": 85.87405604 }, "geometry": { "type": "Polygon", "coordinates": [ [ [ -3.4406134, 37.1584641 ], [ -3.4405942, 37.1584518 ], [ -3.4403133, 37.1586436 ], [ -3.4396759, 37.1583656 ], [ -3.4395907, 37.1583659 ], [ -3.4394697, 37.1584311 ], [ -3.4393624, 37.1585178 ], [ -3.4392278, 37.1585615 ], [ -3.4390634, 37.1585899 ], [ -3.4388858, 37.1585965 ], [ -3.438745, 37.1585615 ], [ -3.4385815, 37.1584613 ], [ -3.4384253, 37.1583257 ], [ -3.4383283, 37.1581957 ], [ -3.4381569, 37.157983 ], [ -3.4381121, 37.1579299 ], [ -3.4378975, 37.1579307 ], [ -3.4377642, 37.1579311 ], [ -3.4375938, 37.1579021 ], [ -3.4374605, 37.1578908 ], [ -3.4373346, 37.1578676 ], [ -3.4372676, 37.1578145 ], [ -3.4371858, 37.1577378 ], [ -3.4370963, 37.1576255 ], [ -3.4370881, 37.1574952 ], [ -3.4370746, 37.1574939 ], [ -3.43707, 37.1574705 ], [ -3.4370699, 37.1574701 ], [ -3.4368944, 37.1574799 ], [ -3.4366693, 37.1577128 ], [ -3.4362777, 37.1579941 ], [ -3.4362777, 37.1579972 ], [ -3.4362034, 37.1582042 ], [ -3.436069, 37.1583128 ], [ -3.4368584, 37.1588217 ], [ -3.4367355, 37.1589671 ], [ -3.4367859, 37.1590071 ], [ -3.4368603, 37.1590601 ], [ -3.436728, 37.1592265 ], [ -3.4368172, 37.1592973 ], [ -3.4369063, 37.1593503 ], [ -3.4370178, 37.1594269 ], [ -3.4370138, 37.1594303 ], [ -3.4370335, 37.1594399 ], [ -3.4367595, 37.1596539 ], [ -3.4366804, 37.1596575 ], [ -3.4366577, 37.1596661 ], [ -3.4365211, 37.1596743 ], [ -3.4365922, 37.1598209 ], [ -3.4366324, 37.1598869 ], [ -3.4367003, 37.1599407 ], [ -3.4366934, 37.1599453 ], [ -3.4368774, 37.1602042 ], [ -3.4369394, 37.1603509 ], [ -3.4378725, 37.1611556 ], [ -3.4379085, 37.1611299 ], [ -3.4379118, 37.1611278 ], [ -3.4378471, 37.1610712 ], [ -3.4378271, 37.16102 ], [ -3.4377776, 37.160965 ], [ -3.4377229, 37.1608785 ], [ -3.4376584, 37.1608038 ], [ -3.4376136, 37.1607251 ], [ -3.4376033, 37.1606502 ], [ -3.437598, 37.1605832 ], [ -3.4376075, 37.1605201 ], [ -3.4377795, 37.1604446 ], [ -3.4379859, 37.1603571 ], [ -3.4380102, 37.1603538 ], [ -3.4380272, 37.16034 ], [ -3.4380658, 37.1603253 ], [ -3.438297, 37.1604671 ], [ -3.4383018, 37.1604663 ], [ -3.4383309, 37.1603913 ], [ -3.4383748, 37.1603202 ], [ -3.4384286, 37.1602451 ], [ -3.4385312, 37.1601106 ], [ -3.4386535, 37.1599683 ], [ -3.4387417, 37.1598851 ], [ -3.438879, 37.1597742 ], [ -3.4390167, 37.1596174 ], [ -3.4390746, 37.1595707 ], [ -3.4391993, 37.1595004 ], [ -3.4392877, 37.1594462 ], [ -3.4393494, 37.1593696 ], [ -3.4393502, 37.1593691 ], [ -3.4394613, 37.1592688 ], [ -3.4395384, 37.1591873 ], [ -3.4395461, 37.1591792 ], [ -3.4396441, 37.1590894 ], [ -3.4398537, 37.158994 ], [ -3.4400437, 37.158904 ], [ -3.4403847, 37.1588133 ], [ -3.440575, 37.1587916 ], [ -3.4407393, 37.1588068 ], [ -3.4410288, 37.1589003 ], [ -3.4410877, 37.1588528 ], [ -3.4411518, 37.1588091 ], [ -3.4411613, 37.1588027 ], [ -3.4411162, 37.158736 ], [ -3.4407694, 37.1585275 ], [ -3.4406299, 37.1584747 ], [ -3.4406134, 37.1584641 ] ] ] } },
{ "type": "Feature", "properties": { "CCAA": "01 - Andalucía", "PROVINCIA": "18 - Granada", "MUNICIPIO": "18094 - Güéjar Sierra", "COD_MUNICIPIO": "18094", "DISTRITO": "01", "SECCION": "1809401001", "V1_H": 79.85, "V1_M": 85.78, "V2_H": 79.86035794, "V2_M": 85.76242541000001, "V3_H": 79.99500792000001, "V3_M": 85.93655133 }, "geometry": { "type": "Polygon", "coordinates": [ [ [ -3.2991821, 37.2094958 ], [ -3.2991821, 37.2094958 ], [ -3.2993495, 37.2095371 ], [ -3.3000508, 37.20971 ], [ -3.3003596, 37.2098292 ], [ -3.3004684, 37.2098712 ], [ -3.301417, 37.2103645 ], [ -3.3019482, 37.2107418 ], [ -3.3030789, 37.2116764 ], [ -3.3035882, 37.2121979 ], [ -3.3039507, 37.2126657 ], [ -3.3046969, 37.2132497 ], [ -3.3063904, 37.2139755 ], [ -3.3074845, 37.214207 ], [ -3.3074846, 37.214207 ], [ -3.3078124, 37.2142617 ], [ -3.3091876, 37.214491 ], [ -3.3102697, 37.214778 ], [ -3.3111734, 37.2150176 ], [ -3.3116808, 37.2150602 ], [ -3.3124249, 37.2151226 ], [ -3.3126238, 37.2151602 ], [ -3.3129889, 37.2152292 ], [ -3.3133057, 37.2153521 ], [ -3.3134969, 37.2154262 ], [ -3.3141808, 37.2154671 ], [ -3.3142184, 37.2154694 ], [ -3.3142184, 37.2154694 ], [ -3.3172392, 37.2155154 ], [ -3.3172392, 37.2155154 ], [ -3.3179601, 37.2153963 ], [ -3.3206399, 37.2147942 ], [ -3.32064, 37.2147942 ], [ -3.3220021, 37.2144029 ], [ -3.3206765, 37.2154341 ], [ -3.3205422, 37.2156508 ], [ -3.3205212, 37.2160294 ], [ -3.3206136, 37.216552 ], [ -3.3207837, 37.2168129 ], [ -3.3209534, 37.2169477 ], [ -3.3209534, 37.2169477 ], [ -3.3211051, 37.2171784 ], [ -3.3212256, 37.2173616 ], [ -3.3214856, 37.2176107 ], [ -3.3219386, 37.2180447 ], [ -3.3223565, 37.2182509 ], [ -3.323101, 37.2183841 ], [ -3.323101, 37.2183841 ], [ -3.3233045, 37.2185278 ], [ -3.3235085, 37.2187796 ], [ -3.3241326, 37.2197785 ], [ -3.3241327, 37.2197785 ], [ -3.3243817, 37.2200212 ], [ -3.3247659, 37.2202726 ], [ -3.3256696, 37.2207208 ], [ -3.3266856, 37.2210695 ], [ -3.3284902, 37.221353 ], [ -3.3284903, 37.221353 ], [ -3.3289756, 37.2215049 ], [ -3.3292357, 37.2216934 ], [ -3.3298929, 37.2225029 ], [ -3.3309894, 37.2232209 ], [ -3.3309895, 37.223221 ], [ -3.3311479, 37.2233647 ], [ -3.3314999, 37.2239587 ], [ -3.3316697, 37.2241295 ], [ -3.3318843, 37.224219 ], [ -3.3321493, 37.2242655 ], [ -3.3331478, 37.2244408 ], [ -3.3334187, 37.2245393 ], [ -3.333724, 37.2247547 ], [ -3.334075, 37.2251143 ], [ -3.3346989, 37.2259959 ], [ -3.3360024, 37.2276238 ], [ -3.336285, 37.2278033 ], [ -3.3369966, 37.2281077 ], [ -3.3374598, 37.2283588 ], [ -3.3378684, 37.2289796 ], [ -3.3384575, 37.229636 ], [ -3.3392158, 37.2303189 ], [ -3.3395531, 37.2301196 ], [ -3.3403835, 37.2292699 ], [ -3.3412041, 37.2287357 ], [ -3.3412041, 37.2287357 ], [ -3.3419921, 37.2284991 ], [ -3.3419922, 37.2284991 ], [ -3.3444251, 37.2280684 ], [ -3.3455398, 37.2277857 ], [ -3.3463502, 37.2274949 ], [ -3.347027, 37.2276011 ], [ -3.347027, 37.2276011 ], [ -3.3472073, 37.2275915 ], [ -3.3472074, 37.2275915 ], [ -3.3472278, 37.2275906 ], [ -3.3476469, 37.2275722 ], [ -3.3483572, 37.2276062 ], [ -3.3492826, 37.2278288 ], [ -3.3521631, 37.2291273 ], [ -3.3521632, 37.2291273 ], [ -3.3521857, 37.2291268 ], [ -3.3526027, 37.229117 ], [ -3.3526027, 37.229117 ], [ -3.3529969, 37.2290348 ], [ -3.3537959, 37.2287439 ], [ -3.354302, 37.22849 ], [ -3.3547515, 37.2281732 ], [ -3.3573685, 37.2261461 ], [ -3.3585376, 37.2254756 ], [ -3.358678, 37.2254059 ], [ -3.3594148, 37.2250402 ], [ -3.3601891, 37.2243077 ], [ -3.3615443, 37.2224648 ], [ -3.3615443, 37.2224647 ], [ -3.362621, 37.2213256 ], [ -3.3629455, 37.2208199 ], [ -3.3631923, 37.2205848 ], [ -3.3642379, 37.2200317 ], [ -3.364238, 37.2200317 ], [ -3.365002, 37.2195336 ], [ -3.3659092, 37.2183409 ], [ -3.366246, 37.2180605 ], [ -3.367168, 37.2176069 ], [ -3.367945, 37.2174422 ], [ -3.367945, 37.2174422 ], [ -3.3694319, 37.2172663 ], [ -3.3729025, 37.2170752 ], [ -3.3729025, 37.2170752 ], [ -3.3741417, 37.2169541 ], [ -3.3744793, 37.2168359 ], [ -3.374769, 37.2161679 ], [ -3.3750725, 37.2160047 ], [ -3.375142, 37.2160015 ], [ -3.3776192, 37.2158885 ], [ -3.3788354, 37.2156772 ], [ -3.3810079, 37.2151385 ], [ -3.381008, 37.2151385 ], [ -3.3846084, 37.213919 ], [ -3.3917406, 37.2113086 ], [ -3.3917406, 37.2113086 ], [ -3.3923728, 37.2115228 ], [ -3.3929478, 37.211584 ], [ -3.3929479, 37.211584 ], [ -3.39439, 37.2114891 ], [ -3.3948849, 37.2113071 ], [ -3.394885, 37.2113071 ], [ -3.3958835, 37.2104565 ], [ -3.3961534, 37.2103384 ], [ -3.3961535, 37.2103384 ], [ -3.3965143, 37.2103913 ], [ -3.3968422, 37.2105885 ], [ -3.3972258, 37.2106684 ], [ -3.3972258, 37.2106684 ], [ -3.3977892, 37.2106485 ], [ -3.3977892, 37.2106484 ], [ -3.398172, 37.210566 ], [ -3.3985654, 37.2103664 ], [ -3.3985654, 37.2103664 ], [ -3.3989597, 37.210347 ], [ -3.3998176, 37.2105965 ], [ -3.4003022, 37.2106039 ], [ -3.401213, 37.2104246 ], [ -3.4016532, 37.2103379 ], [ -3.4024859, 37.2100917 ], [ -3.4052846, 37.208676 ], [ -3.4056105, 37.2085126 ], [ -3.4053018, 37.2076844 ], [ -3.4053019, 37.2076844 ], [ -3.4058871, 37.2075292 ], [ -3.4063607, 37.2075906 ], [ -3.4068, 37.2075531 ], [ -3.4073435, 37.208029 ], [ -3.4073436, 37.208029 ], [ -3.4074901, 37.2080555 ], [ -3.4075002, 37.2078301 ], [ -3.4075002, 37.2078301 ], [ -3.4074194, 37.2074788 ], [ -3.4074751, 37.2073615 ], [ -3.4074752, 37.2073614 ], [ -3.4075371, 37.2073567 ], [ -3.4082187, 37.2073048 ], [ -3.4082186, 37.2073048 ], [ -3.4081387, 37.2070978 ], [ -3.4082959, 37.2069981 ], [ -3.4087469, 37.2070416 ], [ -3.408973, 37.207176 ], [ -3.408973, 37.207176 ], [ -3.4105276, 37.2070535 ], [ -3.4106317, 37.2071596 ], [ -3.4107655, 37.207296 ], [ -3.4110365, 37.2073852 ], [ -3.4119607, 37.2074181 ], [ -3.4122767, 37.2074801 ], [ -3.4129221, 37.2080548 ], [ -3.4129221, 37.2080547 ], [ -3.4130785, 37.2078018 ], [ -3.4130786, 37.2078018 ], [ -3.4133595, 37.2076656 ], [ -3.4133596, 37.2076656 ], [ -3.4141027, 37.2075549 ], [ -3.4143614, 37.2074458 ], [ -3.4149895, 37.2069118 ], [ -3.4154725, 37.2066216 ], [ -3.4156984, 37.2065365 ], [ -3.4162935, 37.2063123 ], [ -3.4166766, 37.2063019 ], [ -3.4166766, 37.2063019 ], [ -3.4173195, 37.2064078 ], [ -3.4173196, 37.2064078 ], [ -3.4177135, 37.2063343 ], [ -3.4189948, 37.2056988 ], [ -3.4214352, 37.2047978 ], [ -3.4214353, 37.2047978 ], [ -3.4218854, 37.204697 ], [ -3.4221328, 37.2045879 ], [ -3.4231095, 37.2019073 ], [ -3.423417, 37.200464 ], [ -3.423595, 37.2000577 ], [ -3.4237967, 37.1998406 ], [ -3.4243132, 37.1995143 ], [ -3.4243132, 37.1995143 ], [ -3.4253144, 37.1992132 ], [ -3.4267102, 37.1989558 ], [ -3.4277236, 37.198817 ], [ -3.4281735, 37.1986711 ], [ -3.4287127, 37.1983807 ], [ -3.4292059, 37.1979102 ], [ -3.4297002, 37.197656 ], [ -3.4305438, 37.1973916 ], [ -3.4361829, 37.1923771 ], [ -3.4369343, 37.1917614 ], [ -3.4369343, 37.1917614 ], [ -3.4377731, 37.1912229 ], [ -3.4386855, 37.1906372 ], [ -3.4460248, 37.185643 ], [ -3.4481297, 37.1833996 ], [ -3.4515992, 37.1795465 ], [ -3.4515993, 37.1795465 ], [ -3.4518926, 37.1796355 ], [ -3.4518927, 37.1796355 ], [ -3.4522193, 37.1796342 ], [ -3.4527353, 37.1792627 ], [ -3.4530948, 37.17909 ], [ -3.4534107, 37.1791609 ], [ -3.4538517, 37.1794387 ], [ -3.4546528, 37.179652 ], [ -3.4564332, 37.1797353 ], [ -3.4564416, 37.1792395 ], [ -3.4567085, 37.1786795 ], [ -3.4566164, 37.1783554 ], [ -3.4564005, 37.1780318 ], [ -3.4562399, 37.1775546 ], [ -3.4568135, 37.1773992 ], [ -3.4574088, 37.1771174 ], [ -3.4580164, 37.1769889 ], [ -3.4583289, 37.1765099 ], [ -3.4586764, 37.1762201 ], [ -3.4589917, 37.1762099 ], [ -3.4592566, 37.1764198 ], [ -3.4594332, 37.1765597 ], [ -3.459631, 37.1766475 ], [ -3.4598963, 37.1767653 ], [ -3.460358, 37.1767364 ], [ -3.4606835, 37.1765549 ], [ -3.4609512, 37.1761031 ], [ -3.4615771, 37.1752895 ], [ -3.4615771, 37.1752895 ], [ -3.4616781, 37.175235 ], [ -3.4618803, 37.175126 ], [ -3.4618803, 37.175126 ], [ -3.4625782, 37.1750512 ], [ -3.4642365, 37.1754413 ], [ -3.464662, 37.175025 ], [ -3.4652691, 37.1748333 ], [ -3.4656493, 37.1743631 ], [ -3.465838, 37.1739117 ], [ -3.466084, 37.1736132 ], [ -3.4665217, 37.1733591 ], [ -3.4676802, 37.1730751 ], [ -3.4676803, 37.1730751 ], [ -3.4688854, 37.1730523 ], [ -3.4706545, 37.1731445 ], [ -3.4710928, 37.1729715 ], [ -3.471407, 37.172781 ], [ -3.4719868, 37.1718322 ], [ -3.4723988, 37.1710554 ], [ -3.4727681, 37.1706753 ], [ -3.4736542, 37.1700678 ], [ -3.4741041, 37.1699578 ], [ -3.4749935, 37.1698912 ], [ -3.4760456, 37.1670205 ], [ -3.4762242, 37.1667583 ], [ -3.476402, 37.16637 ], [ -3.4768156, 37.1658726 ], [ -3.4773532, 37.1653836 ], [ -3.478318, 37.1647758 ], [ -3.4786543, 37.1645131 ], [ -3.4797717, 37.1631204 ], [ -3.4803322, 37.1627035 ], [ -3.4804655, 37.1624055 ], [ -3.4804728, 37.1617654 ], [ -3.4805825, 37.1613053 ], [ -3.480893, 37.1605378 ], [ -3.4808921, 37.1604026 ], [ -3.4808201, 37.157933 ], [ -3.4807247, 37.1553103 ], [ -3.4833193, 37.1524603 ], [ -3.4833641, 37.1524151 ], [ -3.48532, 37.1500995 ], [ -3.4876924, 37.1477731 ], [ -3.48832, 37.1473018 ], [ -3.4887586, 37.1472189 ], [ -3.4889363, 37.1468396 ], [ -3.4890577, 37.1464515 ], [ -3.489808, 37.1457994 ], [ -3.4906792, 37.1447051 ], [ -3.4915064, 37.1437642 ], [ -3.4915723, 37.1435025 ], [ -3.4915138, 37.1431692 ], [ -3.4913301, 37.1426201 ], [ -3.491304, 37.1420793 ], [ -3.4906452, 37.1411807 ], [ -3.4905317, 37.1410369 ], [ -3.4903276, 37.1408304 ], [ -3.4900292, 37.1399482 ], [ -3.4844168, 37.139133 ], [ -3.4839548, 37.1390717 ], [ -3.4752998, 37.1378267 ], [ -3.4748714, 37.1377383 ], [ -3.4742732, 37.1375063 ], [ -3.4736402, 37.1371032 ], [ -3.4730629, 37.1366097 ], [ -3.4729497, 37.13652 ], [ -3.4724974, 37.1362063 ], [ -3.4712551, 37.1355892 ], [ -3.4704423, 37.1352409 ], [ -3.4697994, 37.1350542 ], [ -3.4686271, 37.1348244 ], [ -3.4671961, 37.1346407 ], [ -3.4652115, 37.1341527 ], [ -3.461286, 37.1329061 ], [ -3.4595386, 37.1325162 ], [ -3.4591211, 37.1323646 ], [ -3.4584094, 37.1319707 ], [ -3.4575516, 37.1316044 ], [ -3.4565136, 37.1312299 ], [ -3.4562535, 37.1310325 ], [ -3.4557377, 37.1295111 ], [ -3.4555331, 37.1291784 ], [ -3.4551371, 37.1288464 ], [ -3.4547089, 37.1287939 ], [ -3.4538983, 37.128788 ], [ -3.4529857, 37.1286653 ], [ -3.4522303, 37.1284699 ], [ -3.451835, 37.1282551 ], [ -3.4515634, 37.1280217 ], [ -3.4513126, 37.1274908 ], [ -3.4512989, 37.1270672 ], [ -3.4509221, 37.1261852 ], [ -3.4500943, 37.1251788 ], [ -3.4497384, 37.1239903 ], [ -3.4493316, 37.1237304 ], [ -3.448914, 37.1235517 ], [ -3.448181, 37.1233381 ], [ -3.447842, 37.123114 ], [ -3.4472646, 37.1225483 ], [ -3.4470162, 37.122432 ], [ -3.4456536, 37.1223381 ], [ -3.44499, 37.1224397 ], [ -3.4443831, 37.1225952 ], [ -3.4441015, 37.1225692 ], [ -3.4419431, 37.121135 ], [ -3.4411075, 37.1206964 ], [ -3.4401688, 37.1199427 ], [ -3.4398625, 37.1195202 ], [ -3.439173, 37.1190179 ], [ -3.4388909, 37.1189018 ], [ -3.4385423, 37.1189752 ], [ -3.437623, 37.1196005 ], [ -3.4361066, 37.120174 ], [ -3.4352862, 37.1204114 ], [ -3.4345889, 37.1205131 ], [ -3.4312228, 37.1204532 ], [ -3.4308174, 37.1204186 ], [ -3.4297251, 37.1203505 ], [ -3.4289702, 37.120218 ], [ -3.4284399, 37.1200035 ], [ -3.428157, 37.1197522 ], [ -3.4279979, 37.1194823 ], [ -3.4264275, 37.1184513 ], [ -3.4258295, 37.1182011 ], [ -3.4254905, 37.117968 ], [ -3.4252636, 37.1176443 ], [ -3.4250356, 37.1171312 ], [ -3.4242876, 37.1162235 ], [ -3.4235073, 37.1155502 ], [ -3.4230104, 37.1152635 ], [ -3.4226833, 37.1151475 ], [ -3.4217936, 37.1150515 ], [ -3.4209156, 37.1150366 ], [ -3.4205551, 37.1149838 ], [ -3.4202163, 37.1147777 ], [ -3.4194247, 37.1141044 ], [ -3.4190299, 37.1139526 ], [ -3.4171476, 37.1134904 ], [ -3.4164596, 37.1132314 ], [ -3.4160872, 37.1130434 ], [ -3.415364, 37.1125321 ], [ -3.4148565, 37.1123446 ], [ -3.4138543, 37.112258 ], [ -3.4120984, 37.1122551 ], [ -3.4114895, 37.1120318 ], [ -3.4110048, 37.1119073 ], [ -3.4095084, 37.1120116 ], [ -3.4079322, 37.1119359 ], [ -3.4069981, 37.1119391 ], [ -3.4063784, 37.1118241 ], [ -3.4057356, 37.1115919 ], [ -3.4053063, 37.1112959 ], [ -3.4050574, 37.1110624 ], [ -3.4032365, 37.1093919 ], [ -3.402228, 37.1081063 ], [ -3.401751, 37.1072967 ], [ -3.4014451, 37.1069191 ], [ -3.4006095, 37.1063901 ], [ -3.399922, 37.1062031 ], [ -3.3987395, 37.1060629 ], [ -3.3981759, 37.1059025 ], [ -3.3978254, 37.1055882 ], [ -3.3969084, 37.1045637 ], [ -3.3957775, 37.1035128 ], [ -3.3944443, 37.1025076 ], [ -3.3929084, 37.1014671 ], [ -3.3915988, 37.1006602 ], [ -3.3906961, 37.1002034 ], [ -3.3900636, 37.0997458 ], [ -3.389407, 37.0989817 ], [ -3.3873831, 37.0971405 ], [ -3.3872021, 37.0969427 ], [ -3.3861276, 37.0958645 ], [ -3.3859109, 37.0953064 ], [ -3.3859183, 37.0945401 ], [ -3.3858269, 37.09427 ], [ -3.3856459, 37.0940813 ], [ -3.3845972, 37.093643 ], [ -3.3843364, 37.0932563 ], [ -3.384278, 37.0928237 ], [ -3.3842548, 37.0926796 ], [ -3.3844083, 37.0918949 ], [ -3.3842383, 37.091652 ], [ -3.3835944, 37.0911493 ], [ -3.383346, 37.0909969 ], [ -3.3831881, 37.0909163 ], [ -3.3828601, 37.0905928 ], [ -3.38278, 37.0903137 ], [ -3.3831041, 37.0898799 ], [ -3.3831374, 37.0897897 ], [ -3.3832816, 37.0893835 ], [ -3.3832552, 37.0885994 ], [ -3.3831295, 37.0882302 ], [ -3.3829025, 37.0878344 ], [ -3.3824789, 37.0863934 ], [ -3.382048, 37.0857188 ], [ -3.381912, 37.0855299 ], [ -3.3815498, 37.0850984 ], [ -3.3813801, 37.0849187 ], [ -3.380906, 37.0846137 ], [ -3.3806126, 37.0844254 ], [ -3.3800596, 37.0840846 ], [ -3.3797767, 37.083779 ], [ -3.3796062, 37.083419 ], [ -3.3789253, 37.0822583 ], [ -3.3786765, 37.0819977 ], [ -3.3786201, 37.0819618 ], [ -3.3777517, 37.08155 ], [ -3.3773904, 37.0812897 ], [ -3.3759969, 37.079347 ], [ -3.3759724, 37.0789325 ], [ -3.376126, 37.0781478 ], [ -3.3761349, 37.077679 ], [ -3.3758987, 37.0754172 ], [ -3.3759309, 37.0750836 ], [ -3.3771624, 37.0738807 ], [ -3.3773521, 37.0735736 ], [ -3.3773835, 37.0730868 ], [ -3.377165, 37.072141 ], [ -3.376949, 37.071682 ], [ -3.3768679, 37.0711954 ], [ -3.3769336, 37.0708347 ], [ -3.3769207, 37.0705102 ], [ -3.3762291, 37.0694307 ], [ -3.3756861, 37.0688014 ], [ -3.3753924, 37.068568 ], [ -3.3744225, 37.0680572 ], [ -3.3729897, 37.0672054 ], [ -3.3716367, 37.0665426 ], [ -3.3697332, 37.0660527 ], [ -3.3695862, 37.0658819 ], [ -3.3695604, 37.065206 ], [ -3.3694919, 37.0649898 ], [ -3.3692653, 37.064657 ], [ -3.3691511, 37.0643058 ], [ -3.3691056, 37.0641978 ], [ -3.3690924, 37.0638012 ], [ -3.3690676, 37.0633145 ], [ -3.3691541, 37.0626021 ], [ -3.3694206, 37.0618982 ], [ -3.3699001, 37.0610493 ], [ -3.3699101, 37.0607879 ], [ -3.3695803, 37.0600317 ], [ -3.3694863, 37.0592117 ], [ -3.3692711, 37.0589149 ], [ -3.3679492, 37.0576751 ], [ -3.3669783, 37.0569209 ], [ -3.3656806, 37.0560325 ], [ -3.3656806, 37.0560325 ], [ -3.3634196, 37.0559673 ], [ -3.3622156, 37.0558538 ], [ -3.3622156, 37.0558538 ], [ -3.36135, 37.0559285 ], [ -3.3606522, 37.0558315 ], [ -3.3606521, 37.0558315 ], [ -3.3606521, 37.0558315 ], [ -3.360506, 37.05585 ], [ -3.3600578, 37.0562029 ], [ -3.3593157, 37.0562502 ], [ -3.3593157, 37.0562502 ], [ -3.3591249, 37.0563409 ], [ -3.3587329, 37.0566937 ], [ -3.3581265, 37.0568848 ], [ -3.3575884, 37.0567855 ], [ -3.3556275, 37.0564236 ], [ -3.3549786, 37.0563245 ], [ -3.3548171, 37.0562999 ], [ -3.3548171, 37.0562999 ], [ -3.3543104, 37.0561752 ], [ -3.3543103, 37.0561752 ], [ -3.3541161, 37.056151 ], [ -3.3536014, 37.0560871 ], [ -3.3519877, 37.0549291 ], [ -3.3514692, 37.0546692 ], [ -3.3503762, 37.0542307 ], [ -3.3493057, 37.0538012 ], [ -3.3486197, 37.0537852 ], [ -3.3486196, 37.0537852 ], [ -3.3476189, 37.0538422 ], [ -3.3476189, 37.0538422 ], [ -3.3456639, 37.0542626 ], [ -3.3456639, 37.0542626 ], [ -3.3451015, 37.0542642 ], [ -3.3444335, 37.0544468 ], [ -3.3440344, 37.0545558 ], [ -3.3434081, 37.0546504 ], [ -3.3425733, 37.0547764 ], [ -3.3416953, 37.0546167 ], [ -3.3391766, 37.0547591 ], [ -3.336681, 37.0550276 ], [ -3.336681, 37.0550276 ], [ -3.33505, 37.0549781 ], [ -3.3350499, 37.0549782 ], [ -3.3342524, 37.0551967 ], [ -3.3337575, 37.0551711 ], [ -3.3337574, 37.0551711 ], [ -3.3333864, 37.0551992 ], [ -3.3333864, 37.0551992 ], [ -3.3330381, 37.0552903 ], [ -3.3323663, 37.0557497 ], [ -3.332085, 37.055942 ], [ -3.331891, 37.0560404 ], [ -3.3316024, 37.0561867 ], [ -3.3312891, 37.0565662 ], [ -3.3304351, 37.0567489 ], [ -3.3297269, 37.056832 ], [ -3.3297269, 37.056832 ], [ -3.3291093, 37.0570591 ], [ -3.3276614, 37.0577482 ], [ -3.3272569, 37.0578484 ], [ -3.3255916, 37.0576998 ], [ -3.3247698, 37.0575127 ], [ -3.3244725, 37.0573531 ], [ -3.3243189, 37.0572706 ], [ -3.3239953, 37.0570384 ], [ -3.3235179, 37.0566959 ], [ -3.3228624, 37.0559525 ], [ -3.3225346, 37.0555808 ], [ -3.3222641, 37.0554283 ], [ -3.3217229, 37.0551232 ], [ -3.3202019, 37.0544964 ], [ -3.3199657, 37.05447 ], [ -3.3198081, 37.0544523 ], [ -3.3194315, 37.0545317 ], [ -3.3192014, 37.0545802 ], [ -3.3189313, 37.0545539 ], [ -3.3167358, 37.0540099 ], [ -3.3154632, 37.0535806 ], [ -3.3137642, 37.0533958 ], [ -3.3137641, 37.0533958 ], [ -3.3135951, 37.0533893 ], [ -3.3120206, 37.0533283 ], [ -3.3115597, 37.0533836 ], [ -3.3109439, 37.0540523 ], [ -3.3105529, 37.0547113 ], [ -3.3103644, 37.0553608 ], [ -3.3101295, 37.055686 ], [ -3.3100185, 37.0560378 ], [ -3.3100652, 37.0564524 ], [ -3.3098418, 37.0568406 ], [ -3.3092475, 37.0572928 ], [ -3.3085409, 37.0577634 ], [ -3.3085408, 37.0577635 ], [ -3.3084742, 37.0579619 ], [ -3.3084681, 37.0581024 ], [ -3.3084536, 37.0584397 ], [ -3.3083643, 37.0586112 ], [ -3.3072884, 37.0595785 ], [ -3.3052616, 37.0618283 ], [ -3.3049478, 37.0621085 ], [ -3.3040838, 37.0626516 ], [ -3.3039723, 37.0629043 ], [ -3.3039292, 37.0633461 ], [ -3.3034616, 37.0645733 ], [ -3.3029022, 37.0653138 ], [ -3.3027694, 37.0654259 ], [ -3.30242, 37.0657207 ], [ -3.302342, 37.0658922 ], [ -3.3023767, 37.0661445 ], [ -3.3022571, 37.0671815 ], [ -3.3013823, 37.0678417 ], [ -3.3004394, 37.0683489 ], [ -3.3001814, 37.0685388 ], [ -3.2999016, 37.0689091 ], [ -3.2992991, 37.0701636 ], [ -3.2991885, 37.0706236 ], [ -3.2989984, 37.0709216 ], [ -3.2987518, 37.0711656 ], [ -3.2980221, 37.071546 ], [ -3.2975841, 37.0717184 ], [ -3.2954065, 37.0729678 ], [ -3.2950028, 37.0733113 ], [ -3.2929977, 37.0755519 ], [ -3.2926291, 37.0762288 ], [ -3.2926291, 37.0762289 ], [ -3.291711, 37.0773849 ], [ -3.2909938, 37.0781169 ], [ -3.2906363, 37.0787938 ], [ -3.2890106, 37.0803176 ], [ -3.2887754, 37.0805381 ], [ -3.2887754, 37.0805381 ], [ -3.2886972, 37.0806915 ], [ -3.2888932, 37.081962 ], [ -3.2890651, 37.0827549 ], [ -3.2891463, 37.0834307 ], [ -3.289181, 37.083674 ], [ -3.2890251, 37.08408 ], [ -3.2886, 37.0847301 ], [ -3.2884431, 37.0848837 ], [ -3.2885131, 37.0855506 ], [ -3.2883465, 37.0861459 ], [ -3.2875614, 37.0867968 ], [ -3.2871374, 37.0877534 ], [ -3.2869826, 37.0884839 ], [ -3.2867257, 37.0889893 ], [ -3.2866149, 37.0894493 ], [ -3.2866747, 37.0903776 ], [ -3.2869028, 37.0911974 ], [ -3.2870216, 37.0928557 ], [ -3.2870013, 37.0934236 ], [ -3.2868793, 37.0939287 ], [ -3.2869747, 37.0953257 ], [ -3.2869089, 37.0957946 ], [ -3.2867303, 37.0961827 ], [ -3.2865283, 37.0963364 ], [ -3.2864055, 37.0965981 ], [ -3.2864074, 37.0971029 ], [ -3.2863393, 37.097318 ], [ -3.2863074, 37.0974186 ], [ -3.2859102, 37.0978238 ], [ -3.2855898, 37.0981505 ], [ -3.2849495, 37.0984585 ], [ -3.2841853, 37.0987037 ], [ -3.2841853, 37.0987037 ], [ -3.2837353, 37.0987408 ], [ -3.2832175, 37.098706 ], [ -3.2829921, 37.0986345 ], [ -3.2828795, 37.0985987 ], [ -3.2826424, 37.0983829 ], [ -3.2826423, 37.0983829 ], [ -3.2820122, 37.0983754 ], [ -3.281899, 37.0984093 ], [ -3.2817086, 37.0984662 ], [ -3.2813508, 37.0990981 ], [ -3.2813028, 37.0991523 ], [ -3.2812388, 37.0992245 ], [ -3.2808302, 37.0994011 ], [ -3.2802949, 37.0996324 ], [ -3.2796438, 37.1000757 ], [ -3.2786126, 37.1012049 ], [ -3.2778637, 37.1026128 ], [ -3.2777419, 37.103154 ], [ -3.2777775, 37.1036587 ], [ -3.2779365, 37.1040279 ], [ -3.2779365, 37.1040279 ], [ -3.2779153, 37.1043885 ], [ -3.2779153, 37.1043885 ], [ -3.2773413, 37.1074727 ], [ -3.2771873, 37.1079785 ], [ -3.2771189, 37.1082034 ], [ -3.2770238, 37.1084147 ], [ -3.2768509, 37.1087989 ], [ -3.2765374, 37.1092684 ], [ -3.2760321, 37.1096031 ], [ -3.275358, 37.1099202 ], [ -3.2748647, 37.1104441 ], [ -3.2737304, 37.1111228 ], [ -3.2730682, 37.1116832 ], [ -3.2724184, 37.112523 ], [ -3.2714872, 37.1133635 ], [ -3.2709047, 37.11414 ], [ -3.2706353, 37.114348 ], [ -3.2699379, 37.1144848 ], [ -3.2699379, 37.1144848 ], [ -3.2692289, 37.1145044 ], [ -3.2682264, 37.1142994 ], [ -3.2671897, 37.1139682 ], [ -3.2671896, 37.1139682 ], [ -3.2653202, 37.113693 ], [ -3.2628899, 37.1139417 ], [ -3.2628898, 37.1139417 ], [ -3.2610568, 37.1144145 ], [ -3.2610568, 37.1144146 ], [ -3.2601229, 37.1145248 ], [ -3.2593358, 37.1145615 ], [ -3.2593126, 37.1145626 ], [ -3.2585475, 37.1146724 ], [ -3.2580976, 37.114657 ], [ -3.2580523, 37.1146555 ], [ -3.2580522, 37.1146555 ], [ -3.2577373, 37.1146923 ], [ -3.2577372, 37.1146923 ], [ -3.2578169, 37.1149445 ], [ -3.2578066, 37.1152329 ], [ -3.2578636, 37.1154672 ], [ -3.2569916, 37.1172359 ], [ -3.2566671, 37.1177954 ], [ -3.2561964, 37.1184184 ], [ -3.2556805, 37.1189965 ], [ -3.2553668, 37.1194298 ], [ -3.2550985, 37.1199802 ], [ -3.2549536, 37.1204223 ], [ -3.2545725, 37.1209189 ], [ -3.2541919, 37.1215326 ], [ -3.2537683, 37.1227955 ], [ -3.2530737, 37.1238336 ], [ -3.2532116, 37.1246627 ], [ -3.2535083, 37.1258609 ], [ -3.2534757, 37.1262215 ], [ -3.2530535, 37.127872 ], [ -3.2530535, 37.1278721 ], [ -3.2531249, 37.1290527 ], [ -3.2530928, 37.1295937 ], [ -3.252993, 37.1300085 ], [ -3.25259, 37.1307215 ], [ -3.2520859, 37.1314707 ], [ -3.2516486, 37.1320306 ], [ -3.2516071, 37.1330943 ], [ -3.2514416, 37.1341133 ], [ -3.251535, 37.1351498 ], [ -3.2514741, 37.1355915 ], [ -3.2514691, 37.1356276 ], [ -3.2514691, 37.1356276 ], [ -3.2513351, 37.1359704 ], [ -3.2510045, 37.1381436 ], [ -3.2507589, 37.1388111 ], [ -3.249886, 37.1404445 ], [ -3.2498308, 37.1407691 ], [ -3.2498671, 37.1415262 ], [ -3.2499241, 37.1417515 ], [ -3.2527106, 37.143332 ], [ -3.2527107, 37.1433321 ], [ -3.2537822, 37.1439067 ], [ -3.2537823, 37.1439067 ], [ -3.2546964, 37.1445448 ], [ -3.2549902, 37.1448596 ], [ -3.2552168, 37.1452647 ], [ -3.2553872, 37.1457151 ], [ -3.2554351, 37.1465623 ], [ -3.255515, 37.1468776 ], [ -3.2556735, 37.1471567 ], [ -3.2564189, 37.1477861 ], [ -3.2571422, 37.1485507 ], [ -3.2579663, 37.1491799 ], [ -3.2584424, 37.1500984 ], [ -3.2587943, 37.1509269 ], [ -3.2598471, 37.1525471 ], [ -3.2598472, 37.1525472 ], [ -3.2606154, 37.1532666 ], [ -3.2620603, 37.1542639 ], [ -3.2622975, 37.1544708 ], [ -3.2634033, 37.1550813 ], [ -3.2634034, 37.1550813 ], [ -3.2638652, 37.1551343 ], [ -3.2638652, 37.1551343 ], [ -3.26392, 37.1551367 ], [ -3.2648677, 37.1551772 ], [ -3.2650417, 37.1552215 ], [ -3.2651832, 37.1552576 ], [ -3.266593, 37.1558133 ], [ -3.2678338, 37.1563874 ], [ -3.2678339, 37.1563874 ], [ -3.2689061, 37.1570611 ], [ -3.2697191, 37.1576542 ], [ -3.2706454, 37.1584543 ], [ -3.2722508, 37.1601453 ], [ -3.2731786, 37.161351 ], [ -3.2739374, 37.1625301 ], [ -3.2740517, 37.1629806 ], [ -3.2738623, 37.1635669 ], [ -3.2737756, 37.1645316 ], [ -3.2738225, 37.1650363 ], [ -3.2739251, 37.1653606 ], [ -3.2742078, 37.1657025 ], [ -3.2747492, 37.1658905 ], [ -3.2747493, 37.1658905 ], [ -3.2756508, 37.1660417 ], [ -3.2756509, 37.1660417 ], [ -3.2778724, 37.1667666 ], [ -3.2778725, 37.1667666 ], [ -3.2791578, 37.1671423 ], [ -3.2794625, 37.1672947 ], [ -3.2794205, 37.1681061 ], [ -3.2796017, 37.1683852 ], [ -3.279805, 37.1685649 ], [ -3.2802114, 37.1687623 ], [ -3.2802674, 37.1687714 ], [ -3.2805382, 37.1688156 ], [ -3.2815175, 37.1686239 ], [ -3.2820358, 37.1686678 ], [ -3.2824307, 37.1688472 ], [ -3.2830749, 37.1694495 ], [ -3.2833018, 37.1698637 ], [ -3.2833709, 37.1702692 ], [ -3.2835747, 37.1705841 ], [ -3.283846, 37.1708179 ], [ -3.2842534, 37.1713397 ], [ -3.2842535, 37.1713397 ], [ -3.2845359, 37.1715644 ], [ -3.284976, 37.1717977 ], [ -3.2854272, 37.1719498 ], [ -3.285732, 37.1721474 ], [ -3.2859478, 37.1724757 ], [ -3.286004, 37.1725614 ], [ -3.286004, 37.1725614 ], [ -3.2860954, 37.1729218 ], [ -3.2860177, 37.1732284 ], [ -3.2856483, 37.1738242 ], [ -3.2854941, 37.1747621 ], [ -3.2853041, 37.1751682 ], [ -3.2850462, 37.1754843 ], [ -3.2847765, 37.1756472 ], [ -3.2843936, 37.1757022 ], [ -3.2836958, 37.1758571 ], [ -3.2836957, 37.1758571 ], [ -3.2828859, 37.1761926 ], [ -3.2824675, 37.176415 ], [ -3.2823238, 37.1764914 ], [ -3.2823238, 37.1764914 ], [ -3.282043, 37.1767265 ], [ -3.2819087, 37.1769792 ], [ -3.282278, 37.179358 ], [ -3.2823131, 37.1796824 ], [ -3.2824189, 37.180881 ], [ -3.2825284, 37.1811795 ], [ -3.2826238, 37.1814394 ], [ -3.2828779, 37.1831516 ], [ -3.2829492, 37.1841339 ], [ -3.2818351, 37.1844611 ], [ -3.280699, 37.1849685 ], [ -3.280317, 37.1852398 ], [ -3.280194, 37.1855016 ], [ -3.2810587, 37.1878161 ], [ -3.2825115, 37.1906792 ], [ -3.2828193, 37.1916339 ], [ -3.2829256, 37.1929408 ], [ -3.2834152, 37.1943007 ], [ -3.2834395, 37.1948054 ], [ -3.2828359, 37.1961139 ], [ -3.2827252, 37.196637 ], [ -3.2828175, 37.1972317 ], [ -3.2830681, 37.1979612 ], [ -3.2833748, 37.1986005 ], [ -3.2833748, 37.1986005 ], [ -3.2839866, 37.1994915 ], [ -3.2846545, 37.2003191 ], [ -3.2846546, 37.2003192 ], [ -3.2851069, 37.2007507 ], [ -3.2856945, 37.201182 ], [ -3.2864849, 37.2016128 ], [ -3.2872297, 37.2018995 ], [ -3.2884026, 37.202131 ], [ -3.2895984, 37.2024796 ], [ -3.2895985, 37.2024796 ], [ -3.2902184, 37.2025502 ], [ -3.2903437, 37.2028834 ], [ -3.2907181, 37.2035405 ], [ -3.2911597, 37.2040803 ], [ -3.2911597, 37.2040803 ], [ -3.2913728, 37.2041969 ], [ -3.2918485, 37.2044572 ], [ -3.2921085, 37.2046729 ], [ -3.2926074, 37.2054649 ], [ -3.2931074, 37.2065273 ], [ -3.2933111, 37.2067612 ], [ -3.2933112, 37.2067612 ], [ -3.293876, 37.2071204 ], [ -3.2943738, 37.2076149 ], [ -3.2946676, 37.2078215 ], [ -3.2960337, 37.2084761 ], [ -3.2966884, 37.2087179 ], [ -3.2972635, 37.2088246 ], [ -3.2991821, 37.2094958 ] ], [ [ -3.4405942, 37.1584518 ], [ -3.4406134, 37.1584641 ], [ -3.4408714, 37.1581011 ], [ -3.4410259, 37.158063 ], [ -3.4410222, 37.1580583 ], [ -3.4409327, 37.1579465 ], [ -3.4409181, 37.1579282 ], [ -3.4408256, 37.1578392 ], [ -3.4407196, 37.1576714 ], [ -3.4406001, 37.1574511 ], [ -3.440738, 37.1574453 ], [ -3.4408299, 37.1574344 ], [ -3.4408818, 37.1573291 ], [ -3.4410324, 37.1572497 ], [ -3.4411638, 37.157265 ], [ -3.4414463, 37.1572745 ], [ -3.4415711, 37.1572898 ], [ -3.4418268, 37.15721 ], [ -3.4421349, 37.1571037 ], [ -3.4423642, 37.1570082 ], [ -3.44243, 37.157029 ], [ -3.4424702, 37.1571603 ], [ -3.442517, 37.157302 ], [ -3.4426813, 37.1573329 ], [ -3.443023, 37.157358 ], [ -3.4432595, 37.1573676 ], [ -3.4435757, 37.1575346 ], [ -3.4445083, 37.1575364 ], [ -3.444727, 37.157872 ], [ -3.4450639, 37.1582124 ], [ -3.4452494, 37.1584851 ], [ -3.4452641, 37.1587531 ], [ -3.4452203, 37.1591212 ], [ -3.4449728, 37.1594796 ], [ -3.4449558, 37.1594809 ], [ -3.4448361, 37.1596512 ], [ -3.4446838, 37.1595931 ], [ -3.4442968, 37.1600826 ], [ -3.4442302, 37.1600957 ], [ -3.4441718, 37.1601579 ], [ -3.4440874, 37.1603227 ], [ -3.4433269, 37.1603597 ], [ -3.4433269, 37.1603576 ], [ -3.4418549, 37.1601387 ], [ -3.4418575, 37.1601387 ], [ -3.4412194, 37.1600962 ], [ -3.4410218, 37.1605392 ], [ -3.4409206, 37.1605866 ], [ -3.4408571, 37.1606915 ], [ -3.4408119, 37.1607109 ], [ -3.4405254, 37.160556 ], [ -3.4398023, 37.1603272 ], [ -3.4398034, 37.1603346 ], [ -3.4397885, 37.160333 ], [ -3.4397902, 37.1603558 ], [ -3.4396049, 37.1606693 ], [ -3.4396083, 37.1606704 ], [ -3.4395988, 37.1607375 ], [ -3.4398308, 37.1608155 ], [ -3.4398262, 37.1608707 ], [ -3.4398659, 37.1609139 ], [ -3.4399746, 37.1609727 ], [ -3.4399551, 37.16102 ], [ -3.439901, 37.1610202 ], [ -3.4398417, 37.1610007 ], [ -3.439753, 37.1609971 ], [ -3.4395465, 37.1610649 ], [ -3.4394138, 37.1611167 ], [ -3.4393796, 37.1611602 ], [ -3.4394099, 37.1612783 ], [ -3.4394547, 37.1613728 ], [ -3.4395144, 37.1614672 ], [ -3.4394014, 37.1615188 ], [ -3.4393521, 37.1615151 ], [ -3.4392387, 37.1614918 ], [ -3.4390021, 37.1614651 ], [ -3.4388789, 37.1614656 ], [ -3.43882, 37.1614894 ], [ -3.4387167, 37.1615135 ], [ -3.4386967, 37.1614781 ], [ -3.4384748, 37.1614237 ], [ -3.4382775, 37.1613771 ], [ -3.4382429, 37.1613575 ], [ -3.4381143, 37.1612673 ], [ -3.4379412, 37.1611536 ], [ -3.4379118, 37.1611278 ], [ -3.4379085, 37.1611299 ], [ -3.4378725, 37.1611556 ], [ -3.4369394, 37.1603509 ], [ -3.4368774, 37.1602042 ], [ -3.4366934, 37.1599453 ], [ -3.4367003, 37.1599407 ], [ -3.4366324, 37.1598869 ], [ -3.4365922, 37.1598209 ], [ -3.4365211, 37.1596743 ], [ -3.4366577, 37.1596661 ], [ -3.4366804, 37.1596575 ], [ -3.4367595, 37.1596539 ], [ -3.4370335, 37.1594399 ], [ -3.4370138, 37.1594303 ], [ -3.4370178, 37.1594269 ], [ -3.4369063, 37.1593503 ], [ -3.4368172, 37.1592973 ], [ -3.436728, 37.1592265 ], [ -3.4368603, 37.1590601 ], [ -3.4367859, 37.1590071 ], [ -3.4367355, 37.1589671 ], [ -3.4368584, 37.1588217 ], [ -3.436069, 37.1583128 ], [ -3.4362034, 37.1582042 ], [ -3.4362777, 37.1579972 ], [ -3.4362777, 37.1579941 ], [ -3.4366693, 37.1577128 ], [ -3.4368944, 37.1574799 ], [ -3.4370699, 37.1574701 ], [ -3.43707, 37.1574705 ], [ -3.4370746, 37.1574939 ], [ -3.4370881, 37.1574952 ], [ -3.4370963, 37.1576255 ], [ -3.4371858, 37.1577378 ], [ -3.4372676, 37.1578145 ], [ -3.4373346, 37.1578676 ], [ -3.4374605, 37.1578908 ], [ -3.4375938, 37.1579021 ], [ -3.4377642, 37.1579311 ], [ -3.4378975, 37.1579307 ], [ -3.4381121, 37.1579299 ], [ -3.4381569, 37.157983 ], [ -3.4383283, 37.1581957 ], [ -3.4384253, 37.1583257 ], [ -3.4385815, 37.1584613 ], [ -3.438745, 37.1585615 ], [ -3.4388858, 37.1585965 ], [ -3.4390634, 37.1585899 ], [ -3.4392278, 37.1585615 ], [ -3.4393624, 37.1585178 ], [ -3.4394697, 37.1584311 ], [ -3.4395907, 37.1583659 ], [ -3.4396759, 37.1583656 ], [ -3.4403133, 37.1586436 ], [ -3.4405942, 37.1584518 ] ] ] } },
{ "type": "Feature", "properties": { "CCAA": "01 - Andalucía", "PROVINCIA": "18 - Granada", "MUNICIPIO": "18094 - Güéjar Sierra", "COD_MUNICIPIO": "18094", "DISTRITO": "01", "SECCION": "1809401002", "V1_H": 79.96, "V1_M": 85.86, "V2_H": 79.90630759, "V2_M": 85.80766239, "V3_H": 80.18166072, "V3_M": 86.22029934 }, "geometry": { "type": "Polygon", "coordinates": [ [ [ -3.4379118, 37.1611278 ], [ -3.4379412, 37.1611536 ], [ -3.4381143, 37.1612673 ], [ -3.4382429, 37.1613575 ], [ -3.4382775, 37.1613771 ], [ -3.4384748, 37.1614237 ], [ -3.4386967, 37.1614781 ], [ -3.4387167, 37.1615135 ], [ -3.43882, 37.1614894 ], [ -3.4388789, 37.1614656 ], [ -3.4390021, 37.1614651 ], [ -3.4392387, 37.1614918 ], [ -3.4393521, 37.1615151 ], [ -3.4394014, 37.1615188 ], [ -3.4395144, 37.1614672 ], [ -3.4394547, 37.1613728 ], [ -3.4394099, 37.1612783 ], [ -3.4393796, 37.1611602 ], [ -3.4394138, 37.1611167 ], [ -3.4395465, 37.1610649 ], [ -3.439753, 37.1609971 ], [ -3.4398417, 37.1610007 ], [ -3.439901, 37.1610202 ], [ -3.4399551, 37.16102 ], [ -3.4399746, 37.1609727 ], [ -3.4398659, 37.1609139 ], [ -3.4398262, 37.1608707 ], [ -3.4398308, 37.1608155 ], [ -3.4395988, 37.1607375 ], [ -3.4396083, 37.1606704 ], [ -3.4396049, 37.1606693 ], [ -3.4397902, 37.1603558 ], [ -3.4397885, 37.160333 ], [ -3.4398034, 37.1603346 ], [ -3.4398023, 37.1603272 ], [ -3.4405254, 37.160556 ], [ -3.4408119, 37.1607109 ], [ -3.4408571, 37.1606915 ], [ -3.4409206, 37.1605866 ], [ -3.4410218, 37.1605392 ], [ -3.4412194, 37.1600962 ], [ -3.4418575, 37.1601387 ], [ -3.4418549, 37.1601387 ], [ -3.4433269, 37.1603576 ], [ -3.4433269, 37.1603597 ], [ -3.4440874, 37.1603227 ], [ -3.4441718, 37.1601579 ], [ -3.4442302, 37.1600957 ], [ -3.4442968, 37.1600826 ], [ -3.4446838, 37.1595931 ], [ -3.4448361, 37.1596512 ], [ -3.4449558, 37.1594809 ], [ -3.4449728, 37.1594796 ], [ -3.4452203, 37.1591212 ], [ -3.4452641, 37.1587531 ], [ -3.4452494, 37.1584851 ], [ -3.4450639, 37.1582124 ], [ -3.444727, 37.157872 ], [ -3.4445083, 37.1575364 ], [ -3.4435757, 37.1575346 ], [ -3.4432595, 37.1573676 ], [ -3.443023, 37.157358 ], [ -3.4426813, 37.1573329 ], [ -3.442517, 37.157302 ], [ -3.4424702, 37.1571603 ], [ -3.44243, 37.157029 ], [ -3.4423642, 37.1570082 ], [ -3.4421349, 37.1571037 ], [ -3.4418268, 37.15721 ], [ -3.4415711, 37.1572898 ], [ -3.4414463, 37.1572745 ], [ -3.4411638, 37.157265 ], [ -3.4410324, 37.1572497 ], [ -3.4408818, 37.1573291 ], [ -3.4408299, 37.1574344 ], [ -3.440738, 37.1574453 ], [ -3.4406001, 37.1574511 ], [ -3.4407196, 37.1576714 ], [ -3.4408256, 37.1578392 ], [ -3.4409181, 37.1579282 ], [ -3.4409327, 37.1579465 ], [ -3.4410222, 37.1580583 ], [ -3.4410259, 37.158063 ], [ -3.4408714, 37.1581011 ], [ -3.4406134, 37.1584641 ], [ -3.4406299, 37.1584747 ], [ -3.4407694, 37.1585275 ], [ -3.4411162, 37.158736 ], [ -3.4411613, 37.1588027 ], [ -3.4411518, 37.1588091 ], [ -3.4410877, 37.1588528 ], [ -3.4410288, 37.1589003 ], [ -3.4407393, 37.1588068 ], [ -3.440575, 37.1587916 ], [ -3.4403847, 37.1588133 ], [ -3.4400437, 37.158904 ], [ -3.4398537, 37.158994 ], [ -3.4396441, 37.1590894 ], [ -3.4395461, 37.1591792 ], [ -3.4395384, 37.1591873 ], [ -3.4394613, 37.1592688 ], [ -3.4393502, 37.1593691 ], [ -3.4393494, 37.1593696 ], [ -3.4392877, 37.1594462 ], [ -3.4391993, 37.1595004 ], [ -3.4390746, 37.1595707 ], [ -3.4390167, 37.1596174 ], [ -3.438879, 37.1597742 ], [ -3.4387417, 37.1598851 ], [ -3.4386535, 37.1599683 ], [ -3.4385312, 37.1601106 ], [ -3.4384286, 37.1602451 ], [ -3.4383748, 37.1603202 ], [ -3.4383309, 37.1603913 ], [ -3.4383018, 37.1604663 ], [ -3.438297, 37.1604671 ], [ -3.4380658, 37.1603253 ], [ -3.4380272, 37.16034 ], [ -3.4380102, 37.1603538 ], [ -3.4379859, 37.1603571 ], [ -3.4377795, 37.1604446 ], [ -3.4376075, 37.1605201 ], [ -3.437598, 37.1605832 ], [ -3.4376033, 37.1606502 ], [ -3.4376136, 37.1607251 ], [ -3.4376584, 37.1608038 ], [ -3.4377229, 37.1608785 ], [ -3.4377776, 37.160965 ], [ -3.4378271, 37.16102 ], [ -3.4378471, 37.1610712 ], [ -3.4379118, 37.1611278 ] ] ] } }
]
}
