{
"type": "FeatureCollection",
"name": "18114",
"features": [
{ "type": "Feature", "properties": { "CCAA": "01 - Andalucía", "PROVINCIA": "18 - Granada", "MUNICIPIO": "18114 - Calahorra, La", "COD_MUNICIPIO": "18114", "DISTRITO": "01", "SECCION": "1811401001", "V1_H": 79.63, "V1_M": 85.51, "V2_H": 79.79644461, "V2_M": 85.57767022, "V3_H": 79.53263393, "V3_M": 85.68344389000001 }, "geometry": { "type": "Polygon", "coordinates": [ [ [ -2.9900552, 37.2744809 ], [ -2.9904634, 37.2744653 ], [ -2.9904635, 37.2744653 ], [ -2.9920426, 37.2742401 ], [ -2.9936104, 37.2740869 ], [ -2.9936105, 37.2740869 ], [ -2.9976711, 37.275295 ], [ -2.9996563, 37.2754573 ], [ -2.9996564, 37.2754573 ], [ -3.0013595, 37.2762866 ], [ -3.0013596, 37.2762866 ], [ -3.0013597, 37.2762866 ], [ -3.0027389, 37.2763771 ], [ -3.0028711, 37.2763857 ], [ -3.0028711, 37.2763857 ], [ -3.0076311, 37.2756735 ], [ -3.0076312, 37.2756735 ], [ -3.0084156, 37.2755792 ], [ -3.0106316, 37.2753127 ], [ -3.0118836, 37.2754028 ], [ -3.0118837, 37.2754028 ], [ -3.0122455, 37.2754741 ], [ -3.0127974, 37.275583 ], [ -3.0130794, 37.2758083 ], [ -3.0131954, 37.2758185 ], [ -3.0136885, 37.2758623 ], [ -3.014636, 37.2755377 ], [ -3.0149405, 37.2753303 ], [ -3.0151886, 37.2748796 ], [ -3.0154592, 37.2746362 ], [ -3.0157863, 37.27451 ], [ -3.0163164, 37.2744828 ], [ -3.0163165, 37.2744828 ], [ -3.016903, 37.2745729 ], [ -3.016903, 37.2745729 ], [ -3.0173091, 37.2747081 ], [ -3.0173091, 37.2747081 ], [ -3.0179408, 37.274744 ], [ -3.0179408, 37.274744 ], [ -3.0184258, 37.2746809 ], [ -3.0184258, 37.2746809 ], [ -3.0186853, 37.2745276 ], [ -3.0189446, 37.2742661 ], [ -3.019125, 37.2738965 ], [ -3.0198692, 37.2729049 ], [ -3.0199594, 37.2726615 ], [ -3.0199931, 37.2722739 ], [ -3.0201171, 37.2719223 ], [ -3.0203313, 37.2715978 ], [ -3.0209404, 37.2713813 ], [ -3.0213802, 37.2710748 ], [ -3.0215493, 37.2708765 ], [ -3.0217973, 37.2704347 ], [ -3.0222935, 37.2698487 ], [ -3.0229475, 37.2692357 ], [ -3.0231279, 37.2690193 ], [ -3.0234999, 37.2683793 ], [ -3.0239169, 37.2671893 ], [ -3.0290584, 37.2629246 ], [ -3.0285394, 37.2624831 ], [ -3.0293727, 37.2591657 ], [ -3.0306127, 37.2577232 ], [ -3.0334085, 37.2555501 ], [ -3.0324273, 37.2550726 ], [ -3.0324949, 37.2549464 ], [ -3.0351315, 37.2500691 ], [ -3.0399644, 37.2411978 ], [ -3.0438622, 37.2352382 ], [ -3.0445379, 37.234012 ], [ -3.0448082, 37.23339 ], [ -3.0450894, 37.2323623 ], [ -3.0454721, 37.2313255 ], [ -3.0456973, 37.2309468 ], [ -3.0486034, 37.2269345 ], [ -3.0488399, 37.226727 ], [ -3.0501695, 37.225816 ], [ -3.0521416, 37.2248327 ], [ -3.0524458, 37.2246162 ], [ -3.0530766, 37.2239129 ], [ -3.0534144, 37.2233088 ], [ -3.0517565, 37.2220476 ], [ -3.0523756, 37.2208664 ], [ -3.0530743, 37.2205326 ], [ -3.0535136, 37.2200276 ], [ -3.0546736, 37.2187201 ], [ -3.0560704, 37.2174756 ], [ -3.0561603, 37.2171059 ], [ -3.0560695, 37.2162316 ], [ -3.0561819, 37.2158439 ], [ -3.056362, 37.2154653 ], [ -3.0571165, 37.2146536 ], [ -3.0572966, 37.214302 ], [ -3.0569467, 37.2136441 ], [ -3.0568901, 37.2132475 ], [ -3.0571827, 37.2126705 ], [ -3.0588374, 37.2099024 ], [ -3.0592983, 37.2083969 ], [ -3.0598497, 37.2073329 ], [ -3.0601414, 37.205575 ], [ -3.0603325, 37.2050071 ], [ -3.0605459, 37.2040966 ], [ -3.0610745, 37.2027171 ], [ -3.0613673, 37.2024646 ], [ -3.0621001, 37.2028698 ], [ -3.0624833, 37.2029688 ], [ -3.0636557, 37.2033828 ], [ -3.0640052, 37.2036079 ], [ -3.0643887, 37.2040134 ], [ -3.0652686, 37.2051577 ], [ -3.0658443, 37.2062661 ], [ -3.066182, 37.2058063 ], [ -3.0678585, 37.2027676 ], [ -3.0680718, 37.2017939 ], [ -3.0680145, 37.2007213 ], [ -3.0683057, 37.1986929 ], [ -3.0685069, 37.196827 ], [ -3.068743, 37.1962859 ], [ -3.0698498, 37.1990436 ], [ -3.0700414, 37.1990886 ], [ -3.0709995, 37.1993585 ], [ -3.0704142, 37.2000349 ], [ -3.0704821, 37.2004855 ], [ -3.0705502, 37.2009632 ], [ -3.0706744, 37.2013057 ], [ -3.0711486, 37.2022338 ], [ -3.0726379, 37.2041169 ], [ -3.0731119, 37.2048828 ], [ -3.0733942, 37.2054776 ], [ -3.0734748, 37.2073073 ], [ -3.0735659, 37.2083349 ], [ -3.073895, 37.2106874 ], [ -3.0741323, 37.2114084 ], [ -3.0744372, 37.2120301 ], [ -3.0758372, 37.214409 ], [ -3.0773948, 37.2167066 ], [ -3.07867, 37.2182651 ], [ -3.0793135, 37.2193284 ], [ -3.0797428, 37.2202835 ], [ -3.0804541, 37.221473 ], [ -3.0814587, 37.2227613 ], [ -3.0824976, 37.2245634 ], [ -3.0834467, 37.2265458 ], [ -3.0837634, 37.2275281 ], [ -3.0839454, 37.2290063 ], [ -3.0839454, 37.2291235 ], [ -3.0839351, 37.2299438 ], [ -3.084212, 37.2357666 ], [ -3.0866658, 37.2424262 ], [ -3.0866659, 37.2424262 ], [ -3.0892151, 37.2433258 ], [ -3.0908836, 37.2431893 ], [ -3.0911768, 37.243211 ], [ -3.0912444, 37.2432161 ], [ -3.0912445, 37.2432161 ], [ -3.0914136, 37.243252 ], [ -3.0914136, 37.243252 ], [ -3.092158, 37.2434587 ], [ -3.092158, 37.2434588 ], [ -3.0932513, 37.2430703 ], [ -3.0936796, 37.2430249 ], [ -3.0936797, 37.2430249 ], [ -3.0942434, 37.2430515 ], [ -3.0946489, 37.2427537 ], [ -3.094649, 37.2427537 ], [ -3.0946022, 37.2414377 ], [ -3.0946782, 37.2390309 ], [ -3.0945192, 37.2380665 ], [ -3.0945413, 37.2376879 ], [ -3.0947764, 37.2363717 ], [ -3.0946407, 37.2360203 ], [ -3.0941888, 37.2352814 ], [ -3.0937819, 37.2344165 ], [ -3.0937475, 37.2339658 ], [ -3.0937809, 37.2336052 ], [ -3.0940734, 37.2330821 ], [ -3.0945464, 37.232613 ], [ -3.0950081, 37.2322611 ], [ -3.095222, 37.2319725 ], [ -3.0953229, 37.2316118 ], [ -3.0953554, 37.2304941 ], [ -3.0953097, 37.2300254 ], [ -3.0951171, 37.2292593 ], [ -3.094564, 37.2286559 ], [ -3.0944849, 37.2284936 ], [ -3.0944621, 37.2282413 ], [ -3.0945293, 37.2279167 ], [ -3.0943938, 37.2277095 ], [ -3.0943259, 37.2274572 ], [ -3.0945618, 37.226808 ], [ -3.0952031, 37.2258249 ], [ -3.0953492, 37.2255003 ], [ -3.0953701, 37.2241212 ], [ -3.0954483, 37.2235262 ], [ -3.0953002, 37.2222914 ], [ -3.0951756, 37.2218227 ], [ -3.0952314, 37.221336 ], [ -3.0951178, 37.2206149 ], [ -3.0950723, 37.2202814 ], [ -3.0949932, 37.2201372 ], [ -3.0950152, 37.2196324 ], [ -3.0949923, 37.2193801 ], [ -3.0951721, 37.2189562 ], [ -3.0959035, 37.2179642 ], [ -3.0959821, 37.2176756 ], [ -3.0959354, 37.2164588 ], [ -3.0960477, 37.2161162 ], [ -3.0962726, 37.2157103 ], [ -3.0967229, 37.2152412 ], [ -3.0968915, 37.2148896 ], [ -3.0969811, 37.2144117 ], [ -3.0968668, 37.2131228 ], [ -3.0950159, 37.2110781 ], [ -3.0945062, 37.2089873 ], [ -3.0937037, 37.207104 ], [ -3.0932282, 37.2052925 ], [ -3.0930249, 37.204869 ], [ -3.091399, 37.2023373 ], [ -3.0895597, 37.2001122 ], [ -3.0876629, 37.1969677 ], [ -3.0869731, 37.1947508 ], [ -3.0869392, 37.1946606 ], [ -3.0865438, 37.1937776 ], [ -3.0846262, 37.1918499 ], [ -3.0842311, 37.1912192 ], [ -3.0841635, 37.1911291 ], [ -3.0823346, 37.1877952 ], [ -3.0817358, 37.1862812 ], [ -3.0809344, 37.1847494 ], [ -3.0801766, 37.1819195 ], [ -3.0802093, 37.1808738 ], [ -3.080366, 37.1798821 ], [ -3.0803655, 37.1795126 ], [ -3.0793179, 37.1795133 ], [ -3.0791266, 37.1797297 ], [ -3.078755, 37.1799193 ], [ -3.0784734, 37.1799375 ], [ -3.0782255, 37.1798745 ], [ -3.0780338, 37.1797124 ], [ -3.0770073, 37.1783159 ], [ -3.0749444, 37.1769831 ], [ -3.0742677, 37.1761903 ], [ -3.0738388, 37.1753162 ], [ -3.0737148, 37.17519 ], [ -3.0732757, 37.1754788 ], [ -3.0726898, 37.1752448 ], [ -3.0725435, 37.1754071 ], [ -3.0718901, 37.1754616 ], [ -3.0715411, 37.1755519 ], [ -3.0699984, 37.1763371 ], [ -3.0693904, 37.176707 ], [ -3.0690191, 37.177176 ], [ -3.0686928, 37.1776719 ], [ -3.0680849, 37.1781139 ], [ -3.0671502, 37.1785562 ], [ -3.0670039, 37.1786914 ], [ -3.0668125, 37.1787817 ], [ -3.066542, 37.1787278 ], [ -3.065911, 37.1784847 ], [ -3.0661021, 37.1780069 ], [ -3.065899, 37.1776464 ], [ -3.0660903, 37.1773849 ], [ -3.0661014, 37.1772136 ], [ -3.0656957, 37.1769885 ], [ -3.0658305, 37.1765287 ], [ -3.0657624, 37.1759609 ], [ -3.0655254, 37.1755824 ], [ -3.0658969, 37.1751495 ], [ -3.0647592, 37.1752493 ], [ -3.0648152, 37.1747805 ], [ -3.0647699, 37.1745733 ], [ -3.0645218, 37.1742128 ], [ -3.0635303, 37.1739429 ], [ -3.0625705, 37.1710949 ], [ -3.0625251, 37.1707344 ], [ -3.0629513, 37.1684085 ], [ -3.0628272, 37.1682013 ], [ -3.0619482, 37.1676609 ], [ -3.0617565, 37.1673455 ], [ -3.0615987, 37.1672014 ], [ -3.0610353, 37.1668952 ], [ -3.0609563, 37.166751 ], [ -3.0608096, 37.1664356 ], [ -3.0606625, 37.1656063 ], [ -3.0600298, 37.1630376 ], [ -3.0596572, 37.1618119 ], [ -3.0596218, 37.1596936 ], [ -3.0573913, 37.1590727 ], [ -3.0533365, 37.1586509 ], [ -3.0520744, 37.1576238 ], [ -3.0517363, 37.1572093 ], [ -3.051714, 37.1575429 ], [ -3.0514557, 37.1586427 ], [ -3.0511409, 37.1594992 ], [ -3.0511072, 37.1595713 ], [ -3.0508034, 37.1601122 ], [ -3.0499481, 37.1611493 ], [ -3.0486649, 37.1624568 ], [ -3.048001, 37.1633585 ], [ -3.0479786, 37.1637461 ], [ -3.0480467, 37.1644401 ], [ -3.0480918, 37.1644852 ], [ -3.0500416, 37.1664855 ], [ -3.0502333, 37.1667469 ], [ -3.0503009, 37.166873 ], [ -3.0502446, 37.1669902 ], [ -3.0495915, 37.1672609 ], [ -3.0492427, 37.1678651 ], [ -3.0485449, 37.1688388 ], [ -3.0479709, 37.169443 ], [ -3.0475658, 37.1702364 ], [ -3.0474535, 37.1707322 ], [ -3.0473863, 37.1714173 ], [ -3.0472402, 37.1720303 ], [ -3.0468355, 37.1732294 ], [ -3.0468808, 37.1737161 ], [ -3.0475124, 37.1750319 ], [ -3.0477493, 37.1756178 ], [ -3.0476368, 37.1758342 ], [ -3.0470624, 37.1761318 ], [ -3.0463306, 37.176682 ], [ -3.0455989, 37.1775656 ], [ -3.0453401, 37.1783049 ], [ -3.0453853, 37.1785663 ], [ -3.0455996, 37.1789357 ], [ -3.0459716, 37.1793322 ], [ -3.0469973, 37.1802513 ], [ -3.0475609, 37.1806387 ], [ -3.0482145, 37.1809449 ], [ -3.0485074, 37.1809448 ], [ -3.0491382, 37.1808544 ], [ -3.0494762, 37.1809444 ], [ -3.0499947, 37.1813769 ], [ -3.0504681, 37.1816561 ], [ -3.051212, 37.1823409 ], [ -3.0517533, 37.1829806 ], [ -3.052069, 37.1834672 ], [ -3.0522835, 37.1840891 ], [ -3.0526112, 37.1854411 ], [ -3.0529495, 37.1860359 ], [ -3.0532432, 37.1870543 ], [ -3.0533676, 37.1877574 ], [ -3.0536725, 37.188848 ], [ -3.053752, 37.1897493 ], [ -3.0541244, 37.1905604 ], [ -3.0540683, 37.1910022 ], [ -3.0536972, 37.1919488 ], [ -3.0537424, 37.192111 ], [ -3.0545207, 37.1934358 ], [ -3.0509415, 37.1993956 ], [ -3.048622, 37.2024253 ], [ -3.0459418, 37.2055091 ], [ -3.0452772, 37.2059511 ], [ -3.0448604, 37.2063208 ], [ -3.0445903, 37.206988 ], [ -3.0434303, 37.2082503 ], [ -3.0417518, 37.2097833 ], [ -3.0414478, 37.2102792 ], [ -3.0410986, 37.2106128 ], [ -3.0392171, 37.2119295 ], [ -3.0384172, 37.2125517 ], [ -3.0364792, 37.2137872 ], [ -3.0340228, 37.2150589 ], [ -3.0332341, 37.215618 ], [ -3.0319609, 37.2166279 ], [ -3.0314088, 37.2171599 ], [ -3.0304849, 37.2179173 ], [ -3.0293016, 37.2187198 ], [ -3.0285917, 37.2191436 ], [ -3.0281184, 37.2195944 ], [ -3.0267776, 37.2210731 ], [ -3.0255945, 37.2222542 ], [ -3.0239605, 37.2240212 ], [ -3.0236112, 37.224463 ], [ -3.0217855, 37.2259326 ], [ -3.0209515, 37.2268251 ], [ -3.0190693, 37.2281685 ], [ -3.017638, 37.2297282 ], [ -3.0166799, 37.2302511 ], [ -3.0154289, 37.2317926 ], [ -3.0145385, 37.2329826 ], [ -3.0120249, 37.2359034 ], [ -3.0120362, 37.2362639 ], [ -3.0119235, 37.2365975 ], [ -3.0100973, 37.2386709 ], [ -3.0105711, 37.2402573 ], [ -3.0106388, 37.2405097 ], [ -3.010154, 37.2407351 ], [ -3.0088236, 37.2411589 ], [ -3.0080456, 37.24124 ], [ -3.0071775, 37.24124 ], [ -3.0063882, 37.2411409 ], [ -3.0046633, 37.2423308 ], [ -2.9934551, 37.2500736 ], [ -2.9926319, 37.2505513 ], [ -2.9895752, 37.2562479 ], [ -2.9869581, 37.2607456 ], [ -2.9857737, 37.2618362 ], [ -2.9845215, 37.2631069 ], [ -2.9836076, 37.2648285 ], [ -2.9828291, 37.2661444 ], [ -2.9815203, 37.2677848 ], [ -2.9812609, 37.2681813 ], [ -2.9810915, 37.2687131 ], [ -2.9813508, 37.2688935 ], [ -2.9807977, 37.2708855 ], [ -2.9805832, 37.2713181 ], [ -2.9804365, 37.2717868 ], [ -2.98038, 37.2720301 ], [ -2.9801544, 37.2723275 ], [ -2.9796015, 37.2725709 ], [ -2.9802327, 37.2742115 ], [ -2.9802328, 37.2742115 ], [ -2.9817104, 37.2743019 ], [ -2.9835716, 37.2739777 ], [ -2.9839987, 37.2740387 ], [ -2.9842032, 37.2740679 ], [ -2.9842033, 37.2740679 ], [ -2.9842709, 37.2740499 ], [ -2.9853764, 37.2737706 ], [ -2.9890534, 37.2745192 ], [ -2.9890535, 37.2745192 ], [ -2.9900552, 37.2744809 ] ] ] } }
]
}
