{
"type": "FeatureCollection",
"name": "18146",
"features": [
{ "type": "Feature", "properties": { "CCAA": "01 - Andalucía", "PROVINCIA": "18 - Granada", "MUNICIPIO": "18146 - Orce", "COD_MUNICIPIO": "18146", "DISTRITO": "01", "SECCION": "1814601001", "V1_H": 79.16, "V1_M": 85.0, "V2_H": 79.432337, "V2_M": 85.16926182, "V3_H": 78.95181978, "V3_M": 84.90024095 }, "geometry": { "type": "Polygon", "coordinates": [ [ [ -2.301797, 37.8102285 ], [ -2.3079476, 37.8145911 ], [ -2.3117124, 37.816578 ], [ -2.3138302, 37.8173114 ], [ -2.3150975, 37.8178776 ], [ -2.3167256, 37.8187433 ], [ -2.3203976, 37.8209908 ], [ -2.3259322, 37.8242088 ], [ -2.326693, 37.8246503 ], [ -2.3263819, 37.8276318 ], [ -2.326382, 37.8276318 ], [ -2.3305752, 37.8276017 ], [ -2.3375736, 37.8226481 ], [ -2.3390602, 37.8202861 ], [ -2.3432627, 37.8178761 ], [ -2.3432628, 37.8178762 ], [ -2.3460037, 37.8188378 ], [ -2.3497502, 37.8178672 ], [ -2.3542479, 37.8157514 ], [ -2.3543135, 37.8157202 ], [ -2.356314, 37.8143071 ], [ -2.3602376, 37.8072353 ], [ -2.3632765, 37.8052238 ], [ -2.3667028, 37.8017273 ], [ -2.3707979, 37.7996944 ], [ -2.38008, 37.7953633 ], [ -2.3806612, 37.795132 ], [ -2.3862471, 37.7940347 ], [ -2.3876573, 37.7938077 ], [ -2.3904543, 37.7892977 ], [ -2.3946915, 37.7895924 ], [ -2.395494, 37.7896482 ], [ -2.3954941, 37.7896482 ], [ -2.3971636, 37.7896387 ], [ -2.3982755, 37.7896812 ], [ -2.398526, 37.7896908 ], [ -2.4004879, 37.7900523 ], [ -2.4056466, 37.7911601 ], [ -2.4056468, 37.7911601 ], [ -2.4082796, 37.7914077 ], [ -2.4113203, 37.7913443 ], [ -2.4149021, 37.7912695 ], [ -2.4193314, 37.7912825 ], [ -2.4193315, 37.7912825 ], [ -2.4215684, 37.7913386 ], [ -2.4221244, 37.7914044 ], [ -2.4250341, 37.7919657 ], [ -2.4290763, 37.7927452 ], [ -2.4313743, 37.7932477 ], [ -2.4326594, 37.7935287 ], [ -2.4326595, 37.7935287 ], [ -2.4380486, 37.7942937 ], [ -2.4380487, 37.7942937 ], [ -2.4388317, 37.7943605 ], [ -2.4388318, 37.7943605 ], [ -2.4442909, 37.793386 ], [ -2.444291, 37.793386 ], [ -2.4477591, 37.7928525 ], [ -2.4588557, 37.7897134 ], [ -2.4593226, 37.7895444 ], [ -2.4604742, 37.7889007 ], [ -2.461298, 37.7885556 ], [ -2.4632197, 37.7877506 ], [ -2.4651233, 37.7867858 ], [ -2.4657154, 37.7865542 ], [ -2.4657155, 37.7865542 ], [ -2.4658599, 37.7865204 ], [ -2.4690031, 37.7857849 ], [ -2.4704129, 37.7855569 ], [ -2.4728326, 37.7854596 ], [ -2.4734122, 37.7853901 ], [ -2.4739925, 37.7852305 ], [ -2.4745169, 37.7849624 ], [ -2.4749961, 37.7846401 ], [ -2.4756821, 37.7839852 ], [ -2.4765778, 37.7825831 ], [ -2.47978, 37.7793706 ], [ -2.4818599, 37.777469 ], [ -2.4834934, 37.7760792 ], [ -2.4858017, 37.7739712 ], [ -2.4866466, 37.7732899 ], [ -2.4877866, 37.7726369 ], [ -2.4885367, 37.772523 ], [ -2.4885368, 37.772523 ], [ -2.4902639, 37.7723502 ], [ -2.4906622, 37.7722257 ], [ -2.4911869, 37.7718675 ], [ -2.4934623, 37.7695429 ], [ -2.4972546, 37.7661792 ], [ -2.497654, 37.7658745 ], [ -2.5004838, 37.7654629 ], [ -2.5019029, 37.7654599 ], [ -2.501903, 37.7654599 ], [ -2.5028911, 37.765392 ], [ -2.5028912, 37.765392 ], [ -2.5034485, 37.7652591 ], [ -2.5049389, 37.7647787 ], [ -2.5053951, 37.7644562 ], [ -2.5053951, 37.7644562 ], [ -2.5047777, 37.7633989 ], [ -2.5033776, 37.7605449 ], [ -2.5012422, 37.7573092 ], [ -2.5022196, 37.7554296 ], [ -2.5038476, 37.75303 ], [ -2.5041834, 37.7520399 ], [ -2.5046911, 37.7507982 ], [ -2.5049182, 37.7500421 ], [ -2.5051554, 37.7492499 ], [ -2.5053781, 37.7481873 ], [ -2.5056549, 37.7475395 ], [ -2.5065149, 37.7462272 ], [ -2.5069974, 37.7453369 ], [ -2.5078234, 37.7440245 ], [ -2.5079619, 37.7436645 ], [ -2.5077161, 37.7430686 ], [ -2.5076517, 37.7425185 ], [ -2.5077801, 37.7419783 ], [ -2.5095173, 37.7401559 ], [ -2.5099959, 37.7398604 ], [ -2.5107235, 37.7396831 ], [ -2.5124393, 37.7393838 ], [ -2.5132944, 37.7387744 ], [ -2.5142517, 37.7381746 ], [ -2.5151081, 37.7373669 ], [ -2.5160587, 37.7360368 ], [ -2.5164146, 37.7354074 ], [ -2.5167573, 37.7350663 ], [ -2.5186024, 37.7338367 ], [ -2.5195156, 37.7332299 ], [ -2.5204243, 37.7330983 ], [ -2.5207595, 37.7323696 ], [ -2.5208962, 37.7320728 ], [ -2.5211026, 37.7317401 ], [ -2.5213494, 37.7304072 ], [ -2.521524, 37.7297318 ], [ -2.5212689, 37.7288205 ], [ -2.5212396, 37.7280723 ], [ -2.5214481, 37.7274152 ], [ -2.5214841, 37.7270998 ], [ -2.5214304, 37.7266219 ], [ -2.5211978, 37.7257377 ], [ -2.5211683, 37.7250345 ], [ -2.5212627, 37.7244761 ], [ -2.5214367, 37.7238819 ], [ -2.5212127, 37.7234123 ], [ -2.5208966, 37.7231587 ], [ -2.5206372, 37.7229233 ], [ -2.5205303, 37.7218953 ], [ -2.5193441, 37.7210793 ], [ -2.5187517, 37.7196888 ], [ -2.5182853, 37.7181006 ], [ -2.5173034, 37.7155459 ], [ -2.5167207, 37.7144169 ], [ -2.5156821, 37.7118799 ], [ -2.5153704, 37.7109502 ], [ -2.5151723, 37.710003 ], [ -2.5144682, 37.7083687 ], [ -2.5136539, 37.7062382 ], [ -2.5132941, 37.70575 ], [ -2.5130711, 37.7051453 ], [ -2.5129625, 37.7044057 ], [ -2.5124856, 37.7039283 ], [ -2.5120947, 37.7035369 ], [ -2.5118191, 37.7023099 ], [ -2.5115048, 37.7017948 ], [ -2.5114501, 37.7014882 ], [ -2.5115899, 37.7009209 ], [ -2.5109588, 37.7002964 ], [ -2.5103402, 37.6994827 ], [ -2.5091542, 37.6969811 ], [ -2.5085756, 37.6952841 ], [ -2.5076814, 37.6932704 ], [ -2.5070808, 37.6914653 ], [ -2.506727, 37.6900668 ], [ -2.5066184, 37.6893453 ], [ -2.5066105, 37.6888224 ], [ -2.5059696, 37.6879725 ], [ -2.5056, 37.687277 ], [ -2.5050028, 37.6849671 ], [ -2.5043011, 37.6830353 ], [ -2.503849, 37.6810955 ], [ -2.5036377, 37.6804727 ], [ -2.5031672, 37.6795965 ], [ -2.5026818, 37.6775484 ], [ -2.5020113, 37.6760764 ], [ -2.5015774, 37.6748127 ], [ -2.5013123, 37.673757 ], [ -2.5012047, 37.6728913 ], [ -2.5014012, 37.6706298 ], [ -2.5017601, 37.6695317 ], [ -2.5021637, 37.6685059 ], [ -2.5026446, 37.6677959 ], [ -2.5029317, 37.6672653 ], [ -2.5030826, 37.6667251 ], [ -2.5026691, 37.665831 ], [ -2.5025141, 37.6652536 ], [ -2.50238, 37.6649646 ], [ -2.5019965, 37.6646746 ], [ -2.4998375, 37.663683 ], [ -2.4995669, 37.6634475 ], [ -2.4989944, 37.6625978 ], [ -2.4985895, 37.6621094 ], [ -2.4987502, 37.6618216 ], [ -2.4993095, 37.6612561 ], [ -2.4999359, 37.6608352 ], [ -2.5005635, 37.6602339 ], [ -2.5017747, 37.658824 ], [ -2.502431, 37.659016 ], [ -2.5033921, 37.6594077 ], [ -2.5036984, 37.6593729 ], [ -2.5037463, 37.6589946 ], [ -2.5037151, 37.6585708 ], [ -2.5038197, 37.6581836 ], [ -2.5040368, 37.6579232 ], [ -2.5041631, 37.6576804 ], [ -2.5041312, 37.6573738 ], [ -2.5034211, 37.6567579 ], [ -2.5027881, 37.6564668 ], [ -2.502506, 37.6562673 ], [ -2.5024062, 37.6559244 ], [ -2.5025672, 37.6555826 ], [ -2.5028417, 37.6552232 ], [ -2.5031032, 37.6551071 ], [ -2.5037156, 37.6550826 ], [ -2.5043842, 37.6551125 ], [ -2.5061195, 37.6550026 ], [ -2.5066408, 37.6550318 ], [ -2.5069917, 37.6551144 ], [ -2.5069918, 37.6551144 ], [ -2.5069917, 37.6551143 ], [ -2.5060702, 37.6538938 ], [ -2.505596, 37.6536034 ], [ -2.5041375, 37.6530204 ], [ -2.5035276, 37.6526663 ], [ -2.5030091, 37.6522225 ], [ -2.5024893, 37.6519769 ], [ -2.5016876, 37.6514959 ], [ -2.4988569, 37.6493027 ], [ -2.4988568, 37.6493026 ], [ -2.4980892, 37.6488397 ], [ -2.4980891, 37.6488397 ], [ -2.497656, 37.6486894 ], [ -2.4970374, 37.6484747 ], [ -2.4940846, 37.6476238 ], [ -2.493372, 37.6472843 ], [ -2.4932257, 37.6472145 ], [ -2.4924969, 37.6469946 ], [ -2.4915289, 37.6467025 ], [ -2.4915288, 37.6467025 ], [ -2.4915288, 37.6467025 ], [ -2.4908238, 37.6467818 ], [ -2.4891353, 37.6469715 ], [ -2.4872669, 37.646684 ], [ -2.4860341, 37.6462911 ], [ -2.4860339, 37.6462911 ], [ -2.4844291, 37.6456171 ], [ -2.4831903, 37.6446941 ], [ -2.4831903, 37.6446942 ], [ -2.4830418, 37.6445835 ], [ -2.4823084, 37.6441116 ], [ -2.4823083, 37.6441116 ], [ -2.481619, 37.6438021 ], [ -2.4811545, 37.6437911 ], [ -2.4811543, 37.6437911 ], [ -2.4795429, 37.6440634 ], [ -2.4795429, 37.6440634 ], [ -2.4790222, 37.643953 ], [ -2.4777556, 37.6435418 ], [ -2.4773191, 37.6435841 ], [ -2.4772226, 37.6435934 ], [ -2.4772225, 37.6435935 ], [ -2.4767795, 37.6437356 ], [ -2.4767794, 37.6437357 ], [ -2.4763497, 37.6435896 ], [ -2.4756719, 37.6432621 ], [ -2.4751538, 37.6427911 ], [ -2.4748853, 37.6422851 ], [ -2.474581, 37.6420404 ], [ -2.4734257, 37.6419091 ], [ -2.4718426, 37.6413883 ], [ -2.4717141, 37.6413786 ], [ -2.470823, 37.6413115 ], [ -2.4704498, 37.6411837 ], [ -2.4691214, 37.6398979 ], [ -2.4686593, 37.6395352 ], [ -2.4669964, 37.6390861 ], [ -2.4667032, 37.6388955 ], [ -2.4667031, 37.6388955 ], [ -2.4662875, 37.6383708 ], [ -2.4657455, 37.6380619 ], [ -2.4651259, 37.6378606 ], [ -2.4645357, 37.6376688 ], [ -2.4634358, 37.637745 ], [ -2.4634357, 37.637745 ], [ -2.4624192, 37.6372356 ], [ -2.4618752, 37.6372511 ], [ -2.461875, 37.6372511 ], [ -2.4608881, 37.6373818 ], [ -2.4608881, 37.6373818 ], [ -2.4602992, 37.6373431 ], [ -2.460299, 37.6373431 ], [ -2.4571856, 37.6368691 ], [ -2.4551377, 37.636409 ], [ -2.4551375, 37.636409 ], [ -2.4527508, 37.635767 ], [ -2.4513355, 37.6355892 ], [ -2.4513354, 37.6355892 ], [ -2.4508758, 37.6355578 ], [ -2.4504859, 37.6355312 ], [ -2.4504858, 37.6355311 ], [ -2.4499095, 37.6352941 ], [ -2.4489706, 37.6350554 ], [ -2.4487566, 37.6350356 ], [ -2.4476341, 37.6349319 ], [ -2.4449146, 37.6348561 ], [ -2.4439513, 37.6348696 ], [ -2.4439511, 37.6348696 ], [ -2.4432105, 37.6354069 ], [ -2.4426766, 37.6355576 ], [ -2.4415204, 37.6355791 ], [ -2.4407816, 37.6358641 ], [ -2.4402822, 37.6359609 ], [ -2.4402822, 37.6359609 ], [ -2.4397953, 37.6359225 ], [ -2.4397952, 37.6359225 ], [ -2.4393313, 37.6358121 ], [ -2.436789, 37.6347725 ], [ -2.4347503, 37.6346006 ], [ -2.4341966, 37.6343816 ], [ -2.4330094, 37.6340153 ], [ -2.4323186, 37.6339489 ], [ -2.4323185, 37.6339489 ], [ -2.4317511, 37.6340363 ], [ -2.4310924, 37.6342224 ], [ -2.4305809, 37.6344272 ], [ -2.4305808, 37.6344272 ], [ -2.4296555, 37.6339 ], [ -2.4276793, 37.632962 ], [ -2.4271507, 37.6324367 ], [ -2.4265444, 37.6316947 ], [ -2.4260598, 37.6313408 ], [ -2.424805, 37.6309471 ], [ -2.4248049, 37.6309471 ], [ -2.423178, 37.6317503 ], [ -2.4226556, 37.6318919 ], [ -2.4223726, 37.6318545 ], [ -2.4223725, 37.6318545 ], [ -2.4218755, 37.6316448 ], [ -2.421016, 37.6314153 ], [ -2.4180382, 37.6310491 ], [ -2.4171217, 37.6308553 ], [ -2.4162623, 37.6306167 ], [ -2.4148587, 37.6304024 ], [ -2.4138025, 37.6300353 ], [ -2.4131747, 37.6298171 ], [ -2.4127769, 37.6296369 ], [ -2.4118874, 37.6292339 ], [ -2.4110634, 37.6288062 ], [ -2.4110634, 37.6288062 ], [ -2.4076932, 37.6293571 ], [ -2.407124, 37.6296968 ], [ -2.4066899, 37.6301272 ], [ -2.4064143, 37.6305765 ], [ -2.4057328, 37.6322045 ], [ -2.4049047, 37.6337235 ], [ -2.4043767, 37.6345501 ], [ -2.4037278, 37.6349164 ], [ -2.4027788, 37.6359571 ], [ -2.4003255, 37.6352033 ], [ -2.3926377, 37.6328408 ], [ -2.3912695, 37.6324822 ], [ -2.3912693, 37.6324822 ], [ -2.3908758, 37.6323231 ], [ -2.3907497, 37.6322722 ], [ -2.3875956, 37.6313365 ], [ -2.3875955, 37.6313365 ], [ -2.3865201, 37.6311957 ], [ -2.3865199, 37.6311957 ], [ -2.3847661, 37.6308531 ], [ -2.3834655, 37.6305308 ], [ -2.3825839, 37.6302468 ], [ -2.3815674, 37.6298269 ], [ -2.3807965, 37.6298679 ], [ -2.3807964, 37.6298679 ], [ -2.3799906, 37.6300168 ], [ -2.379161, 37.6302919 ], [ -2.379161, 37.6302919 ], [ -2.3775533, 37.6301122 ], [ -2.3775532, 37.6301122 ], [ -2.376957, 37.6300045 ], [ -2.3758558, 37.6298057 ], [ -2.3738776, 37.6292094 ], [ -2.3736523, 37.629046 ], [ -2.3726579, 37.6273462 ], [ -2.3689814, 37.6252355 ], [ -2.3678103, 37.6243549 ], [ -2.3660964, 37.6233453 ], [ -2.3650597, 37.6226637 ], [ -2.364386, 37.62193 ], [ -2.3637667, 37.621467 ], [ -2.3627338, 37.6216687 ], [ -2.3619856, 37.6217187 ], [ -2.3619855, 37.6217187 ], [ -2.3618026, 37.6217004 ], [ -2.3612269, 37.6216425 ], [ -2.360229, 37.6214153 ], [ -2.3595646, 37.621264 ], [ -2.3595645, 37.621264 ], [ -2.3594249, 37.6216869 ], [ -2.358869, 37.6230808 ], [ -2.3582616, 37.6238707 ], [ -2.3574049, 37.6246682 ], [ -2.3564697, 37.6253662 ], [ -2.354604, 37.6261942 ], [ -2.3542424, 37.6263229 ], [ -2.3535469, 37.6265669 ], [ -2.3520373, 37.626838 ], [ -2.3508463, 37.6269667 ], [ -2.3500292, 37.6271064 ], [ -2.3495056, 37.6272728 ], [ -2.3491088, 37.6273988 ], [ -2.3489968, 37.6274496 ], [ -2.3484602, 37.6276926 ], [ -2.3472985, 37.6283532 ], [ -2.3454325, 37.629217 ], [ -2.3454325, 37.6292171 ], [ -2.3441586, 37.627155 ], [ -2.3436435, 37.6264491 ], [ -2.3424073, 37.6252705 ], [ -2.3420608, 37.6247278 ], [ -2.3417519, 37.6237797 ], [ -2.3404292, 37.6234208 ], [ -2.3392416, 37.6231798 ], [ -2.3392415, 37.6231797 ], [ -2.337736, 37.6230091 ], [ -2.3377359, 37.6230091 ], [ -2.3375522, 37.6230038 ], [ -2.3365803, 37.6229755 ], [ -2.3304832, 37.6230582 ], [ -2.3304831, 37.6230582 ], [ -2.3297022, 37.6229457 ], [ -2.3288983, 37.622887 ], [ -2.3288982, 37.622887 ], [ -2.3276511, 37.62297 ], [ -2.327651, 37.62297 ], [ -2.3265413, 37.6228826 ], [ -2.3265412, 37.6228826 ], [ -2.3254529, 37.6229304 ], [ -2.3244368, 37.6229157 ], [ -2.324422, 37.6229155 ], [ -2.3244219, 37.6229155 ], [ -2.3234598, 37.6227928 ], [ -2.3226922, 37.622464 ], [ -2.320644, 37.6221457 ], [ -2.3196159, 37.6218063 ], [ -2.3188799, 37.621766 ], [ -2.3188798, 37.621766 ], [ -2.3167035, 37.6218345 ], [ -2.3158164, 37.6221899 ], [ -2.3150657, 37.6237268 ], [ -2.31402, 37.625307 ], [ -2.3140362, 37.6260102 ], [ -2.3132633, 37.626267 ], [ -2.3126571, 37.6281022 ], [ -2.3115475, 37.6292404 ], [ -2.3107953, 37.6296957 ], [ -2.3104184, 37.6300089 ], [ -2.3102793, 37.6303506 ], [ -2.3102324, 37.6317474 ], [ -2.3089362, 37.6334252 ], [ -2.3087388, 37.6351637 ], [ -2.3088584, 37.6357142 ], [ -2.3088585, 37.6357142 ], [ -2.3092552, 37.6357075 ], [ -2.3104886, 37.6371478 ], [ -2.3133592, 37.6392736 ], [ -2.3154703, 37.641431 ], [ -2.3154317, 37.6419266 ], [ -2.315549, 37.6427294 ], [ -2.3159355, 37.6438493 ], [ -2.3165488, 37.6449525 ], [ -2.3176962, 37.6459235 ], [ -2.3199548, 37.6480907 ], [ -2.3197328, 37.6488195 ], [ -2.3194557, 37.6506205 ], [ -2.3195048, 37.65145 ], [ -2.319677, 37.6524515 ], [ -2.3196351, 37.6533165 ], [ -2.3197721, 37.654462 ], [ -2.3196496, 37.6554617 ], [ -2.3193824, 37.6586599 ], [ -2.3195096, 37.659625 ], [ -2.321129, 37.6598326 ], [ -2.3216634, 37.6609082 ], [ -2.3220719, 37.6621184 ], [ -2.3230688, 37.6647109 ], [ -2.323459, 37.6654432 ], [ -2.3234591, 37.6654433 ], [ -2.3239109, 37.6667257 ], [ -2.3239454, 37.666825 ], [ -2.3250013, 37.6691744 ], [ -2.3254747, 37.6707455 ], [ -2.3257921, 37.6720092 ], [ -2.3259634, 37.6731368 ], [ -2.3259384, 37.6746508 ], [ -2.3260306, 37.6757329 ], [ -2.3256607, 37.6815443 ], [ -2.3253651, 37.6841294 ], [ -2.3248393, 37.6871007 ], [ -2.3233375, 37.6938699 ], [ -2.3230677, 37.6948598 ], [ -2.322617, 37.6957766 ], [ -2.3221068, 37.6969994 ], [ -2.3210816, 37.698715 ], [ -2.3203704, 37.6995852 ], [ -2.3196679, 37.7007438 ], [ -2.3190785, 37.7019391 ], [ -2.3184631, 37.7034858 ], [ -2.3179309, 37.7046274 ], [ -2.3158017, 37.7079589 ], [ -2.3132744, 37.7113692 ], [ -2.3107359, 37.7110659 ], [ -2.3077799, 37.7105168 ], [ -2.3065915, 37.7102124 ], [ -2.3068151, 37.711782 ], [ -2.3074061, 37.7141288 ], [ -2.3079493, 37.7167098 ], [ -2.3078674, 37.7169887 ], [ -2.3073706, 37.7179501 ], [ -2.3070282, 37.7181645 ], [ -2.3063332, 37.7184668 ], [ -2.3050223, 37.7191351 ], [ -2.3067875, 37.7196502 ], [ -2.3075329, 37.7200151 ], [ -2.3080728, 37.720523 ], [ -2.307514, 37.7232687 ], [ -2.2968915, 37.7414932 ], [ -2.2977017, 37.7422371 ], [ -2.2975152, 37.7427587 ], [ -2.297197, 37.7440006 ], [ -2.2969222, 37.7442513 ], [ -2.2962271, 37.7445537 ], [ -2.29536, 37.7450171 ], [ -2.2947993, 37.7455004 ], [ -2.2942713, 37.7461192 ], [ -2.2941526, 37.7466683 ], [ -2.2947173, 37.7481679 ], [ -2.2934589, 37.7491968 ], [ -2.292613, 37.7498226 ], [ -2.2922711, 37.7499737 ], [ -2.2916121, 37.7500419 ], [ -2.2906787, 37.7503067 ], [ -2.289708, 37.7509227 ], [ -2.289123, 37.7515591 ], [ -2.2887433, 37.7520886 ], [ -2.2882925, 37.7517614 ], [ -2.2877385, 37.7515237 ], [ -2.2870699, 37.7514025 ], [ -2.2867883, 37.7523652 ], [ -2.2858812, 37.7546219 ], [ -2.2767808, 37.7762155 ], [ -2.276984, 37.7765592 ], [ -2.2771185, 37.7767403 ], [ -2.2772755, 37.7769396 ], [ -2.2790563, 37.7794921 ], [ -2.2800106, 37.7806156 ], [ -2.2809438, 37.7815857 ], [ -2.2841434, 37.784228 ], [ -2.2843507, 37.7845177 ], [ -2.2849838, 37.7854048 ], [ -2.2854892, 37.7859937 ], [ -2.286492, 37.786829 ], [ -2.2871233, 37.7873105 ], [ -2.2876834, 37.7876744 ], [ -2.2879452, 37.787845 ], [ -2.2894823, 37.788688 ], [ -2.2895621, 37.7887313 ], [ -2.2903676, 37.7888894 ], [ -2.2912733, 37.7891923 ], [ -2.2915617, 37.7896244 ], [ -2.2931882, 37.7920609 ], [ -2.2944118, 37.7938663 ], [ -2.2960568, 37.7973598 ], [ -2.2962739, 37.7976788 ], [ -2.2995151, 37.8024435 ], [ -2.3002245, 37.8034864 ], [ -2.3004956, 37.8043262 ], [ -2.3017697, 37.8082815 ], [ -2.3017718, 37.8084438 ], [ -2.3017794, 37.8089936 ], [ -2.3017969, 37.8102284 ], [ -2.301797, 37.8102285 ] ] ] } }
]
}
