{
"type": "FeatureCollection",
"name": "18164",
"features": [
{ "type": "Feature", "properties": { "CCAA": "01 - Andalucía", "PROVINCIA": "18 - Granada", "MUNICIPIO": "18164 - Puebla de Don Fadrique", "COD_MUNICIPIO": "18164", "DISTRITO": "01", "SECCION": "1816401001", "V1_H": 79.19, "V1_M": 85.12, "V2_H": 79.38537767, "V2_M": 85.11224236, "V3_H": 79.115857, "V3_M": 85.3484756 }, "geometry": { "type": "Polygon", "coordinates": [ [ [ -2.2076646, 37.9165693 ], [ -2.2091396, 37.9169397 ], [ -2.2136706, 37.9187908 ], [ -2.2157903, 37.919535 ], [ -2.220071, 37.9214112 ], [ -2.221699, 37.9223954 ], [ -2.2218788, 37.9226129 ], [ -2.2220741, 37.9235155 ], [ -2.2223544, 37.9239049 ], [ -2.2228299, 37.9241334 ], [ -2.2248538, 37.9242639 ], [ -2.2255034, 37.92416 ], [ -2.2266243, 37.9235996 ], [ -2.2277048, 37.9236428 ], [ -2.2280637, 37.9241319 ], [ -2.2284541, 37.9248825 ], [ -2.2288357, 37.9253897 ], [ -2.2295563, 37.9261155 ], [ -2.2312588, 37.9265232 ], [ -2.2361381, 37.9278169 ], [ -2.2379061, 37.9284953 ], [ -2.2382104, 37.9287857 ], [ -2.23903, 37.9298546 ], [ -2.2399452, 37.9304824 ], [ -2.2403947, 37.9310351 ], [ -2.241059, 37.9317244 ], [ -2.2415471, 37.9318447 ], [ -2.2430479, 37.9319625 ], [ -2.2442308, 37.9331238 ], [ -2.2457837, 37.9337106 ], [ -2.246554, 37.9340581 ], [ -2.2471533, 37.9344314 ], [ -2.247529, 37.9355334 ], [ -2.2492672, 37.9369325 ], [ -2.2521047, 37.9387983 ], [ -2.253417, 37.9395637 ], [ -2.2557899, 37.944635 ], [ -2.258821, 37.9499268 ], [ -2.2611227, 37.9508155 ], [ -2.2656033, 37.9523488 ], [ -2.266804, 37.9529331 ], [ -2.2675729, 37.9534517 ], [ -2.2710719, 37.9564387 ], [ -2.2742181, 37.9594505 ], [ -2.2755705, 37.9596842 ], [ -2.2768531, 37.9600526 ], [ -2.2778119, 37.9609508 ], [ -2.2788824, 37.962075 ], [ -2.2800789, 37.9631188 ], [ -2.2810564, 37.9644407 ], [ -2.2829303, 37.9672462 ], [ -2.283814, 37.9688559 ], [ -2.2876137, 37.9738721 ], [ -2.2928389, 37.9822677 ], [ -2.2949395, 37.9852726 ], [ -2.2964747, 37.98786 ], [ -2.2977964, 37.9876602 ], [ -2.2989769, 37.9875088 ], [ -2.3016167, 37.9871327 ], [ -2.3026415, 37.9869803 ], [ -2.3035995, 37.9868364 ], [ -2.3056711, 37.9865449 ], [ -2.3064953, 37.9864354 ], [ -2.3069298, 37.9863587 ], [ -2.3099037, 37.9859316 ], [ -2.310583, 37.9858476 ], [ -2.3115855, 37.985695 ], [ -2.3140358, 37.9853528 ], [ -2.3144702, 37.9852849 ], [ -2.3155395, 37.9851327 ], [ -2.3184353, 37.9847226 ], [ -2.3194153, 37.9845962 ], [ -2.3207965, 37.9843841 ], [ -2.3221997, 37.9841941 ], [ -2.3229125, 37.9840926 ], [ -2.3237143, 37.9839827 ], [ -2.3243826, 37.9838898 ], [ -2.3256523, 37.9837034 ], [ -2.3265544, 37.9835765 ], [ -2.3264571, 37.9832678 ], [ -2.3263821, 37.9829636 ], [ -2.3263065, 37.9827079 ], [ -2.3261982, 37.9823904 ], [ -2.3260893, 37.9821344 ], [ -2.3259799, 37.9819313 ], [ -2.3257925, 37.9817454 ], [ -2.3255713, 37.981612 ], [ -2.3254167, 37.9814879 ], [ -2.3253296, 37.9812849 ], [ -2.3251763, 37.9810199 ], [ -2.3249898, 37.9807371 ], [ -2.3248575, 37.9806175 ], [ -2.3251028, 37.9805485 ], [ -2.325816, 37.9803941 ], [ -2.3264848, 37.9802395 ], [ -2.3275101, 37.9800165 ], [ -2.3286023, 37.9797762 ], [ -2.3292715, 37.9795688 ], [ -2.3304976, 37.9792764 ], [ -2.3311436, 37.9791745 ], [ -2.3314123, 37.9789823 ], [ -2.3317475, 37.9788082 ], [ -2.3318373, 37.9787206 ], [ -2.3322602, 37.9786878 ], [ -2.3327278, 37.9786377 ], [ -2.3331166, 37.9786883 ], [ -2.3332277, 37.9787021 ], [ -2.3335117, 37.9786553 ], [ -2.3338351, 37.9785691 ], [ -2.3341705, 37.9783664 ], [ -2.3344554, 37.9782315 ], [ -2.3346342, 37.9781401 ], [ -2.3347959, 37.9780838 ], [ -2.3350635, 37.978006 ], [ -2.3352194, 37.9779937 ], [ -2.3351699, 37.9779362 ], [ -2.3350375, 37.9778078 ], [ -2.3349328, 37.977706 ], [ -2.3347396, 37.9775018 ], [ -2.3349244, 37.9774022 ], [ -2.3350812, 37.9772798 ], [ -2.3352711, 37.9771929 ], [ -2.3354493, 37.9771631 ], [ -2.335677, 37.9771908 ], [ -2.3358608, 37.9771698 ], [ -2.3359431, 37.9772847 ], [ -2.3361138, 37.977475 ], [ -2.3362515, 37.9776276 ], [ -2.3363558, 37.977769 ], [ -2.3364267, 37.9779235 ], [ -2.3364919, 37.9780956 ], [ -2.336596, 37.9782634 ], [ -2.3366283, 37.9783869 ], [ -2.3367059, 37.9784137 ], [ -2.3367178, 37.9783345 ], [ -2.3367697, 37.978128 ], [ -2.3368377, 37.9779919 ], [ -2.3369271, 37.9779352 ], [ -2.3370829, 37.9779316 ], [ -2.3371764, 37.9780378 ], [ -2.3372698, 37.978166 ], [ -2.3374353, 37.978321 ], [ -2.3377006, 37.9784985 ], [ -2.3378831, 37.9786185 ], [ -2.3380823, 37.9787208 ], [ -2.3382825, 37.9787198 ], [ -2.3385496, 37.9786992 ], [ -2.3388613, 37.9786658 ], [ -2.3391731, 37.9786323 ], [ -2.3394729, 37.9786824 ], [ -2.3396496, 37.9788243 ], [ -2.3398097, 37.9789616 ], [ -2.3400751, 37.9791216 ], [ -2.3404024, 37.9792203 ], [ -2.3407072, 37.9793364 ], [ -2.3408004, 37.9794822 ], [ -2.3407552, 37.9795656 ], [ -2.3404933, 37.9796169 ], [ -2.340348, 37.9796998 ], [ -2.340247, 37.9798004 ], [ -2.3401841, 37.9799982 ], [ -2.3401884, 37.9801325 ], [ -2.3402201, 37.9803219 ], [ -2.3403501, 37.98071 ], [ -2.3404966, 37.9811158 ], [ -2.3405779, 37.9813539 ], [ -2.340688, 37.9814756 ], [ -2.3408701, 37.9816439 ], [ -2.3411076, 37.9818257 ], [ -2.3412623, 37.9819366 ], [ -2.3411556, 37.9820505 ], [ -2.3410545, 37.98216 ], [ -2.3408296, 37.9824448 ], [ -2.3406951, 37.9825585 ], [ -2.3409441, 37.9826986 ], [ -2.3417027, 37.9830638 ], [ -2.3421236, 37.9832598 ], [ -2.3425281, 37.9834338 ], [ -2.3428662, 37.9835633 ], [ -2.343348, 37.9837839 ], [ -2.3436803, 37.9839486 ], [ -2.3443911, 37.9840671 ], [ -2.3469701, 37.9842355 ], [ -2.3482149, 37.9843481 ], [ -2.3488487, 37.9843604 ], [ -2.3492493, 37.9843538 ], [ -2.3496837, 37.984277 ], [ -2.3502191, 37.9841127 ], [ -2.350688, 37.9839128 ], [ -2.351235, 37.9836913 ], [ -2.3517041, 37.983465 ], [ -2.3521517, 37.9831594 ], [ -2.352376, 37.9829493 ], [ -2.3525781, 37.9827303 ], [ -2.3527685, 37.9825817 ], [ -2.3530029, 37.982495 ], [ -2.353226, 37.9824169 ], [ -2.3536829, 37.9823226 ], [ -2.3541728, 37.9822637 ], [ -2.3544405, 37.9821771 ], [ -2.3549313, 37.9820126 ], [ -2.3555447, 37.9818178 ], [ -2.3559685, 37.9816881 ], [ -2.3564252, 37.9816114 ], [ -2.356837, 37.9815872 ], [ -2.3571814, 37.9816331 ], [ -2.357547, 37.9818024 ], [ -2.3579456, 37.9820071 ], [ -2.3582896, 37.9820882 ], [ -2.3585894, 37.9821514 ], [ -2.3588345, 37.9821088 ], [ -2.3591921, 37.981917 ], [ -2.3598976, 37.9813707 ], [ -2.360894, 37.9806102 ], [ -2.3612632, 37.9803656 ], [ -2.3624149, 37.9796588 ], [ -2.3641916, 37.9786957 ], [ -2.3647171, 37.9783816 ], [ -2.3656782, 37.9778409 ], [ -2.366807, 37.9772043 ], [ -2.3684608, 37.9762933 ], [ -2.3696568, 37.9755954 ], [ -2.3704499, 37.9751947 ], [ -2.3709539, 37.9747836 ], [ -2.3713687, 37.9743896 ], [ -2.3716275, 37.9740389 ], [ -2.3718641, 37.9736792 ], [ -2.37211, 37.9735309 ], [ -2.3722772, 37.9734965 ], [ -2.372488, 37.9735461 ], [ -2.3727537, 37.9736884 ], [ -2.3732185, 37.9739638 ], [ -2.3736283, 37.9741596 ], [ -2.3742613, 37.9742686 ], [ -2.3748499, 37.9743686 ], [ -2.3762829, 37.9745611 ], [ -2.3777716, 37.9747495 ], [ -2.3788938, 37.9748787 ], [ -2.3806713, 37.975117 ], [ -2.3830154, 37.9754155 ], [ -2.3867038, 37.9758882 ], [ -2.3877149, 37.9760079 ], [ -2.390248, 37.9763336 ], [ -2.3909588, 37.9764429 ], [ -2.3918256, 37.9765354 ], [ -2.3923483, 37.9765382 ], [ -2.3929494, 37.9764709 ], [ -2.3951662, 37.9760377 ], [ -2.3962794, 37.9759114 ], [ -2.3970034, 37.9757742 ], [ -2.3977839, 37.9755405 ], [ -2.3986988, 37.9751711 ], [ -2.3998817, 37.9746841 ], [ -2.4012986, 37.9741279 ], [ -2.4028046, 37.9735589 ], [ -2.4035962, 37.9733165 ], [ -2.404533, 37.9729867 ], [ -2.4059603, 37.9725185 ], [ -2.4073767, 37.9720282 ], [ -2.4086144, 37.9716207 ], [ -2.4100752, 37.9711262 ], [ -2.411023, 37.9708009 ], [ -2.4119819, 37.9704887 ], [ -2.4132978, 37.9700375 ], [ -2.415026, 37.9694695 ], [ -2.4167319, 37.9689057 ], [ -2.4182373, 37.968385 ], [ -2.419263, 37.9680599 ], [ -2.4200546, 37.9677909 ], [ -2.4209912, 37.9674698 ], [ -2.4225188, 37.9669447 ], [ -2.4242579, 37.9663898 ], [ -2.4263876, 37.9656607 ], [ -2.4285839, 37.9649297 ], [ -2.4290242, 37.964791 ], [ -2.4296374, 37.9645782 ], [ -2.4309363, 37.9641465 ], [ -2.4312205, 37.9640555 ], [ -2.431711, 37.9638994 ], [ -2.432391, 37.9636694 ], [ -2.4337065, 37.9632366 ], [ -2.4341329, 37.9630956 ], [ -2.4344954, 37.9629565 ], [ -2.4347824, 37.9628666 ], [ -2.4353343, 37.9626799 ], [ -2.4356409, 37.9625758 ], [ -2.4358499, 37.9625053 ], [ -2.4360534, 37.9624226 ], [ -2.4363015, 37.9623402 ], [ -2.4364048, 37.9622834 ], [ -2.4364859, 37.9622222 ], [ -2.436595, 37.9621215 ], [ -2.4367211, 37.9619988 ], [ -2.4367408, 37.9619615 ], [ -2.4366994, 37.9619239 ], [ -2.4367053, 37.9618799 ], [ -2.436786, 37.9618627 ], [ -2.4368835, 37.96184 ], [ -2.4370116, 37.9618142 ], [ -2.4371591, 37.9617951 ], [ -2.4372114, 37.9618636 ], [ -2.4372887, 37.96193 ], [ -2.4373827, 37.9620009 ], [ -2.4375156, 37.9620653 ], [ -2.4376017, 37.9620767 ], [ -2.437696, 37.9621014 ], [ -2.4377876, 37.9621327 ], [ -2.4378869, 37.9622278 ], [ -2.4380111, 37.9623472 ], [ -2.4381355, 37.9624315 ], [ -2.438241, 37.9624518 ], [ -2.4384717, 37.9624551 ], [ -2.4383834, 37.9623688 ], [ -2.4382812, 37.9622803 ], [ -2.4381376, 37.962163 ], [ -2.4380519, 37.9620921 ], [ -2.4379859, 37.9620104 ], [ -2.4379143, 37.9619187 ], [ -2.4379208, 37.9617889 ], [ -2.4379421, 37.9615535 ], [ -2.4379722, 37.96124 ], [ -2.4379849, 37.9610442 ], [ -2.4379943, 37.9608989 ], [ -2.4379978, 37.9608021 ], [ -2.4380095, 37.9607295 ], [ -2.4380045, 37.9606525 ], [ -2.4380137, 37.960537 ], [ -2.4380257, 37.9604226 ], [ -2.4380302, 37.9601915 ], [ -2.4380449, 37.9600969 ], [ -2.4380619, 37.9600486 ], [ -2.4380711, 37.9599331 ], [ -2.4381057, 37.9597814 ], [ -2.4381372, 37.9596539 ], [ -2.4381688, 37.959522 ], [ -2.4381978, 37.9593637 ], [ -2.4382011, 37.9592998 ], [ -2.4382043, 37.9592459 ], [ -2.4382494, 37.9591581 ], [ -2.4383061, 37.9590175 ], [ -2.4383797, 37.9588418 ], [ -2.4384588, 37.9586661 ], [ -2.4384988, 37.9585299 ], [ -2.4385556, 37.9583629 ], [ -2.4386618, 37.9583017 ], [ -2.4387513, 37.9582317 ], [ -2.4388464, 37.9581529 ], [ -2.4389632, 37.9581447 ], [ -2.4391467, 37.9581324 ], [ -2.4393247, 37.9581244 ], [ -2.4393251, 37.9580716 ], [ -2.4393315, 37.9579528 ], [ -2.4393045, 37.9578536 ], [ -2.4392499, 37.9577301 ], [ -2.4391954, 37.9575758 ], [ -2.439119, 37.9573861 ], [ -2.4390865, 37.9572803 ], [ -2.4390322, 37.9571084 ], [ -2.4389776, 37.9569805 ], [ -2.4389397, 37.9568438 ], [ -2.4389519, 37.9567074 ], [ -2.4389973, 37.9565756 ], [ -2.4389819, 37.9564149 ], [ -2.43892, 37.9557807 ], [ -2.4387692, 37.9551285 ], [ -2.4387071, 37.9545295 ], [ -2.4386242, 37.9537368 ], [ -2.43852, 37.9528207 ], [ -2.4385034, 37.9520811 ], [ -2.4385532, 37.951377 ], [ -2.438627, 37.9504442 ], [ -2.438745, 37.9495336 ], [ -2.4389762, 37.9483726 ], [ -2.4391845, 37.9472995 ], [ -2.439346, 37.9465256 ], [ -2.4395087, 37.9455931 ], [ -2.4396705, 37.944784 ], [ -2.4398563, 37.943746 ], [ -2.4400424, 37.9426552 ], [ -2.4403193, 37.9413184 ], [ -2.4409056, 37.9402295 ], [ -2.441711, 37.9395643 ], [ -2.4422916, 37.9392149 ], [ -2.4432741, 37.9386561 ], [ -2.4444309, 37.9385559 ], [ -2.4453202, 37.9385601 ], [ -2.4459866, 37.9386337 ], [ -2.4466972, 37.9387427 ], [ -2.4471865, 37.9387098 ], [ -2.4476312, 37.9387119 ], [ -2.4481655, 37.9386088 ], [ -2.4487451, 37.9384002 ], [ -2.4492353, 37.9382616 ], [ -2.4499477, 37.9381241 ], [ -2.450437, 37.9380912 ], [ -2.4512374, 37.9380949 ], [ -2.4521266, 37.938099 ], [ -2.452526, 37.9382066 ], [ -2.4529701, 37.9382791 ], [ -2.4539477, 37.938354 ], [ -2.4545707, 37.9382865 ], [ -2.4555518, 37.9379037 ], [ -2.4563089, 37.9377311 ], [ -2.4570249, 37.9371182 ], [ -2.4577871, 37.9362413 ], [ -2.4583279, 37.9352578 ], [ -2.4587335, 37.9345202 ], [ -2.4592284, 37.9337125 ], [ -2.4597658, 37.9331867 ], [ -2.4607483, 37.9325926 ], [ -2.4615508, 37.9322793 ], [ -2.4620442, 37.9316829 ], [ -2.4632993, 37.9302801 ], [ -2.4638371, 37.9296839 ], [ -2.4643742, 37.9291933 ], [ -2.4653088, 37.9290567 ], [ -2.4662852, 37.92929 ], [ -2.4675742, 37.9293311 ], [ -2.4706387, 37.9297675 ], [ -2.4725489, 37.9299874 ], [ -2.4739733, 37.9297473 ], [ -2.4755345, 37.9290147 ], [ -2.4770078, 37.9281409 ], [ -2.4782596, 37.9271605 ], [ -2.4789324, 37.9263183 ], [ -2.4794276, 37.9254401 ], [ -2.4796573, 37.9243847 ], [ -2.4797504, 37.9237864 ], [ -2.4800677, 37.9229075 ], [ -2.4807378, 37.9224526 ], [ -2.4816749, 37.9219285 ], [ -2.4826993, 37.9216513 ], [ -2.4837679, 37.9214095 ], [ -2.4850583, 37.9212391 ], [ -2.4864721, 37.9208931 ], [ -2.4869514, 37.9206839 ], [ -2.487341, 37.9205888 ], [ -2.4876968, 37.9205639 ], [ -2.4879426, 37.9203889 ], [ -2.4882334, 37.9201173 ], [ -2.4886786, 37.9200136 ], [ -2.4889346, 37.9199619 ], [ -2.4891586, 37.9196987 ], [ -2.4893711, 37.9195059 ], [ -2.4895827, 37.9194452 ], [ -2.4898942, 37.9194026 ], [ -2.4901396, 37.9192628 ], [ -2.490352, 37.9190876 ], [ -2.491369, 37.9186539 ], [ -2.4908278, 37.9185758 ], [ -2.4907155, 37.9185617 ], [ -2.4904157, 37.9185856 ], [ -2.4899642, 37.9186215 ], [ -2.488621, 37.9187329 ], [ -2.4868338, 37.9188783 ], [ -2.4851645, 37.9184204 ], [ -2.4840977, 37.9180372 ], [ -2.4836966, 37.916733 ], [ -2.4834414, 37.9158982 ], [ -2.4812602, 37.9122113 ], [ -2.480895, 37.9107496 ], [ -2.4807029, 37.9105685 ], [ -2.4788448, 37.9094967 ], [ -2.4787858, 37.9081806 ], [ -2.4781474, 37.9067627 ], [ -2.4779218, 37.9065003 ], [ -2.4758253, 37.9053734 ], [ -2.4731606, 37.9041898 ], [ -2.4720024, 37.9039052 ], [ -2.4707068, 37.9037462 ], [ -2.4694459, 37.9035151 ], [ -2.4692079, 37.9033969 ], [ -2.468713, 37.9026015 ], [ -2.468354, 37.9019149 ], [ -2.4680824, 37.9017244 ], [ -2.466142, 37.9010847 ], [ -2.4644508, 37.9005813 ], [ -2.4638643, 37.8998936 ], [ -2.4626276, 37.8979051 ], [ -2.4617529, 37.8961977 ], [ -2.4616544, 37.8956655 ], [ -2.4615742, 37.894169 ], [ -2.4614202, 37.8934562 ], [ -2.4610535, 37.8922738 ], [ -2.4611361, 37.8918596 ], [ -2.4622651, 37.8898729 ], [ -2.4629886, 37.8888938 ], [ -2.4638938, 37.8879696 ], [ -2.4645916, 37.8873959 ], [ -2.464651, 37.8870537 ], [ -2.4641207, 37.8848972 ], [ -2.4640242, 37.8840946 ], [ -2.4637237, 37.8831829 ], [ -2.462597, 37.883313 ], [ -2.4602642, 37.8819684 ], [ -2.4607895, 37.8800961 ], [ -2.4611726, 37.8790253 ], [ -2.4617717, 37.8779465 ], [ -2.46215, 37.8775246 ], [ -2.4630877, 37.8767898 ], [ -2.4633638, 37.8763495 ], [ -2.4637342, 37.8754408 ], [ -2.4644819, 37.8742455 ], [ -2.466433, 37.8717307 ], [ -2.4673088, 37.8700944 ], [ -2.4686256, 37.8672162 ], [ -2.4706799, 37.8629172 ], [ -2.4710943, 37.862198 ], [ -2.4721563, 37.8599315 ], [ -2.472435, 37.8591216 ], [ -2.4718776, 37.8559645 ], [ -2.4727954, 37.8547879 ], [ -2.4747755, 37.852868 ], [ -2.4769938, 37.8510032 ], [ -2.4789929, 37.849588 ], [ -2.4807396, 37.8484961 ], [ -2.4817449, 37.8477795 ], [ -2.4822729, 37.8474839 ], [ -2.4840612, 37.8464828 ], [ -2.4847592, 37.8458189 ], [ -2.4851402, 37.8449643 ], [ -2.4868245, 37.8429978 ], [ -2.4871461, 37.8425125 ], [ -2.4873773, 37.8419457 ], [ -2.4874718, 37.8414324 ], [ -2.4874886, 37.8406393 ], [ -2.4874024, 37.8399539 ], [ -2.4871161, 37.8386368 ], [ -2.486736, 37.8377248 ], [ -2.4862759, 37.8368665 ], [ -2.4852057, 37.8355099 ], [ -2.4839701, 37.8334225 ], [ -2.4834856, 37.8328255 ], [ -2.4824165, 37.8313336 ], [ -2.4813274, 37.8294361 ], [ -2.4792659, 37.8268673 ], [ -2.4789046, 37.8265412 ], [ -2.4775568, 37.8259224 ], [ -2.4770824, 37.8255147 ], [ -2.4759005, 37.8239231 ], [ -2.4753862, 37.8229316 ], [ -2.4747235, 37.8216556 ], [ -2.4738149, 37.8215975 ], [ -2.4727183, 37.8208174 ], [ -2.4696124, 37.8181987 ], [ -2.4683933, 37.8170936 ], [ -2.4652256, 37.8136272 ], [ -2.4634437, 37.8118165 ], [ -2.4567268, 37.804404 ], [ -2.4557146, 37.8030203 ], [ -2.4537442, 37.8006497 ], [ -2.453112, 37.800106 ], [ -2.4453974, 37.7942744 ], [ -2.444291, 37.793386 ], [ -2.4442909, 37.793386 ], [ -2.4388318, 37.7943605 ], [ -2.4388317, 37.7943605 ], [ -2.4380487, 37.7942937 ], [ -2.4380486, 37.7942937 ], [ -2.4326595, 37.7935287 ], [ -2.4326594, 37.7935287 ], [ -2.4313743, 37.7932477 ], [ -2.4290763, 37.7927452 ], [ -2.4250341, 37.7919657 ], [ -2.4221244, 37.7914044 ], [ -2.4215684, 37.7913386 ], [ -2.4193315, 37.7912825 ], [ -2.4193314, 37.7912825 ], [ -2.4149021, 37.7912695 ], [ -2.4113203, 37.7913443 ], [ -2.4082796, 37.7914077 ], [ -2.4056468, 37.7911601 ], [ -2.4056466, 37.7911601 ], [ -2.4004879, 37.7900523 ], [ -2.398526, 37.7896908 ], [ -2.3982755, 37.7896812 ], [ -2.3971636, 37.7896387 ], [ -2.3954941, 37.7896482 ], [ -2.395494, 37.7896482 ], [ -2.3946915, 37.7895924 ], [ -2.3904543, 37.7892977 ], [ -2.3876573, 37.7938077 ], [ -2.3862471, 37.7940347 ], [ -2.3806612, 37.795132 ], [ -2.38008, 37.7953633 ], [ -2.3707979, 37.7996944 ], [ -2.3667028, 37.8017273 ], [ -2.3632765, 37.8052238 ], [ -2.3602376, 37.8072353 ], [ -2.356314, 37.8143071 ], [ -2.3543135, 37.8157202 ], [ -2.3542479, 37.8157514 ], [ -2.3497502, 37.8178672 ], [ -2.3460037, 37.8188378 ], [ -2.3432628, 37.8178762 ], [ -2.3432627, 37.8178761 ], [ -2.3390602, 37.8202861 ], [ -2.3375736, 37.8226481 ], [ -2.3305752, 37.8276017 ], [ -2.326382, 37.8276318 ], [ -2.3263819, 37.8276318 ], [ -2.326693, 37.8246503 ], [ -2.3259322, 37.8242088 ], [ -2.3203976, 37.8209908 ], [ -2.3167256, 37.8187433 ], [ -2.3150975, 37.8178776 ], [ -2.3138302, 37.8173114 ], [ -2.3117124, 37.816578 ], [ -2.3079476, 37.8145911 ], [ -2.301797, 37.8102285 ], [ -2.3017289, 37.8103768 ], [ -2.293561, 37.828124 ], [ -2.2901837, 37.8307535 ], [ -2.2893813, 37.8314786 ], [ -2.2896178, 37.8328951 ], [ -2.2898827, 37.8334104 ], [ -2.289919, 37.8334828 ], [ -2.290482, 37.8364064 ], [ -2.2908796, 37.8376075 ], [ -2.2910705, 37.837852 ], [ -2.2929544, 37.8393144 ], [ -2.2931448, 37.839604 ], [ -2.2938422, 37.841564 ], [ -2.2941562, 37.8431972 ], [ -2.2948618, 37.8478882 ], [ -2.295227, 37.8513153 ], [ -2.2953987, 37.8535786 ], [ -2.2962721, 37.8597668 ], [ -2.2962974, 37.8606862 ], [ -2.2961567, 37.8635425 ], [ -2.2963658, 37.8654635 ], [ -2.2962067, 37.8666522 ], [ -2.2958303, 37.8679749 ], [ -2.2957341, 37.8685331 ], [ -2.2955663, 37.8706321 ], [ -2.2952446, 37.8721804 ], [ -2.2950386, 37.8747118 ], [ -2.2950766, 37.8754961 ], [ -2.2949438, 37.8763155 ], [ -2.2885143, 37.8851364 ], [ -2.2885141, 37.8851364 ], [ -2.2862077, 37.8849331 ], [ -2.2862076, 37.8849331 ], [ -2.2785488, 37.8843455 ], [ -2.277584, 37.8841593 ], [ -2.2763818, 37.8838365 ], [ -2.2747128, 37.8835738 ], [ -2.2724095, 37.8830458 ], [ -2.2719456, 37.8828086 ], [ -2.2702166, 37.8817073 ], [ -2.2697976, 37.8815335 ], [ -2.2695177, 37.8814596 ], [ -2.2693779, 37.8814227 ], [ -2.2686845, 37.8814004 ], [ -2.2672839, 37.8815989 ], [ -2.2672838, 37.8815989 ], [ -2.2670002, 37.8815341 ], [ -2.2656759, 37.880922 ], [ -2.2656757, 37.880922 ], [ -2.26538, 37.8809471 ], [ -2.2649107, 37.8812506 ], [ -2.2644865, 37.8815995 ], [ -2.2642335, 37.8818863 ], [ -2.2636667, 37.8828561 ], [ -2.2630922, 37.8834474 ], [ -2.2611561, 37.8848773 ], [ -2.2604681, 37.8854498 ], [ -2.2599278, 37.8860322 ], [ -2.2575218, 37.8889462 ], [ -2.2567951, 37.8899691 ], [ -2.2507742, 37.8971772 ], [ -2.2490069, 37.8976075 ], [ -2.2481739, 37.8978726 ], [ -2.2474054, 37.8985076 ], [ -2.246719, 37.8988997 ], [ -2.2459539, 37.8992013 ], [ -2.2381803, 37.9030086 ], [ -2.2354276, 37.9041173 ], [ -2.2300606, 37.9061101 ], [ -2.2243224, 37.9087672 ], [ -2.2207086, 37.9105819 ], [ -2.2202859, 37.9107504 ], [ -2.2184787, 37.9116847 ], [ -2.216295, 37.9127066 ], [ -2.2151848, 37.9133391 ], [ -2.213676, 37.914014 ], [ -2.2117203, 37.9149833 ], [ -2.2104648, 37.9153624 ], [ -2.2098822, 37.9155838 ], [ -2.2094717, 37.9156712 ], [ -2.2085611, 37.9157191 ], [ -2.2076646, 37.9165693 ] ] ] } },
{ "type": "Feature", "properties": { "CCAA": "01 - Andalucía", "PROVINCIA": "18 - Granada", "MUNICIPIO": "18164 - Puebla de Don Fadrique", "COD_MUNICIPIO": "18164", "DISTRITO": "01", "SECCION": "1816401002", "V1_H": 77.6, "V1_M": 83.87, "V2_H": 77.77347434000001, "V2_M": 84.06024086, "V3_H": 77.45781126, "V3_M": 83.80561047 }, "geometry": { "type": "Polygon", "coordinates": [ [ [ -2.341628, 38.0260025 ], [ -2.3489201, 38.0247003 ], [ -2.3508244, 38.0245215 ], [ -2.351884, 38.0245184 ], [ -2.3523516, 38.0244669 ], [ -2.3542619, 38.0236843 ], [ -2.3565023, 38.0227683 ], [ -2.3573363, 38.0225024 ], [ -2.3579179, 38.0224425 ], [ -2.3585782, 38.0224912 ], [ -2.3603406, 38.0229064 ], [ -2.3628662, 38.0233347 ], [ -2.3637887, 38.0233668 ], [ -2.3656804, 38.0233229 ], [ -2.3689063, 38.023133 ], [ -2.3706498, 38.0230973 ], [ -2.373075, 38.0232815 ], [ -2.3744042, 38.0237212 ], [ -2.3774702, 38.0249272 ], [ -2.3781409, 38.025102 ], [ -2.3808507, 38.0253326 ], [ -2.3812485, 38.0254519 ], [ -2.3833354, 38.0265895 ], [ -2.3840959, 38.026927 ], [ -2.3855388, 38.0274212 ], [ -2.386321, 38.027903 ], [ -2.3875128, 38.0284409 ], [ -2.3884539, 38.0290047 ], [ -2.390045, 38.0294906 ], [ -2.3909308, 38.0298557 ], [ -2.3919854, 38.0304651 ], [ -2.3928481, 38.0308571 ], [ -2.3957025, 38.0315477 ], [ -2.3971918, 38.031952 ], [ -2.3990014, 38.0322226 ], [ -2.4002425, 38.0323281 ], [ -2.4011976, 38.0325853 ], [ -2.4024605, 38.0328171 ], [ -2.4033258, 38.0329026 ], [ -2.4041352, 38.0328617 ], [ -2.4061769, 38.0326016 ], [ -2.4076366, 38.0324648 ], [ -2.4089943, 38.0322463 ], [ -2.4099177, 38.0321879 ], [ -2.4115472, 38.032178 ], [ -2.4137794, 38.0323334 ], [ -2.417467, 38.0328745 ], [ -2.419186, 38.0330722 ], [ -2.4209627, 38.0331892 ], [ -2.4221121, 38.0333661 ], [ -2.4234085, 38.0337059 ], [ -2.4240779, 38.0340697 ], [ -2.4247332, 38.0347849 ], [ -2.4255651, 38.0362491 ], [ -2.4260399, 38.0367291 ], [ -2.4268519, 38.0378146 ], [ -2.4274483, 38.0387819 ], [ -2.4280357, 38.0394517 ], [ -2.4285108, 38.0399046 ], [ -2.4286226, 38.0401846 ], [ -2.429643, 38.0408565 ], [ -2.4312135, 38.0426036 ], [ -2.4316993, 38.0431647 ], [ -2.4321082, 38.0433379 ], [ -2.4329396, 38.043405 ], [ -2.435596, 38.0432736 ], [ -2.4360964, 38.0434112 ], [ -2.4378451, 38.0442308 ], [ -2.4397779, 38.0448439 ], [ -2.4408594, 38.0449932 ], [ -2.4425073, 38.0456049 ], [ -2.444703, 38.04612 ], [ -2.4471364, 38.0468525 ], [ -2.449808, 38.0477393 ], [ -2.4506811, 38.0483473 ], [ -2.4513936, 38.0490897 ], [ -2.4524767, 38.0490406 ], [ -2.4535122, 38.0492617 ], [ -2.4585383, 38.0508262 ], [ -2.4591083, 38.0508108 ], [ -2.4614712, 38.050308 ], [ -2.4623497, 38.0501858 ], [ -2.4626339, 38.0502953 ], [ -2.4716397, 38.0563837 ], [ -2.4720157, 38.0564124 ], [ -2.4723925, 38.056324 ], [ -2.4767484, 38.0544778 ], [ -2.4783995, 38.0530882 ], [ -2.4791283, 38.0531815 ], [ -2.4797331, 38.0530851 ], [ -2.4807017, 38.0531164 ], [ -2.4812204, 38.0539118 ], [ -2.4815884, 38.0550761 ], [ -2.4817694, 38.0552571 ], [ -2.4820821, 38.0545555 ], [ -2.4831904, 38.0525505 ], [ -2.4838356, 38.051562 ], [ -2.4840681, 38.0509231 ], [ -2.4840245, 38.0506435 ], [ -2.4837187, 38.0503718 ], [ -2.4825415, 38.0492039 ], [ -2.4854072, 38.0466569 ], [ -2.4865555, 38.0456344 ], [ -2.4913708, 38.0414915 ], [ -2.4930004, 38.0398311 ], [ -2.494549, 38.0383507 ], [ -2.4947696, 38.0377568 ], [ -2.494957, 38.0370275 ], [ -2.495882, 38.0367431 ], [ -2.4982097, 38.0362844 ], [ -2.4993741, 38.035983 ], [ -2.5001969, 38.035644 ], [ -2.5026214, 38.0343474 ], [ -2.5034577, 38.033684 ], [ -2.5046503, 38.0325624 ], [ -2.5054835, 38.0323676 ], [ -2.5080031, 38.0321619 ], [ -2.5087686, 38.0318497 ], [ -2.5102304, 38.0313511 ], [ -2.5112095, 38.0314813 ], [ -2.5132748, 38.0310483 ], [ -2.514074, 38.0308082 ], [ -2.5159375, 38.0298515 ], [ -2.517591, 38.029651 ], [ -2.5179348, 38.029346 ], [ -2.5193209, 38.0282161 ], [ -2.5200181, 38.0278944 ], [ -2.5209198, 38.0276458 ], [ -2.5212276, 38.027629 ], [ -2.5229289, 38.0270681 ], [ -2.526632, 38.0252715 ], [ -2.5288827, 38.0243162 ], [ -2.5303795, 38.0236462 ], [ -2.5311298, 38.022117 ], [ -2.5317738, 38.0211732 ], [ -2.5324392, 38.0204458 ], [ -2.5331836, 38.0198359 ], [ -2.5338492, 38.0190725 ], [ -2.5351009, 38.0175002 ], [ -2.5354131, 38.0167804 ], [ -2.5357221, 38.0165563 ], [ -2.5363501, 38.0163244 ], [ -2.5378816, 38.0155373 ], [ -2.5387582, 38.0156219 ], [ -2.5396338, 38.0158777 ], [ -2.5400189, 38.0162487 ], [ -2.5403338, 38.0168898 ], [ -2.5439254, 38.0145695 ], [ -2.544485, 38.0143373 ], [ -2.545272, 38.0141872 ], [ -2.5460237, 38.0142081 ], [ -2.5489496, 38.0145078 ], [ -2.5496072, 38.015024 ], [ -2.5506948, 38.0160106 ], [ -2.5520677, 38.0150515 ], [ -2.5528263, 38.0176951 ], [ -2.5538441, 38.0170411 ], [ -2.5557183, 38.0160838 ], [ -2.5559355, 38.0159494 ], [ -2.5565873, 38.0155463 ], [ -2.5573855, 38.0154231 ], [ -2.5582167, 38.0154893 ], [ -2.5594003, 38.015683 ], [ -2.5613811, 38.0159248 ], [ -2.5618966, 38.015449 ], [ -2.5623681, 38.0147117 ], [ -2.5639867, 38.0145375 ], [ -2.5650649, 38.0133067 ], [ -2.5659256, 38.0122193 ], [ -2.5663752, 38.0113287 ], [ -2.5667072, 38.0110325 ], [ -2.5673018, 38.0106471 ], [ -2.5683532, 38.0100742 ], [ -2.5690217, 38.0106895 ], [ -2.5726691, 38.0083415 ], [ -2.5732061, 38.008064 ], [ -2.5750929, 38.0068 ], [ -2.5761071, 38.0067226 ], [ -2.5763843, 38.0060656 ], [ -2.577708, 38.003655 ], [ -2.5780978, 38.0032057 ], [ -2.5792072, 38.0024255 ], [ -2.5802146, 38.0015188 ], [ -2.5812344, 38.0004499 ], [ -2.5813274, 38.0001258 ], [ -2.5813475, 38.0000808 ], [ -2.582262, 37.9979931 ], [ -2.5830325, 37.9946611 ], [ -2.5835771, 37.9930136 ], [ -2.5841357, 37.9908886 ], [ -2.584312, 37.9899158 ], [ -2.5842794, 37.9896363 ], [ -2.5837485, 37.9888773 ], [ -2.5832639, 37.9879743 ], [ -2.5828726, 37.9866841 ], [ -2.5827186, 37.9857282 ], [ -2.5827594, 37.9845476 ], [ -2.5830889, 37.9826561 ], [ -2.5834244, 37.9817199 ], [ -2.5838709, 37.9812889 ], [ -2.5850367, 37.9805179 ], [ -2.5857003, 37.9799524 ], [ -2.5859303, 37.9795476 ], [ -2.5860231, 37.9792325 ], [ -2.5860383, 37.9789442 ], [ -2.5860741, 37.9782683 ], [ -2.585928, 37.9779253 ], [ -2.5844096, 37.9766131 ], [ -2.5780293, 37.9713539 ], [ -2.571434, 37.9660304 ], [ -2.5681483, 37.9633235 ], [ -2.5493344, 37.9589627 ], [ -2.5486834, 37.951867 ], [ -2.5344203, 37.937589 ], [ -2.5338429, 37.937118 ], [ -2.5327804, 37.9359692 ], [ -2.5282568, 37.9315438 ], [ -2.5265273, 37.9297342 ], [ -2.5251952, 37.9280975 ], [ -2.5249343, 37.9279703 ], [ -2.5222946, 37.9279506 ], [ -2.5209095, 37.9292248 ], [ -2.5194583, 37.9284167 ], [ -2.5186068, 37.9281248 ], [ -2.5175953, 37.9279404 ], [ -2.5150483, 37.9276686 ], [ -2.514572, 37.9274233 ], [ -2.5140181, 37.9268712 ], [ -2.5122288, 37.9255839 ], [ -2.5097283, 37.9234645 ], [ -2.5087566, 37.922442 ], [ -2.5067701, 37.9200362 ], [ -2.5042232, 37.9167222 ], [ -2.5010858, 37.9126396 ], [ -2.4964044, 37.9167296 ], [ -2.4935896, 37.919187 ], [ -2.4913748, 37.9186547 ], [ -2.491369, 37.9186539 ], [ -2.490352, 37.9190876 ], [ -2.4901396, 37.9192628 ], [ -2.4898942, 37.9194026 ], [ -2.4895827, 37.9194452 ], [ -2.4893711, 37.9195059 ], [ -2.4891586, 37.9196987 ], [ -2.4889346, 37.9199619 ], [ -2.4886786, 37.9200136 ], [ -2.4882334, 37.9201173 ], [ -2.4879426, 37.9203889 ], [ -2.4876968, 37.9205639 ], [ -2.487341, 37.9205888 ], [ -2.4869514, 37.9206839 ], [ -2.4864721, 37.9208931 ], [ -2.4850583, 37.9212391 ], [ -2.4837679, 37.9214095 ], [ -2.4826993, 37.9216513 ], [ -2.4816749, 37.9219285 ], [ -2.4807378, 37.9224526 ], [ -2.4800677, 37.9229075 ], [ -2.4797504, 37.9237864 ], [ -2.4796573, 37.9243847 ], [ -2.4794276, 37.9254401 ], [ -2.4789324, 37.9263183 ], [ -2.4782596, 37.9271605 ], [ -2.4770078, 37.9281409 ], [ -2.4755345, 37.9290147 ], [ -2.4739733, 37.9297473 ], [ -2.4725489, 37.9299874 ], [ -2.4706387, 37.9297675 ], [ -2.4675742, 37.9293311 ], [ -2.4662852, 37.92929 ], [ -2.4653088, 37.9290567 ], [ -2.4643742, 37.9291933 ], [ -2.4638371, 37.9296839 ], [ -2.4632993, 37.9302801 ], [ -2.4620442, 37.9316829 ], [ -2.4615508, 37.9322793 ], [ -2.4607483, 37.9325926 ], [ -2.4597658, 37.9331867 ], [ -2.4592284, 37.9337125 ], [ -2.4587335, 37.9345202 ], [ -2.4583279, 37.9352578 ], [ -2.4577871, 37.9362413 ], [ -2.4570249, 37.9371182 ], [ -2.4563089, 37.9377311 ], [ -2.4555518, 37.9379037 ], [ -2.4545707, 37.9382865 ], [ -2.4539477, 37.938354 ], [ -2.4529701, 37.9382791 ], [ -2.452526, 37.9382066 ], [ -2.4521266, 37.938099 ], [ -2.4512374, 37.9380949 ], [ -2.450437, 37.9380912 ], [ -2.4499477, 37.9381241 ], [ -2.4492353, 37.9382616 ], [ -2.4487451, 37.9384002 ], [ -2.4481655, 37.9386088 ], [ -2.4476312, 37.9387119 ], [ -2.4471865, 37.9387098 ], [ -2.4466972, 37.9387427 ], [ -2.4459866, 37.9386337 ], [ -2.4453202, 37.9385601 ], [ -2.4444309, 37.9385559 ], [ -2.4432741, 37.9386561 ], [ -2.4422916, 37.9392149 ], [ -2.441711, 37.9395643 ], [ -2.4409056, 37.9402295 ], [ -2.4403193, 37.9413184 ], [ -2.4400424, 37.9426552 ], [ -2.4398563, 37.943746 ], [ -2.4396705, 37.944784 ], [ -2.4395087, 37.9455931 ], [ -2.439346, 37.9465256 ], [ -2.4391845, 37.9472995 ], [ -2.4389762, 37.9483726 ], [ -2.438745, 37.9495336 ], [ -2.438627, 37.9504442 ], [ -2.4385532, 37.951377 ], [ -2.4385034, 37.9520811 ], [ -2.43852, 37.9528207 ], [ -2.4386242, 37.9537368 ], [ -2.4387071, 37.9545295 ], [ -2.4387692, 37.9551285 ], [ -2.43892, 37.9557807 ], [ -2.4389819, 37.9564149 ], [ -2.4389973, 37.9565756 ], [ -2.4389519, 37.9567074 ], [ -2.4389397, 37.9568438 ], [ -2.4389776, 37.9569805 ], [ -2.4390322, 37.9571084 ], [ -2.4390865, 37.9572803 ], [ -2.439119, 37.9573861 ], [ -2.4391954, 37.9575758 ], [ -2.4392499, 37.9577301 ], [ -2.4393045, 37.9578536 ], [ -2.4393315, 37.9579528 ], [ -2.4393251, 37.9580716 ], [ -2.4393247, 37.9581244 ], [ -2.4391467, 37.9581324 ], [ -2.4389632, 37.9581447 ], [ -2.4388464, 37.9581529 ], [ -2.4387513, 37.9582317 ], [ -2.4386618, 37.9583017 ], [ -2.4385556, 37.9583629 ], [ -2.4384988, 37.9585299 ], [ -2.4384588, 37.9586661 ], [ -2.4383797, 37.9588418 ], [ -2.4383061, 37.9590175 ], [ -2.4382494, 37.9591581 ], [ -2.4382043, 37.9592459 ], [ -2.4382011, 37.9592998 ], [ -2.4381978, 37.9593637 ], [ -2.4381688, 37.959522 ], [ -2.4381372, 37.9596539 ], [ -2.4381057, 37.9597814 ], [ -2.4380711, 37.9599331 ], [ -2.4380619, 37.9600486 ], [ -2.4380449, 37.9600969 ], [ -2.4380302, 37.9601915 ], [ -2.4380257, 37.9604226 ], [ -2.4380137, 37.960537 ], [ -2.4380045, 37.9606525 ], [ -2.4380095, 37.9607295 ], [ -2.4379978, 37.9608021 ], [ -2.4379943, 37.9608989 ], [ -2.4379849, 37.9610442 ], [ -2.4379722, 37.96124 ], [ -2.4379421, 37.9615535 ], [ -2.4379208, 37.9617889 ], [ -2.4379143, 37.9619187 ], [ -2.4379859, 37.9620104 ], [ -2.4380519, 37.9620921 ], [ -2.4381376, 37.962163 ], [ -2.4382812, 37.9622803 ], [ -2.4383834, 37.9623688 ], [ -2.4384717, 37.9624551 ], [ -2.438241, 37.9624518 ], [ -2.4381355, 37.9624315 ], [ -2.4380111, 37.9623472 ], [ -2.4378869, 37.9622278 ], [ -2.4377876, 37.9621327 ], [ -2.437696, 37.9621014 ], [ -2.4376017, 37.9620767 ], [ -2.4375156, 37.9620653 ], [ -2.4373827, 37.9620009 ], [ -2.4372887, 37.96193 ], [ -2.4372114, 37.9618636 ], [ -2.4371591, 37.9617951 ], [ -2.4370116, 37.9618142 ], [ -2.4368835, 37.96184 ], [ -2.436786, 37.9618627 ], [ -2.4367053, 37.9618799 ], [ -2.4366994, 37.9619239 ], [ -2.4367408, 37.9619615 ], [ -2.4367211, 37.9619988 ], [ -2.436595, 37.9621215 ], [ -2.4364859, 37.9622222 ], [ -2.4364048, 37.9622834 ], [ -2.4363015, 37.9623402 ], [ -2.4360534, 37.9624226 ], [ -2.4358499, 37.9625053 ], [ -2.4356409, 37.9625758 ], [ -2.4353343, 37.9626799 ], [ -2.4347824, 37.9628666 ], [ -2.4344954, 37.9629565 ], [ -2.4341329, 37.9630956 ], [ -2.4337065, 37.9632366 ], [ -2.432391, 37.9636694 ], [ -2.431711, 37.9638994 ], [ -2.4312205, 37.9640555 ], [ -2.4309363, 37.9641465 ], [ -2.4296374, 37.9645782 ], [ -2.4290242, 37.964791 ], [ -2.4285839, 37.9649297 ], [ -2.4263876, 37.9656607 ], [ -2.4242579, 37.9663898 ], [ -2.4225188, 37.9669447 ], [ -2.4209912, 37.9674698 ], [ -2.4200546, 37.9677909 ], [ -2.419263, 37.9680599 ], [ -2.4182373, 37.968385 ], [ -2.4167319, 37.9689057 ], [ -2.415026, 37.9694695 ], [ -2.4132978, 37.9700375 ], [ -2.4119819, 37.9704887 ], [ -2.411023, 37.9708009 ], [ -2.4100752, 37.9711262 ], [ -2.4086144, 37.9716207 ], [ -2.4073767, 37.9720282 ], [ -2.4059603, 37.9725185 ], [ -2.404533, 37.9729867 ], [ -2.4035962, 37.9733165 ], [ -2.4028046, 37.9735589 ], [ -2.4012986, 37.9741279 ], [ -2.3998817, 37.9746841 ], [ -2.3986988, 37.9751711 ], [ -2.3977839, 37.9755405 ], [ -2.3970034, 37.9757742 ], [ -2.3962794, 37.9759114 ], [ -2.3951662, 37.9760377 ], [ -2.3929494, 37.9764709 ], [ -2.3923483, 37.9765382 ], [ -2.3918256, 37.9765354 ], [ -2.3909588, 37.9764429 ], [ -2.390248, 37.9763336 ], [ -2.3877149, 37.9760079 ], [ -2.3867038, 37.9758882 ], [ -2.3830154, 37.9754155 ], [ -2.3806713, 37.975117 ], [ -2.3788938, 37.9748787 ], [ -2.3777716, 37.9747495 ], [ -2.3762829, 37.9745611 ], [ -2.3748499, 37.9743686 ], [ -2.3742613, 37.9742686 ], [ -2.3736283, 37.9741596 ], [ -2.3732185, 37.9739638 ], [ -2.3727537, 37.9736884 ], [ -2.372488, 37.9735461 ], [ -2.3722772, 37.9734965 ], [ -2.37211, 37.9735309 ], [ -2.3718641, 37.9736792 ], [ -2.3716275, 37.9740389 ], [ -2.3713687, 37.9743896 ], [ -2.3709539, 37.9747836 ], [ -2.3704499, 37.9751947 ], [ -2.3696568, 37.9755954 ], [ -2.3684608, 37.9762933 ], [ -2.366807, 37.9772043 ], [ -2.3656782, 37.9778409 ], [ -2.3647171, 37.9783816 ], [ -2.3641916, 37.9786957 ], [ -2.3624149, 37.9796588 ], [ -2.3612632, 37.9803656 ], [ -2.360894, 37.9806102 ], [ -2.3598976, 37.9813707 ], [ -2.3591921, 37.981917 ], [ -2.3588345, 37.9821088 ], [ -2.3585894, 37.9821514 ], [ -2.3582896, 37.9820882 ], [ -2.3579456, 37.9820071 ], [ -2.357547, 37.9818024 ], [ -2.3571814, 37.9816331 ], [ -2.356837, 37.9815872 ], [ -2.3564252, 37.9816114 ], [ -2.3559685, 37.9816881 ], [ -2.3555447, 37.9818178 ], [ -2.3549313, 37.9820126 ], [ -2.3544405, 37.9821771 ], [ -2.3541728, 37.9822637 ], [ -2.3536829, 37.9823226 ], [ -2.353226, 37.9824169 ], [ -2.3530029, 37.982495 ], [ -2.3527685, 37.9825817 ], [ -2.3525781, 37.9827303 ], [ -2.352376, 37.9829493 ], [ -2.3521517, 37.9831594 ], [ -2.3517041, 37.983465 ], [ -2.351235, 37.9836913 ], [ -2.350688, 37.9839128 ], [ -2.3502191, 37.9841127 ], [ -2.3496837, 37.984277 ], [ -2.3492493, 37.9843538 ], [ -2.3488487, 37.9843604 ], [ -2.3482149, 37.9843481 ], [ -2.3469701, 37.9842355 ], [ -2.3443911, 37.9840671 ], [ -2.3436803, 37.9839486 ], [ -2.343348, 37.9837839 ], [ -2.3428662, 37.9835633 ], [ -2.3425281, 37.9834338 ], [ -2.3421236, 37.9832598 ], [ -2.3417027, 37.9830638 ], [ -2.3409441, 37.9826986 ], [ -2.3406951, 37.9825585 ], [ -2.3408296, 37.9824448 ], [ -2.3410545, 37.98216 ], [ -2.3411556, 37.9820505 ], [ -2.3412623, 37.9819366 ], [ -2.3411076, 37.9818257 ], [ -2.3408701, 37.9816439 ], [ -2.340688, 37.9814756 ], [ -2.3405779, 37.9813539 ], [ -2.3404966, 37.9811158 ], [ -2.3403501, 37.98071 ], [ -2.3402201, 37.9803219 ], [ -2.3401884, 37.9801325 ], [ -2.3401841, 37.9799982 ], [ -2.340247, 37.9798004 ], [ -2.340348, 37.9796998 ], [ -2.3404933, 37.9796169 ], [ -2.3407552, 37.9795656 ], [ -2.3408004, 37.9794822 ], [ -2.3407072, 37.9793364 ], [ -2.3404024, 37.9792203 ], [ -2.3400751, 37.9791216 ], [ -2.3398097, 37.9789616 ], [ -2.3396496, 37.9788243 ], [ -2.3394729, 37.9786824 ], [ -2.3391731, 37.9786323 ], [ -2.3388613, 37.9786658 ], [ -2.3385496, 37.9786992 ], [ -2.3382825, 37.9787198 ], [ -2.3380823, 37.9787208 ], [ -2.3378831, 37.9786185 ], [ -2.3377006, 37.9784985 ], [ -2.3374353, 37.978321 ], [ -2.3372698, 37.978166 ], [ -2.3371764, 37.9780378 ], [ -2.3370829, 37.9779316 ], [ -2.3369271, 37.9779352 ], [ -2.3368377, 37.9779919 ], [ -2.3367697, 37.978128 ], [ -2.3367178, 37.9783345 ], [ -2.3367059, 37.9784137 ], [ -2.3366283, 37.9783869 ], [ -2.336596, 37.9782634 ], [ -2.3364919, 37.9780956 ], [ -2.3364267, 37.9779235 ], [ -2.3363558, 37.977769 ], [ -2.3362515, 37.9776276 ], [ -2.3361138, 37.977475 ], [ -2.3359431, 37.9772847 ], [ -2.3358608, 37.9771698 ], [ -2.335677, 37.9771908 ], [ -2.3354493, 37.9771631 ], [ -2.3352711, 37.9771929 ], [ -2.3350812, 37.9772798 ], [ -2.3349244, 37.9774022 ], [ -2.3347396, 37.9775018 ], [ -2.3349328, 37.977706 ], [ -2.3350375, 37.9778078 ], [ -2.3351699, 37.9779362 ], [ -2.3352194, 37.9779937 ], [ -2.3350635, 37.978006 ], [ -2.3347959, 37.9780838 ], [ -2.3346342, 37.9781401 ], [ -2.3344554, 37.9782315 ], [ -2.3341705, 37.9783664 ], [ -2.3338351, 37.9785691 ], [ -2.3335117, 37.9786553 ], [ -2.3332277, 37.9787021 ], [ -2.3331166, 37.9786883 ], [ -2.3327278, 37.9786377 ], [ -2.3322602, 37.9786878 ], [ -2.3318373, 37.9787206 ], [ -2.3317475, 37.9788082 ], [ -2.3314123, 37.9789823 ], [ -2.3311436, 37.9791745 ], [ -2.3304976, 37.9792764 ], [ -2.3292715, 37.9795688 ], [ -2.3286023, 37.9797762 ], [ -2.3275101, 37.9800165 ], [ -2.3264848, 37.9802395 ], [ -2.325816, 37.9803941 ], [ -2.3251028, 37.9805485 ], [ -2.3248575, 37.9806175 ], [ -2.3249898, 37.9807371 ], [ -2.3251763, 37.9810199 ], [ -2.3253296, 37.9812849 ], [ -2.3254167, 37.9814879 ], [ -2.3255713, 37.981612 ], [ -2.3257925, 37.9817454 ], [ -2.3259799, 37.9819313 ], [ -2.3260893, 37.9821344 ], [ -2.3261982, 37.9823904 ], [ -2.3263065, 37.9827079 ], [ -2.3263821, 37.9829636 ], [ -2.3264571, 37.9832678 ], [ -2.3265544, 37.9835765 ], [ -2.3256523, 37.9837034 ], [ -2.3243826, 37.9838898 ], [ -2.3237143, 37.9839827 ], [ -2.3229125, 37.9840926 ], [ -2.3221997, 37.9841941 ], [ -2.3207965, 37.9843841 ], [ -2.3194153, 37.9845962 ], [ -2.3184353, 37.9847226 ], [ -2.3155395, 37.9851327 ], [ -2.3144702, 37.9852849 ], [ -2.3140358, 37.9853528 ], [ -2.3115855, 37.985695 ], [ -2.310583, 37.9858476 ], [ -2.3099037, 37.9859316 ], [ -2.3069298, 37.9863587 ], [ -2.3064953, 37.9864354 ], [ -2.3056711, 37.9865449 ], [ -2.3035995, 37.9868364 ], [ -2.3026415, 37.9869803 ], [ -2.3016167, 37.9871327 ], [ -2.2989769, 37.9875088 ], [ -2.2977964, 37.9876602 ], [ -2.2964747, 37.98786 ], [ -2.2972258, 37.9891258 ], [ -2.2976708, 37.990219 ], [ -2.2982214, 37.9921961 ], [ -2.2986434, 37.9957227 ], [ -2.2986974, 37.9972281 ], [ -2.2991713, 38.0000881 ], [ -2.299182, 38.0001602 ], [ -2.2991902, 38.0016925 ], [ -2.2990738, 38.0019532 ], [ -2.2984685, 38.0021208 ], [ -2.2991913, 38.002774 ], [ -2.3003123, 38.0034657 ], [ -2.3011519, 38.0038132 ], [ -2.3032672, 38.0041592 ], [ -2.3036529, 38.0043237 ], [ -2.304026, 38.0046144 ], [ -2.3048046, 38.0053941 ], [ -2.3079727, 38.007657 ], [ -2.3093283, 38.0088547 ], [ -2.310418, 38.0092757 ], [ -2.3121064, 38.010223 ], [ -2.3128662, 38.0105879 ], [ -2.3143088, 38.01102 ], [ -2.3222019, 38.0136165 ], [ -2.3230871, 38.0139821 ], [ -2.3322715, 38.0199741 ], [ -2.3366788, 38.022685 ], [ -2.3373235, 38.0232113 ], [ -2.3407092, 38.0255467 ], [ -2.341628, 38.0260025 ] ] ] } }
]
}
