{
"type": "FeatureCollection",
"name": "18187",
"features": [
{ "type": "Feature", "properties": { "CCAA": "01 - Andalucía", "PROVINCIA": "18 - Granada", "MUNICIPIO": "18187 - Villanueva de las Torres", "COD_MUNICIPIO": "18187", "DISTRITO": "01", "SECCION": "1818701001", "V1_H": 77.6, "V1_M": 83.87, "V2_H": 77.77347434000001, "V2_M": 84.06024086, "V3_H": 77.45781126, "V3_M": 83.80561047 }, "geometry": { "type": "Polygon", "coordinates": [ [ [ -3.0632848, 37.579574 ], [ -3.0640552, 37.579835 ], [ -3.0648366, 37.5796904 ], [ -3.0658327, 37.5791581 ], [ -3.0662401, 37.5787162 ], [ -3.0672578, 37.576994 ], [ -3.0698582, 37.5722153 ], [ -3.0706719, 37.5704482 ], [ -3.0713163, 37.569249 ], [ -3.0716099, 37.5684015 ], [ -3.0718017, 37.5676353 ], [ -3.0718803, 37.5669772 ], [ -3.0717317, 37.5655171 ], [ -3.0709814, 37.5623087 ], [ -3.070981, 37.5619031 ], [ -3.0710712, 37.5615064 ], [ -3.0713314, 37.561308 ], [ -3.071739, 37.5612446 ], [ -3.0721919, 37.5612804 ], [ -3.075261, 37.5618194 ], [ -3.0763139, 37.5617106 ], [ -3.0768233, 37.561557 ], [ -3.0771288, 37.5613585 ], [ -3.0772644, 37.5611241 ], [ -3.0785551, 37.5610241 ], [ -3.0790536, 37.5612672 ], [ -3.0793479, 37.5612489 ], [ -3.0798346, 37.5609782 ], [ -3.080027, 37.5609691 ], [ -3.080333, 37.5611401 ], [ -3.080616, 37.5611489 ], [ -3.0812727, 37.5610674 ], [ -3.084228, 37.5611014 ], [ -3.0844772, 37.5611733 ], [ -3.0850324, 37.5615155 ], [ -3.0854741, 37.5616053 ], [ -3.0858024, 37.561578 ], [ -3.0860627, 37.5614607 ], [ -3.0863793, 37.5610458 ], [ -3.0866395, 37.5608383 ], [ -3.0868999, 37.5608291 ], [ -3.0884858, 37.5614409 ], [ -3.0889164, 37.561738 ], [ -3.0898795, 37.5622151 ], [ -3.0929611, 37.5636639 ], [ -3.0962124, 37.5648782 ], [ -3.0965638, 37.5651033 ], [ -3.0986838, 37.5670034 ], [ -3.099205, 37.5672193 ], [ -3.1009833, 37.5676325 ], [ -3.1014026, 37.5678755 ], [ -3.1016862, 37.5682177 ], [ -3.1023331, 37.5692538 ], [ -3.1028204, 37.5695329 ], [ -3.1033754, 37.5696585 ], [ -3.1037831, 37.5695861 ], [ -3.1042358, 37.5694414 ], [ -3.104677, 37.5691436 ], [ -3.1050615, 37.5687917 ], [ -3.1054007, 37.5683768 ], [ -3.1056609, 37.5681693 ], [ -3.1061926, 37.5678804 ], [ -3.1065775, 37.5677628 ], [ -3.107223, 37.5677353 ], [ -3.1089215, 37.5677067 ], [ -3.1093743, 37.5676251 ], [ -3.1095779, 37.5674447 ], [ -3.1103009, 37.5662723 ], [ -3.1105952, 37.5661999 ], [ -3.1108784, 37.5662807 ], [ -3.1115133, 37.5667849 ], [ -3.1124312, 37.5672257 ], [ -3.1128392, 37.5674778 ], [ -3.1133495, 37.567937 ], [ -3.1136667, 37.5680718 ], [ -3.1140971, 37.5681346 ], [ -3.1145951, 37.5679267 ], [ -3.1151833, 37.5675477 ], [ -3.1158058, 37.5673127 ], [ -3.1164623, 37.5671408 ], [ -3.1173571, 37.5672391 ], [ -3.1177876, 37.5673919 ], [ -3.1185693, 37.5676074 ], [ -3.1187621, 37.5677785 ], [ -3.1190575, 37.5684001 ], [ -3.1192844, 37.5686703 ], [ -3.1198964, 37.5689762 ], [ -3.1204741, 37.5690747 ], [ -3.1213685, 37.5689747 ], [ -3.1215155, 37.5687853 ], [ -3.1215037, 37.5685689 ], [ -3.1216507, 37.5684156 ], [ -3.1219111, 37.5684153 ], [ -3.1220811, 37.5684963 ], [ -3.1224216, 37.5689646 ], [ -3.1226938, 37.5692257 ], [ -3.1231132, 37.5694416 ], [ -3.1235095, 37.5694593 ], [ -3.1247776, 37.5693137 ], [ -3.1251856, 37.5694756 ], [ -3.125537, 37.5697366 ], [ -3.1257754, 37.5700608 ], [ -3.125686, 37.570809 ], [ -3.125856, 37.57089 ], [ -3.1261955, 37.5707454 ], [ -3.1266815, 37.5702041 ], [ -3.127021, 37.5700415 ], [ -3.1272815, 37.5700502 ], [ -3.1274855, 37.5702033 ], [ -3.1279511, 37.5708968 ], [ -3.1281892, 37.5711128 ], [ -3.1284612, 37.5712387 ], [ -3.129356, 37.5712919 ], [ -3.1296505, 37.5713727 ], [ -3.1300019, 37.5715526 ], [ -3.1305122, 37.5719396 ], [ -3.1309541, 37.5721194 ], [ -3.131634, 37.5722719 ], [ -3.1324268, 37.5723611 ], [ -3.1332303, 37.5720718 ], [ -3.1338417, 37.572008 ], [ -3.134057, 37.5720799 ], [ -3.1341369, 37.5724314 ], [ -3.1342506, 37.5726656 ], [ -3.1344206, 37.5727555 ], [ -3.1350321, 37.5727008 ], [ -3.1352247, 37.5727366 ], [ -3.135338, 37.5728176 ], [ -3.135622, 37.573304 ], [ -3.1357919, 37.5733038 ], [ -3.1366179, 37.5729333 ], [ -3.1373535, 37.5726711 ], [ -3.1380102, 37.5725802 ], [ -3.1385086, 37.5725976 ], [ -3.1392109, 37.572723 ], [ -3.1395849, 37.5729028 ], [ -3.1397098, 37.5730289 ], [ -3.1397441, 37.5732272 ], [ -3.1399594, 37.5733351 ], [ -3.1401294, 37.5733438 ], [ -3.1402874, 37.5730913 ], [ -3.1404458, 37.5729649 ], [ -3.1406382, 37.5729467 ], [ -3.1408874, 37.5729915 ], [ -3.1411482, 37.5731714 ], [ -3.1423383, 37.5736838 ], [ -3.1428481, 37.5737823 ], [ -3.1432445, 37.5737729 ], [ -3.143584, 37.5736192 ], [ -3.1438217, 37.5735738 ], [ -3.1440487, 37.573871 ], [ -3.1446042, 37.5741137 ], [ -3.1450345, 37.5741222 ], [ -3.1457136, 37.5739051 ], [ -3.1460075, 37.5736613 ], [ -3.1462554, 37.5730391 ], [ -3.1464366, 37.5729938 ], [ -3.1465838, 37.5730567 ], [ -3.1471977, 37.5741826 ], [ -3.1472322, 37.574471 ], [ -3.1474253, 37.5747502 ], [ -3.1477203, 37.5750473 ], [ -3.1479924, 37.5751822 ], [ -3.1482302, 37.5751819 ], [ -3.1494644, 37.5750362 ], [ -3.1497361, 37.5750358 ], [ -3.1499977, 37.5755943 ], [ -3.1501793, 37.5758014 ], [ -3.1503945, 37.5758192 ], [ -3.1507448, 37.5753951 ], [ -3.1509712, 37.5753587 ], [ -3.1512544, 37.5754035 ], [ -3.1515264, 37.5755113 ], [ -3.1517419, 37.5756642 ], [ -3.1519798, 37.5757 ], [ -3.1521609, 37.5756276 ], [ -3.1522395, 37.5753031 ], [ -3.1523299, 37.5751767 ], [ -3.1526126, 37.5749961 ], [ -3.1528957, 37.5749777 ], [ -3.1531453, 37.5751847 ], [ -3.1532253, 37.5755722 ], [ -3.1533955, 37.5757072 ], [ -3.1536675, 37.5757879 ], [ -3.1541091, 37.5757784 ], [ -3.1543697, 37.5758232 ], [ -3.1544606, 37.5759402 ], [ -3.1553452, 37.576588 ], [ -3.1558892, 37.5767856 ], [ -3.1560255, 37.5769657 ], [ -3.1560486, 37.577173 ], [ -3.1557771, 37.5773175 ], [ -3.1556981, 37.5774438 ], [ -3.1557549, 37.5775609 ], [ -3.1559024, 37.5776419 ], [ -3.156843, 37.5779291 ], [ -3.1546037, 37.573939 ], [ -3.1535595, 37.5728316 ], [ -3.1505403, 37.5694284 ], [ -3.1498701, 37.5684016 ], [ -3.1496537, 37.567798 ], [ -3.1495506, 37.5671762 ], [ -3.1495364, 37.565725 ], [ -3.1496146, 37.5652111 ], [ -3.1501, 37.5644444 ], [ -3.1513201, 37.5630277 ], [ -3.1513758, 37.562613 ], [ -3.1510314, 37.5602519 ], [ -3.1512333, 37.5593142 ], [ -3.1514591, 37.5589895 ], [ -3.1518094, 37.5586375 ], [ -3.1526009, 37.5580776 ], [ -3.1528606, 37.5577347 ], [ -3.1529844, 37.5573561 ], [ -3.1530061, 37.5568963 ], [ -3.1525739, 37.5559505 ], [ -3.150772, 37.5551415 ], [ -3.1498531, 37.5541872 ], [ -3.1483904, 37.5530803 ], [ -3.148208, 37.5524226 ], [ -3.1478337, 37.5521256 ], [ -3.1472559, 37.551901 ], [ -3.1469615, 37.5519013 ], [ -3.1464749, 37.5520101 ], [ -3.1461351, 37.5519294 ], [ -3.1448545, 37.551273 ], [ -3.1446728, 37.5509667 ], [ -3.1446495, 37.5506332 ], [ -3.1444668, 37.5497952 ], [ -3.1439437, 37.548579 ], [ -3.1439541, 37.5480922 ], [ -3.1434095, 37.54748 ], [ -3.1423333, 37.5470937 ], [ -3.1418576, 37.5470131 ], [ -3.1415174, 37.546698 ], [ -3.1408705, 37.5457974 ], [ -3.1405857, 37.5448333 ], [ -3.140256, 37.5440676 ], [ -3.1398695, 37.5431937 ], [ -3.1384054, 37.5411222 ], [ -3.137917, 37.5402485 ], [ -3.1349292, 37.5342398 ], [ -3.1322753, 37.5311511 ], [ -3.1304825, 37.5285751 ], [ -3.1310037, 37.528872 ], [ -3.1331203, 37.5289869 ], [ -3.1334375, 37.5291488 ], [ -3.1335962, 37.5293018 ], [ -3.1338461, 37.5298243 ], [ -3.1340616, 37.5300494 ], [ -3.1346511, 37.5305896 ], [ -3.1351155, 37.5308234 ], [ -3.1361004, 37.5309215 ], [ -3.1366332, 37.5313896 ], [ -3.1380042, 37.5322083 ], [ -3.1465315, 37.5286468 ], [ -3.1496635, 37.5271016 ], [ -3.149492, 37.5262274 ], [ -3.1506355, 37.5263882 ], [ -3.1511781, 37.5260811 ], [ -3.1543647, 37.5236253 ], [ -3.1552004, 37.522804 ], [ -3.1564966, 37.5202695 ], [ -3.1570365, 37.5186373 ], [ -3.1572507, 37.5182495 ], [ -3.1564324, 37.516583 ], [ -3.1565219, 37.5160691 ], [ -3.1566794, 37.5156272 ], [ -3.1568818, 37.5149959 ], [ -3.1573788, 37.5145627 ], [ -3.1573432, 37.5137605 ], [ -3.1574332, 37.513517 ], [ -3.1591369, 37.5111712 ], [ -3.1595878, 37.5103593 ], [ -3.1609538, 37.5088883 ], [ -3.1689451, 37.500089 ], [ -3.1696451, 37.499439 ], [ -3.1706152, 37.4981667 ], [ -3.170671, 37.4978241 ], [ -3.1708468, 37.4954893 ], [ -3.1711152, 37.4941188 ], [ -3.1715392, 37.4915313 ], [ -3.1718531, 37.4902599 ], [ -3.1719644, 37.4894755 ], [ -3.1719288, 37.4887095 ], [ -3.1706837, 37.4883507 ], [ -3.1692909, 37.4877308 ], [ -3.1672654, 37.4874091 ], [ -3.1669261, 37.4874276 ], [ -3.1658745, 37.4876273 ], [ -3.1653768, 37.4876461 ], [ -3.1649582, 37.4876016 ], [ -3.1646752, 37.4874848 ], [ -3.1642787, 37.487242 ], [ -3.1634521, 37.4868465 ], [ -3.162887, 37.4870636 ], [ -3.162276, 37.4869923 ], [ -3.1616653, 37.4870563 ], [ -3.1611566, 37.4871831 ], [ -3.1607273, 37.4874812 ], [ -3.1600495, 37.4878516 ], [ -3.1595068, 37.4880056 ], [ -3.1593144, 37.4879698 ], [ -3.1589969, 37.4875917 ], [ -3.1587254, 37.487592 ], [ -3.1580244, 37.4877462 ], [ -3.1574363, 37.487801 ], [ -3.1568819, 37.4877567 ], [ -3.1565308, 37.4875228 ], [ -3.1546289, 37.4867771 ], [ -3.1544028, 37.4868405 ], [ -3.1538719, 37.4871747 ], [ -3.1520534, 37.4885561 ], [ -3.1511276, 37.4894587 ], [ -3.1502015, 37.4901719 ], [ -3.1497938, 37.4899741 ], [ -3.1493298, 37.4898395 ], [ -3.1488773, 37.4898581 ], [ -3.1476337, 37.4902382 ], [ -3.1472265, 37.4902567 ], [ -3.1466493, 37.4900861 ], [ -3.1460492, 37.4898165 ], [ -3.1450312, 37.4898628 ], [ -3.1445781, 37.4895388 ], [ -3.1445099, 37.4893497 ], [ -3.1442718, 37.4890795 ], [ -3.1434677, 37.4885847 ], [ -3.1425279, 37.4880991 ], [ -3.1421542, 37.4878562 ], [ -3.1419499, 37.4874869 ], [ -3.1411796, 37.4869019 ], [ -3.1413598, 37.4865051 ], [ -3.1417429, 37.4856754 ], [ -3.1412444, 37.4852704 ], [ -3.1414588, 37.4849546 ], [ -3.1409037, 37.4845497 ], [ -3.1405753, 37.4843157 ], [ -3.1398272, 37.4834513 ], [ -3.1401774, 37.4832345 ], [ -3.141172, 37.4828007 ], [ -3.1405372, 37.4820443 ], [ -3.1391206, 37.4805857 ], [ -3.1387918, 37.4801084 ], [ -3.1383385, 37.4796312 ], [ -3.1374662, 37.478857 ], [ -3.137228, 37.4785238 ], [ -3.1372715, 37.4775232 ], [ -3.1373833, 37.4768381 ], [ -3.1382405, 37.475485 ], [ -3.1380577, 37.4744847 ], [ -3.1380914, 37.4743404 ], [ -3.1389487, 37.4731496 ], [ -3.1386978, 37.4720052 ], [ -3.1385389, 37.4716899 ], [ -3.1342955, 37.4702976 ], [ -3.1331524, 37.4698211 ], [ -3.1311503, 37.469607 ], [ -3.1306186, 37.4694905 ], [ -3.1301999, 37.4693286 ], [ -3.1298377, 37.4691217 ], [ -3.1290223, 37.4684736 ], [ -3.1278898, 37.4674653 ], [ -3.1272893, 37.4668169 ], [ -3.1272775, 37.4665466 ], [ -3.1273784, 37.4659515 ], [ -3.1274, 37.4654287 ], [ -3.1273094, 37.4653206 ], [ -3.1268342, 37.4651499 ], [ -3.1261894, 37.4649884 ], [ -3.1261894, 37.4649884 ], [ -3.1257943, 37.4654124 ], [ -3.1253093, 37.4662061 ], [ -3.1248008, 37.466432 ], [ -3.1241343, 37.4668563 ], [ -3.1237501, 37.467019 ], [ -3.1232863, 37.4669473 ], [ -3.1232863, 37.4669473 ], [ -3.1231052, 37.4668213 ], [ -3.1228899, 37.4665782 ], [ -3.1228325, 37.4665699 ], [ -3.1225167, 37.4665244 ], [ -3.1214655, 37.4668681 ], [ -3.1209014, 37.4677069 ], [ -3.120698, 37.4678013 ], [ -3.1205511, 37.4678695 ], [ -3.1205511, 37.4678695 ], [ -3.1200997, 37.4685189 ], [ -3.1202021, 37.4689244 ], [ -3.120078, 37.4690508 ], [ -3.119784, 37.4691051 ], [ -3.119784, 37.4691051 ], [ -3.1194344, 37.4697725 ], [ -3.1191406, 37.469899 ], [ -3.1186319, 37.4699896 ], [ -3.1182703, 37.4701792 ], [ -3.1174799, 37.4709642 ], [ -3.1171879, 37.4713449 ], [ -3.117051, 37.4715235 ], [ -3.1164976, 37.4720288 ], [ -3.1152326, 37.4731838 ], [ -3.1144425, 37.4742302 ], [ -3.1143975, 37.4743744 ], [ -3.1143976, 37.4743744 ], [ -3.1147215, 37.4744225 ], [ -3.1147596, 37.4744281 ], [ -3.1151782, 37.474572 ], [ -3.1153709, 37.4748422 ], [ -3.115326, 37.4750946 ], [ -3.1151226, 37.475239 ], [ -3.1141732, 37.4755824 ], [ -3.1136648, 37.4760516 ], [ -3.1131232, 37.4768634 ], [ -3.1128866, 37.4774495 ], [ -3.1128646, 37.4778912 ], [ -3.1130573, 37.4782065 ], [ -3.1130574, 37.4782065 ], [ -3.1134195, 37.4784044 ], [ -3.1136915, 37.4787197 ], [ -3.1138278, 37.4790981 ], [ -3.114067, 37.4802787 ], [ -3.1142823, 37.4804858 ], [ -3.1145651, 37.4805486 ], [ -3.1147577, 37.4807377 ], [ -3.1148939, 37.4810801 ], [ -3.1149945, 37.4811181 ], [ -3.1151316, 37.48117 ], [ -3.1155221, 37.481217 ], [ -3.1156519, 37.4812326 ], [ -3.1161047, 37.4814214 ], [ -3.1165013, 37.4819258 ], [ -3.116649, 37.4823223 ], [ -3.1166837, 37.482845 ], [ -3.1168427, 37.4832235 ], [ -3.1170692, 37.4834576 ], [ -3.1176431, 37.4836223 ], [ -3.1180085, 37.4837271 ], [ -3.1186991, 37.4841681 ], [ -3.1188918, 37.4844383 ], [ -3.1185081, 37.4850156 ], [ -3.1181916, 37.4851601 ], [ -3.117728, 37.4852236 ], [ -3.117728, 37.4852236 ], [ -3.1163256, 37.4853061 ], [ -3.1163255, 37.4853061 ], [ -3.1155904, 37.485415 ], [ -3.1153532, 37.4856315 ], [ -3.1151388, 37.4859292 ], [ -3.1151387, 37.4859292 ], [ -3.1148216, 37.4856681 ], [ -3.1145614, 37.4856053 ], [ -3.1143013, 37.4856506 ], [ -3.1138042, 37.4860567 ], [ -3.113488, 37.4864356 ], [ -3.113364, 37.4867241 ], [ -3.1133987, 37.4871748 ], [ -3.1133425, 37.4874452 ], [ -3.1131277, 37.4875536 ], [ -3.1127207, 37.4876621 ], [ -3.1127206, 37.4876621 ], [ -3.1122912, 37.4879419 ], [ -3.1119753, 37.4884921 ], [ -3.1119753, 37.4884921 ], [ -3.1118745, 37.4891682 ], [ -3.1118978, 37.4896729 ], [ -3.1121251, 37.4904028 ], [ -3.1127729, 37.4910955 ], [ -3.1130769, 37.4914205 ], [ -3.1132823, 37.4927002 ], [ -3.113227, 37.4935296 ], [ -3.1131036, 37.4941606 ], [ -3.1131606, 37.4944761 ], [ -3.1133422, 37.4949265 ], [ -3.1133654, 37.4952601 ], [ -3.1131734, 37.4954765 ], [ -3.1131574, 37.495476 ], [ -3.1124154, 37.4954501 ], [ -3.1120762, 37.4956128 ], [ -3.1118164, 37.4958654 ], [ -3.1116925, 37.4962712 ], [ -3.111682, 37.4967849 ], [ -3.1115695, 37.4972717 ], [ -3.1106329, 37.498859 ], [ -3.1107468, 37.4994267 ], [ -3.1107358, 37.4996341 ], [ -3.1105664, 37.4998416 ], [ -3.1105328, 37.5000939 ], [ -3.110748, 37.500256 ], [ -3.1108274, 37.5003912 ], [ -3.1106807, 37.5006617 ], [ -3.1098103, 37.5011763 ], [ -3.1097321, 37.5017893 ], [ -3.1097557, 37.5025374 ], [ -3.1097122, 37.5037543 ], [ -3.1096107, 37.5039887 ], [ -3.109396, 37.5041422 ], [ -3.1090793, 37.5042326 ], [ -3.1090793, 37.5042326 ], [ -3.1084903, 37.5037554 ], [ -3.1083256, 37.5037146 ], [ -3.1081281, 37.5036656 ], [ -3.1074719, 37.5036842 ], [ -3.1010703, 37.5053573 ], [ -3.1002334, 37.5056915 ], [ -3.0998493, 37.5060884 ], [ -3.0998386, 37.506503 ], [ -3.0999747, 37.5068454 ], [ -3.1005073, 37.5074489 ], [ -3.1007908, 37.5078903 ], [ -3.1009497, 37.5082597 ], [ -3.101018, 37.5085932 ], [ -3.1009847, 37.5090259 ], [ -3.1009283, 37.5092333 ], [ -3.1008945, 37.5093144 ], [ -3.1006459, 37.509567 ], [ -3.1002051, 37.5098919 ], [ -3.0998884, 37.5100093 ], [ -3.0994927, 37.5103071 ], [ -3.1003416, 37.5105227 ], [ -3.1008287, 37.5108648 ], [ -3.1013838, 37.5113601 ], [ -3.1021205, 37.5122969 ], [ -3.1023701, 37.5127654 ], [ -3.1027796, 37.5143514 ], [ -3.1029383, 37.5145677 ], [ -3.103516, 37.5149998 ], [ -3.1037654, 37.5153511 ], [ -3.1039357, 37.5157205 ], [ -3.103903, 37.5166219 ], [ -3.1036436, 37.5173342 ], [ -3.1031808, 37.5181458 ], [ -3.1025143, 37.5190388 ], [ -3.1022882, 37.5192282 ], [ -3.1028095, 37.5197596 ], [ -3.1029688, 37.5203905 ], [ -3.1029919, 37.5207059 ], [ -3.102494, 37.5207424 ], [ -3.101611, 37.5205178 ], [ -3.1013395, 37.5206532 ], [ -3.1010001, 37.5207436 ], [ -3.1006494, 37.5207799 ], [ -3.1003664, 37.5207081 ], [ -3.1001851, 37.520564 ], [ -3.100117, 37.5203478 ], [ -3.1001619, 37.5201044 ], [ -3.100241, 37.5200142 ], [ -3.0994937, 37.5197624 ], [ -3.0990067, 37.5194473 ], [ -3.0980096, 37.5185017 ], [ -3.0978511, 37.5184207 ], [ -3.0976361, 37.5184299 ], [ -3.0966859, 37.5187191 ], [ -3.0957246, 37.5191525 ], [ -3.0949103, 37.5196038 ], [ -3.0922647, 37.521643 ], [ -3.0913604, 37.522536 ], [ -3.0907838, 37.5229691 ], [ -3.0896639, 37.5234296 ], [ -3.0887932, 37.5240162 ], [ -3.0866658, 37.5242431 ], [ -3.0855454, 37.5242619 ], [ -3.083859, 37.5241459 ], [ -3.0829296, 37.5228936 ], [ -3.0723586, 37.5220531 ], [ -3.0686467, 37.5219831 ], [ -3.0608028, 37.5202837 ], [ -3.0595707, 37.5221591 ], [ -3.0566437, 37.527812 ], [ -3.0602026, 37.5342551 ], [ -3.0591725, 37.5341565 ], [ -3.0585959, 37.53504 ], [ -3.0583359, 37.535608 ], [ -3.058065, 37.5365997 ], [ -3.0581109, 37.5373207 ], [ -3.0580327, 37.538835 ], [ -3.0567542, 37.5395928 ], [ -3.0565283, 37.5401427 ], [ -3.0556908, 37.5403684 ], [ -3.0551249, 37.540585 ], [ -3.0548093, 37.5425141 ], [ -3.0549793, 37.5428115 ], [ -3.0549797, 37.5432531 ], [ -3.054776, 37.5434245 ], [ -3.0545949, 37.5434966 ], [ -3.0540971, 37.5438574 ], [ -3.053984, 37.5439927 ], [ -3.0540181, 37.544218 ], [ -3.054222, 37.5444433 ], [ -3.0542901, 37.5446505 ], [ -3.0530007, 37.5462735 ], [ -3.0532051, 37.5471568 ], [ -3.0536697, 37.5478867 ], [ -3.0540323, 37.5483102 ], [ -3.0544853, 37.5486434 ], [ -3.0538968, 37.5489141 ], [ -3.0532068, 37.5496445 ], [ -3.0531164, 37.549942 ], [ -3.0532525, 37.5503025 ], [ -3.0542265, 37.550915 ], [ -3.0541928, 37.5512846 ], [ -3.0543289, 37.5516721 ], [ -3.054601, 37.5521497 ], [ -3.0549409, 37.5525101 ], [ -3.0554166, 37.5528073 ], [ -3.0560507, 37.5529062 ], [ -3.0562207, 37.5531044 ], [ -3.0563909, 37.5536181 ], [ -3.0566061, 37.5537622 ], [ -3.0569119, 37.5538522 ], [ -3.0561308, 37.5540238 ], [ -3.0553272, 37.5543938 ], [ -3.0547044, 37.5543399 ], [ -3.0541611, 37.5545385 ], [ -3.0535388, 37.5550165 ], [ -3.0532784, 37.5551338 ], [ -3.0532675, 37.5556385 ], [ -3.0531771, 37.5558098 ], [ -3.0530526, 37.555909 ], [ -3.0525885, 37.5561345 ], [ -3.0525208, 37.5564591 ], [ -3.0526229, 37.5566303 ], [ -3.05294, 37.5568825 ], [ -3.0518872, 37.5570633 ], [ -3.0504497, 37.557794 ], [ -3.049918, 37.5584161 ], [ -3.049805, 37.5586776 ], [ -3.0499297, 37.558957 ], [ -3.0499072, 37.5592454 ], [ -3.049398, 37.5596602 ], [ -3.049149, 37.5597955 ], [ -3.0489904, 37.5597776 ], [ -3.048787, 37.5602824 ], [ -3.0473611, 37.5615629 ], [ -3.0470671, 37.562185 ], [ -3.0470333, 37.5624824 ], [ -3.0472032, 37.5626536 ], [ -3.04786, 37.5626533 ], [ -3.0478149, 37.5629599 ], [ -3.0476452, 37.5632123 ], [ -3.0474189, 37.5633746 ], [ -3.0471698, 37.5634468 ], [ -3.0469659, 37.5634379 ], [ -3.0468981, 37.5636092 ], [ -3.046717, 37.5637805 ], [ -3.0454944, 37.5642046 ], [ -3.0444076, 37.5646917 ], [ -3.0441815, 37.5652777 ], [ -3.0440344, 37.565431 ], [ -3.0437967, 37.5655212 ], [ -3.0414755, 37.5657203 ], [ -3.041102, 37.5660539 ], [ -3.0404569, 37.5667752 ], [ -3.0404909, 37.5669375 ], [ -3.0406495, 37.5670096 ], [ -3.0407514, 37.5671267 ], [ -3.0407289, 37.5672889 ], [ -3.0404912, 37.5674873 ], [ -3.0403667, 37.5676586 ], [ -3.0406274, 37.568019 ], [ -3.0386685, 37.5679926 ], [ -3.0377626, 37.5682723 ], [ -3.0377741, 37.5685247 ], [ -3.0379554, 37.5688672 ], [ -3.038318, 37.5692096 ], [ -3.0385898, 37.5693717 ], [ -3.0391336, 37.5698583 ], [ -3.0394055, 37.5700205 ], [ -3.0398698, 37.5701916 ], [ -3.0403117, 37.5705159 ], [ -3.0407083, 37.5709304 ], [ -3.0409802, 37.571354 ], [ -3.0410936, 37.5716875 ], [ -3.0412524, 37.5719398 ], [ -3.0416261, 37.5719397 ], [ -3.0419772, 37.5720748 ], [ -3.0424757, 37.5725433 ], [ -3.0426684, 37.5728046 ], [ -3.0429855, 37.5729127 ], [ -3.0436651, 37.5729215 ], [ -3.0446501, 37.5727048 ], [ -3.0450238, 37.5725875 ], [ -3.0457603, 37.5731911 ], [ -3.0462021, 37.5734163 ], [ -3.0467683, 37.5735423 ], [ -3.0472327, 37.5735421 ], [ -3.048161, 37.5731902 ], [ -3.0492256, 37.5731447 ], [ -3.0498484, 37.5730724 ], [ -3.0509127, 37.5726844 ], [ -3.0511957, 37.5726392 ], [ -3.0521132, 37.5728821 ], [ -3.052838, 37.573008 ], [ -3.0537443, 37.5734223 ], [ -3.0542653, 37.5735212 ], [ -3.0556585, 37.5739172 ], [ -3.0560664, 37.5741513 ], [ -3.0568711, 37.5748992 ], [ -3.0592395, 37.5769441 ], [ -3.0597724, 37.5776829 ], [ -3.0601691, 37.5780433 ], [ -3.0625937, 37.5792859 ], [ -3.0632848, 37.579574 ] ] ] } }
]
}
