{
"type": "FeatureCollection",
"name": "19001",
"features": [
{ "type": "Feature", "properties": { "CCAA": "08 - Castilla-La Mancha", "PROVINCIA": "19 - Guadalajara", "MUNICIPIO": "19001 - Abánades", "COD_MUNICIPIO": "19001", "DISTRITO": "01", "SECCION": "1900101001", "V1_H": 75.48, "V1_M": 82.31, "V2_H": 75.36985678000001, "V2_M": 82.56533706, "V3_H": 75.8600571, "V3_M": 82.01450712 }, "geometry": { "type": "Polygon", "coordinates": [ [ [ -2.4380432, 40.9110927 ], [ -2.4423902, 40.9138073 ], [ -2.4457974, 40.9139138 ], [ -2.4519861, 40.9136822 ], [ -2.4531588, 40.9140301 ], [ -2.4538217, 40.9142945 ], [ -2.4542841, 40.9143777 ], [ -2.4576106, 40.9141953 ], [ -2.4594034, 40.9142307 ], [ -2.4612191, 40.9143743 ], [ -2.4629861, 40.9146619 ], [ -2.4655349, 40.9151962 ], [ -2.4685174, 40.9149848 ], [ -2.4704756, 40.9151199 ], [ -2.4715802, 40.9150979 ], [ -2.4728045, 40.9149504 ], [ -2.4763919, 40.9148046 ], [ -2.4785857, 40.9136885 ], [ -2.480135, 40.9129839 ], [ -2.4846974, 40.9111307 ], [ -2.4848166, 40.9110681 ], [ -2.4875947, 40.9096031 ], [ -2.4903239, 40.908291 ], [ -2.4907186, 40.9079234 ], [ -2.4919111, 40.9088025 ], [ -2.4979468, 40.906739 ], [ -2.4993024, 40.9064746 ], [ -2.5021482, 40.905397 ], [ -2.5022555, 40.9053344 ], [ -2.5030786, 40.9048335 ], [ -2.5054997, 40.90497 ], [ -2.5066876, 40.904894 ], [ -2.5070569, 40.9015355 ], [ -2.5052609, 40.9003837 ], [ -2.502056, 40.9002799 ], [ -2.5014537, 40.8982774 ], [ -2.5015038, 40.8979263 ], [ -2.5023156, 40.8957498 ], [ -2.5028582, 40.894635 ], [ -2.5043283, 40.8917137 ], [ -2.5077506, 40.8880439 ], [ -2.5082292, 40.8875325 ], [ -2.5080724, 40.8846672 ], [ -2.506561, 40.8835977 ], [ -2.5052251, 40.8828803 ], [ -2.5027569, 40.8812121 ], [ -2.5006574, 40.8794554 ], [ -2.4983436, 40.8778148 ], [ -2.4993689, 40.8771977 ], [ -2.5026931, 40.8754735 ], [ -2.5040029, 40.8748936 ], [ -2.504992, 40.8743484 ], [ -2.5060041, 40.8738932 ], [ -2.5061901, 40.8728311 ], [ -2.5061959, 40.8720384 ], [ -2.5051997, 40.8703675 ], [ -2.5046503, 40.8692482 ], [ -2.5040396, 40.8683897 ], [ -2.5032627, 40.8675576 ], [ -2.5027225, 40.8667986 ], [ -2.5011987, 40.8642967 ], [ -2.501229, 40.8634139 ], [ -2.5008427, 40.8611331 ], [ -2.5003951, 40.8575368 ], [ -2.5004677, 40.8557805 ], [ -2.5003785, 40.8550144 ], [ -2.500022, 40.8534995 ], [ -2.4998979, 40.8526521 ], [ -2.4998413, 40.8522915 ], [ -2.4997946, 40.8506248 ], [ -2.4996487, 40.8495161 ], [ -2.4990552, 40.8479821 ], [ -2.4977809, 40.8455082 ], [ -2.4962424, 40.8450151 ], [ -2.4892664, 40.846669 ], [ -2.4870049, 40.8476408 ], [ -2.4855161, 40.8484089 ], [ -2.4836809, 40.8494817 ], [ -2.4824225, 40.8511156 ], [ -2.4823148, 40.8512412 ], [ -2.4805666, 40.8532873 ], [ -2.4770798, 40.8576496 ], [ -2.4766985, 40.8578641 ], [ -2.4758419, 40.8581665 ], [ -2.469509, 40.8607589 ], [ -2.467511, 40.8613353 ], [ -2.4669986, 40.8616032 ], [ -2.4652207, 40.8628471 ], [ -2.464612, 40.8632767 ], [ -2.4640053, 40.863472 ], [ -2.458084, 40.8649487 ], [ -2.4566564, 40.8654014 ], [ -2.4527332, 40.8662927 ], [ -2.4516201, 40.8674405 ], [ -2.4494097, 40.8692677 ], [ -2.4478641, 40.8696206 ], [ -2.4475906, 40.8696914 ], [ -2.4414394, 40.8715806 ], [ -2.4380939, 40.8742577 ], [ -2.4343454, 40.8768519 ], [ -2.4328291, 40.8778984 ], [ -2.4307166, 40.8792752 ], [ -2.430178, 40.8797951 ], [ -2.4296715, 40.8807294 ], [ -2.4289985, 40.881708 ], [ -2.4276324, 40.8832057 ], [ -2.4254756, 40.8841858 ], [ -2.4229834, 40.8855066 ], [ -2.4209452, 40.8864783 ], [ -2.4181903, 40.8879598 ], [ -2.4185146, 40.8888802 ], [ -2.4195049, 40.8910113 ], [ -2.4209775, 40.8936581 ], [ -2.4244393, 40.8982967 ], [ -2.4259801, 40.8999709 ], [ -2.4272409, 40.9010763 ], [ -2.4277014, 40.9013668 ], [ -2.4282444, 40.9017299 ], [ -2.4331479, 40.9045016 ], [ -2.4346504, 40.9051396 ], [ -2.4378054, 40.908326 ], [ -2.4378161, 40.9084611 ], [ -2.4377958, 40.9108662 ], [ -2.4380432, 40.9110927 ] ] ] } }
]
}
