{
"type": "FeatureCollection",
"name": "19053",
"features": [
{ "type": "Feature", "properties": { "CCAA": "08 - Castilla-La Mancha", "PROVINCIA": "19 - Guadalajara", "MUNICIPIO": "19053 - Brihuega", "COD_MUNICIPIO": "19053", "DISTRITO": "01", "SECCION": "1905301001", "V1_H": 80.34, "V1_M": 85.99, "V2_H": 80.22806877, "V2_M": 85.94669411, "V3_H": 80.64200885, "V3_M": 86.09540763 }, "geometry": { "type": "Polygon", "coordinates": [ [ [ -2.7533792, 40.8697608 ], [ -2.7533793, 40.8697608 ], [ -2.7556158, 40.8682612 ], [ -2.7578157, 40.8670227 ], [ -2.7591568, 40.8669264 ], [ -2.7591569, 40.8669264 ], [ -2.761577, 40.8670936 ], [ -2.7615771, 40.8670936 ], [ -2.7626097, 40.8670057 ], [ -2.7626098, 40.8670057 ], [ -2.764879, 40.8662266 ], [ -2.7648791, 40.8662266 ], [ -2.7656275, 40.8659669 ], [ -2.7656276, 40.8659669 ], [ -2.7671354, 40.8657267 ], [ -2.7670546, 40.8650869 ], [ -2.7670546, 40.8650869 ], [ -2.7696669, 40.8645787 ], [ -2.7699057, 40.8641648 ], [ -2.771192, 40.8627981 ], [ -2.7719297, 40.862178 ], [ -2.7728917, 40.8619277 ], [ -2.7741628, 40.8615067 ], [ -2.7755308, 40.8605005 ], [ -2.7793894, 40.8562289 ], [ -2.7803594, 40.8535102 ], [ -2.7815644, 40.8514676 ], [ -2.7829134, 40.8489208 ], [ -2.7822904, 40.8471539 ], [ -2.782399, 40.8471406 ], [ -2.7831567, 40.8470475 ], [ -2.7831567, 40.8470474 ], [ -2.7831568, 40.8470474 ], [ -2.7837889, 40.8460127 ], [ -2.7844435, 40.8453383 ], [ -2.7851331, 40.8448531 ], [ -2.7872357, 40.8439471 ], [ -2.7884821, 40.8436612 ], [ -2.7884822, 40.8436612 ], [ -2.7891583, 40.8436534 ], [ -2.7891584, 40.8436534 ], [ -2.7925133, 40.8443352 ], [ -2.7928811, 40.8443088 ], [ -2.7928811, 40.8443088 ], [ -2.7935479, 40.8435262 ], [ -2.7939293, 40.8429324 ], [ -2.7935075, 40.8374635 ], [ -2.7934649, 40.8358869 ], [ -2.7946894, 40.8349702 ], [ -2.7969712, 40.8335239 ], [ -2.7970306, 40.833479 ], [ -2.8045891, 40.8283032 ], [ -2.8070837, 40.8269381 ], [ -2.8079985, 40.8263451 ], [ -2.8079985, 40.8263451 ], [ -2.8094608, 40.8251224 ], [ -2.8122671, 40.8224334 ], [ -2.8134795, 40.8214175 ], [ -2.8151433, 40.8201409 ], [ -2.8166758, 40.8191345 ], [ -2.8255585, 40.8141936 ], [ -2.8255586, 40.8141936 ], [ -2.8270998, 40.814259 ], [ -2.8270998, 40.814259 ], [ -2.8305882, 40.8133453 ], [ -2.8325215, 40.8130599 ], [ -2.8325216, 40.8130598 ], [ -2.833233, 40.8130429 ], [ -2.833233, 40.8130429 ], [ -2.8355332, 40.8130552 ], [ -2.8355332, 40.8130552 ], [ -2.837003, 40.8132465 ], [ -2.8403697, 40.8135125 ], [ -2.8403698, 40.8135125 ], [ -2.8428231, 40.8139123 ], [ -2.8453117, 40.8145372 ], [ -2.8453117, 40.8145372 ], [ -2.8465681, 40.8147371 ], [ -2.8465682, 40.8147371 ], [ -2.8492834, 40.8147857 ], [ -2.8501716, 40.8152013 ], [ -2.8501717, 40.8152013 ], [ -2.8512612, 40.8158153 ], [ -2.8519881, 40.8194504 ], [ -2.852, 40.8195097 ], [ -2.85422, 40.8183505 ], [ -2.8580186, 40.8164454 ], [ -2.8598107, 40.8156729 ], [ -2.8608034, 40.8157126 ], [ -2.8609726, 40.8157194 ], [ -2.8609726, 40.8157194 ], [ -2.8657283, 40.8152746 ], [ -2.8657284, 40.8152746 ], [ -2.8670689, 40.8148798 ], [ -2.8695718, 40.8143512 ], [ -2.8695719, 40.8143512 ], [ -2.8712439, 40.814281 ], [ -2.871244, 40.814281 ], [ -2.8738884, 40.8140497 ], [ -2.8738885, 40.8140497 ], [ -2.8748028, 40.813366 ], [ -2.8769505, 40.8125396 ], [ -2.8791095, 40.8119293 ], [ -2.8799663, 40.8102186 ], [ -2.8843545, 40.8094394 ], [ -2.8843545, 40.8094394 ], [ -2.8877694, 40.8092356 ], [ -2.8877695, 40.8092356 ], [ -2.8899282, 40.8086881 ], [ -2.8899282, 40.8086881 ], [ -2.8909592, 40.8089774 ], [ -2.8909593, 40.8089774 ], [ -2.8914228, 40.8082572 ], [ -2.8918493, 40.8084648 ], [ -2.892384, 40.8077356 ], [ -2.8956584, 40.8063423 ], [ -2.9012468, 40.8035276 ], [ -2.9040018, 40.8003409 ], [ -2.90469, 40.799801 ], [ -2.9046901, 40.799801 ], [ -2.9053544, 40.7994682 ], [ -2.9076788, 40.7988305 ], [ -2.9087696, 40.7986332 ], [ -2.9094816, 40.7981563 ], [ -2.9098496, 40.7977783 ], [ -2.9099453, 40.7971297 ], [ -2.9095909, 40.7962826 ], [ -2.9066906, 40.7934876 ], [ -2.9084459, 40.7928044 ], [ -2.909596, 40.7925531 ], [ -2.9113027, 40.7926355 ], [ -2.9120619, 40.7921586 ], [ -2.9121, 40.7902759 ], [ -2.9114251, 40.7897348 ], [ -2.9102407, 40.7891303 ], [ -2.9098035, 40.788067 ], [ -2.911203, 40.7874465 ], [ -2.9137049, 40.7866466 ], [ -2.9151631, 40.7863415 ], [ -2.9160402, 40.7863421 ], [ -2.9178535, 40.7863614 ], [ -2.919678, 40.7870023 ], [ -2.9203287, 40.7879217 ], [ -2.9212524, 40.788679 ], [ -2.9233614, 40.789293 ], [ -2.9244283, 40.7891676 ], [ -2.9258158, 40.7885109 ], [ -2.9263497, 40.7880338 ], [ -2.9279641, 40.7858188 ], [ -2.9284153, 40.7850533 ], [ -2.9300403, 40.7837931 ], [ -2.9306574, 40.7830998 ], [ -2.936029, 40.7801662 ], [ -2.9376178, 40.7793653 ], [ -2.9384243, 40.7787081 ], [ -2.94522, 40.7725227 ], [ -2.9468205, 40.7715235 ], [ -2.9484329, 40.7703621 ], [ -2.9493457, 40.7698671 ], [ -2.9501042, 40.7696242 ], [ -2.9510048, 40.7695345 ], [ -2.9538721, 40.769878 ], [ -2.9556023, 40.7695364 ], [ -2.9593115, 40.7689883 ], [ -2.96071, 40.7684392 ], [ -2.9638272, 40.7667196 ], [ -2.9653798, 40.7659634 ], [ -2.9665764, 40.7661619 ], [ -2.9677498, 40.7654866 ], [ -2.9685912, 40.7650905 ], [ -2.9727394, 40.7620197 ], [ -2.9733203, 40.761209 ], [ -2.9758091, 40.7592097 ], [ -2.9777171, 40.7576786 ], [ -2.9806676, 40.7556072 ], [ -2.9824449, 40.7545444 ], [ -2.9833335, 40.7541032 ], [ -2.986035, 40.7517793 ], [ -2.9864737, 40.7501488 ], [ -2.9877658, 40.7453293 ], [ -2.9873161, 40.7433564 ], [ -2.9870674, 40.7427798 ], [ -2.9857886, 40.741095 ], [ -2.9850782, 40.7403202 ], [ -2.9842612, 40.739149 ], [ -2.9808638, 40.7332838 ], [ -2.9805917, 40.7324369 ], [ -2.9804852, 40.7316982 ], [ -2.9801302, 40.7310495 ], [ -2.9775849, 40.72895 ], [ -2.9745308, 40.7259765 ], [ -2.9736784, 40.7253186 ], [ -2.9709911, 40.7239757 ], [ -2.9679842, 40.7223172 ], [ -2.9666715, 40.7191278 ], [ -2.9660104, 40.715371 ], [ -2.9657385, 40.714443 ], [ -2.9651234, 40.7134608 ], [ -2.9633957, 40.7119288 ], [ -2.9629932, 40.7118746 ], [ -2.9618804, 40.7117571 ], [ -2.9612178, 40.7110722 ], [ -2.9605787, 40.7108197 ], [ -2.9593241, 40.7103328 ], [ -2.9589812, 40.709558 ], [ -2.9586392, 40.7076029 ], [ -2.9542493, 40.7045473 ], [ -2.9520719, 40.7035554 ], [ -2.9503326, 40.7024646 ], [ -2.9497054, 40.7021851 ], [ -2.9458824, 40.7015887 ], [ -2.9417283, 40.7008119 ], [ -2.9355731, 40.7007365 ], [ -2.932267, 40.7007286 ], [ -2.9306253, 40.7007246 ], [ -2.9306252, 40.7007246 ], [ -2.9288188, 40.699508 ], [ -2.9281887, 40.6990836 ], [ -2.9281886, 40.6990835 ], [ -2.9273134, 40.6983803 ], [ -2.9275154, 40.6977138 ], [ -2.9281434, 40.6971106 ], [ -2.9285712, 40.6955343 ], [ -2.9305137, 40.6942022 ], [ -2.9295449, 40.6925711 ], [ -2.9295103, 40.6917242 ], [ -2.9289795, 40.6899942 ], [ -2.9284359, 40.6892912 ], [ -2.9282713, 40.6883181 ], [ -2.9284258, 40.6876876 ], [ -2.9277049, 40.6867322 ], [ -2.929198, 40.6849494 ], [ -2.9297314, 40.6841209 ], [ -2.9301345, 40.6833464 ], [ -2.9303719, 40.6826799 ], [ -2.9305624, 40.681572 ], [ -2.9310009, 40.6809236 ], [ -2.9329074, 40.6796815 ], [ -2.9340087, 40.6788354 ], [ -2.9344232, 40.6784393 ], [ -2.9349935, 40.6782028 ], [ -2.9355952, 40.6779534 ], [ -2.9372048, 40.6775219 ], [ -2.9372049, 40.6775218 ], [ -2.9387909, 40.6771714 ], [ -2.9384246, 40.6764865 ], [ -2.9383186, 40.676036 ], [ -2.9384136, 40.6756216 ], [ -2.9389825, 40.674685 ], [ -2.9383086, 40.6740631 ], [ -2.93754, 40.6734681 ], [ -2.9382635, 40.6716487 ], [ -2.9384303, 40.6703245 ], [ -2.9396025, 40.6694693 ], [ -2.9404428, 40.6690823 ], [ -2.9404428, 40.6690823 ], [ -2.9418982, 40.6689209 ], [ -2.9409763, 40.6678394 ], [ -2.940882, 40.667515 ], [ -2.9410009, 40.6668935 ], [ -2.9410009, 40.6668214 ], [ -2.9409556, 40.6645512 ], [ -2.9409556, 40.6645512 ], [ -2.9396083, 40.6629829 ], [ -2.9407456, 40.6611998 ], [ -2.9409827, 40.6606323 ], [ -2.9410065, 40.6605693 ], [ -2.9415286, 40.6587137 ], [ -2.9419198, 40.657786 ], [ -2.9415304, 40.6565966 ], [ -2.9416019, 40.6560021 ], [ -2.941555, 40.6555246 ], [ -2.9412602, 40.6545875 ], [ -2.9424922, 40.6523269 ], [ -2.9423632, 40.6511557 ], [ -2.9431561, 40.6506246 ], [ -2.9437954, 40.6500123 ], [ -2.9438573, 40.6466881 ], [ -2.9439404, 40.6462737 ], [ -2.9443788, 40.6453099 ], [ -2.9445804, 40.6446885 ], [ -2.9447463, 40.6442471 ], [ -2.9446878, 40.6434903 ], [ -2.9446878, 40.6434903 ], [ -2.943577, 40.6423817 ], [ -2.943577, 40.6423816 ], [ -2.9431043, 40.641976 ], [ -2.9414611, 40.6412004 ], [ -2.9414611, 40.6412004 ], [ -2.9414019, 40.6411734 ], [ -2.9403852, 40.6408666 ], [ -2.9403851, 40.6408666 ], [ -2.93951, 40.6408841 ], [ -2.9395099, 40.6408841 ], [ -2.939238, 40.640893 ], [ -2.9392379, 40.640893 ], [ -2.9381262, 40.6410275 ], [ -2.9381261, 40.6410275 ], [ -2.9356072, 40.640945 ], [ -2.9346372, 40.6411157 ], [ -2.9339511, 40.6413675 ], [ -2.9335369, 40.6415745 ], [ -2.9334304, 40.6416285 ], [ -2.933402, 40.641627 ], [ -2.9332531, 40.6416194 ], [ -2.933253, 40.6416194 ], [ -2.9331704, 40.6415382 ], [ -2.933277, 40.6414392 ], [ -2.9337031, 40.6410701 ], [ -2.9338571, 40.6407549 ], [ -2.9338338, 40.6403675 ], [ -2.9337042, 40.639998 ], [ -2.9323708, 40.6387655 ], [ -2.931861, 40.6382943 ], [ -2.931861, 40.6382942 ], [ -2.9318729, 40.6381502 ], [ -2.9323348, 40.6375288 ], [ -2.9322169, 40.6371774 ], [ -2.9315314, 40.6367265 ], [ -2.9313025, 40.6366558 ], [ -2.9310349, 40.6365731 ], [ -2.9307869, 40.6362846 ], [ -2.9305866, 40.6356089 ], [ -2.9305865, 40.6356088 ], [ -2.9302964, 40.6354847 ], [ -2.9293218, 40.6350676 ], [ -2.9291209, 40.6349053 ], [ -2.9290148, 40.6346169 ], [ -2.9283883, 40.6342832 ], [ -2.9282941, 40.6340039 ], [ -2.9283892, 40.6334904 ], [ -2.9281888, 40.6330128 ], [ -2.927173, 40.6318861 ], [ -2.9268186, 40.6316066 ], [ -2.9257312, 40.6311915 ], [ -2.925223, 40.6308938 ], [ -2.924503, 40.6297763 ], [ -2.9234283, 40.6286314 ], [ -2.9224478, 40.627829 ], [ -2.9224477, 40.627829 ], [ -2.9213253, 40.6271436 ], [ -2.9213252, 40.6271435 ], [ -2.9185602, 40.6256642 ], [ -2.9162448, 40.6240319 ], [ -2.9145781, 40.6237514 ], [ -2.9124873, 40.6222273 ], [ -2.9124917, 40.618885 ], [ -2.9113703, 40.6176861 ], [ -2.9113702, 40.617686 ], [ -2.9113701, 40.617686 ], [ -2.91137, 40.617686 ], [ -2.91137, 40.6176861 ], [ -2.9070043, 40.6200699 ], [ -2.9034449, 40.6206706 ], [ -2.9034448, 40.6206706 ], [ -2.9015405, 40.6212996 ], [ -2.8990455, 40.6215226 ], [ -2.8990455, 40.6215226 ], [ -2.8980873, 40.6219092 ], [ -2.8953536, 40.6235013 ], [ -2.8941941, 40.6240678 ], [ -2.894194, 40.6240679 ], [ -2.8908934, 40.6252629 ], [ -2.8889654, 40.6256755 ], [ -2.8889654, 40.6256755 ], [ -2.8855824, 40.6265281 ], [ -2.8852904, 40.6267911 ], [ -2.8850132, 40.6270407 ], [ -2.8833443, 40.6285438 ], [ -2.8817456, 40.6298665 ], [ -2.880858, 40.630298 ], [ -2.880985, 40.6307737 ], [ -2.8818682, 40.6340828 ], [ -2.8818682, 40.6340828 ], [ -2.8782466, 40.6357907 ], [ -2.8782465, 40.6357907 ], [ -2.8765906, 40.6360141 ], [ -2.8765906, 40.6360141 ], [ -2.8756388, 40.6386707 ], [ -2.8745934, 40.6415885 ], [ -2.8739412, 40.6425697 ], [ -2.8739412, 40.6425697 ], [ -2.8736679, 40.6432 ], [ -2.8735366, 40.6438846 ], [ -2.8733907, 40.6460195 ], [ -2.8715842, 40.650531 ], [ -2.871354, 40.6533595 ], [ -2.8711869, 40.654152 ], [ -2.8697021, 40.6573575 ], [ -2.8685768, 40.658113 ], [ -2.8680674, 40.6584457 ], [ -2.8683363, 40.6601127 ], [ -2.8662717, 40.6631913 ], [ -2.8659024, 40.6645062 ], [ -2.865225, 40.6660278 ], [ -2.8647738, 40.6668021 ], [ -2.8643225, 40.6676394 ], [ -2.8637751, 40.6691792 ], [ -2.8636907, 40.6699718 ], [ -2.8623484, 40.6698203 ], [ -2.8615143, 40.669726 ], [ -2.8552703, 40.668304 ], [ -2.8542301, 40.6678342 ], [ -2.8524311, 40.6681743 ], [ -2.8513626, 40.6684547 ], [ -2.8503475, 40.6687211 ], [ -2.8485949, 40.6694305 ], [ -2.8462494, 40.6706706 ], [ -2.8453731, 40.6710028 ], [ -2.8453731, 40.6710028 ], [ -2.8453657, 40.6710027 ], [ -2.8446395, 40.6709928 ], [ -2.8419211, 40.6705781 ], [ -2.8414817, 40.670511 ], [ -2.8414816, 40.670511 ], [ -2.8401218, 40.6701938 ], [ -2.8381354, 40.6696505 ], [ -2.8381353, 40.6696505 ], [ -2.837414, 40.6695414 ], [ -2.8374139, 40.6695414 ], [ -2.8349529, 40.6695739 ], [ -2.8349529, 40.669574 ], [ -2.8337224, 40.6695902 ], [ -2.8337224, 40.6695902 ], [ -2.8336179, 40.6695855 ], [ -2.8318532, 40.6695064 ], [ -2.8311437, 40.6693702 ], [ -2.8307245, 40.6692407 ], [ -2.830529, 40.6691802 ], [ -2.8297375, 40.6686655 ], [ -2.8288635, 40.6681057 ], [ -2.8288634, 40.6681057 ], [ -2.8280707, 40.6681135 ], [ -2.8280707, 40.6681135 ], [ -2.8275503, 40.6680587 ], [ -2.8270685, 40.6668058 ], [ -2.8264789, 40.6660661 ], [ -2.8249777, 40.6655774 ], [ -2.8245799, 40.6654869 ], [ -2.8239016, 40.6653325 ], [ -2.8227064, 40.6654838 ], [ -2.8227063, 40.6654838 ], [ -2.8216285, 40.6659596 ], [ -2.8193458, 40.6657309 ], [ -2.8166861, 40.6648708 ], [ -2.8155065, 40.6636798 ], [ -2.8126967, 40.6615852 ], [ -2.811429, 40.6612737 ], [ -2.8105569, 40.6610594 ], [ -2.8096702, 40.6608415 ], [ -2.8076025, 40.6599913 ], [ -2.8076024, 40.6599913 ], [ -2.8047037, 40.6601486 ], [ -2.8047037, 40.6601486 ], [ -2.7996639, 40.6602841 ], [ -2.7996638, 40.6602841 ], [ -2.7987758, 40.6605258 ], [ -2.7944857, 40.6630046 ], [ -2.7932058, 40.6637501 ], [ -2.7927723, 40.6661997 ], [ -2.7931135, 40.6668219 ], [ -2.793137, 40.666867 ], [ -2.7933926, 40.6683809 ], [ -2.7935802, 40.6689127 ], [ -2.794203, 40.6703282 ], [ -2.7952621, 40.6722039 ], [ -2.7970644, 40.6748106 ], [ -2.7996579, 40.6780223 ], [ -2.8002816, 40.6791764 ], [ -2.8018119, 40.6818637 ], [ -2.8021879, 40.6827742 ], [ -2.8024807, 40.6837927 ], [ -2.8029273, 40.6848385 ], [ -2.8035747, 40.6860197 ], [ -2.8056997, 40.687825 ], [ -2.8061362, 40.6883032 ], [ -2.8061362, 40.6883032 ], [ -2.8091648, 40.6928216 ], [ -2.8101332, 40.693562 ], [ -2.810333, 40.6940577 ], [ -2.8104612, 40.6947787 ], [ -2.8093354, 40.6952363 ], [ -2.8087427, 40.6955776 ], [ -2.8087426, 40.6955776 ], [ -2.8070103, 40.6970521 ], [ -2.8047225, 40.6982014 ], [ -2.8044369, 40.6987234 ], [ -2.8032125, 40.700487 ], [ -2.8032209, 40.7005801 ], [ -2.8032813, 40.7012529 ], [ -2.8021668, 40.7018635 ], [ -2.8014789, 40.7023218 ], [ -2.7997919, 40.7043548 ], [ -2.7990329, 40.704822 ], [ -2.7956418, 40.7066357 ], [ -2.7929842, 40.7079326 ], [ -2.790271, 40.7092566 ], [ -2.7902709, 40.7092566 ], [ -2.7892215, 40.7098907 ], [ -2.789156, 40.7099302 ], [ -2.788515, 40.7104515 ], [ -2.7850157, 40.7126071 ], [ -2.7835819, 40.7129738 ], [ -2.7835819, 40.7129738 ], [ -2.7806207, 40.7134276 ], [ -2.7806206, 40.7134276 ], [ -2.7794722, 40.7134705 ], [ -2.7794721, 40.7134705 ], [ -2.7785607, 40.7134147 ], [ -2.7785606, 40.7134147 ], [ -2.7778618, 40.7135394 ], [ -2.7778617, 40.7135394 ], [ -2.7742877, 40.7131181 ], [ -2.7730118, 40.7123318 ], [ -2.7730117, 40.7123318 ], [ -2.7696455, 40.7098531 ], [ -2.7666942, 40.7076798 ], [ -2.7666941, 40.7076798 ], [ -2.7661608, 40.7078498 ], [ -2.7615445, 40.7098367 ], [ -2.7594737, 40.7107278 ], [ -2.7561178, 40.7122162 ], [ -2.7560348, 40.712252 ], [ -2.7548731, 40.712673 ], [ -2.7503269, 40.717482 ], [ -2.7502968, 40.7175138 ], [ -2.7502968, 40.7175139 ], [ -2.7500116, 40.7178154 ], [ -2.7473849, 40.7204853 ], [ -2.7477975, 40.7209726 ], [ -2.7489658, 40.7220021 ], [ -2.7486394, 40.7237852 ], [ -2.7502691, 40.7248978 ], [ -2.7506118, 40.7251317 ], [ -2.7506271, 40.7273389 ], [ -2.7502595, 40.7274799 ], [ -2.7498563, 40.7276345 ], [ -2.7502442, 40.7299179 ], [ -2.7502502, 40.7299528 ], [ -2.7502502, 40.7299532 ], [ -2.7503661, 40.7306355 ], [ -2.7502469, 40.7308314 ], [ -2.7502469, 40.7308315 ], [ -2.7484834, 40.7337303 ], [ -2.7482455, 40.7339821 ], [ -2.7476647, 40.7341429 ], [ -2.7476647, 40.7341429 ], [ -2.7457216, 40.7344809 ], [ -2.7473585, 40.7389873 ], [ -2.7482025, 40.740917 ], [ -2.7503994, 40.7424094 ], [ -2.7531052, 40.7438165 ], [ -2.7556776, 40.7449039 ], [ -2.7579949, 40.7459936 ], [ -2.7630691, 40.7481687 ], [ -2.765824, 40.7491394 ], [ -2.7683505, 40.7507773 ], [ -2.7696616, 40.7518766 ], [ -2.7710833, 40.7535711 ], [ -2.7730227, 40.7548937 ], [ -2.7751919, 40.7563629 ], [ -2.7780746, 40.7573206 ], [ -2.7807717, 40.7574659 ], [ -2.7828921, 40.7571123 ], [ -2.7856795, 40.7575318 ], [ -2.7886921, 40.7578573 ], [ -2.7897067, 40.7578472 ], [ -2.7907665, 40.7567052 ], [ -2.7912709, 40.7557909 ], [ -2.7912768, 40.753884 ], [ -2.7912287, 40.7532356 ], [ -2.7906783, 40.7528533 ], [ -2.7909317, 40.7519766 ], [ -2.7918881, 40.7508342 ], [ -2.792893, 40.7502258 ], [ -2.7946515, 40.749123 ], [ -2.7957075, 40.7481715 ], [ -2.7965105, 40.7479441 ], [ -2.7969628, 40.7476398 ], [ -2.7984179, 40.7473372 ], [ -2.8026874, 40.7449039 ], [ -2.8052486, 40.7435735 ], [ -2.8063011, 40.7437278 ], [ -2.808556, 40.7442654 ], [ -2.8109623, 40.7444601 ], [ -2.8122152, 40.744691 ], [ -2.8148233, 40.7444664 ], [ -2.8160772, 40.7443539 ], [ -2.8170796, 40.7445081 ], [ -2.8179831, 40.7441663 ], [ -2.8185866, 40.7435189 ], [ -2.8192897, 40.7431005 ], [ -2.8195427, 40.7422619 ], [ -2.8203456, 40.7419962 ], [ -2.8211493, 40.7414635 ], [ -2.8218517, 40.7413121 ], [ -2.8226559, 40.7405887 ], [ -2.8324852, 40.7398407 ], [ -2.8328867, 40.7396887 ], [ -2.8329345, 40.7406041 ], [ -2.8369425, 40.7419064 ], [ -2.8378952, 40.7419078 ], [ -2.8403062, 40.7401568 ], [ -2.8406576, 40.7399666 ], [ -2.8411578, 40.7404631 ], [ -2.842411, 40.7406174 ], [ -2.8437152, 40.7403522 ], [ -2.8443658, 40.740887 ], [ -2.844564, 40.7418788 ], [ -2.8453148, 40.7424519 ], [ -2.8455551, 40.7424261 ], [ -2.8450842, 40.7420303 ], [ -2.8455048, 40.7410856 ], [ -2.8461747, 40.7398517 ], [ -2.8468451, 40.7393516 ], [ -2.8478462, 40.7390774 ], [ -2.84921, 40.7385126 ], [ -2.8501921, 40.7372983 ], [ -2.8505378, 40.73546 ], [ -2.850468, 40.7345644 ], [ -2.8506976, 40.7345647 ], [ -2.8510003, 40.733726 ], [ -2.8511014, 40.7333448 ], [ -2.8524558, 40.7330033 ], [ -2.8533095, 40.7323561 ], [ -2.8545138, 40.7318618 ], [ -2.8545654, 40.7311754 ], [ -2.8543165, 40.7303742 ], [ -2.8539666, 40.729878 ], [ -2.8536661, 40.7297632 ], [ -2.8537173, 40.7292675 ], [ -2.8543198, 40.7288488 ], [ -2.8549215, 40.7288114 ], [ -2.8551734, 40.7282015 ], [ -2.8565764, 40.7285465 ], [ -2.8577272, 40.7295776 ], [ -2.8582793, 40.7292732 ], [ -2.8601853, 40.7287798 ], [ -2.8606869, 40.728666 ], [ -2.8619416, 40.7279429 ], [ -2.8616915, 40.7276756 ], [ -2.8620457, 40.7260743 ], [ -2.8615465, 40.7250821 ], [ -2.8615473, 40.7247008 ], [ -2.8618014, 40.7230231 ], [ -2.8603505, 40.7216865 ], [ -2.8584463, 40.7214173 ], [ -2.8578955, 40.7211496 ], [ -2.8575979, 40.7196619 ], [ -2.8554465, 40.7178287 ], [ -2.8533439, 40.7166819 ], [ -2.8529928, 40.7167959 ], [ -2.8527209, 40.7168624 ], [ -2.8525335, 40.7166201 ], [ -2.8523603, 40.7166401 ], [ -2.8515091, 40.7162577 ], [ -2.8510062, 40.7170198 ], [ -2.8500525, 40.7176287 ], [ -2.8489997, 40.7177418 ], [ -2.8477468, 40.7176638 ], [ -2.8461946, 40.7169753 ], [ -2.8455938, 40.7166694 ], [ -2.8444435, 40.7156001 ], [ -2.8438936, 40.7149891 ], [ -2.8433938, 40.7143783 ], [ -2.8428448, 40.713386 ], [ -2.8422444, 40.7129656 ], [ -2.8405414, 40.7125056 ], [ -2.8391379, 40.71258 ], [ -2.838135, 40.7128074 ], [ -2.8376838, 40.7128449 ], [ -2.8373333, 40.7126919 ], [ -2.8369836, 40.7122337 ], [ -2.8368344, 40.7117759 ], [ -2.8330789, 40.7104357 ], [ -2.831227, 40.7094415 ], [ -2.8299766, 40.7084481 ], [ -2.8286256, 40.7076452 ], [ -2.8271242, 40.7068421 ], [ -2.8244688, 40.7065711 ], [ -2.8244195, 40.7062659 ], [ -2.8276848, 40.7032199 ], [ -2.8308447, 40.7020805 ], [ -2.8325498, 40.701549 ], [ -2.8332529, 40.7009399 ], [ -2.8344057, 40.7008271 ], [ -2.8356596, 40.7003713 ], [ -2.8366622, 40.700182 ], [ -2.8374138, 40.7002212 ], [ -2.8379142, 40.7004889 ], [ -2.8388682, 40.6997275 ], [ -2.8389694, 40.6993081 ], [ -2.8397203, 40.6996142 ], [ -2.8402689, 40.700721 ], [ -2.8408203, 40.7006073 ], [ -2.8447247, 40.7024432 ], [ -2.8476252, 40.7050404 ], [ -2.8508786, 40.7068371 ], [ -2.8524987, 40.7075987 ], [ -2.8520755, 40.709451 ], [ -2.8529773, 40.7095856 ], [ -2.8528761, 40.7100431 ], [ -2.8548548, 40.7104461 ], [ -2.8565293, 40.7125076 ], [ -2.8569795, 40.7129276 ], [ -2.8573204, 40.7130867 ], [ -2.8574877, 40.7133703 ], [ -2.8580248, 40.7138581 ], [ -2.8592161, 40.7160013 ], [ -2.8600808, 40.7181019 ], [ -2.8613924, 40.7205763 ], [ -2.8631233, 40.7213606 ], [ -2.8659746, 40.7221788 ], [ -2.8685639, 40.7240431 ], [ -2.8708941, 40.7257039 ], [ -2.8721176, 40.7266196 ], [ -2.8729667, 40.7265531 ], [ -2.872977, 40.7265175 ], [ -2.8737059, 40.7266454 ], [ -2.8738327, 40.7258637 ], [ -2.8743341, 40.7258071 ], [ -2.8750368, 40.7253693 ], [ -2.8763157, 40.7250083 ], [ -2.8769422, 40.7250471 ], [ -2.8767908, 40.7256381 ], [ -2.8784414, 40.727623 ], [ -2.8787162, 40.7281381 ], [ -2.8792094, 40.7326006 ], [ -2.8805088, 40.7348902 ], [ -2.8805076, 40.7355957 ], [ -2.8800301, 40.7362245 ], [ -2.8792764, 40.737158 ], [ -2.8749594, 40.7399183 ], [ -2.8734032, 40.7408891 ], [ -2.8712165, 40.7438232 ], [ -2.8702358, 40.7453285 ], [ -2.8704812, 40.7480746 ], [ -2.8705056, 40.7484179 ], [ -2.8701531, 40.7491802 ], [ -2.870027, 40.7495615 ], [ -2.8691228, 40.7503613 ], [ -2.8642759, 40.7541312 ], [ -2.8653259, 40.7556579 ], [ -2.8654007, 40.7558678 ], [ -2.8653499, 40.7562109 ], [ -2.8651988, 40.7565158 ], [ -2.8646967, 40.7568394 ], [ -2.863741, 40.7582112 ], [ -2.8641422, 40.7582117 ], [ -2.8648194, 40.7581171 ], [ -2.867277, 40.7581009 ], [ -2.8677781, 40.7583303 ], [ -2.8680037, 40.7583496 ], [ -2.8682294, 40.7583499 ], [ -2.8685553, 40.7584075 ], [ -2.8686806, 40.7584457 ], [ -2.8688058, 40.7585222 ], [ -2.8687556, 40.7585793 ], [ -2.8690563, 40.758675 ], [ -2.8693821, 40.7587707 ], [ -2.8695075, 40.7587518 ], [ -2.8697586, 40.7586186 ], [ -2.8699092, 40.7585425 ], [ -2.8699658, 40.7585296 ], [ -2.8701566, 40.7586972 ], [ -2.8702034, 40.7588105 ], [ -2.8703325, 40.7589433 ], [ -2.8702137, 40.7590161 ], [ -2.8702378, 40.7591815 ], [ -2.8702315, 40.7593096 ], [ -2.8702099, 40.7593958 ], [ -2.8701299, 40.759554 ], [ -2.8698565, 40.7599916 ], [ -2.8698503, 40.7600416 ], [ -2.870173, 40.7601602 ], [ -2.8701647, 40.7602095 ], [ -2.8701039, 40.760345 ], [ -2.8700599, 40.7604831 ], [ -2.8700359, 40.7606955 ], [ -2.8700153, 40.7609334 ], [ -2.8700351, 40.7611407 ], [ -2.8699638, 40.7614297 ], [ -2.8698894, 40.761601 ], [ -2.8698253, 40.7617135 ], [ -2.8696432, 40.7619001 ], [ -2.8693026, 40.7622681 ], [ -2.8690864, 40.7627259 ], [ -2.8687519, 40.7634163 ], [ -2.8684343, 40.7640505 ], [ -2.8681608, 40.7645465 ], [ -2.8675696, 40.7657023 ], [ -2.8673871, 40.76605 ], [ -2.866938, 40.766858 ], [ -2.8667385, 40.7672953 ], [ -2.8666, 40.7675817 ], [ -2.866472, 40.7676378 ], [ -2.8663929, 40.7675456 ], [ -2.8662716, 40.7672675 ], [ -2.8662965, 40.7670312 ], [ -2.8664195, 40.7664476 ], [ -2.8652906, 40.7661292 ], [ -2.8656296, 40.7655078 ], [ -2.8662007, 40.7644406 ], [ -2.866432, 40.7643732 ], [ -2.8664331, 40.7638325 ], [ -2.866096, 40.7634401 ], [ -2.8664521, 40.7632107 ], [ -2.8664178, 40.7625754 ], [ -2.8664902, 40.7619536 ], [ -2.8663838, 40.7618048 ], [ -2.8654942, 40.7621417 ], [ -2.8649086, 40.7616003 ], [ -2.8651403, 40.7613572 ], [ -2.8653005, 40.7612222 ], [ -2.8646968, 40.76087 ], [ -2.8644124, 40.7608156 ], [ -2.8644838, 40.7607076 ], [ -2.8644512, 40.7606578 ], [ -2.8637132, 40.7610547 ], [ -2.8627092, 40.7615112 ], [ -2.8622817, 40.7620446 ], [ -2.8613524, 40.7627299 ], [ -2.8611512, 40.7630348 ], [ -2.8606743, 40.7632249 ], [ -2.8599963, 40.7636436 ], [ -2.8595197, 40.7637002 ], [ -2.859143, 40.7639095 ], [ -2.8587419, 40.7638708 ], [ -2.8583653, 40.7640611 ], [ -2.8581145, 40.7640417 ], [ -2.8579389, 40.7640987 ], [ -2.85701, 40.7645361 ], [ -2.8563079, 40.764478 ], [ -2.8553546, 40.7646485 ], [ -2.8546517, 40.7649336 ], [ -2.8541, 40.7649329 ], [ -2.8530456, 40.7654273 ], [ -2.8517912, 40.7656164 ], [ -2.8511381, 40.7660732 ], [ -2.8504607, 40.7661677 ], [ -2.8480525, 40.7664315 ], [ -2.8471241, 40.7666209 ], [ -2.8465716, 40.7669634 ], [ -2.8460691, 40.7673251 ], [ -2.8459179, 40.76763 ], [ -2.8459167, 40.7681639 ], [ -2.8452404, 40.7677816 ], [ -2.8439118, 40.7675128 ], [ -2.8433851, 40.7675121 ], [ -2.8420817, 40.7671862 ], [ -2.8416052, 40.7672046 ], [ -2.8403511, 40.767241 ], [ -2.8398746, 40.7672213 ], [ -2.8396911, 40.766992 ], [ -2.8396727, 40.7670123 ], [ -2.8384431, 40.7667354 ], [ -2.8379892, 40.7677645 ], [ -2.8386899, 40.7683757 ], [ -2.8414961, 40.7695618 ], [ -2.8417965, 40.769791 ], [ -2.8380788, 40.7721503 ], [ -2.8371707, 40.7742847 ], [ -2.8368695, 40.7743605 ], [ -2.8330558, 40.7748127 ], [ -2.8314502, 40.7749248 ], [ -2.829594, 40.7749602 ], [ -2.8279878, 40.775301 ], [ -2.8275345, 40.7759868 ], [ -2.826378, 40.7770148 ], [ -2.8252216, 40.7780046 ], [ -2.8244658, 40.7792619 ], [ -2.8234601, 40.7801375 ], [ -2.8218037, 40.7804019 ], [ -2.8200974, 40.7806281 ], [ -2.8186412, 40.7810835 ], [ -2.8182862, 40.7824939 ], [ -2.8169815, 40.7825682 ], [ -2.8166789, 40.7831397 ], [ -2.8165766, 40.7838641 ], [ -2.8169738, 40.7853521 ], [ -2.8181915, 40.7859332 ], [ -2.8179407, 40.7862275 ], [ -2.8185808, 40.7871566 ], [ -2.8179768, 40.7878421 ], [ -2.8169718, 40.7883744 ], [ -2.8162677, 40.7889835 ], [ -2.8134508, 40.7914959 ], [ -2.8110386, 40.7927886 ], [ -2.808926, 40.7945394 ], [ -2.8072192, 40.7947654 ], [ -2.8066078, 40.7979678 ], [ -2.8072051, 40.7996468 ], [ -2.8038869, 40.8017006 ], [ -2.8020777, 40.8025365 ], [ -2.8006695, 40.8035256 ], [ -2.7998668, 40.803448 ], [ -2.7988653, 40.8026835 ], [ -2.7984638, 40.8026828 ], [ -2.7974624, 40.8019183 ], [ -2.796261, 40.8009247 ], [ -2.7930382, 40.8044275 ], [ -2.7923354, 40.8045025 ], [ -2.7918309, 40.8053406 ], [ -2.7910267, 40.8057205 ], [ -2.7909249, 40.8061779 ], [ -2.7897153, 40.8077774 ], [ -2.7869005, 40.8090689 ], [ -2.7868042, 40.8077721 ], [ -2.7873074, 40.8073917 ], [ -2.7861109, 40.8048725 ], [ -2.7859035, 40.8069314 ], [ -2.7798838, 40.8060048 ], [ -2.7786803, 40.8056974 ], [ -2.7764607, 40.8043788 ], [ -2.776301, 40.8045052 ], [ -2.7749125, 40.8049439 ], [ -2.7749125, 40.8049439 ], [ -2.7749124, 40.8049439 ], [ -2.7749124, 40.804944 ], [ -2.7740408, 40.8068069 ], [ -2.7740407, 40.8068069 ], [ -2.7739086, 40.8068178 ], [ -2.7738273, 40.8068246 ], [ -2.7721229, 40.8059834 ], [ -2.7720523, 40.8058391 ], [ -2.7719967, 40.804776 ], [ -2.7718092, 40.804127 ], [ -2.7718092, 40.804127 ], [ -2.7714424, 40.8039191 ], [ -2.767807, 40.8027317 ], [ -2.7664805, 40.8023777 ], [ -2.7662197, 40.8023771 ], [ -2.7622426, 40.8039365 ], [ -2.7582409, 40.8057028 ], [ -2.7581765, 40.807099 ], [ -2.7582678, 40.8080721 ], [ -2.7574664, 40.8100162 ], [ -2.7539002, 40.812513 ], [ -2.7530083, 40.8132229 ], [ -2.7529198, 40.814709 ], [ -2.7532208, 40.8166555 ], [ -2.753617, 40.8185482 ], [ -2.7538711, 40.8203774 ], [ -2.7540469, 40.8209273 ], [ -2.7542942, 40.8213963 ], [ -2.7542942, 40.8213963 ], [ -2.7545629, 40.8224869 ], [ -2.7546053, 40.8238473 ], [ -2.7545078, 40.8245407 ], [ -2.7543039, 40.8251799 ], [ -2.7539697, 40.8257563 ], [ -2.7536833, 40.8262506 ], [ -2.7534927, 40.8264483 ], [ -2.7539644, 40.8272023 ], [ -2.7549429, 40.8287666 ], [ -2.7541347, 40.8292333 ], [ -2.7539562, 40.829407 ], [ -2.7535158, 40.8298356 ], [ -2.7535157, 40.8298356 ], [ -2.7528123, 40.830843 ], [ -2.7527154, 40.8313652 ], [ -2.7527154, 40.8313654 ], [ -2.7521047, 40.8329405 ], [ -2.7521972, 40.8335623 ], [ -2.7510755, 40.8353976 ], [ -2.7507988, 40.8364239 ], [ -2.7508784, 40.837334 ], [ -2.751239, 40.8392266 ], [ -2.7521217, 40.8410842 ], [ -2.7520945, 40.842012 ], [ -2.7519365, 40.8430386 ], [ -2.7527744, 40.8441846 ], [ -2.753175, 40.8449241 ], [ -2.7537739, 40.8465559 ], [ -2.7538818, 40.8494479 ], [ -2.7535006, 40.8498794 ], [ -2.7535006, 40.8498795 ], [ -2.7525116, 40.8510214 ], [ -2.7522655, 40.8534261 ], [ -2.7519544, 40.8540831 ], [ -2.7506766, 40.8563144 ], [ -2.7502997, 40.8587189 ], [ -2.7503924, 40.8593046 ], [ -2.7506513, 40.8599087 ], [ -2.7499684, 40.8616459 ], [ -2.749751, 40.8626183 ], [ -2.7502206, 40.8639706 ], [ -2.7508328, 40.8652421 ], [ -2.7508149, 40.8668726 ], [ -2.7510836, 40.8679902 ], [ -2.7510837, 40.8679903 ], [ -2.7516037, 40.8685409 ], [ -2.7533792, 40.8697608 ] ] ] } },
{ "type": "Feature", "properties": { "CCAA": "08 - Castilla-La Mancha", "PROVINCIA": "19 - Guadalajara", "MUNICIPIO": "19053 - Brihuega", "COD_MUNICIPIO": "19053", "DISTRITO": "01", "SECCION": "1905301002", "V1_H": 80.01, "V1_M": 85.96, "V2_H": 79.87654463, "V2_M": 85.8497366, "V3_H": 80.24882261, "V3_M": 86.17409879 }, "geometry": { "type": "Polygon", "coordinates": [ [ [ -2.7764607, 40.8043788 ], [ -2.7786803, 40.8056974 ], [ -2.7798838, 40.8060048 ], [ -2.7859035, 40.8069314 ], [ -2.7861109, 40.8048725 ], [ -2.7873074, 40.8073917 ], [ -2.7868042, 40.8077721 ], [ -2.7869005, 40.8090689 ], [ -2.7897153, 40.8077774 ], [ -2.7909249, 40.8061779 ], [ -2.7910267, 40.8057205 ], [ -2.7918309, 40.8053406 ], [ -2.7923354, 40.8045025 ], [ -2.7930382, 40.8044275 ], [ -2.796261, 40.8009247 ], [ -2.7974624, 40.8019183 ], [ -2.7984638, 40.8026828 ], [ -2.7988653, 40.8026835 ], [ -2.7998668, 40.803448 ], [ -2.8006695, 40.8035256 ], [ -2.8020777, 40.8025365 ], [ -2.8038869, 40.8017006 ], [ -2.8072051, 40.7996468 ], [ -2.8066078, 40.7979678 ], [ -2.8072192, 40.7947654 ], [ -2.808926, 40.7945394 ], [ -2.8110386, 40.7927886 ], [ -2.8134508, 40.7914959 ], [ -2.8162677, 40.7889835 ], [ -2.8169718, 40.7883744 ], [ -2.8179768, 40.7878421 ], [ -2.8185808, 40.7871566 ], [ -2.8179407, 40.7862275 ], [ -2.8181915, 40.7859332 ], [ -2.8169738, 40.7853521 ], [ -2.8165766, 40.7838641 ], [ -2.8166789, 40.7831397 ], [ -2.8169815, 40.7825682 ], [ -2.8182862, 40.7824939 ], [ -2.8186412, 40.7810835 ], [ -2.8200974, 40.7806281 ], [ -2.8218037, 40.7804019 ], [ -2.8234601, 40.7801375 ], [ -2.8244658, 40.7792619 ], [ -2.8252216, 40.7780046 ], [ -2.826378, 40.7770148 ], [ -2.8275345, 40.7759868 ], [ -2.8279878, 40.775301 ], [ -2.829594, 40.7749602 ], [ -2.8314502, 40.7749248 ], [ -2.8330558, 40.7748127 ], [ -2.8368695, 40.7743605 ], [ -2.8371707, 40.7742847 ], [ -2.8380788, 40.7721503 ], [ -2.8417965, 40.769791 ], [ -2.8414961, 40.7695618 ], [ -2.8386899, 40.7683757 ], [ -2.8379892, 40.7677645 ], [ -2.8384431, 40.7667354 ], [ -2.8396727, 40.7670123 ], [ -2.8396911, 40.766992 ], [ -2.8398746, 40.7672213 ], [ -2.8403511, 40.767241 ], [ -2.8416052, 40.7672046 ], [ -2.8420817, 40.7671862 ], [ -2.8433851, 40.7675121 ], [ -2.8439118, 40.7675128 ], [ -2.8452404, 40.7677816 ], [ -2.8459167, 40.7681639 ], [ -2.8459179, 40.76763 ], [ -2.8460691, 40.7673251 ], [ -2.8465716, 40.7669634 ], [ -2.8471241, 40.7666209 ], [ -2.8480525, 40.7664315 ], [ -2.8504607, 40.7661677 ], [ -2.8511381, 40.7660732 ], [ -2.8517912, 40.7656164 ], [ -2.8530456, 40.7654273 ], [ -2.8541, 40.7649329 ], [ -2.8546517, 40.7649336 ], [ -2.8553546, 40.7646485 ], [ -2.8563079, 40.764478 ], [ -2.85701, 40.7645361 ], [ -2.8579389, 40.7640987 ], [ -2.8581145, 40.7640417 ], [ -2.8583653, 40.7640611 ], [ -2.8587419, 40.7638708 ], [ -2.859143, 40.7639095 ], [ -2.8595197, 40.7637002 ], [ -2.8599963, 40.7636436 ], [ -2.8606743, 40.7632249 ], [ -2.8611512, 40.7630348 ], [ -2.8613524, 40.7627299 ], [ -2.8622817, 40.7620446 ], [ -2.8627092, 40.7615112 ], [ -2.8637132, 40.7610547 ], [ -2.8644512, 40.7606578 ], [ -2.8644838, 40.7607076 ], [ -2.8644124, 40.7608156 ], [ -2.8646968, 40.76087 ], [ -2.8653005, 40.7612222 ], [ -2.8651403, 40.7613572 ], [ -2.8649086, 40.7616003 ], [ -2.8654942, 40.7621417 ], [ -2.8663838, 40.7618048 ], [ -2.8664902, 40.7619536 ], [ -2.8664178, 40.7625754 ], [ -2.8664521, 40.7632107 ], [ -2.866096, 40.7634401 ], [ -2.8664331, 40.7638325 ], [ -2.866432, 40.7643732 ], [ -2.8662007, 40.7644406 ], [ -2.8656296, 40.7655078 ], [ -2.8652906, 40.7661292 ], [ -2.8664195, 40.7664476 ], [ -2.8662965, 40.7670312 ], [ -2.8662716, 40.7672675 ], [ -2.8663929, 40.7675456 ], [ -2.866472, 40.7676378 ], [ -2.8666, 40.7675817 ], [ -2.8667385, 40.7672953 ], [ -2.866938, 40.766858 ], [ -2.8673871, 40.76605 ], [ -2.8675696, 40.7657023 ], [ -2.8681608, 40.7645465 ], [ -2.8684343, 40.7640505 ], [ -2.8687519, 40.7634163 ], [ -2.8690864, 40.7627259 ], [ -2.8693026, 40.7622681 ], [ -2.8696432, 40.7619001 ], [ -2.8698253, 40.7617135 ], [ -2.8698894, 40.761601 ], [ -2.8699638, 40.7614297 ], [ -2.8700351, 40.7611407 ], [ -2.8700153, 40.7609334 ], [ -2.8700359, 40.7606955 ], [ -2.8700599, 40.7604831 ], [ -2.8701039, 40.760345 ], [ -2.8701647, 40.7602095 ], [ -2.870173, 40.7601602 ], [ -2.8698503, 40.7600416 ], [ -2.8698565, 40.7599916 ], [ -2.8701299, 40.759554 ], [ -2.8702099, 40.7593958 ], [ -2.8702315, 40.7593096 ], [ -2.8702378, 40.7591815 ], [ -2.8702137, 40.7590161 ], [ -2.8703325, 40.7589433 ], [ -2.8702034, 40.7588105 ], [ -2.8701566, 40.7586972 ], [ -2.8699658, 40.7585296 ], [ -2.8699092, 40.7585425 ], [ -2.8697586, 40.7586186 ], [ -2.8695075, 40.7587518 ], [ -2.8693821, 40.7587707 ], [ -2.8690563, 40.758675 ], [ -2.8687556, 40.7585793 ], [ -2.8688058, 40.7585222 ], [ -2.8686806, 40.7584457 ], [ -2.8685553, 40.7584075 ], [ -2.8682294, 40.7583499 ], [ -2.8680037, 40.7583496 ], [ -2.8677781, 40.7583303 ], [ -2.867277, 40.7581009 ], [ -2.8648194, 40.7581171 ], [ -2.8641422, 40.7582117 ], [ -2.863741, 40.7582112 ], [ -2.8646967, 40.7568394 ], [ -2.8651988, 40.7565158 ], [ -2.8653499, 40.7562109 ], [ -2.8654007, 40.7558678 ], [ -2.8653259, 40.7556579 ], [ -2.8642759, 40.7541312 ], [ -2.8691228, 40.7503613 ], [ -2.870027, 40.7495615 ], [ -2.8701531, 40.7491802 ], [ -2.8705056, 40.7484179 ], [ -2.8704812, 40.7480746 ], [ -2.8702358, 40.7453285 ], [ -2.8712165, 40.7438232 ], [ -2.8734032, 40.7408891 ], [ -2.8749594, 40.7399183 ], [ -2.8792764, 40.737158 ], [ -2.8800301, 40.7362245 ], [ -2.8805076, 40.7355957 ], [ -2.8805088, 40.7348902 ], [ -2.8792094, 40.7326006 ], [ -2.8787162, 40.7281381 ], [ -2.8784414, 40.727623 ], [ -2.8767908, 40.7256381 ], [ -2.8769422, 40.7250471 ], [ -2.8763157, 40.7250083 ], [ -2.8750368, 40.7253693 ], [ -2.8743341, 40.7258071 ], [ -2.8738327, 40.7258637 ], [ -2.8737059, 40.7266454 ], [ -2.872977, 40.7265175 ], [ -2.8729667, 40.7265531 ], [ -2.8721176, 40.7266196 ], [ -2.8708941, 40.7257039 ], [ -2.8685639, 40.7240431 ], [ -2.8659746, 40.7221788 ], [ -2.8631233, 40.7213606 ], [ -2.8613924, 40.7205763 ], [ -2.8600808, 40.7181019 ], [ -2.8592161, 40.7160013 ], [ -2.8580248, 40.7138581 ], [ -2.8574877, 40.7133703 ], [ -2.8573204, 40.7130867 ], [ -2.8569795, 40.7129276 ], [ -2.8565293, 40.7125076 ], [ -2.8548548, 40.7104461 ], [ -2.8528761, 40.7100431 ], [ -2.8529773, 40.7095856 ], [ -2.8520755, 40.709451 ], [ -2.8524987, 40.7075987 ], [ -2.8508786, 40.7068371 ], [ -2.8476252, 40.7050404 ], [ -2.8447247, 40.7024432 ], [ -2.8408203, 40.7006073 ], [ -2.8402689, 40.700721 ], [ -2.8397203, 40.6996142 ], [ -2.8389694, 40.6993081 ], [ -2.8388682, 40.6997275 ], [ -2.8379142, 40.7004889 ], [ -2.8374138, 40.7002212 ], [ -2.8366622, 40.700182 ], [ -2.8356596, 40.7003713 ], [ -2.8344057, 40.7008271 ], [ -2.8332529, 40.7009399 ], [ -2.8325498, 40.701549 ], [ -2.8308447, 40.7020805 ], [ -2.8276848, 40.7032199 ], [ -2.8244195, 40.7062659 ], [ -2.8244688, 40.7065711 ], [ -2.8271242, 40.7068421 ], [ -2.8286256, 40.7076452 ], [ -2.8299766, 40.7084481 ], [ -2.831227, 40.7094415 ], [ -2.8330789, 40.7104357 ], [ -2.8368344, 40.7117759 ], [ -2.8369836, 40.7122337 ], [ -2.8373333, 40.7126919 ], [ -2.8376838, 40.7128449 ], [ -2.838135, 40.7128074 ], [ -2.8391379, 40.71258 ], [ -2.8405414, 40.7125056 ], [ -2.8422444, 40.7129656 ], [ -2.8428448, 40.713386 ], [ -2.8433938, 40.7143783 ], [ -2.8438936, 40.7149891 ], [ -2.8444435, 40.7156001 ], [ -2.8455938, 40.7166694 ], [ -2.8461946, 40.7169753 ], [ -2.8477468, 40.7176638 ], [ -2.8489997, 40.7177418 ], [ -2.8500525, 40.7176287 ], [ -2.8510062, 40.7170198 ], [ -2.8515091, 40.7162577 ], [ -2.8523603, 40.7166401 ], [ -2.8525335, 40.7166201 ], [ -2.8527209, 40.7168624 ], [ -2.8529928, 40.7167959 ], [ -2.8533439, 40.7166819 ], [ -2.8554465, 40.7178287 ], [ -2.8575979, 40.7196619 ], [ -2.8578955, 40.7211496 ], [ -2.8584463, 40.7214173 ], [ -2.8603505, 40.7216865 ], [ -2.8618014, 40.7230231 ], [ -2.8615473, 40.7247008 ], [ -2.8615465, 40.7250821 ], [ -2.8620457, 40.7260743 ], [ -2.8616915, 40.7276756 ], [ -2.8619416, 40.7279429 ], [ -2.8606869, 40.728666 ], [ -2.8601853, 40.7287798 ], [ -2.8582793, 40.7292732 ], [ -2.8577272, 40.7295776 ], [ -2.8565764, 40.7285465 ], [ -2.8551734, 40.7282015 ], [ -2.8549215, 40.7288114 ], [ -2.8543198, 40.7288488 ], [ -2.8537173, 40.7292675 ], [ -2.8536661, 40.7297632 ], [ -2.8539666, 40.729878 ], [ -2.8543165, 40.7303742 ], [ -2.8545654, 40.7311754 ], [ -2.8545138, 40.7318618 ], [ -2.8533095, 40.7323561 ], [ -2.8524558, 40.7330033 ], [ -2.8511014, 40.7333448 ], [ -2.8510003, 40.733726 ], [ -2.8506976, 40.7345647 ], [ -2.850468, 40.7345644 ], [ -2.8505378, 40.73546 ], [ -2.8501921, 40.7372983 ], [ -2.84921, 40.7385126 ], [ -2.8478462, 40.7390774 ], [ -2.8468451, 40.7393516 ], [ -2.8461747, 40.7398517 ], [ -2.8455048, 40.7410856 ], [ -2.8450842, 40.7420303 ], [ -2.8455551, 40.7424261 ], [ -2.8453148, 40.7424519 ], [ -2.844564, 40.7418788 ], [ -2.8443658, 40.740887 ], [ -2.8437152, 40.7403522 ], [ -2.842411, 40.7406174 ], [ -2.8411578, 40.7404631 ], [ -2.8406576, 40.7399666 ], [ -2.8403062, 40.7401568 ], [ -2.8378952, 40.7419078 ], [ -2.8369425, 40.7419064 ], [ -2.8329345, 40.7406041 ], [ -2.8328867, 40.7396887 ], [ -2.8324852, 40.7398407 ], [ -2.8226559, 40.7405887 ], [ -2.8218517, 40.7413121 ], [ -2.8211493, 40.7414635 ], [ -2.8203456, 40.7419962 ], [ -2.8195427, 40.7422619 ], [ -2.8192897, 40.7431005 ], [ -2.8185866, 40.7435189 ], [ -2.8179831, 40.7441663 ], [ -2.8170796, 40.7445081 ], [ -2.8160772, 40.7443539 ], [ -2.8148233, 40.7444664 ], [ -2.8122152, 40.744691 ], [ -2.8109623, 40.7444601 ], [ -2.808556, 40.7442654 ], [ -2.8063011, 40.7437278 ], [ -2.8052486, 40.7435735 ], [ -2.8026874, 40.7449039 ], [ -2.7984179, 40.7473372 ], [ -2.7969628, 40.7476398 ], [ -2.7965105, 40.7479441 ], [ -2.7957075, 40.7481715 ], [ -2.7946515, 40.749123 ], [ -2.792893, 40.7502258 ], [ -2.7918881, 40.7508342 ], [ -2.7909317, 40.7519766 ], [ -2.7906783, 40.7528533 ], [ -2.7912287, 40.7532356 ], [ -2.7912768, 40.753884 ], [ -2.7912709, 40.7557909 ], [ -2.7907665, 40.7567052 ], [ -2.7897067, 40.7578472 ], [ -2.7886921, 40.7578573 ], [ -2.7856795, 40.7575318 ], [ -2.7828921, 40.7571123 ], [ -2.7807717, 40.7574659 ], [ -2.7780746, 40.7573206 ], [ -2.7751919, 40.7563629 ], [ -2.7730227, 40.7548937 ], [ -2.7710833, 40.7535711 ], [ -2.7696616, 40.7518766 ], [ -2.7683505, 40.7507773 ], [ -2.765824, 40.7491394 ], [ -2.7630691, 40.7481687 ], [ -2.7579949, 40.7459936 ], [ -2.7556776, 40.7449039 ], [ -2.7531052, 40.7438165 ], [ -2.7503994, 40.7424094 ], [ -2.7482025, 40.740917 ], [ -2.7473585, 40.7389873 ], [ -2.7457216, 40.7344809 ], [ -2.7457212, 40.734481 ], [ -2.7457211, 40.734481 ], [ -2.7457211, 40.734481 ], [ -2.7453647, 40.7378674 ], [ -2.7440008, 40.7383599 ], [ -2.7419615, 40.7389319 ], [ -2.7412615, 40.7392276 ], [ -2.7411784, 40.7392815 ], [ -2.7401572, 40.7399458 ], [ -2.7390654, 40.7405199 ], [ -2.7343199, 40.7425 ], [ -2.7335606, 40.7427864 ], [ -2.7329912, 40.7430044 ], [ -2.7327185, 40.7431088 ], [ -2.7327184, 40.7431088 ], [ -2.7327184, 40.7431089 ], [ -2.7308895, 40.7443298 ], [ -2.7292263, 40.745542 ], [ -2.7283595, 40.7460625 ], [ -2.7277297, 40.7465564 ], [ -2.7270278, 40.7472845 ], [ -2.726349, 40.7481567 ], [ -2.7251021, 40.7492487 ], [ -2.7251019, 40.7492489 ], [ -2.7251019, 40.7492489 ], [ -2.725077, 40.7492708 ], [ -2.7247207, 40.7494951 ], [ -2.7234865, 40.7500056 ], [ -2.7232372, 40.7501402 ], [ -2.7227148, 40.7504272 ], [ -2.7221918, 40.7508584 ], [ -2.720143, 40.753556 ], [ -2.7193806, 40.7545541 ], [ -2.7194141, 40.7550496 ], [ -2.7196817, 40.7562124 ], [ -2.7188958, 40.7571654 ], [ -2.7182239, 40.7591727 ], [ -2.7186916, 40.7593813 ], [ -2.7192999, 40.7596527 ], [ -2.7191174, 40.7608054 ], [ -2.7189487, 40.7614716 ], [ -2.7187079, 40.7623629 ], [ -2.719202, 40.7631929 ], [ -2.7197439, 40.7639329 ], [ -2.7213597, 40.7656935 ], [ -2.7240154, 40.7681592 ], [ -2.7248911, 40.7713233 ], [ -2.7250906, 40.7717742 ], [ -2.7261054, 40.7728036 ], [ -2.7273818, 40.7736325 ], [ -2.7277483, 40.7738705 ], [ -2.728075, 40.7751055 ], [ -2.7273843, 40.7766946 ], [ -2.7273691, 40.7767297 ], [ -2.7270581, 40.7774453 ], [ -2.727043, 40.778229 ], [ -2.7271371, 40.7783914 ], [ -2.7273605, 40.7788185 ], [ -2.7279015, 40.7798526 ], [ -2.7277201, 40.780735 ], [ -2.7273518, 40.7809326 ], [ -2.7272688, 40.7809772 ], [ -2.727007, 40.7812287 ], [ -2.7255951, 40.7844955 ], [ -2.7250104, 40.7854581 ], [ -2.7241764, 40.78651 ], [ -2.7232691, 40.7880574 ], [ -2.723232, 40.7884536 ], [ -2.7232319, 40.7884537 ], [ -2.7234528, 40.7894992 ], [ -2.7234528, 40.7894992 ], [ -2.724246, 40.7897082 ], [ -2.7242461, 40.7897083 ], [ -2.7261059, 40.7899559 ], [ -2.726106, 40.789956 ], [ -2.7273147, 40.7900039 ], [ -2.7273148, 40.7900039 ], [ -2.7275885, 40.7897343 ], [ -2.7280517, 40.7895191 ], [ -2.728242, 40.7893484 ], [ -2.7282865, 40.7884657 ], [ -2.7283065, 40.7880693 ], [ -2.7284145, 40.7877453 ], [ -2.7291651, 40.7867922 ], [ -2.7297112, 40.7865413 ], [ -2.7297113, 40.7865412 ], [ -2.730806, 40.7854718 ], [ -2.7310112, 40.7845534 ], [ -2.7312018, 40.7843196 ], [ -2.7334489, 40.7825501 ], [ -2.733846, 40.7826014 ], [ -2.7351546, 40.7827703 ], [ -2.7355854, 40.7828448 ], [ -2.7357349, 40.7828707 ], [ -2.735735, 40.7828707 ], [ -2.7369694, 40.7823961 ], [ -2.7377759, 40.7822177 ], [ -2.737776, 40.7822177 ], [ -2.7380032, 40.7817048 ], [ -2.7383245, 40.7813631 ], [ -2.7387284, 40.7811389 ], [ -2.7388946, 40.7810492 ], [ -2.7402613, 40.7800883 ], [ -2.7407479, 40.7799003 ], [ -2.7441399, 40.7792232 ], [ -2.7462621, 40.7789576 ], [ -2.7462622, 40.7789576 ], [ -2.747094, 40.7783829 ], [ -2.7477364, 40.7777447 ], [ -2.7482008, 40.7771422 ], [ -2.7496401, 40.7757039 ], [ -2.7500816, 40.7748738 ], [ -2.7500816, 40.7748736 ], [ -2.7507023, 40.7737063 ], [ -2.7522679, 40.7733223 ], [ -2.7522679, 40.7733223 ], [ -2.7524944, 40.7729625 ], [ -2.7555372, 40.7704466 ], [ -2.7606575, 40.7667458 ], [ -2.7631155, 40.7652645 ], [ -2.7637326, 40.7649955 ], [ -2.7645746, 40.7647991 ], [ -2.7660085, 40.7646759 ], [ -2.7660086, 40.7646759 ], [ -2.7667076, 40.7646863 ], [ -2.7667076, 40.7646863 ], [ -2.7672404, 40.7647865 ], [ -2.7672404, 40.7647865 ], [ -2.7676426, 40.7649855 ], [ -2.7678077, 40.765184 ], [ -2.7684416, 40.7669058 ], [ -2.7684416, 40.7669059 ], [ -2.7687713, 40.7674921 ], [ -2.7695742, 40.7683225 ], [ -2.7698934, 40.7685303 ], [ -2.7698934, 40.7685304 ], [ -2.7704454, 40.768616 ], [ -2.7715395, 40.7687859 ], [ -2.772606, 40.7687429 ], [ -2.7726061, 40.7687429 ], [ -2.7750953, 40.7684866 ], [ -2.7754791, 40.7705953 ], [ -2.7764242, 40.771462 ], [ -2.7762771, 40.7729121 ], [ -2.7752769, 40.7743245 ], [ -2.7759074, 40.7771274 ], [ -2.7759074, 40.7771274 ], [ -2.7780765, 40.7769785 ], [ -2.7784781, 40.780916 ], [ -2.7794233, 40.7818096 ], [ -2.77994, 40.78216 ], [ -2.7803693, 40.782451 ], [ -2.7803693, 40.7824511 ], [ -2.7815195, 40.7830903 ], [ -2.7824514, 40.7836081 ], [ -2.7831943, 40.7847445 ], [ -2.7831944, 40.7847446 ], [ -2.7831943, 40.7847449 ], [ -2.7828192, 40.7871222 ], [ -2.7802486, 40.7902973 ], [ -2.7802486, 40.7902973 ], [ -2.7793118, 40.7904306 ], [ -2.7775017, 40.7929225 ], [ -2.7777179, 40.7956075 ], [ -2.7777402, 40.7960399 ], [ -2.7775942, 40.7971567 ], [ -2.7773547, 40.797886 ], [ -2.7772109, 40.7983361 ], [ -2.7772219, 40.7985884 ], [ -2.7775634, 40.7992647 ], [ -2.7776453, 40.7995981 ], [ -2.7774299, 40.8001923 ], [ -2.7777709, 40.8010127 ], [ -2.7778238, 40.8014069 ], [ -2.777852, 40.8016164 ], [ -2.7778632, 40.8018056 ], [ -2.7778147, 40.8021209 ], [ -2.777755, 40.8022559 ], [ -2.7776355, 40.8025259 ], [ -2.777326, 40.8028946 ], [ -2.7765507, 40.8043075 ], [ -2.7764607, 40.8043788 ] ] ] } }
]
}
