{
"type": "FeatureCollection",
"name": "19061",
"features": [
{ "type": "Feature", "properties": { "CCAA": "08 - Castilla-La Mancha", "PROVINCIA": "19 - Guadalajara", "MUNICIPIO": "19061 - Campisábalos", "COD_MUNICIPIO": "19061", "DISTRITO": "01", "SECCION": "1906101001", "V1_H": 75.48, "V1_M": 82.31, "V2_H": 75.36985678000001, "V2_M": 82.56533706, "V3_H": 75.8600571, "V3_M": 82.01450712 }, "geometry": { "type": "Polygon", "coordinates": [ [ [ -3.1648905, 41.2953592 ], [ -3.1658952, 41.2958892 ], [ -3.1708719, 41.2990167 ], [ -3.1775382, 41.2994932 ], [ -3.1786022, 41.2998068 ], [ -3.1790652, 41.2988152 ], [ -3.1804098, 41.2969486 ], [ -3.1810164, 41.2959927 ], [ -3.1813607, 41.2952626 ], [ -3.1820829, 41.2886588 ], [ -3.181111, 41.2870209 ], [ -3.1810679, 41.2843908 ], [ -3.1810137, 41.2820669 ], [ -3.1817874, 41.2811649 ], [ -3.1856789, 41.2806903 ], [ -3.1866664, 41.2793917 ], [ -3.1862927, 41.2781852 ], [ -3.1866337, 41.2763021 ], [ -3.1875656, 41.2765257 ], [ -3.1876492, 41.2765346 ], [ -3.1899498, 41.2751887 ], [ -3.1901401, 41.2749002 ], [ -3.190712, 41.2745209 ], [ -3.1910303, 41.2730971 ], [ -3.1910395, 41.2721603 ], [ -3.1951944, 41.268109 ], [ -3.1960272, 41.2671167 ], [ -3.1977507, 41.2646186 ], [ -3.1984389, 41.2632213 ], [ -3.1991877, 41.262121 ], [ -3.2001866, 41.2608492 ], [ -3.2029115, 41.258007 ], [ -3.2032917, 41.2574299 ], [ -3.2033496, 41.2568623 ], [ -3.2032875, 41.2560427 ], [ -3.2033809, 41.255385 ], [ -3.2036895, 41.254817 ], [ -3.2050231, 41.2538147 ], [ -3.2054377, 41.2527601 ], [ -3.2062474, 41.2521461 ], [ -3.2075101, 41.2513602 ], [ -3.2084637, 41.2509622 ], [ -3.2076614, 41.2501349 ], [ -3.2066916, 41.2491458 ], [ -3.2057222, 41.2483278 ], [ -3.204848, 41.2473745 ], [ -3.2033737, 41.2453413 ], [ -3.2026284, 41.2435951 ], [ -3.2024602, 41.2432441 ], [ -3.2015401, 41.2428674 ], [ -3.1999515, 41.2424018 ], [ -3.196451, 41.2411466 ], [ -3.1958419, 41.2409945 ], [ -3.1951022, 41.2410678 ], [ -3.1935764, 41.2416649 ], [ -3.1920632, 41.2424781 ], [ -3.1914798, 41.2429295 ], [ -3.1905861, 41.2434174 ], [ -3.1887149, 41.2442851 ], [ -3.1877362, 41.2442687 ], [ -3.1875688, 41.2441699 ], [ -3.1851478, 41.2447323 ], [ -3.1782491, 41.2445359 ], [ -3.176626, 41.2445654 ], [ -3.173229, 41.2462099 ], [ -3.1722141, 41.2460493 ], [ -3.1704659, 41.2438089 ], [ -3.1652965, 41.2430868 ], [ -3.1635065, 41.2431523 ], [ -3.1609891, 41.2434531 ], [ -3.1592224, 41.2432664 ], [ -3.1529132, 41.2450314 ], [ -3.1521839, 41.2444919 ], [ -3.1507255, 41.2434399 ], [ -3.1506524, 41.2427283 ], [ -3.150628, 41.2425482 ], [ -3.15025, 41.2390447 ], [ -3.1499823, 41.23673 ], [ -3.1493267, 41.2317856 ], [ -3.1430933, 41.2295865 ], [ -3.1346784, 41.2281463 ], [ -3.1301207, 41.2281965 ], [ -3.1255989, 41.2283366 ], [ -3.118811, 41.2290013 ], [ -3.1148504, 41.2294017 ], [ -3.1134329, 41.2307903 ], [ -3.1120848, 41.2309357 ], [ -3.1106664, 41.2318198 ], [ -3.1079231, 41.232507 ], [ -3.105859, 41.232626 ], [ -3.1037473, 41.2328801 ], [ -3.0999434, 41.2345228 ], [ -3.0960901, 41.2351746 ], [ -3.0944584, 41.2373198 ], [ -3.0904751, 41.2391245 ], [ -3.0833132, 41.2376976 ], [ -3.0809839, 41.2357806 ], [ -3.0797102, 41.2384027 ], [ -3.0769953, 41.243494 ], [ -3.0761006, 41.2438638 ], [ -3.0718888, 41.2448303 ], [ -3.0733388, 41.250135 ], [ -3.0744535, 41.2542959 ], [ -3.0744664, 41.2551697 ], [ -3.0742891, 41.2566921 ], [ -3.0757103, 41.2573848 ], [ -3.0767248, 41.257231 ], [ -3.0786818, 41.2567162 ], [ -3.0794103, 41.257004 ], [ -3.0830869, 41.2570465 ], [ -3.0853551, 41.2571349 ], [ -3.0873607, 41.2574307 ], [ -3.0894524, 41.2593658 ], [ -3.0903493, 41.2605721 ], [ -3.0917708, 41.2612736 ], [ -3.0958437, 41.2627296 ], [ -3.0960588, 41.2629005 ], [ -3.0969194, 41.2636115 ], [ -3.0970034, 41.2639086 ], [ -3.0973996, 41.2653946 ], [ -3.097413, 41.2664035 ], [ -3.0971879, 41.2676017 ], [ -3.0967118, 41.268629 ], [ -3.0976575, 41.2702946 ], [ -3.0976238, 41.2717268 ], [ -3.0979234, 41.2725012 ], [ -3.0980796, 41.2731227 ], [ -3.0980211, 41.2739244 ], [ -3.0977127, 41.2753118 ], [ -3.0978271, 41.2799327 ], [ -3.1001676, 41.2800749 ], [ -3.1070323, 41.2865092 ], [ -3.1086587, 41.287886 ], [ -3.1189911, 41.2891099 ], [ -3.1212251, 41.2894679 ], [ -3.1250495, 41.290887 ], [ -3.1300481, 41.2881522 ], [ -3.1356059, 41.2903348 ], [ -3.1412947, 41.2921836 ], [ -3.1484124, 41.2919946 ], [ -3.1516508, 41.2927651 ], [ -3.1537413, 41.2929515 ], [ -3.1577918, 41.2936666 ], [ -3.1606478, 41.2942573 ], [ -3.1648905, 41.2953592 ] ] ] } }
]
}
