{
"type": "FeatureCollection",
"name": "19135",
"features": [
{ "type": "Feature", "properties": { "CCAA": "08 - Castilla-La Mancha", "PROVINCIA": "19 - Guadalajara", "MUNICIPIO": "19135 - Hiendelaencina", "COD_MUNICIPIO": "19135", "DISTRITO": "01", "SECCION": "1913501001", "V1_H": 81.55, "V1_M": 86.88, "V2_H": 81.46298126000001, "V2_M": 86.741846, "V3_H": 81.68783029, "V3_M": 87.18580847 }, "geometry": { "type": "Polygon", "coordinates": [ [ [ -2.9559717, 41.0823413 ], [ -2.956555, 41.0823325 ], [ -2.9573053, 41.0820626 ], [ -2.9584596, 41.0826755 ], [ -2.9592568, 41.0834685 ], [ -2.959816, 41.0840362 ], [ -2.9614464, 41.0851538 ], [ -2.9630414, 41.0857398 ], [ -2.9646602, 41.086434 ], [ -2.9658862, 41.08711 ], [ -2.9674336, 41.0878041 ], [ -2.9688736, 41.0890295 ], [ -2.9703257, 41.0903001 ], [ -2.9727533, 41.0932553 ], [ -2.9746337, 41.0957419 ], [ -2.9757762, 41.0973546 ], [ -2.9763594, 41.0982015 ], [ -2.9768708, 41.0998681 ], [ -2.9778821, 41.1023815 ], [ -2.9787509, 41.1040572 ], [ -2.9802265, 41.1078409 ], [ -2.9802739, 41.1084624 ], [ -2.9807977, 41.109057 ], [ -2.9809049, 41.1091921 ], [ -2.9827744, 41.1106157 ], [ -2.9857758, 41.1106251 ], [ -2.9872052, 41.1092021 ], [ -2.9881106, 41.1085085 ], [ -2.9901592, 41.1074908 ], [ -2.9934823, 41.1054463 ], [ -2.9959835, 41.1025098 ], [ -2.9971864, 41.101546 ], [ -2.9989965, 41.100375 ], [ -3.0017831, 41.0989517 ], [ -3.0049387, 41.0977266 ], [ -3.0062843, 41.0974022 ], [ -3.0080467, 41.0970868 ], [ -3.0084753, 41.0968886 ], [ -3.0090826, 41.0964382 ], [ -3.0094039, 41.0958436 ], [ -3.0087846, 41.095096 ], [ -3.0085345, 41.0946546 ], [ -3.0085465, 41.0942763 ], [ -3.0089512, 41.0936728 ], [ -3.0091535, 41.0926819 ], [ -3.0095106, 41.0922945 ], [ -3.0100346, 41.0920422 ], [ -3.0104632, 41.0920332 ], [ -3.0111895, 41.0921412 ], [ -3.0115945, 41.0923213 ], [ -3.0124635, 41.0917988 ], [ -3.0143565, 41.0908257 ], [ -3.0150946, 41.090132 ], [ -3.0158208, 41.0897535 ], [ -3.0164637, 41.0897085 ], [ -3.0174163, 41.0895552 ], [ -3.0180472, 41.0892579 ], [ -3.0184162, 41.0888795 ], [ -3.018678, 41.0883029 ], [ -3.0189873, 41.0872219 ], [ -3.0194992, 41.0868074 ], [ -3.0202013, 41.0858615 ], [ -3.0205697, 41.0839337 ], [ -3.0208317, 41.0837625 ], [ -3.0226531, 41.0833568 ], [ -3.0233791, 41.0830774 ], [ -3.0236767, 41.0827621 ], [ -3.0237718, 41.0823567 ], [ -3.0243428, 41.0812216 ], [ -3.0249378, 41.0803026 ], [ -3.0255804, 41.0796089 ], [ -3.0258064, 41.0791584 ], [ -3.025949, 41.0784107 ], [ -3.0262819, 41.0774648 ], [ -3.0253885, 41.0758796 ], [ -3.0252694, 41.0755643 ], [ -3.0252573, 41.075258 ], [ -3.0256023, 41.0745734 ], [ -3.0256618, 41.0743571 ], [ -3.0257331, 41.0740868 ], [ -3.0256853, 41.0736906 ], [ -3.0254591, 41.0734384 ], [ -3.0251733, 41.0732853 ], [ -3.0250423, 41.0732493 ], [ -3.0233163, 41.0728623 ], [ -3.0230067, 41.0727273 ], [ -3.0228876, 41.0725201 ], [ -3.0228875, 41.0722048 ], [ -3.0231727, 41.0707905 ], [ -3.0230652, 41.0698807 ], [ -3.0231366, 41.0696555 ], [ -3.0238506, 41.0691149 ], [ -3.0243266, 41.0685923 ], [ -3.0244811, 41.0680878 ], [ -3.0243262, 41.0675384 ], [ -3.0234214, 41.0671872 ], [ -3.0229929, 41.0669621 ], [ -3.0224928, 41.0662776 ], [ -3.0215281, 41.064341 ], [ -3.0208967, 41.0624765 ], [ -3.0208491, 41.0623594 ], [ -3.0208966, 41.0621162 ], [ -3.0210392, 41.0613775 ], [ -3.0209677, 41.0610532 ], [ -3.0208963, 41.0610262 ], [ -3.0204559, 41.0608912 ], [ -3.0202416, 41.060729 ], [ -3.0201462, 41.0600174 ], [ -3.0204792, 41.0590895 ], [ -3.020729, 41.0588283 ], [ -3.0208956, 41.0587652 ], [ -3.0220261, 41.0583326 ], [ -3.0228948, 41.0583504 ], [ -3.0234896, 41.0578098 ], [ -3.0242036, 41.0573593 ], [ -3.0246675, 41.0569268 ], [ -3.0248697, 41.0565124 ], [ -3.0249645, 41.0556656 ], [ -3.0248574, 41.0554134 ], [ -3.0247026, 41.0552693 ], [ -3.0244408, 41.0552424 ], [ -3.0231557, 41.055675 ], [ -3.0230843, 41.0556661 ], [ -3.0229772, 41.055657 ], [ -3.022751, 41.0555219 ], [ -3.0226081, 41.0550175 ], [ -3.0225247, 41.0547743 ], [ -3.0225245, 41.0539366 ], [ -3.0223695, 41.053234 ], [ -3.0221076, 41.0528287 ], [ -3.0217503, 41.052027 ], [ -3.0208935, 41.051901 ], [ -3.0207746, 41.051883 ], [ -3.0131347, 41.0508212 ], [ -3.0116473, 41.0507402 ], [ -3.008482, 41.0503712 ], [ -3.0075301, 41.0513621 ], [ -3.0066497, 41.0525512 ], [ -3.0055906, 41.0537494 ], [ -3.0031512, 41.054425 ], [ -3.0010686, 41.0561726 ], [ -2.9992597, 41.0581454 ], [ -2.9983909, 41.0580102 ], [ -2.9976174, 41.0580823 ], [ -2.9973793, 41.058812 ], [ -2.9967485, 41.0591182 ], [ -2.9962368, 41.0595415 ], [ -2.9954274, 41.0609648 ], [ -2.994975, 41.0624871 ], [ -2.9933442, 41.0641625 ], [ -2.9928681, 41.0648111 ], [ -2.9925467, 41.0654416 ], [ -2.9922252, 41.0658019 ], [ -2.9881423, 41.068576 ], [ -2.9864994, 41.069846 ], [ -2.983154, 41.0723047 ], [ -2.9820348, 41.0731242 ], [ -2.9800584, 41.0745742 ], [ -2.9785938, 41.0758621 ], [ -2.978058, 41.0760151 ], [ -2.9690585, 41.076067 ], [ -2.9644153, 41.0772727 ], [ -2.9599504, 41.0785954 ], [ -2.9585447, 41.0800092 ], [ -2.9569126, 41.081648 ], [ -2.9559717, 41.0823413 ] ] ] } }
]
}
