{
"type": "FeatureCollection",
"name": "19169",
"features": [
{ "type": "Feature", "properties": { "CCAA": "08 - Castilla-La Mancha", "PROVINCIA": "19 - Guadalajara", "MUNICIPIO": "19169 - Mantiel", "COD_MUNICIPIO": "19169", "DISTRITO": "01", "SECCION": "1916901001", "V1_H": 75.48, "V1_M": 82.31, "V2_H": 75.36985678000001, "V2_M": 82.56533706, "V3_H": 75.8600571, "V3_M": 82.01450712 }, "geometry": { "type": "Polygon", "coordinates": [ [ [ -2.6597705, 40.6426591 ], [ -2.6609607, 40.6435094 ], [ -2.6627768, 40.6445598 ], [ -2.6639906, 40.6454372 ], [ -2.6668857, 40.6483284 ], [ -2.6664674, 40.649201 ], [ -2.6672268, 40.651086 ], [ -2.6675045, 40.6523481 ], [ -2.6684741, 40.6547832 ], [ -2.6687428, 40.6554777 ], [ -2.6690336, 40.6564515 ], [ -2.6699471, 40.6559226 ], [ -2.6707188, 40.6553482 ], [ -2.6716433, 40.6549905 ], [ -2.6716433, 40.6549905 ], [ -2.6724246, 40.6548756 ], [ -2.6733235, 40.6548782 ], [ -2.6733236, 40.6548782 ], [ -2.6749908, 40.654991 ], [ -2.6749909, 40.654991 ], [ -2.6763015, 40.6554729 ], [ -2.6771635, 40.6557898 ], [ -2.6771636, 40.6557899 ], [ -2.6783213, 40.6561174 ], [ -2.679059, 40.6562614 ], [ -2.6795385, 40.6563551 ], [ -2.6798146, 40.6563208 ], [ -2.6800356, 40.6562934 ], [ -2.6800356, 40.6562933 ], [ -2.6807939, 40.6560342 ], [ -2.6815293, 40.6556399 ], [ -2.6826451, 40.6548052 ], [ -2.6839246, 40.6543943 ], [ -2.6844123, 40.6538191 ], [ -2.6846273, 40.6533782 ], [ -2.6846053, 40.6530178 ], [ -2.6832398, 40.6516267 ], [ -2.6826057, 40.650661 ], [ -2.6826056, 40.6506611 ], [ -2.6823929, 40.6507736 ], [ -2.6817756, 40.6511001 ], [ -2.6807563, 40.6515388 ], [ -2.6807562, 40.6515388 ], [ -2.6795485, 40.6518147 ], [ -2.6795484, 40.6518147 ], [ -2.6791952, 40.6514803 ], [ -2.6793793, 40.6500845 ], [ -2.6783877, 40.6496764 ], [ -2.6770013, 40.6477356 ], [ -2.6770895, 40.6466188 ], [ -2.67675, 40.6458971 ], [ -2.6759036, 40.6448047 ], [ -2.6758948, 40.6442011 ], [ -2.6772016, 40.6429796 ], [ -2.6774049, 40.6425207 ], [ -2.6784548, 40.6406137 ], [ -2.6788717, 40.6400023 ], [ -2.6791687, 40.6397148 ], [ -2.679761, 40.6395003 ], [ -2.6803053, 40.6394477 ], [ -2.6809673, 40.6394946 ], [ -2.6814752, 40.6396402 ], [ -2.682183, 40.6400115 ], [ -2.6828535, 40.6407701 ], [ -2.6832876, 40.641492 ], [ -2.6838257, 40.6427637 ], [ -2.6843777, 40.643576 ], [ -2.6855453, 40.6442729 ], [ -2.6860885, 40.6444455 ], [ -2.6866086, 40.644528 ], [ -2.6873779, 40.644395 ], [ -2.6875557, 40.6443234 ], [ -2.6879112, 40.6441712 ], [ -2.6886954, 40.6433805 ], [ -2.6889454, 40.6430389 ], [ -2.6892647, 40.6404993 ], [ -2.6894456, 40.639743 ], [ -2.6892122, 40.6390667 ], [ -2.6889191, 40.6385164 ], [ -2.6881312, 40.6375594 ], [ -2.6876246, 40.6371616 ], [ -2.6875537, 40.6371254 ], [ -2.6869282, 40.6368804 ], [ -2.6864319, 40.636771 ], [ -2.6856278, 40.6367868 ], [ -2.684219, 40.6371163 ], [ -2.6838168, 40.6371242 ], [ -2.6831431, 40.6370413 ], [ -2.6817618, 40.636551 ], [ -2.6808166, 40.6363862 ], [ -2.6798945, 40.6363116 ], [ -2.6787701, 40.6365246 ], [ -2.6782391, 40.6362799 ], [ -2.6781336, 40.6360724 ], [ -2.6789698, 40.6343361 ], [ -2.6791859, 40.633652 ], [ -2.679443, 40.6318149 ], [ -2.6794113, 40.631022 ], [ -2.6794973, 40.6303647 ], [ -2.6798191, 40.629816 ], [ -2.6808042, 40.629053 ], [ -2.6814557, 40.6288116 ], [ -2.6819393, 40.6290742 ], [ -2.6824101, 40.6295079 ], [ -2.6827406, 40.6296529 ], [ -2.6836268, 40.6297905 ], [ -2.6852231, 40.6297859 ], [ -2.6859099, 40.6295806 ], [ -2.6867634, 40.6291054 ], [ -2.6872737, 40.6287284 ], [ -2.6875462, 40.628603 ], [ -2.6878542, 40.6284778 ], [ -2.6885522, 40.6284076 ], [ -2.6901837, 40.628466 ], [ -2.6906687, 40.6284223 ], [ -2.6910357, 40.6283242 ], [ -2.6912967, 40.6281087 ], [ -2.6915008, 40.6274606 ], [ -2.6916675, 40.6271998 ], [ -2.6922848, 40.62667 ], [ -2.6925947, 40.6261392 ], [ -2.6927627, 40.6255992 ], [ -2.6926825, 40.6250494 ], [ -2.6924495, 40.624283 ], [ -2.6924981, 40.6239949 ], [ -2.6921826, 40.6231743 ], [ -2.6922198, 40.622796 ], [ -2.692411, 40.6223461 ], [ -2.6927436, 40.6220046 ], [ -2.6932537, 40.6216546 ], [ -2.6961565, 40.620311 ], [ -2.6970097, 40.6198628 ], [ -2.6965146, 40.6195372 ], [ -2.6958905, 40.6189771 ], [ -2.6944171, 40.6180272 ], [ -2.6931357, 40.6164382 ], [ -2.6924186, 40.6155715 ], [ -2.69151, 40.6151637 ], [ -2.6908749, 40.6144773 ], [ -2.6906304, 40.6136478 ], [ -2.6901964, 40.6129079 ], [ -2.6893964, 40.612086 ], [ -2.6889856, 40.6114452 ], [ -2.6878941, 40.6097666 ], [ -2.6875529, 40.6094234 ], [ -2.6867409, 40.6086374 ], [ -2.6830419, 40.6084381 ], [ -2.6813644, 40.6082082 ], [ -2.6799358, 40.6078619 ], [ -2.6789447, 40.6074808 ], [ -2.6781423, 40.6071812 ], [ -2.6751754, 40.6071819 ], [ -2.6722858, 40.6058585 ], [ -2.6705506, 40.605367 ], [ -2.6695358, 40.6050218 ], [ -2.6682855, 40.6044956 ], [ -2.6670474, 40.6038794 ], [ -2.6646387, 40.6032923 ], [ -2.6637182, 40.603068 ], [ -2.6626078, 40.6029476 ], [ -2.6607163, 40.6030142 ], [ -2.6557569, 40.6020715 ], [ -2.6526536, 40.6033144 ], [ -2.652049, 40.6036729 ], [ -2.6515267, 40.6041038 ], [ -2.650549, 40.6057224 ], [ -2.6499534, 40.6066035 ], [ -2.6489593, 40.6090959 ], [ -2.6482589, 40.6096703 ], [ -2.6476524, 40.6103531 ], [ -2.6461146, 40.6127808 ], [ -2.645672, 40.6137794 ], [ -2.6455371, 40.6146979 ], [ -2.6464052, 40.618214 ], [ -2.6464788, 40.6221871 ], [ -2.6474425, 40.6255414 ], [ -2.647485, 40.6264604 ], [ -2.6479624, 40.6278582 ], [ -2.6484662, 40.6310038 ], [ -2.6505722, 40.6330282 ], [ -2.6512895, 40.6338051 ], [ -2.6514423, 40.6339858 ], [ -2.6517007, 40.6343288 ], [ -2.6518414, 40.6345455 ], [ -2.6518995, 40.6347529 ], [ -2.6518855, 40.6351763 ], [ -2.651834, 40.6359779 ], [ -2.655862, 40.6391611 ], [ -2.6568291, 40.6396685 ], [ -2.6575587, 40.6403913 ], [ -2.6594672, 40.6418294 ], [ -2.6597705, 40.6426591 ] ] ] } }
]
}
