{
"type": "FeatureCollection",
"name": "19261",
"features": [
{ "type": "Feature", "properties": { "CCAA": "08 - Castilla-La Mancha", "PROVINCIA": "19 - Guadalajara", "MUNICIPIO": "19261 - Sotodosos", "COD_MUNICIPIO": "19261", "DISTRITO": "01", "SECCION": "1926101001", "V1_H": 75.48, "V1_M": 82.31, "V2_H": 75.36985678000001, "V2_M": 82.56533706, "V3_H": 75.8600571, "V3_M": 82.01450712 }, "geometry": { "type": "Polygon", "coordinates": [ [ [ -2.3604369, 40.9143093 ], [ -2.3646149, 40.9145126 ], [ -2.3666023, 40.9153073 ], [ -2.3672387, 40.9158152 ], [ -2.3677665, 40.9165118 ], [ -2.3672533, 40.9167792 ], [ -2.3646397, 40.9181341 ], [ -2.363457, 40.9188572 ], [ -2.3631096, 40.9191705 ], [ -2.363815, 40.9236246 ], [ -2.3656826, 40.9257968 ], [ -2.3669413, 40.927074 ], [ -2.3668585, 40.9307669 ], [ -2.366136, 40.9342851 ], [ -2.3661661, 40.9348618 ], [ -2.3664314, 40.9356831 ], [ -2.3670874, 40.9366595 ], [ -2.3673313, 40.9372374 ], [ -2.367433, 40.9377785 ], [ -2.3672619, 40.938282 ], [ -2.3665731, 40.9395124 ], [ -2.3664734, 40.9399983 ], [ -2.3665581, 40.9410797 ], [ -2.3715965, 40.9421883 ], [ -2.3787361, 40.9434792 ], [ -2.3801364, 40.9436399 ], [ -2.3811341, 40.9436723 ], [ -2.3814661, 40.9437371 ], [ -2.3836653, 40.9448659 ], [ -2.3846939, 40.9454029 ], [ -2.3863702, 40.9465649 ], [ -2.3872908, 40.9459302 ], [ -2.3907461, 40.9435703 ], [ -2.3922328, 40.9420828 ], [ -2.3945298, 40.9403293 ], [ -2.3962036, 40.939158 ], [ -2.3978074, 40.9378512 ], [ -2.4011606, 40.9348599 ], [ -2.4018298, 40.934413 ], [ -2.4029161, 40.9338241 ], [ -2.4050753, 40.9327993 ], [ -2.4067923, 40.9320605 ], [ -2.4081507, 40.93159 ], [ -2.4093653, 40.9312449 ], [ -2.41183, 40.9305639 ], [ -2.4122245, 40.9302867 ], [ -2.4137333, 40.928907 ], [ -2.4146647, 40.9283443 ], [ -2.4159031, 40.9279902 ], [ -2.4187821, 40.9274553 ], [ -2.4246336, 40.9265478 ], [ -2.4255977, 40.9263094 ], [ -2.4261844, 40.9257628 ], [ -2.4312547, 40.9189777 ], [ -2.4326391, 40.9168045 ], [ -2.4338067, 40.9149545 ], [ -2.4358676, 40.9141899 ], [ -2.4363486, 40.9134806 ], [ -2.4374763, 40.9121348 ], [ -2.437766, 40.9115868 ], [ -2.4380432, 40.9110927 ], [ -2.4377958, 40.9108662 ], [ -2.4378161, 40.9084611 ], [ -2.4378054, 40.908326 ], [ -2.4346504, 40.9051396 ], [ -2.4331479, 40.9045016 ], [ -2.4282444, 40.9017299 ], [ -2.4277014, 40.9013668 ], [ -2.4272409, 40.9010763 ], [ -2.4259801, 40.8999709 ], [ -2.4244393, 40.8982967 ], [ -2.4209775, 40.8936581 ], [ -2.4195049, 40.8910113 ], [ -2.4185146, 40.8888802 ], [ -2.4181903, 40.8879598 ], [ -2.4174597, 40.8873526 ], [ -2.4167163, 40.8868353 ], [ -2.4155405, 40.8869194 ], [ -2.4131749, 40.8873128 ], [ -2.4101205, 40.8877296 ], [ -2.4080652, 40.8879263 ], [ -2.4033711, 40.8885236 ], [ -2.4012592, 40.8884136 ], [ -2.3949452, 40.8882995 ], [ -2.3933077, 40.8882279 ], [ -2.3926562, 40.8880892 ], [ -2.3879667, 40.8868754 ], [ -2.3831364, 40.8855073 ], [ -2.3827462, 40.8853521 ], [ -2.3819321, 40.8848253 ], [ -2.3815056, 40.884742 ], [ -2.3795109, 40.8848033 ], [ -2.3786453, 40.8846995 ], [ -2.3761291, 40.8846949 ], [ -2.374931, 40.8846164 ], [ -2.3743603, 40.8847034 ], [ -2.3738493, 40.8847817 ], [ -2.3735772, 40.8846811 ], [ -2.3713886, 40.8839125 ], [ -2.3710069, 40.8841085 ], [ -2.370672, 40.884377 ], [ -2.3707527, 40.8846296 ], [ -2.3710393, 40.8856942 ], [ -2.3709178, 40.8859908 ], [ -2.3698653, 40.8868318 ], [ -2.3691722, 40.8873235 ], [ -2.3688128, 40.8876639 ], [ -2.3680698, 40.8896596 ], [ -2.367568, 40.8912424 ], [ -2.3678523, 40.8925501 ], [ -2.3694405, 40.9028103 ], [ -2.3686586, 40.903878 ], [ -2.3659037, 40.9076464 ], [ -2.3604369, 40.9143093 ] ] ] } }
]
}
