{
"type": "FeatureCollection",
"name": "20051",
"features": [
{ "type": "Feature", "properties": { "CCAA": "16 - País Vasco", "PROVINCIA": "20 - Gipuzkoa", "MUNICIPIO": "20051 - Legazpi", "COD_MUNICIPIO": "20051", "DISTRITO": "01", "SECCION": "2005101002", "V1_H": 81.41, "V1_M": 86.82, "V2_H": 80.96532964, "V2_M": 86.87567885, "V3_H": 81.8694609, "V3_M": 86.90400308 }, "geometry": { "type": "Polygon", "coordinates": [ [ [ -2.3347979, 43.0511421 ], [ -2.3347323, 43.0511024 ], [ -2.3343147, 43.0509694 ], [ -2.3339503, 43.0509583 ], [ -2.3334108, 43.0508155 ], [ -2.333178, 43.0507113 ], [ -2.333788, 43.0501018 ], [ -2.3339112, 43.0501216 ], [ -2.3345355, 43.0494724 ], [ -2.3349766, 43.0489413 ], [ -2.3351752, 43.0485946 ], [ -2.334988, 43.0484839 ], [ -2.3351792, 43.0482277 ], [ -2.3351993, 43.0481706 ], [ -2.3348964, 43.0479402 ], [ -2.3334756, 43.0489469 ], [ -2.3326281, 43.0498885 ], [ -2.3326106, 43.0498789 ], [ -2.3314747, 43.051232 ], [ -2.3320398, 43.0514829 ], [ -2.3316691, 43.051985 ], [ -2.331466, 43.0520334 ], [ -2.3311785, 43.0524189 ], [ -2.3312846, 43.0525456 ], [ -2.3312835, 43.0526536 ], [ -2.3316098, 43.052498 ], [ -2.3316319, 43.0529348 ], [ -2.3313453, 43.0557067 ], [ -2.3322921, 43.0580625 ], [ -2.3330368, 43.0578958 ], [ -2.3334217, 43.0573037 ], [ -2.3334496, 43.0572988 ], [ -2.333511, 43.0570764 ], [ -2.3336354, 43.0569938 ], [ -2.3336987, 43.0568464 ], [ -2.3349542, 43.0567227 ], [ -2.3355118, 43.0569795 ], [ -2.3356412, 43.056961 ], [ -2.3358062, 43.0566738 ], [ -2.3352274, 43.0564723 ], [ -2.3346734, 43.0565276 ], [ -2.3342976, 43.0562913 ], [ -2.3339371, 43.0558524 ], [ -2.3337797, 43.0554328 ], [ -2.3341999, 43.0553272 ], [ -2.3340019, 43.0548982 ], [ -2.3344077, 43.0548421 ], [ -2.3344536, 43.0540847 ], [ -2.334229, 43.0540834 ], [ -2.334207, 43.0537068 ], [ -2.3345325, 43.0536563 ], [ -2.3345284, 43.0534323 ], [ -2.3345698, 43.0532086 ], [ -2.3347278, 43.0530141 ], [ -2.3348174, 43.0529036 ], [ -2.3350358, 43.0522749 ], [ -2.3347245, 43.052123 ], [ -2.3347979, 43.0511421 ] ] ] } },
{ "type": "Feature", "properties": { "CCAA": "16 - País Vasco", "PROVINCIA": "20 - Gipuzkoa", "MUNICIPIO": "20051 - Legazpi", "COD_MUNICIPIO": "20051", "DISTRITO": "01", "SECCION": "2005101004", "V1_H": 81.47, "V1_M": 86.95, "V2_H": 81.05678048, "V2_M": 86.75805168, "V3_H": 81.85108408000001, "V3_M": 87.21302779 }, "geometry": { "type": "Polygon", "coordinates": [ [ [ -2.3268097, 43.0782105 ], [ -2.3269295, 43.0782022 ], [ -2.3270646, 43.078203 ], [ -2.3271451, 43.0782169 ], [ -2.3273453, 43.0782992 ], [ -2.3274261, 43.0783582 ], [ -2.3275014, 43.0784171 ], [ -2.3277113, 43.0785399 ], [ -2.3278041, 43.078608 ], [ -2.3279033, 43.0786671 ], [ -2.3280408, 43.078731 ], [ -2.3283042, 43.0788676 ], [ -2.3284157, 43.0789178 ], [ -2.3286999, 43.078978 ], [ -2.3292758, 43.079112 ], [ -2.3303985, 43.0794427 ], [ -2.3315592, 43.0798863 ], [ -2.3326701, 43.080388 ], [ -2.3329812, 43.080579 ], [ -2.3331189, 43.0806968 ], [ -2.3331816, 43.0807963 ], [ -2.3332306, 43.0810217 ], [ -2.3332709, 43.08113 ], [ -2.3333072, 43.0811797 ], [ -2.3338912, 43.081773 ], [ -2.3341959, 43.0820584 ], [ -2.3356166, 43.0833859 ], [ -2.3356469, 43.0834221 ], [ -2.3359906, 43.0836627 ], [ -2.3370715, 43.0843939 ], [ -2.3376471, 43.0846314 ], [ -2.3385159, 43.0848886 ], [ -2.3391216, 43.0852523 ], [ -2.3397071, 43.0854267 ], [ -2.3405358, 43.0855576 ], [ -2.3410282, 43.0858171 ], [ -2.3416893, 43.0858929 ], [ -2.3421209, 43.086035 ], [ -2.3423792, 43.0862887 ], [ -2.3427909, 43.0864171 ], [ -2.3430832, 43.0865223 ], [ -2.3436963, 43.086841 ], [ -2.3453072, 43.0875031 ], [ -2.3459737, 43.0877951 ], [ -2.3463612, 43.0878874 ], [ -2.3469607, 43.0879764 ], [ -2.3471226, 43.0879863 ], [ -2.3472247, 43.0879914 ], [ -2.3473268, 43.087992 ], [ -2.347426, 43.0879881 ], [ -2.3475251, 43.0879796 ], [ -2.3476228, 43.0879621 ], [ -2.3477952, 43.0879271 ], [ -2.3481349, 43.08783 ], [ -2.3484781, 43.0877554 ], [ -2.3486503, 43.0877339 ], [ -2.3487064, 43.0877297 ], [ -2.3488153, 43.0877484 ], [ -2.3489209, 43.0877895 ], [ -2.3489881, 43.0878259 ], [ -2.3491146, 43.0879121 ], [ -2.3491396, 43.0879393 ], [ -2.349169, 43.087989 ], [ -2.3491833, 43.0880251 ], [ -2.3492209, 43.0880928 ], [ -2.3492323, 43.0881064 ], [ -2.3492468, 43.08812 ], [ -2.3492627, 43.0881336 ], [ -2.3493131, 43.0881609 ], [ -2.3494057, 43.088193 ], [ -2.3494977, 43.088207 ], [ -2.3495437, 43.0882117 ], [ -2.3496098, 43.0882076 ], [ -2.349669, 43.088199 ], [ -2.3496945, 43.0881901 ], [ -2.3497269, 43.0881768 ], [ -2.3497609, 43.0881545 ], [ -2.3497587, 43.088141 ], [ -2.3498887, 43.087831 ], [ -2.3500744, 43.0873368 ], [ -2.3504801, 43.0864431 ], [ -2.3514368, 43.0844225 ], [ -2.3519509, 43.0834303 ], [ -2.3519959, 43.0833855 ], [ -2.352415, 43.0822443 ], [ -2.3541878, 43.0794808 ], [ -2.354532, 43.079019 ], [ -2.3550564, 43.0769733 ], [ -2.3541875, 43.0755006 ], [ -2.3538027, 43.0748591 ], [ -2.3541877, 43.0747577 ], [ -2.3543073, 43.0746954 ], [ -2.3572765, 43.0734829 ], [ -2.3597667, 43.0725469 ], [ -2.362262, 43.0718585 ], [ -2.3628356, 43.0716996 ], [ -2.3635019, 43.0714782 ], [ -2.3671424, 43.0701252 ], [ -2.3698821, 43.0697621 ], [ -2.3712981, 43.0697249 ], [ -2.3723913, 43.0697129 ], [ -2.3731306, 43.0696314 ], [ -2.3737827, 43.0693784 ], [ -2.375261, 43.0674414 ], [ -2.3760536, 43.0665632 ], [ -2.3776248, 43.0649914 ], [ -2.3772736, 43.064053 ], [ -2.3766717, 43.0630051 ], [ -2.3762856, 43.0625528 ], [ -2.3757023, 43.0618697 ], [ -2.3754838, 43.0616164 ], [ -2.3752861, 43.0613496 ], [ -2.3751093, 43.0610785 ], [ -2.3749532, 43.060803 ], [ -2.3748561, 43.0603972 ], [ -2.3747603, 43.0600816 ], [ -2.3746922, 43.059757 ], [ -2.3746517, 43.0594371 ], [ -2.3745481, 43.0577796 ], [ -2.3738844, 43.0567134 ], [ -2.3733947, 43.056265 ], [ -2.3729842, 43.0558035 ], [ -2.3724878, 43.0551839 ], [ -2.3720334, 43.0545105 ], [ -2.3706686, 43.0531207 ], [ -2.3706473, 43.0530981 ], [ -2.3686059, 43.0522764 ], [ -2.3669646, 43.0515153 ], [ -2.3662758, 43.0511783 ], [ -2.3652896, 43.0505875 ], [ -2.3643408, 43.0499519 ], [ -2.36402, 43.049725 ], [ -2.3627537, 43.0487724 ], [ -2.3620021, 43.0482864 ], [ -2.36151, 43.048018 ], [ -2.358482, 43.0496895 ], [ -2.3546418, 43.0500641 ], [ -2.3492815, 43.0510647 ], [ -2.3434417, 43.051468 ], [ -2.3389215, 43.0521848 ], [ -2.3391023, 43.0529288 ], [ -2.3394384, 43.054358 ], [ -2.3395792, 43.0551108 ], [ -2.3390071, 43.0554947 ], [ -2.3375791, 43.0563959 ], [ -2.3377651, 43.0567256 ], [ -2.3379503, 43.0570554 ], [ -2.3378532, 43.0573115 ], [ -2.3377966, 43.0575768 ], [ -2.3385238, 43.0577521 ], [ -2.3393736, 43.0578831 ], [ -2.3398588, 43.0580075 ], [ -2.3408543, 43.05836 ], [ -2.3418909, 43.0587487 ], [ -2.3417741, 43.0595539 ], [ -2.34095, 43.0595267 ], [ -2.3408725, 43.0595102 ], [ -2.3406929, 43.0601343 ], [ -2.3383875, 43.0599876 ], [ -2.33848, 43.0591958 ], [ -2.3378484, 43.0590359 ], [ -2.3375279, 43.0586468 ], [ -2.336364, 43.057609 ], [ -2.3358155, 43.0570925 ], [ -2.3358168, 43.056971 ], [ -2.3361017, 43.0568151 ], [ -2.3361708, 43.0566669 ], [ -2.3360531, 43.0563375 ], [ -2.3358155, 43.0558138 ], [ -2.3353641, 43.0551178 ], [ -2.335233, 43.0547479 ], [ -2.3347453, 43.0548531 ], [ -2.3344077, 43.0548421 ], [ -2.3340019, 43.0548982 ], [ -2.3341999, 43.0553272 ], [ -2.3337797, 43.0554328 ], [ -2.3339371, 43.0558524 ], [ -2.3342976, 43.0562913 ], [ -2.3346734, 43.0565276 ], [ -2.3352274, 43.0564723 ], [ -2.3358062, 43.0566738 ], [ -2.3356412, 43.056961 ], [ -2.3355118, 43.0569795 ], [ -2.3349542, 43.0567227 ], [ -2.3336987, 43.0568464 ], [ -2.3336354, 43.0569938 ], [ -2.333511, 43.0570764 ], [ -2.3334496, 43.0572988 ], [ -2.3334217, 43.0573037 ], [ -2.3330368, 43.0578958 ], [ -2.3322921, 43.0580625 ], [ -2.3331234, 43.0598864 ], [ -2.3325143, 43.0600044 ], [ -2.3324315, 43.06013 ], [ -2.3293639, 43.060184 ], [ -2.3269042, 43.0603632 ], [ -2.326921, 43.0606559 ], [ -2.3267002, 43.0611139 ], [ -2.3260964, 43.0616596 ], [ -2.323243, 43.0632906 ], [ -2.3214303, 43.0647162 ], [ -2.3212102, 43.0650481 ], [ -2.3211054, 43.0652906 ], [ -2.3213629, 43.0658864 ], [ -2.321541, 43.0661621 ], [ -2.3220799, 43.0666426 ], [ -2.3229694, 43.0672782 ], [ -2.3239473, 43.0678423 ], [ -2.3254561, 43.0685086 ], [ -2.3263511, 43.0688651 ], [ -2.3271409, 43.069293 ], [ -2.3274704, 43.0695606 ], [ -2.3283332, 43.0704707 ], [ -2.3292699, 43.0713767 ], [ -2.3300271, 43.072052 ], [ -2.3304365, 43.0723831 ], [ -2.3300778, 43.0728943 ], [ -2.3297265, 43.0733515 ], [ -2.3292706, 43.0736189 ], [ -2.3285381, 43.0739883 ], [ -2.3280563, 43.0743052 ], [ -2.3278737, 43.0744977 ], [ -2.3270593, 43.0756095 ], [ -2.3267498, 43.0758958 ], [ -2.3266521, 43.0760528 ], [ -2.3266457, 43.0761519 ], [ -2.3266577, 43.0765211 ], [ -2.326649, 43.0768227 ], [ -2.3266097, 43.0769081 ], [ -2.3265431, 43.0769617 ], [ -2.3264451, 43.0770061 ], [ -2.3262973, 43.0770458 ], [ -2.3261848, 43.0770811 ], [ -2.3260599, 43.0771344 ], [ -2.3259127, 43.0771786 ], [ -2.3256897, 43.0772853 ], [ -2.3254854, 43.0774237 ], [ -2.3253908, 43.0775807 ], [ -2.325254, 43.0778771 ], [ -2.3251462, 43.0780385 ], [ -2.3250615, 43.0781371 ], [ -2.3250344, 43.0781594 ], [ -2.3253311, 43.0782603 ], [ -2.3255155, 43.0783199 ], [ -2.3258601, 43.078403 ], [ -2.3259865, 43.0784262 ], [ -2.3261079, 43.0784179 ], [ -2.326218, 43.0783916 ], [ -2.3263544, 43.0783473 ], [ -2.3264256, 43.0782892 ], [ -2.3265546, 43.078227 ], [ -2.3268097, 43.0782105 ] ] ] } },
{ "type": "Feature", "properties": { "CCAA": "16 - País Vasco", "PROVINCIA": "20 - Gipuzkoa", "MUNICIPIO": "20051 - Legazpi", "COD_MUNICIPIO": "20051", "DISTRITO": "01", "SECCION": "2005101006", "V1_H": 81.47, "V1_M": 86.75, "V2_H": 81.12898066, "V2_M": 86.51613614, "V3_H": 81.81510349, "V3_M": 87.06728245 }, "geometry": { "type": "Polygon", "coordinates": [ [ [ -2.3358155, 43.0558138 ], [ -2.3360531, 43.0563375 ], [ -2.3361708, 43.0566669 ], [ -2.3361017, 43.0568151 ], [ -2.3358168, 43.056971 ], [ -2.3358155, 43.0570925 ], [ -2.336364, 43.057609 ], [ -2.3375279, 43.0586468 ], [ -2.3379897, 43.0584514 ], [ -2.3380046, 43.0582804 ], [ -2.3381031, 43.0579073 ], [ -2.3384, 43.0579855 ], [ -2.3385238, 43.0577521 ], [ -2.3377966, 43.0575768 ], [ -2.3378532, 43.0573115 ], [ -2.3379503, 43.0570554 ], [ -2.3377651, 43.0567256 ], [ -2.3375791, 43.0563959 ], [ -2.3373246, 43.0562188 ], [ -2.337056, 43.0560777 ], [ -2.3361121, 43.0558516 ], [ -2.3358155, 43.0558138 ] ] ] } },
{ "type": "Feature", "properties": { "CCAA": "16 - País Vasco", "PROVINCIA": "20 - Gipuzkoa", "MUNICIPIO": "20051 - Legazpi", "COD_MUNICIPIO": "20051", "DISTRITO": "01", "SECCION": "2005101003", "V1_H": 81.37, "V1_M": 86.85, "V2_H": 81.08688328, "V2_M": 86.76748373, "V3_H": 81.75507894, "V3_M": 87.07522296 }, "geometry": { "type": "Polygon", "coordinates": [ [ [ -2.3358155, 43.0558138 ], [ -2.3361121, 43.0558516 ], [ -2.337056, 43.0560777 ], [ -2.3373246, 43.0562188 ], [ -2.3375791, 43.0563959 ], [ -2.3390071, 43.0554947 ], [ -2.3395792, 43.0551108 ], [ -2.3394384, 43.054358 ], [ -2.3391023, 43.0529288 ], [ -2.3389215, 43.0521848 ], [ -2.3379282, 43.0516433 ], [ -2.3367268, 43.0515283 ], [ -2.336239, 43.0516425 ], [ -2.3356934, 43.0516241 ], [ -2.3357075, 43.051352 ], [ -2.3352662, 43.0513018 ], [ -2.3352674, 43.0511827 ], [ -2.3348752, 43.0511887 ], [ -2.3347979, 43.0511421 ], [ -2.3347245, 43.052123 ], [ -2.3350358, 43.0522749 ], [ -2.3348174, 43.0529036 ], [ -2.3347278, 43.0530141 ], [ -2.3345698, 43.0532086 ], [ -2.3345284, 43.0534323 ], [ -2.3345325, 43.0536563 ], [ -2.334207, 43.0537068 ], [ -2.334229, 43.0540834 ], [ -2.3344536, 43.0540847 ], [ -2.3344077, 43.0548421 ], [ -2.3347453, 43.0548531 ], [ -2.335233, 43.0547479 ], [ -2.3353641, 43.0551178 ], [ -2.3358155, 43.0558138 ] ] ] } },
{ "type": "Feature", "properties": { "CCAA": "16 - País Vasco", "PROVINCIA": "20 - Gipuzkoa", "MUNICIPIO": "20051 - Legazpi", "COD_MUNICIPIO": "20051", "DISTRITO": "01", "SECCION": "2005101005", "V1_H": 81.0, "V1_M": 86.46, "V2_H": 80.73228769000001, "V2_M": 86.26471443, "V3_H": 81.28044537, "V3_M": 86.73149122 }, "geometry": { "type": "Polygon", "coordinates": [ [ [ -2.3375279, 43.0586468 ], [ -2.3378484, 43.0590359 ], [ -2.33848, 43.0591958 ], [ -2.3383875, 43.0599876 ], [ -2.3406929, 43.0601343 ], [ -2.3408725, 43.0595102 ], [ -2.34095, 43.0595267 ], [ -2.3417741, 43.0595539 ], [ -2.3418909, 43.0587487 ], [ -2.3408543, 43.05836 ], [ -2.3398588, 43.0580075 ], [ -2.3393736, 43.0578831 ], [ -2.3385238, 43.0577521 ], [ -2.3384, 43.0579855 ], [ -2.3381031, 43.0579073 ], [ -2.3380046, 43.0582804 ], [ -2.3379897, 43.0584514 ], [ -2.3375279, 43.0586468 ] ] ] } },
{ "type": "Feature", "properties": { "CCAA": "16 - País Vasco", "PROVINCIA": "20 - Gipuzkoa", "MUNICIPIO": "20051 - Legazpi", "COD_MUNICIPIO": "20051", "DISTRITO": "01", "SECCION": "2005101007", "V1_H": 81.47, "V1_M": 86.8, "V2_H": 81.3148143, "V2_M": 86.48589846, "V3_H": 81.69126572, "V3_M": 87.1320201 }, "geometry": { "type": "Polygon", "coordinates": [ [ [ -2.3367268, 43.0515283 ], [ -2.3379282, 43.0516433 ], [ -2.3389215, 43.0521848 ], [ -2.3434417, 43.051468 ], [ -2.3492815, 43.0510647 ], [ -2.3546418, 43.0500641 ], [ -2.358482, 43.0496895 ], [ -2.36151, 43.048018 ], [ -2.3611383, 43.0478179 ], [ -2.3607171, 43.0475904 ], [ -2.36005, 43.0472444 ], [ -2.3609746, 43.0456332 ], [ -2.3616607, 43.0445925 ], [ -2.3626108, 43.043175 ], [ -2.3630151, 43.0425874 ], [ -2.3636142, 43.0417173 ], [ -2.3672606, 43.0404453 ], [ -2.368249, 43.0374476 ], [ -2.3661592, 43.0360898 ], [ -2.3655445, 43.0357352 ], [ -2.3645338, 43.0351667 ], [ -2.3632678, 43.0344348 ], [ -2.362351, 43.0339839 ], [ -2.360595, 43.0330916 ], [ -2.359471, 43.0324369 ], [ -2.3588036, 43.0314066 ], [ -2.3581839, 43.0305792 ], [ -2.3564653, 43.0283228 ], [ -2.3573209, 43.0277107 ], [ -2.3609013, 43.024453 ], [ -2.3615101, 43.0232947 ], [ -2.3592776, 43.0212651 ], [ -2.3590438, 43.0208856 ], [ -2.3592395, 43.020504 ], [ -2.3594542, 43.0200774 ], [ -2.3597235, 43.0191829 ], [ -2.3596568, 43.0185927 ], [ -2.3590317, 43.0174951 ], [ -2.3589472, 43.017283 ], [ -2.358882, 43.017062 ], [ -2.3588368, 43.0168412 ], [ -2.3588115, 43.0166159 ], [ -2.3588054, 43.0163907 ], [ -2.3588302, 43.0151887 ], [ -2.3569738, 43.0119229 ], [ -2.3568102, 43.0116519 ], [ -2.3566227, 43.0113942 ], [ -2.3564129, 43.0111408 ], [ -2.3561823, 43.0109009 ], [ -2.3559308, 43.0106744 ], [ -2.3556601, 43.0104567 ], [ -2.3553708, 43.0102524 ], [ -2.3541872, 43.0094713 ], [ -2.353598, 43.0089817 ], [ -2.3514982, 43.0072363 ], [ -2.354187, 43.0019791 ], [ -2.3554235, 43.0006939 ], [ -2.3563581, 43.0000508 ], [ -2.3585028, 42.9987976 ], [ -2.3645146, 42.9952877 ], [ -2.3686993, 42.9928435 ], [ -2.3725443, 42.9868313 ], [ -2.3707376, 42.9864387 ], [ -2.3672755, 42.9855415 ], [ -2.3673934, 42.9851865 ], [ -2.3658728, 42.9827062 ], [ -2.3655846, 42.9806154 ], [ -2.3657214, 42.9799182 ], [ -2.3657739, 42.9796574 ], [ -2.3653535, 42.9792408 ], [ -2.3645251, 42.9786238 ], [ -2.36354, 42.978042 ], [ -2.3623221, 42.9777381 ], [ -2.3604736, 42.9775567 ], [ -2.3591592, 42.9775448 ], [ -2.3582291, 42.9772109 ], [ -2.357326, 42.9764899 ], [ -2.356396, 42.9758543 ], [ -2.3555473, 42.9755028 ], [ -2.3549181, 42.9753507 ], [ -2.3541197, 42.974959 ], [ -2.3475357, 42.9728549 ], [ -2.3445077, 42.9716804 ], [ -2.3412044, 42.9712471 ], [ -2.3411797, 42.9716207 ], [ -2.3339346, 42.9762974 ], [ -2.3334558, 42.9791672 ], [ -2.3320451, 42.9804647 ], [ -2.3315936, 42.9816597 ], [ -2.3278259, 42.9820923 ], [ -2.3274564, 42.9821622 ], [ -2.3270315, 42.9823939 ], [ -2.3231544, 42.985302 ], [ -2.3184822, 42.9902541 ], [ -2.3170305, 42.9906326 ], [ -2.3145503, 42.9913877 ], [ -2.3128918, 42.9920216 ], [ -2.3130153, 42.9957955 ], [ -2.3135492, 42.9987298 ], [ -2.3136177, 43.000072 ], [ -2.3148123, 43.0044871 ], [ -2.3156651, 43.0086796 ], [ -2.3165203, 43.011904 ], [ -2.3179349, 43.0160863 ], [ -2.3170277, 43.0176613 ], [ -2.3152001, 43.0207436 ], [ -2.3147039, 43.0221724 ], [ -2.3132251, 43.0263553 ], [ -2.3124986, 43.0284086 ], [ -2.311699, 43.0307586 ], [ -2.3114208, 43.0325849 ], [ -2.3113234, 43.0332597 ], [ -2.3143306, 43.0359658 ], [ -2.3177206, 43.0389713 ], [ -2.3184978, 43.0404213 ], [ -2.31933, 43.041768 ], [ -2.3198676, 43.0439324 ], [ -2.319983, 43.0443968 ], [ -2.3262577, 43.0441053 ], [ -2.335653, 43.0471546 ], [ -2.3358961, 43.047165 ], [ -2.3360422, 43.047355 ], [ -2.3357125, 43.0478979 ], [ -2.3361688, 43.0480133 ], [ -2.3358096, 43.0486614 ], [ -2.3356658, 43.0487464 ], [ -2.3353291, 43.0486348 ], [ -2.3351629, 43.0489817 ], [ -2.335506, 43.0491028 ], [ -2.33577, 43.0493235 ], [ -2.3355277, 43.0494937 ], [ -2.3356627, 43.0496279 ], [ -2.335915, 43.0497342 ], [ -2.3369463, 43.0498118 ], [ -2.3368586, 43.0505565 ], [ -2.3367268, 43.0515283 ] ] ] } },
{ "type": "Feature", "properties": { "CCAA": "16 - País Vasco", "PROVINCIA": "20 - Gipuzkoa", "MUNICIPIO": "20051 - Legazpi", "COD_MUNICIPIO": "20051", "DISTRITO": "01", "SECCION": "2005101001", "V1_H": 81.4, "V1_M": 86.8, "V2_H": 81.08162797, "V2_M": 86.57651574, "V3_H": 81.67802952, "V3_M": 87.10412253 }, "geometry": { "type": "Polygon", "coordinates": [ [ [ -2.319983, 43.0443968 ], [ -2.3201585, 43.0451048 ], [ -2.3209848, 43.0492835 ], [ -2.3214888, 43.0506192 ], [ -2.3227159, 43.0533956 ], [ -2.3248081, 43.0551279 ], [ -2.326422, 43.0566053 ], [ -2.3268676, 43.0597191 ], [ -2.3269042, 43.0603632 ], [ -2.3293639, 43.060184 ], [ -2.3324315, 43.06013 ], [ -2.3325143, 43.0600044 ], [ -2.3331234, 43.0598864 ], [ -2.3322921, 43.0580625 ], [ -2.3313453, 43.0557067 ], [ -2.3316319, 43.0529348 ], [ -2.3316098, 43.052498 ], [ -2.3312835, 43.0526536 ], [ -2.3312846, 43.0525456 ], [ -2.3311785, 43.0524189 ], [ -2.331466, 43.0520334 ], [ -2.3316691, 43.051985 ], [ -2.3320398, 43.0514829 ], [ -2.3314747, 43.051232 ], [ -2.3326106, 43.0498789 ], [ -2.3326281, 43.0498885 ], [ -2.3334756, 43.0489469 ], [ -2.3348964, 43.0479402 ], [ -2.3351993, 43.0481706 ], [ -2.3351792, 43.0482277 ], [ -2.334988, 43.0484839 ], [ -2.3351752, 43.0485946 ], [ -2.3349766, 43.0489413 ], [ -2.3345355, 43.0494724 ], [ -2.3339112, 43.0501216 ], [ -2.333788, 43.0501018 ], [ -2.333178, 43.0507113 ], [ -2.3334108, 43.0508155 ], [ -2.3339503, 43.0509583 ], [ -2.3343147, 43.0509694 ], [ -2.3347323, 43.0511024 ], [ -2.3347979, 43.0511421 ], [ -2.3348752, 43.0511887 ], [ -2.3352674, 43.0511827 ], [ -2.3352662, 43.0513018 ], [ -2.3357075, 43.051352 ], [ -2.3356934, 43.0516241 ], [ -2.336239, 43.0516425 ], [ -2.3367268, 43.0515283 ], [ -2.3368586, 43.0505565 ], [ -2.3369463, 43.0498118 ], [ -2.335915, 43.0497342 ], [ -2.3356627, 43.0496279 ], [ -2.3355277, 43.0494937 ], [ -2.33577, 43.0493235 ], [ -2.335506, 43.0491028 ], [ -2.3351629, 43.0489817 ], [ -2.3353291, 43.0486348 ], [ -2.3356658, 43.0487464 ], [ -2.3358096, 43.0486614 ], [ -2.3361688, 43.0480133 ], [ -2.3357125, 43.0478979 ], [ -2.3360422, 43.047355 ], [ -2.3358961, 43.047165 ], [ -2.335653, 43.0471546 ], [ -2.3262577, 43.0441053 ], [ -2.319983, 43.0443968 ] ] ] } }
]
}
