{
"type": "FeatureCollection",
"name": "20065",
"features": [
{ "type": "Feature", "properties": { "CCAA": "16 - País Vasco", "PROVINCIA": "20 - Gipuzkoa", "MUNICIPIO": "20065 - Soraluze-Placencia de las Armas", "COD_MUNICIPIO": "20065", "DISTRITO": "01", "SECCION": "2006501002", "V1_H": 80.78, "V1_M": 86.63, "V2_H": 80.78050334, "V2_M": 86.59104663, "V3_H": 80.85502768000001, "V3_M": 86.88271981 }, "geometry": { "type": "Polygon", "coordinates": [ [ [ -2.4069822, 43.1915626 ], [ -2.4070236, 43.1915809 ], [ -2.4084121, 43.1916758 ], [ -2.4102321, 43.1918001 ], [ -2.413138, 43.1921303 ], [ -2.4142886, 43.1923838 ], [ -2.415455, 43.192759 ], [ -2.4165291, 43.1932012 ], [ -2.4179945, 43.1940056 ], [ -2.419313, 43.1949713 ], [ -2.4205138, 43.1956979 ], [ -2.4226142, 43.1961452 ], [ -2.4245932, 43.1968306 ], [ -2.4256747, 43.1963453 ], [ -2.425826, 43.1962875 ], [ -2.425972, 43.1962207 ], [ -2.4261127, 43.1961494 ], [ -2.4262473, 43.196069 ], [ -2.4263757, 43.1959886 ], [ -2.4268971, 43.1956851 ], [ -2.4270099, 43.1956271 ], [ -2.4271282, 43.1955692 ], [ -2.4272502, 43.1955202 ], [ -2.4273775, 43.1954759 ], [ -2.4275071, 43.195436 ], [ -2.4276412, 43.1954051 ], [ -2.4277768, 43.1953788 ], [ -2.4296564, 43.1953477 ], [ -2.43086, 43.1946243 ], [ -2.4313729, 43.1944018 ], [ -2.4337807, 43.1940491 ], [ -2.4353484, 43.1939713 ], [ -2.4358161, 43.1936359 ], [ -2.4361103, 43.1934258 ], [ -2.4361513, 43.1934035 ], [ -2.4361907, 43.1933811 ], [ -2.4362279, 43.1933543 ], [ -2.4362628, 43.1933275 ], [ -2.4362961, 43.1933006 ], [ -2.4363264, 43.1932693 ], [ -2.4363543, 43.1932379 ], [ -2.4363793, 43.1932065 ], [ -2.4364019, 43.1931706 ], [ -2.4367896, 43.1927493 ], [ -2.4361338, 43.192629 ], [ -2.4355131, 43.1922117 ], [ -2.4352874, 43.1920845 ], [ -2.4349497, 43.1917542 ], [ -2.4345562, 43.1913785 ], [ -2.433963, 43.1910649 ], [ -2.4331425, 43.1907907 ], [ -2.4322092, 43.1904123 ], [ -2.431787, 43.1900771 ], [ -2.4315059, 43.189783 ], [ -2.4311715, 43.189097 ], [ -2.430896, 43.1882041 ], [ -2.4307582, 43.1878073 ], [ -2.4307901, 43.1874337 ], [ -2.4308511, 43.1869162 ], [ -2.4308252, 43.1866459 ], [ -2.4304384, 43.1855635 ], [ -2.4301887, 43.1849589 ], [ -2.4298224, 43.1846464 ], [ -2.425448, 43.1820896 ], [ -2.4250837, 43.181651 ], [ -2.4234289, 43.1795896 ], [ -2.4229493, 43.1792315 ], [ -2.4219636, 43.1784791 ], [ -2.4215113, 43.1783327 ], [ -2.4192442, 43.1780105 ], [ -2.4176591, 43.1776288 ], [ -2.4163555, 43.177478 ], [ -2.4153063, 43.1773466 ], [ -2.4148826, 43.1771778 ], [ -2.4144616, 43.1767389 ], [ -2.4140962, 43.1763454 ], [ -2.4139586, 43.1758674 ], [ -2.4139624, 43.1754712 ], [ -2.4139881, 43.1752732 ], [ -2.4134712, 43.1752841 ], [ -2.4134075, 43.1751127 ], [ -2.4130132, 43.1751692 ], [ -2.4130847, 43.1753406 ], [ -2.4131638, 43.1754311 ], [ -2.4132283, 43.1755935 ], [ -2.4131097, 43.1757775 ], [ -2.413065, 43.1758628 ], [ -2.4129007, 43.1762446 ], [ -2.4125198, 43.1764228 ], [ -2.4111576, 43.1808506 ], [ -2.4111936, 43.1831785 ], [ -2.4111632, 43.1840158 ], [ -2.4111715, 43.1846732 ], [ -2.4104279, 43.1853762 ], [ -2.4087888, 43.1859441 ], [ -2.4079068, 43.1866463 ], [ -2.4071679, 43.1876466 ], [ -2.4065705, 43.1890527 ], [ -2.4069822, 43.1915626 ] ] ] } },
{ "type": "Feature", "properties": { "CCAA": "16 - País Vasco", "PROVINCIA": "20 - Gipuzkoa", "MUNICIPIO": "20065 - Soraluze-Placencia de las Armas", "COD_MUNICIPIO": "20065", "DISTRITO": "02", "SECCION": "2006502001", "V1_H": 81.1, "V1_M": 86.64, "V2_H": 80.60081217, "V2_M": 86.48118059, "V3_H": 81.51550291, "V3_M": 86.87452308 }, "geometry": { "type": "Polygon", "coordinates": [ [ [ -2.4139881, 43.1752732 ], [ -2.4139624, 43.1754712 ], [ -2.4139586, 43.1758674 ], [ -2.4140962, 43.1763454 ], [ -2.4144616, 43.1767389 ], [ -2.4148826, 43.1771778 ], [ -2.4153063, 43.1773466 ], [ -2.4163555, 43.177478 ], [ -2.4176591, 43.1776288 ], [ -2.4192442, 43.1780105 ], [ -2.4215113, 43.1783327 ], [ -2.4219636, 43.1784791 ], [ -2.4229493, 43.1792315 ], [ -2.4234289, 43.1795896 ], [ -2.4250837, 43.181651 ], [ -2.425448, 43.1820896 ], [ -2.4298224, 43.1846464 ], [ -2.4301887, 43.1849589 ], [ -2.4304384, 43.1855635 ], [ -2.4308252, 43.1866459 ], [ -2.4308511, 43.1869162 ], [ -2.4307901, 43.1874337 ], [ -2.4307582, 43.1878073 ], [ -2.430896, 43.1882041 ], [ -2.4311715, 43.189097 ], [ -2.4315059, 43.189783 ], [ -2.431787, 43.1900771 ], [ -2.4322092, 43.1904123 ], [ -2.4331425, 43.1907907 ], [ -2.433963, 43.1910649 ], [ -2.4345562, 43.1913785 ], [ -2.4349497, 43.1917542 ], [ -2.4352874, 43.1920845 ], [ -2.4355131, 43.1922117 ], [ -2.4361338, 43.192629 ], [ -2.4367896, 43.1927493 ], [ -2.4369388, 43.1925879 ], [ -2.4369497, 43.1925745 ], [ -2.436669, 43.1915691 ], [ -2.4366244, 43.1914022 ], [ -2.4365936, 43.191231 ], [ -2.4365805, 43.1911499 ], [ -2.4362162, 43.1889554 ], [ -2.4369319, 43.188081 ], [ -2.4373644, 43.1875519 ], [ -2.4374241, 43.1874981 ], [ -2.4375277, 43.1874401 ], [ -2.438317, 43.1870928 ], [ -2.4384785, 43.187008 ], [ -2.4386647, 43.1869144 ], [ -2.438998, 43.186718 ], [ -2.4393152, 43.1865124 ], [ -2.4396164, 43.1862933 ], [ -2.4399, 43.1860651 ], [ -2.4399745, 43.1859934 ], [ -2.4400436, 43.1859217 ], [ -2.4401059, 43.1858454 ], [ -2.4401611, 43.1857692 ], [ -2.4402096, 43.1856884 ], [ -2.4402511, 43.185603 ], [ -2.4402857, 43.1855177 ], [ -2.4403119, 43.1854323 ], [ -2.4407198, 43.1838854 ], [ -2.4407326, 43.183836 ], [ -2.4407407, 43.1837865 ], [ -2.440745, 43.183737 ], [ -2.4407447, 43.1836874 ], [ -2.4407406, 43.1836424 ], [ -2.440731, 43.1835928 ], [ -2.4407176, 43.1835432 ], [ -2.4407003, 43.1834981 ], [ -2.4406784, 43.183453 ], [ -2.440482, 43.1830693 ], [ -2.4404457, 43.1829971 ], [ -2.4404034, 43.1829204 ], [ -2.4403547, 43.1828526 ], [ -2.4403008, 43.1827803 ], [ -2.4402415, 43.1827124 ], [ -2.4399207, 43.1823777 ], [ -2.4398628, 43.1823234 ], [ -2.4398103, 43.1822601 ], [ -2.4397624, 43.1822013 ], [ -2.4397215, 43.1821336 ], [ -2.439686, 43.1820659 ], [ -2.4396566, 43.1819982 ], [ -2.4396334, 43.1819305 ], [ -2.4394099, 43.1811415 ], [ -2.4393896, 43.1810064 ], [ -2.4393816, 43.1808713 ], [ -2.4393867, 43.1807362 ], [ -2.4394049, 43.1806012 ], [ -2.4394353, 43.1804663 ], [ -2.4397933, 43.1791669 ], [ -2.4398126, 43.1790769 ], [ -2.4398234, 43.1789824 ], [ -2.4398266, 43.1788879 ], [ -2.4398221, 43.1787978 ], [ -2.4398098, 43.1787032 ], [ -2.4397899, 43.1786131 ], [ -2.4397631, 43.1785184 ], [ -2.4397295, 43.1784057 ], [ -2.4397044, 43.178293 ], [ -2.4396893, 43.1781758 ], [ -2.4396834, 43.1780633 ], [ -2.4396746, 43.1772663 ], [ -2.4398254, 43.1765061 ], [ -2.4402511, 43.1756978 ], [ -2.4418234, 43.1743818 ], [ -2.4423039, 43.1737223 ], [ -2.4426611, 43.1728281 ], [ -2.4429126, 43.1711319 ], [ -2.443029, 43.1708443 ], [ -2.4436664, 43.1698479 ], [ -2.4406168, 43.1694277 ], [ -2.4384092, 43.1686875 ], [ -2.4375267, 43.168413 ], [ -2.4361022, 43.1678837 ], [ -2.4372524, 43.1667188 ], [ -2.437379, 43.1665888 ], [ -2.4357134, 43.1661033 ], [ -2.4327583, 43.1656474 ], [ -2.4327309, 43.1656923 ], [ -2.4327005, 43.1657417 ], [ -2.4326656, 43.165782 ], [ -2.4326275, 43.1658269 ], [ -2.4325856, 43.1658672 ], [ -2.4325406, 43.1659075 ], [ -2.4324918, 43.1659433 ], [ -2.4324408, 43.1659791 ], [ -2.4323866, 43.1660148 ], [ -2.4323294, 43.1660415 ], [ -2.43227, 43.1660682 ], [ -2.4322083, 43.1660949 ], [ -2.432145, 43.1661171 ], [ -2.4320795, 43.1661348 ], [ -2.4308155, 43.1663807 ], [ -2.4306062, 43.1667218 ], [ -2.4304714, 43.1670003 ], [ -2.4304432, 43.1670541 ], [ -2.4304105, 43.167108 ], [ -2.430373, 43.1671619 ], [ -2.430331, 43.1672112 ], [ -2.4302845, 43.1672605 ], [ -2.4302333, 43.1673052 ], [ -2.4301791, 43.1673455 ], [ -2.430121, 43.1673857 ], [ -2.4300591, 43.1674259 ], [ -2.4296959, 43.1676312 ], [ -2.4292967, 43.168138 ], [ -2.427354, 43.1668721 ], [ -2.4269994, 43.1667218 ], [ -2.4256012, 43.1661159 ], [ -2.4251388, 43.1667214 ], [ -2.4239844, 43.1682239 ], [ -2.4230743, 43.16672 ], [ -2.4213488, 43.1656847 ], [ -2.4203072, 43.1637163 ], [ -2.4201383, 43.1633688 ], [ -2.4199932, 43.1630169 ], [ -2.4196525, 43.1629521 ], [ -2.4196348, 43.1629565 ], [ -2.4187302, 43.1632446 ], [ -2.4186608, 43.1632667 ], [ -2.4185891, 43.1632844 ], [ -2.4185167, 43.1632975 ], [ -2.4184428, 43.1633061 ], [ -2.4183682, 43.1633148 ], [ -2.4182928, 43.1633144 ], [ -2.4182182, 43.1633185 ], [ -2.4181429, 43.1633136 ], [ -2.4180684, 43.1633042 ], [ -2.4179947, 43.1632949 ], [ -2.4179226, 43.163281 ], [ -2.4178512, 43.1632626 ], [ -2.4177815, 43.1632442 ], [ -2.4177133, 43.1632214 ], [ -2.4176482, 43.163194 ], [ -2.4176053, 43.1631758 ], [ -2.4175609, 43.1631576 ], [ -2.4175156, 43.1631438 ], [ -2.4174688, 43.1631346 ], [ -2.4174212, 43.1631253 ], [ -2.4173737, 43.1631161 ], [ -2.4173253, 43.1631113 ], [ -2.4172761, 43.1631066 ], [ -2.4167483, 43.1633065 ], [ -2.4155389, 43.1640387 ], [ -2.4129279, 43.1645926 ], [ -2.4116145, 43.1635773 ], [ -2.4077177, 43.1622649 ], [ -2.4018351, 43.1623828 ], [ -2.4004752, 43.1631501 ], [ -2.402023, 43.1633023 ], [ -2.402532, 43.1635346 ], [ -2.4028681, 43.1639101 ], [ -2.4030036, 43.1645951 ], [ -2.4030837, 43.1651358 ], [ -2.4030223, 43.1655903 ], [ -2.4028472, 43.1660486 ], [ -2.4026739, 43.1663988 ], [ -2.4026429, 43.1666508 ], [ -2.4028086, 43.1670839 ], [ -2.4030342, 43.1672967 ], [ -2.4035166, 43.1672542 ], [ -2.4044539, 43.1670925 ], [ -2.4051634, 43.1671188 ], [ -2.405842, 43.1673114 ], [ -2.4061241, 43.1674794 ], [ -2.4063192, 43.1678947 ], [ -2.4064548, 43.1684942 ], [ -2.4065353, 43.1689944 ], [ -2.4067008, 43.1694545 ], [ -2.4070388, 43.1697264 ], [ -2.407599, 43.1704767 ], [ -2.4079337, 43.1710772 ], [ -2.4085814, 43.1715398 ], [ -2.409458, 43.1718551 ], [ -2.4112385, 43.1725306 ], [ -2.4120873, 43.1727826 ], [ -2.4128501, 43.1731828 ], [ -2.4133565, 43.1736176 ], [ -2.4136084, 43.1739746 ], [ -2.4138595, 43.1744126 ], [ -2.4140238, 43.1749943 ], [ -2.4139881, 43.1752732 ] ] ] } },
{ "type": "Feature", "properties": { "CCAA": "16 - País Vasco", "PROVINCIA": "20 - Gipuzkoa", "MUNICIPIO": "20065 - Soraluze-Placencia de las Armas", "COD_MUNICIPIO": "20065", "DISTRITO": "01", "SECCION": "2006501001", "V1_H": 81.13, "V1_M": 86.76, "V2_H": 80.8252038, "V2_M": 86.73512652, "V3_H": 81.48774648, "V3_M": 86.92091474 }, "geometry": { "type": "Polygon", "coordinates": [ [ [ -2.3733538, 43.1760748 ], [ -2.3735773, 43.1763236 ], [ -2.3760871, 43.1782284 ], [ -2.376362, 43.1784235 ], [ -2.3766546, 43.1786052 ], [ -2.3777799, 43.1792641 ], [ -2.3789638, 43.1796128 ], [ -2.380101, 43.1803934 ], [ -2.3815059, 43.1809368 ], [ -2.3823763, 43.1808785 ], [ -2.3840696, 43.1814955 ], [ -2.3860346, 43.1828748 ], [ -2.389324, 43.1846348 ], [ -2.3901789, 43.1849006 ], [ -2.3911, 43.1850856 ], [ -2.3922622, 43.1852268 ], [ -2.3932372, 43.1854842 ], [ -2.3937334, 43.1856309 ], [ -2.3942156, 43.1857955 ], [ -2.3946836, 43.1859871 ], [ -2.3951337, 43.1861966 ], [ -2.3952157, 43.1862331 ], [ -2.3953015, 43.1862695 ], [ -2.3953904, 43.186297 ], [ -2.3954817, 43.1863245 ], [ -2.3955753, 43.1863476 ], [ -2.3958591, 43.1864211 ], [ -2.3960473, 43.1864491 ], [ -2.3961671, 43.1864587 ], [ -2.396287, 43.1864684 ], [ -2.3964086, 43.186469 ], [ -2.3964578, 43.1864693 ], [ -2.396507, 43.186474 ], [ -2.3965554, 43.1864788 ], [ -2.3966037, 43.1864881 ], [ -2.3966513, 43.1864973 ], [ -2.3966981, 43.1865066 ], [ -2.3967434, 43.1865248 ], [ -2.396787, 43.1865385 ], [ -2.3973491, 43.1867846 ], [ -2.3983721, 43.1872538 ], [ -2.398592, 43.1873405 ], [ -2.3988188, 43.1874227 ], [ -2.3990512, 43.1874915 ], [ -2.399289, 43.1875513 ], [ -2.4000645, 43.1877715 ], [ -2.4016803, 43.188802 ], [ -2.4032248, 43.1895845 ], [ -2.4049101, 43.1905298 ], [ -2.4054131, 43.1908566 ], [ -2.4069608, 43.1915535 ], [ -2.4069822, 43.1915626 ], [ -2.4065705, 43.1890527 ], [ -2.4071679, 43.1876466 ], [ -2.4079068, 43.1866463 ], [ -2.4087888, 43.1859441 ], [ -2.4104279, 43.1853762 ], [ -2.4111715, 43.1846732 ], [ -2.4111632, 43.1840158 ], [ -2.4111936, 43.1831785 ], [ -2.4111576, 43.1808506 ], [ -2.4125198, 43.1764228 ], [ -2.4129007, 43.1762446 ], [ -2.413065, 43.1758628 ], [ -2.4131097, 43.1757775 ], [ -2.4132283, 43.1755935 ], [ -2.4131638, 43.1754311 ], [ -2.4130847, 43.1753406 ], [ -2.4130132, 43.1751692 ], [ -2.4134075, 43.1751127 ], [ -2.4134712, 43.1752841 ], [ -2.4139881, 43.1752732 ], [ -2.4140238, 43.1749943 ], [ -2.4138595, 43.1744126 ], [ -2.4136084, 43.1739746 ], [ -2.4133565, 43.1736176 ], [ -2.4128501, 43.1731828 ], [ -2.4120873, 43.1727826 ], [ -2.4112385, 43.1725306 ], [ -2.409458, 43.1718551 ], [ -2.4085814, 43.1715398 ], [ -2.4079337, 43.1710772 ], [ -2.407599, 43.1704767 ], [ -2.4070388, 43.1697264 ], [ -2.4067008, 43.1694545 ], [ -2.4065353, 43.1689944 ], [ -2.4064548, 43.1684942 ], [ -2.4063192, 43.1678947 ], [ -2.4061241, 43.1674794 ], [ -2.405842, 43.1673114 ], [ -2.4051634, 43.1671188 ], [ -2.4044539, 43.1670925 ], [ -2.4035166, 43.1672542 ], [ -2.4030342, 43.1672967 ], [ -2.4028086, 43.1670839 ], [ -2.4026429, 43.1666508 ], [ -2.4026739, 43.1663988 ], [ -2.4028472, 43.1660486 ], [ -2.4030223, 43.1655903 ], [ -2.4030837, 43.1651358 ], [ -2.4030036, 43.1645951 ], [ -2.4028681, 43.1639101 ], [ -2.402532, 43.1635346 ], [ -2.402023, 43.1633023 ], [ -2.4004752, 43.1631501 ], [ -2.4000036, 43.1634178 ], [ -2.399565, 43.1631408 ], [ -2.3994417, 43.1625459 ], [ -2.3996238, 43.162092 ], [ -2.3958577, 43.1618966 ], [ -2.3951206, 43.1623474 ], [ -2.3922198, 43.1638943 ], [ -2.3877376, 43.1656488 ], [ -2.3850397, 43.1667194 ], [ -2.3843408, 43.167481 ], [ -2.38368, 43.1679727 ], [ -2.3829186, 43.1683648 ], [ -2.3824581, 43.1685199 ], [ -2.3820369, 43.1686527 ], [ -2.3816044, 43.1687629 ], [ -2.3811622, 43.1688551 ], [ -2.3807132, 43.1689202 ], [ -2.3798754, 43.1690417 ], [ -2.3790488, 43.1691992 ], [ -2.3782364, 43.1693974 ], [ -2.3769785, 43.1698363 ], [ -2.3767008, 43.1699338 ], [ -2.3765765, 43.1699782 ], [ -2.3764576, 43.1700315 ], [ -2.3763432, 43.1700895 ], [ -2.3762341, 43.1701519 ], [ -2.3761311, 43.1702234 ], [ -2.3760343, 43.1702949 ], [ -2.3759443, 43.1703754 ], [ -2.3754847, 43.1708006 ], [ -2.3752657, 43.1712362 ], [ -2.3749865, 43.171847 ], [ -2.374761, 43.1724716 ], [ -2.3747119, 43.1726064 ], [ -2.3746498, 43.1727366 ], [ -2.3745762, 43.1728668 ], [ -2.3742249, 43.1734636 ], [ -2.3741061, 43.1736476 ], [ -2.3739697, 43.173827 ], [ -2.3738165, 43.1739927 ], [ -2.3737325, 43.1740868 ], [ -2.3736554, 43.1741809 ], [ -2.3735868, 43.1742751 ], [ -2.3735257, 43.1743783 ], [ -2.3734724, 43.1744816 ], [ -2.3734282, 43.1745849 ], [ -2.3733066, 43.1748994 ], [ -2.3732773, 43.1749848 ], [ -2.3732564, 43.1750702 ], [ -2.373244, 43.1751602 ], [ -2.3732399, 43.1752502 ], [ -2.3732533, 43.1755249 ], [ -2.3732912, 43.1757998 ], [ -2.3733538, 43.1760748 ] ] ] } }
]
}
