{
"type": "FeatureCollection",
"name": "21027",
"features": [
{ "type": "Feature", "properties": { "CCAA": "01 - Andalucía", "PROVINCIA": "21 - Huelva", "MUNICIPIO": "21027 - Cumbres de Enmedio", "COD_MUNICIPIO": "21027", "DISTRITO": "01", "SECCION": "2102701001", "V1_H": 75.48, "V1_M": 82.31, "V2_H": 75.36985678000001, "V2_M": 82.56533706, "V3_H": 75.8600571, "V3_M": 82.01450712 }, "geometry": { "type": "Polygon", "coordinates": [ [ [ -6.6819346, 38.0964706 ], [ -6.6821448, 38.0967973 ], [ -6.682242, 38.096816 ], [ -6.6841131, 38.097177 ], [ -6.684867, 38.0972073 ], [ -6.6860254, 38.0975764 ], [ -6.6864947, 38.0978408 ], [ -6.6865902, 38.0981531 ], [ -6.6865207, 38.0990381 ], [ -6.6867096, 38.0993925 ], [ -6.6872412, 38.0997632 ], [ -6.6876681, 38.0998669 ], [ -6.6881024, 38.1001144 ], [ -6.6886669, 38.1002318 ], [ -6.6888975, 38.1002091 ], [ -6.6896084, 38.1001392 ], [ -6.6899562, 38.1000291 ], [ -6.690169, 38.0997252 ], [ -6.689906, 38.0990309 ], [ -6.6898543, 38.0984559 ], [ -6.690067, 38.0977016 ], [ -6.6901907, 38.096986 ], [ -6.6906106, 38.096045 ], [ -6.6908342, 38.0957317 ], [ -6.691423, 38.0951997 ], [ -6.6918205, 38.094944 ], [ -6.6926076, 38.0947301 ], [ -6.6938877, 38.0945727 ], [ -6.6948787, 38.0945596 ], [ -6.6948814, 38.0945599 ], [ -6.6958424, 38.0946823 ], [ -6.6965958, 38.0949289 ], [ -6.6976763, 38.0957867 ], [ -6.6982126, 38.096022 ], [ -6.6991372, 38.0960469 ], [ -6.6992223, 38.0960367 ], [ -6.7004628, 38.095888 ], [ -6.7015662, 38.0958442 ], [ -6.7016485, 38.0958498 ], [ -6.7025614, 38.0959119 ], [ -6.7038241, 38.0960883 ], [ -6.7048648, 38.0961546 ], [ -6.7053059, 38.0963118 ], [ -6.7056351, 38.0965086 ], [ -6.7059009, 38.0965812 ], [ -6.7061848, 38.0965672 ], [ -6.7069015, 38.0965316 ], [ -6.7075238, 38.0964399 ], [ -6.7079372, 38.0962737 ], [ -6.7086013, 38.0958834 ], [ -6.7111029, 38.0950837 ], [ -6.7113354, 38.0949503 ], [ -6.7135185, 38.0905664 ], [ -6.7141083, 38.0893856 ], [ -6.7146459, 38.0885218 ], [ -6.7147751, 38.0881485 ], [ -6.714892, 38.086181 ], [ -6.7147495, 38.0851676 ], [ -6.7144457, 38.0844387 ], [ -6.714023, 38.0834249 ], [ -6.7127508, 38.0805826 ], [ -6.7078427, 38.0802062 ], [ -6.7075716, 38.0784491 ], [ -6.7085629, 38.0761928 ], [ -6.709004, 38.0747736 ], [ -6.7095338, 38.0730814 ], [ -6.7096162, 38.0720068 ], [ -6.7107462, 38.0704667 ], [ -6.7134702, 38.0689033 ], [ -6.7149003, 38.0654169 ], [ -6.7149399, 38.0652986 ], [ -6.7150518, 38.0625565 ], [ -6.7148775, 38.0615892 ], [ -6.7147887, 38.0600606 ], [ -6.7146627, 38.0580197 ], [ -6.7149452, 38.0548219 ], [ -6.7149101, 38.0545798 ], [ -6.7145858, 38.0542477 ], [ -6.7142846, 38.0536987 ], [ -6.714098, 38.052939 ], [ -6.714098, 38.052939 ], [ -6.708847, 38.0511501 ], [ -6.7061568, 38.0517936 ], [ -6.7061568, 38.0517936 ], [ -6.7027237, 38.0517127 ], [ -6.7003241, 38.0506623 ], [ -6.700324, 38.0506623 ], [ -6.700324, 38.0506623 ], [ -6.6906278, 38.0561177 ], [ -6.687672, 38.0577803 ], [ -6.6854845, 38.0586868 ], [ -6.6840455, 38.0606597 ], [ -6.6814407, 38.0655158 ], [ -6.6804973, 38.0666984 ], [ -6.6789353, 38.0700894 ], [ -6.6788315, 38.0702908 ], [ -6.6780078, 38.0752261 ], [ -6.6780078, 38.0752261 ], [ -6.6773239, 38.0777248 ], [ -6.6773239, 38.0777248 ], [ -6.6756645, 38.0814522 ], [ -6.6758083, 38.0834115 ], [ -6.6780422, 38.0872781 ], [ -6.678102, 38.0880149 ], [ -6.678102, 38.0880149 ], [ -6.6784501, 38.0892741 ], [ -6.679188, 38.089215 ], [ -6.6791881, 38.089215 ], [ -6.6795877, 38.0892295 ], [ -6.6803472, 38.089602 ], [ -6.6827312, 38.0905452 ], [ -6.6833023, 38.0910227 ], [ -6.6835576, 38.091339 ], [ -6.6836544, 38.0916783 ], [ -6.6836544, 38.0916783 ], [ -6.6835622, 38.0923388 ], [ -6.6830258, 38.093914 ], [ -6.6828569, 38.0941806 ], [ -6.6822384, 38.0948035 ], [ -6.6819213, 38.0955251 ], [ -6.6819213, 38.0955251 ], [ -6.6819346, 38.0964706 ] ] ] } }
]
}
