{
"type": "FeatureCollection",
"name": "21022",
"features": [
{ "type": "Feature", "properties": { "CCAA": "01 - Andalucía", "PROVINCIA": "21 - Huelva", "MUNICIPIO": "21022 - Castaño del Robledo", "COD_MUNICIPIO": "21022", "DISTRITO": "01", "SECCION": "2102201001", "V1_H": 79.66, "V1_M": 85.68, "V2_H": 79.65353369, "V2_M": 85.83118741, "V3_H": 79.80284041, "V3_M": 85.7603318 }, "geometry": { "type": "Polygon", "coordinates": [ [ [ -6.6854878, 37.9082756 ], [ -6.6859787, 37.9083143 ], [ -6.6863248, 37.9081863 ], [ -6.6865624, 37.9079356 ], [ -6.6870296, 37.9072724 ], [ -6.6874016, 37.9069814 ], [ -6.6876791, 37.9059368 ], [ -6.6878651, 37.9053364 ], [ -6.6877563, 37.9049795 ], [ -6.6878864, 37.9018945 ], [ -6.6881938, 37.9009931 ], [ -6.69131, 37.9007872 ], [ -6.6930869, 37.9010827 ], [ -6.6967062, 37.9004826 ], [ -6.6989838, 37.8998795 ], [ -6.6997375, 37.8997206 ], [ -6.7010601, 37.8995709 ], [ -6.7014955, 37.8996383 ], [ -6.7020856, 37.9000701 ], [ -6.7025782, 37.9001447 ], [ -6.7034468, 37.9000092 ], [ -6.7039511, 37.9000924 ], [ -6.7045173, 37.9002728 ], [ -6.7055776, 37.9007889 ], [ -6.706971, 37.9009161 ], [ -6.7072106, 37.9011608 ], [ -6.7075714, 37.90178 ], [ -6.7102078, 37.9006249 ], [ -6.7183076, 37.9034409 ], [ -6.7182032, 37.9029487 ], [ -6.7184527, 37.9013553 ], [ -6.7182785, 37.9001538 ], [ -6.7182785, 37.9001538 ], [ -6.7181605, 37.8998422 ], [ -6.7175695, 37.898942 ], [ -6.7174496, 37.8985945 ], [ -6.7172409, 37.8946735 ], [ -6.7171171, 37.894245 ], [ -6.716822, 37.8938039 ], [ -6.7164203, 37.8935013 ], [ -6.715689, 37.8932001 ], [ -6.7145814, 37.8924244 ], [ -6.7137694, 37.8920987 ], [ -6.7134153, 37.8918396 ], [ -6.7134349, 37.8913256 ], [ -6.7134349, 37.8913255 ], [ -6.7133056, 37.8910143 ], [ -6.7130555, 37.890788 ], [ -6.7118064, 37.8901338 ], [ -6.7111514, 37.8898572 ], [ -6.7107147, 37.8896728 ], [ -6.7097778, 37.8891258 ], [ -6.7090834, 37.8888775 ], [ -6.7080277, 37.8880009 ], [ -6.7079551, 37.8879131 ], [ -6.7078099, 37.8877376 ], [ -6.7070971, 37.88667 ], [ -6.7066047, 37.886145 ], [ -6.7060265, 37.8857218 ], [ -6.7048739, 37.8847222 ], [ -6.7048745, 37.8842808 ], [ -6.7043338, 37.8832438 ], [ -6.7043148, 37.8828661 ], [ -6.7044366, 37.882574 ], [ -6.7047103, 37.8823672 ], [ -6.7050662, 37.8822118 ], [ -6.7052524, 37.8820708 ], [ -6.7054213, 37.8818133 ], [ -6.7054873, 37.8815409 ], [ -6.7055659, 37.879935 ], [ -6.7056544, 37.8794367 ], [ -6.7058044, 37.8790266 ], [ -6.7059724, 37.8787511 ], [ -6.7064214, 37.8784126 ], [ -6.7065595, 37.8782191 ], [ -6.7065795, 37.8779392 ], [ -6.7065306, 37.8776435 ], [ -6.7067437, 37.8769071 ], [ -6.7070847, 37.8764549 ], [ -6.7063801, 37.8755493 ], [ -6.7051467, 37.8736153 ], [ -6.7043312, 37.8720825 ], [ -6.7041394, 37.871431 ], [ -6.7044455, 37.8707367 ], [ -6.7050144, 37.8700702 ], [ -6.7047406, 37.869142 ], [ -6.7045531, 37.8681209 ], [ -6.7041717, 37.8673132 ], [ -6.7040615, 37.8671545 ], [ -6.7041328, 37.8669901 ], [ -6.7044696, 37.8666822 ], [ -6.70459, 37.8663631 ], [ -6.7045996, 37.8661016 ], [ -6.7042167, 37.8648074 ], [ -6.7040461, 37.8645786 ], [ -6.7037272, 37.8643364 ], [ -6.7031386, 37.8641567 ], [ -6.7019289, 37.8640507 ], [ -6.701628, 37.863943 ], [ -6.7013205, 37.8637005 ], [ -6.70085, 37.8631568 ], [ -6.7003979, 37.8625224 ], [ -6.6997377, 37.861363 ], [ -6.6994736, 37.8624434 ], [ -6.6987488, 37.8647633 ], [ -6.6981394, 37.8666652 ], [ -6.6962079, 37.866897 ], [ -6.6951803, 37.8672536 ], [ -6.6948489, 37.8674442 ], [ -6.6945007, 37.8677524 ], [ -6.6941637, 37.8682855 ], [ -6.6939254, 37.8692028 ], [ -6.6938333, 37.8700886 ], [ -6.6938696, 37.8710423 ], [ -6.6937196, 37.8714524 ], [ -6.6934903, 37.8716398 ], [ -6.6931009, 37.8718051 ], [ -6.692892, 37.8719468 ], [ -6.6926886, 37.8721964 ], [ -6.6926745, 37.872368 ], [ -6.6929164, 37.8731171 ], [ -6.6928918, 37.8733071 ], [ -6.692588, 37.8738211 ], [ -6.6902818, 37.8765689 ], [ -6.6896352, 37.8770487 ], [ -6.6876768, 37.8776596 ], [ -6.6844399, 37.878842 ], [ -6.6800176, 37.8801876 ], [ -6.6771382, 37.8805659 ], [ -6.6759159, 37.8799826 ], [ -6.6754557, 37.8798708 ], [ -6.6752438, 37.8797243 ], [ -6.6752283, 37.8791843 ], [ -6.6749753, 37.8788949 ], [ -6.6738806, 37.8781363 ], [ -6.6724275, 37.8772539 ], [ -6.6719877, 37.8770964 ], [ -6.6715565, 37.8771099 ], [ -6.6711111, 37.8772949 ], [ -6.6708706, 37.8772574 ], [ -6.6707073, 37.8771724 ], [ -6.6704894, 37.8771342 ], [ -6.6703087, 37.8771578 ], [ -6.6702387, 37.8773492 ], [ -6.6701302, 37.8774516 ], [ -6.669911, 37.8773865 ], [ -6.6697176, 37.8773835 ], [ -6.6697039, 37.8775641 ], [ -6.6674406, 37.8777608 ], [ -6.6661986, 37.8790697 ], [ -6.6657898, 37.8793076 ], [ -6.6654656, 37.8794168 ], [ -6.6649294, 37.8796047 ], [ -6.6647323, 37.879755 ], [ -6.6636882, 37.8809316 ], [ -6.6633224, 37.8813483 ], [ -6.6625479, 37.8820031 ], [ -6.6618693, 37.8829881 ], [ -6.6612018, 37.8837385 ], [ -6.6603554, 37.8845486 ], [ -6.6600013, 37.884974 ], [ -6.6596607, 37.8852098 ], [ -6.6590154, 37.8854911 ], [ -6.6585485, 37.8857038 ], [ -6.6578218, 37.8861769 ], [ -6.6572192, 37.8864028 ], [ -6.656499, 37.8865513 ], [ -6.6539824, 37.8869178 ], [ -6.6523796, 37.8864541 ], [ -6.6508773, 37.8861855 ], [ -6.6484708, 37.8862512 ], [ -6.6478631, 37.8861439 ], [ -6.647246, 37.8863072 ], [ -6.6476249, 37.8873043 ], [ -6.6478443, 37.8880633 ], [ -6.6478791, 37.8889991 ], [ -6.6480538, 37.8916151 ], [ -6.6491521, 37.8935989 ], [ -6.6487468, 37.8948276 ], [ -6.6521222, 37.8961913 ], [ -6.6579899, 37.895081 ], [ -6.6585826, 37.8939636 ], [ -6.6602402, 37.8923175 ], [ -6.6613013, 37.8917079 ], [ -6.6619163, 37.8912744 ], [ -6.6635347, 37.8918185 ], [ -6.6639632, 37.8919763 ], [ -6.6645575, 37.8918137 ], [ -6.6650551, 37.8917621 ], [ -6.6655686, 37.8918002 ], [ -6.6658708, 37.8919349 ], [ -6.6664186, 37.8926655 ], [ -6.6669573, 37.8929821 ], [ -6.6676834, 37.8931846 ], [ -6.6705038, 37.893439 ], [ -6.6709318, 37.8935877 ], [ -6.6712168, 37.8938311 ], [ -6.6716461, 37.8946915 ], [ -6.6723507, 37.8958316 ], [ -6.6728488, 37.8964737 ], [ -6.6733977, 37.896997 ], [ -6.67449, 37.8977016 ], [ -6.6748253, 37.8980424 ], [ -6.6750483, 37.8984138 ], [ -6.6751961, 37.8988686 ], [ -6.6756022, 37.8992613 ], [ -6.6764013, 37.8997859 ], [ -6.6778593, 37.9002988 ], [ -6.6796367, 37.9010629 ], [ -6.6803947, 37.9014446 ], [ -6.6807396, 37.9017491 ], [ -6.6823726, 37.9057697 ], [ -6.6850212, 37.908038 ], [ -6.6854878, 37.9082756 ] ] ] } }
]
}
