{
"type": "FeatureCollection",
"name": "21023",
"features": [
{ "type": "Feature", "properties": { "CCAA": "01 - Andalucía", "PROVINCIA": "21 - Huelva", "MUNICIPIO": "21023 - Cerro de Andévalo, El", "COD_MUNICIPIO": "21023", "DISTRITO": "01", "SECCION": "2102301001", "V1_H": 79.81, "V1_M": 85.63, "V2_H": 79.83092799000001, "V2_M": 85.85143097, "V3_H": 80.00184088, "V3_M": 85.62912109 }, "geometry": { "type": "Polygon", "coordinates": [ [ [ -6.8583023, 37.7500654 ], [ -6.8634567, 37.7799921 ], [ -6.8624894, 37.7694844 ], [ -6.8679942, 37.7690695 ], [ -6.8689438, 37.7690023 ], [ -6.8708055, 37.768797 ], [ -6.8714937, 37.7687203 ], [ -6.8722923, 37.7685859 ], [ -6.8729867, 37.76841 ], [ -6.8763229, 37.7681921 ], [ -6.8787547, 37.7678237 ], [ -6.8792663, 37.7678429 ], [ -6.8803519, 37.7677711 ], [ -6.8832042, 37.7674159 ], [ -6.8855571, 37.7672752 ], [ -6.8862901, 37.7671879 ], [ -6.88785, 37.7668571 ], [ -6.8910879, 37.7656332 ], [ -6.8928342, 37.7653954 ], [ -6.8934619, 37.7652485 ], [ -6.8937422, 37.7651852 ], [ -6.894175, 37.7652159 ], [ -6.8970154, 37.7670136 ], [ -6.8977848, 37.7676186 ], [ -6.8983786, 37.7679052 ], [ -6.9007443, 37.7693042 ], [ -6.9025984, 37.7704678 ], [ -6.9032433, 37.771077 ], [ -6.9040142, 37.771709 ], [ -6.9042177, 37.7719095 ], [ -6.9044947, 37.7722155 ], [ -6.9052591, 37.773154 ], [ -6.9056042, 37.7734579 ], [ -6.9076357, 37.7758316 ], [ -6.9083354, 37.7764029 ], [ -6.9109466, 37.7777123 ], [ -6.911574, 37.7779888 ], [ -6.9122987, 37.7783881 ], [ -6.9159905, 37.7810307 ], [ -6.9162941, 37.7811918 ], [ -6.9197882, 37.7835256 ], [ -6.9209243, 37.7844065 ], [ -6.921093, 37.7845901 ], [ -6.9212215, 37.7848741 ], [ -6.9209632, 37.7857835 ], [ -6.9209027, 37.7867854 ], [ -6.9206429, 37.7876677 ], [ -6.9204102, 37.7890627 ], [ -6.9199092, 37.7901063 ], [ -6.9197164, 37.7909684 ], [ -6.9192354, 37.7923897 ], [ -6.918958, 37.7929394 ], [ -6.9189463, 37.7931469 ], [ -6.9190838, 37.7933856 ], [ -6.9193633, 37.7948085 ], [ -6.9189259, 37.7955527 ], [ -6.9186739, 37.7972275 ], [ -6.9185293, 37.799214 ], [ -6.9185877, 37.8001039 ], [ -6.9185185, 37.8007277 ], [ -6.9181756, 37.801757 ], [ -6.9181351, 37.8020646 ], [ -6.9181657, 37.8028563 ], [ -6.9184052, 37.8033077 ], [ -6.9186088, 37.8035081 ], [ -6.9188498, 37.8037703 ], [ -6.9195838, 37.8043404 ], [ -6.919528, 37.8054322 ], [ -6.9196936, 37.8072733 ], [ -6.9201526, 37.808438 ], [ -6.9209946, 37.809545 ], [ -6.9210314, 37.8095978 ], [ -6.9215265, 37.8099416 ], [ -6.9216913, 37.8100532 ], [ -6.9217627, 37.8101139 ], [ -6.9218322, 37.8103548 ], [ -6.9213893, 37.8116396 ], [ -6.9216079, 37.814695 ], [ -6.921799, 37.8153011 ], [ -6.9219444, 37.8171879 ], [ -6.922557, 37.8163208 ], [ -6.9229105, 37.8159216 ], [ -6.923589, 37.8154396 ], [ -6.9243889, 37.814251 ], [ -6.9247972, 37.813814 ], [ -6.9255797, 37.812725 ], [ -6.9257415, 37.8123503 ], [ -6.9259705, 37.8121715 ], [ -6.9262868, 37.8119267 ], [ -6.9271286, 37.8106736 ], [ -6.9281455, 37.8090813 ], [ -6.9343395, 37.801506 ], [ -6.9351903, 37.8012795 ], [ -6.9368983, 37.8007359 ], [ -6.9379491, 37.8002144 ], [ -6.9390971, 37.7998156 ], [ -6.9402835, 37.7994967 ], [ -6.9407801, 37.7992278 ], [ -6.9425285, 37.7985928 ], [ -6.9433436, 37.7981241 ], [ -6.9440597, 37.797929 ], [ -6.9467574, 37.7970008 ], [ -6.9484233, 37.7965216 ], [ -6.9523011, 37.7943106 ], [ -6.9536096, 37.7935191 ], [ -6.9549182, 37.7927275 ], [ -6.9574235, 37.7913912 ], [ -6.9575113, 37.7913342 ], [ -6.9579397, 37.7910676 ], [ -6.9592148, 37.7905023 ], [ -6.9599188, 37.7900822 ], [ -6.9600613, 37.7899874 ], [ -6.9609922, 37.7893526 ], [ -6.9615117, 37.7890919 ], [ -6.9622243, 37.7888336 ], [ -6.9628042, 37.7884268 ], [ -6.9631864, 37.7883599 ], [ -6.9643694, 37.7877706 ], [ -6.9648971, 37.7876627 ], [ -6.9657908, 37.7871822 ], [ -6.9669676, 37.7866922 ], [ -6.9678483, 37.7863923 ], [ -6.9687112, 37.7859759 ], [ -6.9697656, 37.7853188 ], [ -6.9715497, 37.784511 ], [ -6.9739512, 37.7829437 ], [ -6.9745972, 37.7827147 ], [ -6.9757587, 37.7825764 ], [ -6.9764698, 37.7822911 ], [ -6.9781163, 37.7818842 ], [ -6.9786926, 37.7818378 ], [ -6.9800385, 37.78154 ], [ -6.9805818, 37.7815126 ], [ -6.9819164, 37.7812153 ], [ -6.9827778, 37.7811952 ], [ -6.9841336, 37.7808701 ], [ -6.9862315, 37.7806279 ], [ -6.9870237, 37.7803759 ], [ -6.9889329, 37.7802121 ], [ -6.9904212, 37.7798194 ], [ -6.9921027, 37.7796453 ], [ -6.9927732, 37.7794514 ], [ -6.9936722, 37.7792858 ], [ -6.9960079, 37.7790354 ], [ -6.9970522, 37.7788288 ], [ -6.9975718, 37.7787841 ], [ -6.9979697, 37.7787976 ], [ -6.9982742, 37.7787603 ], [ -7.0019529, 37.7783741 ], [ -7.0025578, 37.7782274 ], [ -7.0040199, 37.7777723 ], [ -7.006505, 37.7771383 ], [ -7.0066627, 37.777115 ], [ -7.0075527, 37.7769946 ], [ -7.0083334, 37.7767428 ], [ -7.0086969, 37.7767485 ], [ -7.0103325, 37.7765666 ], [ -7.0110777, 37.7764962 ], [ -7.0116268, 37.7765766 ], [ -7.0118641, 37.7765595 ], [ -7.0126203, 37.7762725 ], [ -7.0134896, 37.7761888 ], [ -7.0138812, 37.7760854 ], [ -7.0151076, 37.7758904 ], [ -7.0155606, 37.7760822 ], [ -7.0164951, 37.7763655 ], [ -7.021017, 37.7773011 ], [ -7.0254164, 37.7782767 ], [ -7.0277141, 37.7787926 ], [ -7.0287192, 37.7791185 ], [ -7.0297625, 37.7795242 ], [ -7.0363474, 37.7816585 ], [ -7.0437969, 37.7846545 ], [ -7.043984, 37.7849634 ], [ -7.0440929, 37.7846714 ], [ -7.0443659, 37.7842657 ], [ -7.0447133, 37.783353 ], [ -7.0449808, 37.7830556 ], [ -7.0463947, 37.7810974 ], [ -7.0514225, 37.7744572 ], [ -7.0518535, 37.7738298 ], [ -7.0524273, 37.7727021 ], [ -7.0537177, 37.7703608 ], [ -7.0541393, 37.7697698 ], [ -7.054713, 37.7692637 ], [ -7.055794, 37.7684878 ], [ -7.055869, 37.7684548 ], [ -7.0560377, 37.7683804 ], [ -7.0568778, 37.7681803 ], [ -7.0574303, 37.7677018 ], [ -7.0580857, 37.7672379 ], [ -7.0585762, 37.7666625 ], [ -7.0589583, 37.7659738 ], [ -7.0591548, 37.7652104 ], [ -7.0592366, 37.7646311 ], [ -7.0591573, 37.7640123 ], [ -7.0589884, 37.7636218 ], [ -7.0588437, 37.7630503 ], [ -7.0590845, 37.7626817 ], [ -7.0595036, 37.7622529 ], [ -7.0606552, 37.7607 ], [ -7.0607596, 37.7603271 ], [ -7.0607922, 37.7586416 ], [ -7.0607607, 37.7582733 ], [ -7.0605332, 37.7578489 ], [ -7.0605322, 37.7576237 ], [ -7.0606898, 37.7571859 ], [ -7.0610921, 37.7564514 ], [ -7.06142, 37.7560168 ], [ -7.0621206, 37.7553441 ], [ -7.0630372, 37.7546819 ], [ -7.063698, 37.7543168 ], [ -7.0655539, 37.7500913 ], [ -7.0670026, 37.7473391 ], [ -7.0680392, 37.7453487 ], [ -7.0680977, 37.7451755 ], [ -7.0696839, 37.7397613 ], [ -7.0700513, 37.7369473 ], [ -7.0696984, 37.7354732 ], [ -7.0696383, 37.734998 ], [ -7.0694715, 37.7343114 ], [ -7.0692868, 37.7335509 ], [ -7.0695954, 37.7327656 ], [ -7.0698171, 37.7297765 ], [ -7.0699106, 37.7294129 ], [ -7.0721934, 37.7261634 ], [ -7.0728828, 37.7255001 ], [ -7.0746046, 37.7238102 ], [ -7.0759662, 37.7234117 ], [ -7.0766309, 37.7231275 ], [ -7.0808921, 37.7208092 ], [ -7.0906492, 37.720903 ], [ -7.0937331, 37.7208949 ], [ -7.0958992, 37.7209007 ], [ -7.1006599, 37.7204558 ], [ -7.1039026, 37.7202438 ], [ -7.1056283, 37.7202827 ], [ -7.1065082, 37.7204051 ], [ -7.1106305, 37.7207207 ], [ -7.1128458, 37.7207965 ], [ -7.1140666, 37.7207268 ], [ -7.1184309, 37.7209075 ], [ -7.1217434, 37.7213411 ], [ -7.1226301, 37.7213821 ], [ -7.1229564, 37.7207222 ], [ -7.1230599, 37.7203402 ], [ -7.1229787, 37.719082 ], [ -7.1237479, 37.7172086 ], [ -7.1243805, 37.7163488 ], [ -7.1245544, 37.7160094 ], [ -7.124586, 37.715558 ], [ -7.1240905, 37.7148007 ], [ -7.1239444, 37.7135988 ], [ -7.1239612, 37.7130848 ], [ -7.1241257, 37.7125974 ], [ -7.1241949, 37.7123921 ], [ -7.1242971, 37.7121984 ], [ -7.1245437, 37.7117313 ], [ -7.1248917, 37.7100348 ], [ -7.1251245, 37.7095312 ], [ -7.1252541, 37.7094141 ], [ -7.1253837, 37.709297 ], [ -7.1258253, 37.7090833 ], [ -7.1259369, 37.7089965 ], [ -7.1261404, 37.7088381 ], [ -7.1264272, 37.708693 ], [ -7.1270416, 37.7085273 ], [ -7.1276406, 37.7082901 ], [ -7.1282754, 37.7078806 ], [ -7.128709, 37.7075231 ], [ -7.1289736, 37.7073877 ], [ -7.1298188, 37.7072951 ], [ -7.1311738, 37.7074006 ], [ -7.1318542, 37.7074038 ], [ -7.1322359, 37.7073364 ], [ -7.133096, 37.7069009 ], [ -7.1333515, 37.7066036 ], [ -7.1340194, 37.7051571 ], [ -7.1343312, 37.7040382 ], [ -7.134567, 37.7035886 ], [ -7.1346252, 37.703526 ], [ -7.1349306, 37.7031975 ], [ -7.135325, 37.7029495 ], [ -7.1360504, 37.7027439 ], [ -7.1367018, 37.7022256 ], [ -7.1376248, 37.7012925 ], [ -7.1395128, 37.6997759 ], [ -7.1400802, 37.6993777 ], [ -7.1405114, 37.6991823 ], [ -7.1418359, 37.6989466 ], [ -7.1436446, 37.698856 ], [ -7.1444074, 37.6987121 ], [ -7.1449533, 37.6985397 ], [ -7.1455205, 37.6983059 ], [ -7.1457178, 37.6982246 ], [ -7.1470211, 37.6974041 ], [ -7.1470409, 37.6973934 ], [ -7.1482206, 37.6967583 ], [ -7.1487959, 37.6965039 ], [ -7.1493007, 37.6962069 ], [ -7.1509607, 37.6946712 ], [ -7.1518158, 37.6939475 ], [ -7.153501, 37.6922578 ], [ -7.1540825, 37.691913 ], [ -7.1539628, 37.6918001 ], [ -7.1537919, 37.6911757 ], [ -7.1539318, 37.6904321 ], [ -7.1539348, 37.6900807 ], [ -7.1537395, 37.6896282 ], [ -7.1535306, 37.6893384 ], [ -7.1533527, 37.6885881 ], [ -7.1532995, 37.6880405 ], [ -7.1532037, 37.6877466 ], [ -7.1523866, 37.6863073 ], [ -7.1517485, 37.6856362 ], [ -7.151092, 37.6848397 ], [ -7.1507258, 37.6845734 ], [ -7.1499403, 37.684511 ], [ -7.1494564, 37.684573 ], [ -7.1491704, 37.6847272 ], [ -7.1490381, 37.6847949 ], [ -7.1489315, 37.6849158 ], [ -7.1478022, 37.6862076 ], [ -7.1475683, 37.6868914 ], [ -7.1471861, 37.6873552 ], [ -7.1467648, 37.6875232 ], [ -7.1462243, 37.6875872 ], [ -7.1455647, 37.6875474 ], [ -7.1453088, 37.6874303 ], [ -7.1450548, 37.687142 ], [ -7.1446985, 37.6860376 ], [ -7.1444301, 37.6856958 ], [ -7.1436194, 37.6849767 ], [ -7.1431908, 37.6848116 ], [ -7.1414452, 37.6846028 ], [ -7.1411665, 37.6845856 ], [ -7.1408878, 37.6845683 ], [ -7.1403118, 37.6843994 ], [ -7.1399257, 37.684386 ], [ -7.1395663, 37.6844437 ], [ -7.1388198, 37.684677 ], [ -7.1384108, 37.6848625 ], [ -7.13778, 37.6852002 ], [ -7.1362316, 37.686029 ], [ -7.1361222, 37.6861727 ], [ -7.1359992, 37.6863344 ], [ -7.1357695, 37.6868919 ], [ -7.1354836, 37.6872532 ], [ -7.1352118, 37.6874609 ], [ -7.1347147, 37.6876946 ], [ -7.1338, 37.6883662 ], [ -7.1332828, 37.6886456 ], [ -7.132914, 37.6887396 ], [ -7.1319687, 37.6888627 ], [ -7.1316357, 37.6887844 ], [ -7.1311421, 37.6884684 ], [ -7.1305251, 37.6881748 ], [ -7.1301035, 37.6881356 ], [ -7.1296846, 37.6883484 ], [ -7.129593, 37.6881265 ], [ -7.1297289, 37.6877163 ], [ -7.1297513, 37.6844459 ], [ -7.1258563, 37.6802228 ], [ -7.1247764, 37.6789366 ], [ -7.1234813, 37.6772435 ], [ -7.1223972, 37.6762906 ], [ -7.1233152, 37.6760874 ], [ -7.1318797, 37.6733824 ], [ -7.1328904, 37.6730136 ], [ -7.1336612, 37.6726083 ], [ -7.134696, 37.6722657 ], [ -7.138463, 37.6692961 ], [ -7.1428772, 37.666763 ], [ -7.1444786, 37.6656078 ], [ -7.1460447, 37.6642287 ], [ -7.1468649, 37.66329 ], [ -7.1468953, 37.6632259 ], [ -7.1472078, 37.6625304 ], [ -7.1473478, 37.6623993 ], [ -7.1475627, 37.6623918 ], [ -7.1477516, 37.6625293 ], [ -7.1480171, 37.6630243 ], [ -7.1483312, 37.6633735 ], [ -7.1483892, 37.6633985 ], [ -7.1487513, 37.6635929 ], [ -7.1491639, 37.6636775 ], [ -7.1497957, 37.6636282 ], [ -7.1502759, 37.6635032 ], [ -7.1506622, 37.6633185 ], [ -7.151545, 37.6626929 ], [ -7.1519416, 37.6624897 ], [ -7.1522439, 37.662425 ], [ -7.1523, 37.6624141 ], [ -7.1527204, 37.6624353 ], [ -7.1529933, 37.6624527 ], [ -7.1538687, 37.66271 ], [ -7.1543384, 37.6628016 ], [ -7.1549038, 37.6627816 ], [ -7.1552493, 37.6626793 ], [ -7.1554634, 37.6624556 ], [ -7.1556389, 37.6615397 ], [ -7.1556824, 37.661304 ], [ -7.1533057, 37.6499756 ], [ -7.1528535, 37.6463345 ], [ -7.1527306, 37.6449427 ], [ -7.1475593, 37.6413779 ], [ -7.1345581, 37.6303954 ], [ -7.1330798, 37.6274298 ], [ -7.1311498, 37.6265247 ], [ -7.1279652, 37.625051 ], [ -7.1238235, 37.621629 ], [ -7.12209, 37.6206049 ], [ -7.1186846, 37.618593 ], [ -7.1151105, 37.6155923 ], [ -7.1120518, 37.6137174 ], [ -7.1064942, 37.6106685 ], [ -7.1050813, 37.609889 ], [ -7.0997817, 37.6069928 ], [ -7.097896, 37.6052299 ], [ -7.0936627, 37.6021523 ], [ -7.090962, 37.5995618 ], [ -7.0876627, 37.5969919 ], [ -7.0851954, 37.5947265 ], [ -7.0850395, 37.594584 ], [ -7.0809415, 37.5908384 ], [ -7.0699464, 37.5992803 ], [ -7.0687942, 37.6001578 ], [ -7.0677417, 37.6016173 ], [ -7.0632996, 37.6077785 ], [ -7.0611798, 37.610644 ], [ -7.0612376, 37.6112905 ], [ -7.0608635, 37.6123213 ], [ -7.0606065, 37.6125913 ], [ -7.0600752, 37.613024 ], [ -7.0599749, 37.6132616 ], [ -7.0597635, 37.6135391 ], [ -7.0593827, 37.6138225 ], [ -7.059245, 37.6139984 ], [ -7.0592214, 37.6141883 ], [ -7.059326, 37.614446 ], [ -7.0596821, 37.6149561 ], [ -7.0597969, 37.6156098 ], [ -7.0597246, 37.6159455 ], [ -7.0595408, 37.6161049 ], [ -7.0589084, 37.6163429 ], [ -7.0585594, 37.6165891 ], [ -7.0583147, 37.6166928 ], [ -7.0583048, 37.616697 ], [ -7.057549, 37.61675 ], [ -7.0572708, 37.6168406 ], [ -7.0569328, 37.6168703 ], [ -7.0564305, 37.6170047 ], [ -7.0557435, 37.6172806 ], [ -7.0555621, 37.617485 ], [ -7.0553786, 37.6178606 ], [ -7.0549706, 37.6184781 ], [ -7.055061, 37.6186822 ], [ -7.0557277, 37.6190736 ], [ -7.0557522, 37.619316 ], [ -7.0554912, 37.6195141 ], [ -7.0544921, 37.6198818 ], [ -7.0539308, 37.6201803 ], [ -7.0531408, 37.620856 ], [ -7.0530321, 37.621148 ], [ -7.0530785, 37.6212656 ], [ -7.0531897, 37.6215479 ], [ -7.0532476, 37.6219873 ], [ -7.0529933, 37.6225185 ], [ -7.0522938, 37.6231911 ], [ -7.0521168, 37.6234764 ], [ -7.052043, 37.6237852 ], [ -7.0518743, 37.6240162 ], [ -7.05012, 37.6250763 ], [ -7.0490663, 37.626189 ], [ -7.0485241, 37.6267615 ], [ -7.0456861, 37.6297684 ], [ -7.0438019, 37.6328236 ], [ -7.0397169, 37.6379089 ], [ -7.0391515, 37.6383425 ], [ -7.0340726, 37.6422367 ], [ -7.0329836, 37.6432558 ], [ -7.032542, 37.6436762 ], [ -7.0210307, 37.6549688 ], [ -7.009965, 37.6655515 ], [ -7.0071851, 37.666745 ], [ -7.0000206, 37.6679522 ], [ -6.9963508, 37.6671399 ], [ -6.9895539, 37.6669649 ], [ -6.987979, 37.666757 ], [ -6.9863328, 37.6664884 ], [ -6.9841681, 37.6664805 ], [ -6.9821562, 37.6665755 ], [ -6.9800639, 37.666439 ], [ -6.9787641, 37.666501 ], [ -6.9781665, 37.6665572 ], [ -6.9775091, 37.6665523 ], [ -6.9770949, 37.6666473 ], [ -6.9768626, 37.6667543 ], [ -6.9756649, 37.6676685 ], [ -6.9747776, 37.6682389 ], [ -6.9741607, 37.6687821 ], [ -6.973797, 37.6689745 ], [ -6.9736283, 37.6691348 ], [ -6.9734627, 37.6692921 ], [ -6.9732994, 37.6696308 ], [ -6.9731862, 37.6700581 ], [ -6.9726024, 37.6712217 ], [ -6.9724849, 37.671568 ], [ -6.9725041, 37.6719276 ], [ -6.9727706, 37.6726753 ], [ -6.972918, 37.6735261 ], [ -6.9728026, 37.6745478 ], [ -6.9729447, 37.6752997 ], [ -6.9729188, 37.6763004 ], [ -6.9726475, 37.6765257 ], [ -6.9719391, 37.6766307 ], [ -6.9714298, 37.676855 ], [ -6.9710186, 37.6772202 ], [ -6.9707102, 37.6775999 ], [ -6.970189, 37.678239 ], [ -6.9698216, 37.6785757 ], [ -6.9695342, 37.6787115 ], [ -6.9692863, 37.6787378 ], [ -6.9689666, 37.6786945 ], [ -6.9686422, 37.6785613 ], [ -6.9681729, 37.6782619 ], [ -6.9675266, 37.6782566 ], [ -6.966848, 37.6784956 ], [ -6.9663511, 37.6789537 ], [ -6.9654469, 37.6800651 ], [ -6.9653374, 37.680348 ], [ -6.9649868, 37.6816389 ], [ -6.9645738, 37.6826076 ], [ -6.9642306, 37.6831867 ], [ -6.9641051, 37.6835962 ], [ -6.9640672, 37.6839488 ], [ -6.9643345, 37.6851379 ], [ -6.9644183, 37.6860719 ], [ -6.9645497, 37.6864097 ], [ -6.9647884, 37.6866359 ], [ -6.9650404, 37.6868976 ], [ -6.9651646, 37.6871006 ], [ -6.9652752, 37.6874752 ], [ -6.9655093, 37.6878277 ], [ -6.9659443, 37.6881193 ], [ -6.9666052, 37.6886105 ], [ -6.9666772, 37.6888963 ], [ -6.9665863, 37.6891065 ], [ -6.9662514, 37.6894151 ], [ -6.9661531, 37.6896976 ], [ -6.9661781, 37.6901652 ], [ -6.9657433, 37.6911527 ], [ -6.9656529, 37.6917953 ], [ -6.9655587, 37.6919426 ], [ -6.9647482, 37.6924743 ], [ -6.9646035, 37.6925242 ], [ -6.9643931, 37.6924052 ], [ -6.9643357, 37.6919657 ], [ -6.9641894, 37.6917725 ], [ -6.9640295, 37.6917508 ], [ -6.963777, 37.6919034 ], [ -6.9633134, 37.6923514 ], [ -6.9630363, 37.6924688 ], [ -6.9628458, 37.6925113 ], [ -6.9620181, 37.6927192 ], [ -6.9619554, 37.6928204 ], [ -6.9616843, 37.693262 ], [ -6.9615996, 37.6935891 ], [ -6.961634, 37.6940203 ], [ -6.9620154, 37.694584 ], [ -6.9620288, 37.6948357 ], [ -6.9617812, 37.6952944 ], [ -6.9616636, 37.6956407 ], [ -6.9616827, 37.6960004 ], [ -6.9618249, 37.6963288 ], [ -6.9618712, 37.6963453 ], [ -6.9627038, 37.6968668 ], [ -6.9639058, 37.6981505 ], [ -6.9639744, 37.6983734 ], [ -6.9635917, 37.6990618 ], [ -6.9635434, 37.6994328 ], [ -6.9637009, 37.7004724 ], [ -6.9635847, 37.7008456 ], [ -6.9630939, 37.7014206 ], [ -6.9628167, 37.701538 ], [ -6.962614, 37.7015628 ], [ -6.9622683, 37.7014574 ], [ -6.9615873, 37.7014442 ], [ -6.9611958, 37.7013313 ], [ -6.9607706, 37.7014357 ], [ -6.9602722, 37.7014434 ], [ -6.9596416, 37.7013115 ], [ -6.9593385, 37.7013667 ], [ -6.9589968, 37.7015494 ], [ -6.9586842, 37.7016409 ], [ -6.9585474, 37.7016275 ], [ -6.9579207, 37.7015675 ], [ -6.9569338, 37.7015556 ], [ -6.956607, 37.7015936 ], [ -6.9553028, 37.7022229 ], [ -6.9551123, 37.7022653 ], [ -6.9547463, 37.7022055 ], [ -6.953916, 37.701729 ], [ -6.9537222, 37.7017084 ], [ -6.9533485, 37.7019282 ], [ -6.9532542, 37.7020755 ], [ -6.9508987, 37.7019113 ], [ -6.9431154, 37.7020099 ], [ -6.9341425, 37.7025626 ], [ -6.9306399, 37.7027781 ], [ -6.926137, 37.7040272 ], [ -6.9205253, 37.7040339 ], [ -6.9200155, 37.7040419 ], [ -6.9177825, 37.7036208 ], [ -6.9130769, 37.7049031 ], [ -6.910137, 37.7056587 ], [ -6.9093743, 37.7058547 ], [ -6.9056676, 37.7058696 ], [ -6.9013322, 37.7064366 ], [ -6.8994407, 37.7066884 ], [ -6.8949728, 37.7071065 ], [ -6.8933754, 37.7075647 ], [ -6.8926609, 37.7077774 ], [ -6.8923591, 37.7078595 ], [ -6.8920021, 37.7079703 ], [ -6.8886807, 37.7097195 ], [ -6.8862172, 37.71088 ], [ -6.8854938, 37.7112209 ], [ -6.877359, 37.7148218 ], [ -6.8753928, 37.7158234 ], [ -6.8716371, 37.7179557 ], [ -6.8701823, 37.7196339 ], [ -6.8689596, 37.7211964 ], [ -6.8685102, 37.7219318 ], [ -6.861415, 37.7226601 ], [ -6.8565447, 37.7223422 ], [ -6.8543555, 37.7229903 ], [ -6.8535789, 37.7233221 ], [ -6.8543498, 37.7281251 ], [ -6.8550389, 37.7315707 ], [ -6.8583023, 37.7500654 ] ], [ [ -6.9332663, 37.736969 ], [ -6.9332129, 37.7368296 ], [ -6.9331139, 37.7367021 ], [ -6.9328497, 37.7365645 ], [ -6.9323328, 37.7363803 ], [ -6.932467, 37.7358057 ], [ -6.931939, 37.7357867 ], [ -6.9304208, 37.7354738 ], [ -6.930342, 37.7352306 ], [ -6.9306151, 37.7351639 ], [ -6.9308294, 37.73523 ], [ -6.9309887, 37.7353764 ], [ -6.9313853, 37.7352795 ], [ -6.9313338, 37.7348052 ], [ -6.9312978, 37.7344977 ], [ -6.9313104, 37.7339899 ], [ -6.9306596, 37.7337234 ], [ -6.9306635, 37.7337133 ], [ -6.9302457, 37.7335363 ], [ -6.9302435, 37.733369 ], [ -6.9302549, 37.7330861 ], [ -6.9302238, 37.7328727 ], [ -6.9304378, 37.7329336 ], [ -6.9308364, 37.7329988 ], [ -6.9309959, 37.7330248 ], [ -6.9312773, 37.7331148 ], [ -6.9313735, 37.7331901 ], [ -6.9315859, 37.7333451 ], [ -6.9316818, 37.7334152 ], [ -6.9318171, 37.7334839 ], [ -6.9319849, 37.733541 ], [ -6.932124, 37.7335573 ], [ -6.9324152, 37.7335842 ], [ -6.9325884, 37.7336203 ], [ -6.9329739, 37.7336859 ], [ -6.9330224, 37.7337314 ], [ -6.9329645, 37.7337568 ], [ -6.9346791, 37.7337963 ], [ -6.9350018, 37.733796 ], [ -6.935092, 37.7338819 ], [ -6.9360111, 37.7338251 ], [ -6.9364552, 37.7338782 ], [ -6.9367842, 37.7338725 ], [ -6.9367817, 37.7338255 ], [ -6.9368464, 37.7338023 ], [ -6.9377748, 37.7337975 ], [ -6.9380042, 37.7337767 ], [ -6.9381555, 37.7338972 ], [ -6.9381822, 37.7340271 ], [ -6.9381839, 37.734184 ], [ -6.9381653, 37.7343311 ], [ -6.9381718, 37.7345767 ], [ -6.93817, 37.7347912 ], [ -6.9383325, 37.7348747 ], [ -6.9384049, 37.7349978 ], [ -6.938743, 37.7350389 ], [ -6.9389616, 37.7350629 ], [ -6.9389463, 37.7351471 ], [ -6.9385935, 37.7353263 ], [ -6.9385934, 37.7354466 ], [ -6.9386046, 37.7355352 ], [ -6.93838, 37.7356473 ], [ -6.9382258, 37.7357205 ], [ -6.938287, 37.7358806 ], [ -6.9383545, 37.7361138 ], [ -6.9383769, 37.7363207 ], [ -6.9376251, 37.736316 ], [ -6.937611, 37.7365466 ], [ -6.9372363, 37.7365617 ], [ -6.9369193, 37.7365462 ], [ -6.93683, 37.736476 ], [ -6.9367122, 37.7364904 ], [ -6.9361522, 37.7364882 ], [ -6.9358714, 37.7365341 ], [ -6.9355745, 37.7365231 ], [ -6.935381, 37.7364773 ], [ -6.9350626, 37.7364356 ], [ -6.934807, 37.7364599 ], [ -6.9346542, 37.7364362 ], [ -6.9345935, 37.7365324 ], [ -6.9345488, 37.73656 ], [ -6.9343253, 37.7365675 ], [ -6.9343229, 37.7366461 ], [ -6.9343287, 37.7367557 ], [ -6.9339648, 37.736726 ], [ -6.9336873, 37.7367091 ], [ -6.9334874, 37.736789 ], [ -6.9333871, 37.7368865 ], [ -6.9332663, 37.736969 ] ] ] } },
{ "type": "Feature", "properties": { "CCAA": "01 - Andalucía", "PROVINCIA": "21 - Huelva", "MUNICIPIO": "21023 - Cerro de Andévalo, El", "COD_MUNICIPIO": "21023", "DISTRITO": "01", "SECCION": "2102301002", "V1_H": 79.86, "V1_M": 85.62, "V2_H": 79.74592797, "V2_M": 85.80311169, "V3_H": 80.14073418, "V3_M": 85.57864485 }, "geometry": { "type": "Polygon", "coordinates": [ [ [ -6.9332129, 37.7368296 ], [ -6.9332663, 37.736969 ], [ -6.9333871, 37.7368865 ], [ -6.9334874, 37.736789 ], [ -6.9336873, 37.7367091 ], [ -6.9339648, 37.736726 ], [ -6.9343287, 37.7367557 ], [ -6.9343229, 37.7366461 ], [ -6.9343253, 37.7365675 ], [ -6.9345488, 37.73656 ], [ -6.9345935, 37.7365324 ], [ -6.9346542, 37.7364362 ], [ -6.934807, 37.7364599 ], [ -6.9350626, 37.7364356 ], [ -6.935381, 37.7364773 ], [ -6.9355745, 37.7365231 ], [ -6.9358714, 37.7365341 ], [ -6.9361522, 37.7364882 ], [ -6.9367122, 37.7364904 ], [ -6.93683, 37.736476 ], [ -6.9369193, 37.7365462 ], [ -6.9372363, 37.7365617 ], [ -6.937611, 37.7365466 ], [ -6.9376251, 37.736316 ], [ -6.9383769, 37.7363207 ], [ -6.9383545, 37.7361138 ], [ -6.938287, 37.7358806 ], [ -6.9382258, 37.7357205 ], [ -6.93838, 37.7356473 ], [ -6.9386046, 37.7355352 ], [ -6.9385934, 37.7354466 ], [ -6.9385935, 37.7353263 ], [ -6.9389463, 37.7351471 ], [ -6.9389616, 37.7350629 ], [ -6.938743, 37.7350389 ], [ -6.9384049, 37.7349978 ], [ -6.9383325, 37.7348747 ], [ -6.93817, 37.7347912 ], [ -6.9381718, 37.7345767 ], [ -6.9381653, 37.7343311 ], [ -6.9381839, 37.734184 ], [ -6.9381822, 37.7340271 ], [ -6.9381555, 37.7338972 ], [ -6.9380042, 37.7337767 ], [ -6.9377748, 37.7337975 ], [ -6.9368464, 37.7338023 ], [ -6.9367817, 37.7338255 ], [ -6.9367842, 37.7338725 ], [ -6.9364552, 37.7338782 ], [ -6.9360111, 37.7338251 ], [ -6.935092, 37.7338819 ], [ -6.9350018, 37.733796 ], [ -6.9346791, 37.7337963 ], [ -6.9329645, 37.7337568 ], [ -6.9330224, 37.7337314 ], [ -6.9329739, 37.7336859 ], [ -6.9325884, 37.7336203 ], [ -6.9324152, 37.7335842 ], [ -6.932124, 37.7335573 ], [ -6.9319849, 37.733541 ], [ -6.9318171, 37.7334839 ], [ -6.9316818, 37.7334152 ], [ -6.9315859, 37.7333451 ], [ -6.9313735, 37.7331901 ], [ -6.9312773, 37.7331148 ], [ -6.9309959, 37.7330248 ], [ -6.9308364, 37.7329988 ], [ -6.9304378, 37.7329336 ], [ -6.9302238, 37.7328727 ], [ -6.9302549, 37.7330861 ], [ -6.9302435, 37.733369 ], [ -6.9302457, 37.7335363 ], [ -6.9306635, 37.7337133 ], [ -6.9306596, 37.7337234 ], [ -6.9313104, 37.7339899 ], [ -6.9312978, 37.7344977 ], [ -6.9313338, 37.7348052 ], [ -6.9313853, 37.7352795 ], [ -6.9309887, 37.7353764 ], [ -6.9308294, 37.73523 ], [ -6.9306151, 37.7351639 ], [ -6.930342, 37.7352306 ], [ -6.9304208, 37.7354738 ], [ -6.931939, 37.7357867 ], [ -6.932467, 37.7358057 ], [ -6.9323328, 37.7363803 ], [ -6.9328497, 37.7365645 ], [ -6.9331139, 37.7367021 ], [ -6.9332129, 37.7368296 ] ] ] } }
]
}
