{
"type": "FeatureCollection",
"name": "21034",
"features": [
{ "type": "Feature", "properties": { "CCAA": "01 - Andalucía", "PROVINCIA": "21 - Huelva", "MUNICIPIO": "21034 - Galaroza", "COD_MUNICIPIO": "21034", "DISTRITO": "01", "SECCION": "2103401001", "V1_H": 79.27, "V1_M": 85.17, "V2_H": 79.19654882, "V2_M": 85.28496149, "V3_H": 79.61871206, "V3_M": 85.37047204 }, "geometry": { "type": "Polygon", "coordinates": [ [ [ -6.7012634, 37.9539386 ], [ -6.7065436, 37.9553216 ], [ -6.7078985, 37.9553419 ], [ -6.7105175, 37.9547098 ], [ -6.7104171, 37.9515871 ], [ -6.7111784, 37.9499866 ], [ -6.7122411, 37.9496288 ], [ -6.7123784, 37.9485164 ], [ -6.7135098, 37.9472646 ], [ -6.7143953, 37.946552 ], [ -6.7166919, 37.9456236 ], [ -6.7181511, 37.9459108 ], [ -6.718864, 37.9440325 ], [ -6.7192095, 37.940058 ], [ -6.7199146, 37.9389276 ], [ -6.7225728, 37.938411 ], [ -6.7211856, 37.9366173 ], [ -6.7221123, 37.9362727 ], [ -6.7241909, 37.9357654 ], [ -6.7238747, 37.9340099 ], [ -6.7242095, 37.9332065 ], [ -6.7248186, 37.9326557 ], [ -6.7252992, 37.9322622 ], [ -6.726173, 37.9315499 ], [ -6.726173, 37.9315498 ], [ -6.7256731, 37.9315612 ], [ -6.7251733, 37.9315725 ], [ -6.7246056, 37.9313653 ], [ -6.7235741, 37.9312088 ], [ -6.7228319, 37.930926 ], [ -6.722399, 37.9309127 ], [ -6.7222287, 37.9309181 ], [ -6.7219875, 37.9308717 ], [ -6.7211845, 37.9305098 ], [ -6.7202884, 37.9303309 ], [ -6.7200636, 37.9301579 ], [ -6.7198206, 37.9293999 ], [ -6.7197197, 37.929346 ], [ -6.7196453, 37.9293063 ], [ -6.7190036, 37.9292095 ], [ -6.7188392, 37.9291066 ], [ -6.7187643, 37.9285234 ], [ -6.7187879, 37.9283402 ], [ -6.7188542, 37.927827 ], [ -6.718277, 37.9267552 ], [ -6.7178802, 37.9263264 ], [ -6.7168806, 37.9256733 ], [ -6.7165363, 37.925387 ], [ -6.7165363, 37.9253869 ], [ -6.7164683, 37.9251639 ], [ -6.7167031, 37.9250844 ], [ -6.7172517, 37.924914 ], [ -6.7174357, 37.9247279 ], [ -6.7173903, 37.9245042 ], [ -6.7173903, 37.9245042 ], [ -6.7174784, 37.9242221 ], [ -6.7173304, 37.9239926 ], [ -6.7167727, 37.9235328 ], [ -6.716657, 37.9232662 ], [ -6.7167938, 37.9223701 ], [ -6.716494, 37.9220643 ], [ -6.7164528, 37.9216962 ], [ -6.7166708, 37.9212839 ], [ -6.7168111, 37.9211529 ], [ -6.7170401, 37.920939 ], [ -6.7171587, 37.9206882 ], [ -6.7172045, 37.9205915 ], [ -6.7172999, 37.9202281 ], [ -6.7172999, 37.9202281 ], [ -6.7174105, 37.9201444 ], [ -6.7176724, 37.9199461 ], [ -6.7181723, 37.9197141 ], [ -6.7184971, 37.9196137 ], [ -6.7189635, 37.9191666 ], [ -6.7189635, 37.9191666 ], [ -6.7197333, 37.9186467 ], [ -6.7197425, 37.9185868 ], [ -6.7197847, 37.9183118 ], [ -6.7194118, 37.9179092 ], [ -6.7186884, 37.9173195 ], [ -6.7185069, 37.9171001 ], [ -6.7184288, 37.9169044 ], [ -6.7185123, 37.9167577 ], [ -6.7187503, 37.9162907 ], [ -6.7187367, 37.9160209 ], [ -6.7187367, 37.9160208 ], [ -6.7185351, 37.9158561 ], [ -6.7182818, 37.915792 ], [ -6.7182817, 37.915792 ], [ -6.7179974, 37.915792 ], [ -6.7178685, 37.915715 ], [ -6.7177109, 37.9155218 ], [ -6.7176342, 37.9151279 ], [ -6.7177851, 37.9145105 ], [ -6.7179954, 37.9141705 ], [ -6.7184477, 37.9136698 ], [ -6.7186866, 37.9132209 ], [ -6.7192956, 37.9126701 ], [ -6.7193755, 37.9124514 ], [ -6.719327, 37.9117142 ], [ -6.719233, 37.911429 ], [ -6.719233, 37.9114289 ], [ -6.719036, 37.9113541 ], [ -6.7188925, 37.9112145 ], [ -6.719002, 37.9104544 ], [ -6.7187569, 37.9094262 ], [ -6.7187669, 37.9091736 ], [ -6.7188405, 37.9090542 ], [ -6.7191711, 37.9088456 ], [ -6.7192497, 37.9083746 ], [ -6.7190536, 37.9076422 ], [ -6.7190991, 37.9074155 ], [ -6.7191984, 37.907315 ], [ -6.7192829, 37.9072295 ], [ -6.719337, 37.9069486 ], [ -6.7192972, 37.9068814 ], [ -6.7192376, 37.9067806 ], [ -6.7192594, 37.9065367 ], [ -6.7192594, 37.9065366 ], [ -6.7192067, 37.906169 ], [ -6.7192067, 37.9061689 ], [ -6.7186697, 37.9056634 ], [ -6.7186125, 37.9054311 ], [ -6.7186311, 37.904899 ], [ -6.7186311, 37.904899 ], [ -6.7183116, 37.9041974 ], [ -6.7183116, 37.9041974 ], [ -6.7183657, 37.9036913 ], [ -6.7183076, 37.9034409 ], [ -6.7102078, 37.9006249 ], [ -6.7075714, 37.90178 ], [ -6.7072106, 37.9011608 ], [ -6.706971, 37.9009161 ], [ -6.7055776, 37.9007889 ], [ -6.7045173, 37.9002728 ], [ -6.7039511, 37.9000924 ], [ -6.7034468, 37.9000092 ], [ -6.7025782, 37.9001447 ], [ -6.7020856, 37.9000701 ], [ -6.7014955, 37.8996383 ], [ -6.7010601, 37.8995709 ], [ -6.6997375, 37.8997206 ], [ -6.6989838, 37.8998795 ], [ -6.6967062, 37.9004826 ], [ -6.6930869, 37.9010827 ], [ -6.69131, 37.9007872 ], [ -6.6881938, 37.9009931 ], [ -6.6878864, 37.9018945 ], [ -6.6877563, 37.9049795 ], [ -6.6878651, 37.9053364 ], [ -6.6876791, 37.9059368 ], [ -6.6874016, 37.9069814 ], [ -6.6870296, 37.9072724 ], [ -6.6865624, 37.9079356 ], [ -6.6863248, 37.9081863 ], [ -6.6859787, 37.9083143 ], [ -6.6854878, 37.9082756 ], [ -6.6856957, 37.9085664 ], [ -6.6857895, 37.9088517 ], [ -6.685773, 37.9092035 ], [ -6.6859049, 37.9095687 ], [ -6.6861455, 37.9098314 ], [ -6.6869013, 37.9101681 ], [ -6.6871437, 37.9102416 ], [ -6.6872004, 37.910465 ], [ -6.6858408, 37.9114715 ], [ -6.682848, 37.9127904 ], [ -6.6821068, 37.9136604 ], [ -6.6813611, 37.9137558 ], [ -6.6813713, 37.9141879 ], [ -6.680154, 37.9146314 ], [ -6.6791059, 37.9159614 ], [ -6.6779468, 37.9157454 ], [ -6.6777006, 37.9162846 ], [ -6.6777437, 37.9164634 ], [ -6.677803, 37.9167408 ], [ -6.677968, 37.9173122 ], [ -6.6787835, 37.9174759 ], [ -6.678033, 37.9179318 ], [ -6.6770299, 37.9190261 ], [ -6.6764934, 37.9201239 ], [ -6.675018, 37.9204133 ], [ -6.674664, 37.920154 ], [ -6.6716897, 37.920256 ], [ -6.67073, 37.9215381 ], [ -6.6704239, 37.9222413 ], [ -6.6702411, 37.9224542 ], [ -6.6698127, 37.9225306 ], [ -6.6693314, 37.9224556 ], [ -6.6690409, 37.9223295 ], [ -6.6687898, 37.9223103 ], [ -6.6678942, 37.9228247 ], [ -6.6671644, 37.9232439 ], [ -6.6666877, 37.9230335 ], [ -6.6663322, 37.9229725 ], [ -6.6653665, 37.9229937 ], [ -6.6647445, 37.9228329 ], [ -6.6642956, 37.9224955 ], [ -6.6638652, 37.9223017 ], [ -6.6635344, 37.9229697 ], [ -6.6633676, 37.9237316 ], [ -6.6624326, 37.9241391 ], [ -6.6612178, 37.9234922 ], [ -6.6595949, 37.9231014 ], [ -6.6598437, 37.9237603 ], [ -6.6601643, 37.9242637 ], [ -6.6605522, 37.9247471 ], [ -6.6610538, 37.9250018 ], [ -6.661173, 37.9253404 ], [ -6.6610933, 37.9255681 ], [ -6.6608629, 37.9257373 ], [ -6.6607641, 37.9260377 ], [ -6.6608138, 37.9263515 ], [ -6.6609416, 37.9266358 ], [ -6.6609236, 37.9269606 ], [ -6.660713, 37.9273005 ], [ -6.660323, 37.927691 ], [ -6.6599623, 37.9282157 ], [ -6.659998, 37.9284758 ], [ -6.6602326, 37.9288469 ], [ -6.6601887, 37.9291095 ], [ -6.6598723, 37.9293806 ], [ -6.6595125, 37.9294638 ], [ -6.6588227, 37.9293142 ], [ -6.6584038, 37.9293542 ], [ -6.6578254, 37.9296155 ], [ -6.6576174, 37.9295499 ], [ -6.6574491, 37.9293659 ], [ -6.6573448, 37.9290989 ], [ -6.6569659, 37.9287954 ], [ -6.6566352, 37.9287786 ], [ -6.6562075, 37.9290982 ], [ -6.6559314, 37.9290348 ], [ -6.6558234, 37.928921 ], [ -6.6554556, 37.9288424 ], [ -6.6544963, 37.9287641 ], [ -6.6538526, 37.9288562 ], [ -6.6532577, 37.9287845 ], [ -6.6525663, 37.9288331 ], [ -6.6522114, 37.9290153 ], [ -6.6518872, 37.9293586 ], [ -6.6515904, 37.929566 ], [ -6.6510407, 37.9297182 ], [ -6.6508627, 37.9300301 ], [ -6.6507593, 37.9304657 ], [ -6.6505717, 37.9308138 ], [ -6.6499852, 37.9313725 ], [ -6.6495225, 37.9316752 ], [ -6.6488213, 37.9319852 ], [ -6.6484704, 37.9322483 ], [ -6.6483265, 37.9325591 ], [ -6.6483839, 37.9332599 ], [ -6.6483138, 37.9334513 ], [ -6.6481837, 37.9335814 ], [ -6.6481505, 37.9340599 ], [ -6.6482396, 37.9344805 ], [ -6.6484451, 37.9347265 ], [ -6.6485153, 37.9349945 ], [ -6.6487174, 37.9354026 ], [ -6.648894, 37.9355233 ], [ -6.6490868, 37.9357425 ], [ -6.6491024, 37.9360573 ], [ -6.6489646, 37.9362597 ], [ -6.6487087, 37.9363758 ], [ -6.6484566, 37.9363386 ], [ -6.6480398, 37.9361893 ], [ -6.6475962, 37.9359599 ], [ -6.6463677, 37.9357278 ], [ -6.6460869, 37.9357995 ], [ -6.6457486, 37.9360893 ], [ -6.6456715, 37.9363709 ], [ -6.6459566, 37.9366143 ], [ -6.6461775, 37.9369408 ], [ -6.6461113, 37.9372131 ], [ -6.6458808, 37.9373824 ], [ -6.6455755, 37.9374189 ], [ -6.6446843, 37.9373384 ], [ -6.6443572, 37.9373936 ], [ -6.6440721, 37.9376096 ], [ -6.6432516, 37.9394187 ], [ -6.6426631, 37.9404009 ], [ -6.6426092, 37.9406908 ], [ -6.6429056, 37.9409338 ], [ -6.643479, 37.9412584 ], [ -6.6441143, 37.9414549 ], [ -6.6444303, 37.9416343 ], [ -6.6445458, 37.941901 ], [ -6.644295, 37.9423501 ], [ -6.6444614, 37.9427233 ], [ -6.6444275, 37.9429586 ], [ -6.6444772, 37.9432724 ], [ -6.6449437, 37.9437354 ], [ -6.6450632, 37.944083 ], [ -6.6451086, 37.944541 ], [ -6.6450478, 37.9449213 ], [ -6.6446155, 37.9456103 ], [ -6.644593, 37.9458452 ], [ -6.6449292, 37.9466635 ], [ -6.6451399, 37.9467831 ], [ -6.6457354, 37.9468637 ], [ -6.6460588, 37.9469618 ], [ -6.6461494, 37.9471842 ], [ -6.6461799, 37.9475706 ], [ -6.6464783, 37.9485433 ], [ -6.6464249, 37.9488422 ], [ -6.6461246, 37.9492119 ], [ -6.6454582, 37.9495388 ], [ -6.6448566, 37.9495665 ], [ -6.6444733, 37.9494072 ], [ -6.6440591, 37.9493119 ], [ -6.6437473, 37.9494477 ], [ -6.6435889, 37.9496959 ], [ -6.6436708, 37.9499726 ], [ -6.6508231, 37.9494444 ], [ -6.6518376, 37.9476472 ], [ -6.652831, 37.9454273 ], [ -6.6557995, 37.9454162 ], [ -6.6566047, 37.9453641 ], [ -6.6621288, 37.9434445 ], [ -6.6623603, 37.9430679 ], [ -6.6626463, 37.9417258 ], [ -6.6661092, 37.9372488 ], [ -6.6679789, 37.9355059 ], [ -6.6770045, 37.9351699 ], [ -6.6782006, 37.935664 ], [ -6.6813832, 37.9369877 ], [ -6.6862732, 37.9396991 ], [ -6.6868842, 37.9407699 ], [ -6.6876754, 37.9408983 ], [ -6.6899356, 37.941512 ], [ -6.6910893, 37.9418361 ], [ -6.6948089, 37.9431966 ], [ -6.6951913, 37.9435629 ], [ -6.6972749, 37.945191 ], [ -6.6954029, 37.9471055 ], [ -6.6952528, 37.9477408 ], [ -6.6947127, 37.9487668 ], [ -6.6963082, 37.9488247 ], [ -6.6983321, 37.9506167 ], [ -6.6988379, 37.9504927 ], [ -6.6996015, 37.9505227 ], [ -6.7010669, 37.9516116 ], [ -6.7012634, 37.9539386 ] ] ] } }
]
}
