{
"type": "FeatureCollection",
"name": "21068",
"features": [
{ "type": "Feature", "properties": { "CCAA": "01 - Andalucía", "PROVINCIA": "21 - Huelva", "MUNICIPIO": "21068 - Santa Bárbara de Casa", "COD_MUNICIPIO": "21068", "DISTRITO": "01", "SECCION": "2106801001", "V1_H": 79.33, "V1_M": 85.14, "V2_H": 79.29974376, "V2_M": 85.20981541, "V3_H": 79.50065775, "V3_M": 85.33298389 }, "geometry": { "type": "Polygon", "coordinates": [ [ [ -7.1253766, 37.8268687 ], [ -7.1256443, 37.8269854 ], [ -7.1266162, 37.827717 ], [ -7.1267541, 37.8281535 ], [ -7.126683, 37.8285073 ], [ -7.1264567, 37.8289295 ], [ -7.1263473, 37.8294108 ], [ -7.1263383, 37.8298614 ], [ -7.1264959, 37.8302432 ], [ -7.1267119, 37.8304518 ], [ -7.1276916, 37.8309128 ], [ -7.1279877, 37.8313348 ], [ -7.1285169, 37.8318657 ], [ -7.129099, 37.8329351 ], [ -7.1295357, 37.8334332 ], [ -7.1309921, 37.8340936 ], [ -7.1325904, 37.83465 ], [ -7.1351194, 37.8368219 ], [ -7.1353784, 37.8369839 ], [ -7.1359652, 37.8377289 ], [ -7.1374815, 37.8398643 ], [ -7.137408, 37.8420016 ], [ -7.1408761, 37.8430865 ], [ -7.1413552, 37.8431237 ], [ -7.1419185, 37.8430408 ], [ -7.1419885, 37.8430744 ], [ -7.1422704, 37.8430374 ], [ -7.1425366, 37.8431271 ], [ -7.1426906, 37.8432388 ], [ -7.1428956, 37.8436549 ], [ -7.1430865, 37.8438194 ], [ -7.1435357, 37.8439296 ], [ -7.1449791, 37.8449596 ], [ -7.1451862, 37.8450064 ], [ -7.1454119, 37.8449804 ], [ -7.1458676, 37.8448022 ], [ -7.1463062, 37.8443184 ], [ -7.1465263, 37.8441935 ], [ -7.1470052, 37.8440235 ], [ -7.1473112, 37.8440127 ], [ -7.1477743, 37.8441676 ], [ -7.1480274, 37.8444289 ], [ -7.1483169, 37.8445267 ], [ -7.1526286, 37.8448519 ], [ -7.153109, 37.8451142 ], [ -7.1533027, 37.8455307 ], [ -7.1535489, 37.8456661 ], [ -7.1538451, 37.8456827 ], [ -7.1549184, 37.8451764 ], [ -7.155055, 37.8451806 ], [ -7.1562626, 37.8480743 ], [ -7.1588383, 37.8486317 ], [ -7.1603341, 37.8481645 ], [ -7.1638604, 37.8482559 ], [ -7.1648124, 37.8490238 ], [ -7.1650343, 37.849133 ], [ -7.1656062, 37.8492028 ], [ -7.1664708, 37.8492263 ], [ -7.167365, 37.8495729 ], [ -7.1680929, 37.8497903 ], [ -7.1685042, 37.8496315 ], [ -7.1703823, 37.8490967 ], [ -7.1724061, 37.8487277 ], [ -7.1733644, 37.8488017 ], [ -7.1742345, 37.8485187 ], [ -7.1771466, 37.849199 ], [ -7.1774855, 37.849367 ], [ -7.1784676, 37.8506652 ], [ -7.1788121, 37.8509322 ], [ -7.1793117, 37.8511306 ], [ -7.1797229, 37.85117 ], [ -7.1800708, 37.8510946 ], [ -7.1805858, 37.850761 ], [ -7.1809316, 37.8506496 ], [ -7.1816072, 37.8505446 ], [ -7.1822459, 37.8501886 ], [ -7.1824149, 37.8501646 ], [ -7.1826833, 37.8502902 ], [ -7.1838194, 37.8510964 ], [ -7.1844386, 37.8513986 ], [ -7.1848548, 37.851528 ], [ -7.1851037, 37.8515101 ], [ -7.185784, 37.8512877 ], [ -7.1861556, 37.8512294 ], [ -7.18651, 37.8512709 ], [ -7.1870062, 37.8514063 ], [ -7.1876893, 37.8516342 ], [ -7.1878527, 37.8515113 ], [ -7.1881993, 37.8510126 ], [ -7.1890025, 37.8503534 ], [ -7.1895065, 37.8502274 ], [ -7.1898282, 37.8500899 ], [ -7.190087, 37.8498465 ], [ -7.1903658, 37.8497554 ], [ -7.1905728, 37.8498021 ], [ -7.1923354, 37.8510363 ], [ -7.1927905, 37.8516506 ], [ -7.1930913, 37.8517479 ], [ -7.1934067, 37.8517006 ], [ -7.1936947, 37.8517714 ], [ -7.1938848, 37.8519178 ], [ -7.1942949, 37.8519392 ], [ -7.1946047, 37.851793 ], [ -7.1950736, 37.8516502 ], [ -7.1952927, 37.8517054 ], [ -7.1956202, 37.8518739 ], [ -7.1961401, 37.8520265 ], [ -7.1982376, 37.8523569 ], [ -7.1989336, 37.8526113 ], [ -7.1996058, 37.8530466 ], [ -7.1999155, 37.8530986 ], [ -7.2004137, 37.8530718 ], [ -7.2011347, 37.852965 ], [ -7.2015371, 37.8530497 ], [ -7.2018373, 37.8533362 ], [ -7.2021145, 37.8534164 ], [ -7.203051, 37.8531037 ], [ -7.2032911, 37.8531312 ], [ -7.2037496, 37.853403 ], [ -7.2043604, 37.8539576 ], [ -7.204701, 37.8541526 ], [ -7.2052167, 37.8542332 ], [ -7.2055897, 37.8542018 ], [ -7.2058084, 37.8540499 ], [ -7.2058327, 37.8536798 ], [ -7.2060642, 37.8533562 ], [ -7.2064194, 37.8532084 ], [ -7.2067378, 37.853215 ], [ -7.2070953, 37.8533103 ], [ -7.2072495, 37.8532238 ], [ -7.2075971, 37.8523467 ], [ -7.2083742, 37.8520306 ], [ -7.2088716, 37.8505897 ], [ -7.2091107, 37.850401 ], [ -7.2101872, 37.8501553 ], [ -7.2104603, 37.8501636 ], [ -7.2106369, 37.8502743 ], [ -7.2107919, 37.850602 ], [ -7.2109949, 37.8507749 ], [ -7.211201, 37.8508036 ], [ -7.2118359, 37.8505826 ], [ -7.212173, 37.8503184 ], [ -7.2123919, 37.8503736 ], [ -7.2128967, 37.851058 ], [ -7.2131578, 37.8512558 ], [ -7.2133593, 37.8512036 ], [ -7.2135845, 37.8509704 ], [ -7.213967, 37.8507044 ], [ -7.2143095, 37.8507373 ], [ -7.2146846, 37.85094 ], [ -7.2152292, 37.8511276 ], [ -7.2156733, 37.8511477 ], [ -7.2162737, 37.850919 ], [ -7.216571, 37.8509534 ], [ -7.2173346, 37.850998 ], [ -7.2175375, 37.8511709 ], [ -7.2177611, 37.8515052 ], [ -7.2180764, 37.851656 ], [ -7.2185561, 37.8517018 ], [ -7.2196856, 37.8515893 ], [ -7.2204528, 37.8516968 ], [ -7.2223761, 37.8521592 ], [ -7.2234551, 37.8521565 ], [ -7.2240183, 37.8522713 ], [ -7.2252286, 37.8527773 ], [ -7.2261241, 37.8529433 ], [ -7.2264781, 37.8531737 ], [ -7.2265851, 37.8534581 ], [ -7.2266119, 37.8539255 ], [ -7.2267427, 37.854227 ], [ -7.2269643, 37.8543271 ], [ -7.2272028, 37.8543275 ], [ -7.2274451, 37.8541927 ], [ -7.2283258, 37.8533054 ], [ -7.2286169, 37.8532319 ], [ -7.2299561, 37.8534089 ], [ -7.2305894, 37.8533591 ], [ -7.2310001, 37.8531912 ], [ -7.2314736, 37.8531291 ], [ -7.231706, 37.8532199 ], [ -7.2317333, 37.8534981 ], [ -7.231859, 37.8537097 ], [ -7.2322171, 37.8538139 ], [ -7.2325572, 37.8538017 ], [ -7.2327174, 37.8536248 ], [ -7.2328282, 37.8533776 ], [ -7.2329463, 37.85286 ], [ -7.2331756, 37.8525005 ], [ -7.23339, 37.8518803 ], [ -7.2335941, 37.8516748 ], [ -7.2337821, 37.8515869 ], [ -7.234133, 37.8517634 ], [ -7.2345658, 37.8521802 ], [ -7.2348379, 37.8523685 ], [ -7.2351228, 37.8523853 ], [ -7.2355031, 37.8520834 ], [ -7.2355994, 37.852179 ], [ -7.2355159, 37.8527044 ], [ -7.2356761, 37.8529238 ], [ -7.235907, 37.8529875 ], [ -7.2362105, 37.8529316 ], [ -7.2368118, 37.8525226 ], [ -7.2370612, 37.8525136 ], [ -7.2372648, 37.8526954 ], [ -7.2373874, 37.8530513 ], [ -7.2378866, 37.8542312 ], [ -7.2382556, 37.854326 ], [ -7.2384916, 37.8542815 ], [ -7.2386168, 37.8540878 ], [ -7.2386441, 37.8533753 ], [ -7.2388044, 37.8526039 ], [ -7.2389986, 37.8524258 ], [ -7.2392408, 37.8524891 ], [ -7.239416, 37.852771 ], [ -7.2394649, 37.8532286 ], [ -7.2396066, 37.8537189 ], [ -7.2398766, 37.8538712 ], [ -7.2402033, 37.8538234 ], [ -7.2401905, 37.8541932 ], [ -7.2402863, 37.8544779 ], [ -7.2405991, 37.8545838 ], [ -7.2409835, 37.8545519 ], [ -7.2413844, 37.8546095 ], [ -7.2417064, 37.8548771 ], [ -7.2419296, 37.8552023 ], [ -7.2419043, 37.8555545 ], [ -7.2416462, 37.8564014 ], [ -7.2417313, 37.8566955 ], [ -7.2419549, 37.8568316 ], [ -7.2422723, 37.8568201 ], [ -7.2425995, 37.8565831 ], [ -7.2429097, 37.8564459 ], [ -7.2431864, 37.856517 ], [ -7.2436095, 37.8567629 ], [ -7.2441222, 37.8569875 ], [ -7.2447076, 37.8570925 ], [ -7.2457558, 37.8579373 ], [ -7.2470648, 37.859169 ], [ -7.2471576, 37.8593998 ], [ -7.2470422, 37.8595661 ], [ -7.2468629, 37.8596086 ], [ -7.2465589, 37.8598538 ], [ -7.2465599, 37.8600699 ], [ -7.2467053, 37.8602268 ], [ -7.2476499, 37.8604538 ], [ -7.2485136, 37.860855 ], [ -7.2487929, 37.8607728 ], [ -7.2495029, 37.8602788 ], [ -7.2495261, 37.8600888 ], [ -7.2493811, 37.8591484 ], [ -7.2495522, 37.858962 ], [ -7.2497584, 37.8589906 ], [ -7.2499392, 37.8591732 ], [ -7.2503351, 37.8599335 ], [ -7.2511815, 37.8610197 ], [ -7.2513423, 37.8610499 ], [ -7.2516468, 37.8610119 ], [ -7.2521147, 37.8608509 ], [ -7.2524223, 37.8606686 ], [ -7.2526989, 37.8601452 ], [ -7.2529209, 37.8594617 ], [ -7.2532604, 37.8590441 ], [ -7.2535201, 37.8588186 ], [ -7.2539276, 37.8587948 ], [ -7.2543116, 37.858952 ], [ -7.2547682, 37.8589895 ], [ -7.2549136, 37.8591464 ], [ -7.2550044, 37.8597376 ], [ -7.255224, 37.8599998 ], [ -7.2563809, 37.8603632 ], [ -7.2567376, 37.8606385 ], [ -7.2568144, 37.860987 ], [ -7.2570289, 37.8613575 ], [ -7.2573536, 37.8614719 ], [ -7.2576819, 37.861451 ], [ -7.2586665, 37.860992 ], [ -7.2590009, 37.8606827 ], [ -7.2590426, 37.8604199 ], [ -7.2589311, 37.8600637 ], [ -7.2586234, 37.8596515 ], [ -7.2586145, 37.8593006 ], [ -7.2588541, 37.8591208 ], [ -7.2591375, 37.8591105 ], [ -7.2594292, 37.8592441 ], [ -7.2602118, 37.8604046 ], [ -7.2604824, 37.8605659 ], [ -7.2607529, 37.8605291 ], [ -7.2609063, 37.8602353 ], [ -7.2610489, 37.8597528 ], [ -7.2612436, 37.8593854 ], [ -7.2622992, 37.8599597 ], [ -7.2626022, 37.8602909 ], [ -7.2625424, 37.8614189 ], [ -7.2623411, 37.8618676 ], [ -7.2623829, 37.8621993 ], [ -7.2625499, 37.8623374 ], [ -7.2629163, 37.8623871 ], [ -7.2635852, 37.8623629 ], [ -7.2640778, 37.8622369 ], [ -7.2643508, 37.8620469 ], [ -7.2648838, 37.8610458 ], [ -7.2651831, 37.8607197 ], [ -7.2656618, 37.8605492 ], [ -7.2662584, 37.8602574 ], [ -7.2666386, 37.8599554 ], [ -7.2668735, 37.8596946 ], [ -7.2670384, 37.8595986 ], [ -7.2673393, 37.8596957 ], [ -7.2681129, 37.860109 ], [ -7.2689519, 37.8602767 ], [ -7.2694256, 37.8602144 ], [ -7.2696919, 37.8601057 ], [ -7.2699823, 37.8598249 ], [ -7.270263, 37.8593734 ], [ -7.2705257, 37.8592017 ], [ -7.2708096, 37.8592004 ], [ -7.2711245, 37.8593421 ], [ -7.2716122, 37.8597207 ], [ -7.2719147, 37.8598448 ], [ -7.2724955, 37.8598687 ], [ -7.2730463, 37.8597677 ], [ -7.2735802, 37.8597662 ], [ -7.274061, 37.8598298 ], [ -7.2754532, 37.859545 ], [ -7.2757598, 37.8595428 ], [ -7.2760861, 37.8596841 ], [ -7.2771382, 37.8603934 ], [ -7.2779722, 37.8608674 ], [ -7.2782176, 37.8611827 ], [ -7.2782343, 37.8614703 ], [ -7.2778588, 37.8626369 ], [ -7.277823, 37.8631966 ], [ -7.2779335, 37.8635348 ], [ -7.2781315, 37.8638158 ], [ -7.2783568, 37.8639788 ], [ -7.2785944, 37.8639611 ], [ -7.2788226, 37.8637817 ], [ -7.2792355, 37.8630641 ], [ -7.2792734, 37.8627385 ], [ -7.2794609, 37.8626416 ], [ -7.2796238, 37.8627077 ], [ -7.2797528, 37.8629732 ], [ -7.2800225, 37.86508 ], [ -7.2802236, 37.8654149 ], [ -7.280401, 37.8655345 ], [ -7.2806288, 37.8655443 ], [ -7.2808741, 37.8654633 ], [ -7.2810321, 37.8652504 ], [ -7.2810758, 37.8650236 ], [ -7.2810246, 37.8647283 ], [ -7.2808342, 37.8643839 ], [ -7.2807876, 37.8639714 ], [ -7.2810055, 37.8630267 ], [ -7.2811745, 37.8628044 ], [ -7.2814506, 37.8626682 ], [ -7.281733, 37.8626399 ], [ -7.282002, 37.8627742 ], [ -7.282858, 37.8636257 ], [ -7.2832302, 37.8637743 ], [ -7.2836945, 37.8637483 ], [ -7.2840531, 37.8636632 ], [ -7.2845495, 37.8639964 ], [ -7.2852888, 37.8644018 ], [ -7.2853042, 37.8644185 ], [ -7.2853413, 37.8644584 ], [ -7.2855554, 37.8646893 ], [ -7.2859309, 37.865288 ], [ -7.2862017, 37.8654493 ], [ -7.2865232, 37.8655096 ], [ -7.2880336, 37.8631488 ], [ -7.2885402, 37.8624819 ], [ -7.2890838, 37.8616694 ], [ -7.2899104, 37.8610358 ], [ -7.2910185, 37.860554 ], [ -7.2915898, 37.8602179 ], [ -7.292177, 37.8599623 ], [ -7.2932383, 37.8596534 ], [ -7.2937024, 37.8594293 ], [ -7.2953771, 37.8581432 ], [ -7.2968791, 37.8574037 ], [ -7.2972056, 37.8571576 ], [ -7.2975345, 37.8567583 ], [ -7.2977881, 37.8562357 ], [ -7.2980647, 37.8553249 ], [ -7.298315, 37.8533793 ], [ -7.2982813, 37.8518224 ], [ -7.2983593, 37.8514052 ], [ -7.298586, 37.8508115 ], [ -7.2991087, 37.8498377 ], [ -7.2997637, 37.8487959 ], [ -7.3004205, 37.8473939 ], [ -7.3005621, 37.8467042 ], [ -7.3005714, 37.8460824 ], [ -7.3005091, 37.8455983 ], [ -7.3003123, 37.844948 ], [ -7.3003828, 37.8436215 ], [ -7.3004773, 37.8432938 ], [ -7.3005121, 37.8429142 ], [ -7.300512, 37.8429142 ], [ -7.3001004, 37.8428662 ], [ -7.3000435, 37.8428521 ], [ -7.2995933, 37.8427407 ], [ -7.2995933, 37.8427407 ], [ -7.2986037, 37.8427138 ], [ -7.2986036, 37.8427138 ], [ -7.2982373, 37.8426642 ], [ -7.2980115, 37.8424923 ], [ -7.2978572, 37.8421827 ], [ -7.2978372, 37.841643 ], [ -7.2980613, 37.8412351 ], [ -7.2981351, 37.8411007 ], [ -7.2981351, 37.8411007 ], [ -7.2983006, 37.8406263 ], [ -7.2983006, 37.8406263 ], [ -7.2982328, 37.8402415 ], [ -7.2979369, 37.8400362 ], [ -7.2975005, 37.8399531 ], [ -7.2964097, 37.8403352 ], [ -7.2961722, 37.8403529 ], [ -7.2956241, 37.8402165 ], [ -7.2954462, 37.8401722 ], [ -7.2951537, 37.840219 ], [ -7.2951536, 37.840219 ], [ -7.294754, 37.8403777 ], [ -7.294754, 37.8403777 ], [ -7.2945068, 37.8404227 ], [ -7.2945068, 37.8404227 ], [ -7.2912055, 37.8402911 ], [ -7.2912055, 37.8402911 ], [ -7.2908108, 37.8401434 ], [ -7.2901462, 37.8400415 ], [ -7.2901462, 37.8400415 ], [ -7.2901058, 37.8400405 ], [ -7.2895548, 37.8400271 ], [ -7.2884694, 37.8397407 ], [ -7.2879055, 37.8395919 ], [ -7.2863483, 37.8389821 ], [ -7.2861884, 37.838945 ], [ -7.2856115, 37.8388109 ], [ -7.2848738, 37.8385233 ], [ -7.2844495, 37.8383579 ], [ -7.2782616, 37.8364216 ], [ -7.2731943, 37.8334354 ], [ -7.2723118, 37.8319183 ], [ -7.2720145, 37.8316859 ], [ -7.270283, 37.8249037 ], [ -7.2703622, 37.8233246 ], [ -7.2704715, 37.8206907 ], [ -7.2696216, 37.8191453 ], [ -7.2680341, 37.8158344 ], [ -7.266643, 37.8123813 ], [ -7.2653566, 37.8089693 ], [ -7.2628807, 37.8052042 ], [ -7.2624174, 37.8038609 ], [ -7.2621362, 37.8035108 ], [ -7.2616736, 37.8029692 ], [ -7.2622831, 37.8025147 ], [ -7.2624272, 37.8022573 ], [ -7.2624705, 37.8020608 ], [ -7.2624813, 37.8020122 ], [ -7.2625981, 37.8018729 ], [ -7.2632628, 37.8015876 ], [ -7.263636, 37.8013669 ], [ -7.2639577, 37.80104 ], [ -7.2644424, 37.7997975 ], [ -7.2643666, 37.7992688 ], [ -7.2642151, 37.7990041 ], [ -7.2637278, 37.7982291 ], [ -7.2634938, 37.797319 ], [ -7.2635612, 37.7969112 ], [ -7.2634092, 37.7966375 ], [ -7.263007, 37.7963549 ], [ -7.2627779, 37.79612 ], [ -7.2624275, 37.7953581 ], [ -7.2622586, 37.7951841 ], [ -7.2610459, 37.7942282 ], [ -7.2586158, 37.788678 ], [ -7.2584792, 37.7880794 ], [ -7.2584307, 37.7874327 ], [ -7.2585068, 37.7869796 ], [ -7.2590719, 37.7859504 ], [ -7.2591459, 37.7856595 ], [ -7.259115, 37.7853184 ], [ -7.2584755, 37.7844588 ], [ -7.258391, 37.7841737 ], [ -7.25882, 37.7825549 ], [ -7.2590382, 37.7822047 ], [ -7.2590449, 37.7819253 ], [ -7.2587436, 37.7812247 ], [ -7.2586992, 37.780848 ], [ -7.2587723, 37.780341 ], [ -7.2587408, 37.7799908 ], [ -7.2583036, 37.7792951 ], [ -7.258162, 37.7788049 ], [ -7.2580409, 37.7778815 ], [ -7.2576906, 37.7765252 ], [ -7.2574429, 37.7759667 ], [ -7.257236, 37.775722 ], [ -7.2571758, 37.7756611 ], [ -7.2569627, 37.7755067 ], [ -7.2563697, 37.7754561 ], [ -7.2548796, 37.7755911 ], [ -7.254671, 37.7751212 ], [ -7.2540913, 37.7733228 ], [ -7.2520637, 37.7720001 ], [ -7.2517569, 37.771795 ], [ -7.2511212, 37.7713946 ], [ -7.2487947, 37.7698034 ], [ -7.2479183, 37.7695559 ], [ -7.2470795, 37.7697077 ], [ -7.2469862, 37.7697246 ], [ -7.2469861, 37.7697246 ], [ -7.2460909, 37.7700682 ], [ -7.2460536, 37.7700825 ], [ -7.2460535, 37.7700825 ], [ -7.245122, 37.7700621 ], [ -7.245122, 37.7700621 ], [ -7.2446526, 37.767413 ], [ -7.2362475, 37.760105 ], [ -7.2347847, 37.7589238 ], [ -7.2347846, 37.7589237 ], [ -7.2316398, 37.756695 ], [ -7.2306383, 37.7559429 ], [ -7.2296368, 37.7551908 ], [ -7.2272036, 37.7539002 ], [ -7.2269696, 37.7535753 ], [ -7.224809, 37.7514913 ], [ -7.2240709, 37.7506801 ], [ -7.2240107, 37.7506192 ], [ -7.2233795, 37.7500924 ], [ -7.2213668, 37.748012 ], [ -7.2188892, 37.7455338 ], [ -7.2182345, 37.7447917 ], [ -7.217179, 37.744181 ], [ -7.2088772, 37.7393982 ], [ -7.2056478, 37.737451 ], [ -7.2051979, 37.7371158 ], [ -7.204857, 37.7367047 ], [ -7.2046434, 37.7361358 ], [ -7.2045379, 37.7344733 ], [ -7.2043915, 37.7340913 ], [ -7.2044606, 37.7329088 ], [ -7.2043133, 37.7323106 ], [ -7.204056, 37.7317704 ], [ -7.2037455, 37.7312952 ], [ -7.2037455, 37.7312951 ], [ -7.2033876, 37.730182 ], [ -7.2028359, 37.7290488 ], [ -7.2026854, 37.7285948 ], [ -7.2025775, 37.7268873 ], [ -7.2027045, 37.7261262 ], [ -7.2029481, 37.7256221 ], [ -7.2029482, 37.7256221 ], [ -7.2038532, 37.7243828 ], [ -7.2040079, 37.7239089 ], [ -7.2040016, 37.7231976 ], [ -7.2038621, 37.7225361 ], [ -7.2038169, 37.7224315 ], [ -7.2037969, 37.7223853 ], [ -7.2037447, 37.7222801 ], [ -7.2036433, 37.7220755 ], [ -7.2029433, 37.7211277 ], [ -7.2020567, 37.7200876 ], [ -7.2018445, 37.7197438 ], [ -7.2017583, 37.7194227 ], [ -7.2018704, 37.7187972 ], [ -7.2018704, 37.7187972 ], [ -7.2018696, 37.7183829 ], [ -7.2017502, 37.7176756 ], [ -7.2017556, 37.7173692 ], [ -7.2017552, 37.7163604 ], [ -7.201847, 37.7159788 ], [ -7.2020782, 37.7156553 ], [ -7.2032046, 37.7147234 ], [ -7.2032348, 37.7146592 ], [ -7.2033766, 37.714357 ], [ -7.2033409, 37.7139259 ], [ -7.2028072, 37.7129092 ], [ -7.202719, 37.712552 ], [ -7.2030589, 37.7111438 ], [ -7.20306, 37.7111221 ], [ -7.2030854, 37.7106114 ], [ -7.2029833, 37.7102097 ], [ -7.2019239, 37.7087164 ], [ -7.2019239, 37.7087163 ], [ -7.2016798, 37.708314 ], [ -7.2009987, 37.7071911 ], [ -7.2009569, 37.707053 ], [ -7.2009151, 37.7069149 ], [ -7.201005, 37.7062992 ], [ -7.2009828, 37.7057055 ], [ -7.2008593, 37.7051245 ], [ -7.2008693, 37.7047008 ], [ -7.2010542, 37.704361 ], [ -7.2013408, 37.7040174 ], [ -7.2014506, 37.7038325 ], [ -7.2015375, 37.7036862 ], [ -7.201698, 37.7033065 ], [ -7.2018275, 37.7030003 ], [ -7.2026191, 37.7019633 ], [ -7.2026634, 37.7003404 ], [ -7.2026407, 37.6973328 ], [ -7.2024754, 37.6948077 ], [ -7.2011431, 37.6949003 ], [ -7.201143, 37.6949003 ], [ -7.2000723, 37.6952087 ], [ -7.2000723, 37.6952087 ], [ -7.1999951, 37.6952365 ], [ -7.1999612, 37.6952487 ], [ -7.1999612, 37.6952487 ], [ -7.1996361, 37.6955125 ], [ -7.199636, 37.6955125 ], [ -7.1994883, 37.6957069 ], [ -7.1982093, 37.6973468 ], [ -7.197914, 37.6975374 ], [ -7.1974923, 37.6976966 ], [ -7.1969709, 37.6976972 ], [ -7.1965175, 37.6974972 ], [ -7.1961615, 37.6970145 ], [ -7.196044, 37.6967394 ], [ -7.1959166, 37.6964918 ], [ -7.1956223, 37.6960969 ], [ -7.195379, 37.6956012 ], [ -7.1952402, 37.6949486 ], [ -7.1949769, 37.6943005 ], [ -7.1946097, 37.6938182 ], [ -7.1946096, 37.6938182 ], [ -7.1940511, 37.6927572 ], [ -7.193869, 37.6921422 ], [ -7.1939053, 37.6917807 ], [ -7.1939053, 37.6917806 ], [ -7.1941556, 37.6911953 ], [ -7.1945443, 37.69065 ], [ -7.1952881, 37.6895697 ], [ -7.1954051, 37.6892323 ], [ -7.195286, 37.6889302 ], [ -7.1952539, 37.6885621 ], [ -7.1950238, 37.6883001 ], [ -7.1946919, 37.6880417 ], [ -7.1946918, 37.6880417 ], [ -7.1942955, 37.6879477 ], [ -7.1938992, 37.6878538 ], [ -7.1938992, 37.6878538 ], [ -7.1938782, 37.6878524 ], [ -7.1936375, 37.687836 ], [ -7.1932025, 37.6879596 ], [ -7.1932025, 37.6879596 ], [ -7.1930049, 37.6880748 ], [ -7.1928449, 37.6882516 ], [ -7.1927543, 37.688453 ], [ -7.1926781, 37.6891132 ], [ -7.1926368, 37.6893849 ], [ -7.1923953, 37.6897267 ], [ -7.1920795, 37.6899542 ], [ -7.1910878, 37.6904578 ], [ -7.1907869, 37.6905496 ], [ -7.1904923, 37.6905511 ], [ -7.1904923, 37.6905511 ], [ -7.1897172, 37.6902724 ], [ -7.1890754, 37.6897458 ], [ -7.1887266, 37.6893889 ], [ -7.1885393, 37.6890804 ], [ -7.188425, 37.6880576 ], [ -7.188564, 37.6867016 ], [ -7.1885005, 37.6863796 ], [ -7.1879002, 37.6855813 ], [ -7.1876978, 37.6854083 ], [ -7.1875015, 37.6853433 ], [ -7.1869442, 37.685309 ], [ -7.1865544, 37.685431 ], [ -7.1865544, 37.685431 ], [ -7.1863983, 37.6855441 ], [ -7.1862931, 37.6856204 ], [ -7.1862931, 37.6856204 ], [ -7.186293, 37.6856204 ], [ -7.1861189, 37.6859509 ], [ -7.1859637, 37.6864158 ], [ -7.1859222, 37.6868856 ], [ -7.1859789, 37.6872889 ], [ -7.1859789, 37.6872889 ], [ -7.186145, 37.6878234 ], [ -7.1862314, 37.6883518 ], [ -7.1860424, 37.6892232 ], [ -7.1857037, 37.6896495 ], [ -7.1853387, 37.6900075 ], [ -7.1851129, 37.690229 ], [ -7.1846329, 37.6905613 ], [ -7.1827823, 37.6923204 ], [ -7.1825376, 37.6928064 ], [ -7.1824611, 37.6932595 ], [ -7.1825053, 37.6938434 ], [ -7.1829483, 37.6950707 ], [ -7.1835083, 37.6961587 ], [ -7.1837966, 37.696851 ], [ -7.1839165, 37.6973691 ], [ -7.1837964, 37.6976526 ], [ -7.1835212, 37.6977975 ], [ -7.1829287, 37.6979446 ], [ -7.1829286, 37.6979446 ], [ -7.1821146, 37.6979826 ], [ -7.1817486, 37.6979235 ], [ -7.1810689, 37.6977315 ], [ -7.1803474, 37.6973968 ], [ -7.1796094, 37.6969726 ], [ -7.1791464, 37.6966018 ], [ -7.1776956, 37.6957976 ], [ -7.1768944, 37.6954567 ], [ -7.1763109, 37.6953603 ], [ -7.1763109, 37.6953603 ], [ -7.1759299, 37.6952387 ], [ -7.1754289, 37.6949952 ], [ -7.1749432, 37.6948233 ], [ -7.1749431, 37.6948233 ], [ -7.1744178, 37.6947519 ], [ -7.1744177, 37.6947519 ], [ -7.1740233, 37.6947928 ], [ -7.1740233, 37.6947928 ], [ -7.1735109, 37.6949551 ], [ -7.1730814, 37.6951775 ], [ -7.1727066, 37.6955691 ], [ -7.1726317, 37.695727 ], [ -7.1725242, 37.6959538 ], [ -7.1725033, 37.6961888 ], [ -7.1726032, 37.6965546 ], [ -7.1732498, 37.6977746 ], [ -7.1735706, 37.6988441 ], [ -7.1735706, 37.6988442 ], [ -7.1736034, 37.6994284 ], [ -7.1734466, 37.6998663 ], [ -7.1733575, 37.7005 ], [ -7.173155, 37.7013358 ], [ -7.1729536, 37.7015862 ], [ -7.1730152, 37.701674 ], [ -7.1736991, 37.7027487 ], [ -7.1736615, 37.7032905 ], [ -7.1734129, 37.7045152 ], [ -7.1733931, 37.7051734 ], [ -7.1735608, 37.7075544 ], [ -7.1735344, 37.7086992 ], [ -7.1735853, 37.7092018 ], [ -7.1735526, 37.7094282 ], [ -7.1731445, 37.7102353 ], [ -7.1725608, 37.7111476 ], [ -7.1720675, 37.712255 ], [ -7.1719279, 37.7138092 ], [ -7.1711546, 37.7149805 ], [ -7.1707086, 37.7155187 ], [ -7.1691969, 37.7170674 ], [ -7.1678274, 37.7177194 ], [ -7.1672073, 37.7179845 ], [ -7.1670969, 37.7182406 ], [ -7.1669346, 37.7193903 ], [ -7.1667486, 37.7197121 ], [ -7.1657029, 37.7210822 ], [ -7.1654492, 37.7216136 ], [ -7.1656152, 37.7225534 ], [ -7.1656656, 37.7244612 ], [ -7.1655339, 37.7249432 ], [ -7.1649752, 37.7263051 ], [ -7.1647223, 37.7278632 ], [ -7.1646521, 37.7294419 ], [ -7.1640623, 37.7314624 ], [ -7.1638033, 37.7321021 ], [ -7.1637392, 37.7331852 ], [ -7.1632827, 37.7355613 ], [ -7.1632553, 37.7356793 ], [ -7.1628936, 37.7361064 ], [ -7.1621541, 37.7376818 ], [ -7.1621337, 37.7379257 ], [ -7.1626046, 37.7400528 ], [ -7.1629505, 37.7407611 ], [ -7.1588112, 37.7500857 ], [ -7.1503515, 37.7693984 ], [ -7.148401, 37.7738807 ], [ -7.1376227, 37.7987146 ], [ -7.134685, 37.8054652 ], [ -7.1265444, 37.8241887 ], [ -7.1253766, 37.8268687 ] ] ] } }
]
}
