{
"type": "FeatureCollection",
"name": "22027",
"features": [
{ "type": "Feature", "properties": { "CCAA": "02 - Aragón", "PROVINCIA": "22 - Huesca", "MUNICIPIO": "22027 - Angüés", "COD_MUNICIPIO": "22027", "DISTRITO": "01", "SECCION": "2202701001", "V1_H": 80.55, "V1_M": 86.21, "V2_H": 80.25181467, "V2_M": 85.94546636, "V3_H": 81.01047082, "V3_M": 86.65561049 }, "geometry": { "type": "Polygon", "coordinates": [ [ [ -0.1790401, 42.1265032 ], [ -0.1838361, 42.1244689 ], [ -0.1874853, 42.1259273 ], [ -0.1895533, 42.1267615 ], [ -0.192362, 42.1289016 ], [ -0.1972033, 42.1285788 ], [ -0.1976355, 42.1286524 ], [ -0.1984161, 42.1290587 ], [ -0.1994392, 42.1308217 ], [ -0.2030303, 42.1316929 ], [ -0.2038756, 42.1298043 ], [ -0.2049658, 42.1278498 ], [ -0.2055937, 42.1273248 ], [ -0.2079963, 42.1271582 ], [ -0.2098562, 42.1277798 ], [ -0.2119955, 42.1272735 ], [ -0.2129937, 42.127685 ], [ -0.2137167, 42.1277477 ], [ -0.2147904, 42.1275396 ], [ -0.2154674, 42.1272769 ], [ -0.2168069, 42.1262468 ], [ -0.2168947, 42.1261769 ], [ -0.218411, 42.1263578 ], [ -0.2193157, 42.1255872 ], [ -0.2207441, 42.1263963 ], [ -0.2273104, 42.1222958 ], [ -0.2287653, 42.1191701 ], [ -0.2333717, 42.1192184 ], [ -0.2364545, 42.1192567 ], [ -0.2387359, 42.1193657 ], [ -0.239068, 42.1192386 ], [ -0.2412584, 42.1172652 ], [ -0.2414276, 42.1169901 ], [ -0.2417886, 42.1156389 ], [ -0.2420082, 42.1147617 ], [ -0.2424806, 42.1133502 ], [ -0.2425091, 42.1129726 ], [ -0.2419055, 42.110995 ], [ -0.2442778, 42.1109529 ], [ -0.2420187, 42.1089445 ], [ -0.2422082, 42.1082015 ], [ -0.2406365, 42.1067949 ], [ -0.2387312, 42.1041645 ], [ -0.2381315, 42.1032135 ], [ -0.2375471, 42.1030283 ], [ -0.2370667, 42.1026745 ], [ -0.2347142, 42.1000422 ], [ -0.2340263, 42.0989 ], [ -0.2335862, 42.0976196 ], [ -0.2252857, 42.095807 ], [ -0.2223501, 42.0971317 ], [ -0.2221011, 42.099233 ], [ -0.2194988, 42.1003946 ], [ -0.2181758, 42.1007858 ], [ -0.2159949, 42.1014353 ], [ -0.2136163, 42.103836 ], [ -0.2105203, 42.1063182 ], [ -0.2087053, 42.1066162 ], [ -0.2037663, 42.1053522 ], [ -0.2024956, 42.1059245 ], [ -0.1959553, 42.1088896 ], [ -0.1925679, 42.1097342 ], [ -0.1884325, 42.1094437 ], [ -0.1874841, 42.1092854 ], [ -0.1793568, 42.1087435 ], [ -0.1776048, 42.1054404 ], [ -0.1740088, 42.1036318 ], [ -0.1687724, 42.1006479 ], [ -0.1684302, 42.1004593 ], [ -0.1672615, 42.0995479 ], [ -0.1643318, 42.095288 ], [ -0.1605738, 42.0938802 ], [ -0.1575093, 42.0926516 ], [ -0.1640868, 42.0893925 ], [ -0.1696008, 42.0880159 ], [ -0.1709867, 42.0875728 ], [ -0.1715682, 42.0872719 ], [ -0.1732942, 42.0851622 ], [ -0.174469, 42.0848399 ], [ -0.1750213, 42.0846555 ], [ -0.1775122, 42.0838253 ], [ -0.178368, 42.0838824 ], [ -0.1789088, 42.0834094 ], [ -0.1806072, 42.0819112 ], [ -0.1805698, 42.0800282 ], [ -0.1811656, 42.0774944 ], [ -0.1810275, 42.0765183 ], [ -0.1805662, 42.0752012 ], [ -0.1807243, 42.0751781 ], [ -0.1823055, 42.0749558 ], [ -0.1858552, 42.0747729 ], [ -0.1874824, 42.0746057 ], [ -0.187785, 42.074595 ], [ -0.1883875, 42.0746369 ], [ -0.1897295, 42.0749039 ], [ -0.1903675, 42.0749646 ], [ -0.190852, 42.0749404 ], [ -0.1917808, 42.0741617 ], [ -0.18749, 42.0730659 ], [ -0.1863287, 42.0728123 ], [ -0.1803635, 42.0702253 ], [ -0.1800798, 42.0700832 ], [ -0.1782934, 42.0692107 ], [ -0.1768175, 42.0686971 ], [ -0.1755717, 42.0681712 ], [ -0.1732171, 42.0670325 ], [ -0.1701354, 42.0653985 ], [ -0.1683082, 42.0643628 ], [ -0.1673622, 42.0630787 ], [ -0.1680752, 42.0625379 ], [ -0.1690583, 42.0613555 ], [ -0.1690851, 42.0607528 ], [ -0.1686149, 42.0582827 ], [ -0.1682092, 42.0562645 ], [ -0.1682405, 42.055833 ], [ -0.1690268, 42.0533669 ], [ -0.1693667, 42.0517004 ], [ -0.1687016, 42.0500809 ], [ -0.1703775, 42.049618 ], [ -0.1702373, 42.048696 ], [ -0.1702879, 42.0472834 ], [ -0.1704353, 42.0464135 ], [ -0.1688068, 42.0463553 ], [ -0.1644509, 42.0464998 ], [ -0.1618367, 42.0460569 ], [ -0.1601933, 42.045791 ], [ -0.1576847, 42.0451526 ], [ -0.1542841, 42.0439245 ], [ -0.1531658, 42.0435365 ], [ -0.1514719, 42.042783 ], [ -0.1469731, 42.0409962 ], [ -0.1452495, 42.0403679 ], [ -0.1429447, 42.0397702 ], [ -0.1381625, 42.0373095 ], [ -0.1341916, 42.0348149 ], [ -0.1331079, 42.0339323 ], [ -0.1323335, 42.0331564 ], [ -0.1309743, 42.0311503 ], [ -0.1306926, 42.0304318 ], [ -0.1303747, 42.0283706 ], [ -0.1301187, 42.0278869 ], [ -0.1297729, 42.027518 ], [ -0.1285242, 42.0265502 ], [ -0.1272106, 42.0256798 ], [ -0.1264448, 42.0249852 ], [ -0.1260256, 42.0243713 ], [ -0.1257516, 42.0237521 ], [ -0.1256636, 42.0232906 ], [ -0.1257752, 42.0229602 ], [ -0.1266641, 42.0222621 ], [ -0.1267586, 42.0201661 ], [ -0.1267588, 42.0196258 ], [ -0.1271407, 42.0186538 ], [ -0.1269953, 42.018398 ], [ -0.1262443, 42.0179109 ], [ -0.126014, 42.017662 ], [ -0.125882, 42.0171093 ], [ -0.1248223, 42.0162363 ], [ -0.1241988, 42.0169411 ], [ -0.1239783, 42.0175479 ], [ -0.123789, 42.0201367 ], [ -0.1235682, 42.0212839 ], [ -0.1233549, 42.0217288 ], [ -0.1230677, 42.0219377 ], [ -0.1201208, 42.022206 ], [ -0.1193868, 42.0224127 ], [ -0.1188784, 42.0227061 ], [ -0.1180077, 42.0235306 ], [ -0.1179616, 42.0240158 ], [ -0.1181126, 42.0244159 ], [ -0.1184679, 42.024839 ], [ -0.118863, 42.0251821 ], [ -0.1200862, 42.0264466 ], [ -0.1201442, 42.0270334 ], [ -0.1200421, 42.0276883 ], [ -0.1198143, 42.0281868 ], [ -0.1194059, 42.0286719 ], [ -0.1189078, 42.0290016 ], [ -0.1181275, 42.0291621 ], [ -0.1165446, 42.0291763 ], [ -0.116714, 42.0297029 ], [ -0.1179293, 42.0314084 ], [ -0.1192276, 42.0328819 ], [ -0.1200688, 42.0340467 ], [ -0.1207599, 42.035595 ], [ -0.1215018, 42.0376218 ], [ -0.1222196, 42.0399182 ], [ -0.1225057, 42.0405378 ], [ -0.1228511, 42.0409157 ], [ -0.1237531, 42.0412715 ], [ -0.125423, 42.0417457 ], [ -0.128405, 42.042865 ], [ -0.1287648, 42.0434594 ], [ -0.1289488, 42.0442024 ], [ -0.129074, 42.0459796 ], [ -0.1283882, 42.0469891 ], [ -0.1290511, 42.0472938 ], [ -0.1301339, 42.0500766 ], [ -0.1283134, 42.0545427 ], [ -0.1267501, 42.0541073 ], [ -0.1258453, 42.0540756 ], [ -0.1250149, 42.0542709 ], [ -0.1205602, 42.0541771 ], [ -0.1169425, 42.0540142 ], [ -0.1152954, 42.0540988 ], [ -0.1162187, 42.0555899 ], [ -0.1174387, 42.0582682 ], [ -0.1176644, 42.0591564 ], [ -0.1177396, 42.0598967 ], [ -0.1175239, 42.0606567 ], [ -0.1166984, 42.0618067 ], [ -0.1165678, 42.0622897 ], [ -0.1177298, 42.0646513 ], [ -0.1177553, 42.0651563 ], [ -0.1175892, 42.0656203 ], [ -0.1173839, 42.0658853 ], [ -0.1158494, 42.0666752 ], [ -0.1149924, 42.0671849 ], [ -0.1145661, 42.0675255 ], [ -0.1145626, 42.0678676 ], [ -0.1148957, 42.0687855 ], [ -0.1151519, 42.0698006 ], [ -0.1160602, 42.072426 ], [ -0.1165224, 42.0734282 ], [ -0.1171611, 42.0742727 ], [ -0.1186879, 42.0760581 ], [ -0.1190002, 42.0766333 ], [ -0.1188878, 42.0769817 ], [ -0.1185672, 42.0773879 ], [ -0.1178876, 42.077713 ], [ -0.1169356, 42.0779142 ], [ -0.1161312, 42.0777949 ], [ -0.1146376, 42.0776763 ], [ -0.1139442, 42.0777759 ], [ -0.113409, 42.0781136 ], [ -0.1130706, 42.0786454 ], [ -0.1127583, 42.0804657 ], [ -0.1125155, 42.081288 ], [ -0.1122483, 42.0818487 ], [ -0.1118447, 42.0822167 ], [ -0.1112117, 42.082579 ], [ -0.1098002, 42.0830477 ], [ -0.1084652, 42.0834283 ], [ -0.1077546, 42.0836355 ], [ -0.1071707, 42.0839809 ], [ -0.1068388, 42.0843688 ], [ -0.1069194, 42.084722 ], [ -0.1073216, 42.0851824 ], [ -0.1077436, 42.0854723 ], [ -0.1084053, 42.085543 ], [ -0.1095087, 42.0854718 ], [ -0.1099807, 42.0857268 ], [ -0.1099916, 42.0857541 ], [ -0.1101189, 42.0861445 ], [ -0.1099398, 42.0866263 ], [ -0.1094822, 42.087119 ], [ -0.1087544, 42.0877041 ], [ -0.1073731, 42.0885698 ], [ -0.1068094, 42.089267 ], [ -0.1068856, 42.0897192 ], [ -0.107121, 42.0903915 ], [ -0.1074364, 42.0906336 ], [ -0.1079242, 42.090808 ], [ -0.1100112, 42.0911758 ], [ -0.1108926, 42.0914682 ], [ -0.1114789, 42.0918702 ], [ -0.1115104, 42.0922402 ], [ -0.1113407, 42.0925151 ], [ -0.1108309, 42.0928264 ], [ -0.1087287, 42.0933228 ], [ -0.1083347, 42.0937451 ], [ -0.1081634, 42.0940559 ], [ -0.1080328, 42.0942688 ], [ -0.1079411, 42.0946897 ], [ -0.1078922, 42.0960303 ], [ -0.1076773, 42.0965021 ], [ -0.1072804, 42.0969874 ], [ -0.1068873, 42.0976529 ], [ -0.1064441, 42.0991546 ], [ -0.1061737, 42.1016422 ], [ -0.1062701, 42.1019148 ], [ -0.1075238, 42.1030631 ], [ -0.1102223, 42.1043559 ], [ -0.110877, 42.1048497 ], [ -0.1112558, 42.1050304 ], [ -0.1115315, 42.1050823 ], [ -0.1120293, 42.1050408 ], [ -0.1132498, 42.1047924 ], [ -0.1135011, 42.1048527 ], [ -0.1136638, 42.1052621 ], [ -0.1137903, 42.1059407 ], [ -0.1140616, 42.1066229 ], [ -0.114455, 42.1072812 ], [ -0.114993, 42.1079521 ], [ -0.115537, 42.1084881 ], [ -0.1163647, 42.1089052 ], [ -0.1170322, 42.1091201 ], [ -0.1172668, 42.1092791 ], [ -0.1175436, 42.1098443 ], [ -0.1183111, 42.1118538 ], [ -0.1192135, 42.1119576 ], [ -0.120026, 42.1121761 ], [ -0.1203295, 42.1124179 ], [ -0.1204489, 42.112718 ], [ -0.120652, 42.1141099 ], [ -0.1219784, 42.1149988 ], [ -0.1221583, 42.1153004 ], [ -0.1222036, 42.1156348 ], [ -0.1219704, 42.1165115 ], [ -0.1269293, 42.1170501 ], [ -0.1284853, 42.1174133 ], [ -0.1323169, 42.1185448 ], [ -0.1345269, 42.1191584 ], [ -0.1371123, 42.1211051 ], [ -0.1378693, 42.1217544 ], [ -0.1392535, 42.1224463 ], [ -0.1400412, 42.1226821 ], [ -0.1400773, 42.1232234 ], [ -0.1404999, 42.1232429 ], [ -0.1407729, 42.1236279 ], [ -0.1418264, 42.1238703 ], [ -0.1425574, 42.1242938 ], [ -0.1432816, 42.1246 ], [ -0.1435606, 42.1248501 ], [ -0.1441118, 42.1257733 ], [ -0.1464826, 42.1257784 ], [ -0.1499014, 42.1258815 ], [ -0.1509287, 42.1248264 ], [ -0.1516545, 42.1242861 ], [ -0.1521258, 42.1240276 ], [ -0.1545626, 42.1247185 ], [ -0.1551289, 42.1250387 ], [ -0.1566273, 42.1248058 ], [ -0.157565, 42.1252073 ], [ -0.1581067, 42.1255359 ], [ -0.1601419, 42.1249289 ], [ -0.1613327, 42.1267055 ], [ -0.1628601, 42.1266352 ], [ -0.1643797, 42.1259254 ], [ -0.1702837, 42.1229284 ], [ -0.1735309, 42.1233507 ], [ -0.1750364, 42.1229556 ], [ -0.1772981, 42.1259561 ], [ -0.1790401, 42.1265032 ] ] ] } }
]
}
