{
"type": "FeatureCollection",
"name": "22047",
"features": [
{ "type": "Feature", "properties": { "CCAA": "02 - Aragón", "PROVINCIA": "22 - Huesca", "MUNICIPIO": "22047 - Banastás", "COD_MUNICIPIO": "22047", "DISTRITO": "01", "SECCION": "2204701001", "V1_H": 81.68, "V1_M": 87.08, "V2_H": 81.12537096, "V2_M": 86.91948792, "V3_H": 82.31095034000001, "V3_M": 87.32789848 }, "geometry": { "type": "Polygon", "coordinates": [ [ [ -0.4423383, 42.1823729 ], [ -0.4423382, 42.1823732 ], [ -0.4435006, 42.1832727 ], [ -0.4438017, 42.1836126 ], [ -0.4440424, 42.1842484 ], [ -0.4440798, 42.1851227 ], [ -0.444291, 42.1858929 ], [ -0.4451896, 42.1870296 ], [ -0.4453853, 42.1875833 ], [ -0.4454009, 42.1880969 ], [ -0.4450922, 42.1888465 ], [ -0.444266, 42.1901159 ], [ -0.4437693, 42.19042 ], [ -0.4424851, 42.1922375 ], [ -0.4425431, 42.192599 ], [ -0.442728, 42.1928192 ], [ -0.4440875, 42.193642 ], [ -0.4481636, 42.19557 ], [ -0.4485725, 42.1956421 ], [ -0.4495291, 42.1956455 ], [ -0.4537151, 42.1960537 ], [ -0.4551405, 42.1964456 ], [ -0.455639, 42.1966998 ], [ -0.4582003, 42.1992692 ], [ -0.4584905, 42.1995818 ], [ -0.4609169, 42.2012926 ], [ -0.4611966, 42.201569 ], [ -0.4613486, 42.2020046 ], [ -0.4612611, 42.202678 ], [ -0.4618396, 42.2024477 ], [ -0.4669488, 42.2000752 ], [ -0.4672994, 42.200092 ], [ -0.4677518, 42.1999849 ], [ -0.4696301, 42.199351 ], [ -0.4701627, 42.1990566 ], [ -0.4706273, 42.1986436 ], [ -0.4712581, 42.1983153 ], [ -0.4740683, 42.1970896 ], [ -0.4767378, 42.1960496 ], [ -0.4747066, 42.1938346 ], [ -0.4723486, 42.1916212 ], [ -0.4703334, 42.1896226 ], [ -0.4690094, 42.1885127 ], [ -0.4676762, 42.1870244 ], [ -0.465701, 42.1846393 ], [ -0.4643415, 42.1835106 ], [ -0.4624554, 42.1825323 ], [ -0.4603837, 42.180145 ], [ -0.458397, 42.1801729 ], [ -0.4580241, 42.1801106 ], [ -0.4561588, 42.1798261 ], [ -0.4542905, 42.1793163 ], [ -0.4515459, 42.1783188 ], [ -0.4512071, 42.176204 ], [ -0.4504454, 42.176178 ], [ -0.4503366, 42.1761756 ], [ -0.4495099, 42.1759591 ], [ -0.448591, 42.1759296 ], [ -0.4476061, 42.1760337 ], [ -0.4470808, 42.1758509 ], [ -0.4456725, 42.1750451 ], [ -0.44491, 42.1747399 ], [ -0.442277, 42.1746001 ], [ -0.4422764, 42.1746001 ], [ -0.4420893, 42.1750372 ], [ -0.4419526, 42.1760247 ], [ -0.442158, 42.1763355 ], [ -0.4422879, 42.1767166 ], [ -0.4419474, 42.1776546 ], [ -0.4420248, 42.178737 ], [ -0.4419687, 42.1798254 ], [ -0.4432486, 42.1802142 ], [ -0.4423383, 42.1823729 ] ] ] } }
]
}
