{
"type": "FeatureCollection",
"name": "22067",
"features": [
{ "type": "Feature", "properties": { "CCAA": "02 - Aragón", "PROVINCIA": "22 - Huesca", "MUNICIPIO": "22067 - Bonansa", "COD_MUNICIPIO": "22067", "DISTRITO": "01", "SECCION": "2206701001", "V1_H": 75.48, "V1_M": 82.31, "V2_H": 75.36985678000001, "V2_M": 82.56533706, "V3_H": 75.8600571, "V3_M": 82.01450712 }, "geometry": { "type": "Polygon", "coordinates": [ [ [ 0.7191612, 42.4289921 ], [ 0.7184482, 42.4278267 ], [ 0.7161233, 42.4234541 ], [ 0.7157529, 42.4229439 ], [ 0.7112091, 42.4250272 ], [ 0.7107418, 42.4249343 ], [ 0.7103061, 42.4247593 ], [ 0.707911, 42.4257734 ], [ 0.7071404, 42.4256903 ], [ 0.7052613, 42.4263904 ], [ 0.6984576, 42.4260162 ], [ 0.6957518, 42.4252662 ], [ 0.6945614, 42.4250705 ], [ 0.6905282, 42.4246874 ], [ 0.68984, 42.4247636 ], [ 0.6893516, 42.4247253 ], [ 0.6894582, 42.4259194 ], [ 0.6894772, 42.4260359 ], [ 0.6894498, 42.426397 ], [ 0.6894482, 42.4265771 ], [ 0.6889941, 42.4277442 ], [ 0.6885701, 42.4283882 ], [ 0.6879566, 42.4289122 ], [ 0.6799056, 42.4333943 ], [ 0.683202, 42.4404826 ], [ 0.6832473, 42.4416697 ], [ 0.6825302, 42.4433316 ], [ 0.6824284, 42.4438751 ], [ 0.6825275, 42.4451505 ], [ 0.6825902, 42.4458058 ], [ 0.6827663, 42.447772 ], [ 0.6816065, 42.4497633 ], [ 0.6785142, 42.4488632 ], [ 0.6777054, 42.4487542 ], [ 0.6753241, 42.4491998 ], [ 0.6751612, 42.4487008 ], [ 0.6748338, 42.4476758 ], [ 0.6748185, 42.4476223 ], [ 0.6740055, 42.4474413 ], [ 0.6733638, 42.4479031 ], [ 0.6731057, 42.4482716 ], [ 0.6725483, 42.4491358 ], [ 0.6720243, 42.4497379 ], [ 0.6716428, 42.4498672 ], [ 0.6704218, 42.4499874 ], [ 0.6693878, 42.4495614 ], [ 0.6683042, 42.4491189 ], [ 0.666596, 42.4485974 ], [ 0.6646171, 42.4478143 ], [ 0.6604428, 42.4475337 ], [ 0.6573893, 42.4456234 ], [ 0.6526036, 42.4444436 ], [ 0.6485274, 42.4435471 ], [ 0.6458694, 42.4427853 ], [ 0.6449917, 42.4425342 ], [ 0.6448554, 42.4420703 ], [ 0.6448763, 42.4415924 ], [ 0.645142, 42.4409357 ], [ 0.645684, 42.440009 ], [ 0.6458635, 42.4397511 ], [ 0.6461238, 42.4394187 ], [ 0.6478042, 42.4382126 ], [ 0.6501788, 42.4372365 ], [ 0.6525814, 42.4346566 ], [ 0.6511848, 42.4315407 ], [ 0.6496629, 42.4300315 ], [ 0.6507808, 42.4279339 ], [ 0.6472608, 42.4259211 ], [ 0.6460644, 42.4254099 ], [ 0.6459769, 42.4253677 ], [ 0.6458651, 42.4253262 ], [ 0.6426598, 42.4241227 ], [ 0.6421406, 42.4235539 ], [ 0.6395724, 42.4218077 ], [ 0.6367731, 42.4171154 ], [ 0.6353995, 42.4156374 ], [ 0.6350322, 42.4153789 ], [ 0.6342344, 42.4152421 ], [ 0.6347799, 42.4137481 ], [ 0.6337102, 42.4135299 ], [ 0.6343874, 42.4122118 ], [ 0.634336, 42.4117452 ], [ 0.6375616, 42.4118409 ], [ 0.6404207, 42.4131637 ], [ 0.6447946, 42.4112686 ], [ 0.6456914, 42.4099705 ], [ 0.6458682, 42.4098748 ], [ 0.6480334, 42.4088694 ], [ 0.6502648, 42.4073306 ], [ 0.6513569, 42.407935 ], [ 0.6516342, 42.4064315 ], [ 0.6537271, 42.405023 ], [ 0.657145, 42.4057153 ], [ 0.6585293, 42.4050768 ], [ 0.6589439, 42.4048924 ], [ 0.6593366, 42.4039165 ], [ 0.6601236, 42.4019914 ], [ 0.6618618, 42.4009634 ], [ 0.6632687, 42.3990454 ], [ 0.6662597, 42.3972118 ], [ 0.6673787, 42.3964017 ], [ 0.6690157, 42.3948905 ], [ 0.6701286, 42.3943956 ], [ 0.6704022, 42.3942968 ], [ 0.6732613, 42.3933317 ], [ 0.6746762, 42.3930161 ], [ 0.6791218, 42.3921801 ], [ 0.6800896, 42.3925271 ], [ 0.6818334, 42.3932634 ], [ 0.6825239, 42.3934393 ], [ 0.6832661, 42.3934605 ], [ 0.6865635, 42.3916886 ], [ 0.6904211, 42.3897364 ], [ 0.6946084, 42.3882327 ], [ 0.6982374, 42.3867379 ], [ 0.7013096, 42.3856932 ], [ 0.7029857, 42.3856929 ], [ 0.7130854, 42.3833309 ], [ 0.7140835, 42.3815157 ], [ 0.7183569, 42.3804586 ], [ 0.7212715, 42.3796345 ], [ 0.7237513, 42.3788516 ], [ 0.7263199, 42.3785429 ], [ 0.7329598, 42.3762376 ], [ 0.7352991, 42.3761613 ], [ 0.7370479, 42.376409 ], [ 0.7380836, 42.3766723 ], [ 0.7400505, 42.3774814 ], [ 0.7434141, 42.3791094 ], [ 0.7433253, 42.3800667 ], [ 0.7434946, 42.3808716 ], [ 0.7441149, 42.3821119 ], [ 0.7446964, 42.3835155 ], [ 0.7450905, 42.3840158 ], [ 0.7456342, 42.3843762 ], [ 0.7464595, 42.3847724 ], [ 0.7446441, 42.3871279 ], [ 0.7433688, 42.3879439 ], [ 0.7429826, 42.3906398 ], [ 0.7421075, 42.391857 ], [ 0.7417912, 42.391798 ], [ 0.7407932, 42.3916118 ], [ 0.7407731, 42.3916799 ], [ 0.7401765, 42.3937029 ], [ 0.7397966, 42.3952821 ], [ 0.7395058, 42.3961109 ], [ 0.7380576, 42.3981121 ], [ 0.7380738, 42.3985889 ], [ 0.7385127, 42.399637 ], [ 0.7381098, 42.3995433 ], [ 0.7368496, 42.3992501 ], [ 0.7367604, 42.3993178 ], [ 0.7355361, 42.4002474 ], [ 0.7346871, 42.4006803 ], [ 0.7306935, 42.4021702 ], [ 0.7287471, 42.4039714 ], [ 0.7279286, 42.4045113 ], [ 0.7263067, 42.4052304 ], [ 0.7286288, 42.407919 ], [ 0.7313731, 42.4080809 ], [ 0.731677, 42.4080988 ], [ 0.7336192, 42.4073561 ], [ 0.7338393, 42.407272 ], [ 0.7348826, 42.4078592 ], [ 0.7351801, 42.408777 ], [ 0.7361418, 42.4128965 ], [ 0.7362085, 42.4140199 ], [ 0.7358874, 42.4147507 ], [ 0.7348139, 42.4167345 ], [ 0.7347268, 42.4168955 ], [ 0.7341046, 42.4176722 ], [ 0.7316931, 42.4200378 ], [ 0.7294113, 42.4225434 ], [ 0.7279009, 42.4251497 ], [ 0.7265967, 42.42693 ], [ 0.7261965, 42.4271501 ], [ 0.72247, 42.4276406 ], [ 0.7191612, 42.4289921 ] ] ] } }
]
}
