{
"type": "FeatureCollection",
"name": "22106",
"features": [
{ "type": "Feature", "properties": { "CCAA": "02 - Aragón", "PROVINCIA": "22 - Huesca", "MUNICIPIO": "22106 - Fago", "COD_MUNICIPIO": "22106", "DISTRITO": "01", "SECCION": "2210601001", "V1_H": 75.48, "V1_M": 82.31, "V2_H": 75.36985678000001, "V2_M": 82.56533706, "V3_H": 75.8600571, "V3_M": 82.01450712 }, "geometry": { "type": "Polygon", "coordinates": [ [ [ -0.857981, 42.6899887 ], [ -0.8586281, 42.6931796 ], [ -0.8597914, 42.6962721 ], [ -0.8593503, 42.700226 ], [ -0.8575331, 42.7030106 ], [ -0.8561114, 42.7056495 ], [ -0.8560836, 42.7085845 ], [ -0.8572371, 42.711965 ], [ -0.8590114, 42.7150508 ], [ -0.8603677, 42.7185792 ], [ -0.8598839, 42.7276741 ], [ -0.8590113, 42.7345736 ], [ -0.8565428, 42.7420465 ], [ -0.8543051, 42.7459937 ], [ -0.8520671, 42.7499499 ], [ -0.8500374, 42.7531715 ], [ -0.8494158, 42.7559513 ], [ -0.8515824, 42.7583153 ], [ -0.8535542, 42.7606665 ], [ -0.8557424, 42.7617071 ], [ -0.8579088, 42.7648003 ], [ -0.862464, 42.768582 ], [ -0.8629467, 42.7689827 ], [ -0.8636121, 42.7671024 ], [ -0.8644629, 42.7646977 ], [ -0.8645644, 42.7642019 ], [ -0.8646098, 42.7639801 ], [ -0.8648391, 42.763354 ], [ -0.8651081, 42.7631656 ], [ -0.8655529, 42.762854 ], [ -0.8689107, 42.7615119 ], [ -0.8704361, 42.7606351 ], [ -0.8730313, 42.7591433 ], [ -0.8733113, 42.7589823 ], [ -0.8741618, 42.7588969 ], [ -0.8759599, 42.7587163 ], [ -0.8770583, 42.7591149 ], [ -0.8784278, 42.7594465 ], [ -0.8804984, 42.7600489 ], [ -0.8811383, 42.7602351 ], [ -0.8814467, 42.7604156 ], [ -0.882648, 42.7611185 ], [ -0.8833242, 42.7616152 ], [ -0.8834152, 42.7616821 ], [ -0.883566, 42.7617928 ], [ -0.8835957, 42.7617965 ], [ -0.8843448, 42.7618883 ], [ -0.8858144, 42.761928 ], [ -0.8861788, 42.7619378 ], [ -0.8864571, 42.7619453 ], [ -0.8869512, 42.7620677 ], [ -0.8892081, 42.7626264 ], [ -0.8904853, 42.7628031 ], [ -0.8908674, 42.7627954 ], [ -0.8946921, 42.7627184 ], [ -0.8970181, 42.7607982 ], [ -0.8977694, 42.7606229 ], [ -0.8987465, 42.7605677 ], [ -0.9005365, 42.7604665 ], [ -0.9009632, 42.7594118 ], [ -0.9009914, 42.759103 ], [ -0.9010214, 42.7587735 ], [ -0.9009327, 42.7577814 ], [ -0.9013239, 42.7556094 ], [ -0.9011649, 42.7527159 ], [ -0.9008708, 42.7516569 ], [ -0.8996049, 42.7500668 ], [ -0.8995338, 42.7500025 ], [ -0.8994177, 42.7469297 ], [ -0.8994964, 42.7465664 ], [ -0.9001559, 42.7435214 ], [ -0.9005005, 42.7430864 ], [ -0.9007385, 42.7429374 ], [ -0.9010871, 42.742719 ], [ -0.9010481, 42.7413405 ], [ -0.9008052, 42.7398503 ], [ -0.9009612, 42.737764 ], [ -0.8994917, 42.7367825 ], [ -0.8983999, 42.7361952 ], [ -0.8968665, 42.7356627 ], [ -0.899865, 42.7326021 ], [ -0.9027245, 42.7303942 ], [ -0.9026831, 42.7298081 ], [ -0.9039828, 42.7296609 ], [ -0.9061436, 42.7275213 ], [ -0.9068461, 42.7266066 ], [ -0.9052678, 42.7223364 ], [ -0.9041746, 42.7178049 ], [ -0.9038492, 42.7155026 ], [ -0.9038709, 42.7144945 ], [ -0.9043516, 42.712189 ], [ -0.9072038, 42.7101611 ], [ -0.9087606, 42.7099824 ], [ -0.9098964, 42.7099762 ], [ -0.9108829, 42.709688 ], [ -0.9117879, 42.7092813 ], [ -0.912526, 42.7087545 ], [ -0.913084, 42.7081343 ], [ -0.9139859, 42.706728 ], [ -0.9154753, 42.7056385 ], [ -0.9155784, 42.7047489 ], [ -0.9204988, 42.7021909 ], [ -0.9215719, 42.701499 ], [ -0.9224642, 42.7008039 ], [ -0.9225119, 42.7007687 ], [ -0.9224753, 42.700768 ], [ -0.9201284, 42.7008514 ], [ -0.9183732, 42.7007655 ], [ -0.916957, 42.7007667 ], [ -0.9155237, 42.7009117 ], [ -0.9122391, 42.7016533 ], [ -0.9107667, 42.7018696 ], [ -0.9086505, 42.701993 ], [ -0.9068966, 42.7022311 ], [ -0.9054306, 42.7022583 ], [ -0.9027109, 42.7021725 ], [ -0.9015489, 42.701872 ], [ -0.9009126, 42.7015542 ], [ -0.9006813, 42.7011717 ], [ -0.9005717, 42.7008005 ], [ -0.8970253, 42.6995287 ], [ -0.896029, 42.6990242 ], [ -0.8948022, 42.6981191 ], [ -0.8931434, 42.6966298 ], [ -0.8912365, 42.6963425 ], [ -0.8896333, 42.6946561 ], [ -0.8845323, 42.6946069 ], [ -0.8832547, 42.6944842 ], [ -0.880123, 42.693958 ], [ -0.8783883, 42.6936377 ], [ -0.8734411, 42.6933748 ], [ -0.8714165, 42.6933191 ], [ -0.8707288, 42.6934414 ], [ -0.8691286, 42.694186 ], [ -0.8678655, 42.6935277 ], [ -0.8675694, 42.6933736 ], [ -0.8646358, 42.6924184 ], [ -0.863887, 42.6918281 ], [ -0.8638372, 42.6918137 ], [ -0.8619783, 42.6912432 ], [ -0.8603774, 42.6909431 ], [ -0.8594357, 42.6906373 ], [ -0.857981, 42.6899887 ] ] ] } }
]
}
