{
"type": "FeatureCollection",
"name": "22114",
"features": [
{ "type": "Feature", "properties": { "CCAA": "02 - Aragón", "PROVINCIA": "22 - Huesca", "MUNICIPIO": "22114 - Gistaín", "COD_MUNICIPIO": "22114", "DISTRITO": "01", "SECCION": "2211401001", "V1_H": 79.85, "V1_M": 85.78, "V2_H": 79.86035794, "V2_M": 85.76242541000001, "V3_H": 79.99500792000001, "V3_M": 85.93655133 }, "geometry": { "type": "Polygon", "coordinates": [ [ [ 0.4362591, 42.6897327 ], [ 0.435807, 42.6899444 ], [ 0.4353379, 42.6902917 ], [ 0.4344195, 42.6911207 ], [ 0.4341822, 42.6912448 ], [ 0.4339629, 42.6912514 ], [ 0.4330054, 42.6911541 ], [ 0.4322621, 42.6911764 ], [ 0.4318995, 42.6912413 ], [ 0.4315715, 42.6912692 ], [ 0.4307362, 42.6909521 ], [ 0.4294916, 42.6905842 ], [ 0.4290617, 42.6906872 ], [ 0.4260934, 42.6908661 ], [ 0.425977, 42.6909687 ], [ 0.4252706, 42.6908728 ], [ 0.4251148, 42.6908684 ], [ 0.42409, 42.6908361 ], [ 0.4230018, 42.6905806 ], [ 0.4225764, 42.6904447 ], [ 0.422334, 42.6904205 ], [ 0.4220664, 42.6904375 ], [ 0.4218311, 42.6905976 ], [ 0.4216806, 42.6907461 ], [ 0.4213588, 42.691332 ], [ 0.4212353, 42.6924163 ], [ 0.4210913, 42.6926817 ], [ 0.4209204, 42.6929029 ], [ 0.4205885, 42.6930839 ], [ 0.4178683, 42.6942008 ], [ 0.4173581, 42.6945086 ], [ 0.4171578, 42.6946272 ], [ 0.4168358, 42.6947629 ], [ 0.4162123, 42.6948445 ], [ 0.4161095, 42.6948746 ], [ 0.415197, 42.6949288 ], [ 0.41297, 42.6952745 ], [ 0.4117971, 42.6952554 ], [ 0.4112164, 42.6951422 ], [ 0.4102231, 42.6952664 ], [ 0.4083742, 42.6953846 ], [ 0.4073696, 42.6955405 ], [ 0.4069791, 42.6955432 ], [ 0.4065837, 42.6954559 ], [ 0.4063814, 42.6953269 ], [ 0.4062521, 42.6951956 ], [ 0.4061964, 42.6950712 ], [ 0.4062215, 42.6945257 ], [ 0.4051856, 42.694444 ], [ 0.4013392, 42.6940408 ], [ 0.4009997, 42.6942354 ], [ 0.4008067, 42.6942772 ], [ 0.4004259, 42.6942345 ], [ 0.3999858, 42.6942206 ], [ 0.3987993, 42.6941748 ], [ 0.3978614, 42.6942117 ], [ 0.3970249, 42.6943175 ], [ 0.3964882, 42.6943245 ], [ 0.3964229, 42.6944705 ], [ 0.3962643, 42.6951415 ], [ 0.3960651, 42.6957417 ], [ 0.3956646, 42.696456 ], [ 0.3952203, 42.6972616 ], [ 0.3950981, 42.6979315 ], [ 0.3947374, 42.6982574 ], [ 0.3945128, 42.6983901 ], [ 0.394351, 42.6985569 ], [ 0.3943618, 42.6987547 ], [ 0.3946905, 42.6991862 ], [ 0.3956784, 42.7000663 ], [ 0.3957443, 42.7003794 ], [ 0.3958314, 42.7013044 ], [ 0.3958237, 42.7016108 ], [ 0.3957375, 42.7018204 ], [ 0.3951766, 42.7025034 ], [ 0.3951055, 42.7027666 ], [ 0.3951329, 42.7030449 ], [ 0.3951145, 42.7033786 ], [ 0.3949162, 42.7039968 ], [ 0.3945934, 42.70524 ], [ 0.394227, 42.7059082 ], [ 0.3940553, 42.7061204 ], [ 0.3938448, 42.7062887 ], [ 0.3936435, 42.7064027 ], [ 0.3934684, 42.706552 ], [ 0.3933676, 42.7067171 ], [ 0.3933785, 42.70714 ], [ 0.3934492, 42.7073179 ], [ 0.393459, 42.7074977 ], [ 0.3933854, 42.7090577 ], [ 0.3934697, 42.7092623 ], [ 0.3936912, 42.7095168 ], [ 0.393959, 42.7099501 ], [ 0.3940205, 42.7101823 ], [ 0.3939699, 42.710373 ], [ 0.3937574, 42.7107304 ], [ 0.393716, 42.7108667 ], [ 0.3937615, 42.7112526 ], [ 0.3936934, 42.7117949 ], [ 0.393479, 42.7123415 ], [ 0.3929512, 42.7131856 ], [ 0.3927747, 42.7133078 ], [ 0.3924977, 42.713154 ], [ 0.3923109, 42.7130875 ], [ 0.3920285, 42.7130598 ], [ 0.3915755, 42.7130372 ], [ 0.391243, 42.712984 ], [ 0.3895933, 42.7127358 ], [ 0.3887073, 42.7123839 ], [ 0.386369, 42.7115978 ], [ 0.3850588, 42.7113034 ], [ 0.3849261, 42.7113343 ], [ 0.3846297, 42.7117214 ], [ 0.3842095, 42.7120759 ], [ 0.3836171, 42.7124085 ], [ 0.3827955, 42.7127931 ], [ 0.3822055, 42.7131707 ], [ 0.3818018, 42.7133807 ], [ 0.38077, 42.7137174 ], [ 0.3803761, 42.7138821 ], [ 0.3794116, 42.7138836 ], [ 0.3784753, 42.7139563 ], [ 0.37632, 42.7140649 ], [ 0.3757022, 42.7141552 ], [ 0.3744714, 42.7144392 ], [ 0.3742954, 42.7145569 ], [ 0.3728325, 42.7159507 ], [ 0.3717138, 42.7171498 ], [ 0.3715406, 42.7175736 ], [ 0.3713592, 42.717831 ], [ 0.3712412, 42.7181317 ], [ 0.370691, 42.7190213 ], [ 0.3702233, 42.7194043 ], [ 0.3698922, 42.7196031 ], [ 0.3693543, 42.7198171 ], [ 0.368391, 42.7200705 ], [ 0.3679156, 42.7203097 ], [ 0.3670177, 42.7208674 ], [ 0.3659496, 42.7214391 ], [ 0.3656262, 42.7215566 ], [ 0.3642665, 42.7221549 ], [ 0.3639762, 42.722321 ], [ 0.3638924, 42.7224631 ], [ 0.3631646, 42.7227816 ], [ 0.3625304, 42.7229939 ], [ 0.3622794, 42.7231228 ], [ 0.3611468, 42.7236333 ], [ 0.3604967, 42.7240306 ], [ 0.360103, 42.7242043 ], [ 0.360022, 42.7240626 ], [ 0.3598355, 42.7233207 ], [ 0.3595366, 42.7227622 ], [ 0.3594884, 42.7223224 ], [ 0.3595449, 42.7221227 ], [ 0.3594686, 42.7219538 ], [ 0.3593466, 42.7212235 ], [ 0.3588598, 42.7204049 ], [ 0.3585214, 42.7200187 ], [ 0.3580894, 42.7197072 ], [ 0.3576764, 42.7195213 ], [ 0.3571196, 42.7193846 ], [ 0.3569213, 42.7193318 ], [ 0.3564807, 42.7193132 ], [ 0.3549631, 42.7190246 ], [ 0.3533179, 42.7184066 ], [ 0.3529812, 42.7180067 ], [ 0.3519518, 42.7175281 ], [ 0.3513698, 42.7169239 ], [ 0.3507725, 42.7164912 ], [ 0.3505098, 42.7162468 ], [ 0.350453, 42.7162124 ], [ 0.3498746, 42.7158737 ], [ 0.3489267, 42.7153207 ], [ 0.3485543, 42.7149804 ], [ 0.3479729, 42.71416 ], [ 0.3478832, 42.7140366 ], [ 0.347562, 42.7137849 ], [ 0.3472515, 42.7134608 ], [ 0.3466486, 42.712695 ], [ 0.3464592, 42.7123494 ], [ 0.3463079, 42.7119352 ], [ 0.3459684, 42.7116254 ], [ 0.3449496, 42.71107 ], [ 0.3446458, 42.7110968 ], [ 0.3440395, 42.7114027 ], [ 0.3434631, 42.7115817 ], [ 0.3430973, 42.7115924 ], [ 0.339988, 42.711215 ], [ 0.3393328, 42.711063 ], [ 0.3382988, 42.710679 ], [ 0.3372973, 42.710447 ], [ 0.3369562, 42.710232 ], [ 0.3359548, 42.7090906 ], [ 0.3340367, 42.7088404 ], [ 0.3320306, 42.7083136 ], [ 0.3301749, 42.7076293 ], [ 0.3287851, 42.7072105 ], [ 0.3268546, 42.7067264 ], [ 0.3252289, 42.7062335 ], [ 0.3249412, 42.7056475 ], [ 0.3245043, 42.7038683 ], [ 0.3245598, 42.7028492 ], [ 0.3247494, 42.7022854 ], [ 0.3248254, 42.7021077 ], [ 0.3247685, 42.7010423 ], [ 0.3247853, 42.7006726 ], [ 0.3248505, 42.7002926 ], [ 0.3249458, 42.7000197 ], [ 0.3253413, 42.6991977 ], [ 0.3262744, 42.6974688 ], [ 0.3262149, 42.6972409 ], [ 0.3248853, 42.6970589 ], [ 0.3240776, 42.6963351 ], [ 0.3239534, 42.6956093 ], [ 0.3240063, 42.6947704 ], [ 0.3241375, 42.6946 ], [ 0.324086, 42.6944349 ], [ 0.3235791, 42.693171 ], [ 0.3233274, 42.6928001 ], [ 0.3224428, 42.6920064 ], [ 0.3221701, 42.6916992 ], [ 0.3218098, 42.6913495 ], [ 0.3217176, 42.6912261 ], [ 0.3217188, 42.691019 ], [ 0.3219211, 42.6904638 ], [ 0.3221335, 42.6900975 ], [ 0.3227333, 42.6892157 ], [ 0.3235514, 42.6878502 ], [ 0.3236299, 42.6875057 ], [ 0.3231107, 42.6869086 ], [ 0.3226218, 42.6862114 ], [ 0.321717, 42.6852652 ], [ 0.3214357, 42.6847961 ], [ 0.3208691, 42.6831828 ], [ 0.3207648, 42.6834289 ], [ 0.3206374, 42.6835587 ], [ 0.3204361, 42.6836726 ], [ 0.3197821, 42.6837817 ], [ 0.3189304, 42.6842746 ], [ 0.3185784, 42.6843118 ], [ 0.3172882, 42.6842322 ], [ 0.3170066, 42.6843574 ], [ 0.3165955, 42.6844324 ], [ 0.31617, 42.6844627 ], [ 0.3157884, 42.6844017 ], [ 0.3149702, 42.6841643 ], [ 0.3143963, 42.6839288 ], [ 0.3141128, 42.683874 ], [ 0.3131862, 42.6838919 ], [ 0.3130005, 42.6838432 ], [ 0.3129704, 42.683736 ], [ 0.3129813, 42.6833395 ], [ 0.3125981, 42.6831616 ], [ 0.3104792, 42.6818722 ], [ 0.3077491, 42.6803304 ], [ 0.3061104, 42.6795764 ], [ 0.3042736, 42.6789991 ], [ 0.3016082, 42.6777525 ], [ 0.301217, 42.6774216 ], [ 0.3010624, 42.6773541 ], [ 0.3007458, 42.677021 ], [ 0.3007083, 42.6769906 ], [ 0.3004709, 42.6767858 ], [ 0.2989494, 42.675245 ], [ 0.2979607, 42.6747782 ], [ 0.2974413, 42.6746491 ], [ 0.2969055, 42.6744395 ], [ 0.2950073, 42.6733866 ], [ 0.2949748, 42.673365 ], [ 0.289675, 42.6701544 ], [ 0.2857565, 42.6675748 ], [ 0.2846563, 42.666841 ], [ 0.28433, 42.666148 ], [ 0.2841482, 42.665766 ], [ 0.2838064, 42.6646052 ], [ 0.2849426, 42.6604666 ], [ 0.2849441, 42.6591069 ], [ 0.2837624, 42.6582134 ], [ 0.283057, 42.6575583 ], [ 0.2827752, 42.6570711 ], [ 0.2826924, 42.6564252 ], [ 0.2829418, 42.6558327 ], [ 0.2835986, 42.6551025 ], [ 0.2852667, 42.653884 ], [ 0.2853246, 42.6512801 ], [ 0.2853283, 42.6511179 ], [ 0.2877463, 42.6516337 ], [ 0.2890941, 42.651748 ], [ 0.2914133, 42.6515462 ], [ 0.2932372, 42.6512056 ], [ 0.2968688, 42.6502186 ], [ 0.2986483, 42.6499601 ], [ 0.3001039, 42.649576 ], [ 0.3019738, 42.6489548 ], [ 0.3043936, 42.6483536 ], [ 0.3064043, 42.6480884 ], [ 0.3066825, 42.6480713 ], [ 0.3071537, 42.6480442 ], [ 0.3088489, 42.6479547 ], [ 0.3110055, 42.6479102 ], [ 0.3130064, 42.6481494 ], [ 0.3153484, 42.6486534 ], [ 0.3168391, 42.6489749 ], [ 0.319297, 42.6495069 ], [ 0.3198915, 42.6496337 ], [ 0.3198728, 42.6495532 ], [ 0.3141323, 42.6252635 ], [ 0.3107862, 42.6175806 ], [ 0.3150197, 42.607535 ], [ 0.3086462, 42.5930962 ], [ 0.3086341, 42.5930695 ], [ 0.3124298, 42.5917981 ], [ 0.3111391, 42.5892872 ], [ 0.3110001, 42.5882737 ], [ 0.3115076, 42.5875026 ], [ 0.3133343, 42.5863332 ], [ 0.3144656, 42.5856071 ], [ 0.314655, 42.5850433 ], [ 0.3150873, 42.5844635 ], [ 0.3159078, 42.5794872 ], [ 0.3175844, 42.5805462 ], [ 0.3208816, 42.5811439 ], [ 0.323242, 42.5817687 ], [ 0.3288888, 42.582559 ], [ 0.3326649, 42.5832235 ], [ 0.3361161, 42.5844194 ], [ 0.3392152, 42.5854096 ], [ 0.3394623, 42.58556 ], [ 0.3406258, 42.5862689 ], [ 0.3421966, 42.5871595 ], [ 0.3427835, 42.5878807 ], [ 0.3436961, 42.5892227 ], [ 0.3439581, 42.5899489 ], [ 0.3440202, 42.5900416 ], [ 0.3445348, 42.5914583 ], [ 0.3444684, 42.5918114 ], [ 0.3444452, 42.5922893 ], [ 0.3443405, 42.5930668 ], [ 0.3442499, 42.5947893 ], [ 0.3441078, 42.5955498 ], [ 0.3440612, 42.5962716 ], [ 0.3441173, 42.5968642 ], [ 0.3441513, 42.5970298 ], [ 0.3444196, 42.5975037 ], [ 0.3448683, 42.5992825 ], [ 0.3450172, 42.6009529 ], [ 0.3454835, 42.6027762 ], [ 0.35301, 42.6045098 ], [ 0.3529184, 42.6047061 ], [ 0.3532688, 42.6047904 ], [ 0.3528351, 42.6057935 ], [ 0.3532798, 42.6063568 ], [ 0.3534499, 42.606802 ], [ 0.3534513, 42.6070541 ], [ 0.3533037, 42.6074817 ], [ 0.3531672, 42.6078909 ], [ 0.3528407, 42.6083957 ], [ 0.3524068, 42.6087146 ], [ 0.3522719, 42.6089256 ], [ 0.3523152, 42.6101849 ], [ 0.3521789, 42.6112785 ], [ 0.3521985, 42.6118722 ], [ 0.3522275, 42.6124117 ], [ 0.3521717, 42.6129626 ], [ 0.3521612, 42.6136742 ], [ 0.3519947, 42.6146606 ], [ 0.3518582, 42.6150698 ], [ 0.3517325, 42.6152265 ], [ 0.3513925, 42.6154796 ], [ 0.3511797, 42.6156029 ], [ 0.3507848, 42.6157405 ], [ 0.3503407, 42.6160957 ], [ 0.3496857, 42.6172944 ], [ 0.3495379, 42.6177221 ], [ 0.3494544, 42.6182107 ], [ 0.3494114, 42.6187702 ], [ 0.3492923, 42.6193635 ], [ 0.3499148, 42.6197325 ], [ 0.3515636, 42.6204811 ], [ 0.3529333, 42.6212423 ], [ 0.3532395, 42.6214945 ], [ 0.3535808, 42.6217186 ], [ 0.3539906, 42.6220848 ], [ 0.354173, 42.6223045 ], [ 0.3542285, 42.6224289 ], [ 0.3541041, 42.6230629 ], [ 0.3540088, 42.6237861 ], [ 0.3540316, 42.6239835 ], [ 0.3541152, 42.6241791 ], [ 0.3541278, 42.6244129 ], [ 0.3539659, 42.6248048 ], [ 0.3537404, 42.6251446 ], [ 0.3536649, 42.6253269 ], [ 0.3536629, 42.6255161 ], [ 0.353784, 42.6257286 ], [ 0.353961, 42.6262997 ], [ 0.3539735, 42.6267586 ], [ 0.3539581, 42.6269121 ], [ 0.3539851, 42.6269743 ], [ 0.35387, 42.6273289 ], [ 0.3537283, 42.6274006 ], [ 0.3535451, 42.6276356 ], [ 0.3530209, 42.6280921 ], [ 0.3529681, 42.628697 ], [ 0.3531342, 42.6295205 ], [ 0.3529718, 42.6301286 ], [ 0.3526247, 42.6309312 ], [ 0.3526012, 42.6314001 ], [ 0.3526293, 42.6316964 ], [ 0.3527684, 42.6320165 ], [ 0.3529439, 42.6327857 ], [ 0.3529462, 42.6330558 ], [ 0.3526498, 42.6336677 ], [ 0.3523628, 42.6342255 ], [ 0.3520864, 42.6345307 ], [ 0.3518511, 42.6349158 ], [ 0.3517121, 42.6352801 ], [ 0.3517198, 42.6354239 ], [ 0.3518824, 42.6357252 ], [ 0.3519037, 42.6358957 ], [ 0.3514839, 42.6369345 ], [ 0.3514716, 42.6373851 ], [ 0.351062, 42.6373656 ], [ 0.3510347, 42.6374249 ], [ 0.3487472, 42.6372938 ], [ 0.3480058, 42.6373425 ], [ 0.3463697, 42.6372058 ], [ 0.3464337, 42.6373615 ], [ 0.346304, 42.6376715 ], [ 0.3456831, 42.638374 ], [ 0.3454633, 42.6385965 ], [ 0.3452927, 42.6388266 ], [ 0.3451762, 42.6391542 ], [ 0.3451448, 42.6394793 ], [ 0.3452354, 42.64026 ], [ 0.3455933, 42.6414742 ], [ 0.3458521, 42.6419798 ], [ 0.3459726, 42.6426336 ], [ 0.3460728, 42.6429098 ], [ 0.3463915, 42.6433957 ], [ 0.3465865, 42.6440743 ], [ 0.3468172, 42.6445088 ], [ 0.347255, 42.6447121 ], [ 0.3476732, 42.6450061 ], [ 0.3481489, 42.6454604 ], [ 0.3483013, 42.645573 ], [ 0.348383, 42.6457326 ], [ 0.3483928, 42.6459124 ], [ 0.3476408, 42.6464477 ], [ 0.3474941, 42.6466681 ], [ 0.3474443, 42.6468766 ], [ 0.3476434, 42.647177 ], [ 0.3479365, 42.6474115 ], [ 0.3484931, 42.6477824 ], [ 0.3492168, 42.6480854 ], [ 0.3497764, 42.6482851 ], [ 0.3503828, 42.6484474 ], [ 0.3511367, 42.6488576 ], [ 0.3516496, 42.6488695 ], [ 0.352014, 42.6488409 ], [ 0.3523247, 42.6489488 ], [ 0.3525298, 42.6491319 ], [ 0.3528214, 42.6495645 ], [ 0.3530576, 42.6496477 ], [ 0.3535086, 42.6498686 ], [ 0.353794, 42.6499592 ], [ 0.354494, 42.6500467 ], [ 0.3548837, 42.6500353 ], [ 0.3560396, 42.6502086 ], [ 0.3571082, 42.6505734 ], [ 0.3576655, 42.6507281 ], [ 0.3584093, 42.6509494 ], [ 0.3587356, 42.6511199 ], [ 0.3591651, 42.6516205 ], [ 0.3595216, 42.6518982 ], [ 0.3600458, 42.6518918 ], [ 0.3604282, 42.6519706 ], [ 0.3614744, 42.6523721 ], [ 0.3616181, 42.652548 ], [ 0.362133, 42.6528209 ], [ 0.3625582, 42.6530155 ], [ 0.3629396, 42.6533015 ], [ 0.3630847, 42.6535043 ], [ 0.3633034, 42.653714 ], [ 0.3635825, 42.6539129 ], [ 0.3637879, 42.6541049 ], [ 0.3640481, 42.6541783 ], [ 0.364373, 42.6543218 ], [ 0.3648411, 42.6548573 ], [ 0.3649998, 42.6550868 ], [ 0.3651416, 42.6552267 ], [ 0.3657095, 42.655354 ], [ 0.3660579, 42.6554789 ], [ 0.3663725, 42.6556587 ], [ 0.3669264, 42.6562007 ], [ 0.3672074, 42.6564355 ], [ 0.3674558, 42.6567433 ], [ 0.3675712, 42.6572982 ], [ 0.3676393, 42.6578815 ], [ 0.3676841, 42.6580333 ], [ 0.367803, 42.6582009 ], [ 0.3684251, 42.6584257 ], [ 0.3687748, 42.6588025 ], [ 0.368941, 42.6589417 ], [ 0.3694452, 42.6590169 ], [ 0.3705424, 42.6590026 ], [ 0.3715596, 42.6588646 ], [ 0.3726408, 42.6585535 ], [ 0.3745891, 42.6578117 ], [ 0.3756974, 42.6575539 ], [ 0.3766245, 42.6575536 ], [ 0.3776959, 42.657738 ], [ 0.3787141, 42.6580681 ], [ 0.3789608, 42.6582589 ], [ 0.3790418, 42.6583196 ], [ 0.3792968, 42.6584651 ], [ 0.3795063, 42.658504 ], [ 0.3798736, 42.6587542 ], [ 0.3802317, 42.6590588 ], [ 0.3808202, 42.6593385 ], [ 0.3811296, 42.6594194 ], [ 0.3814487, 42.659455 ], [ 0.3817396, 42.6594194 ], [ 0.3823442, 42.6590954 ], [ 0.3828718, 42.6587016 ], [ 0.3831632, 42.6591252 ], [ 0.3835461, 42.659438 ], [ 0.3838418, 42.6594923 ], [ 0.3841098, 42.6594844 ], [ 0.3845186, 42.6593732 ], [ 0.3850661, 42.659123 ], [ 0.3854037, 42.6590499 ], [ 0.3858188, 42.6590556 ], [ 0.386117, 42.6591548 ], [ 0.3862043, 42.6591883 ], [ 0.3864444, 42.6593432 ], [ 0.3866208, 42.6596712 ], [ 0.3867354, 42.6599829 ], [ 0.3869088, 42.6602569 ], [ 0.3872904, 42.6605428 ], [ 0.3889626, 42.6614567 ], [ 0.3892277, 42.6616199 ], [ 0.3894884, 42.6617023 ], [ 0.3903254, 42.6618395 ], [ 0.3908477, 42.6617971 ], [ 0.3910314, 42.6618096 ], [ 0.3911035, 42.6620145 ], [ 0.3912079, 42.6625877 ], [ 0.3913473, 42.6626826 ], [ 0.3916133, 42.6626388 ], [ 0.392008, 42.6627171 ], [ 0.3923559, 42.6630579 ], [ 0.3931614, 42.6636373 ], [ 0.3932347, 42.6636667 ], [ 0.3934094, 42.663738 ], [ 0.3935263, 42.6637841 ], [ 0.3936807, 42.6638606 ], [ 0.3942373, 42.6640016 ], [ 0.3956685, 42.6647425 ], [ 0.3957982, 42.6648827 ], [ 0.3958949, 42.6652715 ], [ 0.3963474, 42.6656273 ], [ 0.3969868, 42.6656488 ], [ 0.3974327, 42.6657706 ], [ 0.3976871, 42.6659612 ], [ 0.3984854, 42.6667298 ], [ 0.3985473, 42.666746 ], [ 0.3988295, 42.6669987 ], [ 0.3993276, 42.6674072 ], [ 0.3995801, 42.6675617 ], [ 0.4001156, 42.6677619 ], [ 0.4005352, 42.6678485 ], [ 0.4007224, 42.667924 ], [ 0.4009793, 42.6683845 ], [ 0.4011612, 42.6685862 ], [ 0.401514, 42.6687919 ], [ 0.4029815, 42.6695226 ], [ 0.4036263, 42.6699356 ], [ 0.4040514, 42.6703461 ], [ 0.4042141, 42.6704223 ], [ 0.4045865, 42.6705373 ], [ 0.4047646, 42.6711173 ], [ 0.4048704, 42.6712672 ], [ 0.4052934, 42.6714167 ], [ 0.4056287, 42.6715238 ], [ 0.405871, 42.6717147 ], [ 0.40599, 42.6718822 ], [ 0.4060237, 42.6720523 ], [ 0.4059853, 42.6722425 ], [ 0.405829, 42.6725083 ], [ 0.4058247, 42.6726525 ], [ 0.4059411, 42.6727751 ], [ 0.40618, 42.672903 ], [ 0.406335, 42.6730605 ], [ 0.4067219, 42.6738864 ], [ 0.4068283, 42.6742704 ], [ 0.4069163, 42.6749881 ], [ 0.4071909, 42.6764387 ], [ 0.4071947, 42.6771769 ], [ 0.4074167, 42.6776655 ], [ 0.4075454, 42.6777878 ], [ 0.407912, 42.67802 ], [ 0.4083331, 42.6781335 ], [ 0.4091551, 42.6779919 ], [ 0.4094466, 42.6779652 ], [ 0.4098515, 42.6780071 ], [ 0.4100646, 42.6781089 ], [ 0.4102191, 42.6782573 ], [ 0.4102899, 42.6784353 ], [ 0.410359, 42.6792526 ], [ 0.4103162, 42.679362 ], [ 0.4102013, 42.6794915 ], [ 0.4101682, 42.6797806 ], [ 0.4102897, 42.6799931 ], [ 0.4104585, 42.6801771 ], [ 0.4106618, 42.6803241 ], [ 0.4107621, 42.68015 ], [ 0.4109476, 42.6799734 ], [ 0.4111713, 42.6798228 ], [ 0.4122063, 42.6795577 ], [ 0.4127904, 42.6793062 ], [ 0.41299, 42.6792732 ], [ 0.4142987, 42.6783247 ], [ 0.4149768, 42.6780073 ], [ 0.4160749, 42.6773352 ], [ 0.4166457, 42.6768409 ], [ 0.4173121, 42.6765328 ], [ 0.4182142, 42.6758486 ], [ 0.4194969, 42.6752069 ], [ 0.4195641, 42.6752229 ], [ 0.4200644, 42.6748748 ], [ 0.4205535, 42.6746711 ], [ 0.4209023, 42.6745796 ], [ 0.421447, 42.6745003 ], [ 0.4219241, 42.674522 ], [ 0.4230598, 42.6747582 ], [ 0.4249871, 42.6754118 ], [ 0.4262406, 42.6755724 ], [ 0.4274414, 42.6756625 ], [ 0.4280321, 42.6757528 ], [ 0.4284898, 42.6758652 ], [ 0.4290011, 42.676066 ], [ 0.4308683, 42.6769554 ], [ 0.4317727, 42.6774235 ], [ 0.432737, 42.6778718 ], [ 0.4338898, 42.6781973 ], [ 0.435158, 42.6784024 ], [ 0.4354037, 42.678431 ], [ 0.4356406, 42.6785229 ], [ 0.435963, 42.6788374 ], [ 0.4362241, 42.6791447 ], [ 0.4366384, 42.6797986 ], [ 0.4372932, 42.6806073 ], [ 0.4387245, 42.6819959 ], [ 0.4388811, 42.6821804 ], [ 0.4390375, 42.6825808 ], [ 0.4396252, 42.6830584 ], [ 0.4397341, 42.6832622 ], [ 0.4397309, 42.6834244 ], [ 0.4395921, 42.6835636 ], [ 0.4386887, 42.6837799 ], [ 0.4386425, 42.6837993 ], [ 0.4386932, 42.6838608 ], [ 0.4382103, 42.6839969 ], [ 0.4379863, 42.6840982 ], [ 0.4373413, 42.6843517 ], [ 0.4364269, 42.6848114 ], [ 0.4362861, 42.6849147 ], [ 0.4360944, 42.6851995 ], [ 0.4359889, 42.6854998 ], [ 0.4361022, 42.6862258 ], [ 0.4363582, 42.6868844 ], [ 0.4364121, 42.6871979 ], [ 0.4364076, 42.6875582 ], [ 0.4364983, 42.6880958 ], [ 0.4365114, 42.6885546 ], [ 0.4364748, 42.6889969 ], [ 0.4362591, 42.6897327 ] ] ] } }
]
}
