{
"type": "FeatureCollection",
"name": "22122",
"features": [
{ "type": "Feature", "properties": { "CCAA": "02 - Aragón", "PROVINCIA": "22 - Huesca", "MUNICIPIO": "22122 - Hoz de Jaca", "COD_MUNICIPIO": "22122", "DISTRITO": "01", "SECCION": "2212201001", "V1_H": 75.48, "V1_M": 82.31, "V2_H": 75.36985678000001, "V2_M": 82.56533706, "V3_H": 75.8600571, "V3_M": 82.01450712 }, "geometry": { "type": "Polygon", "coordinates": [ [ [ -0.2518045, 42.6792205 ], [ -0.2533954, 42.6799521 ], [ -0.2571284, 42.6813743 ], [ -0.2597213, 42.6829132 ], [ -0.2615078, 42.6841986 ], [ -0.2675278, 42.6871971 ], [ -0.2707286, 42.6890833 ], [ -0.2712677, 42.690708 ], [ -0.2724201, 42.6936621 ], [ -0.2727403, 42.6941559 ], [ -0.2830172, 42.7017482 ], [ -0.2847357, 42.701816 ], [ -0.2864711, 42.7023343 ], [ -0.2927509, 42.7030774 ], [ -0.2990023, 42.7036303 ], [ -0.3025405, 42.7036868 ], [ -0.306561, 42.7036013 ], [ -0.3070131, 42.703594 ], [ -0.3094914, 42.7035982 ], [ -0.3099893, 42.7033758 ], [ -0.3104785, 42.702793 ], [ -0.3108089, 42.7019273 ], [ -0.3115716, 42.7009457 ], [ -0.3120781, 42.7005254 ], [ -0.3121687, 42.6992758 ], [ -0.3118784, 42.6980804 ], [ -0.31202, 42.6973453 ], [ -0.3130502, 42.696388 ], [ -0.3133446, 42.6957915 ], [ -0.3137416, 42.6942251 ], [ -0.3136351, 42.6921695 ], [ -0.3133687, 42.6915509 ], [ -0.3131159, 42.6911848 ], [ -0.3130245, 42.6907594 ], [ -0.3133625, 42.6897138 ], [ -0.312267, 42.6882293 ], [ -0.3121644, 42.6877766 ], [ -0.3123557, 42.687304 ], [ -0.3124651, 42.6867483 ], [ -0.3123945, 42.6864044 ], [ -0.3130176, 42.6858247 ], [ -0.3137967, 42.6855908 ], [ -0.3150507, 42.685098 ], [ -0.315539, 42.684245 ], [ -0.3158751, 42.682677 ], [ -0.3157441, 42.6820346 ], [ -0.3149863, 42.6809272 ], [ -0.3156661, 42.678746 ], [ -0.316242, 42.6778411 ], [ -0.3171659, 42.6767912 ], [ -0.3170979, 42.6749706 ], [ -0.3172744, 42.6742724 ], [ -0.3175238, 42.673864 ], [ -0.3181204, 42.6733287 ], [ -0.3194196, 42.673197 ], [ -0.3201698, 42.6730615 ], [ -0.320723, 42.6723991 ], [ -0.3205347, 42.6708189 ], [ -0.3199633, 42.6690675 ], [ -0.3200745, 42.6678996 ], [ -0.3205098, 42.6668562 ], [ -0.3205872, 42.6667589 ], [ -0.3210829, 42.6660141 ], [ -0.3210906, 42.6658342 ], [ -0.3205874, 42.6659035 ], [ -0.3188191, 42.6664474 ], [ -0.3180117, 42.6667796 ], [ -0.3176913, 42.6668532 ], [ -0.3165999, 42.667548 ], [ -0.3149337, 42.6668516 ], [ -0.3147304, 42.6667567 ], [ -0.3124413, 42.6657936 ], [ -0.3118795, 42.6658074 ], [ -0.3111414, 42.6665104 ], [ -0.3106811, 42.6667157 ], [ -0.3099105, 42.6667606 ], [ -0.3097268, 42.6667743 ], [ -0.3095809, 42.6667619 ], [ -0.3085468, 42.6666926 ], [ -0.3082999, 42.6667588 ], [ -0.3080404, 42.6668337 ], [ -0.3078933, 42.6668483 ], [ -0.3075804, 42.66703 ], [ -0.3058668, 42.6677191 ], [ -0.3040142, 42.6682338 ], [ -0.3022445, 42.6685253 ], [ -0.3006917, 42.6685967 ], [ -0.2988849, 42.6697427 ], [ -0.296565, 42.6700571 ], [ -0.2949443, 42.6716937 ], [ -0.2940623, 42.6717719 ], [ -0.2926657, 42.6727384 ], [ -0.2913953, 42.6733297 ], [ -0.2906438, 42.673492 ], [ -0.2890021, 42.6736422 ], [ -0.287822, 42.6738394 ], [ -0.287065, 42.6741276 ], [ -0.2846113, 42.6755462 ], [ -0.2842028, 42.6759598 ], [ -0.2838348, 42.6765633 ], [ -0.2835341, 42.6773036 ], [ -0.2830445, 42.6778953 ], [ -0.2824145, 42.6783486 ], [ -0.2816913, 42.6787006 ], [ -0.2803376, 42.6789566 ], [ -0.278986, 42.6797259 ], [ -0.2772146, 42.6794857 ], [ -0.2760198, 42.6794572 ], [ -0.2750862, 42.6795971 ], [ -0.2737136, 42.6802848 ], [ -0.271986, 42.6796043 ], [ -0.2704994, 42.6792717 ], [ -0.2696243, 42.6791878 ], [ -0.2679776, 42.6794457 ], [ -0.2664529, 42.6794272 ], [ -0.2647056, 42.6791964 ], [ -0.2623137, 42.6791932 ], [ -0.2613978, 42.6786491 ], [ -0.2597474, 42.6781593 ], [ -0.2584032, 42.6781992 ], [ -0.257639, 42.67837 ], [ -0.256933, 42.6786052 ], [ -0.2554306, 42.6789113 ], [ -0.2518045, 42.6792205 ] ] ] } }
]
}
