{
"type": "FeatureCollection",
"name": "22165",
"features": [
{ "type": "Feature", "properties": { "CCAA": "02 - Aragón", "PROVINCIA": "22 - Huesca", "MUNICIPIO": "22165 - Ontiñena", "COD_MUNICIPIO": "22165", "DISTRITO": "01", "SECCION": "2216501001", "V1_H": 80.91, "V1_M": 86.7, "V2_H": 80.91796575, "V2_M": 86.73459974, "V3_H": 81.00259482, "V3_M": 86.81948346 }, "geometry": { "type": "Polygon", "coordinates": [ [ [ 0.1247777, 41.676866 ], [ 0.1232077, 41.6779353 ], [ 0.1221329, 41.678559 ], [ 0.1213546, 41.6788593 ], [ 0.1209131, 41.6791684 ], [ 0.1205407, 41.6796649 ], [ 0.1201956, 41.6799804 ], [ 0.1198083, 41.6801711 ], [ 0.1150931, 41.6815329 ], [ 0.1121261, 41.6825319 ], [ 0.1107522, 41.6829384 ], [ 0.1084899, 41.6833599 ], [ 0.1080521, 41.6834978 ], [ 0.1033813, 41.6857946 ], [ 0.1003472, 41.6871553 ], [ 0.0960609, 41.6889641 ], [ 0.091705, 41.6905764 ], [ 0.0900381, 41.6911437 ], [ 0.0897415, 41.6912237 ], [ 0.0884376, 41.6915919 ], [ 0.0836937, 41.692638 ], [ 0.0804174, 41.6932213 ], [ 0.0764121, 41.6941392 ], [ 0.0745612, 41.6946301 ], [ 0.0708913, 41.6952777 ], [ 0.0692275, 41.6954122 ], [ 0.0671523, 41.6954857 ], [ 0.0632821, 41.6959673 ], [ 0.0597458, 41.6961427 ], [ 0.0553635, 41.6964665 ], [ 0.0489421, 41.6971235 ], [ 0.0455871, 41.697834 ], [ 0.0443564, 41.6982359 ], [ 0.0430709, 41.6987473 ], [ 0.0402319, 41.7002094 ], [ 0.0360466, 41.7021753 ], [ 0.031868, 41.7040328 ], [ 0.0307266, 41.7045493 ], [ 0.0304068, 41.7038823 ], [ 0.0301924, 41.7034106 ], [ 0.0301269, 41.7032953 ], [ 0.0280394, 41.699532 ], [ 0.0274629, 41.6982593 ], [ 0.0269107, 41.696734 ], [ 0.0267346, 41.6960542 ], [ 0.0264649, 41.6956831 ], [ 0.0260772, 41.6953601 ], [ 0.0250579, 41.6948916 ], [ 0.0247928, 41.6946194 ], [ 0.0247785, 41.6943136 ], [ 0.0252717, 41.6938143 ], [ 0.0249243, 41.6935803 ], [ 0.0231011, 41.693133 ], [ 0.0219507, 41.692686 ], [ 0.0214586, 41.6921856 ], [ 0.0205009, 41.6914904 ], [ 0.0200735, 41.6910873 ], [ 0.019947, 41.6906944 ], [ 0.0199247, 41.6902177 ], [ 0.019811, 41.6898425 ], [ 0.0166799, 41.685575 ], [ 0.0156318, 41.6839725 ], [ 0.0144262, 41.6828515 ], [ 0.0143477, 41.6824573 ], [ 0.0143726, 41.6819613 ], [ 0.0141941, 41.6812275 ], [ 0.0140466, 41.6808982 ], [ 0.0137618, 41.6807165 ], [ 0.0122697, 41.6804045 ], [ 0.0117655, 41.6801565 ], [ 0.011513, 41.679893 ], [ 0.0113575, 41.6793927 ], [ 0.0115694, 41.6782705 ], [ 0.0113546, 41.6770153 ], [ 0.0109453, 41.6767379 ], [ 0.0097275, 41.6763825 ], [ 0.0091746, 41.6761179 ], [ 0.0086104, 41.6756103 ], [ 0.0066241, 41.6747438 ], [ 0.003671, 41.6729749 ], [ 0.0010613, 41.6710979 ], [ 0.0008332, 41.6708427 ], [ 0.000647, 41.669938 ], [ -0.0003918, 41.669812 ], [ -0.0012184, 41.6695995 ], [ -0.0016135, 41.6693667 ], [ -0.00214, 41.6688941 ], [ -0.0028409, 41.6685431 ], [ -0.0039839, 41.6682398 ], [ -0.0056462, 41.6668422 ], [ -0.0055908, 41.6667416 ], [ -0.0052022, 41.6660561 ], [ -0.0052298, 41.6654625 ], [ -0.0050743, 41.6651882 ], [ -0.0047308, 41.664828 ], [ -0.0046576, 41.664592 ], [ -0.0046851, 41.6642595 ], [ -0.0049572, 41.6635731 ], [ -0.0053385, 41.6628626 ], [ -0.0058502, 41.661408 ], [ -0.0064995, 41.6603533 ], [ -0.0092837, 41.657544 ], [ -0.0118006, 41.6553131 ], [ -0.0130591, 41.654067 ], [ -0.0139332, 41.6530811 ], [ -0.0147092, 41.6523988 ], [ -0.0154269, 41.6519402 ], [ -0.0160617, 41.6517135 ], [ -0.0165932, 41.6516462 ], [ -0.0168876, 41.6515098 ], [ -0.0171917, 41.6511665 ], [ -0.0175908, 41.6508436 ], [ -0.0182211, 41.6507159 ], [ -0.019504, 41.6507582 ], [ -0.0201974, 41.6510824 ], [ -0.0208181, 41.6509004 ], [ -0.0210494, 41.6508344 ], [ -0.0225663, 41.6510088 ], [ -0.0237561, 41.6509856 ], [ -0.0242044, 41.6508981 ], [ -0.0245857, 41.6507009 ], [ -0.0254149, 41.6499028 ], [ -0.0261275, 41.6495521 ], [ -0.026943, 41.649312 ], [ -0.0277308, 41.6491523 ], [ -0.0289251, 41.6490301 ], [ -0.0310056, 41.6489578 ], [ -0.0312848, 41.648893 ], [ -0.0316648, 41.6484616 ], [ -0.0318778, 41.6480078 ], [ -0.0319949, 41.6475515 ], [ -0.03197, 41.6470465 ], [ -0.0316665, 41.6465974 ], [ -0.0303974, 41.645736 ], [ -0.0297626, 41.6451793 ], [ -0.0280382, 41.644036 ], [ -0.0264199, 41.642418 ], [ -0.0260713, 41.6419047 ], [ -0.0253065, 41.6400027 ], [ -0.0246375, 41.639409 ], [ -0.0244039, 41.6392678 ], [ -0.0239644, 41.6391664 ], [ -0.0228889, 41.6393186 ], [ -0.0224816, 41.639299 ], [ -0.0221373, 41.6392181 ], [ -0.0208114, 41.6382921 ], [ -0.0207762, 41.6382732 ], [ -0.0192512, 41.6361983 ], [ -0.0183141, 41.6351743 ], [ -0.0178627, 41.6348113 ], [ -0.0155464, 41.6334994 ], [ -0.0145469, 41.632789 ], [ -0.0132737, 41.6317653 ], [ -0.0118989, 41.6308649 ], [ -0.0106129, 41.6306423 ], [ -0.0101528, 41.6304683 ], [ -0.0088169, 41.6295059 ], [ -0.0081011, 41.6286317 ], [ -0.0080104, 41.6282601 ], [ -0.0080795, 41.6278026 ], [ -0.0078865, 41.6275634 ], [ -0.0074558, 41.627273 ], [ -0.0072679, 41.6269259 ], [ -0.0069695, 41.6255942 ], [ -0.006798, 41.6254097 ], [ -0.0063433, 41.6251187 ], [ -0.0058431, 41.6250336 ], [ -0.0043566, 41.6242203 ], [ -0.0031523, 41.6232703 ], [ -0.0028995, 41.6230295 ], [ -0.0023153, 41.6221678 ], [ -0.0010562, 41.6211083 ], [ -0.0002019, 41.6208968 ], [ -0.0000702, 41.6206322 ], [ -0.0002815, 41.6194399 ], [ -0.0005505, 41.6188165 ], [ -0.001771, 41.6170833 ], [ -0.0043252, 41.6142771 ], [ -0.0046609, 41.6137635 ], [ -0.0055225, 41.6120028 ], [ -0.005783, 41.6105236 ], [ -0.0062269, 41.6092294 ], [ -0.0066004, 41.6084196 ], [ -0.0081227, 41.6061178 ], [ -0.0087637, 41.6047115 ], [ -0.0089623, 41.6040503 ], [ -0.010325, 41.601303 ], [ -0.0105029, 41.6008303 ], [ -0.010454, 41.5995502 ], [ -0.0105101, 41.5988582 ], [ -0.0107659, 41.5982525 ], [ -0.0127314, 41.5951786 ], [ -0.0150025, 41.5922387 ], [ -0.0157232, 41.5914379 ], [ -0.0167236, 41.5908155 ], [ -0.0177772, 41.5903386 ], [ -0.0184607, 41.5898249 ], [ -0.0195255, 41.588844 ], [ -0.0208175, 41.5884001 ], [ -0.021488, 41.5881654 ], [ -0.0218474, 41.5879135 ], [ -0.0220417, 41.5876034 ], [ -0.0220409, 41.587099 ], [ -0.0218625, 41.5860227 ], [ -0.0218518, 41.5857343 ], [ -0.022279, 41.5850519 ], [ -0.023687, 41.5833863 ], [ -0.0261852, 41.580443 ], [ -0.0269089, 41.579309 ], [ -0.027379, 41.5782135 ], [ -0.0275208, 41.5774787 ], [ -0.0275855, 41.5763276 ], [ -0.0274524, 41.5732171 ], [ -0.0275086, 41.5725162 ], [ -0.0277349, 41.5715044 ], [ -0.02796, 41.5710419 ], [ -0.0288909, 41.5700933 ], [ -0.029878, 41.5692273 ], [ -0.0306066, 41.5679853 ], [ -0.0311781, 41.5672886 ], [ -0.0316803, 41.5667972 ], [ -0.0343444, 41.565182 ], [ -0.0350997, 41.5646611 ], [ -0.0356634, 41.5641353 ], [ -0.0365817, 41.5629342 ], [ -0.0375364, 41.5622473 ], [ -0.0379756, 41.5612951 ], [ -0.0385108, 41.5608676 ], [ -0.0396677, 41.5596906 ], [ -0.0405391, 41.5584612 ], [ -0.0411216, 41.5572605 ], [ -0.0412766, 41.55649 ], [ -0.0412538, 41.5541028 ], [ -0.041171, 41.5535513 ], [ -0.0413559, 41.5529166 ], [ -0.0427222, 41.55161 ], [ -0.0444997, 41.5494403 ], [ -0.0455306, 41.5478638 ], [ -0.0459935, 41.546912 ], [ -0.0459657, 41.54647 ], [ -0.0458082, 41.5459796 ], [ -0.0451977, 41.5449103 ], [ -0.0440495, 41.5424852 ], [ -0.043998, 41.5415112 ], [ -0.0444561, 41.5398749 ], [ -0.0447614, 41.5392253 ], [ -0.0450944, 41.5387566 ], [ -0.0461015, 41.5379629 ], [ -0.048373, 41.5370397 ], [ -0.0490177, 41.5368311 ], [ -0.049644, 41.5367661 ], [ -0.0506963, 41.5368202 ], [ -0.0513416, 41.5368637 ], [ -0.0519922, 41.5367904 ], [ -0.0588679, 41.536093 ], [ -0.0531781, 41.5339029 ], [ -0.050114, 41.5353913 ], [ -0.0478097, 41.5365119 ], [ -0.0432965, 41.5384942 ], [ -0.0401432, 41.5400881 ], [ -0.0380151, 41.5410149 ], [ -0.0346209, 41.5423683 ], [ -0.0324403, 41.5433927 ], [ -0.0305912, 41.5445067 ], [ -0.0248114, 41.5474192 ], [ -0.0240459, 41.5479037 ], [ -0.0227956, 41.5485016 ], [ -0.0208137, 41.5491077 ], [ -0.0197071, 41.5494483 ], [ -0.0132877, 41.5516501 ], [ -0.0110876, 41.5525655 ], [ -0.0106189, 41.5528505 ], [ -0.0104958, 41.5529193 ], [ -0.0092812, 41.5535182 ], [ -0.0025197, 41.5568812 ], [ -0.0012629, 41.5573527 ], [ 0.0021286, 41.5580927 ], [ 0.0106266, 41.5600948 ], [ 0.0144413, 41.560391 ], [ 0.0163732, 41.5604214 ], [ 0.0169415, 41.5605236 ], [ 0.0199704, 41.5606781 ], [ 0.0224381, 41.5606312 ], [ 0.0228422, 41.5608097 ], [ 0.0233983, 41.5611643 ], [ 0.0249459, 41.5609255 ], [ 0.0253796, 41.5609681 ], [ 0.0257456, 41.5611025 ], [ 0.0265599, 41.5621077 ], [ 0.028573, 41.5643872 ], [ 0.0296906, 41.5654654 ], [ 0.030303, 41.5662508 ], [ 0.0313634, 41.5671324 ], [ 0.035151, 41.5691397 ], [ 0.037161, 41.5703204 ], [ 0.0375351, 41.5706257 ], [ 0.0379282, 41.5713358 ], [ 0.0380923, 41.5715116 ], [ 0.0395744, 41.5724269 ], [ 0.0404792, 41.5730514 ], [ 0.0407429, 41.5733056 ], [ 0.04113, 41.5741419 ], [ 0.0414079, 41.5744407 ], [ 0.0419651, 41.5748132 ], [ 0.0424439, 41.5753049 ], [ 0.0425871, 41.5755443 ], [ 0.0428748, 41.5765633 ], [ 0.043586, 41.5776611 ], [ 0.044655, 41.5787135 ], [ 0.0478278, 41.5808898 ], [ 0.0492611, 41.5825448 ], [ 0.0495199, 41.5826911 ], [ 0.0498596, 41.5827721 ], [ 0.0507361, 41.583046 ], [ 0.0512095, 41.5834207 ], [ 0.0514957, 41.5836382 ], [ 0.052117, 41.5846033 ], [ 0.0528054, 41.5854676 ], [ 0.0540514, 41.5864521 ], [ 0.0554016, 41.5878661 ], [ 0.0558469, 41.5881515 ], [ 0.0578088, 41.5890539 ], [ 0.059325, 41.5899141 ], [ 0.0610678, 41.5910023 ], [ 0.0658878, 41.5942419 ], [ 0.0711348, 41.5981273 ], [ 0.0722003, 41.5990894 ], [ 0.0728066, 41.5997306 ], [ 0.0762399, 41.6025475 ], [ 0.0769588, 41.6027804 ], [ 0.0780861, 41.6032726 ], [ 0.0790499, 41.6041113 ], [ 0.0798883, 41.6045841 ], [ 0.0823026, 41.605645 ], [ 0.0833409, 41.6062836 ], [ 0.0849105, 41.6074932 ], [ 0.0867172, 41.6088946 ], [ 0.0905492, 41.6114932 ], [ 0.0910509, 41.611948 ], [ 0.0928256, 41.6141787 ], [ 0.0937441, 41.6155678 ], [ 0.0955183, 41.6180326 ], [ 0.0963305, 41.6189562 ], [ 0.0971535, 41.6196005 ], [ 0.0986292, 41.620092 ], [ 0.1030147, 41.6209462 ], [ 0.1033812, 41.6210804 ], [ 0.1036772, 41.6214956 ], [ 0.1039011, 41.6216607 ], [ 0.1045407, 41.6217334 ], [ 0.1064874, 41.6222842 ], [ 0.1090736, 41.6234029 ], [ 0.1104307, 41.6241676 ], [ 0.1133565, 41.6261056 ], [ 0.1142391, 41.626487 ], [ 0.1152766, 41.6268461 ], [ 0.117924, 41.6274857 ], [ 0.1214606, 41.6291366 ], [ 0.1225836, 41.6297725 ], [ 0.1232557, 41.6302675 ], [ 0.1237687, 41.630947 ], [ 0.1241808, 41.6317733 ], [ 0.1244692, 41.6327741 ], [ 0.1245433, 41.6333124 ], [ 0.1244607, 41.6350798 ], [ 0.124546, 41.6358519 ], [ 0.1251132, 41.6378988 ], [ 0.1261061, 41.6405554 ], [ 0.1276054, 41.6435044 ], [ 0.1306417, 41.6486809 ], [ 0.1315706, 41.6497633 ], [ 0.1326592, 41.6506701 ], [ 0.1339476, 41.652229 ], [ 0.1346951, 41.6537755 ], [ 0.1348186, 41.6548348 ], [ 0.1346652, 41.6561268 ], [ 0.1344867, 41.6581399 ], [ 0.1345624, 41.6589573 ], [ 0.1349091, 41.6596683 ], [ 0.1359821, 41.6609898 ], [ 0.1366453, 41.6620344 ], [ 0.136759, 41.6626436 ], [ 0.1369665, 41.6637006 ], [ 0.1334944, 41.6639215 ], [ 0.1319213, 41.6641716 ], [ 0.1305878, 41.6646582 ], [ 0.1302017, 41.6648669 ], [ 0.1292883, 41.6658464 ], [ 0.1291468, 41.6661474 ], [ 0.1290436, 41.6667446 ], [ 0.1288085, 41.668336 ], [ 0.1288527, 41.6694965 ], [ 0.1285533, 41.6709996 ], [ 0.1278265, 41.6718659 ], [ 0.1261829, 41.6726491 ], [ 0.1256704, 41.6729783 ], [ 0.125492, 41.6732623 ], [ 0.1254034, 41.6734178 ], [ 0.1249643, 41.6745195 ], [ 0.1242234, 41.6743505 ], [ 0.1237323, 41.6741297 ], [ 0.1232456, 41.674251 ], [ 0.1223662, 41.6749414 ], [ 0.1229286, 41.6753943 ], [ 0.1231515, 41.6755324 ], [ 0.123846, 41.6759818 ], [ 0.1240475, 41.6761744 ], [ 0.1247777, 41.676866 ] ] ] } }
]
}
