{
"type": "FeatureCollection",
"name": "23030",
"features": [
{ "type": "Feature", "properties": { "CCAA": "01 - Andalucía", "PROVINCIA": "23 - Jaén", "MUNICIPIO": "23030 - Chilluévar", "COD_MUNICIPIO": "23030", "DISTRITO": "01", "SECCION": "2303001001", "V1_H": 78.2, "V1_M": 84.44, "V2_H": 78.32882893, "V2_M": 84.51506174, "V3_H": 78.2023938, "V3_M": 84.51669805 }, "geometry": { "type": "Polygon", "coordinates": [ [ [ -2.9635987, 38.00541 ], [ -2.9640314, 38.0055183 ], [ -2.9640315, 38.0055183 ], [ -2.9671067, 38.0059699 ], [ -2.9686102, 38.0061957 ], [ -2.9691797, 38.006322 ], [ -2.9695896, 38.0066105 ], [ -2.9704436, 38.0074399 ], [ -2.9704437, 38.00744 ], [ -2.970842, 38.0079808 ], [ -2.9712975, 38.0084767 ], [ -2.9717872, 38.0088013 ], [ -2.9727895, 38.0091801 ], [ -2.9727896, 38.0091801 ], [ -2.9739513, 38.0095229 ], [ -2.9751245, 38.0097124 ], [ -2.9765597, 38.0100732 ], [ -2.9765598, 38.0100732 ], [ -2.9769243, 38.0101274 ], [ -2.9771748, 38.0102175 ], [ -2.9796347, 38.0125164 ], [ -2.9805002, 38.013589 ], [ -2.9805457, 38.0140397 ], [ -2.9805, 38.0144814 ], [ -2.9808986, 38.0149411 ], [ -2.9811377, 38.0153737 ], [ -2.9813314, 38.015572 ], [ -2.9814111, 38.0156036 ], [ -2.9816047, 38.0156802 ], [ -2.9816048, 38.0156802 ], [ -2.9820148, 38.0156984 ], [ -2.9820149, 38.0156984 ], [ -2.9825503, 38.0156353 ], [ -2.9830324, 38.0156953 ], [ -2.9831313, 38.0157076 ], [ -2.9831313, 38.0157076 ], [ -2.9841908, 38.0159331 ], [ -2.9844812, 38.0160382 ], [ -2.9845894, 38.0160773 ], [ -2.9854781, 38.0158611 ], [ -2.9864123, 38.0154377 ], [ -2.987449, 38.0150683 ], [ -2.9874491, 38.0150683 ], [ -2.9892035, 38.0150865 ], [ -2.9892035, 38.0150865 ], [ -2.9899554, 38.0149604 ], [ -2.9903542, 38.0147531 ], [ -2.9906732, 38.0142935 ], [ -2.9907302, 38.0136806 ], [ -2.9906733, 38.0132931 ], [ -2.9912998, 38.0130408 ], [ -2.9915733, 38.0126983 ], [ -2.9919949, 38.0119683 ], [ -2.9921658, 38.0115717 ], [ -2.9923936, 38.0114095 ], [ -2.9923937, 38.0114095 ], [ -2.9931455, 38.0113285 ], [ -2.9931455, 38.0113284 ], [ -2.9943986, 38.0110582 ], [ -2.9943987, 38.0110582 ], [ -2.9947404, 38.0110222 ], [ -2.9953783, 38.0113286 ], [ -2.9966654, 38.0121759 ], [ -2.9981692, 38.012915 ], [ -3.0012678, 38.0152855 ], [ -3.0043096, 38.0173134 ], [ -3.0043097, 38.0173134 ], [ -3.0047995, 38.0174216 ], [ -3.0047996, 38.0174216 ], [ -3.0051527, 38.0174306 ], [ -3.0054337, 38.0173461 ], [ -3.0057223, 38.0172593 ], [ -3.0092766, 38.015763 ], [ -3.0092766, 38.015763 ], [ -3.0097778, 38.0156728 ], [ -3.0097778, 38.0156728 ], [ -3.0099673, 38.0156779 ], [ -3.0151549, 38.0158165 ], [ -3.0175588, 38.0160145 ], [ -3.0184246, 38.0159784 ], [ -3.0184247, 38.0159784 ], [ -3.0207145, 38.0162755 ], [ -3.0207146, 38.0162755 ], [ -3.0209423, 38.0162484 ], [ -3.0209424, 38.0162484 ], [ -3.021455, 38.0162033 ], [ -3.0219562, 38.0160049 ], [ -3.0222524, 38.0159508 ], [ -3.0222525, 38.0159508 ], [ -3.0226284, 38.0160318 ], [ -3.0232209, 38.0163021 ], [ -3.023221, 38.0163021 ], [ -3.0234829, 38.0163201 ], [ -3.0239044, 38.0162299 ], [ -3.0239044, 38.0162299 ], [ -3.0242689, 38.0162929 ], [ -3.0246906, 38.0164551 ], [ -3.0246906, 38.0164551 ], [ -3.0251805, 38.0165541 ], [ -3.0251805, 38.0165541 ], [ -3.0258297, 38.0163287 ], [ -3.026085, 38.0163058 ], [ -3.0264336, 38.0162745 ], [ -3.027101, 38.0164403 ], [ -3.0276298, 38.0165717 ], [ -3.0278422, 38.0166068 ], [ -3.0281197, 38.0166527 ], [ -3.0281198, 38.0166527 ], [ -3.0285984, 38.01695 ], [ -3.0285984, 38.01695 ], [ -3.0287123, 38.016977 ], [ -3.0287123, 38.016977 ], [ -3.0297947, 38.0173373 ], [ -3.0301595, 38.017878 ], [ -3.0302792, 38.0179095 ], [ -3.0303988, 38.017941 ], [ -3.0364282, 38.0180095 ], [ -3.0366078, 38.0180115 ], [ -3.0369723, 38.0179032 ], [ -3.0373709, 38.0176237 ], [ -3.0408782, 38.0146303 ], [ -3.0413679, 38.0143328 ], [ -3.0421423, 38.013981 ], [ -3.0440901, 38.0133494 ], [ -3.0452517, 38.0128353 ], [ -3.0463791, 38.0121949 ], [ -3.0471078, 38.0116899 ], [ -3.0477114, 38.0114103 ], [ -3.0494539, 38.0108148 ], [ -3.0515268, 38.0101921 ], [ -3.0522782, 38.0095608 ], [ -3.0527108, 38.0092813 ], [ -3.0527109, 38.0092813 ], [ -3.0533258, 38.0091007 ], [ -3.0535679, 38.0090658 ], [ -3.0539523, 38.0090104 ], [ -3.0544649, 38.0090552 ], [ -3.0549207, 38.0091811 ], [ -3.0568912, 38.0089639 ], [ -3.0573354, 38.0088917 ], [ -3.0589184, 38.0083591 ], [ -3.060376, 38.0077996 ], [ -3.0609567, 38.0075019 ], [ -3.0615487, 38.007096 ], [ -3.0618446, 38.0067984 ], [ -3.0621861, 38.0065729 ], [ -3.0629263, 38.0063473 ], [ -3.0629264, 38.0063473 ], [ -3.0633516, 38.0063006 ], [ -3.0646576, 38.0061571 ], [ -3.0649208, 38.0060962 ], [ -3.0652042, 38.0060306 ], [ -3.0656825, 38.0058411 ], [ -3.0662403, 38.0055164 ], [ -3.0662404, 38.0055163 ], [ -3.0664005, 38.0054402 ], [ -3.0671511, 38.0050832 ], [ -3.0681305, 38.0047222 ], [ -3.0681305, 38.0047222 ], [ -3.0700322, 38.0041984 ], [ -3.073391, 38.0027633 ], [ -3.0737781, 38.0025558 ], [ -3.0749168, 38.0022216 ], [ -3.0753495, 38.0020141 ], [ -3.0759868, 38.0016261 ], [ -3.0775688, 38.0004264 ], [ -3.0778078, 38.0001829 ], [ -3.077933, 38.0001017 ], [ -3.0785363, 37.9997047 ], [ -3.0797202, 37.9991722 ], [ -3.0818491, 37.9983056 ], [ -3.081963, 37.9982604 ], [ -3.0837047, 37.9974751 ], [ -3.0848203, 37.9968885 ], [ -3.0863339, 37.995896 ], [ -3.0872444, 37.9953997 ], [ -3.0869936, 37.9951565 ], [ -3.0868804, 37.9950995 ], [ -3.0867429, 37.9950304 ], [ -3.0863102, 37.9950939 ], [ -3.0863102, 37.9950939 ], [ -3.0861279, 37.995076 ], [ -3.0859, 37.9949409 ], [ -3.0857288, 37.9946076 ], [ -3.085717, 37.9942741 ], [ -3.0859781, 37.9935258 ], [ -3.0860459, 37.9931292 ], [ -3.085886, 37.9927057 ], [ -3.0849739, 37.991814 ], [ -3.0847457, 37.9915077 ], [ -3.0845178, 37.9913367 ], [ -3.084176, 37.9912558 ], [ -3.084176, 37.9912558 ], [ -3.083254, 37.991653 ], [ -3.0830832, 37.9916802 ], [ -3.082536, 37.9912299 ], [ -3.0823306, 37.9908064 ], [ -3.0823306, 37.9908064 ], [ -3.0823646, 37.9906712 ], [ -3.082558, 37.9905268 ], [ -3.0830817, 37.9902921 ], [ -3.0832294, 37.9900217 ], [ -3.0831835, 37.9896882 ], [ -3.0823627, 37.9889316 ], [ -3.082226, 37.9889137 ], [ -3.082226, 37.9889137 ], [ -3.0816226, 37.9890403 ], [ -3.0816225, 37.9890403 ], [ -3.0811556, 37.9889865 ], [ -3.0811556, 37.9889865 ], [ -3.0809846, 37.9889235 ], [ -3.0808137, 37.9887434 ], [ -3.0808136, 37.9887434 ], [ -3.0808246, 37.9883649 ], [ -3.0810859, 37.9877338 ], [ -3.0810857, 37.9875355 ], [ -3.0809601, 37.9872832 ], [ -3.0811191, 37.9868955 ], [ -3.0811191, 37.9868955 ], [ -3.0810162, 37.9865712 ], [ -3.0805601, 37.9860577 ], [ -3.0808333, 37.9859223 ], [ -3.0810948, 37.9854895 ], [ -3.0812655, 37.9854083 ], [ -3.0811853, 37.9850028 ], [ -3.0806839, 37.9846877 ], [ -3.0801709, 37.9841832 ], [ -3.0794524, 37.9831652 ], [ -3.0790764, 37.98285 ], [ -3.0790763, 37.98285 ], [ -3.0787917, 37.9828682 ], [ -3.0787917, 37.9828682 ], [ -3.0785867, 37.9828233 ], [ -3.0785866, 37.9828233 ], [ -3.0778913, 37.9821748 ], [ -3.0779364, 37.9816971 ], [ -3.078289, 37.9813273 ], [ -3.0783457, 37.981138 ], [ -3.0781405, 37.9809038 ], [ -3.0779817, 37.9808848 ], [ -3.0773889, 37.9808141 ], [ -3.0770471, 37.9806881 ], [ -3.0764883, 37.9798593 ], [ -3.0760781, 37.9795351 ], [ -3.076078, 37.9795351 ], [ -3.0759183, 37.9792287 ], [ -3.0759183, 37.9792287 ], [ -3.075483, 37.9766332 ], [ -3.0752318, 37.9759214 ], [ -3.0748556, 37.975525 ], [ -3.0721667, 37.9736339 ], [ -3.0719159, 37.9733727 ], [ -3.070663, 37.9729498 ], [ -3.0703783, 37.9727877 ], [ -3.070264, 37.9724273 ], [ -3.0702296, 37.9720757 ], [ -3.0703656, 37.9714898 ], [ -3.0703537, 37.9709941 ], [ -3.0701257, 37.9706698 ], [ -3.0696133, 37.9704357 ], [ -3.0696132, 37.9704357 ], [ -3.0689985, 37.9705262 ], [ -3.0689985, 37.9705262 ], [ -3.0683839, 37.9707068 ], [ -3.0683838, 37.9707068 ], [ -3.0682357, 37.9706167 ], [ -3.0681899, 37.9703374 ], [ -3.0682923, 37.9702292 ], [ -3.0692026, 37.9697239 ], [ -3.0694075, 37.9695526 ], [ -3.0694642, 37.9692822 ], [ -3.0692472, 37.9686423 ], [ -3.0689055, 37.9684352 ], [ -3.0689055, 37.9684352 ], [ -3.0686528, 37.9683331 ], [ -3.0684157, 37.9682372 ], [ -3.0678807, 37.9682736 ], [ -3.0678806, 37.9682736 ], [ -3.0669131, 37.9684904 ], [ -3.0669131, 37.9684904 ], [ -3.0664349, 37.9684096 ], [ -3.066002, 37.9682205 ], [ -3.0657058, 37.9679413 ], [ -3.0655917, 37.967671 ], [ -3.0653629, 37.9664182 ], [ -3.0652147, 37.966193 ], [ -3.0649187, 37.966085 ], [ -3.0649186, 37.966085 ], [ -3.0637463, 37.9663921 ], [ -3.0637463, 37.9663921 ], [ -3.0634275, 37.9663472 ], [ -3.0626417, 37.9660952 ], [ -3.0623456, 37.9659421 ], [ -3.0620379, 37.9656539 ], [ -3.0614453, 37.9649241 ], [ -3.0611263, 37.9646538 ], [ -3.0605799, 37.9646451 ], [ -3.0605799, 37.9646451 ], [ -3.0602726, 37.9646903 ], [ -3.0602725, 37.9646903 ], [ -3.0599992, 37.9645553 ], [ -3.0599992, 37.9645553 ], [ -3.0596683, 37.9637172 ], [ -3.0597478, 37.9634288 ], [ -3.0603622, 37.9630139 ], [ -3.0604075, 37.9626984 ], [ -3.0602478, 37.962356 ], [ -3.0600088, 37.9622299 ], [ -3.0600087, 37.9622299 ], [ -3.0597061, 37.9621926 ], [ -3.0596444, 37.962185 ], [ -3.0596443, 37.962185 ], [ -3.0590749, 37.9618157 ], [ -3.0588925, 37.9615635 ], [ -3.0586875, 37.9613833 ], [ -3.0583003, 37.9612393 ], [ -3.0582382, 37.9612319 ], [ -3.0580726, 37.9612123 ], [ -3.0575263, 37.9613117 ], [ -3.0569914, 37.9614742 ], [ -3.0569913, 37.9614742 ], [ -3.0565245, 37.9613393 ], [ -3.0563764, 37.9612041 ], [ -3.0563079, 37.9609878 ], [ -3.0563305, 37.9607625 ], [ -3.0566147, 37.9602486 ], [ -3.0565804, 37.9600053 ], [ -3.0564208, 37.9597169 ], [ -3.056375, 37.9593925 ], [ -3.0564089, 37.9591221 ], [ -3.0563405, 37.9589058 ], [ -3.0560671, 37.9586896 ], [ -3.0559629, 37.9586513 ], [ -3.0557483, 37.9585726 ], [ -3.054496, 37.9584469 ], [ -3.0534375, 37.9587629 ], [ -3.0526737, 37.9587974 ], [ -3.052026, 37.9588266 ], [ -3.051801, 37.9588026 ], [ -3.0516048, 37.9587817 ], [ -3.0514096, 37.9587122 ], [ -3.0511493, 37.9586196 ], [ -3.0500675, 37.9580432 ], [ -3.0486328, 37.957467 ], [ -3.0474146, 37.957143 ], [ -3.0452287, 37.9566571 ], [ -3.0452287, 37.9566571 ], [ -3.0445342, 37.956405 ], [ -3.0445342, 37.956405 ], [ -3.043817, 37.9562701 ], [ -3.043817, 37.9562701 ], [ -3.0431455, 37.9565677 ], [ -3.0418821, 37.9569106 ], [ -3.0406302, 37.9571814 ], [ -3.0398789, 37.9571636 ], [ -3.0394463, 37.9570827 ], [ -3.0392071, 37.9569475 ], [ -3.0389679, 37.9567133 ], [ -3.0387172, 37.9561546 ], [ -3.038569, 37.9556498 ], [ -3.0382273, 37.9554247 ], [ -3.0377265, 37.9553437 ], [ -3.0377265, 37.9553437 ], [ -3.0354954, 37.9552902 ], [ -3.0354953, 37.9552902 ], [ -3.0350401, 37.9553985 ], [ -3.033811, 37.9558405 ], [ -3.0338109, 37.9558405 ], [ -3.0304304, 37.9564452 ], [ -3.0275053, 37.9576086 ], [ -3.0265037, 37.9580864 ], [ -3.0248761, 37.9586816 ], [ -3.0226112, 37.9601422 ], [ -3.0223495, 37.9604937 ], [ -3.0222358, 37.9608272 ], [ -3.0223043, 37.961368 ], [ -3.022498, 37.96208 ], [ -3.0223613, 37.9630022 ], [ -3.022339, 37.9631526 ], [ -3.0223961, 37.9638375 ], [ -3.0223961, 37.9638376 ], [ -3.022624, 37.9645946 ], [ -3.0228859, 37.964883 ], [ -3.0232047, 37.9650181 ], [ -3.0240928, 37.9652163 ], [ -3.0245824, 37.9654054 ], [ -3.0252542, 37.9659371 ], [ -3.0255846, 37.9663967 ], [ -3.0253911, 37.966559 ], [ -3.0242301, 37.9670188 ], [ -3.0238771, 37.9672893 ], [ -3.0237521, 37.9677219 ], [ -3.0239689, 37.9692992 ], [ -3.0238779, 37.9696237 ], [ -3.0232179, 37.9703899 ], [ -3.0229675, 37.9709127 ], [ -3.0226832, 37.9718231 ], [ -3.0224783, 37.9720665 ], [ -3.0218294, 37.9722649 ], [ -3.0216131, 37.9724271 ], [ -3.0212603, 37.9731302 ], [ -3.0210099, 37.9733646 ], [ -3.0181068, 37.9745637 ], [ -3.0179588, 37.9746809 ], [ -3.0176401, 37.9751316 ], [ -3.0173669, 37.9753209 ], [ -3.0168091, 37.9754111 ], [ -3.016809, 37.9754111 ], [ -3.0164902, 37.9755373 ], [ -3.0154315, 37.9764117 ], [ -3.0151356, 37.976547 ], [ -3.0146459, 37.9766912 ], [ -3.0138261, 37.9766733 ], [ -3.0138261, 37.9766733 ], [ -3.0135073, 37.9767454 ], [ -3.0130519, 37.9771691 ], [ -3.0127332, 37.9773764 ], [ -3.0118792, 37.977764 ], [ -3.0117199, 37.9786112 ], [ -3.011515, 37.9788726 ], [ -3.0112532, 37.9789628 ], [ -3.0108888, 37.9789268 ], [ -3.0104447, 37.9787105 ], [ -3.0094654, 37.9777642 ], [ -3.0094653, 37.9777642 ], [ -3.0087708, 37.9776922 ], [ -3.008452, 37.9778724 ], [ -3.0084519, 37.9778725 ], [ -3.0082812, 37.9781699 ], [ -3.0081446, 37.9787467 ], [ -3.0081105, 37.9793686 ], [ -3.0079171, 37.980324 ], [ -3.007917, 37.980324 ], [ -3.0076324, 37.9810811 ], [ -3.0073819, 37.9815498 ], [ -3.007029, 37.9824782 ], [ -3.0065737, 37.9840825 ], [ -3.0064713, 37.9846593 ], [ -3.0065738, 37.985137 ], [ -3.0067807, 37.9855233 ], [ -3.0068586, 37.9856687 ], [ -3.0068586, 37.9856688 ], [ -3.0070636, 37.986498 ], [ -3.0068701, 37.9884087 ], [ -3.0065514, 37.9893191 ], [ -3.0062554, 37.9904277 ], [ -3.0060504, 37.9908873 ], [ -3.0055038, 37.991356 ], [ -3.004012, 37.9924737 ], [ -3.0029643, 37.9930956 ], [ -3.0026112, 37.993402 ], [ -3.0024062, 37.9936724 ], [ -3.0021898, 37.9942222 ], [ -3.0018938, 37.9946909 ], [ -3.0016433, 37.9948441 ], [ -3.0012788, 37.9948711 ], [ -3.0008402, 37.9948073 ], [ -2.9998552, 37.9946638 ], [ -2.9993866, 37.9947102 ], [ -2.9993085, 37.9947179 ], [ -2.9993085, 37.9947179 ], [ -2.9989098, 37.9949432 ], [ -2.9979418, 37.9961149 ], [ -2.9973381, 37.9964483 ], [ -2.9961991, 37.9969079 ], [ -2.9949007, 37.9972594 ], [ -2.9936365, 37.9978721 ], [ -2.992805, 37.9981695 ], [ -2.9923608, 37.9984218 ], [ -2.9919507, 37.9988094 ], [ -2.9917002, 37.9989445 ], [ -2.9914645, 37.9989791 ], [ -2.9913926, 37.9989896 ], [ -2.9913926, 37.9989896 ], [ -2.9910965, 37.9989355 ], [ -2.9905043, 37.998638 ], [ -2.990026, 37.9981873 ], [ -2.990026, 37.9981872 ], [ -2.9889898, 37.9963756 ], [ -2.9886823, 37.9962223 ], [ -2.9886822, 37.9962223 ], [ -2.9883292, 37.9962853 ], [ -2.9878736, 37.9964926 ], [ -2.9874863, 37.996808 ], [ -2.9870192, 37.9974839 ], [ -2.9863013, 37.9992053 ], [ -2.9857545, 38.0000885 ], [ -2.9856975, 38.0001877 ], [ -2.9854127, 38.0006563 ], [ -2.9850709, 38.0010708 ], [ -2.9836583, 38.0021522 ], [ -2.9827698, 38.0025216 ], [ -2.981813, 38.0028368 ], [ -2.9818129, 38.0028369 ], [ -2.9809131, 38.0029178 ], [ -2.9800475, 38.0028726 ], [ -2.9796839, 38.0027637 ], [ -2.9792046, 38.00262 ], [ -2.9783505, 38.0020521 ], [ -2.9783505, 38.002052 ], [ -2.9771548, 38.0014029 ], [ -2.9759817, 38.000988 ], [ -2.9750479, 38.0007895 ], [ -2.9750477, 38.0007895 ], [ -2.974943, 38.0007881 ], [ -2.9730545, 38.000762 ], [ -2.972249, 38.0006312 ], [ -2.9721093, 38.0006086 ], [ -2.9715968, 38.000338 ], [ -2.9715784, 38.0003373 ], [ -2.9709134, 38.0003108 ], [ -2.9693302, 38.0003464 ], [ -2.9693302, 38.0003464 ], [ -2.9691366, 38.0004185 ], [ -2.9689429, 38.0004905 ], [ -2.9689429, 38.0004906 ], [ -2.9680656, 38.0011212 ], [ -2.9670403, 38.0015175 ], [ -2.9657528, 38.0024184 ], [ -2.9651012, 38.0029399 ], [ -2.9648185, 38.0031662 ], [ -2.9648185, 38.0031662 ], [ -2.9646018, 38.0036077 ], [ -2.9644193, 38.0042746 ], [ -2.9637812, 38.004707 ], [ -2.9636102, 38.0050405 ], [ -2.9635986, 38.00541 ], [ -2.9635987, 38.00541 ] ] ] } }
]
}
