{
"type": "FeatureCollection",
"name": "23062",
"features": [
{ "type": "Feature", "properties": { "CCAA": "01 - Andalucía", "PROVINCIA": "23 - Jaén", "MUNICIPIO": "23062 - Montizón", "COD_MUNICIPIO": "23062", "DISTRITO": "01", "SECCION": "2306201001", "V1_H": 78.2, "V1_M": 84.44, "V2_H": 78.32882893, "V2_M": 84.51506174, "V3_H": 78.2023938, "V3_M": 84.51669805 }, "geometry": { "type": "Polygon", "coordinates": [ [ [ -3.0016095, 38.4077896 ], [ -3.0025144, 38.4082582 ], [ -3.0027893, 38.4085556 ], [ -3.0034765, 38.4100066 ], [ -3.0036484, 38.4105743 ], [ -3.0037515, 38.4113855 ], [ -3.0039807, 38.4119893 ], [ -3.0053668, 38.4148551 ], [ -3.0066957, 38.4164502 ], [ -3.0110722, 38.4208029 ], [ -3.0219243, 38.4326615 ], [ -3.0255232, 38.4360404 ], [ -3.0297761, 38.44087 ], [ -3.0309572, 38.4427532 ], [ -3.0342701, 38.4453479 ], [ -3.0366204, 38.4474831 ], [ -3.0376066, 38.4487174 ], [ -3.0397508, 38.4508977 ], [ -3.0420559, 38.4535015 ], [ -3.044487, 38.4558077 ], [ -3.0525966, 38.4648617 ], [ -3.0576788, 38.4701856 ], [ -3.0621308, 38.4750679 ], [ -3.0627854, 38.4763744 ], [ -3.0649654, 38.4782477 ], [ -3.0671891, 38.4777869 ], [ -3.0683237, 38.4773356 ], [ -3.0726541, 38.4741337 ], [ -3.0758161, 38.472059 ], [ -3.0769613, 38.4709407 ], [ -3.0772133, 38.4707694 ], [ -3.0799635, 38.4697852 ], [ -3.0888306, 38.4651917 ], [ -3.0943976, 38.4621864 ], [ -3.0955881, 38.4610139 ], [ -3.0994595, 38.4589739 ], [ -3.104063, 38.4561312 ], [ -3.1062265, 38.4542727 ], [ -3.1077281, 38.4544426 ], [ -3.1150208, 38.449389 ], [ -3.1180681, 38.448692 ], [ -3.1243633, 38.4440804 ], [ -3.1257262, 38.4436373 ], [ -3.1271911, 38.4425723 ], [ -3.1291467, 38.4403803 ], [ -3.130198, 38.4387659 ], [ -3.1247521, 38.4369333 ], [ -3.1245457, 38.4368704 ], [ -3.1225621, 38.4361065 ], [ -3.122287, 38.4360076 ], [ -3.120658, 38.4348377 ], [ -3.1190061, 38.4336678 ], [ -3.1189028, 38.4335237 ], [ -3.1187404, 38.4323523 ], [ -3.118692, 38.4307482 ], [ -3.1189764, 38.4295042 ], [ -3.1217197, 38.4256713 ], [ -3.1229883, 38.4238766 ], [ -3.1265829, 38.4223407 ], [ -3.1294328, 38.4209137 ], [ -3.1316414, 38.4195955 ], [ -3.1326022, 38.4188014 ], [ -3.1340762, 38.416772 ], [ -3.1354473, 38.4148778 ], [ -3.1372638, 38.4123794 ], [ -3.1392527, 38.4102141 ], [ -3.1403618, 38.4092035 ], [ -3.1423518, 38.407696 ], [ -3.1441591, 38.4064862 ], [ -3.150999, 38.4075501 ], [ -3.1584468, 38.4088922 ], [ -3.1621241, 38.4092027 ], [ -3.1640713, 38.4092451 ], [ -3.1660069, 38.4091793 ], [ -3.1722254, 38.4088009 ], [ -3.1765097, 38.4090199 ], [ -3.1776072, 38.4081891 ], [ -3.1814039, 38.4058222 ], [ -3.1840345, 38.4043852 ], [ -3.1861052, 38.4034717 ], [ -3.1870094, 38.403254 ], [ -3.1876043, 38.4030097 ], [ -3.1892542, 38.4032955 ], [ -3.1900676, 38.4033933 ], [ -3.1909962, 38.4037072 ], [ -3.191443, 38.4037966 ], [ -3.1926135, 38.4046148 ], [ -3.1928546, 38.4048487 ], [ -3.1937241, 38.4044868 ], [ -3.1954049, 38.4034476 ], [ -3.198264, 38.4019559 ], [ -3.2042212, 38.3985391 ], [ -3.2059475, 38.3974637 ], [ -3.2069302, 38.396714 ], [ -3.2092376, 38.3946911 ], [ -3.2093975, 38.3945557 ], [ -3.2130805, 38.393044 ], [ -3.2158486, 38.3919936 ], [ -3.2182714, 38.3904121 ], [ -3.2192085, 38.3897704 ], [ -3.2208654, 38.3886318 ], [ -3.2230369, 38.3872849 ], [ -3.2255508, 38.3856309 ], [ -3.226168, 38.3852783 ], [ -3.2283186, 38.3846253 ], [ -3.2313377, 38.3834748 ], [ -3.2302577, 38.3823234 ], [ -3.229649, 38.3817388 ], [ -3.2261582, 38.378438 ], [ -3.2219696, 38.3752647 ], [ -3.2203976, 38.3740871 ], [ -3.2117388, 38.3648924 ], [ -3.2106966, 38.364714 ], [ -3.2096878, 38.3641931 ], [ -3.2075098, 38.3630795 ], [ -3.2073787, 38.3612773 ], [ -3.1971107, 38.3483353 ], [ -3.1962495, 38.3472733 ], [ -3.19137, 38.3412701 ], [ -3.1893268, 38.3388671 ], [ -3.1880175, 38.3369947 ], [ -3.187615, 38.3362113 ], [ -3.184427, 38.3334225 ], [ -3.1830168, 38.3322711 ], [ -3.1816757, 38.3313269 ], [ -3.1809305, 38.3307242 ], [ -3.1798761, 38.3299958 ], [ -3.1738618, 38.3268325 ], [ -3.1731171, 38.3263829 ], [ -3.1727245, 38.3248605 ], [ -3.1721487, 38.3232571 ], [ -3.169982, 38.3213857 ], [ -3.1680222, 38.3198474 ], [ -3.1653515, 38.317508 ], [ -3.1640558, 38.316185 ], [ -3.1581761, 38.3109478 ], [ -3.1578662, 38.3104525 ], [ -3.1576476, 38.309858 ], [ -3.1564837, 38.3111393 ], [ -3.1545432, 38.3130525 ], [ -3.1540862, 38.3133054 ], [ -3.1527944, 38.3136946 ], [ -3.1493189, 38.3146182 ], [ -3.1470778, 38.3150897 ], [ -3.1458428, 38.3152714 ], [ -3.14387, 38.3126423 ], [ -3.1433656, 38.3121021 ], [ -3.1430677, 38.3118051 ], [ -3.1424713, 38.3110217 ], [ -3.1415088, 38.3101667 ], [ -3.1400771, 38.3091681 ], [ -3.138291, 38.3082329 ], [ -3.1377989, 38.3080712 ], [ -3.1363462, 38.3080278 ], [ -3.1356938, 38.3077942 ], [ -3.134526, 38.3072188 ], [ -3.1334615, 38.3067964 ], [ -3.1328208, 38.3066439 ], [ -3.1324433, 38.3066443 ], [ -3.1294137, 38.3074137 ], [ -3.1277669, 38.3075597 ], [ -3.1267032, 38.3075789 ], [ -3.126337, 38.3074801 ], [ -3.1256496, 38.3068229 ], [ -3.1251221, 38.3060665 ], [ -3.1246526, 38.3056794 ], [ -3.1236932, 38.3065276 ], [ -3.122985, 38.3070691 ], [ -3.1225049, 38.3072317 ], [ -3.1217715, 38.3064124 ], [ -3.1203166, 38.305017 ], [ -3.1191483, 38.3040088 ], [ -3.1184849, 38.3039643 ], [ -3.1161975, 38.3040117 ], [ -3.1153285, 38.3041477 ], [ -3.1139788, 38.3040949 ], [ -3.1106738, 38.3043504 ], [ -3.1093244, 38.3045229 ], [ -3.1085929, 38.3047939 ], [ -3.1078154, 38.3050199 ], [ -3.1048995, 38.305437 ], [ -3.1040077, 38.3057082 ], [ -3.1027964, 38.3064212 ], [ -3.1011517, 38.308162 ], [ -3.100729, 38.3085048 ], [ -3.1003747, 38.3086403 ], [ -3.0999972, 38.3086586 ], [ -3.0990053, 38.3109757 ], [ -3.0982751, 38.3123281 ], [ -3.0971336, 38.3141405 ], [ -3.0950555, 38.3170531 ], [ -3.0941425, 38.318631 ], [ -3.0937773, 38.3193793 ], [ -3.0936182, 38.3201905 ], [ -3.0933331, 38.3208306 ], [ -3.0923736, 38.322039 ], [ -3.0918027, 38.3228956 ], [ -3.0912558, 38.3246083 ], [ -3.0912004, 38.3260954 ], [ -3.0909379, 38.3266364 ], [ -3.0908009, 38.3268077 ], [ -3.0907561, 38.3275557 ], [ -3.0904823, 38.3281778 ], [ -3.0902539, 38.3285475 ], [ -3.087807, 38.3297659 ], [ -3.0849027, 38.3313722 ], [ -3.0814383, 38.3334384 ], [ -3.0813011, 38.3335196 ], [ -3.0804092, 38.334079 ], [ -3.0777213, 38.335009 ], [ -3.0756853, 38.3356592 ], [ -3.0748972, 38.3370836 ], [ -3.073914, 38.3378863 ], [ -3.0721873, 38.339059 ], [ -3.0719114, 38.3377524 ], [ -3.0709382, 38.3372303 ], [ -3.0699983, 38.3369347 ], [ -3.0695075, 38.3367805 ], [ -3.0693142, 38.3379972 ], [ -3.0689378, 38.3393042 ], [ -3.0679658, 38.3399536 ], [ -3.0661242, 38.3407838 ], [ -3.0634244, 38.3416414 ], [ -3.0599681, 38.3411205 ], [ -3.0582858, 38.3409591 ], [ -3.0570273, 38.3412301 ], [ -3.0557345, 38.3416362 ], [ -3.055861, 38.3423571 ], [ -3.0515478, 38.34381 ], [ -3.0503806, 38.3438375 ], [ -3.0498549, 38.3447931 ], [ -3.048403, 38.3470918 ], [ -3.0457715, 38.3480301 ], [ -3.0434258, 38.3486528 ], [ -3.0416638, 38.3492662 ], [ -3.0369386, 38.3520345 ], [ -3.0346615, 38.3529905 ], [ -3.0332995, 38.3527746 ], [ -3.0320295, 38.3538473 ], [ -3.0307139, 38.3551004 ], [ -3.0296842, 38.3561821 ], [ -3.0288148, 38.3572187 ], [ -3.0282999, 38.3576424 ], [ -3.0271212, 38.3582555 ], [ -3.0262287, 38.3589136 ], [ -3.0241232, 38.3607345 ], [ -3.0228873, 38.3615728 ], [ -3.0220976, 38.3620056 ], [ -3.0201291, 38.3628981 ], [ -3.0194309, 38.3631055 ], [ -3.0184351, 38.3632318 ], [ -3.0172333, 38.3634753 ], [ -3.0156309, 38.3640523 ], [ -3.014761, 38.3645481 ], [ -3.0145436, 38.3647284 ], [ -3.0138798, 38.3656026 ], [ -3.0133533, 38.3659091 ], [ -3.0115563, 38.3666573 ], [ -3.0089121, 38.3679823 ], [ -3.0030283, 38.371281 ], [ -2.9941902, 38.3758049 ], [ -2.9887059, 38.3785622 ], [ -2.9879158, 38.3790127 ], [ -2.9872631, 38.3796615 ], [ -2.9864271, 38.3806077 ], [ -2.9852591, 38.381689 ], [ -2.9843429, 38.3823828 ], [ -2.9816404, 38.3838063 ], [ -2.9807471, 38.3845722 ], [ -2.9803461, 38.3855274 ], [ -2.9801054, 38.3867711 ], [ -2.9801166, 38.38742 ], [ -2.9803454, 38.388159 ], [ -2.9810322, 38.3893037 ], [ -2.9813642, 38.3896282 ], [ -2.982177, 38.390115 ], [ -2.9842151, 38.3909805 ], [ -2.984776, 38.3919268 ], [ -2.9853254, 38.3930354 ], [ -2.9856689, 38.3935942 ], [ -2.9869856, 38.3946579 ], [ -2.9876038, 38.3951987 ], [ -2.9895962, 38.3969923 ], [ -2.9908672, 38.3983983 ], [ -2.9918634, 38.3997863 ], [ -2.9928825, 38.4007237 ], [ -2.9950583, 38.4037249 ], [ -2.9967647, 38.4055905 ], [ -2.997784, 38.4062394 ], [ -2.9991355, 38.4069064 ], [ -2.9997998, 38.4071767 ], [ -3.0000175, 38.4072759 ], [ -3.0016095, 38.4077896 ] ], [ [ -3.0726351, 38.3639706 ], [ -3.0707078, 38.3641044 ], [ -3.0707446, 38.3635592 ], [ -3.0712311, 38.3634705 ], [ -3.070594, 38.3626311 ], [ -3.0696025, 38.3628527 ], [ -3.067544, 38.3628096 ], [ -3.0674123, 38.3619847 ], [ -3.0686658, 38.3617924 ], [ -3.0710982, 38.3614669 ], [ -3.0715093, 38.360951 ], [ -3.0711912, 38.3609659 ], [ -3.0711349, 38.3607155 ], [ -3.071453, 38.36073 ], [ -3.0712839, 38.3600819 ], [ -3.0734544, 38.3599037 ], [ -3.0748573, 38.3594461 ], [ -3.0762039, 38.3588559 ], [ -3.0776069, 38.3584278 ], [ -3.0782991, 38.3583389 ], [ -3.0785799, 38.3584419 ], [ -3.0782058, 38.3586189 ], [ -3.0777759, 38.359017 ], [ -3.0773646, 38.3593562 ], [ -3.0771029, 38.3596363 ], [ -3.0768599, 38.3598132 ], [ -3.0766355, 38.3599754 ], [ -3.076243, 38.3604471 ], [ -3.0764677, 38.3605796 ], [ -3.0766737, 38.3607415 ], [ -3.0769546, 38.3608739 ], [ -3.0768801, 38.3612128 ], [ -3.0769552, 38.3614633 ], [ -3.0769929, 38.3617874 ], [ -3.0768814, 38.3624357 ], [ -3.0762824, 38.3623477 ], [ -3.0756467, 38.3628196 ], [ -3.075741, 38.3634678 ], [ -3.0760223, 38.3640274 ], [ -3.0736269, 38.3639258 ], [ -3.0726351, 38.3639706 ] ] ] } },
{ "type": "Feature", "properties": { "CCAA": "01 - Andalucía", "PROVINCIA": "23 - Jaén", "MUNICIPIO": "23062 - Montizón", "COD_MUNICIPIO": "23062", "DISTRITO": "01", "SECCION": "2306201002", "V1_H": 78.2, "V1_M": 84.44, "V2_H": 78.32882893, "V2_M": 84.51506174, "V3_H": 78.2023938, "V3_M": 84.51669805 }, "geometry": { "type": "Polygon", "coordinates": [ [ [ -3.0707078, 38.3641044 ], [ -3.0726351, 38.3639706 ], [ -3.0736269, 38.3639258 ], [ -3.0760223, 38.3640274 ], [ -3.075741, 38.3634678 ], [ -3.0756467, 38.3628196 ], [ -3.0762824, 38.3623477 ], [ -3.0768814, 38.3624357 ], [ -3.0769929, 38.3617874 ], [ -3.0769552, 38.3614633 ], [ -3.0768801, 38.3612128 ], [ -3.0769546, 38.3608739 ], [ -3.0766737, 38.3607415 ], [ -3.0764677, 38.3605796 ], [ -3.076243, 38.3604471 ], [ -3.0766355, 38.3599754 ], [ -3.0768599, 38.3598132 ], [ -3.0771029, 38.3596363 ], [ -3.0773646, 38.3593562 ], [ -3.0777759, 38.359017 ], [ -3.0782058, 38.3586189 ], [ -3.0785799, 38.3584419 ], [ -3.0782991, 38.3583389 ], [ -3.0776069, 38.3584278 ], [ -3.0762039, 38.3588559 ], [ -3.0748573, 38.3594461 ], [ -3.0734544, 38.3599037 ], [ -3.0712839, 38.3600819 ], [ -3.071453, 38.36073 ], [ -3.0711349, 38.3607155 ], [ -3.0711912, 38.3609659 ], [ -3.0715093, 38.360951 ], [ -3.0710982, 38.3614669 ], [ -3.0686658, 38.3617924 ], [ -3.0674123, 38.3619847 ], [ -3.067544, 38.3628096 ], [ -3.0696025, 38.3628527 ], [ -3.070594, 38.3626311 ], [ -3.0712311, 38.3634705 ], [ -3.0707446, 38.3635592 ], [ -3.0707078, 38.3641044 ] ] ] } }
]
}
