{
"type": "FeatureCollection",
"name": "23071",
"features": [
{ "type": "Feature", "properties": { "CCAA": "01 - Andalucía", "PROVINCIA": "23 - Jaén", "MUNICIPIO": "23071 - Puente de Génave", "COD_MUNICIPIO": "23071", "DISTRITO": "01", "SECCION": "2307101001", "V1_H": 79.27, "V1_M": 85.17, "V2_H": 79.19654882, "V2_M": 85.28496149, "V3_H": 79.61871206, "V3_M": 85.37047204 }, "geometry": { "type": "Polygon", "coordinates": [ [ [ -2.7793393, 38.3029483 ], [ -2.7793394, 38.3029483 ], [ -2.7796123, 38.3034625 ], [ -2.7799869, 38.3043825 ], [ -2.7810048, 38.3081876 ], [ -2.7794787, 38.3097889 ], [ -2.7790423, 38.3103649 ], [ -2.7790759, 38.3106083 ], [ -2.7801334, 38.3126561 ], [ -2.7792045, 38.3134294 ], [ -2.7771625, 38.3153542 ], [ -2.7769209, 38.3157953 ], [ -2.7765199, 38.3197509 ], [ -2.7766442, 38.3202379 ], [ -2.7772796, 38.3219334 ], [ -2.777301, 38.3224021 ], [ -2.7771964, 38.3229426 ], [ -2.7764006, 38.3250229 ], [ -2.7762723, 38.3258428 ], [ -2.7765302, 38.3275105 ], [ -2.7764369, 38.3281052 ], [ -2.77532, 38.3303742 ], [ -2.7747424, 38.3321755 ], [ -2.7746598, 38.3329684 ], [ -2.7746812, 38.3334371 ], [ -2.7746811, 38.3334912 ], [ -2.7746981, 38.3353838 ], [ -2.7753126, 38.3364484 ], [ -2.7762339, 38.3382436 ], [ -2.7773357, 38.3408592 ], [ -2.7786665, 38.3414428 ], [ -2.7813812, 38.3426333 ], [ -2.7838077, 38.3462787 ], [ -2.7840111, 38.3471533 ], [ -2.7844613, 38.3496775 ], [ -2.7880784, 38.3533701 ], [ -2.7894249, 38.3547514 ], [ -2.7851264, 38.3569787 ], [ -2.7820884, 38.3585592 ], [ -2.7865236, 38.360514 ], [ -2.7865237, 38.360514 ], [ -2.7880441, 38.3611386 ], [ -2.7880442, 38.3611386 ], [ -2.7907079, 38.3622429 ], [ -2.794515, 38.3638357 ], [ -2.794515, 38.3638357 ], [ -2.7964128, 38.3646862 ], [ -2.797568, 38.3650306 ], [ -2.8031184, 38.3654817 ], [ -2.8034502, 38.3655183 ], [ -2.8071234, 38.365984 ], [ -2.8085849, 38.3660918 ], [ -2.8087486, 38.3661038 ], [ -2.8087487, 38.3661038 ], [ -2.8097107, 38.3659252 ], [ -2.8120363, 38.3652079 ], [ -2.8120363, 38.3652079 ], [ -2.8142113, 38.3696273 ], [ -2.8160818, 38.3723159 ], [ -2.8178825, 38.3709669 ], [ -2.819247, 38.3700768 ], [ -2.8194534, 38.369942 ], [ -2.8215291, 38.3684671 ], [ -2.8225265, 38.3678287 ], [ -2.8264412, 38.3632114 ], [ -2.8305715, 38.3591709 ], [ -2.8319934, 38.3580194 ], [ -2.8319935, 38.3580194 ], [ -2.8319935, 38.3580194 ], [ -2.8361675, 38.3596655 ], [ -2.8371848, 38.3602618 ], [ -2.8389563, 38.3614448 ], [ -2.8398361, 38.362185 ], [ -2.8411372, 38.3624216 ], [ -2.8436805, 38.3628841 ], [ -2.8453966, 38.3632739 ], [ -2.8457523, 38.3633889 ], [ -2.8462088, 38.3635364 ], [ -2.8524539, 38.3658515 ], [ -2.8535751, 38.3661771 ], [ -2.8542614, 38.3663765 ], [ -2.8553205, 38.3666615 ], [ -2.8565154, 38.3669831 ], [ -2.8600848, 38.3680779 ], [ -2.8645692, 38.3696694 ], [ -2.8676454, 38.3713581 ], [ -2.8676455, 38.3713582 ], [ -2.8692265, 38.370675 ], [ -2.8699961, 38.3692159 ], [ -2.8702261, 38.3686664 ], [ -2.8702725, 38.3682879 ], [ -2.8698955, 38.3678369 ], [ -2.8691414, 38.3670971 ], [ -2.8683755, 38.3665284 ], [ -2.8682385, 38.366312 ], [ -2.8682503, 38.3661047 ], [ -2.8688485, 38.3645102 ], [ -2.8693671, 38.3625822 ], [ -2.8696331, 38.3610144 ], [ -2.8660227, 38.3512681 ], [ -2.8660227, 38.351268 ], [ -2.8658633, 38.3508893 ], [ -2.8657042, 38.3502583 ], [ -2.8657289, 38.349267 ], [ -2.8658797, 38.3482307 ], [ -2.8660411, 38.347564 ], [ -2.8662595, 38.3470326 ], [ -2.8664888, 38.3467715 ], [ -2.8668555, 38.3465646 ], [ -2.8678404, 38.3461692 ], [ -2.8683102, 38.3458092 ], [ -2.8684482, 38.3454038 ], [ -2.8683801, 38.3451334 ], [ -2.8680032, 38.3447274 ], [ -2.8680032, 38.3447274 ], [ -2.8680031, 38.3447274 ], [ -2.8671559, 38.3449698 ], [ -2.8671558, 38.3449698 ], [ -2.8662744, 38.345158 ], [ -2.8662743, 38.345158 ], [ -2.8654613, 38.3454455 ], [ -2.8643732, 38.3459759 ], [ -2.8634575, 38.34611 ], [ -2.8634574, 38.34611 ], [ -2.8620615, 38.3460183 ], [ -2.8617755, 38.3459549 ], [ -2.8617754, 38.3459549 ], [ -2.8616954, 38.3459458 ], [ -2.8616953, 38.3459458 ], [ -2.8614551, 38.3459455 ], [ -2.8611802, 38.3460623 ], [ -2.8602632, 38.3468633 ], [ -2.8593005, 38.3475831 ], [ -2.8585443, 38.3480509 ], [ -2.8580632, 38.3482395 ], [ -2.8580631, 38.3482395 ], [ -2.8573764, 38.3483198 ], [ -2.8573763, 38.3483198 ], [ -2.8568729, 38.3482831 ], [ -2.8565495, 38.3481796 ], [ -2.8563926, 38.3481293 ], [ -2.8563925, 38.3481293 ], [ -2.8550778, 38.3474788 ], [ -2.8542657, 38.3472886 ], [ -2.8542656, 38.3472886 ], [ -2.8536821, 38.3472428 ], [ -2.853682, 38.3472428 ], [ -2.8530641, 38.347224 ], [ -2.8523086, 38.3473402 ], [ -2.8518047, 38.3475378 ], [ -2.8512197, 38.3481949 ], [ -2.8509209, 38.3487984 ], [ -2.8509292, 38.3503305 ], [ -2.8507677, 38.3509251 ], [ -2.8504579, 38.3513122 ], [ -2.8497937, 38.3515096 ], [ -2.8497936, 38.3515097 ], [ -2.8491412, 38.3515809 ], [ -2.8486837, 38.3514271 ], [ -2.8483525, 38.3510842 ], [ -2.8483079, 38.3505435 ], [ -2.8485391, 38.3494442 ], [ -2.8484834, 38.3487051 ], [ -2.8483585, 38.3482183 ], [ -2.8483585, 38.3482183 ], [ -2.8480388, 38.3479115 ], [ -2.8473527, 38.3476403 ], [ -2.8467576, 38.3476395 ], [ -2.8463226, 38.347702 ], [ -2.8463226, 38.347702 ], [ -2.8456269, 38.3465926 ], [ -2.8450687, 38.3453752 ], [ -2.8446377, 38.3435992 ], [ -2.843922, 38.341192 ], [ -2.8435936, 38.3395693 ], [ -2.8433481, 38.3366761 ], [ -2.8438642, 38.336145 ], [ -2.8440252, 38.3357757 ], [ -2.8436262, 38.3350993 ], [ -2.8428498, 38.3343142 ], [ -2.8430119, 38.3334132 ], [ -2.8430119, 38.3334131 ], [ -2.8429128, 38.333374 ], [ -2.8427147, 38.3332956 ], [ -2.842452, 38.3330699 ], [ -2.8421903, 38.3324117 ], [ -2.8415337, 38.3291935 ], [ -2.8415336, 38.3291935 ], [ -2.8407786, 38.3291834 ], [ -2.8387787, 38.3281623 ], [ -2.8378643, 38.3277915 ], [ -2.8371211, 38.3275742 ], [ -2.8346165, 38.3271381 ], [ -2.8346164, 38.3271381 ], [ -2.8327865, 38.3269192 ], [ -2.8321705, 38.3261342 ], [ -2.8314636, 38.3250878 ], [ -2.8302191, 38.3240316 ], [ -2.8298076, 38.3238598 ], [ -2.8279297, 38.3233965 ], [ -2.8239651, 38.3224182 ], [ -2.821551, 38.3219488 ], [ -2.8206948, 38.3217824 ], [ -2.8197691, 38.3214024 ], [ -2.819278, 38.3210682 ], [ -2.819278, 38.3210682 ], [ -2.8170633, 38.3192263 ], [ -2.8175221, 38.3187764 ], [ -2.8201598, 38.3160948 ], [ -2.8209402, 38.3150325 ], [ -2.819775, 38.3144179 ], [ -2.8197749, 38.3144179 ], [ -2.8170438, 38.3133502 ], [ -2.8170438, 38.3133502 ], [ -2.8166678, 38.3132588 ], [ -2.8156263, 38.3130056 ], [ -2.8143801, 38.3127873 ], [ -2.8138344, 38.3114796 ], [ -2.8130031, 38.3100454 ], [ -2.8121451, 38.30825 ], [ -2.8121451, 38.30825 ], [ -2.8121451, 38.30825 ], [ -2.8120246, 38.307998 ], [ -2.8117162, 38.3078713 ], [ -2.8117161, 38.3078713 ], [ -2.8113151, 38.3077933 ], [ -2.8111674, 38.3077646 ], [ -2.8106416, 38.3076623 ], [ -2.8090643, 38.3072272 ], [ -2.8086761, 38.3069922 ], [ -2.8079349, 38.3061168 ], [ -2.8079349, 38.3061168 ], [ -2.8065657, 38.3048799 ], [ -2.8071645, 38.3033848 ], [ -2.8073963, 38.3022226 ], [ -2.8079743, 38.2999074 ], [ -2.8078957, 38.2993485 ], [ -2.8067671, 38.2979948 ], [ -2.8052615, 38.2964872 ], [ -2.8041108, 38.2948992 ], [ -2.8036897, 38.2941594 ], [ -2.8029037, 38.2930045 ], [ -2.8020487, 38.2920208 ], [ -2.8011359, 38.2913162 ], [ -2.8005655, 38.2908106 ], [ -2.8002699, 38.2901882 ], [ -2.8002254, 38.2897285 ], [ -2.8003315, 38.2885661 ], [ -2.8003315, 38.2885661 ], [ -2.7983882, 38.2883735 ], [ -2.7983881, 38.2883735 ], [ -2.7978044, 38.2885618 ], [ -2.7964074, 38.2892533 ], [ -2.7925655, 38.2892195 ], [ -2.7925654, 38.2892195 ], [ -2.7922547, 38.2899039 ], [ -2.7917726, 38.290552 ], [ -2.7912566, 38.2910197 ], [ -2.7902599, 38.2916668 ], [ -2.7883234, 38.2930422 ], [ -2.7882193, 38.2934296 ], [ -2.7878749, 38.2939156 ], [ -2.7869802, 38.2947972 ], [ -2.7802118, 38.3018955 ], [ -2.7802117, 38.3018955 ], [ -2.7793394, 38.3029482 ], [ -2.7793393, 38.3029483 ], [ -2.7793393, 38.3029483 ] ] ] } }
]
}
