{
"type": "FeatureCollection",
"name": "23902",
"features": [
{ "type": "Feature", "properties": { "CCAA": "01 - Andalucía", "PROVINCIA": "23 - Jaén", "MUNICIPIO": "23902 - Bedmar y Garcíez", "COD_MUNICIPIO": "23902", "DISTRITO": "02", "SECCION": "2390202001", "V1_H": 79.16, "V1_M": 85.0, "V2_H": 79.432337, "V2_M": 85.16926182, "V3_H": 78.95181978, "V3_M": 84.90024095 }, "geometry": { "type": "GeometryCollection", "geometries": [ { "type": "Polygon", "coordinates": [ [ [ -3.409579, 37.9046591 ], [ -3.4093675, 37.9054981 ], [ -3.4091671, 37.9062648 ], [ -3.4095884, 37.9063445 ], [ -3.4102722, 37.9065674 ], [ -3.4113331, 37.9071135 ], [ -3.4124289, 37.9077947 ], [ -3.4131829, 37.9083688 ], [ -3.4136634, 37.9088448 ], [ -3.4152116, 37.9110565 ], [ -3.4154414, 37.9114613 ], [ -3.4160941, 37.9122161 ], [ -3.4168375, 37.9129074 ], [ -3.4196722, 37.9152677 ], [ -3.4197872, 37.9154836 ], [ -3.419778, 37.9158712 ], [ -3.4195986, 37.9163225 ], [ -3.4191138, 37.9170993 ], [ -3.4189572, 37.9175776 ], [ -3.4189941, 37.9180551 ], [ -3.4192588, 37.9185859 ], [ -3.4197277, 37.9190259 ], [ -3.4200018, 37.9191962 ], [ -3.4204575, 37.9193027 ], [ -3.4209806, 37.9192648 ], [ -3.4216613, 37.9189379 ], [ -3.4230326, 37.9179956 ], [ -3.4237934, 37.9177315 ], [ -3.4259531, 37.9173902 ], [ -3.427849, 37.9166983 ], [ -3.4285764, 37.9165785 ], [ -3.4290885, 37.9166037 ], [ -3.4294875, 37.9167374 ], [ -3.4296029, 37.9170164 ], [ -3.4296076, 37.9178276 ], [ -3.4294419, 37.9186663 ], [ -3.429467, 37.9190808 ], [ -3.4296966, 37.9194315 ], [ -3.4302442, 37.9196819 ], [ -3.431236, 37.9200207 ], [ -3.431727, 37.9203253 ], [ -3.4323672, 37.9208457 ], [ -3.4329293, 37.9216278 ], [ -3.4338366, 37.9230665 ], [ -3.4344582, 37.924299 ], [ -3.4350015, 37.92573 ], [ -3.43561, 37.9285848 ], [ -3.4356131, 37.9291075 ], [ -3.4355135, 37.9295856 ], [ -3.4350753, 37.9305335 ], [ -3.4349419, 37.9310658 ], [ -3.4349554, 37.9314262 ], [ -3.4351956, 37.9316417 ], [ -3.4358689, 37.9319546 ], [ -3.4372464, 37.9320667 ], [ -3.4386447, 37.9318361 ], [ -3.4392702, 37.9317797 ], [ -3.4396444, 37.931553 ], [ -3.4398814, 37.9312276 ], [ -3.4398671, 37.930732 ], [ -3.438739, 37.9285641 ], [ -3.4380158, 37.9274943 ], [ -3.4378307, 37.9269813 ], [ -3.4379421, 37.9265753 ], [ -3.4381909, 37.926322 ], [ -3.4386342, 37.9262392 ], [ -3.4394312, 37.9263264 ], [ -3.440912, 37.9265912 ], [ -3.4418682, 37.9266597 ], [ -3.4427328, 37.9266475 ], [ -3.4437445, 37.9264724 ], [ -3.447175, 37.9255131 ], [ -3.447823, 37.9254205 ], [ -3.4485739, 37.9254176 ], [ -3.4490411, 37.925524 ], [ -3.4497139, 37.9257648 ], [ -3.4506854, 37.926473 ], [ -3.4518271, 37.9271086 ], [ -3.4523058, 37.9272419 ], [ -3.4527495, 37.9272312 ], [ -3.4533058, 37.9270308 ], [ -3.4539747, 37.9266316 ], [ -3.454542, 37.926368 ], [ -3.4548137, 37.9261417 ], [ -3.4547882, 37.9257092 ], [ -3.4545132, 37.9253858 ], [ -3.4540445, 37.9250271 ], [ -3.453803, 37.9246224 ], [ -3.4537431, 37.9241269 ], [ -3.4540357, 37.9236031 ], [ -3.4541695, 37.9231519 ], [ -3.4540067, 37.9225938 ], [ -3.4536628, 37.9221625 ], [ -3.4535127, 37.9218025 ], [ -3.4537585, 37.9210806 ], [ -3.4538014, 37.9206568 ], [ -3.4539933, 37.9204037 ], [ -3.4543672, 37.9201499 ], [ -3.4545252, 37.919942 ], [ -3.4544196, 37.9194287 ], [ -3.4544515, 37.919059 ], [ -3.4546316, 37.9187429 ], [ -3.4550178, 37.9186512 ], [ -3.4555194, 37.9188116 ], [ -3.4558972, 37.9191796 ], [ -3.456408, 37.9189883 ], [ -3.456053, 37.9186202 ], [ -3.4554709, 37.9183341 ], [ -3.4541726, 37.9181138 ], [ -3.4531583, 37.9178383 ], [ -3.4522571, 37.9174452 ], [ -3.4516516, 37.9170329 ], [ -3.4514104, 37.9166643 ], [ -3.4514082, 37.9163038 ], [ -3.4515601, 37.9150955 ], [ -3.4520035, 37.9094788 ], [ -3.4520005, 37.9089741 ], [ -3.4516196, 37.9080743 ], [ -3.4515472, 37.9073986 ], [ -3.4514616, 37.9045689 ], [ -3.4512826, 37.9031907 ], [ -3.4508533, 37.9018133 ], [ -3.4507811, 37.9011647 ], [ -3.4508519, 37.8997133 ], [ -3.451048, 37.8983066 ], [ -3.4512907, 37.8970709 ], [ -3.4516821, 37.8959879 ], [ -3.4519265, 37.8950225 ], [ -3.4524639, 37.8917849 ], [ -3.4525492, 37.8908562 ], [ -3.4545677, 37.8899021 ], [ -3.4551013, 37.8897468 ], [ -3.4558059, 37.889663 ], [ -3.4568073, 37.8897582 ], [ -3.4578665, 37.8900065 ], [ -3.4594961, 37.8905228 ], [ -3.4615125, 37.8910828 ], [ -3.4644268, 37.891522 ], [ -3.4666228, 37.8916755 ], [ -3.4679535, 37.8916882 ], [ -3.469795, 37.8915367 ], [ -3.4736011, 37.8909266 ], [ -3.4775677, 37.890532 ], [ -3.480375, 37.8902592 ], [ -3.4813403, 37.8900479 ], [ -3.4836759, 37.8889478 ], [ -3.4844588, 37.8886742 ], [ -3.4854359, 37.888526 ], [ -3.4878462, 37.8884169 ], [ -3.4893477, 37.8884737 ], [ -3.4913969, 37.8887896 ], [ -3.4939253, 37.8893378 ], [ -3.4956031, 37.8885466 ], [ -3.4982544, 37.8870754 ], [ -3.5002004, 37.885589 ], [ -3.5009363, 37.8851082 ], [ -3.5014129, 37.8849529 ], [ -3.5019694, 37.8848424 ], [ -3.5023437, 37.8847056 ], [ -3.502717, 37.8844156 ], [ -3.5043745, 37.8823356 ], [ -3.5044852, 37.8818935 ], [ -3.5045713, 37.8811811 ], [ -3.5049194, 37.8805217 ], [ -3.5055403, 37.8798611 ], [ -3.5064112, 37.8791814 ], [ -3.5068631, 37.8787558 ], [ -3.5070199, 37.8784036 ], [ -3.5070263, 37.8776736 ], [ -3.5068837, 37.8767909 ], [ -3.5069926, 37.8760784 ], [ -3.5075397, 37.874616 ], [ -3.5082908, 37.8730536 ], [ -3.5098449, 37.8708747 ], [ -3.5102153, 37.8701882 ], [ -3.5108063, 37.8685002 ], [ -3.5091202, 37.8680118 ], [ -3.5073219, 37.8677311 ], [ -3.5030226, 37.8674882 ], [ -3.5019872, 37.8673575 ], [ -3.5013372, 37.8670808 ], [ -3.5002533, 37.8665177 ], [ -3.4994993, 37.8659801 ], [ -3.4986069, 37.8651457 ], [ -3.4976563, 37.8641042 ], [ -3.4971551, 37.8639621 ], [ -3.496461, 37.8638659 ], [ -3.4960628, 37.8638225 ], [ -3.495334, 37.8636453 ], [ -3.4937264, 37.8629671 ], [ -3.491835, 37.8623351 ], [ -3.4911163, 37.8619506 ], [ -3.4900998, 37.8612518 ], [ -3.4887907, 37.8609778 ], [ -3.4883115, 37.8607275 ], [ -3.4876248, 37.8600183 ], [ -3.4868814, 37.8593544 ], [ -3.4863448, 37.8590051 ], [ -3.4857284, 37.8586201 ], [ -3.4840873, 37.857987 ], [ -3.4806692, 37.8567933 ], [ -3.4794956, 37.8563835 ], [ -3.4780837, 37.8560197 ], [ -3.4765019, 37.8557557 ], [ -3.4741664, 37.854954 ], [ -3.4727181, 37.8542207 ], [ -3.4717263, 37.8537831 ], [ -3.4700983, 37.8534021 ], [ -3.4653057, 37.8522855 ], [ -3.4631094, 37.8518795 ], [ -3.4613349, 37.8516882 ], [ -3.4596981, 37.8516946 ], [ -3.4583117, 37.8517541 ], [ -3.4577883, 37.851675 ], [ -3.4574691, 37.851523 ], [ -3.4572859, 37.8512984 ], [ -3.4569091, 37.8510385 ], [ -3.455075, 37.8503787 ], [ -3.4545166, 37.8501375 ], [ -3.4540371, 37.8498058 ], [ -3.4534767, 37.8492492 ], [ -3.4530296, 37.84862 ], [ -3.4517126, 37.8451461 ], [ -3.4511477, 37.8438323 ], [ -3.4506772, 37.8431041 ], [ -3.4528577, 37.8409597 ], [ -3.4538875, 37.8402437 ], [ -3.4549409, 37.8396538 ], [ -3.455484, 37.8392641 ], [ -3.4559361, 37.8388658 ], [ -3.4563298, 37.8381974 ], [ -3.4566202, 37.8373761 ], [ -3.4566536, 37.8372677 ], [ -3.456751, 37.8364743 ], [ -3.4567142, 37.8360327 ], [ -3.4554401, 37.8339827 ], [ -3.4553462, 37.8334964 ], [ -3.4553345, 37.8334424 ], [ -3.4550792, 37.8325871 ], [ -3.4540677, 37.8307073 ], [ -3.4540871, 37.8301665 ], [ -3.454356, 37.8295435 ], [ -3.4551006, 37.8286574 ], [ -3.4552128, 37.8284316 ], [ -3.4551875, 37.8280171 ], [ -3.4547146, 37.8268743 ], [ -3.4546791, 37.8266401 ], [ -3.454803, 37.8264684 ], [ -3.4556295, 37.8259785 ], [ -3.4559802, 37.8257158 ], [ -3.4560811, 37.8254991 ], [ -3.4560218, 37.8251028 ], [ -3.4560662, 37.8249223 ], [ -3.4566105, 37.8247399 ], [ -3.458233, 37.8243551 ], [ -3.4585219, 37.8233085 ], [ -3.4586089, 37.8226772 ], [ -3.4576988, 37.8225005 ], [ -3.4556406, 37.8222471 ], [ -3.4548554, 37.8220519 ], [ -3.4548554, 37.8220518 ], [ -3.4544453, 37.8218912 ], [ -3.453931, 37.8213974 ], [ -3.4535209, 37.8212188 ], [ -3.4527355, 37.8209875 ], [ -3.4514622, 37.8208752 ], [ -3.4514319, 37.8208728 ], [ -3.4510189, 37.8208408 ], [ -3.4506251, 37.8207241 ], [ -3.4503586, 37.8206451 ], [ -3.4499723, 37.8206285 ], [ -3.4499722, 37.8206285 ], [ -3.4486222, 37.8209671 ], [ -3.4479747, 37.8209876 ], [ -3.4469052, 37.8207483 ], [ -3.4464379, 37.8205157 ], [ -3.4437063, 37.8178492 ], [ -3.4427086, 37.8162937 ], [ -3.4422052, 37.8157188 ], [ -3.4417597, 37.8153238 ], [ -3.4408081, 37.8138673 ], [ -3.4394472, 37.8123492 ], [ -3.4393089, 37.8120343 ], [ -3.4393089, 37.8120342 ], [ -3.438676, 37.8106666 ], [ -3.4380559, 37.8095513 ], [ -3.4374604, 37.8087423 ], [ -3.4374357, 37.808418 ], [ -3.4378148, 37.8072088 ], [ -3.4378351, 37.8067852 ], [ -3.4376948, 37.8061277 ], [ -3.4373267, 37.805354 ], [ -3.4367314, 37.804572 ], [ -3.4354619, 37.8031167 ], [ -3.4346477, 37.8017947 ], [ -3.4339833, 37.8008598 ], [ -3.4337758, 37.8003288 ], [ -3.4336696, 37.7996532 ], [ -3.4336747, 37.7985806 ], [ -3.4340282, 37.7949561 ], [ -3.4340666, 37.7937482 ], [ -3.4339564, 37.7923786 ], [ -3.4336879, 37.7911358 ], [ -3.4336722, 37.7903968 ], [ -3.4337478, 37.7897295 ], [ -3.4334969, 37.7876124 ], [ -3.4332416, 37.786667 ], [ -3.4329999, 37.7861361 ], [ -3.4329828, 37.7851537 ], [ -3.433102, 37.7841618 ], [ -3.4332678, 37.7833861 ], [ -3.4332987, 37.7828452 ], [ -3.4332278, 37.7823859 ], [ -3.432483, 37.7812349 ], [ -3.4319664, 37.7802814 ], [ -3.4318158, 37.7797682 ], [ -3.4323809, 37.7773687 ], [ -3.432381, 37.7773686 ], [ -3.4327976, 37.7767723 ], [ -3.4334971, 37.7759946 ], [ -3.4339264, 37.7756145 ], [ -3.4339591, 37.775371 ], [ -3.4336828, 37.774723 ], [ -3.4335999, 37.7741555 ], [ -3.4334733, 37.7738586 ], [ -3.4334733, 37.7738585 ], [ -3.4333156, 37.7737036 ], [ -3.4330621, 37.7734545 ], [ -3.432493, 37.7732223 ], [ -3.4322078, 37.7729799 ], [ -3.4320805, 37.7725748 ], [ -3.4322219, 37.7715197 ], [ -3.4321844, 37.770925 ], [ -3.4320336, 37.7703848 ], [ -3.4317818, 37.7700252 ], [ -3.4313019, 37.7695132 ], [ -3.4310622, 37.7692978 ], [ -3.4308226, 37.7691003 ], [ -3.4306613, 37.7686953 ], [ -3.430703, 37.7680553 ], [ -3.4314014, 37.7671063 ], [ -3.4315343, 37.76652 ], [ -3.4313816, 37.7656553 ], [ -3.4313292, 37.7644297 ], [ -3.4313368, 37.7643275 ], [ -3.4314661, 37.7625995 ], [ -3.431652, 37.7613821 ], [ -3.4317028, 37.7603544 ], [ -3.4316832, 37.7602708 ], [ -3.4312488, 37.7584272 ], [ -3.4310173, 37.7576529 ], [ -3.4311482, 37.7567512 ], [ -3.4315282, 37.7557133 ], [ -3.4318172, 37.7546577 ], [ -3.4319704, 37.7536657 ], [ -3.4320936, 37.7533768 ], [ -3.433688, 37.7523165 ], [ -3.4340944, 37.7519183 ], [ -3.434374, 37.7512143 ], [ -3.4347422, 37.7501133 ], [ -3.4353219, 37.7483086 ], [ -3.4357355, 37.7472255 ], [ -3.436118, 37.7466292 ], [ -3.4372684, 37.7453901 ], [ -3.4390149, 37.7432025 ], [ -3.4391708, 37.7426971 ], [ -3.4391204, 37.7418501 ], [ -3.4388311, 37.7409048 ], [ -3.4388387, 37.7402829 ], [ -3.4391062, 37.7394436 ], [ -3.4395323, 37.7385498 ], [ -3.4397427, 37.7376837 ], [ -3.439784, 37.7369895 ], [ -3.4396407, 37.7357823 ], [ -3.4398027, 37.732492 ], [ -3.4398027, 37.7324919 ], [ -3.4398026, 37.7324919 ], [ -3.4391334, 37.7325214 ], [ -3.4352096, 37.7330227 ], [ -3.4341654, 37.7329995 ], [ -3.4331547, 37.732886 ], [ -3.4320989, 37.7328268 ], [ -3.4308962, 37.7328762 ], [ -3.429422, 37.7330799 ], [ -3.4283682, 37.7333541 ], [ -3.4274951, 37.7334925 ], [ -3.4272143, 37.7340163 ], [ -3.4258625, 37.7357697 ], [ -3.4251377, 37.7360427 ], [ -3.4242087, 37.7363254 ], [ -3.4229529, 37.7370239 ], [ -3.4218566, 37.7378391 ], [ -3.4203429, 37.7391063 ], [ -3.4192692, 37.7399033 ], [ -3.4185783, 37.7401671 ], [ -3.416526, 37.7405259 ], [ -3.4159714, 37.7407982 ], [ -3.4155874, 37.741133 ], [ -3.4150696, 37.74191 ], [ -3.4142718, 37.7433549 ], [ -3.4135544, 37.7449798 ], [ -3.4137634, 37.7458173 ], [ -3.4141762, 37.746564 ], [ -3.4159401, 37.7493969 ], [ -3.4158845, 37.7496044 ], [ -3.4154674, 37.7501106 ], [ -3.4146779, 37.7510417 ], [ -3.4134526, 37.7532001 ], [ -3.4131131, 37.7533906 ], [ -3.4124783, 37.7535551 ], [ -3.4109715, 37.7540921 ], [ -3.4074499, 37.7557086 ], [ -3.4057407, 37.7566248 ], [ -3.4052648, 37.7567977 ], [ -3.4049697, 37.7568168 ], [ -3.4040493, 37.7566487 ], [ -3.4034588, 37.7566236 ], [ -3.4019282, 37.7569894 ], [ -3.399399, 37.7574486 ], [ -3.3971662, 37.7581231 ], [ -3.3910894, 37.7597027 ], [ -3.3899098, 37.7599138 ], [ -3.3882886, 37.7603518 ], [ -3.3877676, 37.7605878 ], [ -3.3874736, 37.7608141 ], [ -3.3856451, 37.7628751 ], [ -3.3845173, 37.7643209 ], [ -3.3840991, 37.7646918 ], [ -3.3836234, 37.7649096 ], [ -3.3829887, 37.765119 ], [ -3.3808673, 37.7654684 ], [ -3.3778411, 37.7665236 ], [ -3.3763097, 37.7667988 ], [ -3.3758791, 37.7669625 ], [ -3.3762549, 37.7671776 ], [ -3.3800868, 37.7704732 ], [ -3.3810574, 37.7715336 ], [ -3.3818231, 37.7724955 ], [ -3.3827855, 37.7741509 ], [ -3.383165, 37.775078 ], [ -3.3832927, 37.7756183 ], [ -3.3830849, 37.7793505 ], [ -3.3829281, 37.7797566 ], [ -3.3816493, 37.780635 ], [ -3.3804264, 37.7813329 ], [ -3.3793059, 37.7820576 ], [ -3.3780479, 37.7825663 ], [ -3.3764721, 37.7831121 ], [ -3.3738633, 37.7837423 ], [ -3.3717863, 37.7839922 ], [ -3.3714129, 37.7842728 ], [ -3.3699176, 37.7850346 ], [ -3.3688632, 37.7853894 ], [ -3.3681823, 37.7854997 ], [ -3.3665248, 37.785622 ], [ -3.3626319, 37.7861297 ], [ -3.3607939, 37.7865229 ], [ -3.360572, 37.7875871 ], [ -3.3603597, 37.7883088 ], [ -3.3603054, 37.7888227 ], [ -3.3605755, 37.7929679 ], [ -3.3607744, 37.7941661 ], [ -3.3607778, 37.7948601 ], [ -3.3605988, 37.7954375 ], [ -3.3602269, 37.7960154 ], [ -3.3594698, 37.7968379 ], [ -3.3599754, 37.7980441 ], [ -3.3605188, 37.7999893 ], [ -3.3608636, 37.8008084 ], [ -3.3620161, 37.8018865 ], [ -3.361824, 37.8020944 ], [ -3.3609198, 37.8030165 ], [ -3.3600392, 37.8041368 ], [ -3.3592248, 37.8048603 ], [ -3.3589098, 37.8055012 ], [ -3.3585964, 37.8064575 ], [ -3.3587224, 37.8066735 ], [ -3.3591557, 37.8070056 ], [ -3.3604091, 37.8077859 ], [ -3.3616618, 37.808413 ], [ -3.3625734, 37.8089781 ], [ -3.3644783, 37.8105405 ], [ -3.3655264, 37.8111411 ], [ -3.3673755, 37.8128749 ], [ -3.3681373, 37.8129987 ], [ -3.368945, 37.8132125 ], [ -3.3696394, 37.8134717 ], [ -3.369753, 37.8134713 ], [ -3.3702075, 37.813488 ], [ -3.3710592, 37.8134042 ], [ -3.3723099, 37.8135985 ], [ -3.3746309, 37.8142582 ], [ -3.3752806, 37.8146617 ], [ -3.3767191, 37.8160541 ], [ -3.377495, 37.8166826 ], [ -3.3799118, 37.8182791 ], [ -3.3808119, 37.8187629 ], [ -3.3814606, 37.8189591 ], [ -3.3823243, 37.8189924 ], [ -3.3831207, 37.8192061 ], [ -3.3839862, 37.8195819 ], [ -3.3846115, 37.8196519 ], [ -3.3859853, 37.8194672 ], [ -3.3873699, 37.8191742 ], [ -3.3879024, 37.818866 ], [ -3.3885943, 37.8186475 ], [ -3.3891287, 37.8187268 ], [ -3.3896749, 37.8188693 ], [ -3.3919872, 37.8199792 ], [ -3.3928991, 37.820535 ], [ -3.3934363, 37.8211281 ], [ -3.3936096, 37.8216682 ], [ -3.3936587, 37.8223531 ], [ -3.393595, 37.8231825 ], [ -3.3932441, 37.8255902 ], [ -3.3929203, 37.8266637 ], [ -3.3921217, 37.8282076 ], [ -3.3920453, 37.8287938 ], [ -3.3921856, 37.8295323 ], [ -3.3923663, 37.8314785 ], [ -3.3921545, 37.8322454 ], [ -3.3918399, 37.8329224 ], [ -3.3913539, 37.8334377 ], [ -3.3912635, 37.8335282 ], [ -3.3909808, 37.8337904 ], [ -3.3907101, 37.8341879 ], [ -3.3898438, 37.8358312 ], [ -3.3888277, 37.8371144 ], [ -3.3882651, 37.8381798 ], [ -3.3878272, 37.8392177 ], [ -3.3872853, 37.8398955 ], [ -3.3861554, 37.8389888 ], [ -3.3856996, 37.838774 ], [ -3.3837574, 37.8389966 ], [ -3.3824632, 37.8392712 ], [ -3.3817939, 37.8395167 ], [ -3.3812274, 37.8398611 ], [ -3.3803218, 37.840567 ], [ -3.3792364, 37.8416701 ], [ -3.3781861, 37.8429803 ], [ -3.3775437, 37.8440369 ], [ -3.3770725, 37.8452461 ], [ -3.3767145, 37.8463829 ], [ -3.3764842, 37.848024 ], [ -3.3768167, 37.8485818 ], [ -3.3774329, 37.8490485 ], [ -3.3779588, 37.8496507 ], [ -3.3779402, 37.8504619 ], [ -3.3778065, 37.8509761 ], [ -3.3774355, 37.8517885 ], [ -3.3774036, 37.8522121 ], [ -3.3774861, 37.8527797 ], [ -3.3778096, 37.8538151 ], [ -3.3779499, 37.8545718 ], [ -3.3777557, 37.8566094 ], [ -3.3778496, 37.8616383 ], [ -3.3777913, 37.8635672 ], [ -3.3776719, 37.8646853 ], [ -3.3777417, 37.8649915 ], [ -3.3789328, 37.8666911 ], [ -3.3801595, 37.86867 ], [ -3.3822597, 37.8724576 ], [ -3.3829588, 37.8735099 ], [ -3.3845704, 37.875118 ], [ -3.386, 37.8767086 ], [ -3.3873602, 37.8780471 ], [ -3.3883992, 37.8788638 ], [ -3.3894607, 37.8796084 ], [ -3.3916734, 37.8808629 ], [ -3.3932935, 37.8818669 ], [ -3.3958527, 37.8841026 ], [ -3.3972115, 37.8851255 ], [ -3.4032006, 37.8885571 ], [ -3.4049455, 37.8894524 ], [ -3.4050759, 37.8924893 ], [ -3.4052524, 37.8935702 ], [ -3.405508, 37.8945517 ], [ -3.4057616, 37.8951548 ], [ -3.4060714, 37.8956494 ], [ -3.4070335, 37.8968628 ], [ -3.4079707, 37.8976707 ], [ -3.4096946, 37.8988364 ], [ -3.4108257, 37.8997518 ], [ -3.4114781, 37.9004705 ], [ -3.411766, 37.9011094 ], [ -3.4117802, 37.9016051 ], [ -3.4116572, 37.9019931 ], [ -3.410335, 37.9035389 ], [ -3.4099734, 37.9039728 ], [ -3.4096466, 37.9045417 ], [ -3.409579, 37.9046591 ] ], [ [ -3.4122722, 37.8217698 ], [ -3.4119717, 37.8216223 ], [ -3.4111214, 37.8214439 ], [ -3.4111592, 37.8215196 ], [ -3.41142, 37.8216382 ], [ -3.4114282, 37.821684 ], [ -3.4114765, 37.8219529 ], [ -3.4115874, 37.8221914 ], [ -3.4116982, 37.8224299 ], [ -3.4116689, 37.8226564 ], [ -3.4118643, 37.8230305 ], [ -3.4119517, 37.8233027 ], [ -3.4120388, 37.8235238 ], [ -3.411783, 37.8238654 ], [ -3.4115052, 37.8240963 ], [ -3.4112283, 37.824506 ], [ -3.4110149, 37.8247452 ], [ -3.4111451, 37.8249832 ], [ -3.4112767, 37.8254938 ], [ -3.4115576, 37.8257993 ], [ -3.411817, 37.8261221 ], [ -3.4120973, 37.8263084 ], [ -3.4126352, 37.8264939 ], [ -3.4132597, 37.8268153 ], [ -3.413712, 37.8270693 ], [ -3.4139917, 37.8271534 ], [ -3.41425, 37.8272718 ], [ -3.4146582, 37.8273044 ], [ -3.4156601, 37.8275533 ], [ -3.4158627, 37.8276408 ], [ -3.4161426, 37.8277761 ], [ -3.4166593, 37.8280127 ], [ -3.4170899, 37.8282156 ], [ -3.4173699, 37.8283508 ], [ -3.417688, 37.8284913 ], [ -3.4177143, 37.8285029 ], [ -3.4179511, 37.8286043 ], [ -3.4183601, 37.8287732 ], [ -3.4186612, 37.8288572 ], [ -3.4189195, 37.8289585 ], [ -3.4191999, 37.829179 ], [ -3.4190293, 37.829384 ], [ -3.4187503, 37.829419 ], [ -3.4182578, 37.8296592 ], [ -3.4179152, 37.8298478 ], [ -3.4176799, 37.830019 ], [ -3.4173594, 37.8303096 ], [ -3.4172823, 37.8306057 ], [ -3.4172208, 37.8308757 ], [ -3.4171597, 37.8312158 ], [ -3.4169969, 37.8314062 ], [ -3.4167718, 37.8317069 ], [ -3.41648, 37.8313681 ], [ -3.4162895, 37.8310989 ], [ -3.4161247, 37.8309296 ], [ -3.415985, 37.8307301 ], [ -3.4157196, 37.8305911 ], [ -3.4154042, 37.8305423 ], [ -3.4150259, 37.8304836 ], [ -3.4147104, 37.8304148 ], [ -3.4142435, 37.8302965 ], [ -3.4136252, 37.8301488 ], [ -3.4133095, 37.8300399 ], [ -3.4131314, 37.8297307 ], [ -3.412979, 37.8295313 ], [ -3.4130105, 37.8284018 ], [ -3.4129168, 37.828146 ], [ -3.4126321, 37.8278886 ], [ -3.4125077, 37.8276719 ], [ -3.4123519, 37.8274152 ], [ -3.4122201, 37.8276512 ], [ -3.411906, 37.8277934 ], [ -3.4115918, 37.827914 ], [ -3.4114013, 37.8281264 ], [ -3.4109613, 37.8277804 ], [ -3.4107136, 37.8275533 ], [ -3.4102458, 37.8271422 ], [ -3.4098477, 37.8269481 ], [ -3.4098191, 37.8267094 ], [ -3.4100066, 37.8259703 ], [ -3.4099505, 37.8257208 ], [ -3.4100298, 37.825221 ], [ -3.4101513, 37.8248948 ], [ -3.4103968, 37.8247365 ], [ -3.4106011, 37.8245512 ], [ -3.4108182, 37.8242029 ], [ -3.4107076, 37.8240078 ], [ -3.4104598, 37.8237589 ], [ -3.4099924, 37.8234131 ], [ -3.4096768, 37.823273 ], [ -3.4095273, 37.823469 ], [ -3.4097651, 37.8243912 ], [ -3.409054, 37.8245348 ], [ -3.4088064, 37.8243185 ], [ -3.4085028, 37.8238744 ], [ -3.4083752, 37.8230712 ], [ -3.4082089, 37.8227135 ], [ -3.4079603, 37.8223125 ], [ -3.407739, 37.8218898 ], [ -3.4079283, 37.8214765 ], [ -3.4083922, 37.8211926 ], [ -3.4083087, 37.8209431 ], [ -3.4073746, 37.8203708 ], [ -3.4075486, 37.8196427 ], [ -3.4089462, 37.8198768 ], [ -3.4100012, 37.8201615 ], [ -3.4102016, 37.8199208 ], [ -3.4104685, 37.8197902 ], [ -3.4107351, 37.8196123 ], [ -3.4110311, 37.8193754 ], [ -3.4110002, 37.8191633 ], [ -3.4115653, 37.8191849 ], [ -3.4117445, 37.8193376 ], [ -3.4119241, 37.8195492 ], [ -3.4122652, 37.8193947 ], [ -3.4125323, 37.8193112 ], [ -3.4129331, 37.8192037 ], [ -3.4134224, 37.8189543 ], [ -3.4135993, 37.8186942 ], [ -3.4136724, 37.8184699 ], [ -3.4136559, 37.8181869 ], [ -3.4135355, 37.8179161 ], [ -3.4131911, 37.8174809 ], [ -3.4126695, 37.8172587 ], [ -3.4122226, 37.8170834 ], [ -3.4118196, 37.8167899 ], [ -3.411283, 37.8165442 ], [ -3.4107019, 37.8163103 ], [ -3.4107898, 37.8160741 ], [ -3.4112658, 37.8161196 ], [ -3.4120541, 37.8161876 ], [ -3.4117996, 37.8158819 ], [ -3.4112319, 37.815365 ], [ -3.4109035, 37.8151303 ], [ -3.4107087, 37.8148597 ], [ -3.4099343, 37.8146147 ], [ -3.4112092, 37.8139734 ], [ -3.4114182, 37.8141142 ], [ -3.4118944, 37.8142069 ], [ -3.412105, 37.8146425 ], [ -3.412285, 37.8149367 ], [ -3.4124792, 37.815113 ], [ -3.4127029, 37.8152301 ], [ -3.4130747, 37.8152642 ], [ -3.4134016, 37.8152395 ], [ -3.4136695, 37.8152975 ], [ -3.4139676, 37.815438 ], [ -3.4140878, 37.8156616 ], [ -3.4143273, 37.8159438 ], [ -3.4145822, 37.8163439 ], [ -3.4147172, 37.8165557 ], [ -3.4148819, 37.8167556 ], [ -3.4150764, 37.816979 ], [ -3.4153009, 37.8172495 ], [ -3.4158358, 37.8172004 ], [ -3.4161202, 37.8175414 ], [ -3.4161662, 37.8177889 ], [ -3.4162422, 37.8180835 ], [ -3.4163038, 37.8184724 ], [ -3.4166814, 37.8195089 ], [ -3.4158786, 37.8195117 ], [ -3.4159692, 37.8197591 ], [ -3.4160595, 37.8199593 ], [ -3.4162404, 37.8204068 ], [ -3.4164665, 37.8209485 ], [ -3.4164982, 37.8213022 ], [ -3.4165886, 37.8215259 ], [ -3.4166795, 37.8218204 ], [ -3.4167286, 37.8226222 ], [ -3.4165997, 37.823146 ], [ -3.4161997, 37.8230533 ], [ -3.4157373, 37.8229856 ], [ -3.415475, 37.8229469 ], [ -3.4151626, 37.8229183 ], [ -3.4148506, 37.8229293 ], [ -3.4144885, 37.8229207 ], [ -3.4141264, 37.822922 ], [ -3.4136022, 37.8229535 ], [ -3.4136381, 37.8226662 ], [ -3.4134996, 37.8224686 ], [ -3.4131609, 37.8221727 ], [ -3.4129728, 37.8220248 ], [ -3.4125969, 37.8217885 ], [ -3.4122722, 37.8217698 ] ] ] }, { "type": "LineString", "coordinates": [ [ -3.4586089, 37.8226772 ], [ -3.4586089, 37.8226771 ] ] } ] } },
{ "type": "Feature", "properties": { "CCAA": "01 - Andalucía", "PROVINCIA": "23 - Jaén", "MUNICIPIO": "23902 - Bedmar y Garcíez", "COD_MUNICIPIO": "23902", "DISTRITO": "01", "SECCION": "2390201001", "V1_H": 79.36, "V1_M": 85.46, "V2_H": 79.32780616, "V2_M": 85.51002556, "V3_H": 79.53169609, "V3_M": 85.5666933 }, "geometry": { "type": "Polygon", "coordinates": [ [ [ -3.4111214, 37.8214439 ], [ -3.4119717, 37.8216223 ], [ -3.4122722, 37.8217698 ], [ -3.4125969, 37.8217885 ], [ -3.4129728, 37.8220248 ], [ -3.4131609, 37.8221727 ], [ -3.4134996, 37.8224686 ], [ -3.4136381, 37.8226662 ], [ -3.4136022, 37.8229535 ], [ -3.4141264, 37.822922 ], [ -3.4144885, 37.8229207 ], [ -3.4148506, 37.8229293 ], [ -3.4151626, 37.8229183 ], [ -3.415475, 37.8229469 ], [ -3.4157373, 37.8229856 ], [ -3.4161997, 37.8230533 ], [ -3.4165997, 37.823146 ], [ -3.4167286, 37.8226222 ], [ -3.4166795, 37.8218204 ], [ -3.4165886, 37.8215259 ], [ -3.4164982, 37.8213022 ], [ -3.4164665, 37.8209485 ], [ -3.4162404, 37.8204068 ], [ -3.4160595, 37.8199593 ], [ -3.4159692, 37.8197591 ], [ -3.4158786, 37.8195117 ], [ -3.4166814, 37.8195089 ], [ -3.4163038, 37.8184724 ], [ -3.4162422, 37.8180835 ], [ -3.4161662, 37.8177889 ], [ -3.4161202, 37.8175414 ], [ -3.4158358, 37.8172004 ], [ -3.4153009, 37.8172495 ], [ -3.4150764, 37.816979 ], [ -3.4148819, 37.8167556 ], [ -3.4147172, 37.8165557 ], [ -3.4145822, 37.8163439 ], [ -3.4143273, 37.8159438 ], [ -3.4140878, 37.8156616 ], [ -3.4139676, 37.815438 ], [ -3.4136695, 37.8152975 ], [ -3.4134016, 37.8152395 ], [ -3.4130747, 37.8152642 ], [ -3.4127029, 37.8152301 ], [ -3.4124792, 37.815113 ], [ -3.412285, 37.8149367 ], [ -3.412105, 37.8146425 ], [ -3.4118944, 37.8142069 ], [ -3.4114182, 37.8141142 ], [ -3.4112092, 37.8139734 ], [ -3.4099343, 37.8146147 ], [ -3.4107087, 37.8148597 ], [ -3.4109035, 37.8151303 ], [ -3.4112319, 37.815365 ], [ -3.4117996, 37.8158819 ], [ -3.4120541, 37.8161876 ], [ -3.4112658, 37.8161196 ], [ -3.4107898, 37.8160741 ], [ -3.4107019, 37.8163103 ], [ -3.411283, 37.8165442 ], [ -3.4118196, 37.8167899 ], [ -3.4122226, 37.8170834 ], [ -3.4126695, 37.8172587 ], [ -3.4131911, 37.8174809 ], [ -3.4135355, 37.8179161 ], [ -3.4136559, 37.8181869 ], [ -3.4136724, 37.8184699 ], [ -3.4135993, 37.8186942 ], [ -3.4134224, 37.8189543 ], [ -3.4129331, 37.8192037 ], [ -3.4125323, 37.8193112 ], [ -3.4122652, 37.8193947 ], [ -3.4119241, 37.8195492 ], [ -3.4117445, 37.8193376 ], [ -3.4115653, 37.8191849 ], [ -3.4110002, 37.8191633 ], [ -3.4110311, 37.8193754 ], [ -3.4107351, 37.8196123 ], [ -3.4104685, 37.8197902 ], [ -3.4102016, 37.8199208 ], [ -3.4100012, 37.8201615 ], [ -3.4100978, 37.8201876 ], [ -3.4104132, 37.8202951 ], [ -3.4107147, 37.8203484 ], [ -3.4107576, 37.820674 ], [ -3.4108957, 37.8209016 ], [ -3.4110347, 37.8212703 ], [ -3.4111214, 37.8214439 ] ] ] } },
{ "type": "Feature", "properties": { "CCAA": "01 - Andalucía", "PROVINCIA": "23 - Jaén", "MUNICIPIO": "23902 - Bedmar y Garcíez", "COD_MUNICIPIO": "23902", "DISTRITO": "01", "SECCION": "2390201002", "V1_H": 77.6, "V1_M": 83.87, "V2_H": 77.77347434000001, "V2_M": 84.06024086, "V3_H": 77.45781126, "V3_M": 83.80561047 }, "geometry": { "type": "Polygon", "coordinates": [ [ [ -3.4100012, 37.8201615 ], [ -3.4089462, 37.8198768 ], [ -3.4075486, 37.8196427 ], [ -3.4073746, 37.8203708 ], [ -3.4083087, 37.8209431 ], [ -3.4083922, 37.8211926 ], [ -3.4079283, 37.8214765 ], [ -3.407739, 37.8218898 ], [ -3.4079603, 37.8223125 ], [ -3.4082089, 37.8227135 ], [ -3.4083752, 37.8230712 ], [ -3.4085028, 37.8238744 ], [ -3.4088064, 37.8243185 ], [ -3.409054, 37.8245348 ], [ -3.4097651, 37.8243912 ], [ -3.4095273, 37.823469 ], [ -3.4096768, 37.823273 ], [ -3.4099924, 37.8234131 ], [ -3.4104598, 37.8237589 ], [ -3.4107076, 37.8240078 ], [ -3.4108182, 37.8242029 ], [ -3.4106011, 37.8245512 ], [ -3.4103968, 37.8247365 ], [ -3.4101513, 37.8248948 ], [ -3.4100298, 37.825221 ], [ -3.4099505, 37.8257208 ], [ -3.4100066, 37.8259703 ], [ -3.4098191, 37.8267094 ], [ -3.4098477, 37.8269481 ], [ -3.4102458, 37.8271422 ], [ -3.4107136, 37.8275533 ], [ -3.4109613, 37.8277804 ], [ -3.4114013, 37.8281264 ], [ -3.4115918, 37.827914 ], [ -3.411906, 37.8277934 ], [ -3.4122201, 37.8276512 ], [ -3.4123519, 37.8274152 ], [ -3.4125077, 37.8276719 ], [ -3.4126321, 37.8278886 ], [ -3.4129168, 37.828146 ], [ -3.4130105, 37.8284018 ], [ -3.412979, 37.8295313 ], [ -3.4131314, 37.8297307 ], [ -3.4133095, 37.8300399 ], [ -3.4136252, 37.8301488 ], [ -3.4142435, 37.8302965 ], [ -3.4147104, 37.8304148 ], [ -3.4150259, 37.8304836 ], [ -3.4154042, 37.8305423 ], [ -3.4157196, 37.8305911 ], [ -3.415985, 37.8307301 ], [ -3.4161247, 37.8309296 ], [ -3.4162895, 37.8310989 ], [ -3.41648, 37.8313681 ], [ -3.4167718, 37.8317069 ], [ -3.4169969, 37.8314062 ], [ -3.4171597, 37.8312158 ], [ -3.4172208, 37.8308757 ], [ -3.4172823, 37.8306057 ], [ -3.4173594, 37.8303096 ], [ -3.4176799, 37.830019 ], [ -3.4179152, 37.8298478 ], [ -3.4182578, 37.8296592 ], [ -3.4187503, 37.829419 ], [ -3.4190293, 37.829384 ], [ -3.4191999, 37.829179 ], [ -3.4189195, 37.8289585 ], [ -3.4186612, 37.8288572 ], [ -3.4183601, 37.8287732 ], [ -3.4179511, 37.8286043 ], [ -3.4177143, 37.8285029 ], [ -3.417688, 37.8284913 ], [ -3.4173699, 37.8283508 ], [ -3.4170899, 37.8282156 ], [ -3.4166593, 37.8280127 ], [ -3.4161426, 37.8277761 ], [ -3.4158627, 37.8276408 ], [ -3.4156601, 37.8275533 ], [ -3.4146582, 37.8273044 ], [ -3.41425, 37.8272718 ], [ -3.4139917, 37.8271534 ], [ -3.413712, 37.8270693 ], [ -3.4132597, 37.8268153 ], [ -3.4126352, 37.8264939 ], [ -3.4120973, 37.8263084 ], [ -3.411817, 37.8261221 ], [ -3.4115576, 37.8257993 ], [ -3.4112767, 37.8254938 ], [ -3.4111451, 37.8249832 ], [ -3.4110149, 37.8247452 ], [ -3.4112283, 37.824506 ], [ -3.4115052, 37.8240963 ], [ -3.411783, 37.8238654 ], [ -3.4120388, 37.8235238 ], [ -3.4119517, 37.8233027 ], [ -3.4118643, 37.8230305 ], [ -3.4116689, 37.8226564 ], [ -3.4116982, 37.8224299 ], [ -3.4115874, 37.8221914 ], [ -3.4114765, 37.8219529 ], [ -3.4114282, 37.821684 ], [ -3.41142, 37.8216382 ], [ -3.4111592, 37.8215196 ], [ -3.4111214, 37.8214439 ], [ -3.4110347, 37.8212703 ], [ -3.4108957, 37.8209016 ], [ -3.4107576, 37.820674 ], [ -3.4107147, 37.8203484 ], [ -3.4104132, 37.8202951 ], [ -3.4100978, 37.8201876 ], [ -3.4100012, 37.8201615 ] ] ] } }
]
}
