{
"type": "FeatureCollection",
"name": "24008",
"features": [
{ "type": "Feature", "properties": { "CCAA": "07 - Castilla y León", "PROVINCIA": "24 - León", "MUNICIPIO": "24008 - Astorga", "COD_MUNICIPIO": "24008", "DISTRITO": "01", "SECCION": "2400801001", "V1_H": 80.63, "V1_M": 86.52, "V2_H": 80.3855305, "V2_M": 86.44800565, "V3_H": 80.88841766, "V3_M": 86.66780776 }, "geometry": { "type": "Polygon", "coordinates": [ [ [ -6.0508083, 42.4545383 ], [ -6.0508662, 42.4546418 ], [ -6.0509269, 42.4547504 ], [ -6.051036, 42.4549475 ], [ -6.0511648, 42.4551854 ], [ -6.0512378, 42.4553203 ], [ -6.0513841, 42.4555848 ], [ -6.0515802, 42.4558912 ], [ -6.0516401, 42.4559674 ], [ -6.0517122, 42.4560292 ], [ -6.0517991, 42.4560826 ], [ -6.0521239, 42.4562897 ], [ -6.0523064, 42.456379 ], [ -6.0526173, 42.4565311 ], [ -6.0527194, 42.4565884 ], [ -6.052878, 42.4566939 ], [ -6.0527859, 42.4567503 ], [ -6.0528674, 42.4568298 ], [ -6.0528865, 42.4568529 ], [ -6.0532973, 42.4564864 ], [ -6.0533444, 42.4564832 ], [ -6.0534502, 42.4563976 ], [ -6.0535453, 42.4563271 ], [ -6.0536448, 42.4563842 ], [ -6.0543192, 42.4560873 ], [ -6.0551349, 42.4555684 ], [ -6.0552926, 42.4554518 ], [ -6.0557776, 42.4548774 ], [ -6.0558924, 42.4549529 ], [ -6.0560848, 42.4550425 ], [ -6.0564677, 42.4552059 ], [ -6.0566957, 42.45532 ], [ -6.0569166, 42.4551554 ], [ -6.0572078, 42.4549383 ], [ -6.0574036, 42.4547924 ], [ -6.057445, 42.4547455 ], [ -6.0573448, 42.4546972 ], [ -6.0563471, 42.4542173 ], [ -6.055844, 42.4539795 ], [ -6.0558063, 42.4539616 ], [ -6.0552359, 42.4537323 ], [ -6.0545376, 42.4534517 ], [ -6.0540974, 42.4532721 ], [ -6.0535298, 42.4530185 ], [ -6.0535404, 42.4529867 ], [ -6.0535284, 42.4529369 ], [ -6.0533337, 42.4528364 ], [ -6.0531472, 42.4526982 ], [ -6.0528352, 42.4524923 ], [ -6.0525563, 42.452335 ], [ -6.0525901, 42.4523001 ], [ -6.0522301, 42.4521572 ], [ -6.0520636, 42.4520959 ], [ -6.0519866, 42.4520675 ], [ -6.0518601, 42.4520905 ], [ -6.0516379, 42.4521682 ], [ -6.051402, 42.4522599 ], [ -6.0511831, 42.4523329 ], [ -6.0503885, 42.4524697 ], [ -6.050339, 42.4525963 ], [ -6.0503324, 42.4526536 ], [ -6.0502575, 42.4526515 ], [ -6.0502503, 42.4528044 ], [ -6.0502406, 42.4529528 ], [ -6.0502432, 42.4530488 ], [ -6.050266, 42.4531356 ], [ -6.0503309, 42.4533282 ], [ -6.0503763, 42.4534562 ], [ -6.0505019, 42.4538505 ], [ -6.0506471, 42.4541982 ], [ -6.0507307, 42.4543753 ], [ -6.0508083, 42.4545383 ] ] ] } },
{ "type": "Feature", "properties": { "CCAA": "07 - Castilla y León", "PROVINCIA": "24 - León", "MUNICIPIO": "24008 - Astorga", "COD_MUNICIPIO": "24008", "DISTRITO": "02", "SECCION": "2400802001", "V1_H": 80.24, "V1_M": 86.29, "V2_H": 79.84273941, "V2_M": 86.47368807, "V3_H": 80.7355329, "V3_M": 86.23078999000001 }, "geometry": { "type": "Polygon", "coordinates": [ [ [ -6.0475304, 42.4705371 ], [ -6.0480598, 42.4704169 ], [ -6.0505753, 42.4703679 ], [ -6.0505952, 42.4703743 ], [ -6.0509393, 42.4703676 ], [ -6.0515572, 42.4705673 ], [ -6.0564836, 42.4715705 ], [ -6.0592063, 42.4722812 ], [ -6.0605065, 42.4737503 ], [ -6.0615884, 42.474982 ], [ -6.0626765, 42.4753202 ], [ -6.062624, 42.4750648 ], [ -6.0625715, 42.4750004 ], [ -6.0625509, 42.4749134 ], [ -6.0625486, 42.4747341 ], [ -6.0625023, 42.4744673 ], [ -6.0626534, 42.474105 ], [ -6.0626621, 42.4738217 ], [ -6.0627466, 42.4736031 ], [ -6.0626544, 42.4733125 ], [ -6.0625253, 42.4729578 ], [ -6.0624753, 42.472558 ], [ -6.062528, 42.4723621 ], [ -6.0624864, 42.4716905 ], [ -6.0624372, 42.471013 ], [ -6.0624657, 42.4703366 ], [ -6.0625705, 42.4699621 ], [ -6.0625693, 42.4697481 ], [ -6.0626301, 42.4695407 ], [ -6.0625577, 42.4693661 ], [ -6.0624901, 42.4690354 ], [ -6.0624908, 42.4687578 ], [ -6.0626159, 42.4684819 ], [ -6.0626919, 42.4682863 ], [ -6.0627045, 42.4681303 ], [ -6.0626404, 42.4679385 ], [ -6.0625768, 42.4677294 ], [ -6.0624118, 42.4675303 ], [ -6.0622007, 42.4673134 ], [ -6.0620603, 42.4670742 ], [ -6.0618231, 42.4666949 ], [ -6.0615882, 42.4662403 ], [ -6.0612177, 42.4656451 ], [ -6.0609582, 42.4652307 ], [ -6.060759, 42.4648809 ], [ -6.0606424, 42.4646247 ], [ -6.0606144, 42.4642714 ], [ -6.0605509, 42.4638078 ], [ -6.0603603, 42.4632891 ], [ -6.0602888, 42.4628736 ], [ -6.0601277, 42.4622121 ], [ -6.0600806, 42.4620875 ], [ -6.0600587, 42.4620299 ], [ -6.0599866, 42.461659 ], [ -6.0599608, 42.4615398 ], [ -6.0599308, 42.461402 ], [ -6.0599239, 42.4613696 ], [ -6.0598669, 42.461136 ], [ -6.0598566, 42.461096 ], [ -6.0597446, 42.460657 ], [ -6.0596905, 42.4604446 ], [ -6.05957, 42.4600183 ], [ -6.0595024, 42.4597792 ], [ -6.059498, 42.4597626 ], [ -6.0594008, 42.4593916 ], [ -6.0582813, 42.4591822 ], [ -6.0576355, 42.4590704 ], [ -6.0576374, 42.4590229 ], [ -6.0574403, 42.4589186 ], [ -6.0572909, 42.458896 ], [ -6.0560569, 42.4586739 ], [ -6.0553868, 42.4584873 ], [ -6.0547534, 42.4583369 ], [ -6.054646, 42.4583113 ], [ -6.0542181, 42.4581891 ], [ -6.0538682, 42.4580392 ], [ -6.0537034, 42.4579596 ], [ -6.0535246, 42.4578586 ], [ -6.0533772, 42.4577313 ], [ -6.0533286, 42.4576711 ], [ -6.0532964, 42.4579633 ], [ -6.0533192, 42.4580698 ], [ -6.0534219, 42.4585523 ], [ -6.0534217, 42.4586306 ], [ -6.0534142, 42.4587165 ], [ -6.0533968, 42.4587865 ], [ -6.053361, 42.4588742 ], [ -6.0532915, 42.4590029 ], [ -6.053227, 42.4591104 ], [ -6.0531674, 42.4592097 ], [ -6.0529651, 42.4595058 ], [ -6.0528485, 42.4596562 ], [ -6.0525968, 42.4599786 ], [ -6.0525847, 42.459994 ], [ -6.0523992, 42.460207 ], [ -6.0521512, 42.460492 ], [ -6.0516689, 42.4610497 ], [ -6.0514681, 42.4612804 ], [ -6.0504435, 42.4624581 ], [ -6.0502774, 42.4628134 ], [ -6.0502194, 42.4629789 ], [ -6.0502237, 42.4631554 ], [ -6.0503108, 42.4634361 ], [ -6.0505733, 42.4642503 ], [ -6.050559, 42.4656236 ], [ -6.0504905, 42.4663022 ], [ -6.0504151, 42.4667292 ], [ -6.0504329, 42.4671575 ], [ -6.050421, 42.4675449 ], [ -6.0503053, 42.4680176 ], [ -6.0501081, 42.4683619 ], [ -6.0499366, 42.4686255 ], [ -6.0497356, 42.4688367 ], [ -6.0494854, 42.4691339 ], [ -6.0491574, 42.4694301 ], [ -6.0487596, 42.4697194 ], [ -6.0479577, 42.4702518 ], [ -6.0475304, 42.4705371 ] ] ] } },
{ "type": "Feature", "properties": { "CCAA": "07 - Castilla y León", "PROVINCIA": "24 - León", "MUNICIPIO": "24008 - Astorga", "COD_MUNICIPIO": "24008", "DISTRITO": "03", "SECCION": "2400803002", "V1_H": 80.02, "V1_M": 85.97, "V2_H": 79.96436773000001, "V2_M": 86.10256972000001, "V3_H": 80.28635595, "V3_M": 85.87857517 }, "geometry": { "type": "Polygon", "coordinates": [ [ [ -6.057445, 42.4547455 ], [ -6.057557, 42.4547932 ], [ -6.0578862, 42.4549337 ], [ -6.0583306, 42.4551235 ], [ -6.0585414, 42.4552134 ], [ -6.0586722, 42.4552693 ], [ -6.0588806, 42.4553582 ], [ -6.0589349, 42.4552787 ], [ -6.0601032, 42.4557035 ], [ -6.0602428, 42.4557551 ], [ -6.0602682, 42.4557289 ], [ -6.0605802, 42.4560307 ], [ -6.0608203, 42.4558122 ], [ -6.0607746, 42.4557079 ], [ -6.0609966, 42.4554174 ], [ -6.0611726, 42.4552183 ], [ -6.062173, 42.4537874 ], [ -6.0630365, 42.4523658 ], [ -6.0631747, 42.4521498 ], [ -6.0637674, 42.4512392 ], [ -6.0640201, 42.450826 ], [ -6.0641012, 42.4506953 ], [ -6.0642123, 42.4504575 ], [ -6.064235, 42.4503285 ], [ -6.0643094, 42.4501637 ], [ -6.0643872, 42.449925 ], [ -6.0645238, 42.4496755 ], [ -6.0647501, 42.4492925 ], [ -6.0649852, 42.4488973 ], [ -6.0652884, 42.4483696 ], [ -6.0676566, 42.4442476 ], [ -6.068897, 42.443011 ], [ -6.07136, 42.4405003 ], [ -6.0725028, 42.4393874 ], [ -6.0725477, 42.4393436 ], [ -6.0708913, 42.4391184 ], [ -6.0696311, 42.4389541 ], [ -6.0648601, 42.4385957 ], [ -6.0633574, 42.4374472 ], [ -6.0630437, 42.4374858 ], [ -6.0594299, 42.4379304 ], [ -6.0577063, 42.4379855 ], [ -6.0576373, 42.4379764 ], [ -6.0561157, 42.4377758 ], [ -6.0559724, 42.4378051 ], [ -6.0555622, 42.4378892 ], [ -6.0513128, 42.4387593 ], [ -6.04636, 42.4391614 ], [ -6.0439074, 42.4394787 ], [ -6.0405741, 42.4396843 ], [ -6.0403819, 42.439674 ], [ -6.0402105, 42.4396846 ], [ -6.0385283, 42.4395942 ], [ -6.0381359, 42.4395235 ], [ -6.0374616, 42.4394063 ], [ -6.0341178, 42.4391438 ], [ -6.0335324, 42.4391052 ], [ -6.0315489, 42.4390677 ], [ -6.0304556, 42.4390494 ], [ -6.0300889, 42.4390433 ], [ -6.0303447, 42.4395588 ], [ -6.0326762, 42.4442877 ], [ -6.0327286, 42.4443674 ], [ -6.0358846, 42.450047 ], [ -6.036406, 42.4502673 ], [ -6.0367105, 42.4505293 ], [ -6.0369903, 42.4512874 ], [ -6.0367254, 42.452348 ], [ -6.0373913, 42.4532938 ], [ -6.0385948, 42.4550271 ], [ -6.0384898, 42.4543462 ], [ -6.044744, 42.4545973 ], [ -6.0477373, 42.4547375 ], [ -6.047832, 42.454742 ], [ -6.0481959, 42.454759 ], [ -6.0483178, 42.454796 ], [ -6.0485545, 42.4548678 ], [ -6.0486963, 42.4549485 ], [ -6.0491755, 42.4548049 ], [ -6.0501052, 42.4545263 ], [ -6.0502644, 42.4546807 ], [ -6.0508083, 42.4545383 ], [ -6.0507307, 42.4543753 ], [ -6.0506471, 42.4541982 ], [ -6.0505019, 42.4538505 ], [ -6.0503763, 42.4534562 ], [ -6.0503309, 42.4533282 ], [ -6.050266, 42.4531356 ], [ -6.0502432, 42.4530488 ], [ -6.0502406, 42.4529528 ], [ -6.0502503, 42.4528044 ], [ -6.0502575, 42.4526515 ], [ -6.0503324, 42.4526536 ], [ -6.050339, 42.4525963 ], [ -6.0503885, 42.4524697 ], [ -6.0511831, 42.4523329 ], [ -6.051402, 42.4522599 ], [ -6.0516379, 42.4521682 ], [ -6.0518601, 42.4520905 ], [ -6.0519866, 42.4520675 ], [ -6.0520636, 42.4520959 ], [ -6.0522301, 42.4521572 ], [ -6.0525901, 42.4523001 ], [ -6.0525563, 42.452335 ], [ -6.0528352, 42.4524923 ], [ -6.0531472, 42.4526982 ], [ -6.0533337, 42.4528364 ], [ -6.0535284, 42.4529369 ], [ -6.0535404, 42.4529867 ], [ -6.0535298, 42.4530185 ], [ -6.0540974, 42.4532721 ], [ -6.0545376, 42.4534517 ], [ -6.0552359, 42.4537323 ], [ -6.0558063, 42.4539616 ], [ -6.055844, 42.4539795 ], [ -6.0563471, 42.4542173 ], [ -6.0573448, 42.4546972 ], [ -6.057445, 42.4547455 ] ] ] } },
{ "type": "Feature", "properties": { "CCAA": "07 - Castilla y León", "PROVINCIA": "24 - León", "MUNICIPIO": "24008 - Astorga", "COD_MUNICIPIO": "24008", "DISTRITO": "02", "SECCION": "2400802003", "V1_H": 80.25, "V1_M": 86.11, "V2_H": 80.02266353, "V2_M": 86.02270939, "V3_H": 80.50879823, "V3_M": 86.37032083 }, "geometry": { "type": "Polygon", "coordinates": [ [ [ -6.0594008, 42.4593916 ], [ -6.0602102, 42.459543 ], [ -6.0613675, 42.4597647 ], [ -6.0617829, 42.4598443 ], [ -6.0620571, 42.4598968 ], [ -6.0620866, 42.4599025 ], [ -6.0621054, 42.4598373 ], [ -6.0621911, 42.4598533 ], [ -6.0622705, 42.4598681 ], [ -6.0629255, 42.4599903 ], [ -6.0629714, 42.4599988 ], [ -6.0630306, 42.4600098 ], [ -6.0630848, 42.4600199 ], [ -6.0632037, 42.4600421 ], [ -6.0640874, 42.4602068 ], [ -6.0641601, 42.4602203 ], [ -6.0642718, 42.4602321 ], [ -6.0643122, 42.4602364 ], [ -6.0643973, 42.4602454 ], [ -6.0644276, 42.4602486 ], [ -6.0649244, 42.4603722 ], [ -6.0655976, 42.4606167 ], [ -6.0667235, 42.4612028 ], [ -6.066973, 42.4613362 ], [ -6.068748, 42.4622847 ], [ -6.0690419, 42.4624406 ], [ -6.0700385, 42.4629768 ], [ -6.0701856, 42.4630559 ], [ -6.0702599, 42.4630969 ], [ -6.0707519, 42.4633688 ], [ -6.0731942, 42.464663 ], [ -6.0732705, 42.464704 ], [ -6.0741179, 42.4651588 ], [ -6.0767539, 42.4629531 ], [ -6.076505, 42.462814 ], [ -6.0763042, 42.4626921 ], [ -6.0763225, 42.4626484 ], [ -6.0764279, 42.4624861 ], [ -6.0762507, 42.4624413 ], [ -6.0759407, 42.4623288 ], [ -6.0756982, 42.4621697 ], [ -6.0754869, 42.4620396 ], [ -6.0752698, 42.4619174 ], [ -6.0751906, 42.4618671 ], [ -6.0752153, 42.4618033 ], [ -6.0754182, 42.4616476 ], [ -6.0755771, 42.4615027 ], [ -6.0755181, 42.4613685 ], [ -6.07512, 42.4608151 ], [ -6.0748802, 42.4604831 ], [ -6.074603, 42.4602507 ], [ -6.0744172, 42.459224 ], [ -6.0750007, 42.4591785 ], [ -6.0753714, 42.4591518 ], [ -6.0757042, 42.4591241 ], [ -6.0761837, 42.4590961 ], [ -6.0765217, 42.4590725 ], [ -6.0798256, 42.4405526 ], [ -6.07984, 42.4404724 ], [ -6.0794694, 42.440355 ], [ -6.079079, 42.4402313 ], [ -6.0725477, 42.4393436 ], [ -6.0725028, 42.4393874 ], [ -6.07136, 42.4405003 ], [ -6.068897, 42.443011 ], [ -6.0676566, 42.4442476 ], [ -6.0652884, 42.4483696 ], [ -6.0649852, 42.4488973 ], [ -6.0647501, 42.4492925 ], [ -6.0645238, 42.4496755 ], [ -6.0643872, 42.449925 ], [ -6.0643094, 42.4501637 ], [ -6.064235, 42.4503285 ], [ -6.0642123, 42.4504575 ], [ -6.0641012, 42.4506953 ], [ -6.0640201, 42.450826 ], [ -6.0637674, 42.4512392 ], [ -6.0631747, 42.4521498 ], [ -6.0630365, 42.4523658 ], [ -6.062173, 42.4537874 ], [ -6.0611726, 42.4552183 ], [ -6.0609966, 42.4554174 ], [ -6.0607746, 42.4557079 ], [ -6.0608203, 42.4558122 ], [ -6.0605802, 42.4560307 ], [ -6.0603217, 42.4562657 ], [ -6.0601517, 42.4564171 ], [ -6.0596015, 42.4569068 ], [ -6.0594651, 42.4570635 ], [ -6.0594166, 42.4570391 ], [ -6.0587071, 42.4576731 ], [ -6.0585995, 42.4578069 ], [ -6.0584137, 42.4580379 ], [ -6.05833, 42.458142 ], [ -6.0582137, 42.4582888 ], [ -6.0579209, 42.458629 ], [ -6.0578014, 42.458768 ], [ -6.0577255, 42.458886 ], [ -6.0576374, 42.4590229 ], [ -6.0576355, 42.4590704 ], [ -6.0582813, 42.4591822 ], [ -6.0594008, 42.4593916 ] ] ] } },
{ "type": "Feature", "properties": { "CCAA": "07 - Castilla y León", "PROVINCIA": "24 - León", "MUNICIPIO": "24008 - Astorga", "COD_MUNICIPIO": "24008", "DISTRITO": "03", "SECCION": "2400803001", "V1_H": 80.02, "V1_M": 86.02, "V2_H": 79.96138623, "V2_M": 86.18252023, "V3_H": 80.18726569, "V3_M": 86.15258899 }, "geometry": { "type": "Polygon", "coordinates": [ [ [ -6.0467631, 42.4705144 ], [ -6.0470074, 42.4705349 ], [ -6.0473861, 42.4705699 ], [ -6.0474921, 42.4705458 ], [ -6.0475304, 42.4705371 ], [ -6.0479577, 42.4702518 ], [ -6.0487596, 42.4697194 ], [ -6.0491574, 42.4694301 ], [ -6.0494854, 42.4691339 ], [ -6.0497356, 42.4688367 ], [ -6.0499366, 42.4686255 ], [ -6.0501081, 42.4683619 ], [ -6.0503053, 42.4680176 ], [ -6.050421, 42.4675449 ], [ -6.0504329, 42.4671575 ], [ -6.0504151, 42.4667292 ], [ -6.0504905, 42.4663022 ], [ -6.050559, 42.4656236 ], [ -6.0505733, 42.4642503 ], [ -6.0503108, 42.4634361 ], [ -6.0502237, 42.4631554 ], [ -6.0502194, 42.4629789 ], [ -6.0502774, 42.4628134 ], [ -6.0504435, 42.4624581 ], [ -6.0514681, 42.4612804 ], [ -6.0516689, 42.4610497 ], [ -6.0521512, 42.460492 ], [ -6.0523992, 42.460207 ], [ -6.0525847, 42.459994 ], [ -6.0525968, 42.4599786 ], [ -6.0528485, 42.4596562 ], [ -6.0529651, 42.4595058 ], [ -6.0531674, 42.4592097 ], [ -6.053227, 42.4591104 ], [ -6.0532915, 42.4590029 ], [ -6.053361, 42.4588742 ], [ -6.0533968, 42.4587865 ], [ -6.0534142, 42.4587165 ], [ -6.0534217, 42.4586306 ], [ -6.0534219, 42.4585523 ], [ -6.0533192, 42.4580698 ], [ -6.0532964, 42.4579633 ], [ -6.0533286, 42.4576711 ], [ -6.0532163, 42.4575319 ], [ -6.053145, 42.4573894 ], [ -6.0530942, 42.4572194 ], [ -6.0530652, 42.4571009 ], [ -6.0530144, 42.4570076 ], [ -6.0528865, 42.4568529 ], [ -6.0528674, 42.4568298 ], [ -6.0527859, 42.4567503 ], [ -6.052878, 42.4566939 ], [ -6.0527194, 42.4565884 ], [ -6.0526173, 42.4565311 ], [ -6.0523064, 42.456379 ], [ -6.0521239, 42.4562897 ], [ -6.0517991, 42.4560826 ], [ -6.0517122, 42.4560292 ], [ -6.0516401, 42.4559674 ], [ -6.0515802, 42.4558912 ], [ -6.0513841, 42.4555848 ], [ -6.0512378, 42.4553203 ], [ -6.0511648, 42.4551854 ], [ -6.051036, 42.4549475 ], [ -6.0509269, 42.4547504 ], [ -6.0508662, 42.4546418 ], [ -6.0508083, 42.4545383 ], [ -6.0502644, 42.4546807 ], [ -6.0501052, 42.4545263 ], [ -6.0491755, 42.4548049 ], [ -6.0486963, 42.4549485 ], [ -6.0485545, 42.4548678 ], [ -6.0483178, 42.454796 ], [ -6.0481959, 42.454759 ], [ -6.047832, 42.454742 ], [ -6.0477373, 42.4547375 ], [ -6.044744, 42.4545973 ], [ -6.0384898, 42.4543462 ], [ -6.0385948, 42.4550271 ], [ -6.0386069, 42.4550446 ], [ -6.043154, 42.4557793 ], [ -6.0431099, 42.4563748 ], [ -6.0432527, 42.4570643 ], [ -6.0429259, 42.4578475 ], [ -6.0428722, 42.4582451 ], [ -6.0431516, 42.4587419 ], [ -6.0436488, 42.4589629 ], [ -6.0445459, 42.4591552 ], [ -6.0448006, 42.4598958 ], [ -6.0449873, 42.4604851 ], [ -6.0449183, 42.4618197 ], [ -6.0450702, 42.4621939 ], [ -6.0448206, 42.463065 ], [ -6.044774, 42.4641108 ], [ -6.0451138, 42.4645971 ], [ -6.0458466, 42.4651629 ], [ -6.0462294, 42.465783 ], [ -6.0464732, 42.4672984 ], [ -6.0466087, 42.4675829 ], [ -6.0466346, 42.4686178 ], [ -6.0468912, 42.4693944 ], [ -6.0468574, 42.4697015 ], [ -6.0467705, 42.4704512 ], [ -6.0467631, 42.4705144 ] ] ] } },
{ "type": "Feature", "properties": { "CCAA": "07 - Castilla y León", "PROVINCIA": "24 - León", "MUNICIPIO": "24008 - Astorga", "COD_MUNICIPIO": "24008", "DISTRITO": "01", "SECCION": "2400801002", "V1_H": 80.78, "V1_M": 86.64, "V2_H": 80.55514168000001, "V2_M": 86.45889906, "V3_H": 81.06237696, "V3_M": 86.87120108000001 }, "geometry": { "type": "Polygon", "coordinates": [ [ [ -6.0533286, 42.4576711 ], [ -6.0533772, 42.4577313 ], [ -6.0535246, 42.4578586 ], [ -6.0537034, 42.4579596 ], [ -6.0538682, 42.4580392 ], [ -6.0542181, 42.4581891 ], [ -6.054646, 42.4583113 ], [ -6.0547534, 42.4583369 ], [ -6.0553868, 42.4584873 ], [ -6.0560569, 42.4586739 ], [ -6.0572909, 42.458896 ], [ -6.0574403, 42.4589186 ], [ -6.0576374, 42.4590229 ], [ -6.0577255, 42.458886 ], [ -6.0578014, 42.458768 ], [ -6.0579209, 42.458629 ], [ -6.0582137, 42.4582888 ], [ -6.05833, 42.458142 ], [ -6.0584137, 42.4580379 ], [ -6.0585995, 42.4578069 ], [ -6.0587071, 42.4576731 ], [ -6.0594166, 42.4570391 ], [ -6.0594651, 42.4570635 ], [ -6.0596015, 42.4569068 ], [ -6.0601517, 42.4564171 ], [ -6.0603217, 42.4562657 ], [ -6.0605802, 42.4560307 ], [ -6.0602682, 42.4557289 ], [ -6.0602428, 42.4557551 ], [ -6.0601032, 42.4557035 ], [ -6.0589349, 42.4552787 ], [ -6.0588806, 42.4553582 ], [ -6.0586722, 42.4552693 ], [ -6.0585414, 42.4552134 ], [ -6.0583306, 42.4551235 ], [ -6.0578862, 42.4549337 ], [ -6.057557, 42.4547932 ], [ -6.057445, 42.4547455 ], [ -6.0574036, 42.4547924 ], [ -6.0572078, 42.4549383 ], [ -6.0569166, 42.4551554 ], [ -6.0566957, 42.45532 ], [ -6.0564677, 42.4552059 ], [ -6.0560848, 42.4550425 ], [ -6.0558924, 42.4549529 ], [ -6.0557776, 42.4548774 ], [ -6.0552926, 42.4554518 ], [ -6.0551349, 42.4555684 ], [ -6.0543192, 42.4560873 ], [ -6.0536448, 42.4563842 ], [ -6.0535453, 42.4563271 ], [ -6.0534502, 42.4563976 ], [ -6.0533444, 42.4564832 ], [ -6.0532973, 42.4564864 ], [ -6.0528865, 42.4568529 ], [ -6.0530144, 42.4570076 ], [ -6.0530652, 42.4571009 ], [ -6.0530942, 42.4572194 ], [ -6.053145, 42.4573894 ], [ -6.0532163, 42.4575319 ], [ -6.0533286, 42.4576711 ] ] ] } },
{ "type": "Feature", "properties": { "CCAA": "07 - Castilla y León", "PROVINCIA": "24 - León", "MUNICIPIO": "24008 - Astorga", "COD_MUNICIPIO": "24008", "DISTRITO": "02", "SECCION": "2400802002", "V1_H": 79.89, "V1_M": 85.97, "V2_H": 79.67266264, "V2_M": 85.8368825, "V3_H": 80.33686579, "V3_M": 86.2809331 }, "geometry": { "type": "Polygon", "coordinates": [ [ [ -6.0885163, 42.4798326 ], [ -6.0885847, 42.4797838 ], [ -6.0926721, 42.4768704 ], [ -6.0946744, 42.475443 ], [ -6.0959784, 42.4745073 ], [ -6.096258, 42.4745673 ], [ -6.0972447, 42.4747792 ], [ -6.0980633, 42.4750992 ], [ -6.1007979, 42.4757906 ], [ -6.1021677, 42.4761858 ], [ -6.1040806, 42.4764941 ], [ -6.1054721, 42.4768346 ], [ -6.1087266, 42.4772145 ], [ -6.1108255, 42.4773466 ], [ -6.1131803, 42.4777329 ], [ -6.1167729, 42.4780584 ], [ -6.1386391, 42.481099 ], [ -6.1395724, 42.4812291 ], [ -6.1423634, 42.4816182 ], [ -6.1470237, 42.4825928 ], [ -6.1766895, 42.4887912 ], [ -6.1804677, 42.4895799 ], [ -6.1805208, 42.4895139 ], [ -6.1869809, 42.4814876 ], [ -6.1876661, 42.4806361 ], [ -6.188082, 42.4802013 ], [ -6.1884833, 42.4801991 ], [ -6.1885202, 42.4801998 ], [ -6.1914178, 42.4802524 ], [ -6.1988567, 42.480369 ], [ -6.2063202, 42.4804934 ], [ -6.2063127, 42.480486 ], [ -6.1978153, 42.4721004 ], [ -6.1965597, 42.4708611 ], [ -6.1934257, 42.4647262 ], [ -6.1909009, 42.4597989 ], [ -6.1905373, 42.4591067 ], [ -6.187676, 42.4580788 ], [ -6.1848864, 42.4572649 ], [ -6.1839757, 42.456813 ], [ -6.1818062, 42.4550363 ], [ -6.1815201, 42.4549092 ], [ -6.179399, 42.4540856 ], [ -6.1784396, 42.4538692 ], [ -6.176924, 42.4532358 ], [ -6.1757135, 42.4528642 ], [ -6.1747092, 42.4527209 ], [ -6.1726015, 42.452158 ], [ -6.1711485, 42.451559 ], [ -6.1696395, 42.4510514 ], [ -6.1684336, 42.4507696 ], [ -6.166349, 42.4504221 ], [ -6.1649403, 42.4499748 ], [ -6.1632227, 42.449671 ], [ -6.1618482, 42.4491777 ], [ -6.1614064, 42.4488567 ], [ -6.1608896, 42.4484928 ], [ -6.1594999, 42.4480558 ], [ -6.1592836, 42.4479878 ], [ -6.1592835, 42.4479878 ], [ -6.1569468, 42.4490802 ], [ -6.1562542, 42.449404 ], [ -6.1544721, 42.4502366 ], [ -6.1432589, 42.4524201 ], [ -6.1405157, 42.451764 ], [ -6.1312257, 42.4495691 ], [ -6.1299981, 42.4490893 ], [ -6.1280302, 42.4486388 ], [ -6.1265772, 42.4482733 ], [ -6.1211552, 42.4473137 ], [ -6.1204214, 42.4470957 ], [ -6.1203778, 42.4470827 ], [ -6.120034, 42.4470894 ], [ -6.11907, 42.447108 ], [ -6.1157983, 42.4471714 ], [ -6.1156479, 42.4471679 ], [ -6.1154346, 42.4471721 ], [ -6.1142481, 42.4471448 ], [ -6.1118436, 42.4470896 ], [ -6.108815, 42.4468207 ], [ -6.104731, 42.446112 ], [ -6.1034625, 42.4460293 ], [ -6.1016526, 42.4458172 ], [ -6.0911806, 42.4425345 ], [ -6.089728, 42.4421684 ], [ -6.0880111, 42.4416204 ], [ -6.0869816, 42.4413706 ], [ -6.0868422, 42.4413367 ], [ -6.0854294, 42.4415531 ], [ -6.0854048, 42.4415468 ], [ -6.0851208, 42.4414927 ], [ -6.0799434, 42.4405052 ], [ -6.07984, 42.4404724 ], [ -6.0798256, 42.4405526 ], [ -6.0765217, 42.4590725 ], [ -6.0761837, 42.4590961 ], [ -6.0757042, 42.4591241 ], [ -6.0753714, 42.4591518 ], [ -6.0750007, 42.4591785 ], [ -6.0744172, 42.459224 ], [ -6.074603, 42.4602507 ], [ -6.0748802, 42.4604831 ], [ -6.07512, 42.4608151 ], [ -6.0755181, 42.4613685 ], [ -6.0755771, 42.4615027 ], [ -6.0754182, 42.4616476 ], [ -6.0752153, 42.4618033 ], [ -6.0751906, 42.4618671 ], [ -6.0752698, 42.4619174 ], [ -6.0754869, 42.4620396 ], [ -6.0756982, 42.4621697 ], [ -6.0759407, 42.4623288 ], [ -6.0762507, 42.4624413 ], [ -6.0764279, 42.4624861 ], [ -6.0763225, 42.4626484 ], [ -6.0763042, 42.4626921 ], [ -6.076505, 42.462814 ], [ -6.0767539, 42.4629531 ], [ -6.0741179, 42.4651588 ], [ -6.0732705, 42.464704 ], [ -6.0731942, 42.464663 ], [ -6.0707519, 42.4633688 ], [ -6.0702599, 42.4630969 ], [ -6.0701856, 42.4630559 ], [ -6.0700385, 42.4629768 ], [ -6.0690419, 42.4624406 ], [ -6.068748, 42.4622847 ], [ -6.066973, 42.4613362 ], [ -6.0667235, 42.4612028 ], [ -6.0655976, 42.4606167 ], [ -6.0649244, 42.4603722 ], [ -6.0644276, 42.4602486 ], [ -6.0643973, 42.4602454 ], [ -6.0643122, 42.4602364 ], [ -6.0642718, 42.4602321 ], [ -6.0641601, 42.4602203 ], [ -6.0640874, 42.4602068 ], [ -6.0632037, 42.4600421 ], [ -6.0630848, 42.4600199 ], [ -6.0630306, 42.4600098 ], [ -6.0629714, 42.4599988 ], [ -6.0629255, 42.4599903 ], [ -6.0622705, 42.4598681 ], [ -6.0621911, 42.4598533 ], [ -6.0621054, 42.4598373 ], [ -6.0620866, 42.4599025 ], [ -6.0620571, 42.4598968 ], [ -6.0617829, 42.4598443 ], [ -6.0613675, 42.4597647 ], [ -6.0602102, 42.459543 ], [ -6.0594008, 42.4593916 ], [ -6.059498, 42.4597626 ], [ -6.0595024, 42.4597792 ], [ -6.05957, 42.4600183 ], [ -6.0596905, 42.4604446 ], [ -6.0597446, 42.460657 ], [ -6.0598566, 42.461096 ], [ -6.0598669, 42.461136 ], [ -6.0599239, 42.4613696 ], [ -6.0599308, 42.461402 ], [ -6.0599608, 42.4615398 ], [ -6.0599866, 42.461659 ], [ -6.0600587, 42.4620299 ], [ -6.0600806, 42.4620875 ], [ -6.0601277, 42.4622121 ], [ -6.0602888, 42.4628736 ], [ -6.0603603, 42.4632891 ], [ -6.0605509, 42.4638078 ], [ -6.0606144, 42.4642714 ], [ -6.0606424, 42.4646247 ], [ -6.060759, 42.4648809 ], [ -6.0609582, 42.4652307 ], [ -6.0612177, 42.4656451 ], [ -6.0615882, 42.4662403 ], [ -6.0618231, 42.4666949 ], [ -6.0620603, 42.4670742 ], [ -6.0622007, 42.4673134 ], [ -6.0624118, 42.4675303 ], [ -6.0625768, 42.4677294 ], [ -6.0626404, 42.4679385 ], [ -6.0627045, 42.4681303 ], [ -6.0626919, 42.4682863 ], [ -6.0626159, 42.4684819 ], [ -6.0624908, 42.4687578 ], [ -6.0624901, 42.4690354 ], [ -6.0625577, 42.4693661 ], [ -6.0626301, 42.4695407 ], [ -6.0625693, 42.4697481 ], [ -6.0625705, 42.4699621 ], [ -6.0624657, 42.4703366 ], [ -6.0624372, 42.471013 ], [ -6.0624864, 42.4716905 ], [ -6.062528, 42.4723621 ], [ -6.0624753, 42.472558 ], [ -6.0625253, 42.4729578 ], [ -6.0626544, 42.4733125 ], [ -6.0627466, 42.4736031 ], [ -6.0626621, 42.4738217 ], [ -6.0626534, 42.474105 ], [ -6.0625023, 42.4744673 ], [ -6.0625486, 42.4747341 ], [ -6.0625509, 42.4749134 ], [ -6.0625715, 42.4750004 ], [ -6.062624, 42.4750648 ], [ -6.0626765, 42.4753202 ], [ -6.0635894, 42.4756039 ], [ -6.0657104, 42.4759433 ], [ -6.0697055, 42.4764212 ], [ -6.0700246, 42.4764593 ], [ -6.0707123, 42.476079 ], [ -6.0710371, 42.4758993 ], [ -6.0712691, 42.4759719 ], [ -6.0741379, 42.4768696 ], [ -6.0753381, 42.4770355 ], [ -6.0802702, 42.4781366 ], [ -6.08236, 42.4788278 ], [ -6.0862991, 42.4794707 ], [ -6.0885163, 42.4798326 ] ] ] } }
]
}
