{
"type": "FeatureCollection",
"name": "24067",
"features": [
{ "type": "Feature", "properties": { "CCAA": "07 - Castilla y León", "PROVINCIA": "24 - León", "MUNICIPIO": "24067 - Encinedo", "COD_MUNICIPIO": "24067", "DISTRITO": "01", "SECCION": "2406701001", "V1_H": 80.54, "V1_M": 86.2, "V2_H": 80.39552864, "V2_M": 86.0597654, "V3_H": 80.75568151, "V3_M": 86.47868922000001 }, "geometry": { "type": "Polygon", "coordinates": [ [ [ -6.5113364, 42.2748024 ], [ -6.5114934, 42.2749776 ], [ -6.5154252, 42.2796114 ], [ -6.5191031, 42.2835956 ], [ -6.5189021, 42.2841241 ], [ -6.5188444, 42.2846121 ], [ -6.518921, 42.2849376 ], [ -6.5189874, 42.28522 ], [ -6.5191035, 42.2855675 ], [ -6.5192494, 42.2860044 ], [ -6.5199371, 42.2870278 ], [ -6.5210948, 42.2882169 ], [ -6.5214614, 42.2887008 ], [ -6.5214592, 42.289097 ], [ -6.5214414, 42.2894308 ], [ -6.5214392, 42.2900432 ], [ -6.521428, 42.2904938 ], [ -6.5214517, 42.2911324 ], [ -6.521452, 42.2911414 ], [ -6.5216828, 42.2918006 ], [ -6.5213628, 42.2923687 ], [ -6.5215347, 42.2926246 ], [ -6.5219669, 42.2929805 ], [ -6.5222845, 42.2936731 ], [ -6.5229803, 42.2950564 ], [ -6.5237084, 42.2963667 ], [ -6.524451, 42.2981538 ], [ -6.5253183, 42.2997839 ], [ -6.526343, 42.3018414 ], [ -6.5276395, 42.3044219 ], [ -6.5283512, 42.3058677 ], [ -6.5293555, 42.3077727 ], [ -6.530301, 42.3081938 ], [ -6.5310937, 42.3084846 ], [ -6.5317657, 42.308788 ], [ -6.532192, 42.3088988 ], [ -6.5327876, 42.3090536 ], [ -6.5331578, 42.309218 ], [ -6.5335839, 42.3094072 ], [ -6.5347297, 42.3099392 ], [ -6.535862, 42.3104445 ], [ -6.5367693, 42.3108306 ], [ -6.5376989, 42.3100996 ], [ -6.5383459, 42.3097374 ], [ -6.5394136, 42.3090921 ], [ -6.5403053, 42.3091996 ], [ -6.5410839, 42.3092385 ], [ -6.5421764, 42.3092498 ], [ -6.5434737, 42.3092367 ], [ -6.5450502, 42.3092239 ], [ -6.546241, 42.3092591 ], [ -6.5473335, 42.3092702 ], [ -6.54843, 42.3093534 ], [ -6.5487719, 42.3092968 ], [ -6.5493676, 42.3091982 ], [ -6.5498342, 42.3091936 ], [ -6.5502163, 42.3091899 ], [ -6.5504545, 42.3092184 ], [ -6.5507537, 42.3092543 ], [ -6.5509912, 42.309282 ], [ -6.5511812, 42.3093041 ], [ -6.5517776, 42.3093396 ], [ -6.5524548, 42.3093005 ], [ -6.5529033, 42.3090796 ], [ -6.5529033, 42.3090795 ], [ -6.5531243, 42.3089106 ], [ -6.5532107, 42.3087772 ], [ -6.5533029, 42.3086349 ], [ -6.5536, 42.3083105 ], [ -6.5539274, 42.3078772 ], [ -6.5539275, 42.3078771 ], [ -6.5540155, 42.3077754 ], [ -6.5545198, 42.3071924 ], [ -6.5551291, 42.306262 ], [ -6.555525, 42.3056574 ], [ -6.5568991, 42.3037778 ], [ -6.5568991, 42.3037778 ], [ -6.5577868, 42.3027417 ], [ -6.5583483, 42.302157 ], [ -6.5583483, 42.302157 ], [ -6.5587633, 42.3015587 ], [ -6.5593757, 42.3005853 ], [ -6.5593757, 42.3005853 ], [ -6.5601903, 42.3019106 ], [ -6.560683, 42.3026877 ], [ -6.5612459, 42.3036337 ], [ -6.5616981, 42.30434 ], [ -6.5620667, 42.3050669 ], [ -6.5621386, 42.305695 ], [ -6.562335, 42.3061661 ], [ -6.5625006, 42.3065212 ], [ -6.5627626, 42.3068642 ], [ -6.5630978, 42.3072139 ], [ -6.5640971, 42.3066516 ], [ -6.5640972, 42.3066516 ], [ -6.5645698, 42.3064298 ], [ -6.565207, 42.3061128 ], [ -6.565207, 42.3061128 ], [ -6.5658508, 42.3059126 ], [ -6.5664835, 42.3057308 ], [ -6.5672352, 42.3055093 ], [ -6.5672352, 42.3055093 ], [ -6.5677392, 42.3054126 ], [ -6.5684174, 42.3053915 ], [ -6.5691444, 42.3053778 ], [ -6.5698862, 42.3054087 ], [ -6.5704034, 42.3055456 ], [ -6.5711584, 42.3058102 ], [ -6.5720072, 42.3060179 ], [ -6.5730507, 42.3062374 ], [ -6.5742382, 42.3066416 ], [ -6.5747949, 42.3070475 ], [ -6.5755289, 42.3075828 ], [ -6.5760645, 42.3080433 ], [ -6.5767797, 42.3084623 ], [ -6.5772704, 42.3087711 ], [ -6.5776667, 42.3091278 ], [ -6.5777779, 42.3093766 ], [ -6.5778769, 42.3096256 ], [ -6.5780673, 42.3099888 ], [ -6.5782467, 42.3103704 ], [ -6.5784745, 42.3107505 ], [ -6.5786474, 42.3110299 ], [ -6.5787149, 42.3111392 ], [ -6.5788775, 42.3114402 ], [ -6.5789796, 42.3117432 ], [ -6.5789444, 42.3119784 ], [ -6.5788745, 42.3122418 ], [ -6.5789332, 42.3126361 ], [ -6.5791867, 42.3128263 ], [ -6.5795522, 42.3130669 ], [ -6.5799222, 42.3133886 ], [ -6.5803145, 42.3136735 ], [ -6.580608, 42.3141415 ], [ -6.5808848, 42.3145291 ], [ -6.5810304, 42.3149567 ], [ -6.5812483, 42.3155893 ], [ -6.5813909, 42.3161791 ], [ -6.5814605, 42.3163629 ], [ -6.5816336, 42.3168198 ], [ -6.5819069, 42.3173605 ], [ -6.5820401, 42.3179957 ], [ -6.582233, 42.3181878 ], [ -6.5825501, 42.31843 ], [ -6.5829753, 42.3188669 ], [ -6.5833696, 42.3191878 ], [ -6.5836101, 42.3195765 ], [ -6.583783, 42.3200572 ], [ -6.5836632, 42.3205112 ], [ -6.5840414, 42.3207605 ], [ -6.5849745, 42.3213797 ], [ -6.5855124, 42.3212368 ], [ -6.5862046, 42.321035 ], [ -6.5873864, 42.3206918 ], [ -6.589496, 42.3200224 ], [ -6.5909516, 42.3195896 ], [ -6.5930067, 42.3190299 ], [ -6.5930067, 42.3190298 ], [ -6.5964727, 42.3178946 ], [ -6.600793, 42.3166331 ], [ -6.6018086, 42.3174207 ], [ -6.6024697, 42.3179491 ], [ -6.6032913, 42.3185266 ], [ -6.6041913, 42.3192007 ], [ -6.6051469, 42.319999 ], [ -6.6061072, 42.3207116 ], [ -6.606148, 42.3207419 ], [ -6.6070065, 42.3213271 ], [ -6.6078959, 42.3220284 ], [ -6.6086729, 42.3226703 ], [ -6.6095003, 42.3233466 ], [ -6.6101383, 42.3238937 ], [ -6.610679, 42.3235886 ], [ -6.610679, 42.3235886 ], [ -6.6111491, 42.3233216 ], [ -6.6119506, 42.3229091 ], [ -6.6128101, 42.3224498 ], [ -6.6136217, 42.322001 ], [ -6.6140199, 42.3218691 ], [ -6.6148243, 42.3216028 ], [ -6.6156384, 42.321199 ], [ -6.6164914, 42.3208388 ], [ -6.6167784, 42.3207665 ], [ -6.6174722, 42.3205917 ], [ -6.618009, 42.3204307 ], [ -6.6190982, 42.3201712 ], [ -6.6203001, 42.3199711 ], [ -6.6216357, 42.3197758 ], [ -6.6227752, 42.3197578 ], [ -6.6229592, 42.3200041 ], [ -6.6230492, 42.3205145 ], [ -6.623334, 42.32146 ], [ -6.6234929, 42.3225355 ], [ -6.6238048, 42.3239573 ], [ -6.6238374, 42.3238842 ], [ -6.6238449, 42.3238785 ], [ -6.6301514, 42.3191099 ], [ -6.6400283, 42.3182741 ], [ -6.6424219, 42.3177028 ], [ -6.6470935, 42.3126736 ], [ -6.6503858, 42.311074 ], [ -6.656954, 42.3071816 ], [ -6.6590709, 42.3043586 ], [ -6.6642453, 42.301969 ], [ -6.666598, 42.3002909 ], [ -6.6722638, 42.2998887 ], [ -6.6730969, 42.2998305 ], [ -6.6748481, 42.2969919 ], [ -6.6758528, 42.2973739 ], [ -6.6782969, 42.2970612 ], [ -6.6810386, 42.2972793 ], [ -6.6873114, 42.3025072 ], [ -6.6877031, 42.3021524 ], [ -6.6907521, 42.3001542 ], [ -6.6930452, 42.2985045 ], [ -6.6945074, 42.2982052 ], [ -6.6959491, 42.2985909 ], [ -6.6965459, 42.2986567 ], [ -6.6970234, 42.2987093 ], [ -6.6972414, 42.2989364 ], [ -6.6984446, 42.3001942 ], [ -6.6993911, 42.301028 ], [ -6.700277, 42.3016567 ], [ -6.7007039, 42.3014899 ], [ -6.702111, 42.3021107 ], [ -6.7043645, 42.3028932 ], [ -6.7043352, 42.3036325 ], [ -6.7098119, 42.3041486 ], [ -6.7112113, 42.3050487 ], [ -6.7131534, 42.307543 ], [ -6.7135225, 42.3078372 ], [ -6.7144296, 42.3079969 ], [ -6.7144165, 42.3081864 ], [ -6.7156534, 42.3090017 ], [ -6.7185009, 42.310386 ], [ -6.7220653, 42.3126113 ], [ -6.7240858, 42.3135451 ], [ -6.7255056, 42.3143723 ], [ -6.7268245, 42.315338 ], [ -6.7282331, 42.3157693 ], [ -6.7289888, 42.3160734 ], [ -6.7318776, 42.3170823 ], [ -6.7328429, 42.3174695 ], [ -6.7329251, 42.3175029 ], [ -6.7339778, 42.3179233 ], [ -6.7364323, 42.3185996 ], [ -6.736375, 42.3161972 ], [ -6.7367198, 42.3152586 ], [ -6.7365107, 42.314392 ], [ -6.7361558, 42.3110629 ], [ -6.7380246, 42.309228 ], [ -6.7397511, 42.3080641 ], [ -6.7415199, 42.3059803 ], [ -6.7431676, 42.3032882 ], [ -6.7428936, 42.3021446 ], [ -6.7423797, 42.3012519 ], [ -6.7411468, 42.2986629 ], [ -6.7424757, 42.2971428 ], [ -6.7448049, 42.2953107 ], [ -6.7478058, 42.2931506 ], [ -6.7484766, 42.2928044 ], [ -6.7504703, 42.2910463 ], [ -6.7525507, 42.288709 ], [ -6.7530148, 42.2879464 ], [ -6.7539595, 42.2850701 ], [ -6.754441, 42.2839918 ], [ -6.7553656, 42.2828179 ], [ -6.7559502, 42.2822495 ], [ -6.7571833, 42.2813716 ], [ -6.7587972, 42.2803731 ], [ -6.7601674, 42.2787434 ], [ -6.7609613, 42.2770065 ], [ -6.7616992, 42.2761628 ], [ -6.7626604, 42.275609 ], [ -6.7650355, 42.2727396 ], [ -6.7659486, 42.2709717 ], [ -6.7658924, 42.2696229 ], [ -6.7651565, 42.2686656 ], [ -6.76476, 42.2679133 ], [ -6.7649337, 42.2673673 ], [ -6.7658112, 42.266429 ], [ -6.7664643, 42.2647777 ], [ -6.7664191, 42.2638157 ], [ -6.7661123, 42.2631415 ], [ -6.7658078, 42.2627102 ], [ -6.7661742, 42.2601139 ], [ -6.7669978, 42.2574576 ], [ -6.7687949, 42.2562909 ], [ -6.7692923, 42.2556893 ], [ -6.7703263, 42.2555472 ], [ -6.7712557, 42.2546701 ], [ -6.7740985, 42.2541713 ], [ -6.7741608, 42.2542193 ], [ -6.7759027, 42.2555615 ], [ -6.7761619, 42.255478 ], [ -6.7780194, 42.2548794 ], [ -6.7843194, 42.2536179 ], [ -6.7780444, 42.2508356 ], [ -6.7761475, 42.2501238 ], [ -6.774487, 42.2495122 ], [ -6.7725913, 42.2484131 ], [ -6.7703643, 42.247649 ], [ -6.7700684, 42.2469564 ], [ -6.7679934, 42.2460972 ], [ -6.7659612, 42.2455518 ], [ -6.7632801, 42.2428575 ], [ -6.7619638, 42.2417122 ], [ -6.7611391, 42.2398663 ], [ -6.7590924, 42.2386639 ], [ -6.7582374, 42.238755 ], [ -6.7571803, 42.2385016 ], [ -6.7557399, 42.2395483 ], [ -6.7532743, 42.2384315 ], [ -6.745352, 42.2392942 ], [ -6.7446565, 42.2396231 ], [ -6.7429925, 42.2401727 ], [ -6.7397146, 42.2380197 ], [ -6.7373835, 42.2360968 ], [ -6.7361301, 42.2355974 ], [ -6.7348461, 42.2356033 ], [ -6.7330179, 42.2317279 ], [ -6.7354836, 42.2301888 ], [ -6.7354477, 42.2279388 ], [ -6.7350322, 42.2276732 ], [ -6.7332901, 42.2240202 ], [ -6.7305942, 42.2230905 ], [ -6.727488, 42.2225974 ], [ -6.7267006, 42.2228031 ], [ -6.7252219, 42.2234094 ], [ -6.7250276, 42.2223713 ], [ -6.7247215, 42.2219039 ], [ -6.7244126, 42.2209775 ], [ -6.7236181, 42.2208593 ], [ -6.7228618, 42.2197403 ], [ -6.7230578, 42.217924 ], [ -6.7237235, 42.2168849 ], [ -6.7225206, 42.2164107 ], [ -6.7214836, 42.2150487 ], [ -6.721141, 42.2139613 ], [ -6.7197, 42.2133508 ], [ -6.718795, 42.2136143 ], [ -6.7175176, 42.2135207 ], [ -6.7163895, 42.2132872 ], [ -6.711468, 42.21405 ], [ -6.7099051, 42.2132182 ], [ -6.7095397, 42.2125637 ], [ -6.7075306, 42.2113501 ], [ -6.7064756, 42.2105018 ], [ -6.7037933, 42.209373 ], [ -6.6991295, 42.2097758 ], [ -6.6929134, 42.2136773 ], [ -6.6893171, 42.2147387 ], [ -6.6877102, 42.2146013 ], [ -6.685073, 42.214452 ], [ -6.6828583, 42.2146944 ], [ -6.6800154, 42.2147587 ], [ -6.6779087, 42.2145653 ], [ -6.6743898, 42.2144621 ], [ -6.6709571, 42.2125011 ], [ -6.6623003, 42.2129853 ], [ -6.6611138, 42.2129962 ], [ -6.6591495, 42.2137974 ], [ -6.6579688, 42.2137 ], [ -6.6570428, 42.2133964 ], [ -6.6551059, 42.2132061 ], [ -6.6547801, 42.2130184 ], [ -6.6536679, 42.2134771 ], [ -6.6536868, 42.2135936 ], [ -6.6511837, 42.2153482 ], [ -6.6494459, 42.2158809 ], [ -6.6479536, 42.2168919 ], [ -6.6386493, 42.2172959 ], [ -6.637186, 42.2160727 ], [ -6.6299381, 42.2119894 ], [ -6.6289374, 42.211859 ], [ -6.6272187, 42.2120936 ], [ -6.6234564, 42.2121766 ], [ -6.6210959, 42.209874 ], [ -6.6188152, 42.2093879 ], [ -6.6185488, 42.2085408 ], [ -6.6185799, 42.2080266 ], [ -6.616229, 42.2043999 ], [ -6.6132667, 42.2032148 ], [ -6.6107042, 42.2047903 ], [ -6.6090123, 42.205492 ], [ -6.6071205, 42.2058758 ], [ -6.6038645, 42.2039972 ], [ -6.5971764, 42.2035231 ], [ -6.593622, 42.206408 ], [ -6.5921666, 42.207012 ], [ -6.5899982, 42.2076473 ], [ -6.5887657, 42.207911 ], [ -6.5876433, 42.2079822 ], [ -6.5857965, 42.2074547 ], [ -6.5835221, 42.2066434 ], [ -6.5817883, 42.2061843 ], [ -6.5779613, 42.2066191 ], [ -6.5756532, 42.2058538 ], [ -6.5740892, 42.2051822 ], [ -6.5737103, 42.2049059 ], [ -6.5710943, 42.2049064 ], [ -6.5688678, 42.2055881 ], [ -6.5678529, 42.206061 ], [ -6.5601765, 42.2069662 ], [ -6.5577623, 42.2071132 ], [ -6.555473, 42.2062478 ], [ -6.556718, 42.207929 ], [ -6.5569388, 42.2086246 ], [ -6.5570014, 42.2093069 ], [ -6.5571601, 42.2095452 ], [ -6.5564952, 42.2108625 ], [ -6.5562123, 42.2120779 ], [ -6.5564297, 42.2148716 ], [ -6.557087, 42.216436 ], [ -6.5562767, 42.2190455 ], [ -6.5566885, 42.2205545 ], [ -6.5552219, 42.2226981 ], [ -6.5558235, 42.2254259 ], [ -6.5560514, 42.225815 ], [ -6.5561134, 42.2262723 ], [ -6.5559673, 42.2266911 ], [ -6.5562188, 42.2270705 ], [ -6.5567425, 42.2273334 ], [ -6.5573024, 42.2278112 ], [ -6.5578261, 42.2280741 ], [ -6.5579831, 42.2293569 ], [ -6.5578813, 42.2299183 ], [ -6.5571214, 42.2304102 ], [ -6.5567913, 42.2307896 ], [ -6.554654, 42.230919 ], [ -6.5538285, 42.2311067 ], [ -6.5534001, 42.2310299 ], [ -6.5525272, 42.2305888 ], [ -6.5505802, 42.2291454 ], [ -6.5501674, 42.2289151 ], [ -6.5491273, 42.2289473 ], [ -6.5481012, 42.2294473 ], [ -6.5473567, 42.2300016 ], [ -6.546425, 42.2304537 ], [ -6.5451877, 42.2317256 ], [ -6.5445097, 42.2330343 ], [ -6.5438208, 42.2334968 ], [ -6.5420935, 42.2340275 ], [ -6.5415633, 42.2338638 ], [ -6.5411682, 42.2341642 ], [ -6.5405058, 42.2351031 ], [ -6.5403651, 42.2356207 ], [ -6.5403665, 42.2365122 ], [ -6.5405252, 42.2369665 ], [ -6.5409456, 42.2373317 ], [ -6.5411517, 42.2384149 ], [ -6.5409762, 42.2387445 ], [ -6.5413375, 42.2391385 ], [ -6.541772, 42.2393232 ], [ -6.5418551, 42.2397259 ], [ -6.5417573, 42.2401431 ], [ -6.5415436, 42.2404379 ], [ -6.5415829, 42.2409229 ], [ -6.5407389, 42.2425158 ], [ -6.540637, 42.2441578 ], [ -6.5416602, 42.2449006 ], [ -6.543613, 42.2468752 ], [ -6.5445879, 42.2476195 ], [ -6.5454489, 42.2484933 ], [ -6.5464592, 42.2492184 ], [ -6.5463398, 42.2501135 ], [ -6.5454378, 42.2517533 ], [ -6.5447204, 42.2523608 ], [ -6.5446856, 42.2532534 ], [ -6.5449518, 42.2536773 ], [ -6.5463272, 42.2550755 ], [ -6.5467119, 42.255883 ], [ -6.5469262, 42.2566778 ], [ -6.5467618, 42.2574213 ], [ -6.5456496, 42.2602831 ], [ -6.5475218, 42.2621072 ], [ -6.5457051, 42.2645136 ], [ -6.5445066, 42.2647578 ], [ -6.5467203, 42.2668324 ], [ -6.5484606, 42.2680301 ], [ -6.5486547, 42.2684654 ], [ -6.5486265, 42.2690425 ], [ -6.5481506, 42.2702818 ], [ -6.5478031, 42.2705718 ], [ -6.5475803, 42.2706417 ], [ -6.5474097, 42.2706921 ], [ -6.5465853, 42.2706906 ], [ -6.5459882, 42.2708531 ], [ -6.5456841, 42.2710516 ], [ -6.5453508, 42.2713771 ], [ -6.5453277, 42.2714229 ], [ -6.5447612, 42.2725389 ], [ -6.5411095, 42.2714183 ], [ -6.5384898, 42.2698874 ], [ -6.5390567, 42.2685372 ], [ -6.5334833, 42.2688174 ], [ -6.5318814, 42.2687993 ], [ -6.531506, 42.2687973 ], [ -6.5281692, 42.2683149 ], [ -6.5252504, 42.2685849 ], [ -6.5210403, 42.2702722 ], [ -6.5145172, 42.273318 ], [ -6.5127511, 42.2740476 ], [ -6.5113364, 42.2748024 ] ] ] } }
]
}
