{
"type": "FeatureCollection",
"name": "24106",
"features": [
{ "type": "Feature", "properties": { "CCAA": "07 - Castilla y León", "PROVINCIA": "24 - León", "MUNICIPIO": "24106 - Oseja de Sajambre", "COD_MUNICIPIO": "24106", "DISTRITO": "01", "SECCION": "2410601001", "V1_H": 80.53, "V1_M": 86.43, "V2_H": 80.43347749, "V2_M": 86.30479166000001, "V3_H": 80.8868878, "V3_M": 86.74881461 }, "geometry": { "type": "Polygon", "coordinates": [ [ [ -4.9968586, 43.1730964 ], [ -4.9982141, 43.1742974 ], [ -4.9995165, 43.174995 ], [ -5.0014788, 43.1763114 ], [ -5.0021912, 43.1766501 ], [ -5.0082598, 43.1786148 ], [ -5.0091127, 43.1787349 ], [ -5.0108226, 43.1787228 ], [ -5.011258, 43.1788683 ], [ -5.0144087, 43.1803886 ], [ -5.0164007, 43.1814701 ], [ -5.0175361, 43.1819454 ], [ -5.01814, 43.1823489 ], [ -5.020177, 43.1847892 ], [ -5.0209136, 43.1851094 ], [ -5.0230398, 43.1854049 ], [ -5.0244011, 43.1852638 ], [ -5.0267385, 43.1848712 ], [ -5.0280928, 43.184523 ], [ -5.0302091, 43.1837742 ], [ -5.0307947, 43.1836197 ], [ -5.0314315, 43.1835273 ], [ -5.0320233, 43.1835618 ], [ -5.0349948, 43.1841123 ], [ -5.0392385, 43.1844329 ], [ -5.0408957, 43.1846826 ], [ -5.0422059, 43.1844881 ], [ -5.0439252, 43.1843853 ], [ -5.0454714, 43.1838894 ], [ -5.047835, 43.18355 ], [ -5.0500048, 43.1836732 ], [ -5.0533218, 43.1827764 ], [ -5.0533043, 43.1822544 ], [ -5.0534968, 43.1810263 ], [ -5.0537735, 43.1801029 ], [ -5.0539987, 43.1798467 ], [ -5.0544065, 43.1795332 ], [ -5.0557047, 43.179717 ], [ -5.0581245, 43.180691 ], [ -5.0587832, 43.1808862 ], [ -5.0598657, 43.1808757 ], [ -5.0604618, 43.1806759 ], [ -5.0624725, 43.1797302 ], [ -5.0638179, 43.1794898 ], [ -5.0645707, 43.1795573 ], [ -5.0668666, 43.1801371 ], [ -5.0673148, 43.1802911 ], [ -5.0696621, 43.1805729 ], [ -5.0717043, 43.1805629 ], [ -5.0739697, 43.1809631 ], [ -5.074776, 43.1811556 ], [ -5.0758592, 43.1815321 ], [ -5.0762934, 43.180912 ], [ -5.0764759, 43.1804854 ], [ -5.0764816, 43.1795668 ], [ -5.0766253, 43.179087 ], [ -5.0779042, 43.1765245 ], [ -5.0781668, 43.175196 ], [ -5.0780351, 43.1745771 ], [ -5.0776884, 43.1741512 ], [ -5.0766739, 43.1732601 ], [ -5.0763092, 43.1726634 ], [ -5.0761574, 43.1714506 ], [ -5.0764387, 43.1688611 ], [ -5.076662, 43.168551 ], [ -5.077484, 43.1677616 ], [ -5.0777433, 43.1674238 ], [ -5.0779816, 43.1668342 ], [ -5.0779789, 43.1667531 ], [ -5.0779203, 43.1650253 ], [ -5.0782055, 43.1636425 ], [ -5.0783149, 43.1633158 ], [ -5.0784178, 43.1630082 ], [ -5.0785317, 43.1623759 ], [ -5.0783568, 43.1608483 ], [ -5.0784547, 43.1604683 ], [ -5.0790098, 43.1597919 ], [ -5.0797939, 43.1593364 ], [ -5.0808205, 43.1590453 ], [ -5.0812193, 43.1589323 ], [ -5.0825079, 43.1584856 ], [ -5.0828943, 43.1582715 ], [ -5.0841809, 43.1570414 ], [ -5.0843955, 43.1564792 ], [ -5.0852655, 43.1553018 ], [ -5.0856006, 43.1546653 ], [ -5.0873901, 43.1533991 ], [ -5.0874673, 43.1531365 ], [ -5.0873207, 43.152806 ], [ -5.0868746, 43.152346 ], [ -5.086313, 43.1513837 ], [ -5.0858295, 43.1501859 ], [ -5.085696, 43.1491528 ], [ -5.0856884, 43.1482075 ], [ -5.0863691, 43.1476097 ], [ -5.0889124, 43.1460956 ], [ -5.0901889, 43.1456671 ], [ -5.0911636, 43.1453971 ], [ -5.0928138, 43.1451058 ], [ -5.0934228, 43.1449326 ], [ -5.0939432, 43.144689 ], [ -5.0943134, 43.144367 ], [ -5.0948207, 43.1433762 ], [ -5.0948818, 43.1430059 ], [ -5.0941579, 43.1412543 ], [ -5.0930686, 43.1392392 ], [ -5.0928243, 43.1385683 ], [ -5.0925108, 43.1380248 ], [ -5.09138, 43.1365957 ], [ -5.0910354, 43.1358636 ], [ -5.0904453, 43.1340645 ], [ -5.0905298, 43.1336577 ], [ -5.0912844, 43.1319871 ], [ -5.0913999, 43.1314087 ], [ -5.0914021, 43.1307513 ], [ -5.0909527, 43.129832 ], [ -5.0910652, 43.1295238 ], [ -5.0924294, 43.1277514 ], [ -5.0959152, 43.1232219 ], [ -5.0964874, 43.1223379 ], [ -5.0970736, 43.1211476 ], [ -5.0980286, 43.1177984 ], [ -5.0991906, 43.1165524 ], [ -5.0993015, 43.1158391 ], [ -5.0987962, 43.1143626 ], [ -5.0976742, 43.110304 ], [ -5.0973979, 43.1097688 ], [ -5.0964327, 43.1084989 ], [ -5.0956559, 43.1077026 ], [ -5.0969522, 43.1067965 ], [ -5.0982218, 43.1054675 ], [ -5.0985856, 43.1049656 ], [ -5.0990161, 43.1046155 ], [ -5.1003099, 43.1039975 ], [ -5.1007032, 43.1036391 ], [ -5.1012457, 43.1029717 ], [ -5.1015472, 43.1024439 ], [ -5.1017355, 43.1018462 ], [ -5.1030472, 43.1021102 ], [ -5.1042548, 43.102205 ], [ -5.1052728, 43.1021503 ], [ -5.1040756, 43.1012809 ], [ -5.1038831, 43.1010413 ], [ -5.1037869, 43.1007459 ], [ -5.1039708, 43.1000132 ], [ -5.1033661, 43.0985025 ], [ -5.1028548, 43.0975664 ], [ -5.1025155, 43.0973475 ], [ -5.1021542, 43.0972011 ], [ -5.1007413, 43.0972091 ], [ -5.0989657, 43.0970255 ], [ -5.0968526, 43.0966771 ], [ -5.0916544, 43.0981049 ], [ -5.0882694, 43.0993824 ], [ -5.0876021, 43.0989083 ], [ -5.0870834, 43.0981073 ], [ -5.0860602, 43.0972886 ], [ -5.0858988, 43.0968773 ], [ -5.0858471, 43.0960768 ], [ -5.0856016, 43.0957211 ], [ -5.0851221, 43.0953517 ], [ -5.0824729, 43.0944094 ], [ -5.0817441, 43.0942966 ], [ -5.0807798, 43.0944852 ], [ -5.0798118, 43.0938364 ], [ -5.079002, 43.093509 ], [ -5.0783825, 43.0937184 ], [ -5.0774565, 43.0932219 ], [ -5.076291, 43.0936393 ], [ -5.0743917, 43.0945202 ], [ -5.0739704, 43.0947799 ], [ -5.0732056, 43.0950549 ], [ -5.0724555, 43.0954017 ], [ -5.0719304, 43.0958614 ], [ -5.0704619, 43.0967705 ], [ -5.067761, 43.0979359 ], [ -5.0670764, 43.0984075 ], [ -5.0660218, 43.099201 ], [ -5.0648223, 43.0997089 ], [ -5.0642377, 43.0998635 ], [ -5.0631237, 43.0999916 ], [ -5.0622107, 43.099882 ], [ -5.0615792, 43.0997403 ], [ -5.0608941, 43.0994645 ], [ -5.0601041, 43.0989925 ], [ -5.0593968, 43.09842 ], [ -5.0577859, 43.0980167 ], [ -5.04987, 43.094629 ], [ -5.0491987, 43.0943979 ], [ -5.0478787, 43.093503 ], [ -5.0475361, 43.093176 ], [ -5.0469056, 43.0923228 ], [ -5.0465906, 43.0920854 ], [ -5.0459916, 43.0918079 ], [ -5.0438918, 43.091107 ], [ -5.0402342, 43.0901098 ], [ -5.0397141, 43.0911005 ], [ -5.0395243, 43.091302 ], [ -5.0391628, 43.0915156 ], [ -5.0384472, 43.0917985 ], [ -5.0379842, 43.0919148 ], [ -5.0375974, 43.0921108 ], [ -5.0368391, 43.0929527 ], [ -5.0359423, 43.0933289 ], [ -5.035027, 43.0935162 ], [ -5.034761, 43.0936471 ], [ -5.0344288, 43.0940041 ], [ -5.0338376, 43.0950772 ], [ -5.030704, 43.095439 ], [ -5.029998, 43.0956406 ], [ -5.0293926, 43.0959125 ], [ -5.0288154, 43.0962919 ], [ -5.0279918, 43.0970269 ], [ -5.0269336, 43.0980992 ], [ -5.0262253, 43.098607 ], [ -5.0256669, 43.098815 ], [ -5.0235718, 43.0993743 ], [ -5.0212568, 43.0996043 ], [ -5.0209385, 43.099637 ], [ -5.0202651, 43.0997119 ], [ -5.0184429, 43.0999782 ], [ -5.0176653, 43.0998748 ], [ -5.0171365, 43.0998662 ], [ -5.0152091, 43.1002964 ], [ -5.0144913, 43.1005161 ], [ -5.0128427, 43.1008333 ], [ -5.012248, 43.1010598 ], [ -5.009785, 43.1023998 ], [ -5.0091268, 43.1025644 ], [ -5.0078183, 43.1031367 ], [ -5.0071677, 43.1035353 ], [ -5.0056078, 43.1046882 ], [ -5.0038553, 43.1055924 ], [ -5.0035222, 43.1059314 ], [ -5.002853, 43.1068887 ], [ -5.0025316, 43.1072094 ], [ -5.0018953, 43.1076708 ], [ -4.997274, 43.1118216 ], [ -4.9882081, 43.1199397 ], [ -4.9825815, 43.1249899 ], [ -4.9822861, 43.1253552 ], [ -4.9819441, 43.1261896 ], [ -4.9819595, 43.1266665 ], [ -4.9820844, 43.1271057 ], [ -4.9820988, 43.1275556 ], [ -4.9816125, 43.1281043 ], [ -4.981721, 43.1287958 ], [ -4.983368, 43.1299289 ], [ -4.9842928, 43.1307683 ], [ -4.9848722, 43.1311994 ], [ -4.9858245, 43.131372 ], [ -4.9869567, 43.1317845 ], [ -4.9894678, 43.1322542 ], [ -4.9895543, 43.1326489 ], [ -4.9892177, 43.1336452 ], [ -4.9885298, 43.1348008 ], [ -4.9873228, 43.1377753 ], [ -4.9885362, 43.1403116 ], [ -4.988777, 43.1412889 ], [ -4.9883035, 43.1441336 ], [ -4.9879921, 43.1447693 ], [ -4.9878077, 43.1455289 ], [ -4.9877845, 43.1459525 ], [ -4.9879523, 43.1469581 ], [ -4.988216, 43.1475028 ], [ -4.9902254, 43.1487915 ], [ -4.9927793, 43.1501788 ], [ -4.9940459, 43.1513093 ], [ -4.9990779, 43.1494746 ], [ -4.9934096, 43.1623781 ], [ -4.9952737, 43.1667398 ], [ -4.9953141, 43.1668472 ], [ -4.9968586, 43.1730964 ] ] ] } }
]
}
