{
"type": "FeatureCollection",
"name": "24112",
"features": [
{ "type": "Feature", "properties": { "CCAA": "07 - Castilla y León", "PROVINCIA": "24 - León", "MUNICIPIO": "24112 - Peranzanes", "COD_MUNICIPIO": "24112", "DISTRITO": "01", "SECCION": "2411201001", "V1_H": 81.55, "V1_M": 86.88, "V2_H": 81.46298126000001, "V2_M": 86.741846, "V3_H": 81.68783029, "V3_M": 87.18580847 }, "geometry": { "type": "Polygon", "coordinates": [ [ [ -6.5690634, 42.9147745 ], [ -6.5696544, 42.9156744 ], [ -6.5701932, 42.9163059 ], [ -6.5707833, 42.9167647 ], [ -6.5711688, 42.9170768 ], [ -6.5716593, 42.9168724 ], [ -6.5727247, 42.9172893 ], [ -6.5738332, 42.9176058 ], [ -6.5756558, 42.917981 ], [ -6.5793981, 42.9185032 ], [ -6.5806659, 42.9181843 ], [ -6.5837715, 42.9185012 ], [ -6.5855441, 42.9184366 ], [ -6.5900537, 42.9167734 ], [ -6.5902936, 42.9166848 ], [ -6.5906784, 42.9167718 ], [ -6.5919955, 42.9170905 ], [ -6.5925996, 42.9175758 ], [ -6.5943916, 42.9176365 ], [ -6.5972707, 42.9184824 ], [ -6.5978646, 42.9185808 ], [ -6.5992779, 42.9182391 ], [ -6.6022671, 42.9167673 ], [ -6.6034701, 42.9161801 ], [ -6.6065036, 42.9161024 ], [ -6.6071183, 42.9167673 ], [ -6.6096734, 42.9196131 ], [ -6.6107751, 42.9225316 ], [ -6.6117893, 42.9229048 ], [ -6.6129271, 42.9245526 ], [ -6.6159357, 42.9240432 ], [ -6.6216483, 42.9220076 ], [ -6.6234671, 42.9210585 ], [ -6.6274715, 42.9199861 ], [ -6.6285818, 42.9194916 ], [ -6.6322176, 42.9231939 ], [ -6.6335301, 42.9238455 ], [ -6.6387833, 42.9254612 ], [ -6.6453878, 42.9240172 ], [ -6.6467499, 42.9238478 ], [ -6.6469508, 42.9238648 ], [ -6.6476735, 42.9239263 ], [ -6.6488181, 42.9242229 ], [ -6.6508991, 42.9250209 ], [ -6.651217, 42.9249975 ], [ -6.6569375, 42.9245757 ], [ -6.6598377, 42.9228622 ], [ -6.6606421, 42.9227914 ], [ -6.6607433, 42.9228111 ], [ -6.6619931, 42.9230543 ], [ -6.6630726, 42.9236949 ], [ -6.6652817, 42.9239663 ], [ -6.6671895, 42.9245264 ], [ -6.6674271, 42.9244839 ], [ -6.6720387, 42.9236594 ], [ -6.6736507, 42.9235716 ], [ -6.6750022, 42.9234291 ], [ -6.6776433, 42.92293 ], [ -6.6779364, 42.9229403 ], [ -6.682186, 42.9230899 ], [ -6.6822786, 42.9230762 ], [ -6.685137, 42.9226527 ], [ -6.6859898, 42.9225711 ], [ -6.6861778, 42.9225844 ], [ -6.6873062, 42.9226637 ], [ -6.6875059, 42.9226478 ], [ -6.6876842, 42.9226335 ], [ -6.6899038, 42.9224629 ], [ -6.6909962, 42.9222925 ], [ -6.6927709, 42.9214429 ], [ -6.6959676, 42.9189715 ], [ -6.6969939, 42.9185151 ], [ -6.7025295, 42.9176697 ], [ -6.7058429, 42.916743 ], [ -6.7063971, 42.9165899 ], [ -6.7106036, 42.9158502 ], [ -6.712785, 42.9150501 ], [ -6.7130184, 42.9150955 ], [ -6.7167887, 42.9158294 ], [ -6.7176503, 42.9163056 ], [ -6.7193062, 42.9167469 ], [ -6.721723, 42.9174156 ], [ -6.7226582, 42.9174842 ], [ -6.722772, 42.9174612 ], [ -6.7231908, 42.9173768 ], [ -6.7239003, 42.9167504 ], [ -6.7241095, 42.9165635 ], [ -6.7255471, 42.9148059 ], [ -6.7297318, 42.911482 ], [ -6.7310028, 42.910216 ], [ -6.7327629, 42.9091411 ], [ -6.7334389, 42.9081646 ], [ -6.7345358, 42.9076696 ], [ -6.7359905, 42.905191 ], [ -6.7374236, 42.9041807 ], [ -6.738292, 42.903351 ], [ -6.7389081, 42.9026015 ], [ -6.7398581, 42.9008957 ], [ -6.7401731, 42.90003 ], [ -6.7405922, 42.899467 ], [ -6.7425667, 42.8980968 ], [ -6.7442014, 42.897386 ], [ -6.7450553, 42.8965206 ], [ -6.7457497, 42.8960567 ], [ -6.7469998, 42.8954665 ], [ -6.7478411, 42.8952049 ], [ -6.7482542, 42.8949482 ], [ -6.7492217, 42.8941421 ], [ -6.7499446, 42.8925337 ], [ -6.7514569, 42.8898099 ], [ -6.7523223, 42.8893403 ], [ -6.7551435, 42.8861953 ], [ -6.756667, 42.8830569 ], [ -6.7558857, 42.8818851 ], [ -6.7544602, 42.8817968 ], [ -6.7536634, 42.8815798 ], [ -6.75189, 42.8816111 ], [ -6.7506594, 42.8815073 ], [ -6.7489847, 42.8807429 ], [ -6.7482113, 42.8819208 ], [ -6.7472014, 42.8834396 ], [ -6.7419111, 42.8860529 ], [ -6.7397992, 42.8869684 ], [ -6.7365807, 42.88801 ], [ -6.7352347, 42.8888373 ], [ -6.7344524, 42.8894662 ], [ -6.733931, 42.8897533 ], [ -6.733123, 42.8899598 ], [ -6.7313439, 42.8899008 ], [ -6.728232, 42.8892641 ], [ -6.7249459, 42.8895962 ], [ -6.7234036, 42.8894034 ], [ -6.7221732, 42.8891013 ], [ -6.7209007, 42.8887105 ], [ -6.7203729, 42.8874671 ], [ -6.7200932, 42.8862787 ], [ -6.7201558, 42.8856914 ], [ -6.719583, 42.8841073 ], [ -6.7189937, 42.8814343 ], [ -6.7176369, 42.8788222 ], [ -6.7156, 42.8777269 ], [ -6.7149401, 42.8771361 ], [ -6.7118738, 42.8737781 ], [ -6.709725, 42.8669328 ], [ -6.7094951, 42.866364 ], [ -6.709134, 42.8658534 ], [ -6.7070878, 42.8643892 ], [ -6.7040116, 42.8633003 ], [ -6.7019081, 42.862306 ], [ -6.7016566, 42.86199 ], [ -6.7017632, 42.8609061 ], [ -6.7013752, 42.8605585 ], [ -6.7003438, 42.8598895 ], [ -6.6998251, 42.8594021 ], [ -6.6996404, 42.8587687 ], [ -6.6995383, 42.8570613 ], [ -6.6995815, 42.8565557 ], [ -6.7002431, 42.8555438 ], [ -6.7005364, 42.854922 ], [ -6.7006586, 42.8543058 ], [ -6.7005722, 42.8536783 ], [ -6.7000507, 42.8521195 ], [ -6.699757, 42.8504813 ], [ -6.6986863, 42.8479227 ], [ -6.698631, 42.8453583 ], [ -6.698254, 42.8427324 ], [ -6.6977373, 42.8410473 ], [ -6.6999944, 42.8392996 ], [ -6.7000816, 42.8387115 ], [ -6.6999649, 42.838193 ], [ -6.6992553, 42.8367573 ], [ -6.6943794, 42.8352132 ], [ -6.6905353, 42.8335275 ], [ -6.6902098, 42.8334029 ], [ -6.6876834, 42.8324759 ], [ -6.6870585, 42.832253 ], [ -6.6846975, 42.8318429 ], [ -6.6841874, 42.8306708 ], [ -6.6833916, 42.8294269 ], [ -6.6827082, 42.8288366 ], [ -6.6819543, 42.8285008 ], [ -6.6810347, 42.8282603 ], [ -6.6789745, 42.8281735 ], [ -6.6777104, 42.827899 ], [ -6.6769364, 42.8274287 ], [ -6.6728845, 42.8255241 ], [ -6.6685943, 42.8249595 ], [ -6.6678362, 42.8243446 ], [ -6.6654341, 42.8234401 ], [ -6.66365, 42.8230561 ], [ -6.6584578, 42.8198459 ], [ -6.6578452, 42.8192082 ], [ -6.6565693, 42.8183126 ], [ -6.6559409, 42.8180265 ], [ -6.6542457, 42.8174865 ], [ -6.6537547, 42.8172501 ], [ -6.6525108, 42.8162723 ], [ -6.651486, 42.8149219 ], [ -6.6428887, 42.8173526 ], [ -6.6338656, 42.8199088 ], [ -6.6302923, 42.8209227 ], [ -6.6296722, 42.8243279 ], [ -6.6283776, 42.8251974 ], [ -6.6218547, 42.8301674 ], [ -6.6217385, 42.8309004 ], [ -6.6216862, 42.8308751 ], [ -6.6215463, 42.8307894 ], [ -6.6214026, 42.8307025 ], [ -6.6213706, 42.830904 ], [ -6.6127714, 42.8334361 ], [ -6.6125431, 42.8335064 ], [ -6.6072449, 42.8349613 ], [ -6.6050054, 42.8355811 ], [ -6.6046568, 42.8365286 ], [ -6.6041693, 42.8378225 ], [ -6.6035117, 42.8387167 ], [ -6.5980908, 42.8416517 ], [ -6.5973232, 42.8429724 ], [ -6.5969526, 42.8445958 ], [ -6.5954063, 42.8466253 ], [ -6.5935826, 42.8483034 ], [ -6.5923306, 42.8490812 ], [ -6.5917038, 42.8496681 ], [ -6.5905873, 42.8513059 ], [ -6.5897115, 42.8532962 ], [ -6.5893664, 42.855153 ], [ -6.5896797, 42.8561245 ], [ -6.5896021, 42.8566852 ], [ -6.5892944, 42.8572892 ], [ -6.5886561, 42.8581015 ], [ -6.5863157, 42.8601649 ], [ -6.5848086, 42.8616168 ], [ -6.5843959, 42.8625212 ], [ -6.5825985, 42.8646665 ], [ -6.5810788, 42.8671722 ], [ -6.5805453, 42.8685305 ], [ -6.5781926, 42.8706031 ], [ -6.5777491, 42.8714003 ], [ -6.5737183, 42.8762175 ], [ -6.5702873, 42.8799804 ], [ -6.5685921, 42.8820052 ], [ -6.5670714, 42.884934 ], [ -6.5661947, 42.886294 ], [ -6.5655378, 42.8878541 ], [ -6.5651756, 42.8898553 ], [ -6.564967, 42.8904832 ], [ -6.5639382, 42.8926042 ], [ -6.5634848, 42.8947253 ], [ -6.5630748, 42.8999334 ], [ -6.5628423, 42.9018495 ], [ -6.5642603, 42.9037142 ], [ -6.5649385, 42.9048546 ], [ -6.5674717, 42.9133024 ], [ -6.5690634, 42.9147745 ] ] ] } }
]
}
