{
"type": "FeatureCollection",
"name": "24173",
"features": [
{ "type": "Feature", "properties": { "CCAA": "07 - Castilla y León", "PROVINCIA": "24 - León", "MUNICIPIO": "24173 - Turcia", "COD_MUNICIPIO": "24173", "DISTRITO": "01", "SECCION": "2417301001", "V1_H": 80.23, "V1_M": 86.04, "V2_H": 80.01377171, "V2_M": 86.1814847, "V3_H": 80.55154758, "V3_M": 86.06989916000001 }, "geometry": { "type": "Polygon", "coordinates": [ [ [ -5.9098539, 42.6107789 ], [ -5.9105152, 42.6111042 ], [ -5.9106074, 42.6098862 ], [ -5.9106509, 42.6093088 ], [ -5.9105939, 42.6083468 ], [ -5.9104231, 42.6078198 ], [ -5.909715, 42.606487 ], [ -5.9090699, 42.6046755 ], [ -5.908753, 42.60363 ], [ -5.908298, 42.602759 ], [ -5.9081822, 42.6021046 ], [ -5.9082709, 42.6016521 ], [ -5.9093467, 42.5998869 ], [ -5.9096583, 42.5989874 ], [ -5.9099758, 42.5974305 ], [ -5.9099758, 42.5974305 ], [ -5.9097538, 42.597112 ], [ -5.9097022, 42.5967892 ], [ -5.9097022, 42.5967891 ], [ -5.9091331, 42.595561 ], [ -5.9091331, 42.5955609 ], [ -5.9084171, 42.5945796 ], [ -5.9080655, 42.593571 ], [ -5.9067667, 42.5913257 ], [ -5.9067093, 42.590877 ], [ -5.9067092, 42.5908769 ], [ -5.906779, 42.590542 ], [ -5.906779, 42.590542 ], [ -5.9071481, 42.5898302 ], [ -5.9072443, 42.5892785 ], [ -5.9072443, 42.5892785 ], [ -5.9072024, 42.5886402 ], [ -5.9074094, 42.5881127 ], [ -5.907697, 42.5877452 ], [ -5.9078566, 42.5869847 ], [ -5.9087067, 42.5856124 ], [ -5.9094729, 42.5845303 ], [ -5.9097029, 42.5839752 ], [ -5.909789, 42.5834687 ], [ -5.9103269, 42.5814109 ], [ -5.9104071, 42.5807786 ], [ -5.9105583, 42.5803605 ], [ -5.9111992, 42.5792096 ], [ -5.9113138, 42.5782702 ], [ -5.910831, 42.5770578 ], [ -5.9106993, 42.5765839 ], [ -5.9106331, 42.5759462 ], [ -5.9104862, 42.5756708 ], [ -5.9104191, 42.5752763 ], [ -5.9108654, 42.5733469 ], [ -5.9106991, 42.5710819 ], [ -5.9109033, 42.5686634 ], [ -5.9111694, 42.5680983 ], [ -5.9115362, 42.5676027 ], [ -5.9130137, 42.5661063 ], [ -5.9140757, 42.5648456 ], [ -5.9141376, 42.5647855 ], [ -5.9155069, 42.5634044 ], [ -5.9159374, 42.5629702 ], [ -5.9164171, 42.5625556 ], [ -5.9167102, 42.5623022 ], [ -5.9226239, 42.5585135 ], [ -5.923568, 42.5549954 ], [ -5.922827, 42.554551 ], [ -5.9194205, 42.5525078 ], [ -5.9163164, 42.550975 ], [ -5.9155277, 42.5506722 ], [ -5.9146671, 42.5503417 ], [ -5.9100979, 42.5463697 ], [ -5.9063928, 42.5434201 ], [ -5.9059316, 42.5429275 ], [ -5.9020818, 42.5368478 ], [ -5.9006388, 42.5340838 ], [ -5.902304, 42.5300794 ], [ -5.9034493, 42.5266825 ], [ -5.8978515, 42.5196293 ], [ -5.8974186, 42.519217 ], [ -5.8974781, 42.5188429 ], [ -5.8976733, 42.5176167 ], [ -5.8976873, 42.5160765 ], [ -5.8974834, 42.5153523 ], [ -5.8974834, 42.5153523 ], [ -5.8968383, 42.5150894 ], [ -5.8959259, 42.5145722 ], [ -5.8928137, 42.5126295 ], [ -5.8916556, 42.5119066 ], [ -5.8915893, 42.5118632 ], [ -5.891283, 42.5116864 ], [ -5.8903141, 42.51113 ], [ -5.8889724, 42.5104529 ], [ -5.8888187, 42.5103753 ], [ -5.888037, 42.5100528 ], [ -5.8872554, 42.5097304 ], [ -5.8857965, 42.5092358 ], [ -5.8850215, 42.5090572 ], [ -5.8837866, 42.5089353 ], [ -5.8837865, 42.5089352 ], [ -5.8826648, 42.5088915 ], [ -5.8819795, 42.5088096 ], [ -5.8811794, 42.5086137 ], [ -5.8810987, 42.5085797 ], [ -5.8808567, 42.5084777 ], [ -5.8799853, 42.5075117 ], [ -5.8796255, 42.5071129 ], [ -5.8796255, 42.5071129 ], [ -5.8795721, 42.5075375 ], [ -5.8790291, 42.5085687 ], [ -5.8784862, 42.5095999 ], [ -5.8781631, 42.5099862 ], [ -5.8779245, 42.5104875 ], [ -5.8772747, 42.5118456 ], [ -5.8770856, 42.5124987 ], [ -5.8771591, 42.5135684 ], [ -5.8761577, 42.5150884 ], [ -5.8747763, 42.5178786 ], [ -5.8745102, 42.5181824 ], [ -5.8721233, 42.519503 ], [ -5.8709961, 42.5201256 ], [ -5.8699788, 42.5207725 ], [ -5.8654135, 42.5252902 ], [ -5.8648961, 42.5256904 ], [ -5.8642623, 42.5259404 ], [ -5.8631744, 42.5261117 ], [ -5.8609144, 42.5272758 ], [ -5.8602697, 42.5275215 ], [ -5.8595381, 42.5277964 ], [ -5.8591576, 42.527995 ], [ -5.8586973, 42.5286729 ], [ -5.8566993, 42.5316133 ], [ -5.8528819, 42.5372285 ], [ -5.8497034, 42.5355112 ], [ -5.846681, 42.537698 ], [ -5.8446091, 42.5398027 ], [ -5.8408724, 42.5446681 ], [ -5.8401556, 42.5452442 ], [ -5.8389012, 42.5457795 ], [ -5.8379406, 42.5460825 ], [ -5.837867, 42.5468767 ], [ -5.8380042, 42.5490976 ], [ -5.8372632, 42.5502145 ], [ -5.8405774, 42.5513706 ], [ -5.8407007, 42.5514125 ], [ -5.8543291, 42.556157 ], [ -5.8558921, 42.5567754 ], [ -5.856567, 42.5568846 ], [ -5.8603683, 42.5577082 ], [ -5.8610265, 42.5579706 ], [ -5.8612186, 42.5580472 ], [ -5.8631471, 42.5588094 ], [ -5.8661879, 42.5597779 ], [ -5.8669474, 42.560137 ], [ -5.8713066, 42.5625718 ], [ -5.8717479, 42.5628173 ], [ -5.8717479, 42.5628174 ], [ -5.8718451, 42.5636073 ], [ -5.8723004, 42.5658291 ], [ -5.8723559, 42.5667733 ], [ -5.8723559, 42.5667733 ], [ -5.8724937, 42.567121 ], [ -5.8741732, 42.5684116 ], [ -5.8807255, 42.5749826 ], [ -5.8814607, 42.5756035 ], [ -5.882416, 42.5762368 ], [ -5.8857331, 42.5781523 ], [ -5.8863117, 42.578543 ], [ -5.8869938, 42.5788049 ], [ -5.8869939, 42.5788049 ], [ -5.8892084, 42.5808472 ], [ -5.8920344, 42.582937 ], [ -5.8923633, 42.58346 ], [ -5.8952692, 42.5906895 ], [ -5.896062, 42.593335 ], [ -5.8970506, 42.5959934 ], [ -5.8977447, 42.598083 ], [ -5.8996561, 42.600664 ], [ -5.8996561, 42.600664 ], [ -5.9001182, 42.6011656 ], [ -5.9003692, 42.6013213 ], [ -5.9005816, 42.6016941 ], [ -5.9017706, 42.6031498 ], [ -5.9023216, 42.6039913 ], [ -5.9051494, 42.6071343 ], [ -5.9086508, 42.6098459 ], [ -5.9098539, 42.6107789 ] ] ] } }
]
}
