{
"type": "FeatureCollection",
"name": "25007",
"features": [
{ "type": "Feature", "properties": { "CCAA": "09 - Cataluña", "PROVINCIA": "25 - Lleida", "MUNICIPIO": "25007 - Albatàrrec", "COD_MUNICIPIO": "25007", "DISTRITO": "01", "SECCION": "2500701001", "V1_H": 80.91, "V1_M": 86.7, "V2_H": 80.91796575, "V2_M": 86.73459974, "V3_H": 81.00259482, "V3_M": 86.81948346 }, "geometry": { "type": "Polygon", "coordinates": [ [ [ 0.6153108, 41.582749 ], [ 0.6150846, 41.5830081 ], [ 0.6150122, 41.5830014 ], [ 0.6132651, 41.5828718 ], [ 0.608424, 41.5825063 ], [ 0.6058163, 41.5824171 ], [ 0.6050106, 41.5821632 ], [ 0.6037118, 41.5812404 ], [ 0.6035726, 41.5811097 ], [ 0.6025094, 41.5801075 ], [ 0.6000973, 41.5789764 ], [ 0.5989504, 41.5784361 ], [ 0.5949087, 41.5760593 ], [ 0.5932553, 41.5752781 ], [ 0.5920883, 41.5747247 ], [ 0.5910922, 41.5744947 ], [ 0.5913385, 41.5739648 ], [ 0.5939662, 41.5708433 ], [ 0.5952176, 41.5693543 ], [ 0.5953779, 41.5691647 ], [ 0.5955488, 41.5692313 ], [ 0.5959959, 41.5693344 ], [ 0.5959702, 41.5692632 ], [ 0.5959194, 41.5692107 ], [ 0.5958555, 41.5691407 ], [ 0.5958171, 41.5690969 ], [ 0.5957782, 41.569044 ], [ 0.5957503, 41.5689729 ], [ 0.5957373, 41.5689283 ], [ 0.5957318, 41.5688564 ], [ 0.5957153, 41.5687759 ], [ 0.5958111, 41.5687729 ], [ 0.5958829, 41.5687706 ], [ 0.5959547, 41.5687684 ], [ 0.5960453, 41.5687521 ], [ 0.5961328, 41.5687358 ], [ 0.596252, 41.5687231 ], [ 0.5964181, 41.5686908 ], [ 0.5965936, 41.5686133 ], [ 0.5967697, 41.5685447 ], [ 0.5969223, 41.5684859 ], [ 0.5970749, 41.5684271 ], [ 0.5971209, 41.5683897 ], [ 0.597249, 41.5683226 ], [ 0.5973557, 41.5683013 ], [ 0.5974266, 41.568281 ], [ 0.5974979, 41.5682698 ], [ 0.5975567, 41.5682499 ], [ 0.5976266, 41.5682117 ], [ 0.5977198, 41.5681638 ], [ 0.5977543, 41.5681357 ], [ 0.5977762, 41.568099 ], [ 0.5977981, 41.5680623 ], [ 0.597832, 41.5680252 ], [ 0.597829, 41.5679712 ], [ 0.5978125, 41.5678907 ], [ 0.5978076, 41.5678008 ], [ 0.5978031, 41.5677199 ], [ 0.5977966, 41.567603 ], [ 0.5977781, 41.5674866 ], [ 0.5977607, 41.5673881 ], [ 0.5977557, 41.5672982 ], [ 0.5977379, 41.5672357 ], [ 0.5977457, 41.5671184 ], [ 0.5978948, 41.5669966 ], [ 0.5980454, 41.5669019 ], [ 0.5984593, 41.5665827 ], [ 0.5986444, 41.5664598 ], [ 0.5987476, 41.5663755 ], [ 0.5988514, 41.5663003 ], [ 0.5989551, 41.566225 ], [ 0.5989755, 41.5661613 ], [ 0.598961, 41.5661167 ], [ 0.5989341, 41.5660636 ], [ 0.5989191, 41.56601 ], [ 0.5988797, 41.5659482 ], [ 0.5988184, 41.5659231 ], [ 0.5987695, 41.5659066 ], [ 0.5986967, 41.5658909 ], [ 0.5986244, 41.5658842 ], [ 0.59854, 41.5658778 ], [ 0.5984433, 41.5658628 ], [ 0.5983825, 41.5658467 ], [ 0.5983081, 41.565804 ], [ 0.5982702, 41.5657692 ], [ 0.5982792, 41.5657148 ], [ 0.5983011, 41.5656782 ], [ 0.5983565, 41.5655954 ], [ 0.5983894, 41.5655403 ], [ 0.5984223, 41.5654852 ], [ 0.5984562, 41.5654482 ], [ 0.5985016, 41.5654017 ], [ 0.59856, 41.5653729 ], [ 0.5986069, 41.5653534 ], [ 0.5986537, 41.5653339 ], [ 0.5987475, 41.5652949 ], [ 0.5987939, 41.5652665 ], [ 0.5988283, 41.5652384 ], [ 0.5988751, 41.5652189 ], [ 0.598934, 41.565199 ], [ 0.5989809, 41.5651796 ], [ 0.5990283, 41.5651691 ], [ 0.5990886, 41.5651762 ], [ 0.5991609, 41.5651829 ], [ 0.5992213, 41.56519 ], [ 0.599317, 41.565187 ], [ 0.5993758, 41.5651672 ], [ 0.5994348, 41.5651473 ], [ 0.5994816, 41.5651279 ], [ 0.599528, 41.5650994 ], [ 0.5995858, 41.5650616 ], [ 0.5999669, 41.5654458 ], [ 0.6000938, 41.5650186 ], [ 0.6010896, 41.5616735 ], [ 0.6033101, 41.5542151 ], [ 0.6041302, 41.5514608 ], [ 0.6043712, 41.5506473 ], [ 0.6091765, 41.5510592 ], [ 0.6142846, 41.5514974 ], [ 0.6152803, 41.5515111 ], [ 0.6165018, 41.5512745 ], [ 0.6178405, 41.5507731 ], [ 0.6176221, 41.5472905 ], [ 0.6187147, 41.5471074 ], [ 0.6196809, 41.5468068 ], [ 0.6202521, 41.5465187 ], [ 0.6206057, 41.5461293 ], [ 0.6208621, 41.5458511 ], [ 0.621099, 41.5453033 ], [ 0.6213717, 41.5446733 ], [ 0.6225964, 41.545139 ], [ 0.622828, 41.5452622 ], [ 0.6235843, 41.5456572 ], [ 0.6260511, 41.5473262 ], [ 0.6267681, 41.547889 ], [ 0.626891, 41.5479841 ], [ 0.6275126, 41.5485949 ], [ 0.6294434, 41.5507491 ], [ 0.6304253, 41.5520148 ], [ 0.6318931, 41.5542467 ], [ 0.6313057, 41.5565976 ], [ 0.6311531, 41.557512 ], [ 0.6312069, 41.5582577 ], [ 0.6315325, 41.5590668 ], [ 0.631569, 41.5591557 ], [ 0.6332017, 41.5615445 ], [ 0.6346248, 41.5627601 ], [ 0.6379327, 41.5648706 ], [ 0.6403142, 41.566281 ], [ 0.6410608, 41.5669778 ], [ 0.6419194, 41.5679591 ], [ 0.6424722, 41.5688331 ], [ 0.6434364, 41.5708376 ], [ 0.643811, 41.5721675 ], [ 0.6438773, 41.5739844 ], [ 0.6432195, 41.5765717 ], [ 0.6420677, 41.5765633 ], [ 0.6362017, 41.5780279 ], [ 0.6338939, 41.5783621 ], [ 0.6316961, 41.5785217 ], [ 0.6293591, 41.5785506 ], [ 0.6268364, 41.5784772 ], [ 0.6257674, 41.5784479 ], [ 0.6229993, 41.5782741 ], [ 0.622299, 41.5783773 ], [ 0.6217503, 41.5784576 ], [ 0.6191838, 41.5796372 ], [ 0.6172631, 41.5805172 ], [ 0.6172143, 41.5805682 ], [ 0.6170247, 41.5807854 ], [ 0.6153108, 41.582749 ] ] ] } }
]
}
