{
"type": "FeatureCollection",
"name": "25012",
"features": [
{ "type": "Feature", "properties": { "CCAA": "09 - Cataluña", "PROVINCIA": "25 - Lleida", "MUNICIPIO": "25012 - Alcoletge", "COD_MUNICIPIO": "25012", "DISTRITO": "01", "SECCION": "2501201001", "V1_H": 80.65, "V1_M": 86.42, "V2_H": 80.32339709, "V2_M": 86.16224497, "V3_H": 80.9318118, "V3_M": 86.73476557 }, "geometry": { "type": "Polygon", "coordinates": [ [ [ 0.6741408, 41.6564144 ], [ 0.6726293, 41.6566892 ], [ 0.6683824, 41.6580227 ], [ 0.6673453, 41.6581549 ], [ 0.6662895, 41.6581706 ], [ 0.6652375, 41.6580421 ], [ 0.6633132, 41.6575632 ], [ 0.6620559, 41.656991 ], [ 0.661001, 41.6563853 ], [ 0.6608212, 41.6546981 ], [ 0.661406, 41.6546344 ], [ 0.6784262, 41.6448421 ], [ 0.6728942, 41.639184 ], [ 0.6725849, 41.6385995 ], [ 0.6721807, 41.6380361 ], [ 0.6713628, 41.6371618 ], [ 0.6705947, 41.636529 ], [ 0.6686744, 41.6344201 ], [ 0.6725552, 41.6319547 ], [ 0.6734334, 41.6315664 ], [ 0.6753339, 41.6312175 ], [ 0.676469, 41.6311271 ], [ 0.6817134, 41.6325889 ], [ 0.6839832, 41.6328223 ], [ 0.6850973, 41.6329936 ], [ 0.6880733, 41.6340327 ], [ 0.6898415, 41.634309 ], [ 0.6910004, 41.6344249 ], [ 0.691102, 41.6343652 ], [ 0.6935447, 41.635038 ], [ 0.6967381, 41.6360312 ], [ 0.6987229, 41.6366764 ], [ 0.6986098, 41.6384529 ], [ 0.6978523, 41.6407337 ], [ 0.6969089, 41.6423946 ], [ 0.6968211, 41.6433 ], [ 0.6971746, 41.6444087 ], [ 0.6951803, 41.6467294 ], [ 0.6953706, 41.647239 ], [ 0.6960322, 41.6497884 ], [ 0.6952512, 41.6498457 ], [ 0.6944191, 41.6495743 ], [ 0.6938086, 41.6497955 ], [ 0.6914563, 41.6509348 ], [ 0.6884761, 41.6523684 ], [ 0.6872612, 41.6525444 ], [ 0.6868731, 41.65271 ], [ 0.6836251, 41.6545388 ], [ 0.6808705, 41.6561663 ], [ 0.6796704, 41.6554714 ], [ 0.6780307, 41.6551694 ], [ 0.6771116, 41.6552174 ], [ 0.6766038, 41.6553642 ], [ 0.6758168, 41.6554128 ], [ 0.6740672, 41.6558139 ], [ 0.673803, 41.6560882 ], [ 0.6741408, 41.6564144 ] ] ] } },
{ "type": "Feature", "properties": { "CCAA": "09 - Cataluña", "PROVINCIA": "25 - Lleida", "MUNICIPIO": "25012 - Alcoletge", "COD_MUNICIPIO": "25012", "DISTRITO": "01", "SECCION": "2501201002", "V1_H": 80.61, "V1_M": 86.39, "V2_H": 80.33359214, "V2_M": 86.26240397, "V3_H": 81.01911703, "V3_M": 86.63389387 }, "geometry": { "type": "Polygon", "coordinates": [ [ [ 0.7371418, 41.6585057 ], [ 0.7355571, 41.6587194 ], [ 0.7342992, 41.6587693 ], [ 0.7319996, 41.6586641 ], [ 0.728366, 41.6587462 ], [ 0.7228801, 41.658357 ], [ 0.7206026, 41.6590522 ], [ 0.7081312, 41.6628959 ], [ 0.7082112, 41.6634516 ], [ 0.7046622, 41.6643857 ], [ 0.7043165, 41.6638025 ], [ 0.7040944, 41.6630713 ], [ 0.7015158, 41.6631275 ], [ 0.699118, 41.6631957 ], [ 0.6973422, 41.6644776 ], [ 0.6962363, 41.6652967 ], [ 0.6957938, 41.6659593 ], [ 0.6954301, 41.6667364 ], [ 0.6953993, 41.6668274 ], [ 0.6950627, 41.6674506 ], [ 0.6933459, 41.6668305 ], [ 0.6912315, 41.6661871 ], [ 0.6898766, 41.6660146 ], [ 0.6879369, 41.6659058 ], [ 0.6849208, 41.6654534 ], [ 0.6838817, 41.6653427 ], [ 0.6822255, 41.6653598 ], [ 0.6791575, 41.6652601 ], [ 0.6780758, 41.6650336 ], [ 0.6775116, 41.6648265 ], [ 0.676947, 41.6644034 ], [ 0.6766833, 41.6639886 ], [ 0.676577, 41.6633886 ], [ 0.6765695, 41.6626235 ], [ 0.6767394, 41.6620237 ], [ 0.6782297, 41.6590943 ], [ 0.6782744, 41.6586156 ], [ 0.6780892, 41.6572618 ], [ 0.6778218, 41.6567841 ], [ 0.6774344, 41.6565173 ], [ 0.6768973, 41.6563635 ], [ 0.6757505, 41.6562561 ], [ 0.6747328, 41.6563067 ], [ 0.6741408, 41.6564144 ], [ 0.673803, 41.6560882 ], [ 0.6740672, 41.6558139 ], [ 0.6758168, 41.6554128 ], [ 0.6766038, 41.6553642 ], [ 0.6771116, 41.6552174 ], [ 0.6780307, 41.6551694 ], [ 0.6796704, 41.6554714 ], [ 0.6808705, 41.6561663 ], [ 0.6836251, 41.6545388 ], [ 0.6868731, 41.65271 ], [ 0.6872612, 41.6525444 ], [ 0.6884761, 41.6523684 ], [ 0.6914563, 41.6509348 ], [ 0.6938086, 41.6497955 ], [ 0.6944191, 41.6495743 ], [ 0.6952512, 41.6498457 ], [ 0.6960322, 41.6497884 ], [ 0.6953706, 41.647239 ], [ 0.6951803, 41.6467294 ], [ 0.6971746, 41.6444087 ], [ 0.6968211, 41.6433 ], [ 0.6969089, 41.6423946 ], [ 0.6978523, 41.6407337 ], [ 0.6986098, 41.6384529 ], [ 0.6987229, 41.6366764 ], [ 0.6967381, 41.6360312 ], [ 0.6935447, 41.635038 ], [ 0.691102, 41.6343652 ], [ 0.6973295, 41.6307093 ], [ 0.7010806, 41.6293547 ], [ 0.7022892, 41.6299191 ], [ 0.7035455, 41.630689 ], [ 0.7075267, 41.6341805 ], [ 0.7087788, 41.6344552 ], [ 0.7109124, 41.6354488 ], [ 0.7155188, 41.6366505 ], [ 0.7239584, 41.6375025 ], [ 0.7287034, 41.6381859 ], [ 0.7291773, 41.6389089 ], [ 0.7291792, 41.6395662 ], [ 0.7291905, 41.6405924 ], [ 0.729292, 41.6408953 ], [ 0.7303825, 41.6427329 ], [ 0.7320147, 41.6452192 ], [ 0.7327326, 41.6460063 ], [ 0.7339375, 41.6469126 ], [ 0.7354368, 41.6479264 ], [ 0.7368455, 41.6486189 ], [ 0.7370539, 41.655744 ], [ 0.737095, 41.6572826 ], [ 0.7371418, 41.6585057 ] ] ] } }
]
}
