{
"type": "FeatureCollection",
"name": "25044",
"features": [
{ "type": "Feature", "properties": { "CCAA": "09 - Cataluña", "PROVINCIA": "25 - Lleida", "MUNICIPIO": "25044 - Bassella", "COD_MUNICIPIO": "25044", "DISTRITO": "01", "SECCION": "2504401001", "V1_H": 80.91, "V1_M": 86.64, "V2_H": 80.44720226, "V2_M": 86.54313262, "V3_H": 81.45534141, "V3_M": 86.89844934 }, "geometry": { "type": "MultiPolygon", "coordinates": [ [ [ [ 1.3178831, 41.9819754 ], [ 1.3185001, 41.9819972 ], [ 1.3190743, 41.9821016 ], [ 1.3197166, 41.9823205 ], [ 1.3203922, 41.9826731 ], [ 1.3209745, 41.9830744 ], [ 1.3214323, 41.9835973 ], [ 1.3217107, 41.9841451 ], [ 1.3223032, 41.9852302 ], [ 1.3224805, 41.9857097 ], [ 1.3224045, 41.9861898 ], [ 1.3217636, 41.9872404 ], [ 1.3216155, 41.9879033 ], [ 1.321019, 41.9887182 ], [ 1.3207966, 41.9891767 ], [ 1.3209625, 41.9896657 ], [ 1.321383, 41.9901721 ], [ 1.321405, 41.9904954 ], [ 1.3211149, 41.9906684 ], [ 1.3198103, 41.9911858 ], [ 1.3191482, 41.9912108 ], [ 1.3188675, 41.9909873 ], [ 1.318624, 41.9906003 ], [ 1.3182169, 41.9902915 ], [ 1.3170538, 41.9900472 ], [ 1.3164402, 41.9897192 ], [ 1.315716, 41.9895394 ], [ 1.315002, 41.9895122 ], [ 1.3144271, 41.9893988 ], [ 1.3140832, 41.9891327 ], [ 1.3137266, 41.9886779 ], [ 1.3135012, 41.9882002 ], [ 1.3134087, 41.9875464 ], [ 1.313519, 41.9868579 ], [ 1.3137779, 41.9860468 ], [ 1.3142453, 41.985462 ], [ 1.3150593, 41.9841167 ], [ 1.3154136, 41.9836441 ], [ 1.3172195, 41.9823335 ], [ 1.3178831, 41.9819754 ] ] ], [ [ [ 1.3583405, 42.0628829 ], [ 1.3576896, 42.0632589 ], [ 1.3579583, 42.064005 ], [ 1.3580109, 42.0645972 ], [ 1.3571588, 42.065386 ], [ 1.3573708, 42.0661883 ], [ 1.3573903, 42.0680604 ], [ 1.3587671, 42.0691064 ], [ 1.3582153, 42.0709282 ], [ 1.3585648, 42.0721485 ], [ 1.3585837, 42.0743627 ], [ 1.3582941, 42.0778942 ], [ 1.3572661, 42.0777083 ], [ 1.3560793, 42.0764388 ], [ 1.3555011, 42.0762898 ], [ 1.3548814, 42.0762413 ], [ 1.354458, 42.0760593 ], [ 1.352595, 42.0739152 ], [ 1.3513672, 42.0738088 ], [ 1.3507374, 42.0734365 ], [ 1.3481236, 42.069322 ], [ 1.3458362, 42.06768 ], [ 1.3455591, 42.0668082 ], [ 1.3438056, 42.0655511 ], [ 1.3419881, 42.0640624 ], [ 1.3395348, 42.0614002 ], [ 1.3362376, 42.0605347 ], [ 1.3357505, 42.060301 ], [ 1.3331578, 42.0577159 ], [ 1.3334021, 42.0556268 ], [ 1.3292409, 42.0512912 ], [ 1.3286574, 42.0515924 ], [ 1.3274732, 42.0519433 ], [ 1.3259828, 42.0515224 ], [ 1.3245146, 42.0503623 ], [ 1.3247027, 42.0485094 ], [ 1.3232746, 42.0475819 ], [ 1.3219903, 42.0455685 ], [ 1.321298, 42.0448023 ], [ 1.3204445, 42.0443302 ], [ 1.3200209, 42.0434278 ], [ 1.3191514, 42.0432535 ], [ 1.3179265, 42.0422912 ], [ 1.3147838, 42.0426168 ], [ 1.3135274, 42.0420789 ], [ 1.3129112, 42.0422551 ], [ 1.3126161, 42.0423563 ], [ 1.3107881, 42.0412276 ], [ 1.3100008, 42.0413743 ], [ 1.3074761, 42.0394074 ], [ 1.3065056, 42.0393448 ], [ 1.3027327, 42.0405311 ], [ 1.3008007, 42.0405406 ], [ 1.2996279, 42.0407017 ], [ 1.2993117, 42.0408486 ], [ 1.2987156, 42.0415013 ], [ 1.2980024, 42.0416721 ], [ 1.2958754, 42.0421931 ], [ 1.2955324, 42.0417648 ], [ 1.2953412, 42.0412587 ], [ 1.2945959, 42.0380903 ], [ 1.2928901, 42.0385864 ], [ 1.2924766, 42.0396194 ], [ 1.2918637, 42.0405607 ], [ 1.2914957, 42.0406556 ], [ 1.288501, 42.0408488 ], [ 1.2872372, 42.0410942 ], [ 1.2861238, 42.0408837 ], [ 1.283992, 42.0415127 ], [ 1.2811363, 42.0408992 ], [ 1.2803133, 42.0405158 ], [ 1.279207, 42.0393326 ], [ 1.278869, 42.0391561 ], [ 1.2777419, 42.0390991 ], [ 1.2757532, 42.0379039 ], [ 1.2748664, 42.0378289 ], [ 1.2727893, 42.0371141 ], [ 1.2719399, 42.0370557 ], [ 1.2706416, 42.0355284 ], [ 1.2698092, 42.0351813 ], [ 1.2692495, 42.034761 ], [ 1.2682213, 42.0338359 ], [ 1.2666539, 42.0340564 ], [ 1.2646914, 42.0336072 ], [ 1.2624668, 42.0333929 ], [ 1.2610265, 42.0335275 ], [ 1.2604471, 42.0331709 ], [ 1.2597158, 42.0334322 ], [ 1.2567498, 42.0329662 ], [ 1.2563612, 42.0331157 ], [ 1.256107, 42.0332872 ], [ 1.255449, 42.034104 ], [ 1.2537634, 42.0345448 ], [ 1.2530446, 42.0351748 ], [ 1.2534318, 42.0357276 ], [ 1.2520956, 42.0359753 ], [ 1.2497781, 42.0359983 ], [ 1.2489479, 42.0364073 ], [ 1.2478008, 42.0365939 ], [ 1.2469688, 42.0367958 ], [ 1.2450914, 42.0378019 ], [ 1.2435466, 42.0367336 ], [ 1.2431421, 42.0357401 ], [ 1.2406239, 42.0361935 ], [ 1.2399592, 42.0341923 ], [ 1.2400462, 42.0335047 ], [ 1.2396371, 42.0324394 ], [ 1.2396969, 42.0307985 ], [ 1.2394473, 42.0301324 ], [ 1.2393553, 42.0296586 ], [ 1.2394044, 42.0289454 ], [ 1.2395723, 42.0282009 ], [ 1.2383261, 42.0268964 ], [ 1.2378206, 42.0260147 ], [ 1.2368699, 42.0253385 ], [ 1.2369085, 42.0230141 ], [ 1.2372335, 42.0222728 ], [ 1.2377357, 42.0202012 ], [ 1.2396285, 42.0190688 ], [ 1.2419968, 42.0170993 ], [ 1.2443908, 42.0155159 ], [ 1.245575, 42.0148057 ], [ 1.2467592, 42.0140955 ], [ 1.2493319, 42.0121183 ], [ 1.2491248, 42.0102801 ], [ 1.2487238, 42.0084312 ], [ 1.2508757, 42.0072078 ], [ 1.2522688, 42.0060126 ], [ 1.2540858, 42.0064674 ], [ 1.2551095, 42.0064294 ], [ 1.2564493, 42.0060645 ], [ 1.2572375, 42.0057561 ], [ 1.2579759, 42.0047022 ], [ 1.2608679, 42.0042615 ], [ 1.2613984, 42.0040707 ], [ 1.2622475, 42.0034088 ], [ 1.263369, 42.0001436 ], [ 1.2634117, 42.000061 ], [ 1.2644415, 41.998492 ], [ 1.2644819, 41.9981933 ], [ 1.2642308, 41.9978695 ], [ 1.2634218, 41.9971433 ], [ 1.26316, 41.9964778 ], [ 1.2631402, 41.9961814 ], [ 1.2632251, 41.9958271 ], [ 1.2635395, 41.9952931 ], [ 1.2634119, 41.9950097 ], [ 1.2627829, 41.9944479 ], [ 1.2617315, 41.9924431 ], [ 1.2609404, 41.9901765 ], [ 1.2604281, 41.9900965 ], [ 1.2598761, 41.989964 ], [ 1.259329, 41.9897232 ], [ 1.258809, 41.9891663 ], [ 1.2585732, 41.9887069 ], [ 1.258536, 41.98815 ], [ 1.2584624, 41.9863249 ], [ 1.2581684, 41.9849942 ], [ 1.2579729, 41.9818861 ], [ 1.2578605, 41.981287 ], [ 1.2585473, 41.9787404 ], [ 1.2593139, 41.9766679 ], [ 1.2596324, 41.976377 ], [ 1.2600303, 41.9761911 ], [ 1.2631799, 41.9751105 ], [ 1.2635897, 41.9749242 ], [ 1.263727, 41.9746309 ], [ 1.2633163, 41.9729985 ], [ 1.2621957, 41.9697717 ], [ 1.2615317, 41.9683198 ], [ 1.260263, 41.9637749 ], [ 1.2572006, 41.9567485 ], [ 1.2570857, 41.9564737 ], [ 1.2565772, 41.9531881 ], [ 1.2561235, 41.9514491 ], [ 1.2559359, 41.9509879 ], [ 1.2545678, 41.949463 ], [ 1.2545204, 41.9491136 ], [ 1.2547878, 41.9482393 ], [ 1.2542328, 41.9476926 ], [ 1.2536315, 41.9468145 ], [ 1.2532522, 41.9460092 ], [ 1.2534205, 41.9449135 ], [ 1.2532936, 41.9446391 ], [ 1.2509009, 41.942756 ], [ 1.2498006, 41.9418064 ], [ 1.2493081, 41.9412934 ], [ 1.2482994, 41.9399082 ], [ 1.2501902, 41.9393248 ], [ 1.2510623, 41.9392024 ], [ 1.2517619, 41.9392035 ], [ 1.2524746, 41.9394021 ], [ 1.2534272, 41.9397629 ], [ 1.2547653, 41.9404786 ], [ 1.2579941, 41.9424206 ], [ 1.2593746, 41.9425043 ], [ 1.261099, 41.9428634 ], [ 1.2617456, 41.9431545 ], [ 1.2629672, 41.9439284 ], [ 1.2640491, 41.9447796 ], [ 1.2648136, 41.9452103 ], [ 1.2677164, 41.9465968 ], [ 1.271432, 41.9489525 ], [ 1.2729268, 41.9500222 ], [ 1.2744849, 41.9509546 ], [ 1.2774929, 41.952463 ], [ 1.2788519, 41.9533036 ], [ 1.2821339, 41.9558372 ], [ 1.2858048, 41.9580499 ], [ 1.2865407, 41.9585896 ], [ 1.2868319, 41.9586148 ], [ 1.287019, 41.9585267 ], [ 1.2872338, 41.9583116 ], [ 1.2877732, 41.9570038 ], [ 1.288, 41.9567883 ], [ 1.2883086, 41.9567137 ], [ 1.2890096, 41.9567325 ], [ 1.2895968, 41.9568545 ], [ 1.2901961, 41.9571562 ], [ 1.2909573, 41.957713 ], [ 1.291925, 41.9588292 ], [ 1.2922027, 41.9602685 ], [ 1.292103, 41.9607585 ], [ 1.2916927, 41.961116 ], [ 1.2913307, 41.9616518 ], [ 1.2911575, 41.9623065 ], [ 1.291107, 41.9647845 ], [ 1.2913357, 41.9651361 ], [ 1.2919045, 41.9657001 ], [ 1.2923847, 41.9658442 ], [ 1.2930983, 41.9658714 ], [ 1.2947784, 41.9660966 ], [ 1.2947947, 41.9663391 ], [ 1.2945293, 41.9681318 ], [ 1.2948595, 41.969452 ], [ 1.2961695, 41.9711677 ], [ 1.2965891, 41.9718453 ], [ 1.2965351, 41.9722975 ], [ 1.2963228, 41.9727286 ], [ 1.2958325, 41.9729721 ], [ 1.2948167, 41.9732984 ], [ 1.2948963, 41.9737636 ], [ 1.2952033, 41.9740222 ], [ 1.2973018, 41.9740065 ], [ 1.2978867, 41.9740926 ], [ 1.2988159, 41.9755254 ], [ 1.2990141, 41.9761392 ], [ 1.2994407, 41.9804992 ], [ 1.299764, 41.9808202 ], [ 1.3025008, 41.9823921 ], [ 1.3042227, 41.983588 ], [ 1.3060331, 41.9846635 ], [ 1.3086237, 41.9858536 ], [ 1.3088793, 41.9866004 ], [ 1.3098322, 41.9878431 ], [ 1.3099559, 41.9882436 ], [ 1.3098557, 41.9887246 ], [ 1.3097036, 41.9891535 ], [ 1.3094157, 41.9900737 ], [ 1.3086791, 41.9902455 ], [ 1.3082202, 41.9898846 ], [ 1.3077904, 41.9897747 ], [ 1.3070813, 41.9898194 ], [ 1.3064885, 41.9899767 ], [ 1.3062942, 41.9903172 ], [ 1.3062343, 41.9908597 ], [ 1.3057501, 41.9915532 ], [ 1.3055781, 41.9920459 ], [ 1.3058318, 41.9925855 ], [ 1.3064029, 41.9931764 ], [ 1.3070628, 41.9934757 ], [ 1.3074639, 41.9938748 ], [ 1.3076808, 41.9942268 ], [ 1.3080596, 41.9944737 ], [ 1.3087441, 41.994601 ], [ 1.3095436, 41.9946429 ], [ 1.3105055, 41.9945887 ], [ 1.3114637, 41.9943006 ], [ 1.3125329, 41.9944044 ], [ 1.3129254, 41.9943176 ], [ 1.313092, 41.9942843 ], [ 1.3135458, 41.9940331 ], [ 1.3142953, 41.9931585 ], [ 1.3145817, 41.9929316 ], [ 1.3149988, 41.9928528 ], [ 1.3160239, 41.9928413 ], [ 1.3187862, 41.9926381 ], [ 1.319754, 41.9924935 ], [ 1.3218141, 41.9919026 ], [ 1.3227202, 41.9913822 ], [ 1.3238405, 41.9906376 ], [ 1.3243845, 41.990473 ], [ 1.3255469, 41.9905282 ], [ 1.3273858, 41.991125 ], [ 1.3282526, 41.9912723 ], [ 1.3293035, 41.9911066 ], [ 1.3305625, 41.9908068 ], [ 1.3315923, 41.9906869 ], [ 1.3328859, 41.990719 ], [ 1.3338207, 41.9908007 ], [ 1.3354799, 41.991062 ], [ 1.3365944, 41.9912989 ], [ 1.3376195, 41.9912872 ], [ 1.3381512, 41.9914741 ], [ 1.3387806, 41.9918554 ], [ 1.33948, 41.9923782 ], [ 1.3401196, 41.9927321 ], [ 1.3420133, 41.9932456 ], [ 1.342914, 41.9933555 ], [ 1.3457649, 41.9933914 ], [ 1.3466001, 41.9936029 ], [ 1.3492254, 41.9947547 ], [ 1.3506616, 41.994223 ], [ 1.3512768, 41.9942176 ], [ 1.3527078, 41.9943163 ], [ 1.352758, 41.9945215 ], [ 1.3533513, 41.9952553 ], [ 1.3539867, 41.9955463 ], [ 1.3565463, 41.9964394 ], [ 1.3572379, 41.9968453 ], [ 1.3587593, 41.9979129 ], [ 1.3598833, 41.9988155 ], [ 1.3602986, 41.9992409 ], [ 1.3608477, 41.9996792 ], [ 1.3612434, 41.9998172 ], [ 1.3621688, 41.999935 ], [ 1.3622858, 42.0000566 ], [ 1.3623762, 42.0001432 ], [ 1.3623531, 42.0020979 ], [ 1.3627733, 42.0032975 ], [ 1.3631365, 42.0047242 ], [ 1.3622723, 42.0049733 ], [ 1.3616749, 42.0052391 ], [ 1.3612697, 42.0056687 ], [ 1.3609867, 42.0061207 ], [ 1.3593028, 42.0074454 ], [ 1.3600173, 42.0099482 ], [ 1.3583403, 42.0103182 ], [ 1.3576869, 42.0106492 ], [ 1.357432, 42.010983 ], [ 1.3573327, 42.011473 ], [ 1.3573901, 42.0124883 ], [ 1.3576068, 42.0137136 ], [ 1.3583502, 42.0157562 ], [ 1.3585206, 42.0166591 ], [ 1.3580427, 42.0176137 ], [ 1.3582113, 42.0181385 ], [ 1.3583649, 42.0186189 ], [ 1.3581915, 42.0190847 ], [ 1.3565923, 42.0200639 ], [ 1.3557384, 42.0209968 ], [ 1.3543902, 42.0224707 ], [ 1.3540318, 42.0228805 ], [ 1.3553236, 42.0228764 ], [ 1.3556799, 42.0236732 ], [ 1.3563461, 42.0259978 ], [ 1.3563453, 42.0266912 ], [ 1.3558194, 42.0283589 ], [ 1.3561629, 42.0289671 ], [ 1.3568955, 42.0287321 ], [ 1.3574627, 42.0294309 ], [ 1.3588326, 42.0288025 ], [ 1.3601548, 42.0310031 ], [ 1.3596986, 42.0317498 ], [ 1.3594894, 42.032397 ], [ 1.3594823, 42.0333518 ], [ 1.359749, 42.0337197 ], [ 1.3598416, 42.0340133 ], [ 1.3591866, 42.0346776 ], [ 1.3582382, 42.0352899 ], [ 1.3582672, 42.0362432 ], [ 1.3579856, 42.0368932 ], [ 1.3566996, 42.0382207 ], [ 1.357148, 42.0393021 ], [ 1.3616954, 42.0413259 ], [ 1.3624335, 42.0422253 ], [ 1.3643531, 42.0432686 ], [ 1.3640058, 42.04384 ], [ 1.363136, 42.0447195 ], [ 1.3611034, 42.0452021 ], [ 1.3578615, 42.0454876 ], [ 1.3574504, 42.0461876 ], [ 1.357311, 42.046445 ], [ 1.3586414, 42.0469976 ], [ 1.3588452, 42.0471519 ], [ 1.3589984, 42.0472722 ], [ 1.3591602, 42.0475181 ], [ 1.3591658, 42.0475989 ], [ 1.3594015, 42.0489226 ], [ 1.3595897, 42.0495546 ], [ 1.3597642, 42.0498091 ], [ 1.3600333, 42.050033 ], [ 1.360194, 42.0507922 ], [ 1.3608846, 42.0517023 ], [ 1.3598076, 42.0527337 ], [ 1.3599124, 42.0535581 ], [ 1.3603247, 42.0553432 ], [ 1.3595944, 42.0561453 ], [ 1.3589082, 42.0570628 ], [ 1.3588978, 42.0577925 ], [ 1.359195, 42.0591318 ], [ 1.3590529, 42.0600556 ], [ 1.359503, 42.0604527 ], [ 1.3600304, 42.0609188 ], [ 1.3596407, 42.0610507 ], [ 1.35878, 42.0613626 ], [ 1.3583931, 42.0617105 ], [ 1.3597567, 42.0629191 ], [ 1.3583405, 42.0628829 ] ] ] ] } }
]
}
