{
"type": "FeatureCollection",
"name": "25121",
"features": [
{ "type": "Feature", "properties": { "CCAA": "09 - Cataluña", "PROVINCIA": "25 - Lleida", "MUNICIPIO": "25121 - Les", "COD_MUNICIPIO": "25121", "DISTRITO": "01", "SECCION": "2512101001", "V1_H": 80.91, "V1_M": 86.64, "V2_H": 80.44720226, "V2_M": 86.54313262, "V3_H": 81.45534141, "V3_M": 86.89844934 }, "geometry": { "type": "Polygon", "coordinates": [ [ [ 0.7678989, 42.7882692 ], [ 0.7669896, 42.7887944 ], [ 0.7655621, 42.7894447 ], [ 0.7646771, 42.7899691 ], [ 0.7641981, 42.790336 ], [ 0.7636052, 42.7910398 ], [ 0.7628215, 42.7916238 ], [ 0.7620337, 42.7925412 ], [ 0.7617673, 42.7931892 ], [ 0.7609519, 42.7944587 ], [ 0.7600335, 42.7954433 ], [ 0.7595907, 42.7962052 ], [ 0.7521958, 42.796034 ], [ 0.751841, 42.796838 ], [ 0.7512384, 42.7975871 ], [ 0.7512292, 42.7978395 ], [ 0.7513407, 42.798268 ], [ 0.751753, 42.7990198 ], [ 0.7518819, 42.7997359 ], [ 0.7505823, 42.7998776 ], [ 0.7480937, 42.8001753 ], [ 0.7471942, 42.8049139 ], [ 0.7477139, 42.8106775 ], [ 0.743524, 42.8190535 ], [ 0.7432086, 42.8197031 ], [ 0.7423268, 42.8211006 ], [ 0.7398353, 42.8262243 ], [ 0.738583, 42.8265534 ], [ 0.7323959, 42.8282143 ], [ 0.7283994, 42.8282727 ], [ 0.7279866, 42.827917 ], [ 0.7276621, 42.8278105 ], [ 0.7268255, 42.8273246 ], [ 0.7262581, 42.8268389 ], [ 0.7257843, 42.82608 ], [ 0.7254492, 42.8249834 ], [ 0.7243673, 42.8252978 ], [ 0.7233892, 42.8255097 ], [ 0.7209985, 42.8260288 ], [ 0.7125476, 42.8278883 ], [ 0.7107935, 42.8282154 ], [ 0.7083645, 42.8283032 ], [ 0.707623, 42.8283813 ], [ 0.6908674, 42.8263755 ], [ 0.6860931, 42.8271328 ], [ 0.6825329, 42.8271215 ], [ 0.6801282, 42.827208 ], [ 0.6760291, 42.8269797 ], [ 0.6738485, 42.8269238 ], [ 0.6678368, 42.8260004 ], [ 0.6704316, 42.8243774 ], [ 0.6706243, 42.8241191 ], [ 0.6705514, 42.8233021 ], [ 0.6708664, 42.8215992 ], [ 0.6701349, 42.8214336 ], [ 0.6693954, 42.8209261 ], [ 0.667218, 42.8190601 ], [ 0.6668925, 42.8185213 ], [ 0.6666085, 42.8178551 ], [ 0.6655893, 42.816132 ], [ 0.665362, 42.8155991 ], [ 0.6651979, 42.8140646 ], [ 0.665296, 42.8136563 ], [ 0.6655131, 42.8131901 ], [ 0.6662984, 42.8119944 ], [ 0.6669182, 42.8113082 ], [ 0.6682824, 42.810184 ], [ 0.6687154, 42.8096478 ], [ 0.6695186, 42.8079293 ], [ 0.6701578, 42.8067472 ], [ 0.6706136, 42.8063905 ], [ 0.6716467, 42.805871 ], [ 0.6716561, 42.8054115 ], [ 0.6714596, 42.8043644 ], [ 0.6706517, 42.8029047 ], [ 0.6705093, 42.8019458 ], [ 0.6737518, 42.8015715 ], [ 0.684901, 42.7992767 ], [ 0.694209, 42.8011823 ], [ 0.6958277, 42.8026966 ], [ 0.7026936, 42.799323 ], [ 0.702328, 42.7985245 ], [ 0.7010073, 42.7966764 ], [ 0.7112157, 42.7934011 ], [ 0.7230884, 42.7940415 ], [ 0.7255564, 42.7929976 ], [ 0.7315029, 42.7934879 ], [ 0.7339075, 42.7936255 ], [ 0.7373686, 42.7932423 ], [ 0.7385074, 42.7926648 ], [ 0.7398446, 42.7886863 ], [ 0.7409724, 42.7879291 ], [ 0.7411061, 42.7875105 ], [ 0.7497151, 42.7853376 ], [ 0.7500271, 42.7854444 ], [ 0.7505672, 42.7854807 ], [ 0.7533818, 42.7855324 ], [ 0.7556848, 42.7854117 ], [ 0.7570072, 42.7850441 ], [ 0.7575806, 42.7850252 ], [ 0.7584243, 42.7852316 ], [ 0.7678989, 42.7882692 ] ] ] } }
]
}
