{
"type": "FeatureCollection",
"name": "25134",
"features": [
{ "type": "Feature", "properties": { "CCAA": "09 - Cataluña", "PROVINCIA": "25 - Lleida", "MUNICIPIO": "25134 - Menàrguens", "COD_MUNICIPIO": "25134", "DISTRITO": "01", "SECCION": "2513401001", "V1_H": 80.31, "V1_M": 86.3, "V2_H": 80.10187432, "V2_M": 86.1135989, "V3_H": 80.75259804, "V3_M": 86.72412179 }, "geometry": { "type": "Polygon", "coordinates": [ [ [ 0.7646852, 41.730661 ], [ 0.7624918, 41.7322097 ], [ 0.761724, 41.7326491 ], [ 0.7574908, 41.7346789 ], [ 0.7545026, 41.7364156 ], [ 0.7529096, 41.7375483 ], [ 0.7524031, 41.7381412 ], [ 0.750426, 41.7413485 ], [ 0.7500494, 41.741694 ], [ 0.7490279, 41.7421146 ], [ 0.7486628, 41.7424507 ], [ 0.7478314, 41.7440717 ], [ 0.7480245, 41.7444977 ], [ 0.7479061, 41.7447357 ], [ 0.7472937, 41.745368 ], [ 0.7468472, 41.7459589 ], [ 0.7454521, 41.746986 ], [ 0.7449257, 41.7474444 ], [ 0.7445406, 41.7476461 ], [ 0.7430812, 41.748189 ], [ 0.7427473, 41.748443 ], [ 0.7418864, 41.7495607 ], [ 0.7399767, 41.7508386 ], [ 0.7394846, 41.751476 ], [ 0.7390584, 41.7522103 ], [ 0.7388283, 41.7530102 ], [ 0.7387626, 41.7537417 ], [ 0.7389192, 41.7545741 ], [ 0.7388911, 41.7553314 ], [ 0.7381246, 41.7574545 ], [ 0.7374785, 41.75834 ], [ 0.7365267, 41.7593436 ], [ 0.7362036, 41.7599934 ], [ 0.7357934, 41.760385 ], [ 0.7357558, 41.7605663 ], [ 0.7358858, 41.7611474 ], [ 0.7353216, 41.7619942 ], [ 0.7337559, 41.7638192 ], [ 0.7334636, 41.7643779 ], [ 0.7334876, 41.7649985 ], [ 0.7336943, 41.765451 ], [ 0.7344298, 41.7661024 ], [ 0.7345164, 41.7667659 ], [ 0.7343499, 41.7672126 ], [ 0.7340075, 41.7675299 ], [ 0.7336698, 41.767721 ], [ 0.7328007, 41.7695323 ], [ 0.7326655, 41.770104 ], [ 0.7328639, 41.7720695 ], [ 0.7306553, 41.7717362 ], [ 0.7295043, 41.7715936 ], [ 0.7258951, 41.7715848 ], [ 0.7216332, 41.7702735 ], [ 0.7212976, 41.7702934 ], [ 0.7205254, 41.7708767 ], [ 0.7184342, 41.7711156 ], [ 0.7166955, 41.7707938 ], [ 0.7160081, 41.770555 ], [ 0.71279, 41.7687772 ], [ 0.7125589, 41.7685235 ], [ 0.7125659, 41.767812 ], [ 0.710793, 41.7581441 ], [ 0.7099703, 41.7559735 ], [ 0.7079299, 41.7516632 ], [ 0.7077939, 41.7511813 ], [ 0.7076456, 41.7500695 ], [ 0.7074162, 41.748384 ], [ 0.706776, 41.7435331 ], [ 0.7066979, 41.7419688 ], [ 0.7064741, 41.7405893 ], [ 0.7061544, 41.7392128 ], [ 0.7059829, 41.7387411 ], [ 0.7038597, 41.7327674 ], [ 0.701757, 41.7254693 ], [ 0.7046898, 41.7252576 ], [ 0.7056189, 41.7251105 ], [ 0.7112619, 41.7235413 ], [ 0.7189084, 41.7194125 ], [ 0.7203951, 41.7185179 ], [ 0.7213487, 41.7181718 ], [ 0.7219986, 41.7177725 ], [ 0.7238837, 41.7173241 ], [ 0.7251251, 41.7165544 ], [ 0.7304636, 41.7132743 ], [ 0.7343209, 41.7107805 ], [ 0.7347073, 41.7103987 ], [ 0.7348821, 41.7100959 ], [ 0.7348216, 41.7096746 ], [ 0.7344978, 41.7088567 ], [ 0.7349103, 41.708303 ], [ 0.7366735, 41.709074 ], [ 0.7388569, 41.7098403 ], [ 0.7398473, 41.7101322 ], [ 0.740544, 41.7105417 ], [ 0.7419026, 41.711587 ], [ 0.7423877, 41.7122825 ], [ 0.7425067, 41.712882 ], [ 0.7424911, 41.7142692 ], [ 0.7425898, 41.7149323 ], [ 0.7429669, 41.7154243 ], [ 0.743441, 41.715724 ], [ 0.7441806, 41.716042 ], [ 0.745739, 41.7165945 ], [ 0.7474628, 41.7170965 ], [ 0.7528679, 41.7180723 ], [ 0.7533056, 41.7181571 ], [ 0.7546471, 41.7184914 ], [ 0.7556283, 41.7188284 ], [ 0.7580319, 41.7196502 ], [ 0.7613125, 41.7208754 ], [ 0.7620773, 41.7212105 ], [ 0.7623915, 41.7216504 ], [ 0.7624301, 41.7216942 ], [ 0.7620579, 41.7235524 ], [ 0.7621246, 41.7246938 ], [ 0.7626273, 41.7269195 ], [ 0.7629736, 41.7281147 ], [ 0.7638491, 41.7297249 ], [ 0.7646852, 41.730661 ] ] ] } }
]
}
