{
"type": "FeatureCollection",
"name": "25157",
"features": [
{ "type": "Feature", "properties": { "CCAA": "09 - Cataluña", "PROVINCIA": "25 - Lleida", "MUNICIPIO": "25157 - Ossó de Sió", "COD_MUNICIPIO": "25157", "DISTRITO": "01", "SECCION": "2515701001", "V1_H": 81.73, "V1_M": 86.8, "V2_H": 81.31626673, "V2_M": 86.83145999, "V3_H": 82.17064416, "V3_M": 87.00536352 }, "geometry": { "type": "Polygon", "coordinates": [ [ [ 1.1730196, 41.7669832 ], [ 1.1717471, 41.7673896 ], [ 1.1712562, 41.7677947 ], [ 1.1679017, 41.7689252 ], [ 1.1663606, 41.775023 ], [ 1.1694512, 41.7781612 ], [ 1.1740006, 41.7833803 ], [ 1.1761228, 41.7854911 ], [ 1.1755342, 41.7871693 ], [ 1.1701553, 41.7869688 ], [ 1.166581, 41.7836141 ], [ 1.1649891, 41.7826274 ], [ 1.1645466, 41.7824814 ], [ 1.1640666, 41.7821297 ], [ 1.1637659, 41.7815734 ], [ 1.1633439, 41.7813726 ], [ 1.155843, 41.7755127 ], [ 1.154401, 41.7753489 ], [ 1.1521094, 41.7743244 ], [ 1.1509344, 41.7736376 ], [ 1.1501942, 41.77298 ], [ 1.1487078, 41.7723135 ], [ 1.1469959, 41.7713219 ], [ 1.1462424, 41.771016 ], [ 1.1456596, 41.7711181 ], [ 1.1451459, 41.7711727 ], [ 1.1446195, 41.7710297 ], [ 1.1434259, 41.7704155 ], [ 1.1432634, 41.7703313 ], [ 1.143399, 41.7698222 ], [ 1.143348, 41.7696619 ], [ 1.1433233, 41.7695818 ], [ 1.1428468, 41.7692568 ], [ 1.1410578, 41.7680338 ], [ 1.1409202, 41.7679398 ], [ 1.1406479, 41.7668871 ], [ 1.1390703, 41.764801 ], [ 1.1382532, 41.7633178 ], [ 1.1379677, 41.7629229 ], [ 1.1372493, 41.7619223 ], [ 1.1363267, 41.7623023 ], [ 1.131063, 41.7644685 ], [ 1.1291578, 41.764204 ], [ 1.128051, 41.7641988 ], [ 1.1270136, 41.7637769 ], [ 1.126113, 41.7636112 ], [ 1.125014, 41.7631646 ], [ 1.1235521, 41.7626859 ], [ 1.122562, 41.7618751 ], [ 1.1197693, 41.761084 ], [ 1.1170888, 41.76073 ], [ 1.1166914, 41.7588444 ], [ 1.1163455, 41.7581365 ], [ 1.1153033, 41.7565081 ], [ 1.1147425, 41.7558259 ], [ 1.1137983, 41.7534736 ], [ 1.1132134, 41.7509104 ], [ 1.1130503, 41.7500518 ], [ 1.1126062, 41.7493113 ], [ 1.11195, 41.7484524 ], [ 1.1111105, 41.7468168 ], [ 1.1109474, 41.7464984 ], [ 1.1107608, 41.7454606 ], [ 1.1110526, 41.7449459 ], [ 1.1109068, 41.744735 ], [ 1.109654, 41.7443207 ], [ 1.1091637, 41.7439871 ], [ 1.108412, 41.743888 ], [ 1.1071946, 41.7434634 ], [ 1.1073175, 41.7416221 ], [ 1.1035381, 41.7375974 ], [ 1.1066002, 41.73792 ], [ 1.1092585, 41.7381309 ], [ 1.1156284, 41.7412971 ], [ 1.117444, 41.7407367 ], [ 1.1287412, 41.737305 ], [ 1.1277668, 41.7354222 ], [ 1.1275298, 41.734021 ], [ 1.1273021, 41.7326746 ], [ 1.1269394, 41.7315171 ], [ 1.1269393, 41.731517 ], [ 1.1268791, 41.731425 ], [ 1.1266862, 41.7311299 ], [ 1.1267487, 41.7306055 ], [ 1.1269906, 41.7302546 ], [ 1.1270724, 41.7283428 ], [ 1.1268938, 41.7278089 ], [ 1.1246581, 41.7244317 ], [ 1.1257053, 41.7231424 ], [ 1.1330455, 41.7225269 ], [ 1.1362299, 41.7197108 ], [ 1.1365225, 41.7177193 ], [ 1.1374817, 41.7160009 ], [ 1.1391691, 41.7123382 ], [ 1.1395518, 41.7102534 ], [ 1.1429237, 41.7111131 ], [ 1.1462443, 41.7132262 ], [ 1.147288, 41.7139448 ], [ 1.1493531, 41.7146625 ], [ 1.1527424, 41.7135494 ], [ 1.1548407, 41.7131042 ], [ 1.1554496, 41.713028 ], [ 1.156462, 41.7129014 ], [ 1.1648663, 41.7246712 ], [ 1.1656468, 41.7265157 ], [ 1.1668577, 41.7277684 ], [ 1.1703923, 41.7326013 ], [ 1.1707197, 41.7332017 ], [ 1.170429, 41.7340946 ], [ 1.171354, 41.7344572 ], [ 1.1719385, 41.7354984 ], [ 1.1721991, 41.7365514 ], [ 1.1733849, 41.737967 ], [ 1.1747011, 41.739909 ], [ 1.1754769, 41.7413035 ], [ 1.1757716, 41.7421392 ], [ 1.1782942, 41.745622 ], [ 1.1784916, 41.7458849 ], [ 1.1798771, 41.7481485 ], [ 1.1803989, 41.749147 ], [ 1.1803014, 41.750051 ], [ 1.1792856, 41.7540319 ], [ 1.1787914, 41.7536447 ], [ 1.1784395, 41.7535945 ], [ 1.1777472, 41.7536738 ], [ 1.176122, 41.7542012 ], [ 1.1754789, 41.7542966 ], [ 1.1742061, 41.754325 ], [ 1.1726461, 41.754931 ], [ 1.1715248, 41.7550709 ], [ 1.170723, 41.7553161 ], [ 1.1705616, 41.7559793 ], [ 1.1691657, 41.7557779 ], [ 1.167632, 41.7560498 ], [ 1.167151, 41.7560493 ], [ 1.1667531, 41.7558476 ], [ 1.16609, 41.7560068 ], [ 1.1653768, 41.7563208 ], [ 1.1651002, 41.7566911 ], [ 1.1635699, 41.7573859 ], [ 1.1612945, 41.7580898 ], [ 1.1615961, 41.7584751 ], [ 1.163051, 41.7582872 ], [ 1.1631457, 41.7591932 ], [ 1.1642702, 41.7592874 ], [ 1.1651105, 41.7596351 ], [ 1.1655017, 41.759918 ], [ 1.1654647, 41.7600904 ], [ 1.1665346, 41.7598985 ], [ 1.1708797, 41.7603258 ], [ 1.1730158, 41.7606263 ], [ 1.1740654, 41.7610473 ], [ 1.1746467, 41.7616655 ], [ 1.17427, 41.7632729 ], [ 1.1736375, 41.7637191 ], [ 1.1730196, 41.7669832 ] ] ] } }
]
}
