{
"type": "FeatureCollection",
"name": "25209",
"features": [
{ "type": "Feature", "properties": { "CCAA": "09 - Cataluña", "PROVINCIA": "25 - Lleida", "MUNICIPIO": "25209 - Sort", "COD_MUNICIPIO": "25209", "DISTRITO": "01", "SECCION": "2520901001", "V1_H": 80.65, "V1_M": 86.42, "V2_H": 80.32339709, "V2_M": 86.16224497, "V3_H": 80.9318118, "V3_M": 86.73476557 }, "geometry": { "type": "Polygon", "coordinates": [ [ [ 1.0671374, 42.5087588 ], [ 1.0653464, 42.510227 ], [ 1.0644666, 42.5107354 ], [ 1.0626812, 42.5119152 ], [ 1.0615484, 42.5130269 ], [ 1.0602525, 42.5140632 ], [ 1.0593578, 42.5149053 ], [ 1.0570794, 42.5174981 ], [ 1.0565297, 42.5180308 ], [ 1.0561668, 42.5186288 ], [ 1.0548661, 42.5214751 ], [ 1.0544279, 42.5218507 ], [ 1.0534947, 42.522478 ], [ 1.0531068, 42.5228789 ], [ 1.0525417, 42.5241144 ], [ 1.0524072, 42.5250466 ], [ 1.0523849, 42.5258306 ], [ 1.0526635, 42.5271263 ], [ 1.0526014, 42.5278578 ], [ 1.052298, 42.5286249 ], [ 1.0518759, 42.529252 ], [ 1.0513191, 42.5296769 ], [ 1.0505864, 42.530018 ], [ 1.0498577, 42.5302328 ], [ 1.046251, 42.5307475 ], [ 1.0451475, 42.5308135 ], [ 1.0448125, 42.5301501 ], [ 1.0441802, 42.5295962 ], [ 1.0431488, 42.5290834 ], [ 1.0421904, 42.5287572 ], [ 1.0412731, 42.5286905 ], [ 1.0399989, 42.5287535 ], [ 1.0367196, 42.5290583 ], [ 1.0358693, 42.5287101 ], [ 1.0349826, 42.5285523 ], [ 1.0332162, 42.5287226 ], [ 1.032639, 42.5286439 ], [ 1.0321184, 42.5283111 ], [ 1.0315088, 42.5277293 ], [ 1.0307135, 42.5267219 ], [ 1.0299958, 42.5254056 ], [ 1.0294955, 42.52482 ], [ 1.0290762, 42.5245466 ], [ 1.0285227, 42.5244581 ], [ 1.0278767, 42.5244448 ], [ 1.0272966, 42.5245102 ], [ 1.0270561, 42.5232312 ], [ 1.0268566, 42.5225899 ], [ 1.0267908, 42.5209986 ], [ 1.0265688, 42.5194398 ], [ 1.0258322, 42.5182052 ], [ 1.025214, 42.5176777 ], [ 1.0243293, 42.5173577 ], [ 1.0228727, 42.5164725 ], [ 1.0227595, 42.515279 ], [ 1.0228892, 42.5146442 ], [ 1.0232293, 42.5138759 ], [ 1.0237677, 42.5133528 ], [ 1.0258154, 42.5122633 ], [ 1.0265585, 42.511706 ], [ 1.0276561, 42.5106049 ], [ 1.0285189, 42.509071 ], [ 1.0305589, 42.506163 ], [ 1.0301508, 42.5043586 ], [ 1.0316847, 42.5039895 ], [ 1.0311442, 42.5035314 ], [ 1.0265242, 42.5015151 ], [ 1.0258166, 42.5011078 ], [ 1.025852, 42.5001431 ], [ 1.0258827, 42.500052 ], [ 1.026092, 42.4995224 ], [ 1.0257071, 42.4986446 ], [ 1.024403, 42.497475 ], [ 1.0234401, 42.4965004 ], [ 1.0233603, 42.4962061 ], [ 1.0234205, 42.4958168 ], [ 1.024108, 42.4947752 ], [ 1.024714, 42.4941687 ], [ 1.0248545, 42.4938936 ], [ 1.0247262, 42.493412 ], [ 1.025035, 42.4927258 ], [ 1.0256582, 42.4921997 ], [ 1.0258381, 42.4919683 ], [ 1.0258664, 42.4916521 ], [ 1.025196, 42.4908744 ], [ 1.0248735, 42.4902104 ], [ 1.024914, 42.4898939 ], [ 1.0255386, 42.4882512 ], [ 1.0255381, 42.4878641 ], [ 1.024589, 42.4842599 ], [ 1.0245526, 42.483694 ], [ 1.0241644, 42.4823841 ], [ 1.0206081, 42.4802311 ], [ 1.020069, 42.4797909 ], [ 1.0193485, 42.4789878 ], [ 1.018608, 42.4774922 ], [ 1.0183599, 42.4760873 ], [ 1.0179574, 42.4747419 ], [ 1.0177228, 42.4727873 ], [ 1.0180565, 42.471542 ], [ 1.0180921, 42.4705774 ], [ 1.0179131, 42.4700615 ], [ 1.0175538, 42.4695789 ], [ 1.0173176, 42.469119 ], [ 1.0176552, 42.4685039 ], [ 1.0177005, 42.4680701 ], [ 1.0182208, 42.4670795 ], [ 1.0183123, 42.466419 ], [ 1.0181658, 42.4652716 ], [ 1.0182653, 42.464926 ], [ 1.0189705, 42.4641629 ], [ 1.0189868, 42.4636582 ], [ 1.0188055, 42.4631063 ], [ 1.0190766, 42.4627816 ], [ 1.0195955, 42.4625293 ], [ 1.0192022, 42.4620839 ], [ 1.0197038, 42.4615621 ], [ 1.0199374, 42.4608426 ], [ 1.0207566, 42.4592022 ], [ 1.021454, 42.4590786 ], [ 1.0217395, 42.4587895 ], [ 1.0219973, 42.4580691 ], [ 1.0221599, 42.45719 ], [ 1.0221154, 42.4568765 ], [ 1.0217985, 42.4561043 ], [ 1.0210613, 42.4538972 ], [ 1.0191789, 42.450704 ], [ 1.0184649, 42.4486672 ], [ 1.0183549, 42.4473295 ], [ 1.018187, 42.4469843 ], [ 1.0173954, 42.4458236 ], [ 1.0171945, 42.4453444 ], [ 1.0172247, 42.4450552 ], [ 1.0177895, 42.4436218 ], [ 1.0181109, 42.4425661 ], [ 1.0181434, 42.4419347 ], [ 1.0177447, 42.4408322 ], [ 1.0173873, 42.4401875 ], [ 1.0167966, 42.4395059 ], [ 1.0168692, 42.4381708 ], [ 1.0171554, 42.4373234 ], [ 1.0174356, 42.4369534 ], [ 1.0190844, 42.4353649 ], [ 1.0197055, 42.4346228 ], [ 1.0202664, 42.4340809 ], [ 1.0213137, 42.4327835 ], [ 1.0220179, 42.4322006 ], [ 1.0227595, 42.4314452 ], [ 1.0241769, 42.4302339 ], [ 1.0253368, 42.4289866 ], [ 1.0270648, 42.4275032 ], [ 1.0287229, 42.4258782 ], [ 1.0298357, 42.4250377 ], [ 1.0305085, 42.4247259 ], [ 1.0333547, 42.4236262 ], [ 1.0338074, 42.4238624 ], [ 1.0346608, 42.4244715 ], [ 1.0358919, 42.4249053 ], [ 1.0364832, 42.4250285 ], [ 1.0377171, 42.4251291 ], [ 1.0381594, 42.4250144 ], [ 1.0390111, 42.4242731 ], [ 1.0395653, 42.423065 ], [ 1.0401219, 42.422271 ], [ 1.0404741, 42.4220785 ], [ 1.0416588, 42.4212263 ], [ 1.0439547, 42.418192 ], [ 1.0443074, 42.4176303 ], [ 1.0446948, 42.4172294 ], [ 1.0448206, 42.4167298 ], [ 1.0448801, 42.4165206 ], [ 1.0451294, 42.4160526 ], [ 1.0451275, 42.4148911 ], [ 1.0451678, 42.4138183 ], [ 1.0451175, 42.4132258 ], [ 1.0452294, 42.4126996 ], [ 1.045167, 42.4115403 ], [ 1.0450052, 42.4109158 ], [ 1.04571, 42.4101615 ], [ 1.0463669, 42.4096071 ], [ 1.0469712, 42.4089915 ], [ 1.048263, 42.4079194 ], [ 1.0505527, 42.4064968 ], [ 1.0508464, 42.4061532 ], [ 1.0513202, 42.4057763 ], [ 1.053342, 42.4045342 ], [ 1.054681, 42.4038205 ], [ 1.0577858, 42.4016665 ], [ 1.058192, 42.4011839 ], [ 1.0601863, 42.3997086 ], [ 1.0611091, 42.3993247 ], [ 1.0616254, 42.3986671 ], [ 1.0627068, 42.3979174 ], [ 1.0631742, 42.3978197 ], [ 1.0654852, 42.3978637 ], [ 1.0665247, 42.3979708 ], [ 1.0690615, 42.3971874 ], [ 1.0702318, 42.3966865 ], [ 1.0715937, 42.396332 ], [ 1.0726357, 42.3959167 ], [ 1.0757867, 42.3944899 ], [ 1.0770265, 42.3937525 ], [ 1.0789847, 42.3928543 ], [ 1.0792805, 42.3925466 ], [ 1.0805549, 42.3908445 ], [ 1.0810976, 42.3904109 ], [ 1.0832228, 42.3883453 ], [ 1.0839095, 42.3875104 ], [ 1.0846074, 42.3870353 ], [ 1.0860939, 42.3854245 ], [ 1.0881231, 42.3835693 ], [ 1.0886759, 42.3829192 ], [ 1.0896528, 42.3820649 ], [ 1.0902793, 42.3812412 ], [ 1.0933708, 42.3783574 ], [ 1.0941726, 42.3774283 ], [ 1.0946846, 42.3770859 ], [ 1.0973664, 42.3759364 ], [ 1.0985745, 42.3752808 ], [ 1.1039599, 42.3725756 ], [ 1.105305, 42.371789 ], [ 1.1066982, 42.3711808 ], [ 1.1079954, 42.3704049 ], [ 1.1087623, 42.3700622 ], [ 1.1101829, 42.37192 ], [ 1.1103807, 42.3723451 ], [ 1.1105975, 42.3738049 ], [ 1.1111601, 42.374424 ], [ 1.1117276, 42.375304 ], [ 1.1128226, 42.3777497 ], [ 1.1134378, 42.3784299 ], [ 1.1140523, 42.378912 ], [ 1.1143564, 42.3794773 ], [ 1.1146318, 42.3796025 ], [ 1.1149624, 42.3796446 ], [ 1.1164341, 42.3794926 ], [ 1.1175981, 42.3796488 ], [ 1.1188024, 42.3802357 ], [ 1.1199309, 42.3811495 ], [ 1.1209733, 42.3818593 ], [ 1.1216234, 42.382142 ], [ 1.1225594, 42.3827115 ], [ 1.1226306, 42.382871 ], [ 1.122489, 42.3840466 ], [ 1.1223782, 42.3866167 ], [ 1.1225245, 42.3873678 ], [ 1.1232515, 42.3886381 ], [ 1.1238451, 42.3893551 ], [ 1.1252913, 42.3906625 ], [ 1.1257966, 42.3909594 ], [ 1.1274184, 42.3927197 ], [ 1.1284877, 42.3927261 ], [ 1.12987, 42.3928743 ], [ 1.1315225, 42.3930667 ], [ 1.1323699, 42.3932072 ], [ 1.1329403, 42.3933847 ], [ 1.1333118, 42.3936774 ], [ 1.1379644, 42.3981101 ], [ 1.1407764, 42.4007815 ], [ 1.1412689, 42.4012499 ], [ 1.1420948, 42.4019853 ], [ 1.1424948, 42.40234 ], [ 1.1429303, 42.4024953 ], [ 1.1454831, 42.4025199 ], [ 1.145673, 42.4028192 ], [ 1.1458383, 42.4032994 ], [ 1.1461919, 42.4038718 ], [ 1.1462481, 42.4039868 ], [ 1.1466822, 42.4046733 ], [ 1.1550641, 42.4059448 ], [ 1.1586301, 42.4065896 ], [ 1.1678145, 42.4096947 ], [ 1.1687665, 42.409759 ], [ 1.1781722, 42.4094158 ], [ 1.1946062, 42.4166205 ], [ 1.2039871, 42.4120803 ], [ 1.2027586, 42.413332 ], [ 1.1996351, 42.4160488 ], [ 1.1986231, 42.4167252 ], [ 1.1971473, 42.4177338 ], [ 1.1923584, 42.4204485 ], [ 1.1913781, 42.4206916 ], [ 1.1874215, 42.4213137 ], [ 1.185588, 42.4218851 ], [ 1.182459, 42.4221616 ], [ 1.1556958, 42.4274411 ], [ 1.1526455, 42.4300189 ], [ 1.1517008, 42.4306205 ], [ 1.1476889, 42.4326299 ], [ 1.1462504, 42.4329341 ], [ 1.1462437, 42.4330154 ], [ 1.1458172, 42.4331839 ], [ 1.1452417, 42.4333038 ], [ 1.1431208, 42.4333987 ], [ 1.1408279, 42.4330945 ], [ 1.1378073, 42.4324475 ], [ 1.1336958, 42.432029 ], [ 1.1334359, 42.4315882 ], [ 1.1333557, 42.4312939 ], [ 1.1334253, 42.430319 ], [ 1.1332511, 42.4300732 ], [ 1.1327472, 42.4298033 ], [ 1.1323393, 42.4293318 ], [ 1.1321309, 42.4289341 ], [ 1.1320047, 42.4279393 ], [ 1.1321487, 42.4273578 ], [ 1.1300937, 42.4269729 ], [ 1.1291749, 42.4296352 ], [ 1.1296465, 42.4318151 ], [ 1.1293776, 42.432347 ], [ 1.1292678, 42.4330803 ], [ 1.1290391, 42.4338539 ], [ 1.1285063, 42.4344403 ], [ 1.1275243, 42.4354032 ], [ 1.1272926, 42.4385359 ], [ 1.1275928, 42.4392183 ], [ 1.12747, 42.439754 ], [ 1.1270513, 42.4402283 ], [ 1.1269741, 42.4407173 ], [ 1.1316613, 42.442673 ], [ 1.1318436, 42.4432246 ], [ 1.1319577, 42.4442199 ], [ 1.1293406, 42.4452779 ], [ 1.127889, 42.4455734 ], [ 1.1266108, 42.4455475 ], [ 1.1248228, 42.4460892 ], [ 1.1243296, 42.44617 ], [ 1.1219034, 42.4462484 ], [ 1.1210978, 42.4463855 ], [ 1.1206712, 42.4465539 ], [ 1.1196508, 42.4471219 ], [ 1.1190608, 42.4473953 ], [ 1.1184526, 42.4473902 ], [ 1.1182402, 42.4474879 ], [ 1.1178653, 42.4478885 ], [ 1.1171008, 42.4480961 ], [ 1.1166766, 42.4488587 ], [ 1.1158653, 42.4494642 ], [ 1.1136533, 42.4505882 ], [ 1.113324, 42.450573 ], [ 1.1117955, 42.4509971 ], [ 1.1135707, 42.454895 ], [ 1.1087948, 42.4560481 ], [ 1.1077262, 42.4556993 ], [ 1.1070184, 42.4571473 ], [ 1.1067444, 42.4574183 ], [ 1.1067272, 42.4580852 ], [ 1.1065957, 42.458306 ], [ 1.1062678, 42.4584978 ], [ 1.1051617, 42.4586906 ], [ 1.1045509, 42.4590186 ], [ 1.1044593, 42.4592921 ], [ 1.1046028, 42.4611147 ], [ 1.1047471, 42.4620189 ], [ 1.1045949, 42.4622945 ], [ 1.1035443, 42.4625933 ], [ 1.1027723, 42.4630622 ], [ 1.102082, 42.4636632 ], [ 1.1013315, 42.4637171 ], [ 1.1010619, 42.4638708 ], [ 1.0993612, 42.4646431 ], [ 1.0991718, 42.4652802 ], [ 1.098261, 42.4656729 ], [ 1.0980424, 42.4660499 ], [ 1.0978541, 42.4661467 ], [ 1.0970277, 42.4659692 ], [ 1.0966742, 42.4659549 ], [ 1.0958505, 42.4661915 ], [ 1.0943507, 42.4663172 ], [ 1.0935184, 42.4666081 ], [ 1.0929639, 42.466871 ], [ 1.0921408, 42.4676748 ], [ 1.0913017, 42.468236 ], [ 1.0898216, 42.468478 ], [ 1.0889345, 42.4683026 ], [ 1.0879898, 42.4689216 ], [ 1.0872289, 42.4690028 ], [ 1.085345, 42.4693942 ], [ 1.0840638, 42.4698901 ], [ 1.0818218, 42.472068 ], [ 1.0792376, 42.4727274 ], [ 1.0812629, 42.4750682 ], [ 1.0828814, 42.4773244 ], [ 1.0832098, 42.4782581 ], [ 1.0836987, 42.479042 ], [ 1.0842534, 42.4797155 ], [ 1.0849298, 42.4807628 ], [ 1.0857157, 42.4827426 ], [ 1.0857472, 42.483786 ], [ 1.0853218, 42.4845394 ], [ 1.0849436, 42.4848951 ], [ 1.081759, 42.4871787 ], [ 1.0802743, 42.4881049 ], [ 1.0797999, 42.4882929 ], [ 1.0793642, 42.4883265 ], [ 1.0785277, 42.4881852 ], [ 1.0780555, 42.48822 ], [ 1.0771449, 42.4886216 ], [ 1.0766234, 42.4892074 ], [ 1.0765404, 42.4896155 ], [ 1.0764186, 42.4907364 ], [ 1.0761826, 42.4921583 ], [ 1.075472, 42.4961994 ], [ 1.0755272, 42.4974219 ], [ 1.0757056, 42.4981089 ], [ 1.0756506, 42.4987591 ], [ 1.0754983, 42.4992237 ], [ 1.0748224, 42.5000581 ], [ 1.0747896, 42.5001133 ], [ 1.0747167, 42.5001159 ], [ 1.0739836, 42.5008172 ], [ 1.0734528, 42.5007011 ], [ 1.0728337, 42.5016595 ], [ 1.0712214, 42.5036256 ], [ 1.0697035, 42.5051742 ], [ 1.0679058, 42.5078491 ], [ 1.0671374, 42.5087588 ] ] ] } }
]
}
