{
"type": "FeatureCollection",
"name": "25222",
"features": [
{ "type": "Feature", "properties": { "CCAA": "09 - Cataluña", "PROVINCIA": "25 - Lleida", "MUNICIPIO": "25222 - Tiurana", "COD_MUNICIPIO": "25222", "DISTRITO": "01", "SECCION": "2522201001", "V1_H": 75.48, "V1_M": 82.31, "V2_H": 75.36985678000001, "V2_M": 82.56533706, "V3_H": 75.8600571, "V3_M": 82.01450712 }, "geometry": { "type": "Polygon", "coordinates": [ [ [ 1.2604281, 41.9900965 ], [ 1.2597176, 41.9940937 ], [ 1.2594423, 41.9946712 ], [ 1.2590546, 41.9950098 ], [ 1.2586909, 41.9951673 ], [ 1.2579655, 41.9951493 ], [ 1.256142, 41.9949559 ], [ 1.2556268, 41.994831 ], [ 1.2552493, 41.9946019 ], [ 1.2540501, 41.9927286 ], [ 1.253795, 41.9921618 ], [ 1.2536676, 41.9915183 ], [ 1.253746, 41.9910652 ], [ 1.2541411, 41.9904742 ], [ 1.2543742, 41.9898083 ], [ 1.2544373, 41.9882212 ], [ 1.2542999, 41.9848948 ], [ 1.2541821, 41.9842149 ], [ 1.2538952, 41.9835322 ], [ 1.2534717, 41.9829717 ], [ 1.2530072, 41.9825207 ], [ 1.251862, 41.9818159 ], [ 1.2506475, 41.9813387 ], [ 1.2489932, 41.9807789 ], [ 1.2479117, 41.9804858 ], [ 1.2469855, 41.9803491 ], [ 1.2459183, 41.9804516 ], [ 1.2448698, 41.9804725 ], [ 1.2416633, 41.9797989 ], [ 1.2407161, 41.9795278 ], [ 1.2389171, 41.978604 ], [ 1.238091, 41.9779772 ], [ 1.2374342, 41.9773532 ], [ 1.236852, 41.9765824 ], [ 1.2363921, 41.975834 ], [ 1.2360531, 41.9750902 ], [ 1.2357002, 41.9734105 ], [ 1.2342207, 41.9709351 ], [ 1.2324971, 41.969324 ], [ 1.2298322, 41.9669823 ], [ 1.2293609, 41.9664235 ], [ 1.2289582, 41.965808 ], [ 1.2285952, 41.9650651 ], [ 1.22862, 41.9608863 ], [ 1.2284009, 41.960129 ], [ 1.228086, 41.9595644 ], [ 1.2276238, 41.9589602 ], [ 1.2270892, 41.9585387 ], [ 1.2264661, 41.9582375 ], [ 1.2235902, 41.9581635 ], [ 1.2226643, 41.9580265 ], [ 1.2214738, 41.9577193 ], [ 1.216455, 41.9560672 ], [ 1.2136972, 41.9552232 ], [ 1.2123608, 41.9547141 ], [ 1.2103853, 41.9538413 ], [ 1.2071769, 41.9525635 ], [ 1.2063898, 41.9521512 ], [ 1.2058724, 41.951621 ], [ 1.2054201, 41.9509803 ], [ 1.2053349, 41.950236 ], [ 1.2053574, 41.9494789 ], [ 1.2035096, 41.9470616 ], [ 1.2024223, 41.9463001 ], [ 1.2010775, 41.9454759 ], [ 1.1999304, 41.9449057 ], [ 1.1990458, 41.944659 ], [ 1.1972902, 41.9443722 ], [ 1.1958622, 41.9442984 ], [ 1.1948115, 41.9440937 ], [ 1.1939747, 41.9436561 ], [ 1.1934502, 41.9431981 ], [ 1.19317, 41.9426051 ], [ 1.1930642, 41.9420957 ], [ 1.1931354, 41.9415258 ], [ 1.1944031, 41.9398947 ], [ 1.1951077, 41.9392386 ], [ 1.1959843, 41.9386303 ], [ 1.1974741, 41.9378104 ], [ 1.1988727, 41.9372549 ], [ 1.2009739, 41.9365656 ], [ 1.2018495, 41.9361283 ], [ 1.202194, 41.9358636 ], [ 1.202194, 41.9358636 ], [ 1.2038753, 41.9366753 ], [ 1.2080979, 41.9387174 ], [ 1.2088003, 41.9389437 ], [ 1.2094558, 41.9390097 ], [ 1.2103124, 41.9390142 ], [ 1.2113839, 41.9388038 ], [ 1.2116373, 41.9386234 ], [ 1.2138456, 41.9395597 ], [ 1.2157334, 41.9405707 ], [ 1.2174098, 41.9418506 ], [ 1.2182318, 41.9422435 ], [ 1.2192728, 41.9424844 ], [ 1.2205455, 41.9433109 ], [ 1.2224202, 41.9422964 ], [ 1.2244623, 41.9394388 ], [ 1.2250005, 41.9388247 ], [ 1.2254357, 41.9384755 ], [ 1.2275165, 41.9374804 ], [ 1.2278812, 41.9371608 ], [ 1.2289978, 41.9352647 ], [ 1.2294112, 41.9349523 ], [ 1.2298143, 41.9348474 ], [ 1.2306581, 41.9348433 ], [ 1.231731, 41.9350197 ], [ 1.2327154, 41.9353166 ], [ 1.233215, 41.9355772 ], [ 1.2337975, 41.9359969 ], [ 1.23432, 41.9362387 ], [ 1.2348366, 41.9363907 ], [ 1.2366765, 41.9364938 ], [ 1.2371547, 41.9364311 ], [ 1.237556, 41.9361191 ], [ 1.2381149, 41.9349099 ], [ 1.2384314, 41.9347721 ], [ 1.2401975, 41.9354001 ], [ 1.2407693, 41.935658 ], [ 1.24116, 41.9360938 ], [ 1.2418222, 41.9371678 ], [ 1.2423698, 41.9377868 ], [ 1.2445886, 41.9392353 ], [ 1.2453282, 41.9396581 ], [ 1.2464432, 41.939923 ], [ 1.2476094, 41.9400508 ], [ 1.2479697, 41.9400284 ], [ 1.2482994, 41.9399082 ], [ 1.2493081, 41.9412934 ], [ 1.2498006, 41.9418064 ], [ 1.2509009, 41.942756 ], [ 1.2532936, 41.9446391 ], [ 1.2534205, 41.9449135 ], [ 1.2532522, 41.9460092 ], [ 1.2536315, 41.9468145 ], [ 1.2542328, 41.9476926 ], [ 1.2547878, 41.9482393 ], [ 1.2545204, 41.9491136 ], [ 1.2545678, 41.949463 ], [ 1.2559359, 41.9509879 ], [ 1.2561235, 41.9514491 ], [ 1.2565772, 41.9531881 ], [ 1.2570857, 41.9564737 ], [ 1.2572006, 41.9567485 ], [ 1.260263, 41.9637749 ], [ 1.2615317, 41.9683198 ], [ 1.2621957, 41.9697717 ], [ 1.2633163, 41.9729985 ], [ 1.263727, 41.9746309 ], [ 1.2635897, 41.9749242 ], [ 1.2631799, 41.9751105 ], [ 1.2600303, 41.9761911 ], [ 1.2596324, 41.976377 ], [ 1.2593139, 41.9766679 ], [ 1.2585473, 41.9787404 ], [ 1.2578605, 41.981287 ], [ 1.2579729, 41.9818861 ], [ 1.2581684, 41.9849942 ], [ 1.2584624, 41.9863249 ], [ 1.258536, 41.98815 ], [ 1.2585732, 41.9887069 ], [ 1.258809, 41.9891663 ], [ 1.259329, 41.9897232 ], [ 1.2598761, 41.989964 ], [ 1.2604281, 41.9900965 ] ] ] } }
]
}
