{
"type": "FeatureCollection",
"name": "26010",
"features": [
{ "type": "Feature", "properties": { "CCAA": "17 - La Rioja", "PROVINCIA": "26 - Rioja, La", "MUNICIPIO": "26010 - Alesón", "COD_MUNICIPIO": "26010", "DISTRITO": "01", "SECCION": "2601001001", "V1_H": 80.72, "V1_M": 86.56, "V2_H": 80.63016227, "V2_M": 86.55369361, "V3_H": 80.94352394000001, "V3_M": 86.74641221 }, "geometry": { "type": "Polygon", "coordinates": [ [ [ -2.6506565, 42.411413 ], [ -2.6507693, 42.4113428 ], [ -2.6509735, 42.4112158 ], [ -2.6509773, 42.4112145 ], [ -2.6513632, 42.4110819 ], [ -2.6517886, 42.4110652 ], [ -2.6530407, 42.411015 ], [ -2.6557603, 42.4110053 ], [ -2.6557874, 42.4110052 ], [ -2.6598812, 42.4113327 ], [ -2.6603904, 42.4113304 ], [ -2.663503, 42.4113164 ], [ -2.6640363, 42.4115882 ], [ -2.6640458, 42.4115907 ], [ -2.664376, 42.4116792 ], [ -2.6645855, 42.4117022 ], [ -2.6658943, 42.4118457 ], [ -2.6691966, 42.4124948 ], [ -2.6704057, 42.412904 ], [ -2.6709679, 42.4130943 ], [ -2.672522, 42.413387 ], [ -2.6734041, 42.413523 ], [ -2.6748415, 42.4137448 ], [ -2.6757997, 42.4140175 ], [ -2.6758002, 42.4140177 ], [ -2.6769274, 42.4146062 ], [ -2.6779592, 42.4148794 ], [ -2.6784551, 42.4149167 ], [ -2.6784573, 42.4149168 ], [ -2.6816076, 42.4144213 ], [ -2.6817063, 42.4144135 ], [ -2.6839422, 42.4142386 ], [ -2.6853536, 42.4138478 ], [ -2.6865831, 42.4135074 ], [ -2.6875312, 42.41351 ], [ -2.6875313, 42.41351 ], [ -2.6875313, 42.41351 ], [ -2.6887827, 42.4135765 ], [ -2.6902657, 42.4135084 ], [ -2.6919075, 42.4132967 ], [ -2.6919097, 42.4132972 ], [ -2.694093, 42.4137439 ], [ -2.6947367, 42.4138267 ], [ -2.6961931, 42.4142538 ], [ -2.6962133, 42.4142614 ], [ -2.6962174, 42.4142629 ], [ -2.6967638, 42.4143724 ], [ -2.6972622, 42.4143557 ], [ -2.6980896, 42.4141418 ], [ -2.6987239, 42.4144747 ], [ -2.699314, 42.4147844 ], [ -2.6993141, 42.4147844 ], [ -2.6992928, 42.414163 ], [ -2.6991485, 42.4138748 ], [ -2.6991483, 42.4138744 ], [ -2.6991484, 42.4138743 ], [ -2.6992494, 42.4138083 ], [ -2.699258, 42.4138026 ], [ -2.7006686, 42.4128964 ], [ -2.7010216, 42.4126696 ], [ -2.7010281, 42.4126654 ], [ -2.701757, 42.4121971 ], [ -2.7018547, 42.4121343 ], [ -2.701675, 42.4115755 ], [ -2.701567, 42.411305 ], [ -2.6975556, 42.4089529 ], [ -2.6973748, 42.4086553 ], [ -2.6973187, 42.4076915 ], [ -2.6973956, 42.4068631 ], [ -2.6981449, 42.40519 ], [ -2.6966195, 42.4040062 ], [ -2.6971622, 42.4023235 ], [ -2.697043, 42.4018639 ], [ -2.6963814, 42.4004842 ], [ -2.6958008, 42.3999153 ], [ -2.695379, 42.3992207 ], [ -2.6947771, 42.3980483 ], [ -2.6927742, 42.3976557 ], [ -2.6921189, 42.3974919 ], [ -2.6914519, 42.3972289 ], [ -2.6875371, 42.3952369 ], [ -2.6872218, 42.3951279 ], [ -2.6864822, 42.3948198 ], [ -2.6860213, 42.3946384 ], [ -2.6854728, 42.3950151 ], [ -2.6806204, 42.3982799 ], [ -2.6795108, 42.3990332 ], [ -2.6798, 42.3995023 ], [ -2.6777192, 42.4000909 ], [ -2.6741658, 42.4010985 ], [ -2.6737866, 42.4015747 ], [ -2.6722219, 42.4010389 ], [ -2.6719185, 42.400984 ], [ -2.6703263, 42.4010515 ], [ -2.6686008, 42.4010465 ], [ -2.6669244, 42.4009606 ], [ -2.6664146, 42.40086 ], [ -2.6655775, 42.4006144 ], [ -2.6649358, 42.4001802 ], [ -2.6607383, 42.398934 ], [ -2.658268, 42.3995931 ], [ -2.6576976, 42.3994744 ], [ -2.6568851, 42.3991657 ], [ -2.6564118, 42.3990653 ], [ -2.6559136, 42.3990638 ], [ -2.6554146, 42.3992063 ], [ -2.655049, 42.3994124 ], [ -2.6540114, 42.4002738 ], [ -2.6534635, 42.4004883 ], [ -2.6514835, 42.4003652 ], [ -2.6508703, 42.401381 ], [ -2.6510494, 42.4019399 ], [ -2.6509477, 42.4027591 ], [ -2.6507507, 42.4032089 ], [ -2.6503588, 42.403757 ], [ -2.6499926, 42.4040711 ], [ -2.6494196, 42.4043936 ], [ -2.6487623, 42.4045897 ], [ -2.647473, 42.4048018 ], [ -2.6469738, 42.4049534 ], [ -2.6464255, 42.4052399 ], [ -2.6453515, 42.4060561 ], [ -2.6448868, 42.406559 ], [ -2.6447348, 42.4076393 ], [ -2.6445746, 42.408044 ], [ -2.6434607, 42.4094545 ], [ -2.6431155, 42.4103 ], [ -2.6430739, 42.4112184 ], [ -2.6432259, 42.4122817 ], [ -2.6438691, 42.4124458 ], [ -2.6473685, 42.4125737 ], [ -2.6485462, 42.4128024 ], [ -2.6489111, 42.4127405 ], [ -2.6499244, 42.4119151 ], [ -2.6506565, 42.411413 ] ] ] } }
]
}
