{
"type": "FeatureCollection",
"name": "26072",
"features": [
{ "type": "Feature", "properties": { "CCAA": "17 - La Rioja", "PROVINCIA": "26 - Rioja, La", "MUNICIPIO": "26072 - Herce", "COD_MUNICIPIO": "26072", "DISTRITO": "01", "SECCION": "2607201001", "V1_H": 80.27, "V1_M": 86.36, "V2_H": 80.04050342, "V2_M": 86.25745667, "V3_H": 80.55487256000001, "V3_M": 86.64917866 }, "geometry": { "type": "Polygon", "coordinates": [ [ [ -2.1967116, 42.2586908 ], [ -2.1984993, 42.2582621 ], [ -2.2009708, 42.2574417 ], [ -2.2026128, 42.2570209 ], [ -2.2034317, 42.2584226 ], [ -2.2053229, 42.2584357 ], [ -2.2061449, 42.2586305 ], [ -2.209133, 42.2601192 ], [ -2.2143719, 42.2600202 ], [ -2.2163621, 42.2598717 ], [ -2.2167387, 42.2598113 ], [ -2.2170209, 42.259543 ], [ -2.2165919, 42.2589367 ], [ -2.2164599, 42.2578461 ], [ -2.216452, 42.256531 ], [ -2.2162962, 42.2554042 ], [ -2.2154806, 42.2537235 ], [ -2.2135241, 42.2511794 ], [ -2.2132666, 42.250439 ], [ -2.2128171, 42.2475901 ], [ -2.2116462, 42.2472037 ], [ -2.2111319, 42.2476145 ], [ -2.2095253, 42.2500801 ], [ -2.2095129, 42.250098 ], [ -2.2038437, 42.2526615 ], [ -2.2035393, 42.2518128 ], [ -2.1985103, 42.250706 ], [ -2.1957037, 42.2511997 ], [ -2.1951968, 42.2500703 ], [ -2.1939814, 42.247468 ], [ -2.1921329, 42.2441407 ], [ -2.1919374, 42.2433198 ], [ -2.191715, 42.2417511 ], [ -2.1884741, 42.2392785 ], [ -2.1875196, 42.2381009 ], [ -2.1865089, 42.2356441 ], [ -2.1838467, 42.2296901 ], [ -2.1838019, 42.2275283 ], [ -2.1842421, 42.2262795 ], [ -2.1844358, 42.2253533 ], [ -2.1843846, 42.2246235 ], [ -2.1842355, 42.2239739 ], [ -2.1832582, 42.2227061 ], [ -2.1819158, 42.2215707 ], [ -2.1812135, 42.220602 ], [ -2.1803994, 42.2198397 ], [ -2.1786107, 42.218557 ], [ -2.1784936, 42.218241 ], [ -2.1786982, 42.2174139 ], [ -2.178849, 42.216064 ], [ -2.1785815, 42.2142699 ], [ -2.1783617, 42.2134757 ], [ -2.1779068, 42.2130492 ], [ -2.1774416, 42.2124875 ], [ -2.1773477, 42.2122616 ], [ -2.1762523, 42.2098581 ], [ -2.176026, 42.2095593 ], [ -2.1748106, 42.2080015 ], [ -2.1743796, 42.2076111 ], [ -2.1727391, 42.2070679 ], [ -2.1727203, 42.2048072 ], [ -2.1725287, 42.2046347 ], [ -2.1716253, 42.2042409 ], [ -2.1715183, 42.204087 ], [ -2.1714347, 42.2040053 ], [ -2.1715001, 42.2036275 ], [ -2.1719178, 42.2031802 ], [ -2.1721514, 42.2029208 ], [ -2.1721427, 42.2026595 ], [ -2.1721129, 42.2021549 ], [ -2.1626584, 42.1971328 ], [ -2.1617095, 42.1965404 ], [ -2.1595815, 42.195345 ], [ -2.1525848, 42.1914298 ], [ -2.1516565, 42.1911167 ], [ -2.1463912, 42.1899968 ], [ -2.1463908, 42.1899974 ], [ -2.1463748, 42.1900208 ], [ -2.1446245, 42.1925775 ], [ -2.1426744, 42.1951867 ], [ -2.1426632, 42.1952016 ], [ -2.1426634, 42.1952021 ], [ -2.1428542, 42.1959771 ], [ -2.1429388, 42.1963204 ], [ -2.1413405, 42.1989653 ], [ -2.1413405, 42.1989664 ], [ -2.1413434, 42.1990816 ], [ -2.1413719, 42.2002169 ], [ -2.1413719, 42.2002174 ], [ -2.1412341, 42.2005586 ], [ -2.1390274, 42.2033912 ], [ -2.1375232, 42.205322 ], [ -2.1372627, 42.2057704 ], [ -2.1372502, 42.2057973 ], [ -2.1370872, 42.2062013 ], [ -2.1372947, 42.2087516 ], [ -2.1376597, 42.2104205 ], [ -2.1376707, 42.2105017 ], [ -2.1376754, 42.2105043 ], [ -2.1389452, 42.2112138 ], [ -2.1399527, 42.2119508 ], [ -2.1405108, 42.2127836 ], [ -2.1407093, 42.2133345 ], [ -2.1407469, 42.2136111 ], [ -2.1407644, 42.2137402 ], [ -2.1407514, 42.2138031 ], [ -2.1404033, 42.2153496 ], [ -2.1402716, 42.2170147 ], [ -2.1403216, 42.2177897 ], [ -2.1400142, 42.2181205 ], [ -2.1398968, 42.2183147 ], [ -2.1396672, 42.2186944 ], [ -2.1390635, 42.2212026 ], [ -2.1390636, 42.2212027 ], [ -2.1394703, 42.2217402 ], [ -2.1395159, 42.2218003 ], [ -2.139516, 42.2218006 ], [ -2.1402715, 42.223265 ], [ -2.140532, 42.2248477 ], [ -2.1405625, 42.2250324 ], [ -2.1415278, 42.2278336 ], [ -2.1415302, 42.2278406 ], [ -2.1415301, 42.2278407 ], [ -2.1413259, 42.2285541 ], [ -2.1410724, 42.2294394 ], [ -2.1410722, 42.2294403 ], [ -2.1418381, 42.2301485 ], [ -2.1418388, 42.2301492 ], [ -2.1424116, 42.2307562 ], [ -2.1425241, 42.231302 ], [ -2.1426049, 42.2316943 ], [ -2.143473, 42.2328982 ], [ -2.1434733, 42.2328986 ], [ -2.143497, 42.2329379 ], [ -2.1438164, 42.2334676 ], [ -2.143817, 42.2334686 ], [ -2.1443395, 42.2333644 ], [ -2.144885, 42.2333594 ], [ -2.1458636, 42.2335829 ], [ -2.1476385, 42.2340735 ], [ -2.1487344, 42.2336853 ], [ -2.1493321, 42.2334016 ], [ -2.1511479, 42.2335592 ], [ -2.1532176, 42.232845 ], [ -2.1533161, 42.2336382 ], [ -2.1548168, 42.2337935 ], [ -2.1562108, 42.2337677 ], [ -2.1568902, 42.2337187 ], [ -2.1574576, 42.233885 ], [ -2.158685, 42.2345424 ], [ -2.160078, 42.2345977 ], [ -2.1627633, 42.2349866 ], [ -2.1656204, 42.2361422 ], [ -2.1684377, 42.23664 ], [ -2.1694323, 42.2365752 ], [ -2.1720525, 42.2373327 ], [ -2.1745612, 42.2382605 ], [ -2.1755831, 42.2388982 ], [ -2.1791973, 42.241518 ], [ -2.1805437, 42.2442475 ], [ -2.1808057, 42.2446096 ], [ -2.1865191, 42.2489823 ], [ -2.1868538, 42.2493539 ], [ -2.1873294, 42.2500688 ], [ -2.1875195, 42.2503763 ], [ -2.1878875, 42.2509824 ], [ -2.188283, 42.2513364 ], [ -2.1961349, 42.2563722 ], [ -2.1965875, 42.2579694 ], [ -2.1967116, 42.2586908 ] ] ] } }
]
}
