{
"type": "FeatureCollection",
"name": "26151",
"features": [
{ "type": "Feature", "properties": { "CCAA": "17 - La Rioja", "PROVINCIA": "26 - Rioja, La", "MUNICIPIO": "26151 - Torrecilla en Cameros", "COD_MUNICIPIO": "26151", "DISTRITO": "01", "SECCION": "2615101001", "V1_H": 80.91, "V1_M": 86.64, "V2_H": 80.44720226, "V2_M": 86.54313262, "V3_H": 81.45534141, "V3_M": 86.89844934 }, "geometry": { "type": "Polygon", "coordinates": [ [ [ -2.5745561, 42.2816845 ], [ -2.5749183, 42.281938 ], [ -2.575352, 42.2823719 ], [ -2.5758116, 42.2825537 ], [ -2.5763571, 42.2826008 ], [ -2.5770004, 42.2825311 ], [ -2.5774505, 42.2823256 ], [ -2.5779016, 42.2819671 ], [ -2.5785621, 42.281141 ], [ -2.5789886, 42.2808453 ], [ -2.5795599, 42.2806493 ], [ -2.5802276, 42.2805526 ], [ -2.5820583, 42.2806494 ], [ -2.5843041, 42.2803333 ], [ -2.5849237, 42.2801645 ], [ -2.586104, 42.2795743 ], [ -2.5863966, 42.2793232 ], [ -2.5865337, 42.2787744 ], [ -2.5864657, 42.2780356 ], [ -2.5860434, 42.2758726 ], [ -2.5860233, 42.2752421 ], [ -2.5862204, 42.2747655 ], [ -2.5864654, 42.2743881 ], [ -2.5869524, 42.2741017 ], [ -2.5876693, 42.2738791 ], [ -2.5887028, 42.2734595 ], [ -2.589298, 42.2733086 ], [ -2.589663, 42.2731297 ], [ -2.5898841, 42.2726982 ], [ -2.5901771, 42.2723841 ], [ -2.5906391, 42.2722146 ], [ -2.5912575, 42.2722168 ], [ -2.5929785, 42.2723671 ], [ -2.5935607, 42.272342 ], [ -2.5941194, 42.272209 ], [ -2.5957113, 42.2716833 ], [ -2.5970828, 42.27149 ], [ -2.5996063, 42.2713097 ], [ -2.6004205, 42.2710153 ], [ -2.6007148, 42.270512 ], [ -2.6010503, 42.2692343 ], [ -2.6012221, 42.2689197 ], [ -2.6016614, 42.2684799 ], [ -2.6026964, 42.267781 ], [ -2.6032559, 42.2675128 ], [ -2.6041106, 42.2665701 ], [ -2.6046739, 42.2656984 ], [ -2.6051014, 42.2651956 ], [ -2.6054909, 42.2649537 ], [ -2.6059523, 42.2648382 ], [ -2.6083055, 42.2647022 ], [ -2.608888, 42.2646052 ], [ -2.6090955, 42.2643987 ], [ -2.6094767, 42.261572 ], [ -2.609686, 42.2610504 ], [ -2.6100523, 42.2606464 ], [ -2.6107094, 42.2602614 ], [ -2.6113415, 42.2600023 ], [ -2.6118873, 42.2599592 ], [ -2.6144176, 42.2625345 ], [ -2.6152761, 42.2629246 ], [ -2.6157711, 42.2632685 ], [ -2.6169762, 42.2644794 ], [ -2.6177367, 42.2650493 ], [ -2.6185462, 42.2655023 ], [ -2.6191389, 42.2657475 ], [ -2.6199884, 42.2656332 ], [ -2.6206055, 42.2658514 ], [ -2.6210758, 42.2662673 ], [ -2.6234475, 42.2670856 ], [ -2.6245229, 42.2677196 ], [ -2.626346, 42.2690585 ], [ -2.6301119, 42.2720247 ], [ -2.6310299, 42.2726221 ], [ -2.6317559, 42.2729037 ], [ -2.63425, 42.2735781 ], [ -2.6352801, 42.2737075 ], [ -2.6376196, 42.273859 ], [ -2.6385883, 42.2741233 ], [ -2.6390233, 42.2743858 ], [ -2.6422953, 42.2790523 ], [ -2.644692, 42.2798703 ], [ -2.6452967, 42.2801784 ], [ -2.6464764, 42.2817491 ], [ -2.6471153, 42.2824445 ], [ -2.6476464, 42.2829145 ], [ -2.6480577, 42.2831049 ], [ -2.6500691, 42.2834353 ], [ -2.6556327, 42.2862891 ], [ -2.6564609, 42.2856612 ], [ -2.6581031, 42.2847925 ], [ -2.6589419, 42.2844258 ], [ -2.6595981, 42.2842115 ], [ -2.6638882, 42.2803066 ], [ -2.6642196, 42.27956 ], [ -2.6653754, 42.278888 ], [ -2.6687277, 42.2756195 ], [ -2.6700537, 42.2748308 ], [ -2.6723983, 42.2717033 ], [ -2.6736605, 42.2691582 ], [ -2.6743083, 42.2681784 ], [ -2.6764193, 42.2655906 ], [ -2.6768599, 42.2647993 ], [ -2.6776822, 42.2628653 ], [ -2.6780393, 42.2617765 ], [ -2.6781673, 42.2580844 ], [ -2.6783057, 42.2570851 ], [ -2.6785033, 42.2563741 ], [ -2.678227, 42.255887 ], [ -2.6759875, 42.2528906 ], [ -2.6736486, 42.2503802 ], [ -2.6736016, 42.2501009 ], [ -2.6735896, 42.2500829 ], [ -2.6742677, 42.2478873 ], [ -2.6727842, 42.2464331 ], [ -2.6720177, 42.2446567 ], [ -2.6712106, 42.2436996 ], [ -2.6677748, 42.2424379 ], [ -2.6674272, 42.2417074 ], [ -2.6672252, 42.2409322 ], [ -2.6669277, 42.2398956 ], [ -2.6641559, 42.2391851 ], [ -2.6628696, 42.2394875 ], [ -2.6613561, 42.2391858 ], [ -2.6598537, 42.2368487 ], [ -2.6590266, 42.2329286 ], [ -2.6580012, 42.2320429 ], [ -2.6561624, 42.23147 ], [ -2.6524853, 42.23018 ], [ -2.6518394, 42.2308535 ], [ -2.651463, 42.2309694 ], [ -2.648022, 42.2308508 ], [ -2.6468363, 42.2305139 ], [ -2.6412913, 42.2359905 ], [ -2.6344616, 42.2370766 ], [ -2.6318049, 42.2375094 ], [ -2.63114, 42.2372191 ], [ -2.6302077, 42.237063 ], [ -2.6277483, 42.2369109 ], [ -2.6273401, 42.2362431 ], [ -2.6269668, 42.2358366 ], [ -2.6264599, 42.2355017 ], [ -2.6255648, 42.2351836 ], [ -2.6250453, 42.2349207 ], [ -2.624804, 42.2347308 ], [ -2.6246483, 42.234424 ], [ -2.6246263, 42.2340547 ], [ -2.6247866, 42.2335869 ], [ -2.6251042, 42.2331647 ], [ -2.6251307, 42.2327955 ], [ -2.6246659, 42.23147 ], [ -2.6249595, 42.2309937 ], [ -2.6255569, 42.2304012 ], [ -2.6259843, 42.2298442 ], [ -2.6263028, 42.2292689 ], [ -2.6263793, 42.2286387 ], [ -2.626257, 42.226774 ], [ -2.6258664, 42.2272591 ], [ -2.623097, 42.2283397 ], [ -2.6211198, 42.2286755 ], [ -2.6127606, 42.23225 ], [ -2.6088644, 42.2351908 ], [ -2.6080129, 42.2356832 ], [ -2.6074791, 42.2357714 ], [ -2.6063003, 42.2362898 ], [ -2.608722, 42.2425124 ], [ -2.6067593, 42.2462522 ], [ -2.6045506, 42.2486042 ], [ -2.6027107, 42.2501199 ], [ -2.5981287, 42.2538865 ], [ -2.5959167, 42.2547614 ], [ -2.5930919, 42.2566696 ], [ -2.5954562, 42.2585243 ], [ -2.5954358, 42.2598211 ], [ -2.5936305, 42.2596256 ], [ -2.5787132, 42.2621565 ], [ -2.5763294, 42.2650566 ], [ -2.5703903, 42.270078 ], [ -2.5693789, 42.2708127 ], [ -2.5636763, 42.2712865 ], [ -2.5642814, 42.2732161 ], [ -2.5654343, 42.2748415 ], [ -2.5658185, 42.2771666 ], [ -2.5684709, 42.2794462 ], [ -2.5693739, 42.2804222 ], [ -2.5702751, 42.2816505 ], [ -2.5709372, 42.2823735 ], [ -2.5712754, 42.2825818 ], [ -2.5727272, 42.2813264 ], [ -2.5729706, 42.2812013 ], [ -2.5733344, 42.2812116 ], [ -2.5739278, 42.2813489 ], [ -2.5745561, 42.2816845 ] ] ] } }
]
}
