{
"type": "FeatureCollection",
"name": "27026",
"features": [
{ "type": "Feature", "properties": { "CCAA": "12 - Galicia", "PROVINCIA": "27 - Lugo", "MUNICIPIO": "27026 - Láncara", "COD_MUNICIPIO": "27026", "DISTRITO": "01", "SECCION": "2702601002", "V1_H": 80.06, "V1_M": 86.09, "V2_H": 79.80248703, "V2_M": 86.14116428, "V3_H": 80.46064959, "V3_M": 86.17412372 }, "geometry": { "type": "Polygon", "coordinates": [ [ [ -7.4056587, 42.8358825 ], [ -7.4054354, 42.8491016 ], [ -7.3880855, 42.8557149 ], [ -7.384779, 42.8657541 ], [ -7.3863531, 42.8655192 ], [ -7.3902969, 42.8668534 ], [ -7.3943143, 42.8677203 ], [ -7.4025621, 42.8664309 ], [ -7.4050392, 42.8667446 ], [ -7.4106492, 42.8756837 ], [ -7.4148719, 42.8781286 ], [ -7.4187453, 42.883234 ], [ -7.4198092, 42.8818529 ], [ -7.4217484, 42.880718 ], [ -7.4227092, 42.8800108 ], [ -7.4231902, 42.8798734 ], [ -7.4241101, 42.879814 ], [ -7.4245099, 42.8799815 ], [ -7.4249192, 42.8802574 ], [ -7.4261217, 42.8811204 ], [ -7.4266863, 42.8815514 ], [ -7.4271193, 42.8813772 ], [ -7.4275098, 42.880464 ], [ -7.4277126, 42.8801967 ], [ -7.427727, 42.8796296 ], [ -7.4269079, 42.8752418 ], [ -7.4378225, 42.8721134 ], [ -7.4418883, 42.8706109 ], [ -7.4441416, 42.8725326 ], [ -7.4445523, 42.8727543 ], [ -7.4449898, 42.8728864 ], [ -7.445381, 42.8729097 ], [ -7.4458366, 42.8728078 ], [ -7.4466298, 42.8724224 ], [ -7.4469176, 42.8721741 ], [ -7.4474764, 42.8713712 ], [ -7.4477402, 42.8711047 ], [ -7.4480758, 42.8709021 ], [ -7.4489511, 42.8706618 ], [ -7.4493044, 42.8707296 ], [ -7.4497999, 42.8709885 ], [ -7.451233, 42.8724307 ], [ -7.4518173, 42.8725647 ], [ -7.4521131, 42.8724876 ], [ -7.4526515, 42.8720086 ], [ -7.4527945, 42.8716774 ], [ -7.4528208, 42.8706241 ], [ -7.4528159, 42.8703269 ], [ -7.4532826, 42.8692886 ], [ -7.4533035, 42.8684514 ], [ -7.453201, 42.8681438 ], [ -7.4529889, 42.8678168 ], [ -7.4525695, 42.8674509 ], [ -7.4518107, 42.8669544 ], [ -7.4514833, 42.8663376 ], [ -7.451469, 42.8659321 ], [ -7.4510407, 42.8649448 ], [ -7.4510094, 42.8647283 ], [ -7.4512761, 42.8643447 ], [ -7.4511865, 42.8640102 ], [ -7.4510102, 42.8637197 ], [ -7.4498131, 42.8631272 ], [ -7.4489993, 42.862873 ], [ -7.4477524, 42.8623158 ], [ -7.4439525, 42.860085 ], [ -7.4420152, 42.8592392 ], [ -7.4414963, 42.8589439 ], [ -7.4410234, 42.8587664 ], [ -7.4403511, 42.8587302 ], [ -7.4395714, 42.8590708 ], [ -7.4391655, 42.8591463 ], [ -7.4387982, 42.8591503 ], [ -7.4384327, 42.8590823 ], [ -7.4380815, 42.8589334 ], [ -7.4378773, 42.8587776 ], [ -7.4350946, 42.8599102 ], [ -7.4337542, 42.8587032 ], [ -7.4322482, 42.8572688 ], [ -7.4312323, 42.8563003 ], [ -7.4338291, 42.8528329 ], [ -7.4373914, 42.8523233 ], [ -7.4376053, 42.852092 ], [ -7.4377924, 42.8514642 ], [ -7.4382287, 42.8506687 ], [ -7.4394256, 42.848821 ], [ -7.4397743, 42.8480963 ], [ -7.4401307, 42.8470656 ], [ -7.4403065, 42.8459153 ], [ -7.4400532, 42.8447952 ], [ -7.4401183, 42.8436705 ], [ -7.4403319, 42.842962 ], [ -7.4406144, 42.8424345 ], [ -7.441267, 42.841786 ], [ -7.441965, 42.8407959 ], [ -7.4414648, 42.8407351 ], [ -7.4405824, 42.8402998 ], [ -7.439361, 42.8397249 ], [ -7.4387682, 42.8394557 ], [ -7.4333624, 42.8388595 ], [ -7.4326253, 42.8384892 ], [ -7.4296289, 42.8369803 ], [ -7.425195, 42.8347492 ], [ -7.4195154, 42.834833 ], [ -7.4161868, 42.8334182 ], [ -7.4117116, 42.8318704 ], [ -7.408731, 42.8331168 ], [ -7.4078157, 42.8335002 ], [ -7.4067324, 42.8347099 ], [ -7.4056587, 42.8358825 ] ] ] } },
{ "type": "Feature", "properties": { "CCAA": "12 - Galicia", "PROVINCIA": "27 - Lugo", "MUNICIPIO": "27026 - Láncara", "COD_MUNICIPIO": "27026", "DISTRITO": "01", "SECCION": "2702601003", "V1_H": 79.57, "V1_M": 85.52, "V2_H": 79.5571672, "V2_M": 85.61629353, "V3_H": 79.73611669, "V3_M": 85.61269153000001 }, "geometry": { "type": "Polygon", "coordinates": [ [ [ -7.2224768, 42.8329602 ], [ -7.2228186, 42.8334158 ], [ -7.2261454, 42.8381591 ], [ -7.2301311, 42.8387071 ], [ -7.2324956, 42.8381763 ], [ -7.2506535, 42.8408056 ], [ -7.2556992, 42.841531 ], [ -7.2600155, 42.842083 ], [ -7.2602556, 42.8422487 ], [ -7.2655948, 42.8486694 ], [ -7.2677498, 42.8512595 ], [ -7.2762035, 42.8465424 ], [ -7.2792119, 42.8448587 ], [ -7.2920588, 42.8405125 ], [ -7.2947516, 42.8395981 ], [ -7.2997079, 42.8440394 ], [ -7.3027129, 42.8460291 ], [ -7.3066689, 42.8481499 ], [ -7.3149289, 42.8477314 ], [ -7.3198673, 42.8483983 ], [ -7.3205531, 42.8452206 ], [ -7.3223682, 42.8428159 ], [ -7.3301314, 42.8344645 ], [ -7.3371003, 42.8319275 ], [ -7.3400398, 42.8295297 ], [ -7.3490475, 42.8266613 ], [ -7.3508432, 42.8244629 ], [ -7.3473834, 42.8229992 ], [ -7.3446979, 42.8218617 ], [ -7.3408541, 42.8201311 ], [ -7.3333293, 42.8160956 ], [ -7.3318823, 42.815318 ], [ -7.3317177, 42.8123439 ], [ -7.3316454, 42.8109381 ], [ -7.3315884, 42.8098746 ], [ -7.3312449, 42.803548 ], [ -7.3311435, 42.8018625 ], [ -7.3282641, 42.7970747 ], [ -7.3272345, 42.7953487 ], [ -7.3274932, 42.7921017 ], [ -7.327568, 42.7911392 ], [ -7.3282653, 42.7843144 ], [ -7.3281809, 42.780639 ], [ -7.3280987, 42.7773329 ], [ -7.3212437, 42.7758728 ], [ -7.316219, 42.7772488 ], [ -7.3050214, 42.7808387 ], [ -7.300072, 42.7825573 ], [ -7.29942, 42.7827097 ], [ -7.2988833, 42.7826658 ], [ -7.2971028, 42.7825042 ], [ -7.2965137, 42.7825855 ], [ -7.2952574, 42.782927 ], [ -7.2948289, 42.7829476 ], [ -7.2933015, 42.7824746 ], [ -7.2925805, 42.7824638 ], [ -7.2922234, 42.7825576 ], [ -7.2912835, 42.7829488 ], [ -7.2905084, 42.7831263 ], [ -7.2881471, 42.7827488 ], [ -7.287657, 42.7827865 ], [ -7.2871328, 42.7827336 ], [ -7.2785556, 42.7812271 ], [ -7.2749075, 42.7843779 ], [ -7.2744974, 42.7847321 ], [ -7.2706638, 42.7880512 ], [ -7.267807, 42.7905295 ], [ -7.2671203, 42.7910414 ], [ -7.2650323, 42.7922524 ], [ -7.2608035, 42.7943675 ], [ -7.2468935, 42.7967848 ], [ -7.2439455, 42.7981174 ], [ -7.2401797, 42.7998246 ], [ -7.2388121, 42.8010463 ], [ -7.2384008, 42.8013191 ], [ -7.2367665, 42.8024556 ], [ -7.2290781, 42.8066054 ], [ -7.2287716, 42.8071425 ], [ -7.2286146, 42.8074176 ], [ -7.230706, 42.8099895 ], [ -7.2253865, 42.8163728 ], [ -7.2215988, 42.8209157 ], [ -7.2205598, 42.8221692 ], [ -7.2203583, 42.8227965 ], [ -7.2196596, 42.8249739 ], [ -7.2193783, 42.825825 ], [ -7.2196865, 42.8265952 ], [ -7.2212612, 42.8305549 ], [ -7.2216896, 42.8313991 ], [ -7.2223086, 42.8324263 ], [ -7.2224768, 42.8329602 ] ] ] } },
{ "type": "Feature", "properties": { "CCAA": "12 - Galicia", "PROVINCIA": "27 - Lugo", "MUNICIPIO": "27026 - Láncara", "COD_MUNICIPIO": "27026", "DISTRITO": "01", "SECCION": "2702601001", "V1_H": 79.83, "V1_M": 85.66, "V2_H": 79.86201885, "V2_M": 85.75249, "V3_H": 79.86616026, "V3_M": 85.80070523000001 }, "geometry": { "type": "Polygon", "coordinates": [ [ [ -7.3494118, 42.9222738 ], [ -7.3511378, 42.922794 ], [ -7.3528057, 42.9231963 ], [ -7.3543577, 42.9233536 ], [ -7.3594042, 42.9238853 ], [ -7.360083, 42.9241652 ], [ -7.364303, 42.9253692 ], [ -7.3679451, 42.9247999 ], [ -7.3686112, 42.92417 ], [ -7.3702224, 42.9230133 ], [ -7.3740253, 42.920519 ], [ -7.3775411, 42.9182095 ], [ -7.3800055, 42.9167406 ], [ -7.3858554, 42.9132392 ], [ -7.3870006, 42.9125439 ], [ -7.3867267, 42.9122429 ], [ -7.3817453, 42.9087867 ], [ -7.3808949, 42.9085135 ], [ -7.3727779, 42.9050665 ], [ -7.3752709, 42.9024905 ], [ -7.3861272, 42.8962504 ], [ -7.3908516, 42.8935524 ], [ -7.3946024, 42.8924884 ], [ -7.3948816, 42.890223 ], [ -7.3952261, 42.8873282 ], [ -7.4057681, 42.8874035 ], [ -7.4094986, 42.8923451 ], [ -7.4164055, 42.8871008 ], [ -7.4173672, 42.8863667 ], [ -7.4175559, 42.8861712 ], [ -7.4174196, 42.8857551 ], [ -7.417805, 42.885049 ], [ -7.4187453, 42.883234 ], [ -7.4148719, 42.8781286 ], [ -7.4106492, 42.8756837 ], [ -7.4050392, 42.8667446 ], [ -7.4025621, 42.8664309 ], [ -7.3943143, 42.8677203 ], [ -7.3902969, 42.8668534 ], [ -7.3863531, 42.8655192 ], [ -7.384779, 42.8657541 ], [ -7.3880855, 42.8557149 ], [ -7.4054354, 42.8491016 ], [ -7.4056587, 42.8358825 ], [ -7.4041515, 42.8375286 ], [ -7.4038937, 42.837561 ], [ -7.4033404, 42.8376613 ], [ -7.40044, 42.8381521 ], [ -7.3991234, 42.8379627 ], [ -7.3988186, 42.8379224 ], [ -7.3923809, 42.8370307 ], [ -7.390426, 42.8373904 ], [ -7.3884341, 42.8377586 ], [ -7.3869052, 42.8377371 ], [ -7.3863423, 42.8377382 ], [ -7.3862208, 42.8367639 ], [ -7.3858867, 42.8359668 ], [ -7.384703, 42.8349054 ], [ -7.3843255, 42.8343688 ], [ -7.3837153, 42.8333696 ], [ -7.383401, 42.8332211 ], [ -7.3826001, 42.8320301 ], [ -7.3822971, 42.8300447 ], [ -7.3800827, 42.8300404 ], [ -7.3776724, 42.8300423 ], [ -7.3758812, 42.8335019 ], [ -7.3758717, 42.833862 ], [ -7.3737259, 42.838235 ], [ -7.3710474, 42.8409795 ], [ -7.3691986, 42.8428803 ], [ -7.3626534, 42.8404995 ], [ -7.3601368, 42.841265 ], [ -7.3547082, 42.8429341 ], [ -7.3561754, 42.8388308 ], [ -7.3581182, 42.8333925 ], [ -7.3589392, 42.831036 ], [ -7.3599055, 42.8282672 ], [ -7.3551094, 42.8264334 ], [ -7.3548437, 42.8263035 ], [ -7.3543605, 42.8260714 ], [ -7.3508432, 42.8244629 ], [ -7.3490475, 42.8266613 ], [ -7.3400398, 42.8295297 ], [ -7.3371003, 42.8319275 ], [ -7.3301314, 42.8344645 ], [ -7.3223682, 42.8428159 ], [ -7.3205531, 42.8452206 ], [ -7.3198673, 42.8483983 ], [ -7.3324517, 42.8500953 ], [ -7.3353828, 42.8530556 ], [ -7.3336585, 42.853913 ], [ -7.3331469, 42.8551843 ], [ -7.3320059, 42.8580133 ], [ -7.3265912, 42.8713159 ], [ -7.325638, 42.8757775 ], [ -7.3248672, 42.8793772 ], [ -7.3235088, 42.8856789 ], [ -7.3249798, 42.8887892 ], [ -7.3324056, 42.9045215 ], [ -7.3404444, 42.9062322 ], [ -7.3420506, 42.9061744 ], [ -7.3437938, 42.9078656 ], [ -7.3445762, 42.9088405 ], [ -7.3457966, 42.9108483 ], [ -7.3484872, 42.9133095 ], [ -7.3502216, 42.9167204 ], [ -7.35078, 42.9178361 ], [ -7.3494118, 42.9222738 ] ] ] } }
]
}
