{
"type": "FeatureCollection",
"name": "27024",
"features": [
{ "type": "Feature", "properties": { "CCAA": "12 - Galicia", "PROVINCIA": "27 - Lugo", "MUNICIPIO": "27024 - Incio, O", "COD_MUNICIPIO": "27024", "DISTRITO": "01", "SECCION": "2702401002", "V1_H": 80.06, "V1_M": 86.12, "V2_H": 80.10460866, "V2_M": 86.20761786, "V3_H": 80.17898723, "V3_M": 86.18020212 }, "geometry": { "type": "Polygon", "coordinates": [ [ [ -7.3833059, 42.699002 ], [ -7.3842748, 42.6995321 ], [ -7.3852881, 42.7000058 ], [ -7.3881346, 42.7037111 ], [ -7.3896616, 42.7055697 ], [ -7.3919205, 42.7088794 ], [ -7.3931198, 42.7106703 ], [ -7.4007265, 42.7088047 ], [ -7.4012164, 42.7087485 ], [ -7.4024607, 42.7087928 ], [ -7.4037791, 42.708334 ], [ -7.40425, 42.7090159 ], [ -7.4051315, 42.7079746 ], [ -7.4059962, 42.7071041 ], [ -7.4074366, 42.7061696 ], [ -7.4076351, 42.7060462 ], [ -7.4090832, 42.7052829 ], [ -7.4097743, 42.7049953 ], [ -7.4109647, 42.7047597 ], [ -7.4112222, 42.7042409 ], [ -7.4124705, 42.7031686 ], [ -7.4137386, 42.7022766 ], [ -7.4142643, 42.7017706 ], [ -7.4146864, 42.7014972 ], [ -7.4152261, 42.7013966 ], [ -7.4164194, 42.7005666 ], [ -7.422618, 42.7002289 ], [ -7.424623, 42.7001214 ], [ -7.4258824, 42.7000487 ], [ -7.4323093, 42.7022801 ], [ -7.4340942, 42.7026738 ], [ -7.4400614, 42.7037818 ], [ -7.4451131, 42.7048861 ], [ -7.4502184, 42.7058108 ], [ -7.4505946, 42.705906 ], [ -7.4553752, 42.7071233 ], [ -7.4572372, 42.7078688 ], [ -7.4578777, 42.7081386 ], [ -7.4581555, 42.7082594 ], [ -7.4584857, 42.7082368 ], [ -7.4656271, 42.7078193 ], [ -7.4665502, 42.7085161 ], [ -7.4707596, 42.7136245 ], [ -7.4714906, 42.7146878 ], [ -7.4717171, 42.7154113 ], [ -7.4802582, 42.7167136 ], [ -7.4815656, 42.7166859 ], [ -7.4827769, 42.7165939 ], [ -7.4931014, 42.7158837 ], [ -7.4936878, 42.7143605 ], [ -7.4941096, 42.7135825 ], [ -7.4942177, 42.7131517 ], [ -7.4966932, 42.7122837 ], [ -7.5005005, 42.7108747 ], [ -7.5058725, 42.7088826 ], [ -7.5061066, 42.7087956 ], [ -7.507277, 42.7083606 ], [ -7.508461, 42.7078717 ], [ -7.5100109, 42.7073966 ], [ -7.5115332, 42.7070562 ], [ -7.5123228, 42.7067152 ], [ -7.5112739, 42.7020638 ], [ -7.5111884, 42.7015584 ], [ -7.510917, 42.6955482 ], [ -7.5107552, 42.6926103 ], [ -7.5098048, 42.6904907 ], [ -7.5093223, 42.6902503 ], [ -7.5057407, 42.6889249 ], [ -7.5053792, 42.688731 ], [ -7.501906, 42.6869656 ], [ -7.4991, 42.6863976 ], [ -7.4978203, 42.6853001 ], [ -7.496887, 42.6845224 ], [ -7.4962987, 42.6841185 ], [ -7.4909944, 42.6813741 ], [ -7.4880308, 42.6802724 ], [ -7.4866811, 42.6790569 ], [ -7.4845063, 42.6771459 ], [ -7.4836793, 42.6765226 ], [ -7.4817207, 42.675263 ], [ -7.4809806, 42.675082 ], [ -7.4776762, 42.6744618 ], [ -7.4762666, 42.6742089 ], [ -7.4740777, 42.6723967 ], [ -7.4684567, 42.6726909 ], [ -7.4657918, 42.6718808 ], [ -7.4639807, 42.6696052 ], [ -7.4638028, 42.6693957 ], [ -7.4631156, 42.6690532 ], [ -7.4594987, 42.6672756 ], [ -7.4590139, 42.667143 ], [ -7.4554181, 42.6669775 ], [ -7.4543251, 42.6667646 ], [ -7.452126, 42.6658884 ], [ -7.4503072, 42.6654225 ], [ -7.4493667, 42.6649686 ], [ -7.4473667, 42.6629602 ], [ -7.4445505, 42.6609048 ], [ -7.4426316, 42.6595729 ], [ -7.4402521, 42.6576314 ], [ -7.4396937, 42.6570294 ], [ -7.4387556, 42.6555127 ], [ -7.4378069, 42.6544191 ], [ -7.43604, 42.6523868 ], [ -7.435687, 42.6518686 ], [ -7.4343234, 42.6478696 ], [ -7.4340393, 42.6470372 ], [ -7.4354954, 42.6458863 ], [ -7.4383811, 42.6441516 ], [ -7.4393564, 42.6436876 ], [ -7.4398305, 42.6432618 ], [ -7.4409829, 42.6415665 ], [ -7.4427956, 42.6393127 ], [ -7.4430983, 42.6389116 ], [ -7.442907, 42.6377833 ], [ -7.4427666, 42.6370519 ], [ -7.4426083, 42.6365545 ], [ -7.4391965, 42.6330049 ], [ -7.4369407, 42.6310379 ], [ -7.4352151, 42.6293303 ], [ -7.4346243, 42.6290611 ], [ -7.4340174, 42.6289447 ], [ -7.4317104, 42.6290302 ], [ -7.430687, 42.6289892 ], [ -7.4285123, 42.6286622 ], [ -7.4207036, 42.6283297 ], [ -7.419746, 42.6281003 ], [ -7.4188972, 42.6279085 ], [ -7.415248, 42.6275428 ], [ -7.4130204, 42.6297814 ], [ -7.4128318, 42.6300039 ], [ -7.4118012, 42.6312054 ], [ -7.4059462, 42.6345912 ], [ -7.4047813, 42.6353134 ], [ -7.4008113, 42.6388873 ], [ -7.4005041, 42.6399276 ], [ -7.4003657, 42.6415197 ], [ -7.39645, 42.6467511 ], [ -7.3950528, 42.647479 ], [ -7.3932935, 42.6480577 ], [ -7.3917518, 42.6487115 ], [ -7.3901413, 42.6491932 ], [ -7.3866425, 42.6500445 ], [ -7.3825457, 42.6518418 ], [ -7.3788452, 42.6519966 ], [ -7.3780302, 42.6561276 ], [ -7.3788088, 42.6585611 ], [ -7.3844506, 42.6583707 ], [ -7.388273, 42.6615404 ], [ -7.3926576, 42.661377 ], [ -7.394348, 42.6634899 ], [ -7.3992719, 42.6694215 ], [ -7.3987297, 42.672953 ], [ -7.4047905, 42.6721731 ], [ -7.4075833, 42.6727253 ], [ -7.4101345, 42.6750932 ], [ -7.4126542, 42.6796669 ], [ -7.4115994, 42.6809242 ], [ -7.4053121, 42.6831993 ], [ -7.4019789, 42.683787 ], [ -7.3948689, 42.6868664 ], [ -7.3963928, 42.6912104 ], [ -7.3974776, 42.6911414 ], [ -7.3950561, 42.6943902 ], [ -7.3833059, 42.699002 ] ] ] } },
{ "type": "Feature", "properties": { "CCAA": "12 - Galicia", "PROVINCIA": "27 - Lugo", "MUNICIPIO": "27024 - Incio, O", "COD_MUNICIPIO": "27024", "DISTRITO": "01", "SECCION": "2702401001", "V1_H": 80.34, "V1_M": 85.99, "V2_H": 80.22806877, "V2_M": 85.94669411, "V3_H": 80.64200885, "V3_M": 86.09540763 }, "geometry": { "type": "Polygon", "coordinates": [ [ [ -7.2856251, 42.6081059 ], [ -7.2836903, 42.6101932 ], [ -7.2886791, 42.6114385 ], [ -7.2920548, 42.613272 ], [ -7.2899666, 42.6169601 ], [ -7.2877466, 42.6187731 ], [ -7.2856235, 42.6197139 ], [ -7.2844835, 42.6208225 ], [ -7.2836978, 42.6201263 ], [ -7.2832272, 42.6199482 ], [ -7.2825836, 42.6198485 ], [ -7.2819961, 42.6199297 ], [ -7.2801602, 42.6206226 ], [ -7.278824, 42.6213229 ], [ -7.2779477, 42.621706 ], [ -7.2735311, 42.6244402 ], [ -7.2729244, 42.6256558 ], [ -7.2726846, 42.6259494 ], [ -7.2721878, 42.6262751 ], [ -7.2719121, 42.6265411 ], [ -7.2718176, 42.6268728 ], [ -7.2717039, 42.6278978 ], [ -7.2714715, 42.6283626 ], [ -7.2710722, 42.6286897 ], [ -7.2711823, 42.6357246 ], [ -7.2738401, 42.6459049 ], [ -7.2725206, 42.6490639 ], [ -7.2723123, 42.6499793 ], [ -7.2720325, 42.6508306 ], [ -7.2714658, 42.6519117 ], [ -7.2692743, 42.6570297 ], [ -7.26981, 42.6579473 ], [ -7.2713758, 42.661321 ], [ -7.2721921, 42.6640079 ], [ -7.2730389, 42.6660379 ], [ -7.2730555, 42.6667586 ], [ -7.2709743, 42.6692037 ], [ -7.2718851, 42.6693615 ], [ -7.2742914, 42.6701633 ], [ -7.2749541, 42.6704704 ], [ -7.2759351, 42.6716199 ], [ -7.2754492, 42.6733056 ], [ -7.2753466, 42.6756905 ], [ -7.2751546, 42.6764531 ], [ -7.2743584, 42.6778819 ], [ -7.2736617, 42.678799 ], [ -7.27321, 42.6792424 ], [ -7.2729307, 42.6796345 ], [ -7.2727345, 42.6801088 ], [ -7.2717883, 42.6803376 ], [ -7.2717704, 42.6805445 ], [ -7.2715414, 42.6826393 ], [ -7.271742, 42.683768 ], [ -7.2720047, 42.6844204 ], [ -7.2726899, 42.6852412 ], [ -7.2740003, 42.6864046 ], [ -7.2733243, 42.6900956 ], [ -7.2758023, 42.691862 ], [ -7.2761495, 42.6921104 ], [ -7.2776058, 42.693303 ], [ -7.2776454, 42.6936368 ], [ -7.2773087, 42.6947754 ], [ -7.2768206, 42.6956506 ], [ -7.2762351, 42.6969566 ], [ -7.2762657, 42.6971732 ], [ -7.2765116, 42.6975551 ], [ -7.2771467, 42.6988704 ], [ -7.2772383, 42.699088 ], [ -7.2775008, 42.7001906 ], [ -7.273997, 42.7006241 ], [ -7.2730884, 42.7008085 ], [ -7.268887, 42.7026181 ], [ -7.2734999, 42.7084242 ], [ -7.2766199, 42.7077598 ], [ -7.2770005, 42.7076845 ], [ -7.2828457, 42.7109152 ], [ -7.2900655, 42.7108072 ], [ -7.3004937, 42.7117099 ], [ -7.3071669, 42.7168879 ], [ -7.3104316, 42.7194396 ], [ -7.3118121, 42.7221255 ], [ -7.3132977, 42.7249931 ], [ -7.3216889, 42.720911 ], [ -7.3230417, 42.7205616 ], [ -7.3323978, 42.7191674 ], [ -7.3326553, 42.7191261 ], [ -7.3331336, 42.719052 ], [ -7.3423544, 42.717673 ], [ -7.3481861, 42.7151368 ], [ -7.3480342, 42.712577 ], [ -7.3480648, 42.711884 ], [ -7.3482378, 42.7113462 ], [ -7.3508512, 42.7071874 ], [ -7.3512884, 42.7063562 ], [ -7.3543737, 42.7041943 ], [ -7.3556426, 42.703303 ], [ -7.3590509, 42.7009204 ], [ -7.3597802, 42.7005796 ], [ -7.3616303, 42.6998677 ], [ -7.3630912, 42.6995644 ], [ -7.3664611, 42.6995585 ], [ -7.3673802, 42.6994275 ], [ -7.3693289, 42.6996084 ], [ -7.3703306, 42.6995866 ], [ -7.371591, 42.6994785 ], [ -7.3734221, 42.6990183 ], [ -7.3821802, 42.6983859 ], [ -7.3833059, 42.699002 ], [ -7.3950561, 42.6943902 ], [ -7.3974776, 42.6911414 ], [ -7.3963928, 42.6912104 ], [ -7.3948689, 42.6868664 ], [ -7.4019789, 42.683787 ], [ -7.4053121, 42.6831993 ], [ -7.4115994, 42.6809242 ], [ -7.4126542, 42.6796669 ], [ -7.4101345, 42.6750932 ], [ -7.4075833, 42.6727253 ], [ -7.4047905, 42.6721731 ], [ -7.3987297, 42.672953 ], [ -7.3992719, 42.6694215 ], [ -7.394348, 42.6634899 ], [ -7.3926576, 42.661377 ], [ -7.388273, 42.6615404 ], [ -7.3844506, 42.6583707 ], [ -7.3788088, 42.6585611 ], [ -7.3780302, 42.6561276 ], [ -7.3788452, 42.6519966 ], [ -7.3770253, 42.6520789 ], [ -7.377062, 42.6511338 ], [ -7.3773525, 42.6493458 ], [ -7.3757097, 42.6473143 ], [ -7.3736395, 42.6443671 ], [ -7.3726505, 42.642534 ], [ -7.3719935, 42.6410657 ], [ -7.3712914, 42.6380569 ], [ -7.371463, 42.637555 ], [ -7.3716208, 42.637116 ], [ -7.3723404, 42.6357124 ], [ -7.3704267, 42.6333347 ], [ -7.368841, 42.631475 ], [ -7.3680892, 42.6308429 ], [ -7.368164, 42.6303127 ], [ -7.3684299, 42.6294699 ], [ -7.368787, 42.6288716 ], [ -7.3692411, 42.6282927 ], [ -7.3702381, 42.6274784 ], [ -7.3670975, 42.626326 ], [ -7.3654578, 42.6256092 ], [ -7.3640679, 42.6251301 ], [ -7.3621634, 42.6242833 ], [ -7.3611224, 42.6239893 ], [ -7.3606405, 42.6237662 ], [ -7.3602088, 42.6234899 ], [ -7.3599711, 42.6232524 ], [ -7.3596374, 42.6229594 ], [ -7.3587863, 42.6223979 ], [ -7.3569445, 42.6219572 ], [ -7.3561956, 42.6216853 ], [ -7.3556912, 42.6213898 ], [ -7.3543866, 42.6204615 ], [ -7.3538834, 42.6201211 ], [ -7.3514415, 42.6179336 ], [ -7.3503997, 42.6176755 ], [ -7.348276, 42.6172937 ], [ -7.3458782, 42.6166737 ], [ -7.3447538, 42.6163153 ], [ -7.343135, 42.6166701 ], [ -7.3393614, 42.6173539 ], [ -7.3382123, 42.6174633 ], [ -7.3372784, 42.6177379 ], [ -7.3351972, 42.6185091 ], [ -7.3345407, 42.6188958 ], [ -7.3337194, 42.6195143 ], [ -7.3320617, 42.6199494 ], [ -7.3311956, 42.6199638 ], [ -7.3296254, 42.6198599 ], [ -7.3289168, 42.6199126 ], [ -7.3281921, 42.6201092 ], [ -7.3269822, 42.6206678 ], [ -7.3260484, 42.6209334 ], [ -7.3215675, 42.6220565 ], [ -7.320589, 42.6221682 ], [ -7.3177031, 42.6233776 ], [ -7.3165849, 42.6236944 ], [ -7.3150028, 42.6240314 ], [ -7.3121204, 42.624196 ], [ -7.3106487, 42.6240572 ], [ -7.3081704, 42.6237145 ], [ -7.3071674, 42.6233755 ], [ -7.3050422, 42.6221553 ], [ -7.303037, 42.6210089 ], [ -7.3006138, 42.6195411 ], [ -7.2986431, 42.6184762 ], [ -7.2974081, 42.6177104 ], [ -7.29462, 42.6153275 ], [ -7.2936165, 42.6141238 ], [ -7.2931077, 42.6126664 ], [ -7.2928158, 42.6113022 ], [ -7.2928557, 42.6107354 ], [ -7.2926561, 42.6104533 ], [ -7.2911074, 42.6095747 ], [ -7.2896085, 42.6086607 ], [ -7.288771, 42.6080809 ], [ -7.2856251, 42.6081059 ] ] ] } }
]
}
