{
"type": "FeatureCollection",
"name": "27044",
"features": [
{ "type": "Feature", "properties": { "CCAA": "12 - Galicia", "PROVINCIA": "27 - Lugo", "MUNICIPIO": "27044 - Pastoriza, A", "COD_MUNICIPIO": "27044", "DISTRITO": "01", "SECCION": "2704401002", "V1_H": 79.92, "V1_M": 85.8, "V2_H": 79.90391364, "V2_M": 85.68196434, "V3_H": 80.09820982, "V3_M": 86.14356104 }, "geometry": { "type": "Polygon", "coordinates": [ [ [ -7.3535878, 43.3791866 ], [ -7.3543703, 43.379468 ], [ -7.356032, 43.3801042 ], [ -7.3565463, 43.3807148 ], [ -7.359647, 43.3820109 ], [ -7.3636754, 43.3837074 ], [ -7.3663355, 43.3853302 ], [ -7.3669724, 43.3855194 ], [ -7.3675023, 43.3855539 ], [ -7.3682566, 43.3855107 ], [ -7.3691507, 43.3853163 ], [ -7.3712837, 43.3840411 ], [ -7.3719635, 43.3835465 ], [ -7.3745796, 43.382206 ], [ -7.37631, 43.3812041 ], [ -7.3776929, 43.3802693 ], [ -7.3778029, 43.380149 ], [ -7.3783922, 43.3795049 ], [ -7.3807316, 43.3764856 ], [ -7.3822482, 43.3742289 ], [ -7.3845681, 43.3705339 ], [ -7.3932238, 43.3666669 ], [ -7.3941841, 43.365825 ], [ -7.3986713, 43.3617999 ], [ -7.4008327, 43.3598582 ], [ -7.4020431, 43.3584074 ], [ -7.4021833, 43.3582383 ], [ -7.4029734, 43.3572858 ], [ -7.409624, 43.3544791 ], [ -7.4144699, 43.3531957 ], [ -7.4175638, 43.3523741 ], [ -7.4192011, 43.3515683 ], [ -7.419726, 43.3513145 ], [ -7.4271318, 43.3497867 ], [ -7.4413844, 43.3468393 ], [ -7.4435616, 43.3464348 ], [ -7.4439134, 43.3463694 ], [ -7.4463601, 43.3459736 ], [ -7.4477771, 43.3457834 ], [ -7.448772, 43.3455555 ], [ -7.4511271, 43.3452026 ], [ -7.4539875, 43.3446768 ], [ -7.4566657, 43.3440231 ], [ -7.4510064, 43.3391753 ], [ -7.4495996, 43.3378705 ], [ -7.4495905, 43.3378621 ], [ -7.4493766, 43.3376363 ], [ -7.445313, 43.3336803 ], [ -7.4454694, 43.3334581 ], [ -7.4454164, 43.3334062 ], [ -7.4412193, 43.3294732 ], [ -7.4412333, 43.3229095 ], [ -7.4369635, 43.3172866 ], [ -7.4410147, 43.3158596 ], [ -7.443036, 43.3121347 ], [ -7.4431674, 43.3093747 ], [ -7.4444106, 43.3061812 ], [ -7.4446727, 43.3055078 ], [ -7.4466629, 43.3035576 ], [ -7.4494596, 43.2937523 ], [ -7.4499098, 43.288612 ], [ -7.4494509, 43.2831741 ], [ -7.4493225, 43.2788846 ], [ -7.4490952, 43.2762553 ], [ -7.4487664, 43.2724511 ], [ -7.4485121, 43.2696373 ], [ -7.4481368, 43.269628 ], [ -7.4462521, 43.2696025 ], [ -7.4446382, 43.2695896 ], [ -7.4433975, 43.2694376 ], [ -7.4398289, 43.2702084 ], [ -7.4378727, 43.2705689 ], [ -7.4332134, 43.2710996 ], [ -7.4294671, 43.2701477 ], [ -7.4267245, 43.2694618 ], [ -7.4243412, 43.2686996 ], [ -7.422603, 43.2682524 ], [ -7.4204817, 43.267845 ], [ -7.413284, 43.2660075 ], [ -7.4138098, 43.2685361 ], [ -7.4153935, 43.2739877 ], [ -7.4153963, 43.274357 ], [ -7.415014, 43.2757924 ], [ -7.4139414, 43.2781817 ], [ -7.4128576, 43.2786259 ], [ -7.4118582, 43.2791433 ], [ -7.4073507, 43.2827995 ], [ -7.4059216, 43.2823024 ], [ -7.4050203, 43.2818936 ], [ -7.4026836, 43.2802853 ], [ -7.4011619, 43.2790934 ], [ -7.4020718, 43.2787009 ], [ -7.4026133, 43.27779 ], [ -7.4032448, 43.2772045 ], [ -7.4033414, 43.2768097 ], [ -7.4027982, 43.2759017 ], [ -7.4031217, 43.2753119 ], [ -7.402822, 43.2749926 ], [ -7.4018825, 43.2751055 ], [ -7.4018836, 43.2745923 ], [ -7.4021765, 43.2737589 ], [ -7.40263, 43.2729098 ], [ -7.4026005, 43.2726213 ], [ -7.401756, 43.2724024 ], [ -7.4015503, 43.2717872 ], [ -7.4011847, 43.271629 ], [ -7.4001362, 43.2712002 ], [ -7.3993603, 43.2707121 ], [ -7.3985418, 43.2699712 ], [ -7.3980066, 43.2692344 ], [ -7.3967432, 43.2680731 ], [ -7.3957127, 43.2669602 ], [ -7.3944807, 43.2660154 ], [ -7.393811, 43.2666453 ], [ -7.3916247, 43.2659123 ], [ -7.3904186, 43.2658593 ], [ -7.387008, 43.2638933 ], [ -7.3843531, 43.2650445 ], [ -7.384125, 43.2652843 ], [ -7.384272, 43.2662499 ], [ -7.3827064, 43.266741 ], [ -7.3824974, 43.2671883 ], [ -7.3826489, 43.2679829 ], [ -7.3829319, 43.2684641 ], [ -7.3834248, 43.2689303 ], [ -7.3839517, 43.2699733 ], [ -7.3845292, 43.2705037 ], [ -7.3871293, 43.2719 ], [ -7.3871336, 43.2722062 ], [ -7.3858555, 43.2725394 ], [ -7.3854006, 43.2729652 ], [ -7.3853523, 43.2733967 ], [ -7.3860747, 43.2740372 ], [ -7.386575, 43.2746926 ], [ -7.3871444, 43.2759973 ], [ -7.3873386, 43.2770445 ], [ -7.3872481, 43.2776735 ], [ -7.3870687, 43.2779321 ], [ -7.3864847, 43.278113 ], [ -7.3855971, 43.2785867 ], [ -7.3849742, 43.2793073 ], [ -7.3849568, 43.2799644 ], [ -7.3854377, 43.2804214 ], [ -7.3837013, 43.2817656 ], [ -7.3826953, 43.2829849 ], [ -7.3825856, 43.2843341 ], [ -7.382913, 43.285005 ], [ -7.3822375, 43.2863101 ], [ -7.3833783, 43.2883792 ], [ -7.3828611, 43.2892904 ], [ -7.3827362, 43.2898199 ], [ -7.3815113, 43.2913874 ], [ -7.3815986, 43.2918118 ], [ -7.3818517, 43.2920315 ], [ -7.3819789, 43.2923484 ], [ -7.3817762, 43.2925527 ], [ -7.3805553, 43.2925714 ], [ -7.3803308, 43.2931355 ], [ -7.3807081, 43.2942484 ], [ -7.382319, 43.2971886 ], [ -7.3824262, 43.2987299 ], [ -7.3821468, 43.300896 ], [ -7.3815185, 43.3018056 ], [ -7.3807809, 43.3021913 ], [ -7.3798644, 43.3023494 ], [ -7.3792005, 43.302277 ], [ -7.3778961, 43.3017183 ], [ -7.3775127, 43.3017669 ], [ -7.3765346, 43.3025909 ], [ -7.3750828, 43.30266 ], [ -7.3728038, 43.3032619 ], [ -7.3722843, 43.3037486 ], [ -7.372251, 43.3040119 ], [ -7.3722477, 43.3052811 ], [ -7.3721908, 43.305302 ], [ -7.3712126, 43.3054592 ], [ -7.3688739, 43.3053088 ], [ -7.3682026, 43.3050561 ], [ -7.3660555, 43.3037379 ], [ -7.3657249, 43.3036521 ], [ -7.3649688, 43.3038034 ], [ -7.3643071, 43.3041091 ], [ -7.3580854, 43.3057668 ], [ -7.3563166, 43.3064347 ], [ -7.3548892, 43.3072426 ], [ -7.3540741, 43.3082034 ], [ -7.3532278, 43.309866 ], [ -7.3563649, 43.3119642 ], [ -7.3587022, 43.3140057 ], [ -7.3596695, 43.3151811 ], [ -7.3599556, 43.3160046 ], [ -7.3597767, 43.3171546 ], [ -7.3591035, 43.3188018 ], [ -7.3575241, 43.3211202 ], [ -7.3553808, 43.3246822 ], [ -7.3558207, 43.325751 ], [ -7.3554379, 43.3262227 ], [ -7.3543838, 43.3268919 ], [ -7.3514013, 43.3281727 ], [ -7.3498443, 43.3310136 ], [ -7.3491358, 43.3316697 ], [ -7.3466875, 43.3332551 ], [ -7.3464402, 43.3337288 ], [ -7.346841, 43.3348691 ], [ -7.3465832, 43.3352796 ], [ -7.3465831, 43.3357388 ], [ -7.3467798, 43.3362189 ], [ -7.3473519, 43.3369565 ], [ -7.3492107, 43.338469 ], [ -7.3499934, 43.3396329 ], [ -7.3506139, 43.3408664 ], [ -7.3512297, 43.3413615 ], [ -7.3521995, 43.3415376 ], [ -7.3542406, 43.3417921 ], [ -7.3556999, 43.34166 ], [ -7.3569552, 43.3413179 ], [ -7.3591521, 43.3399087 ], [ -7.3602625, 43.3389881 ], [ -7.361111, 43.3386311 ], [ -7.3621278, 43.3384386 ], [ -7.3648746, 43.3385949 ], [ -7.3675084, 43.338548 ], [ -7.367928, 43.3379617 ], [ -7.3678948, 43.3378629 ], [ -7.3683916, 43.3374199 ], [ -7.3699762, 43.339154 ], [ -7.3710104, 43.3393488 ], [ -7.372364, 43.3394761 ], [ -7.3729487, 43.3397545 ], [ -7.3728285, 43.3410225 ], [ -7.3724677, 43.3420618 ], [ -7.3722537, 43.3436075 ], [ -7.3722875, 43.3446525 ], [ -7.372091, 43.3455411 ], [ -7.3691359, 43.3480833 ], [ -7.3653442, 43.3505234 ], [ -7.3643587, 43.351842 ], [ -7.3612605, 43.3555524 ], [ -7.3587411, 43.3579205 ], [ -7.3569891, 43.3606506 ], [ -7.3560813, 43.3627356 ], [ -7.3560202, 43.3640854 ], [ -7.3563831, 43.3652701 ], [ -7.3572137, 43.3665066 ], [ -7.3587586, 43.3682576 ], [ -7.3596028, 43.3694493 ], [ -7.3596931, 43.370225 ], [ -7.3556716, 43.3756239 ], [ -7.3535878, 43.3791866 ] ] ] } },
{ "type": "Feature", "properties": { "CCAA": "12 - Galicia", "PROVINCIA": "27 - Lugo", "MUNICIPIO": "27044 - Pastoriza, A", "COD_MUNICIPIO": "27044", "DISTRITO": "01", "SECCION": "2704401001", "V1_H": 80.39, "V1_M": 86.24, "V2_H": 80.20629068, "V2_M": 86.34105578, "V3_H": 80.66489809, "V3_M": 86.38520791000001 }, "geometry": { "type": "Polygon", "coordinates": [ [ [ -7.3197579, 43.3758043 ], [ -7.3200547, 43.3748903 ], [ -7.320725, 43.3734144 ], [ -7.3211234, 43.3728439 ], [ -7.3226388, 43.3711554 ], [ -7.3242447, 43.3688648 ], [ -7.3257646, 43.3696974 ], [ -7.3269707, 43.3702734 ], [ -7.3294292, 43.3710926 ], [ -7.3310025, 43.3708815 ], [ -7.3317857, 43.371127 ], [ -7.3326507, 43.3715448 ], [ -7.3332014, 43.371715 ], [ -7.3339578, 43.3715909 ], [ -7.3343047, 43.3715419 ], [ -7.3353612, 43.3726288 ], [ -7.3348652, 43.3731619 ], [ -7.3360969, 43.3732608 ], [ -7.3358876, 43.37369 ], [ -7.3354682, 43.3741341 ], [ -7.3349991, 43.3750367 ], [ -7.3349767, 43.376306 ], [ -7.3347626, 43.3769152 ], [ -7.3350809, 43.37746 ], [ -7.335614, 43.377828 ], [ -7.336004, 43.3780138 ], [ -7.335951, 43.3785982 ], [ -7.3359693, 43.3788326 ], [ -7.336339, 43.3793062 ], [ -7.3364192, 43.3795325 ], [ -7.3363699, 43.379982 ], [ -7.3365368, 43.3802005 ], [ -7.3368159, 43.3803757 ], [ -7.3372192, 43.3805256 ], [ -7.3376508, 43.3805409 ], [ -7.3400443, 43.3801434 ], [ -7.3418644, 43.3799447 ], [ -7.3422798, 43.3801038 ], [ -7.3426741, 43.3810369 ], [ -7.3430369, 43.3813124 ], [ -7.3435409, 43.3813917 ], [ -7.3445079, 43.3812436 ], [ -7.3452083, 43.3813618 ], [ -7.3458577, 43.3815423 ], [ -7.3497906, 43.3799153 ], [ -7.3507007, 43.3795862 ], [ -7.3515829, 43.3793738 ], [ -7.3525108, 43.3792971 ], [ -7.3531073, 43.3791527 ], [ -7.3535878, 43.3791866 ], [ -7.3556716, 43.3756239 ], [ -7.3596931, 43.370225 ], [ -7.3596028, 43.3694493 ], [ -7.3587586, 43.3682576 ], [ -7.3572137, 43.3665066 ], [ -7.3563831, 43.3652701 ], [ -7.3560202, 43.3640854 ], [ -7.3560813, 43.3627356 ], [ -7.3569891, 43.3606506 ], [ -7.3587411, 43.3579205 ], [ -7.3612605, 43.3555524 ], [ -7.3643587, 43.351842 ], [ -7.3653442, 43.3505234 ], [ -7.3691359, 43.3480833 ], [ -7.372091, 43.3455411 ], [ -7.3722875, 43.3446525 ], [ -7.3722537, 43.3436075 ], [ -7.3724677, 43.3420618 ], [ -7.3728285, 43.3410225 ], [ -7.3729487, 43.3397545 ], [ -7.372364, 43.3394761 ], [ -7.3710104, 43.3393488 ], [ -7.3699762, 43.339154 ], [ -7.3683916, 43.3374199 ], [ -7.3678948, 43.3378629 ], [ -7.367928, 43.3379617 ], [ -7.3675084, 43.338548 ], [ -7.3648746, 43.3385949 ], [ -7.3621278, 43.3384386 ], [ -7.361111, 43.3386311 ], [ -7.3602625, 43.3389881 ], [ -7.3591521, 43.3399087 ], [ -7.3569552, 43.3413179 ], [ -7.3556999, 43.34166 ], [ -7.3542406, 43.3417921 ], [ -7.3521995, 43.3415376 ], [ -7.3512297, 43.3413615 ], [ -7.3506139, 43.3408664 ], [ -7.3499934, 43.3396329 ], [ -7.3492107, 43.338469 ], [ -7.3473519, 43.3369565 ], [ -7.3467798, 43.3362189 ], [ -7.3465831, 43.3357388 ], [ -7.3465832, 43.3352796 ], [ -7.346841, 43.3348691 ], [ -7.3464402, 43.3337288 ], [ -7.3466875, 43.3332551 ], [ -7.3491358, 43.3316697 ], [ -7.3498443, 43.3310136 ], [ -7.3514013, 43.3281727 ], [ -7.3543838, 43.3268919 ], [ -7.3554379, 43.3262227 ], [ -7.3558207, 43.325751 ], [ -7.3553808, 43.3246822 ], [ -7.3575241, 43.3211202 ], [ -7.3591035, 43.3188018 ], [ -7.3597767, 43.3171546 ], [ -7.3599556, 43.3160046 ], [ -7.3596695, 43.3151811 ], [ -7.3587022, 43.3140057 ], [ -7.3563649, 43.3119642 ], [ -7.3532278, 43.309866 ], [ -7.3540741, 43.3082034 ], [ -7.3548892, 43.3072426 ], [ -7.3563166, 43.3064347 ], [ -7.3580854, 43.3057668 ], [ -7.3643071, 43.3041091 ], [ -7.3649688, 43.3038034 ], [ -7.3657249, 43.3036521 ], [ -7.3660555, 43.3037379 ], [ -7.3682026, 43.3050561 ], [ -7.3688739, 43.3053088 ], [ -7.3712126, 43.3054592 ], [ -7.3721908, 43.305302 ], [ -7.3722477, 43.3052811 ], [ -7.372251, 43.3040119 ], [ -7.3722843, 43.3037486 ], [ -7.3728038, 43.3032619 ], [ -7.3750828, 43.30266 ], [ -7.3765346, 43.3025909 ], [ -7.3775127, 43.3017669 ], [ -7.3778961, 43.3017183 ], [ -7.3792005, 43.302277 ], [ -7.3798644, 43.3023494 ], [ -7.3807809, 43.3021913 ], [ -7.3815185, 43.3018056 ], [ -7.3821468, 43.300896 ], [ -7.3824262, 43.2987299 ], [ -7.382319, 43.2971886 ], [ -7.3807081, 43.2942484 ], [ -7.3803308, 43.2931355 ], [ -7.3805553, 43.2925714 ], [ -7.3817762, 43.2925527 ], [ -7.3819789, 43.2923484 ], [ -7.3818517, 43.2920315 ], [ -7.3815986, 43.2918118 ], [ -7.3815113, 43.2913874 ], [ -7.3827362, 43.2898199 ], [ -7.3828611, 43.2892904 ], [ -7.3833783, 43.2883792 ], [ -7.3822375, 43.2863101 ], [ -7.382913, 43.285005 ], [ -7.3825856, 43.2843341 ], [ -7.3826953, 43.2829849 ], [ -7.3837013, 43.2817656 ], [ -7.3854377, 43.2804214 ], [ -7.3849568, 43.2799644 ], [ -7.3849742, 43.2793073 ], [ -7.3855971, 43.2785867 ], [ -7.3864847, 43.278113 ], [ -7.3870687, 43.2779321 ], [ -7.3872481, 43.2776735 ], [ -7.3873386, 43.2770445 ], [ -7.3871444, 43.2759973 ], [ -7.386575, 43.2746926 ], [ -7.3860747, 43.2740372 ], [ -7.3853523, 43.2733967 ], [ -7.3854006, 43.2729652 ], [ -7.3858555, 43.2725394 ], [ -7.3871336, 43.2722062 ], [ -7.3871293, 43.2719 ], [ -7.3845292, 43.2705037 ], [ -7.3839517, 43.2699733 ], [ -7.3834248, 43.2689303 ], [ -7.3829319, 43.2684641 ], [ -7.3826489, 43.2679829 ], [ -7.3824974, 43.2671883 ], [ -7.3827064, 43.266741 ], [ -7.384272, 43.2662499 ], [ -7.384125, 43.2652843 ], [ -7.3843531, 43.2650445 ], [ -7.387008, 43.2638933 ], [ -7.3858443, 43.264102 ], [ -7.385035, 43.2634873 ], [ -7.3834112, 43.2643198 ], [ -7.3829391, 43.2644662 ], [ -7.3823482, 43.2644489 ], [ -7.3813012, 43.2644341 ], [ -7.3805451, 43.2646035 ], [ -7.3796741, 43.2649243 ], [ -7.3789116, 43.2653367 ], [ -7.3761984, 43.2654243 ], [ -7.3753621, 43.2653674 ], [ -7.3748753, 43.2656036 ], [ -7.3742259, 43.2659275 ], [ -7.3732787, 43.265869 ], [ -7.3713882, 43.2665265 ], [ -7.3697644, 43.2627305 ], [ -7.3693782, 43.2619686 ], [ -7.3689639, 43.2613324 ], [ -7.3680341, 43.2606258 ], [ -7.3674785, 43.2597445 ], [ -7.3666159, 43.2592909 ], [ -7.3651653, 43.2587119 ], [ -7.3626765, 43.2582531 ], [ -7.3604244, 43.2572394 ], [ -7.3587733, 43.2563333 ], [ -7.3580013, 43.2561781 ], [ -7.3574546, 43.2563504 ], [ -7.3569528, 43.2571446 ], [ -7.3564574, 43.2586142 ], [ -7.3558814, 43.2589571 ], [ -7.3539852, 43.2593711 ], [ -7.3532632, 43.2596488 ], [ -7.3525961, 43.2601705 ], [ -7.352271, 43.2608051 ], [ -7.3524422, 43.2631397 ], [ -7.352103, 43.2638372 ], [ -7.3525642, 43.2645552 ], [ -7.3524465, 43.2648056 ], [ -7.3506135, 43.2651574 ], [ -7.3483408, 43.2653588 ], [ -7.3458681, 43.265215 ], [ -7.3437358, 43.2652381 ], [ -7.3419142, 43.265617 ], [ -7.3407847, 43.266375 ], [ -7.3381521, 43.2693893 ], [ -7.3356209, 43.2718377 ], [ -7.3334235, 43.2742369 ], [ -7.3326792, 43.2766753 ], [ -7.3324669, 43.2781309 ], [ -7.3325108, 43.2787799 ], [ -7.3331143, 43.2796981 ], [ -7.3338688, 43.2805015 ], [ -7.3339167, 43.2810064 ], [ -7.3330373, 43.2816149 ], [ -7.3328449, 43.2818913 ], [ -7.3327272, 43.2825919 ], [ -7.3315154, 43.2827363 ], [ -7.3307163, 43.2831119 ], [ -7.3296055, 43.2831677 ], [ -7.3289333, 43.2829598 ], [ -7.3287098, 43.2825693 ], [ -7.3282815, 43.282455 ], [ -7.3274369, 43.2826948 ], [ -7.3265261, 43.2826454 ], [ -7.3257825, 43.2823464 ], [ -7.3233656, 43.2787993 ], [ -7.3222817, 43.2765323 ], [ -7.3211593, 43.2756694 ], [ -7.3184256, 43.2746928 ], [ -7.3173836, 43.2740472 ], [ -7.3166609, 43.272992 ], [ -7.3154473, 43.2732083 ], [ -7.3144983, 43.2732123 ], [ -7.3130396, 43.2729297 ], [ -7.3120353, 43.2735992 ], [ -7.3116381, 43.2737014 ], [ -7.309751, 43.2733134 ], [ -7.3072563, 43.2726192 ], [ -7.3065421, 43.2725996 ], [ -7.3055381, 43.2728098 ], [ -7.3042086, 43.2732043 ], [ -7.3026747, 43.2742982 ], [ -7.3012721, 43.2755469 ], [ -7.3002594, 43.2769546 ], [ -7.3012705, 43.2782663 ], [ -7.3024175, 43.2791207 ], [ -7.3042603, 43.2802196 ], [ -7.3052071, 43.2811881 ], [ -7.305552, 43.2825258 ], [ -7.3055558, 43.2850561 ], [ -7.3058342, 43.2879056 ], [ -7.3057701, 43.288436 ], [ -7.3055155, 43.2887293 ], [ -7.3039875, 43.2895981 ], [ -7.3034296, 43.2901571 ], [ -7.3031074, 43.2911068 ], [ -7.3033224, 43.2926858 ], [ -7.3032252, 43.2935218 ], [ -7.3028795, 43.2944261 ], [ -7.302049, 43.2954763 ], [ -7.3033741, 43.2961443 ], [ -7.3043389, 43.2964737 ], [ -7.305371, 43.2961558 ], [ -7.306624, 43.2967597 ], [ -7.3080545, 43.297186 ], [ -7.3082965, 43.2982431 ], [ -7.3085712, 43.2994538 ], [ -7.3078182, 43.2999289 ], [ -7.3073974, 43.3008771 ], [ -7.3073437, 43.3014796 ], [ -7.3074063, 43.302336 ], [ -7.307341, 43.3029113 ], [ -7.3069324, 43.3034185 ], [ -7.306516, 43.3037635 ], [ -7.3066634, 43.3042249 ], [ -7.307189, 43.304836 ], [ -7.3073646, 43.3051717 ], [ -7.3072437, 43.3055301 ], [ -7.3069032, 43.3058042 ], [ -7.3061331, 43.3060089 ], [ -7.3057314, 43.3062641 ], [ -7.3054983, 43.3066658 ], [ -7.3054798, 43.3068907 ], [ -7.3048611, 43.3074128 ], [ -7.3047663, 43.3077175 ], [ -7.3054356, 43.308925 ], [ -7.3054571, 43.3094836 ], [ -7.3049064, 43.310664 ], [ -7.3047453, 43.3115801 ], [ -7.3051181, 43.3128102 ], [ -7.3051702, 43.3135944 ], [ -7.3048292, 43.3138864 ], [ -7.3042952, 43.3140226 ], [ -7.3039533, 43.3139005 ], [ -7.303415, 43.3141896 ], [ -7.3029984, 43.3145346 ], [ -7.3026885, 43.3145931 ], [ -7.3015105, 43.3148277 ], [ -7.2996311, 43.3150069 ], [ -7.2959369, 43.3161405 ], [ -7.2946632, 43.3158244 ], [ -7.2938207, 43.3168473 ], [ -7.2914166, 43.3177029 ], [ -7.2912779, 43.3186913 ], [ -7.2915704, 43.3205776 ], [ -7.2915952, 43.3232162 ], [ -7.292042, 43.3239972 ], [ -7.2942748, 43.3266238 ], [ -7.2953809, 43.3285312 ], [ -7.2970681, 43.3308345 ], [ -7.2968054, 43.331848 ], [ -7.2967354, 43.3321441 ], [ -7.2964162, 43.333418 ], [ -7.296435, 43.3340666 ], [ -7.2970128, 43.3345794 ], [ -7.2979027, 43.3358443 ], [ -7.2985497, 43.3365292 ], [ -7.2989501, 43.3372105 ], [ -7.297092, 43.3401363 ], [ -7.296987, 43.3416834 ], [ -7.2970794, 43.3427924 ], [ -7.2972463, 43.3447668 ], [ -7.2972778, 43.346289 ], [ -7.2976549, 43.3469249 ], [ -7.2973644, 43.3476049 ], [ -7.300373, 43.3512153 ], [ -7.3005457, 43.3516591 ], [ -7.3005507, 43.3519203 ], [ -7.3001296, 43.3528595 ], [ -7.2998186, 43.3538364 ], [ -7.2996641, 43.3549506 ], [ -7.3004724, 43.3551697 ], [ -7.3001087, 43.3567041 ], [ -7.3021351, 43.3579407 ], [ -7.3031746, 43.3582803 ], [ -7.3048209, 43.3594303 ], [ -7.3051462, 43.3597142 ], [ -7.305212, 43.3604535 ], [ -7.3052137, 43.3617232 ], [ -7.3062405, 43.3625218 ], [ -7.3106345, 43.3638383 ], [ -7.3117569, 43.3643051 ], [ -7.3125972, 43.3647137 ], [ -7.3129231, 43.3649796 ], [ -7.3127395, 43.3658143 ], [ -7.3127756, 43.3662921 ], [ -7.3134869, 43.3673471 ], [ -7.3137908, 43.3679638 ], [ -7.3147419, 43.3692745 ], [ -7.3154635, 43.3708519 ], [ -7.3163024, 43.3722058 ], [ -7.3173608, 43.3732119 ], [ -7.3182979, 43.3750355 ], [ -7.3187707, 43.3753486 ], [ -7.3191181, 43.3752817 ], [ -7.3197579, 43.3758043 ] ] ] } },
{ "type": "Feature", "properties": { "CCAA": "12 - Galicia", "PROVINCIA": "27 - Lugo", "MUNICIPIO": "27044 - Pastoriza, A", "COD_MUNICIPIO": "27044", "DISTRITO": "01", "SECCION": "2704401003", "V1_H": 80.02, "V1_M": 86.02, "V2_H": 79.96138623, "V2_M": 86.18252023, "V3_H": 80.18726569, "V3_M": 86.15258899 }, "geometry": { "type": "Polygon", "coordinates": [ [ [ -7.2585829, 43.2638656 ], [ -7.2583371, 43.264276 ], [ -7.2588565, 43.2655086 ], [ -7.2594914, 43.2678774 ], [ -7.2598714, 43.2683784 ], [ -7.2606009, 43.2687227 ], [ -7.2613466, 43.2689321 ], [ -7.2621108, 43.2689257 ], [ -7.2626189, 43.2688254 ], [ -7.2630577, 43.2685619 ], [ -7.263376, 43.2681976 ], [ -7.2638284, 43.2674571 ], [ -7.2642281, 43.267265 ], [ -7.2648329, 43.2672292 ], [ -7.2660111, 43.2678323 ], [ -7.2665668, 43.2677867 ], [ -7.2686775, 43.2672244 ], [ -7.2694814, 43.2671195 ], [ -7.2710167, 43.2672958 ], [ -7.2725066, 43.2677686 ], [ -7.2727348, 43.2679791 ], [ -7.2730826, 43.2683175 ], [ -7.2730488, 43.2695146 ], [ -7.2734973, 43.2706469 ], [ -7.2745559, 43.272869 ], [ -7.2747425, 43.2736822 ], [ -7.274657, 43.2745273 ], [ -7.2741896, 43.2762401 ], [ -7.2740961, 43.276932 ], [ -7.2741339, 43.2790847 ], [ -7.2739315, 43.2805764 ], [ -7.2735302, 43.2821281 ], [ -7.2734891, 43.2827127 ], [ -7.2739465, 43.2839712 ], [ -7.2744151, 43.2857072 ], [ -7.2753612, 43.2884318 ], [ -7.2766243, 43.290846 ], [ -7.2789168, 43.2904213 ], [ -7.2859236, 43.2924264 ], [ -7.2899043, 43.2937826 ], [ -7.2909247, 43.2947613 ], [ -7.2931636, 43.2966947 ], [ -7.2934214, 43.2958521 ], [ -7.2944132, 43.293886 ], [ -7.2954285, 43.2946124 ], [ -7.2967295, 43.2961445 ], [ -7.2970393, 43.2965274 ], [ -7.2977621, 43.2971324 ], [ -7.2985596, 43.2972703 ], [ -7.2996203, 43.2972501 ], [ -7.3005395, 43.2970026 ], [ -7.3012059, 43.2965353 ], [ -7.3015992, 43.2961359 ], [ -7.302049, 43.2954763 ], [ -7.3028795, 43.2944261 ], [ -7.3032252, 43.2935218 ], [ -7.3033224, 43.2926858 ], [ -7.3031074, 43.2911068 ], [ -7.3034296, 43.2901571 ], [ -7.3039875, 43.2895981 ], [ -7.3055155, 43.2887293 ], [ -7.3057701, 43.288436 ], [ -7.3058342, 43.2879056 ], [ -7.3055558, 43.2850561 ], [ -7.305552, 43.2825258 ], [ -7.3052071, 43.2811881 ], [ -7.3042603, 43.2802196 ], [ -7.3024175, 43.2791207 ], [ -7.3012705, 43.2782663 ], [ -7.3002594, 43.2769546 ], [ -7.3012721, 43.2755469 ], [ -7.3026747, 43.2742982 ], [ -7.3042086, 43.2732043 ], [ -7.3055381, 43.2728098 ], [ -7.3065421, 43.2725996 ], [ -7.3072563, 43.2726192 ], [ -7.309751, 43.2733134 ], [ -7.3116381, 43.2737014 ], [ -7.3120353, 43.2735992 ], [ -7.3130396, 43.2729297 ], [ -7.3144983, 43.2732123 ], [ -7.3154473, 43.2732083 ], [ -7.3166609, 43.272992 ], [ -7.3173836, 43.2740472 ], [ -7.3184256, 43.2746928 ], [ -7.3211593, 43.2756694 ], [ -7.3222817, 43.2765323 ], [ -7.3233656, 43.2787993 ], [ -7.3257825, 43.2823464 ], [ -7.3265261, 43.2826454 ], [ -7.3274369, 43.2826948 ], [ -7.3282815, 43.282455 ], [ -7.3287098, 43.2825693 ], [ -7.3289333, 43.2829598 ], [ -7.3296055, 43.2831677 ], [ -7.3307163, 43.2831119 ], [ -7.3315154, 43.2827363 ], [ -7.3327272, 43.2825919 ], [ -7.3328449, 43.2818913 ], [ -7.3330373, 43.2816149 ], [ -7.3339167, 43.2810064 ], [ -7.3338688, 43.2805015 ], [ -7.3331143, 43.2796981 ], [ -7.3325108, 43.2787799 ], [ -7.3324669, 43.2781309 ], [ -7.3326792, 43.2766753 ], [ -7.3334235, 43.2742369 ], [ -7.3356209, 43.2718377 ], [ -7.3381521, 43.2693893 ], [ -7.3407847, 43.266375 ], [ -7.3419142, 43.265617 ], [ -7.3437358, 43.2652381 ], [ -7.3458681, 43.265215 ], [ -7.3483408, 43.2653588 ], [ -7.3506135, 43.2651574 ], [ -7.3524465, 43.2648056 ], [ -7.3525642, 43.2645552 ], [ -7.352103, 43.2638372 ], [ -7.3524422, 43.2631397 ], [ -7.352271, 43.2608051 ], [ -7.3525961, 43.2601705 ], [ -7.3532632, 43.2596488 ], [ -7.3539852, 43.2593711 ], [ -7.3558814, 43.2589571 ], [ -7.3564574, 43.2586142 ], [ -7.3569528, 43.2571446 ], [ -7.3574546, 43.2563504 ], [ -7.3580013, 43.2561781 ], [ -7.3587733, 43.2563333 ], [ -7.3604244, 43.2572394 ], [ -7.3626765, 43.2582531 ], [ -7.3651653, 43.2587119 ], [ -7.3666159, 43.2592909 ], [ -7.3673743, 43.2581131 ], [ -7.3668231, 43.257529 ], [ -7.3666065, 43.2573368 ], [ -7.3665251, 43.2566963 ], [ -7.3658502, 43.2542915 ], [ -7.365946, 43.2534734 ], [ -7.3664131, 43.2525887 ], [ -7.3670092, 43.2519489 ], [ -7.3664192, 43.2505177 ], [ -7.3671951, 43.2500606 ], [ -7.3696596, 43.248646 ], [ -7.3706151, 43.2479212 ], [ -7.3713748, 43.2471486 ], [ -7.3727755, 43.2454307 ], [ -7.3739414, 43.2446639 ], [ -7.3748626, 43.2442988 ], [ -7.3769626, 43.2436082 ], [ -7.3765929, 43.2422253 ], [ -7.3781668, 43.2409329 ], [ -7.3789114, 43.2397909 ], [ -7.3796745, 43.238415 ], [ -7.3798754, 43.2378056 ], [ -7.3796174, 43.2373157 ], [ -7.3793881, 43.2371413 ], [ -7.3787575, 43.2372314 ], [ -7.378253, 43.2372153 ], [ -7.3771534, 43.2368845 ], [ -7.3765688, 43.2366332 ], [ -7.376036, 43.2362924 ], [ -7.3758683, 43.2356507 ], [ -7.3753557, 43.2350131 ], [ -7.3746104, 43.233859 ], [ -7.3739324, 43.2329579 ], [ -7.3728148, 43.2319155 ], [ -7.3724349, 43.231847 ], [ -7.3710958, 43.2321882 ], [ -7.3703108, 43.2320689 ], [ -7.3691644, 43.2316474 ], [ -7.367219, 43.2316377 ], [ -7.3663099, 43.2315527 ], [ -7.3659437, 43.2314304 ], [ -7.3657513, 43.2312565 ], [ -7.3654981, 43.2310548 ], [ -7.3643107, 43.2307857 ], [ -7.3639569, 43.2306636 ], [ -7.3636434, 43.230416 ], [ -7.3634818, 43.2295493 ], [ -7.3631649, 43.2294277 ], [ -7.3619267, 43.2292208 ], [ -7.361463, 43.2290611 ], [ -7.3611946, 43.2289672 ], [ -7.3588667, 43.2253141 ], [ -7.3564115, 43.2222803 ], [ -7.3543731, 43.220243 ], [ -7.35267, 43.2185617 ], [ -7.348907, 43.2142843 ], [ -7.3476292, 43.2132753 ], [ -7.3468725, 43.2121208 ], [ -7.3468433, 43.2118323 ], [ -7.3420255, 43.2119876 ], [ -7.3335014, 43.2117198 ], [ -7.3287848, 43.2126775 ], [ -7.3269327, 43.2128755 ], [ -7.3237505, 43.2130901 ], [ -7.3223405, 43.2128803 ], [ -7.3218379, 43.2128009 ], [ -7.3198901, 43.2128984 ], [ -7.3195332, 43.2128932 ], [ -7.3187828, 43.2128731 ], [ -7.3155252, 43.2122489 ], [ -7.3147692, 43.2119857 ], [ -7.3135867, 43.2111128 ], [ -7.3119728, 43.2107108 ], [ -7.3110957, 43.2103737 ], [ -7.3106764, 43.2099533 ], [ -7.3096806, 43.206787 ], [ -7.3091476, 43.2055815 ], [ -7.3085801, 43.2047357 ], [ -7.3082644, 43.2043841 ], [ -7.3081621, 43.2042703 ], [ -7.3071902, 43.2046972 ], [ -7.3054239, 43.2058056 ], [ -7.3048043, 43.2068409 ], [ -7.3039136, 43.2078903 ], [ -7.3035629, 43.2085514 ], [ -7.303065, 43.2091924 ], [ -7.3032585, 43.2110952 ], [ -7.3042958, 43.2118669 ], [ -7.3052359, 43.212151 ], [ -7.3071546, 43.2122154 ], [ -7.3075183, 43.2124189 ], [ -7.3075714, 43.2127259 ], [ -7.3071933, 43.2130444 ], [ -7.3067076, 43.2132443 ], [ -7.3060509, 43.2133967 ], [ -7.3057604, 43.2136625 ], [ -7.3056663, 43.2139493 ], [ -7.3065583, 43.2146378 ], [ -7.3069099, 43.2157236 ], [ -7.3069288, 43.215931 ], [ -7.3069462, 43.2161924 ], [ -7.3071206, 43.2165641 ], [ -7.307312, 43.2167651 ], [ -7.3065132, 43.2171584 ], [ -7.3064785, 43.2171659 ], [ -7.3062406, 43.2172174 ], [ -7.305948, 43.2171141 ], [ -7.3058189, 43.216887 ], [ -7.3054062, 43.2166738 ], [ -7.3049964, 43.2166125 ], [ -7.3046261, 43.2166937 ], [ -7.3042368, 43.2169334 ], [ -7.3031611, 43.2189637 ], [ -7.3024405, 43.2199182 ], [ -7.3016308, 43.220831 ], [ -7.3008384, 43.2226885 ], [ -7.3007218, 43.2227976 ], [ -7.2993136, 43.2241145 ], [ -7.299157, 43.2246876 ], [ -7.2994829, 43.2287898 ], [ -7.3002222, 43.231769 ], [ -7.3003579, 43.2335195 ], [ -7.3005109, 43.234117 ], [ -7.3007157, 43.2345774 ], [ -7.302769, 43.2359315 ], [ -7.3052083, 43.2373431 ], [ -7.3057993, 43.23769 ], [ -7.3125054, 43.2382462 ], [ -7.3126616, 43.2382592 ], [ -7.3145215, 43.238063 ], [ -7.3121214, 43.2401398 ], [ -7.3110531, 43.2418079 ], [ -7.3098045, 43.2433112 ], [ -7.3096367, 43.2435107 ], [ -7.3092059, 43.2440227 ], [ -7.3084524, 43.244444 ], [ -7.3082801, 43.2445403 ], [ -7.3078909, 43.2443635 ], [ -7.3068623, 43.2439056 ], [ -7.3062614, 43.243638 ], [ -7.3062046, 43.2436128 ], [ -7.3049829, 43.2430688 ], [ -7.3038491, 43.2426468 ], [ -7.3028487, 43.2424953 ], [ -7.3023347, 43.2425203 ], [ -7.3017676, 43.2426355 ], [ -7.298583, 43.2432828 ], [ -7.2920022, 43.2437465 ], [ -7.2906744, 43.2437784 ], [ -7.2906617, 43.2437776 ], [ -7.2903054, 43.2437869 ], [ -7.2890126, 43.2437023 ], [ -7.2885987, 43.2437273 ], [ -7.2853152, 43.2439257 ], [ -7.2830592, 43.2442444 ], [ -7.2814418, 43.2445392 ], [ -7.2812766, 43.2445108 ], [ -7.2809682, 43.2444579 ], [ -7.2804223, 43.2442263 ], [ -7.279839, 43.2439871 ], [ -7.2793845, 43.243653 ], [ -7.2787354, 43.243002 ], [ -7.2781622, 43.2425554 ], [ -7.2774762, 43.2422569 ], [ -7.2765453, 43.2419767 ], [ -7.2763121, 43.2420218 ], [ -7.2756554, 43.2421489 ], [ -7.2723898, 43.2427805 ], [ -7.2714386, 43.2432663 ], [ -7.2714964, 43.2440924 ], [ -7.2719422, 43.2458854 ], [ -7.2717802, 43.2463866 ], [ -7.270854, 43.2475827 ], [ -7.2705541, 43.2482242 ], [ -7.2731897, 43.2496291 ], [ -7.2742556, 43.2500754 ], [ -7.2746607, 43.2502543 ], [ -7.2746877, 43.2502662 ], [ -7.2759263, 43.250715 ], [ -7.2737193, 43.2519141 ], [ -7.2699685, 43.2546383 ], [ -7.2685926, 43.2562744 ], [ -7.2691253, 43.2566686 ], [ -7.2682528, 43.2574035 ], [ -7.2676451, 43.2576963 ], [ -7.2673171, 43.2576814 ], [ -7.2672717, 43.2577034 ], [ -7.2667304, 43.2576772 ], [ -7.2663038, 43.2574904 ], [ -7.2660489, 43.2573787 ], [ -7.2639664, 43.2595622 ], [ -7.2622662, 43.2608601 ], [ -7.260284, 43.2625408 ], [ -7.2588638, 43.2636469 ], [ -7.2585829, 43.2638656 ] ] ] } }
]
}
