{
"type": "FeatureCollection",
"name": "28001",
"features": [
{ "type": "Feature", "properties": { "CCAA": "13 - Comunidad de Madrid", "PROVINCIA": "28 - Madrid", "MUNICIPIO": "28001 - Acebeda, La", "COD_MUNICIPIO": "28001", "DISTRITO": "01", "SECCION": "2800101001", "V1_H": 75.48, "V1_M": 82.31, "V2_H": 75.36985678000001, "V2_M": 82.56533706, "V3_H": 75.8600571, "V3_M": 82.01450712 }, "geometry": { "type": "Polygon", "coordinates": [ [ [ -3.6431596, 41.1206336 ], [ -3.6450202, 41.1212917 ], [ -3.6463705, 41.120023 ], [ -3.6462937, 41.1183876 ], [ -3.646349, 41.1181963 ], [ -3.6467429, 41.1170554 ], [ -3.6474362, 41.1162183 ], [ -3.6481364, 41.1155928 ], [ -3.6487381, 41.1147643 ], [ -3.6493633, 41.1133023 ], [ -3.6498435, 41.1124691 ], [ -3.6506906, 41.1105726 ], [ -3.6508608, 41.109824 ], [ -3.6510584, 41.1077636 ], [ -3.6517552, 41.1070543 ], [ -3.6523045, 41.1064756 ], [ -3.653813, 41.1057068 ], [ -3.6557082, 41.1046763 ], [ -3.6574261, 41.1031865 ], [ -3.6591835, 41.1018378 ], [ -3.6600733, 41.1010256 ], [ -3.6606538, 41.1003638 ], [ -3.662229, 41.0990252 ], [ -3.6638219, 41.0978117 ], [ -3.666721, 41.0961077 ], [ -3.6675397, 41.0952328 ], [ -3.6690633, 41.0941222 ], [ -3.6721722, 41.0920017 ], [ -3.6732442, 41.0907613 ], [ -3.6738285, 41.0898246 ], [ -3.6750307, 41.0878971 ], [ -3.676065, 41.0866965 ], [ -3.6745657, 41.0850379 ], [ -3.6739442, 41.0846857 ], [ -3.667321, 41.0813669 ], [ -3.6638794, 41.0803211 ], [ -3.6594677, 41.0784286 ], [ -3.6567209, 41.0776714 ], [ -3.6527573, 41.0754328 ], [ -3.6482172, 41.0741063 ], [ -3.6431872, 41.0739066 ], [ -3.6343187, 41.0705335 ], [ -3.6281323, 41.0688576 ], [ -3.6254838, 41.0708565 ], [ -3.6208882, 41.0701702 ], [ -3.619767, 41.0700027 ], [ -3.6163456, 41.0698758 ], [ -3.6160747, 41.0698657 ], [ -3.6159263, 41.0700323 ], [ -3.6156715, 41.0702867 ], [ -3.6155796, 41.0703818 ], [ -3.6155266, 41.0704434 ], [ -3.6154798, 41.0705301 ], [ -3.6154426, 41.0706201 ], [ -3.6154413, 41.0706231 ], [ -3.6153954, 41.0708008 ], [ -3.6153654, 41.0709001 ], [ -3.6153209, 41.0709841 ], [ -3.6152517, 41.0710871 ], [ -3.6151752, 41.0711776 ], [ -3.6151162, 41.0712365 ], [ -3.6150359, 41.0713126 ], [ -3.6149037, 41.0714259 ], [ -3.6147891, 41.0715229 ], [ -3.6146344, 41.0716516 ], [ -3.6144465, 41.0718049 ], [ -3.6143367, 41.0718946 ], [ -3.6142588, 41.0719698 ], [ -3.6141941, 41.0720521 ], [ -3.6141389, 41.0721335 ], [ -3.6140544, 41.0722529 ], [ -3.6139568, 41.072393 ], [ -3.613883, 41.0725141 ], [ -3.613827, 41.0726387 ], [ -3.6137888, 41.0727515 ], [ -3.6137588, 41.072858 ], [ -3.6137562, 41.0729553 ], [ -3.6137701, 41.0730462 ], [ -3.613785, 41.0731137 ], [ -3.613825, 41.0731909 ], [ -3.6140016, 41.0734971 ], [ -3.6141719, 41.0737548 ], [ -3.614242, 41.0738715 ], [ -3.6142976, 41.0739649 ], [ -3.6143483, 41.0740448 ], [ -3.6143957, 41.0741436 ], [ -3.6144201, 41.0742093 ], [ -3.6144386, 41.0742794 ], [ -3.6144466, 41.0743677 ], [ -3.6144411, 41.0744191 ], [ -3.6144262, 41.0744822 ], [ -3.6143797, 41.0746032 ], [ -3.6143435, 41.074678 ], [ -3.6143396, 41.0746852 ], [ -3.6143049, 41.0747477 ], [ -3.6142767, 41.0747884 ], [ -3.6142403, 41.0748417 ], [ -3.6142274, 41.0748652 ], [ -3.6142181, 41.0748842 ], [ -3.61421, 41.074913 ], [ -3.6142091, 41.0749382 ], [ -3.6142129, 41.0749725 ], [ -3.6142179, 41.0749923 ], [ -3.6142252, 41.0750148 ], [ -3.6142326, 41.0750327 ], [ -3.6142422, 41.0750516 ], [ -3.6142591, 41.0750713 ], [ -3.6143167, 41.0751214 ], [ -3.6143958, 41.0751787 ], [ -3.6145131, 41.0752501 ], [ -3.6146516, 41.0753283 ], [ -3.6146711, 41.0753394 ], [ -3.6151722, 41.075588 ], [ -3.6153719, 41.0756887 ], [ -3.6158003, 41.0759261 ], [ -3.6161128, 41.0761235 ], [ -3.61632, 41.0762584 ], [ -3.6163859, 41.0763076 ], [ -3.6164232, 41.0763452 ], [ -3.6164605, 41.0763874 ], [ -3.6165761, 41.0765291 ], [ -3.6167967, 41.076827 ], [ -3.6170274, 41.0771834 ], [ -3.6170842, 41.0772767 ], [ -3.6171387, 41.0773746 ], [ -3.6171895, 41.0774573 ], [ -3.6172292, 41.0775048 ], [ -3.6172713, 41.0775451 ], [ -3.6173587, 41.0776032 ], [ -3.6174916, 41.0776818 ], [ -3.6176125, 41.077755 ], [ -3.6177191, 41.0778282 ], [ -3.6177683, 41.0778712 ], [ -3.6178129, 41.0779205 ], [ -3.6178382, 41.07796 ], [ -3.6178565, 41.0780041 ], [ -3.6178787, 41.0780841 ], [ -3.617896, 41.0781498 ], [ -3.617901, 41.0781849 ], [ -3.6178967, 41.0782228 ], [ -3.6177626, 41.0785307 ], [ -3.6176359, 41.0785763 ], [ -3.6142219, 41.079806 ], [ -3.6140337, 41.0798738 ], [ -3.6139623, 41.0798994 ], [ -3.6110887, 41.0792761 ], [ -3.6113418, 41.0789675 ], [ -3.61137, 41.0789332 ], [ -3.6113818, 41.0789178 ], [ -3.6113924, 41.0789006 ], [ -3.6114064, 41.0788744 ], [ -3.6114169, 41.07885 ], [ -3.611425, 41.0788284 ], [ -3.6114296, 41.0788103 ], [ -3.6114319, 41.0787977 ], [ -3.611433, 41.0787851 ], [ -3.6114316, 41.0787716 ], [ -3.6114267, 41.07875 ], [ -3.6114206, 41.0787338 ], [ -3.6114133, 41.0787167 ], [ -3.6114024, 41.0787024 ], [ -3.6113916, 41.0786907 ], [ -3.611322, 41.0786262 ], [ -3.6111862, 41.0784945 ], [ -3.6110888, 41.0783878 ], [ -3.6108543, 41.0781296 ], [ -3.6107232, 41.0779871 ], [ -3.6106078, 41.077867 ], [ -3.6105358, 41.0778025 ], [ -3.6104843, 41.077765 ], [ -3.610446, 41.0777418 ], [ -3.6103981, 41.0777177 ], [ -3.6103563, 41.0776999 ], [ -3.6103049, 41.0776821 ], [ -3.6101868, 41.0776431 ], [ -3.6093703, 41.0774051 ], [ -3.6092711, 41.0773714 ], [ -3.6091911, 41.0773385 ], [ -3.6091181, 41.077301 ], [ -3.609045, 41.077242 ], [ -3.6090029, 41.0771908 ], [ -3.6089835, 41.0771585 ], [ -3.608964, 41.0771091 ], [ -3.6089347, 41.0770282 ], [ -3.6089224, 41.0769859 ], [ -3.6089148, 41.0769418 ], [ -3.6089144, 41.0768986 ], [ -3.6089177, 41.076867 ], [ -3.6089556, 41.0767083 ], [ -3.6090145, 41.0765161 ], [ -3.6090678, 41.0763599 ], [ -3.6071034, 41.0767252 ], [ -3.6052124, 41.0774637 ], [ -3.6048212, 41.0776164 ], [ -3.6049466, 41.0777896 ], [ -3.6052041, 41.07809 ], [ -3.6052558, 41.0781429 ], [ -3.605353, 41.0782235 ], [ -3.6055567, 41.0783756 ], [ -3.6056359, 41.0784427 ], [ -3.6056863, 41.0784884 ], [ -3.6057212, 41.078526 ], [ -3.6057766, 41.0785978 ], [ -3.6058153, 41.0786625 ], [ -3.6058241, 41.0787092 ], [ -3.6058127, 41.0787679 ], [ -3.6057975, 41.0787977 ], [ -3.6057764, 41.0788293 ], [ -3.6057587, 41.0788537 ], [ -3.6057327, 41.0788764 ], [ -3.6056996, 41.0789 ], [ -3.6056451, 41.07893 ], [ -3.6056095, 41.0789401 ], [ -3.6055644, 41.0789502 ], [ -3.6054621, 41.0789679 ], [ -3.6052588, 41.0789978 ], [ -3.6051507, 41.0790155 ], [ -3.6050853, 41.0790293 ], [ -3.6050485, 41.0790394 ], [ -3.605007, 41.0790586 ], [ -3.604974, 41.0790848 ], [ -3.604928, 41.0791337 ], [ -3.6048997, 41.0791726 ], [ -3.6048799, 41.0792106 ], [ -3.604867, 41.0792448 ], [ -3.6048625, 41.0792611 ], [ -3.6048617, 41.0793134 ], [ -3.6048766, 41.079506 ], [ -3.6049105, 41.0798211 ], [ -3.6049506, 41.0800506 ], [ -3.6049889, 41.0801982 ], [ -3.6050048, 41.0802422 ], [ -3.6050266, 41.0802827 ], [ -3.6050519, 41.0803167 ], [ -3.6050868, 41.0803535 ], [ -3.6051864, 41.0804394 ], [ -3.6052894, 41.0805173 ], [ -3.6053135, 41.080537 ], [ -3.6053302, 41.0805522 ], [ -3.6053447, 41.0805693 ], [ -3.6053724, 41.080606 ], [ -3.6053858, 41.0806339 ], [ -3.6053932, 41.0806618 ], [ -3.6053947, 41.0807032 ], [ -3.6053915, 41.080741 ], [ -3.6053687, 41.0808457 ], [ -3.6053368, 41.0810062 ], [ -3.6053369, 41.081026 ], [ -3.6053431, 41.081053 ], [ -3.6053577, 41.0810826 ], [ -3.6053746, 41.0811105 ], [ -3.6053879, 41.0811266 ], [ -3.6054035, 41.0811409 ], [ -3.6054179, 41.0811517 ], [ -3.6054466, 41.0811705 ], [ -3.6054753, 41.0811856 ], [ -3.6055005, 41.0811981 ], [ -3.6055291, 41.0812105 ], [ -3.6055602, 41.0812212 ], [ -3.6055948, 41.0812291 ], [ -3.6056282, 41.0812344 ], [ -3.6056794, 41.0812395 ], [ -3.6057151, 41.0812402 ], [ -3.6057604, 41.0812382 ], [ -3.605827, 41.0812342 ], [ -3.6061697, 41.0812189 ], [ -3.606228, 41.0812195 ], [ -3.6062555, 41.0812212 ], [ -3.6062816, 41.0812237 ], [ -3.6062972, 41.0812264 ], [ -3.6063175, 41.0812325 ], [ -3.6063366, 41.0812415 ], [ -3.6063533, 41.0812522 ], [ -3.6063689, 41.0812647 ], [ -3.606387, 41.0812808 ], [ -3.6064026, 41.0813015 ], [ -3.6064183, 41.0813257 ], [ -3.6064304, 41.0813518 ], [ -3.6064415, 41.0813869 ], [ -3.6064465, 41.081413 ], [ -3.6064479, 41.0814363 ], [ -3.6064457, 41.0814589 ], [ -3.6064399, 41.0814778 ], [ -3.606413, 41.0815275 ], [ -3.6063859, 41.0815628 ], [ -3.6063541, 41.0815927 ], [ -3.6063138, 41.0816199 ], [ -3.6062795, 41.081639 ], [ -3.6062511, 41.0816554 ], [ -3.6062037, 41.0816763 ], [ -3.6061574, 41.0816937 ], [ -3.6060767, 41.0817202 ], [ -3.606015, 41.0817368 ], [ -3.6058866, 41.0817663 ], [ -3.6058225, 41.0817828 ], [ -3.6057323, 41.0818131 ], [ -3.6056765, 41.0818359 ], [ -3.6055996, 41.0818849 ], [ -3.6055322, 41.0819429 ], [ -3.6055229, 41.081961 ], [ -3.6055106, 41.0820502 ], [ -3.6055098, 41.0820863 ], [ -3.6055222, 41.0821385 ], [ -3.6055404, 41.0821789 ], [ -3.6055647, 41.0822256 ], [ -3.6055948, 41.0822696 ], [ -3.6056164, 41.0822956 ], [ -3.6056393, 41.0823171 ], [ -3.6056633, 41.0823359 ], [ -3.6057482, 41.0823823 ], [ -3.6058678, 41.0824411 ], [ -3.6062384, 41.0826049 ], [ -3.606432, 41.0826894 ], [ -3.6065983, 41.0827787 ], [ -3.6066953, 41.0828376 ], [ -3.6070401, 41.0830502 ], [ -3.6071096, 41.0830994 ], [ -3.6071817, 41.0831657 ], [ -3.607243, 41.0832329 ], [ -3.6072948, 41.0832984 ], [ -3.607343, 41.0833666 ], [ -3.6073478, 41.0833753 ], [ -3.6074024, 41.0834762 ], [ -3.6074121, 41.0835014 ], [ -3.6074148, 41.0835266 ], [ -3.6074137, 41.0835482 ], [ -3.6074103, 41.0835644 ], [ -3.6074069, 41.0835779 ], [ -3.6073987, 41.0835924 ], [ -3.6073858, 41.0836132 ], [ -3.6073705, 41.0836322 ], [ -3.6073493, 41.083653 ], [ -3.6073221, 41.0836721 ], [ -3.6072901, 41.0836903 ], [ -3.6072664, 41.0837012 ], [ -3.6072414, 41.0837104 ], [ -3.6071334, 41.0837424 ], [ -3.6069422, 41.0837894 ], [ -3.6067676, 41.0838344 ], [ -3.6067414, 41.0838427 ], [ -3.6067117, 41.0838537 ], [ -3.6066857, 41.0838664 ], [ -3.606662, 41.0838809 ], [ -3.6066336, 41.0839018 ], [ -3.6066135, 41.083919 ], [ -3.6065959, 41.0839362 ], [ -3.6065805, 41.0839553 ], [ -3.6065664, 41.0839742 ], [ -3.6065523, 41.0839959 ], [ -3.6065418, 41.0840149 ], [ -3.6065302, 41.0840429 ], [ -3.6065082, 41.0841124 ], [ -3.6065012, 41.0841367 ], [ -3.6064921, 41.0841728 ], [ -3.606491, 41.0841872 ], [ -3.6064923, 41.0842025 ], [ -3.6065593, 41.0844904 ], [ -3.6065789, 41.0845516 ], [ -3.6066045, 41.0846154 ], [ -3.6066324, 41.0846774 ], [ -3.6066882, 41.0847861 ], [ -3.6068925, 41.0851274 ], [ -3.6073669, 41.085832 ], [ -3.6074021, 41.0858976 ], [ -3.6074384, 41.0859694 ], [ -3.607464, 41.0860323 ], [ -3.6074873, 41.0861133 ], [ -3.6074974, 41.0861646 ], [ -3.6074992, 41.0862313 ], [ -3.6074912, 41.0862718 ], [ -3.6074796, 41.0863034 ], [ -3.6074584, 41.086336 ], [ -3.6074396, 41.0863577 ], [ -3.6074172, 41.0863776 ], [ -3.6073733, 41.086404 ], [ -3.6073164, 41.0864277 ], [ -3.6072024, 41.0864571 ], [ -3.6070479, 41.0864868 ], [ -3.6069065, 41.0865154 ], [ -3.606815, 41.0865367 ], [ -3.6067235, 41.0865605 ], [ -3.6066867, 41.0865706 ], [ -3.6066595, 41.0865807 ], [ -3.6065978, 41.0866117 ], [ -3.6065563, 41.0866362 ], [ -3.6065079, 41.0866761 ], [ -3.6064631, 41.0867195 ], [ -3.6064384, 41.0867548 ], [ -3.6064209, 41.08679 ], [ -3.606414, 41.0868261 ], [ -3.6064016, 41.0868964 ], [ -3.6063917, 41.0869883 ], [ -3.6063902, 41.0870785 ], [ -3.6063958, 41.0871766 ], [ -3.6063981, 41.0872982 ], [ -3.6063978, 41.0873901 ], [ -3.6063909, 41.0874244 ], [ -3.6063782, 41.0874604 ], [ -3.6063255, 41.0875553 ], [ -3.6062857, 41.087624 ], [ -3.6062552, 41.0876818 ], [ -3.6062471, 41.0877053 ], [ -3.6062461, 41.0877305 ], [ -3.6062487, 41.0877539 ], [ -3.6062624, 41.0878133 ], [ -3.6062795, 41.0878591 ], [ -3.6062965, 41.087896 ], [ -3.6063181, 41.0879211 ], [ -3.6063302, 41.0879337 ], [ -3.6063577, 41.0879515 ], [ -3.6064307, 41.0879926 ], [ -3.6064954, 41.0880328 ], [ -3.6065578, 41.0880829 ], [ -3.6065854, 41.0881107 ], [ -3.6066011, 41.0881313 ], [ -3.6066132, 41.0881573 ], [ -3.6066219, 41.0881942 ], [ -3.6066257, 41.0882275 ], [ -3.606625, 41.0882699 ], [ -3.6066232, 41.0883375 ], [ -3.606613, 41.0884015 ], [ -3.6065992, 41.088452 ], [ -3.6065597, 41.0885576 ], [ -3.6065399, 41.088601 ], [ -3.6065094, 41.0886515 ], [ -3.6064658, 41.0887022 ], [ -3.6063137, 41.0888687 ], [ -3.6061014, 41.0890825 ], [ -3.6059445, 41.08924 ], [ -3.6058726, 41.0893242 ], [ -3.605821, 41.0894074 ], [ -3.6057849, 41.0894985 ], [ -3.6057711, 41.0895509 ], [ -3.6057528, 41.0896347 ], [ -3.6057434, 41.0897771 ], [ -3.6057487, 41.0899635 ], [ -3.6058087, 41.0902704 ], [ -3.6059063, 41.0906627 ], [ -3.6059437, 41.0908372 ], [ -3.6059539, 41.0909182 ], [ -3.6059513, 41.0910164 ], [ -3.6059319, 41.0911084 ], [ -3.6059074, 41.0911644 ], [ -3.605884, 41.0912123 ], [ -3.6058522, 41.0912484 ], [ -3.6058179, 41.0912739 ], [ -3.6057526, 41.0912967 ], [ -3.6056658, 41.0913116 ], [ -3.6055682, 41.0913157 ], [ -3.6054932, 41.0913107 ], [ -3.6054216, 41.0912984 ], [ -3.6053369, 41.0912782 ], [ -3.6052688, 41.0912533 ], [ -3.6050847, 41.0911687 ], [ -3.6048599, 41.0910663 ], [ -3.6046852, 41.0909771 ], [ -3.604562, 41.0909147 ], [ -3.6044592, 41.0908693 ], [ -3.6043589, 41.0908428 ], [ -3.6042612, 41.0908235 ], [ -3.6041348, 41.0908079 ], [ -3.6040275, 41.0907986 ], [ -3.6039537, 41.0907972 ], [ -3.6038847, 41.0908012 ], [ -3.6038264, 41.0908105 ], [ -3.6036493, 41.0908456 ], [ -3.6033807, 41.0909038 ], [ -3.6033391, 41.0909103 ], [ -3.6033023, 41.0909132 ], [ -3.6032653, 41.0909143 ], [ -3.6032166, 41.0909145 ], [ -3.6031355, 41.0909114 ], [ -3.6030616, 41.0909036 ], [ -3.6030032, 41.0908958 ], [ -3.6028518, 41.090866 ], [ -3.6027897, 41.0908546 ], [ -3.602717, 41.0908424 ], [ -3.602686, 41.0908416 ], [ -3.6026349, 41.0908437 ], [ -3.6025802, 41.090853 ], [ -3.6025196, 41.0908659 ], [ -3.6024649, 41.0908833 ], [ -3.602427, 41.090897 ], [ -3.6023712, 41.0909198 ], [ -3.6023356, 41.0909354 ], [ -3.6022812, 41.0909717 ], [ -3.602254, 41.0909979 ], [ -3.6022305, 41.0910233 ], [ -3.6022164, 41.0910486 ], [ -3.6022047, 41.0910693 ], [ -3.602199, 41.0910937 ], [ -3.6021969, 41.0912612 ], [ -3.6021887, 41.0914037 ], [ -3.6021819, 41.0914361 ], [ -3.6021691, 41.0914749 ], [ -3.6021528, 41.0915137 ], [ -3.6021365, 41.0915471 ], [ -3.6021212, 41.0915779 ], [ -3.6020941, 41.0916086 ], [ -3.6020693, 41.0916294 ], [ -3.602035, 41.0916512 ], [ -3.6020125, 41.0916649 ], [ -3.6018938, 41.0917106 ], [ -3.6017952, 41.0917372 ], [ -3.6016645, 41.0917658 ], [ -3.6015148, 41.0917918 ], [ -3.6013352, 41.0918216 ], [ -3.6010726, 41.0918734 ], [ -3.6009894, 41.0918918 ], [ -3.6008991, 41.0919175 ], [ -3.6008267, 41.0919467 ], [ -3.6007628, 41.0919831 ], [ -3.6007048, 41.0920248 ], [ -3.6006564, 41.0920656 ], [ -3.6006257, 41.0920946 ], [ -3.6005938, 41.0921299 ], [ -3.6005739, 41.0921696 ], [ -3.6005496, 41.0922418 ], [ -3.600544, 41.092277 ], [ -3.600543, 41.092295 ], [ -3.6005443, 41.0923067 ], [ -3.6005503, 41.0923193 ], [ -3.6005611, 41.0923301 ], [ -3.6006307, 41.0923891 ], [ -3.6006451, 41.0923999 ], [ -3.6006702, 41.0924142 ], [ -3.6006954, 41.0924248 ], [ -3.6007084, 41.0924265 ], [ -3.6007276, 41.0924283 ], [ -3.6007489, 41.0924281 ], [ -3.6007692, 41.0924254 ], [ -3.60092, 41.0923822 ], [ -3.6009343, 41.0923786 ], [ -3.6009533, 41.0923748 ], [ -3.6009795, 41.0923729 ], [ -3.6010045, 41.0923755 ], [ -3.6010152, 41.0923772 ], [ -3.6010308, 41.0923825 ], [ -3.601069, 41.092404 ], [ -3.6010894, 41.0924165 ], [ -3.601111, 41.0924335 ], [ -3.6011314, 41.0924505 ], [ -3.6011542, 41.0924747 ], [ -3.6011722, 41.0924944 ], [ -3.6011904, 41.0925195 ], [ -3.6012, 41.0925357 ], [ -3.6012134, 41.0925627 ], [ -3.6012256, 41.0925942 ], [ -3.601243, 41.092676 ], [ -3.6012617, 41.0927669 ], [ -3.6013062, 41.092955 ], [ -3.6013994, 41.0932463 ], [ -3.6014228, 41.0933381 ], [ -3.6014293, 41.0933975 ], [ -3.6014301, 41.0934831 ], [ -3.601419, 41.0935696 ], [ -3.6014052, 41.0936219 ], [ -3.6013866, 41.0936697 ], [ -3.6013607, 41.0937086 ], [ -3.6013076, 41.093763 ], [ -3.6012569, 41.0938055 ], [ -3.601206, 41.0938392 ], [ -3.6011514, 41.0938665 ], [ -3.6010719, 41.0939002 ], [ -3.6009509, 41.0939414 ], [ -3.6008108, 41.093989 ], [ -3.6007444, 41.0940145 ], [ -3.600697, 41.0940409 ], [ -3.6006722, 41.0940662 ], [ -3.600651, 41.0940997 ], [ -3.6006266, 41.0941575 ], [ -3.6006173, 41.0941908 ], [ -3.6006142, 41.0942332 ], [ -3.6006217, 41.0942746 ], [ -3.600635, 41.0943006 ], [ -3.600664, 41.0943401 ], [ -3.600735, 41.0944262 ], [ -3.600994, 41.0947519 ], [ -3.6010314, 41.0948066 ], [ -3.6010545, 41.0948569 ], [ -3.6010753, 41.0949154 ], [ -3.6010912, 41.0949712 ], [ -3.6011098, 41.095044 ], [ -3.6011186, 41.0951053 ], [ -3.6011073, 41.095163 ], [ -3.6010815, 41.0952198 ], [ -3.6010217, 41.0953138 ], [ -3.6009663, 41.0953718 ], [ -3.6009046, 41.0954081 ], [ -3.6008478, 41.0954355 ], [ -3.6007114, 41.0954947 ], [ -3.6004706, 41.095596 ], [ -3.6003745, 41.095637 ], [ -3.6002512, 41.0957016 ], [ -3.6002062, 41.0957289 ], [ -3.6001317, 41.095777 ], [ -3.6000666, 41.0958224 ], [ -3.5999886, 41.0958876 ], [ -3.5999271, 41.0959438 ], [ -3.5998706, 41.0960045 ], [ -3.5998246, 41.0960633 ], [ -3.5997753, 41.0961374 ], [ -3.5998506, 41.0961613 ], [ -3.5999342, 41.096187 ], [ -3.5999855, 41.0962057 ], [ -3.600031, 41.096227 ], [ -3.6000729, 41.0962538 ], [ -3.6001041, 41.0962798 ], [ -3.6001437, 41.0963183 ], [ -3.600181, 41.0963596 ], [ -3.6002341, 41.096426 ], [ -3.6002726, 41.0964816 ], [ -3.6003077, 41.0965436 ], [ -3.6003465, 41.0966173 ], [ -3.6003951, 41.0967215 ], [ -3.6004277, 41.0967771 ], [ -3.6004578, 41.0968139 ], [ -3.6004986, 41.0968489 ], [ -3.600549, 41.0968837 ], [ -3.6005921, 41.0969114 ], [ -3.6006399, 41.0969373 ], [ -3.6006878, 41.0969578 ], [ -3.6007344, 41.0969755 ], [ -3.6007845, 41.0969906 ], [ -3.6008692, 41.0970091 ], [ -3.6009885, 41.0970274 ], [ -3.6012305, 41.0970576 ], [ -3.6014617, 41.0970807 ], [ -3.6017191, 41.0970992 ], [ -3.6019216, 41.0971081 ], [ -3.6021515, 41.0971132 ], [ -3.6022086, 41.0971147 ], [ -3.6023028, 41.0971214 ], [ -3.6023993, 41.0971371 ], [ -3.6024626, 41.097153 ], [ -3.6025235, 41.0971743 ], [ -3.6025582, 41.0971912 ], [ -3.6026002, 41.0972216 ], [ -3.6026398, 41.0972557 ], [ -3.6026728, 41.0972919 ], [ -3.6026879, 41.0973086 ], [ -3.6027229, 41.0973552 ], [ -3.6027483, 41.0973983 ], [ -3.602763, 41.0974433 ], [ -3.6027672, 41.0974847 ], [ -3.6027708, 41.0975189 ], [ -3.6027674, 41.0975595 ], [ -3.6027654, 41.0975829 ], [ -3.6027414, 41.0976911 ], [ -3.602702, 41.0978084 ], [ -3.6026766, 41.0978959 ], [ -3.602663, 41.0979708 ], [ -3.6026464, 41.0981132 ], [ -3.6026457, 41.09816 ], [ -3.602651, 41.0982222 ], [ -3.6026549, 41.0982501 ], [ -3.6026647, 41.098286 ], [ -3.6026927, 41.0983571 ], [ -3.6027243, 41.0984245 ], [ -3.6027582, 41.098482 ], [ -3.6027871, 41.098516 ], [ -3.6028159, 41.098542 ], [ -3.6028543, 41.0985733 ], [ -3.6035339, 41.0989319 ], [ -3.6035951, 41.0989748 ], [ -3.6037006, 41.0990562 ], [ -3.6042241, 41.0995346 ], [ -3.6043348, 41.0996546 ], [ -3.6044576, 41.0997955 ], [ -3.6045453, 41.099886 ], [ -3.6046678, 41.0999961 ], [ -3.6048395, 41.1001439 ], [ -3.604987, 41.1002593 ], [ -3.6050875, 41.1003155 ], [ -3.6051318, 41.1003378 ], [ -3.6052022, 41.1003609 ], [ -3.6052596, 41.1003759 ], [ -3.605355, 41.1003916 ], [ -3.6053957, 41.1003962 ], [ -3.6054385, 41.1004011 ], [ -3.605529, 41.1004078 ], [ -3.6056218, 41.1004073 ], [ -3.6057231, 41.1003996 ], [ -3.6058705, 41.1003835 ], [ -3.6059931, 41.1003702 ], [ -3.6060989, 41.1003625 ], [ -3.6061704, 41.1003639 ], [ -3.6062086, 41.1003673 ], [ -3.6062515, 41.1003779 ], [ -3.6062898, 41.1003948 ], [ -3.6064012, 41.1004708 ], [ -3.6070748, 41.100933 ], [ -3.6074127, 41.1011555 ], [ -3.6078151, 41.1014092 ], [ -3.6084845, 41.1018128 ], [ -3.608591, 41.1018699 ], [ -3.6088158, 41.1019678 ], [ -3.6091206, 41.1020896 ], [ -3.6093609, 41.1021902 ], [ -3.6094649, 41.102231 ], [ -3.609539, 41.1022559 ], [ -3.6096321, 41.1022788 ], [ -3.6096643, 41.1022849 ], [ -3.609706, 41.1022919 ], [ -3.6097489, 41.1022962 ], [ -3.6097787, 41.1022979 ], [ -3.6098216, 41.1022967 ], [ -3.6098596, 41.1022938 ], [ -3.6098989, 41.1022882 ], [ -3.6099322, 41.1022826 ], [ -3.6099666, 41.1022743 ], [ -3.6100117, 41.1022606 ], [ -3.6103334, 41.1021463 ], [ -3.6104391, 41.1021115 ], [ -3.6104831, 41.1021005 ], [ -3.6105211, 41.102093 ], [ -3.6105532, 41.1020893 ], [ -3.6105782, 41.1020891 ], [ -3.61062, 41.1020916 ], [ -3.6106974, 41.1021011 ], [ -3.6107475, 41.1021089 ], [ -3.6107893, 41.1021177 ], [ -3.6108251, 41.1021266 ], [ -3.6108526, 41.1021355 ], [ -3.6108717, 41.1021425 ], [ -3.6109076, 41.1021576 ], [ -3.610935, 41.1021719 ], [ -3.6109602, 41.1021871 ], [ -3.6109914, 41.1022076 ], [ -3.6110118, 41.1022229 ], [ -3.6110322, 41.1022417 ], [ -3.6110586, 41.1022686 ], [ -3.6110791, 41.1022919 ], [ -3.6111466, 41.1023807 ], [ -3.6112637, 41.1025521 ], [ -3.6114123, 41.1027819 ], [ -3.6116958, 41.1031705 ], [ -3.6119428, 41.1034872 ], [ -3.6121567, 41.1036905 ], [ -3.6123649, 41.10392 ], [ -3.6126237, 41.1042195 ], [ -3.6127974, 41.1044555 ], [ -3.6128748, 41.104583 ], [ -3.6129134, 41.1046396 ], [ -3.6129447, 41.1046745 ], [ -3.6129879, 41.1047139 ], [ -3.6130419, 41.1047524 ], [ -3.6132683, 41.1048899 ], [ -3.6134047, 41.104963 ], [ -3.6139121, 41.1052261 ], [ -3.6139744, 41.1052636 ], [ -3.6140355, 41.1053038 ], [ -3.6141627, 41.1054094 ], [ -3.6143742, 41.105611 ], [ -3.6144427, 41.1056818 ], [ -3.6145449, 41.1057785 ], [ -3.6146662, 41.1058995 ], [ -3.6147879, 41.1060475 ], [ -3.6148989, 41.1061991 ], [ -3.6149218, 41.106235 ], [ -3.6149388, 41.1062692 ], [ -3.6149755, 41.1063654 ], [ -3.6150181, 41.1064678 ], [ -3.6150485, 41.1065307 ], [ -3.6150788, 41.1065828 ], [ -3.6151078, 41.1066313 ], [ -3.6151223, 41.1066519 ], [ -3.6151403, 41.1066735 ], [ -3.6151524, 41.106686 ], [ -3.6151679, 41.1066976 ], [ -3.6151955, 41.1067155 ], [ -3.6152183, 41.1067307 ], [ -3.6153847, 41.1068253 ], [ -3.6153979, 41.1068342 ], [ -3.6154111, 41.1068449 ], [ -3.6154279, 41.106862 ], [ -3.6154448, 41.1068844 ], [ -3.6154569, 41.1069051 ], [ -3.6154666, 41.1069284 ], [ -3.6154716, 41.1069509 ], [ -3.6154742, 41.1069716 ], [ -3.6154744, 41.1069933 ], [ -3.6154655, 41.1070609 ], [ -3.6154588, 41.1071122 ], [ -3.6154546, 41.1071736 ], [ -3.6154587, 41.1072285 ], [ -3.6154837, 41.1073454 ], [ -3.6155013, 41.1074516 ], [ -3.6155029, 41.1074958 ], [ -3.6154987, 41.1075562 ], [ -3.6154909, 41.1076102 ], [ -3.6154725, 41.1076833 ], [ -3.61543, 41.1078502 ], [ -3.6154212, 41.1079295 ], [ -3.615424, 41.107979 ], [ -3.6154316, 41.1080213 ], [ -3.6154547, 41.1080716 ], [ -3.6154777, 41.1081166 ], [ -3.6155418, 41.1082171 ], [ -3.6155949, 41.1082907 ], [ -3.6156541, 41.1083831 ], [ -3.6157195, 41.1084972 ], [ -3.6157571, 41.1085781 ], [ -3.6157754, 41.1086221 ], [ -3.6157867, 41.1086842 ], [ -3.6157838, 41.1087545 ], [ -3.6157702, 41.1088231 ], [ -3.6157517, 41.1088889 ], [ -3.6157369, 41.1089637 ], [ -3.6157374, 41.109016 ], [ -3.6157486, 41.1090682 ], [ -3.6157668, 41.1091059 ], [ -3.6158006, 41.1091481 ], [ -3.6158594, 41.1091928 ], [ -3.6159193, 41.109233 ], [ -3.6160605, 41.1093089 ], [ -3.617013, 41.1101667 ], [ -3.6190631, 41.111724 ], [ -3.6219177, 41.1135878 ], [ -3.622996, 41.1143837 ], [ -3.6246548, 41.1159809 ], [ -3.6265024, 41.116869 ], [ -3.6281902, 41.1176183 ], [ -3.6298788, 41.1184405 ], [ -3.6311502, 41.1202343 ], [ -3.632429, 41.1207957 ], [ -3.6334544, 41.1208937 ], [ -3.6349215, 41.1207235 ], [ -3.6360667, 41.1207676 ], [ -3.6379498, 41.1206284 ], [ -3.6399316, 41.1200967 ], [ -3.6407719, 41.12002 ], [ -3.6416553, 41.1201016 ], [ -3.6431596, 41.1206336 ] ] ] } }
]
}
