{
"type": "FeatureCollection",
"name": "28004",
"features": [
{ "type": "Feature", "properties": { "CCAA": "13 - Comunidad de Madrid", "PROVINCIA": "28 - Madrid", "MUNICIPIO": "28004 - Álamo, El", "COD_MUNICIPIO": "28004", "DISTRITO": "01", "SECCION": "2800401003", "V1_H": 80.02, "V1_M": 86.02, "V2_H": 79.96138623, "V2_M": 86.18252023, "V3_H": 80.18726569, "V3_M": 86.15258899 }, "geometry": { "type": "Polygon", "coordinates": [ [ [ -3.9737232, 40.2119455 ], [ -3.9739031, 40.2124042 ], [ -3.9741433, 40.2126787 ], [ -3.9742048, 40.2130644 ], [ -3.9743339, 40.213397 ], [ -3.9745332, 40.2138482 ], [ -3.9747101, 40.214047 ], [ -3.9753181, 40.2143756 ], [ -3.9754564, 40.214484 ], [ -3.975627, 40.2146685 ], [ -3.9760302, 40.215037 ], [ -3.9765081, 40.2154048 ], [ -3.9773386, 40.21607 ], [ -3.9779671, 40.2169657 ], [ -3.9781965, 40.21735 ], [ -3.9786438, 40.2181853 ], [ -3.9787779, 40.2184273 ], [ -3.9795904, 40.2191355 ], [ -3.9806949, 40.220256 ], [ -3.9812648, 40.2209615 ], [ -3.9814811, 40.2212982 ], [ -3.9814502, 40.2213127 ], [ -3.9811031, 40.2231178 ], [ -3.9809626, 40.2253846 ], [ -3.9843698, 40.226676 ], [ -3.9843853, 40.226656 ], [ -3.9841133, 40.2276308 ], [ -3.9835105, 40.2293855 ], [ -3.9833901, 40.229663 ], [ -3.9842273, 40.2299229 ], [ -3.9882892, 40.2312475 ], [ -3.9883794, 40.2312221 ], [ -3.9887497, 40.2311036 ], [ -3.9889742, 40.2310289 ], [ -3.9893049, 40.2309077 ], [ -3.9897936, 40.2307716 ], [ -3.9902585, 40.2306281 ], [ -3.9906092, 40.2305188 ], [ -3.9907671, 40.2304962 ], [ -3.9908931, 40.2304496 ], [ -3.9915162, 40.2302192 ], [ -3.9914293, 40.2299543 ], [ -3.9913851, 40.2297261 ], [ -3.9913595, 40.2296008 ], [ -3.9913392, 40.229477 ], [ -3.9912955, 40.2293286 ], [ -3.9912278, 40.2291203 ], [ -3.9912074, 40.2290517 ], [ -3.9911823, 40.2289569 ], [ -3.9911621, 40.2288803 ], [ -3.9911591, 40.2286757 ], [ -3.9911468, 40.2284822 ], [ -3.9911143, 40.2282157 ], [ -3.9910839, 40.2280917 ], [ -3.9911086, 40.2279742 ], [ -3.9911429, 40.2278866 ], [ -3.9911938, 40.2277875 ], [ -3.9913053, 40.2275913 ], [ -3.9915929, 40.2270554 ], [ -3.9917642, 40.2267141 ], [ -3.9920611, 40.2261634 ], [ -3.9921773, 40.2259676 ], [ -3.9923073, 40.225729 ], [ -3.9920552, 40.2255946 ], [ -3.9920452, 40.2255926 ], [ -3.992174, 40.2248059 ], [ -3.9921966, 40.2246484 ], [ -3.9924192, 40.2237073 ], [ -3.9922746, 40.2236037 ], [ -3.9923531, 40.2234361 ], [ -3.9925407, 40.2230818 ], [ -3.9926045, 40.2227666 ], [ -3.9926543, 40.2223466 ], [ -3.9926827, 40.2217361 ], [ -3.992599, 40.2215414 ], [ -3.9922921, 40.2209624 ], [ -3.9914563, 40.2195155 ], [ -3.9912584, 40.2187401 ], [ -3.9912235, 40.2184782 ], [ -3.9911948, 40.2177919 ], [ -3.9912657, 40.2175339 ], [ -3.9912974, 40.2171475 ], [ -3.9914604, 40.215959 ], [ -3.9917132, 40.2145314 ], [ -3.9917285, 40.2142976 ], [ -3.9918345, 40.2138963 ], [ -3.9917949, 40.2137393 ], [ -3.9917941, 40.2136821 ], [ -3.9916526, 40.213147 ], [ -3.99162, 40.21304 ], [ -3.9915074, 40.2125737 ], [ -3.9914836, 40.2124333 ], [ -3.9913906, 40.2122386 ], [ -3.9910855, 40.2113569 ], [ -3.9910021, 40.2111788 ], [ -3.9909416, 40.2110816 ], [ -3.9906118, 40.2106387 ], [ -3.9903879, 40.2102115 ], [ -3.9903325, 40.2100356 ], [ -3.9902916, 40.2095583 ], [ -3.9883525, 40.2097767 ], [ -3.9880254, 40.2097567 ], [ -3.9877363, 40.2098461 ], [ -3.9861832, 40.2100211 ], [ -3.9819736, 40.2108893 ], [ -3.9769273, 40.2119284 ], [ -3.9737232, 40.2119455 ] ] ] } },
{ "type": "Feature", "properties": { "CCAA": "13 - Comunidad de Madrid", "PROVINCIA": "28 - Madrid", "MUNICIPIO": "28004 - Álamo, El", "COD_MUNICIPIO": "28004", "DISTRITO": "01", "SECCION": "2800401001", "V1_H": 80.31, "V1_M": 85.98, "V2_H": 80.51251293, "V2_M": 86.22129475, "V3_H": 80.221823, "V3_M": 85.87405604 }, "geometry": { "type": "Polygon", "coordinates": [ [ [ -3.9790381, 40.252497 ], [ -3.9805594, 40.2527077 ], [ -3.98293, 40.2530408 ], [ -3.9853976, 40.2533334 ], [ -3.9883829, 40.2539647 ], [ -3.9937291, 40.2549063 ], [ -3.9970768, 40.2553839 ], [ -4.0004375, 40.2564261 ], [ -4.0018857, 40.256425 ], [ -4.0013889, 40.256136 ], [ -4.0009594, 40.2557452 ], [ -4.0005059, 40.2550343 ], [ -4.0000889, 40.2542093 ], [ -3.9997089, 40.2533555 ], [ -3.9996569, 40.2522996 ], [ -3.9995497, 40.2514968 ], [ -3.9993489, 40.2508097 ], [ -3.9991754, 40.2501223 ], [ -3.9989028, 40.2492862 ], [ -3.9985362, 40.2479743 ], [ -3.9979124, 40.2458923 ], [ -3.9972502, 40.2439529 ], [ -3.9967754, 40.241928 ], [ -3.996074, 40.2406512 ], [ -3.9954039, 40.239535 ], [ -3.9952716, 40.2391508 ], [ -3.9952079, 40.2390302 ], [ -3.9951471, 40.2388844 ], [ -3.9950861, 40.2387365 ], [ -3.9950312, 40.2385816 ], [ -3.9949913, 40.2384495 ], [ -3.9949508, 40.2382672 ], [ -3.9948929, 40.2381054 ], [ -3.9948264, 40.2379059 ], [ -3.9953284, 40.2379692 ], [ -3.9959502, 40.238049 ], [ -3.9957438, 40.2373343 ], [ -3.9956257, 40.2368544 ], [ -3.9954338, 40.2362448 ], [ -3.9954246, 40.2360608 ], [ -3.9953218, 40.2357361 ], [ -3.9952257, 40.2354112 ], [ -3.9950823, 40.2349866 ], [ -3.994967, 40.234697 ], [ -3.994853, 40.2344976 ], [ -3.9947148, 40.2342224 ], [ -3.9945742, 40.234008 ], [ -3.9944518, 40.2338165 ], [ -3.994299, 40.2335885 ], [ -3.9941706, 40.233397 ], [ -3.9939947, 40.2331097 ], [ -3.9939382, 40.2329093 ], [ -3.993839, 40.2326318 ], [ -3.9937441, 40.2322493 ], [ -3.9935252, 40.2319194 ], [ -3.9932277, 40.2317169 ], [ -3.9931273, 40.2315714 ], [ -3.9930323, 40.2314631 ], [ -3.9928956, 40.2313054 ], [ -3.9927704, 40.2311648 ], [ -3.9925887, 40.2309903 ], [ -3.9923672, 40.2307775 ], [ -3.9921613, 40.2305778 ], [ -3.9917001, 40.2301609 ], [ -3.9915162, 40.2302192 ], [ -3.9908931, 40.2304496 ], [ -3.9907671, 40.2304962 ], [ -3.9906092, 40.2305188 ], [ -3.9902585, 40.2306281 ], [ -3.9897936, 40.2307716 ], [ -3.9893049, 40.2309077 ], [ -3.9889742, 40.2310289 ], [ -3.9887497, 40.2311036 ], [ -3.9883794, 40.2312221 ], [ -3.9882892, 40.2312475 ], [ -3.988001, 40.2313285 ], [ -3.9873463, 40.231497 ], [ -3.986713, 40.231674 ], [ -3.9859835, 40.231804 ], [ -3.985813, 40.2318317 ], [ -3.9856382, 40.2318659 ], [ -3.9854337, 40.2319037 ], [ -3.9853403, 40.2319471 ], [ -3.985179, 40.2320232 ], [ -3.9849191, 40.2320811 ], [ -3.9846932, 40.2321223 ], [ -3.9844035, 40.2321871 ], [ -3.983969, 40.2322825 ], [ -3.9833045, 40.2324258 ], [ -3.9830103, 40.2324709 ], [ -3.9820693, 40.2327512 ], [ -3.9818001, 40.2328133 ], [ -3.9810166, 40.2330254 ], [ -3.9803054, 40.233325 ], [ -3.9801759, 40.2334096 ], [ -3.9799448, 40.2335119 ], [ -3.9793306, 40.2337399 ], [ -3.9786511, 40.2339796 ], [ -3.9783115, 40.2341051 ], [ -3.9778994, 40.2342478 ], [ -3.9771333, 40.2345218 ], [ -3.976613, 40.2347155 ], [ -3.9762493, 40.2348461 ], [ -3.9760065, 40.2349413 ], [ -3.9757228, 40.2350847 ], [ -3.975454, 40.235237 ], [ -3.975097, 40.2354629 ], [ -3.9737393, 40.2362633 ], [ -3.9729258, 40.2366968 ], [ -3.9718463, 40.2373292 ], [ -3.9714104, 40.2376253 ], [ -3.970916, 40.2379611 ], [ -3.9701347, 40.2385352 ], [ -3.9696144, 40.2391081 ], [ -3.9691032, 40.2398214 ], [ -3.9702927, 40.2417102 ], [ -3.970288, 40.2445941 ], [ -3.9708388, 40.246612 ], [ -3.9719921, 40.2479195 ], [ -3.9721496, 40.2500588 ], [ -3.9734248, 40.25084 ], [ -3.9754986, 40.2520505 ], [ -3.9769059, 40.2522017 ], [ -3.9790381, 40.252497 ] ] ] } },
{ "type": "Feature", "properties": { "CCAA": "13 - Comunidad de Madrid", "PROVINCIA": "28 - Madrid", "MUNICIPIO": "28004 - Álamo, El", "COD_MUNICIPIO": "28004", "DISTRITO": "01", "SECCION": "2800401002", "V1_H": 80.21, "V1_M": 86.09, "V2_H": 80.08965404, "V2_M": 85.91309697, "V3_H": 80.44476746, "V3_M": 86.42186139 }, "geometry": { "type": "Polygon", "coordinates": [ [ [ -4.0018857, 40.256425 ], [ -4.0019705, 40.256425 ], [ -4.0035078, 40.2564238 ], [ -4.0061723, 40.2549899 ], [ -4.0097155, 40.2530301 ], [ -4.0119344, 40.2522477 ], [ -4.0148023, 40.2508361 ], [ -4.0165095, 40.2503175 ], [ -4.0178409, 40.249913 ], [ -4.0198051, 40.2497975 ], [ -4.0220973, 40.2493474 ], [ -4.0237682, 40.2490193 ], [ -4.0241986, 40.2482812 ], [ -4.0243952, 40.2481074 ], [ -4.0247438, 40.2477989 ], [ -4.0248698, 40.2475914 ], [ -4.0248863, 40.2475769 ], [ -4.0249733, 40.2475014 ], [ -4.0250743, 40.2474068 ], [ -4.0251968, 40.2472751 ], [ -4.0253595, 40.2470637 ], [ -4.02553, 40.2468352 ], [ -4.0256623, 40.2466421 ], [ -4.0257209, 40.2465488 ], [ -4.0258754, 40.2463474 ], [ -4.0259858, 40.2461852 ], [ -4.0260806, 40.2460024 ], [ -4.0261602, 40.2458224 ], [ -4.0262224, 40.2456606 ], [ -4.0262915, 40.2454861 ], [ -4.0263781, 40.2453033 ], [ -4.0264615, 40.2451449 ], [ -4.0265961, 40.244868 ], [ -4.0266291, 40.2447939 ], [ -4.0266412, 40.2447397 ], [ -4.0266461, 40.2446748 ], [ -4.0266448, 40.2445126 ], [ -4.0266668, 40.2440215 ], [ -4.0266686, 40.2436763 ], [ -4.026818, 40.2432867 ], [ -4.0267953, 40.2430329 ], [ -4.0267464, 40.2428297 ], [ -4.026663, 40.2425206 ], [ -4.0265462, 40.2421865 ], [ -4.0264581, 40.2419521 ], [ -4.0263859, 40.2416887 ], [ -4.0263282, 40.2414496 ], [ -4.0262849, 40.24115 ], [ -4.0262709, 40.2408438 ], [ -4.0262664, 40.2405456 ], [ -4.02628, 40.2404392 ], [ -4.0263126, 40.2403344 ], [ -4.0263209, 40.2401104 ], [ -4.026385, 40.2397563 ], [ -4.0263621, 40.2395646 ], [ -4.026343, 40.2393125 ], [ -4.0263045, 40.2390218 ], [ -4.0262895, 40.2388058 ], [ -4.0262777, 40.2386482 ], [ -4.0262713, 40.2384564 ], [ -4.0262497, 40.2382737 ], [ -4.0262266, 40.2381424 ], [ -4.0261662, 40.2379591 ], [ -4.0261152, 40.2378529 ], [ -4.0261006, 40.2371921 ], [ -4.0260362, 40.2368869 ], [ -4.0260889, 40.2368057 ], [ -4.0261567, 40.2367006 ], [ -4.0262047, 40.2366137 ], [ -4.0262181, 40.2365667 ], [ -4.0262208, 40.2365108 ], [ -4.0262203, 40.2364009 ], [ -4.0262112, 40.2362658 ], [ -4.0261885, 40.2360868 ], [ -4.0261769, 40.2359382 ], [ -4.026159, 40.2356105 ], [ -4.0221036, 40.2335877 ], [ -4.0209975, 40.2317074 ], [ -4.0209418, 40.2316473 ], [ -4.0206094, 40.2308351 ], [ -4.0200498, 40.2303625 ], [ -4.0189797, 40.2295258 ], [ -4.0167608, 40.2271229 ], [ -4.014339, 40.224572 ], [ -4.0143198, 40.2245551 ], [ -4.0103471, 40.2210582 ], [ -4.0088032, 40.2198157 ], [ -4.0062174, 40.218275 ], [ -4.0061744, 40.2182494 ], [ -4.0022857, 40.2178047 ], [ -4.0015139, 40.2176411 ], [ -4.0012232, 40.2175415 ], [ -3.9985759, 40.2154772 ], [ -3.9979774, 40.2150247 ], [ -3.996949, 40.2142471 ], [ -3.9948976, 40.212425 ], [ -3.9935422, 40.2123934 ], [ -3.9912311, 40.2097406 ], [ -3.9910026, 40.2094782 ], [ -3.9902916, 40.2095583 ], [ -3.9903325, 40.2100356 ], [ -3.9903879, 40.2102115 ], [ -3.9906118, 40.2106387 ], [ -3.9909416, 40.2110816 ], [ -3.9910021, 40.2111788 ], [ -3.9910855, 40.2113569 ], [ -3.9913906, 40.2122386 ], [ -3.9914836, 40.2124333 ], [ -3.9915074, 40.2125737 ], [ -3.99162, 40.21304 ], [ -3.9916526, 40.213147 ], [ -3.9917941, 40.2136821 ], [ -3.9917949, 40.2137393 ], [ -3.9918345, 40.2138963 ], [ -3.9917285, 40.2142976 ], [ -3.9917132, 40.2145314 ], [ -3.9914604, 40.215959 ], [ -3.9912974, 40.2171475 ], [ -3.9912657, 40.2175339 ], [ -3.9911948, 40.2177919 ], [ -3.9912235, 40.2184782 ], [ -3.9912584, 40.2187401 ], [ -3.9914563, 40.2195155 ], [ -3.9922921, 40.2209624 ], [ -3.992599, 40.2215414 ], [ -3.9926827, 40.2217361 ], [ -3.9926543, 40.2223466 ], [ -3.9926045, 40.2227666 ], [ -3.9925407, 40.2230818 ], [ -3.9923531, 40.2234361 ], [ -3.9922746, 40.2236037 ], [ -3.9924192, 40.2237073 ], [ -3.9921966, 40.2246484 ], [ -3.992174, 40.2248059 ], [ -3.9920452, 40.2255926 ], [ -3.9920552, 40.2255946 ], [ -3.9923073, 40.225729 ], [ -3.9921773, 40.2259676 ], [ -3.9920611, 40.2261634 ], [ -3.9917642, 40.2267141 ], [ -3.9915929, 40.2270554 ], [ -3.9913053, 40.2275913 ], [ -3.9911938, 40.2277875 ], [ -3.9911429, 40.2278866 ], [ -3.9911086, 40.2279742 ], [ -3.9910839, 40.2280917 ], [ -3.9911143, 40.2282157 ], [ -3.9911468, 40.2284822 ], [ -3.9911591, 40.2286757 ], [ -3.9911621, 40.2288803 ], [ -3.9911823, 40.2289569 ], [ -3.9912074, 40.2290517 ], [ -3.9912278, 40.2291203 ], [ -3.9912955, 40.2293286 ], [ -3.9913392, 40.229477 ], [ -3.9913595, 40.2296008 ], [ -3.9913851, 40.2297261 ], [ -3.9914293, 40.2299543 ], [ -3.9915162, 40.2302192 ], [ -3.9917001, 40.2301609 ], [ -3.9921613, 40.2305778 ], [ -3.9923672, 40.2307775 ], [ -3.9925887, 40.2309903 ], [ -3.9927704, 40.2311648 ], [ -3.9928956, 40.2313054 ], [ -3.9930323, 40.2314631 ], [ -3.9931273, 40.2315714 ], [ -3.9932277, 40.2317169 ], [ -3.9935252, 40.2319194 ], [ -3.9937441, 40.2322493 ], [ -3.993839, 40.2326318 ], [ -3.9939382, 40.2329093 ], [ -3.9939947, 40.2331097 ], [ -3.9941706, 40.233397 ], [ -3.994299, 40.2335885 ], [ -3.9944518, 40.2338165 ], [ -3.9945742, 40.234008 ], [ -3.9947148, 40.2342224 ], [ -3.994853, 40.2344976 ], [ -3.994967, 40.234697 ], [ -3.9950823, 40.2349866 ], [ -3.9952257, 40.2354112 ], [ -3.9953218, 40.2357361 ], [ -3.9954246, 40.2360608 ], [ -3.9954338, 40.2362448 ], [ -3.9956257, 40.2368544 ], [ -3.9957438, 40.2373343 ], [ -3.9959502, 40.238049 ], [ -3.9953284, 40.2379692 ], [ -3.9948264, 40.2379059 ], [ -3.9948929, 40.2381054 ], [ -3.9949508, 40.2382672 ], [ -3.9949913, 40.2384495 ], [ -3.9950312, 40.2385816 ], [ -3.9950861, 40.2387365 ], [ -3.9951471, 40.2388844 ], [ -3.9952079, 40.2390302 ], [ -3.9952716, 40.2391508 ], [ -3.9954039, 40.239535 ], [ -3.996074, 40.2406512 ], [ -3.9967754, 40.241928 ], [ -3.9972502, 40.2439529 ], [ -3.9979124, 40.2458923 ], [ -3.9985362, 40.2479743 ], [ -3.9989028, 40.2492862 ], [ -3.9991754, 40.2501223 ], [ -3.9993489, 40.2508097 ], [ -3.9995497, 40.2514968 ], [ -3.9996569, 40.2522996 ], [ -3.9997089, 40.2533555 ], [ -4.0000889, 40.2542093 ], [ -4.0005059, 40.2550343 ], [ -4.0009594, 40.2557452 ], [ -4.0013889, 40.256136 ], [ -4.0018857, 40.256425 ] ] ] } },
{ "type": "Feature", "properties": { "CCAA": "13 - Comunidad de Madrid", "PROVINCIA": "28 - Madrid", "MUNICIPIO": "28004 - Álamo, El", "COD_MUNICIPIO": "28004", "DISTRITO": "01", "SECCION": "2800401004", "V1_H": 80.3, "V1_M": 86.18, "V2_H": 80.25682951, "V2_M": 86.26310791, "V3_H": 80.49886239, "V3_M": 86.29802272000001 }, "geometry": { "type": "Polygon", "coordinates": [ [ [ -3.9463796, 40.2245977 ], [ -3.950349, 40.2257094 ], [ -3.9505217, 40.2261197 ], [ -3.9544628, 40.2263819 ], [ -3.9562605, 40.2266725 ], [ -3.9579697, 40.2276016 ], [ -3.9619876, 40.2297089 ], [ -3.9628117, 40.2316318 ], [ -3.9668776, 40.2344413 ], [ -3.9675005, 40.2350964 ], [ -3.9681939, 40.2358258 ], [ -3.9689551, 40.2395862 ], [ -3.9691032, 40.2398214 ], [ -3.9696144, 40.2391081 ], [ -3.9701347, 40.2385352 ], [ -3.970916, 40.2379611 ], [ -3.9714104, 40.2376253 ], [ -3.9718463, 40.2373292 ], [ -3.9729258, 40.2366968 ], [ -3.9737393, 40.2362633 ], [ -3.975097, 40.2354629 ], [ -3.975454, 40.235237 ], [ -3.9757228, 40.2350847 ], [ -3.9760065, 40.2349413 ], [ -3.9762493, 40.2348461 ], [ -3.976613, 40.2347155 ], [ -3.9771333, 40.2345218 ], [ -3.9778994, 40.2342478 ], [ -3.9783115, 40.2341051 ], [ -3.9786511, 40.2339796 ], [ -3.9793306, 40.2337399 ], [ -3.9799448, 40.2335119 ], [ -3.9801759, 40.2334096 ], [ -3.9803054, 40.233325 ], [ -3.9810166, 40.2330254 ], [ -3.9818001, 40.2328133 ], [ -3.9820693, 40.2327512 ], [ -3.9830103, 40.2324709 ], [ -3.9833045, 40.2324258 ], [ -3.983969, 40.2322825 ], [ -3.9844035, 40.2321871 ], [ -3.9846932, 40.2321223 ], [ -3.9849191, 40.2320811 ], [ -3.985179, 40.2320232 ], [ -3.9853403, 40.2319471 ], [ -3.9854337, 40.2319037 ], [ -3.9856382, 40.2318659 ], [ -3.985813, 40.2318317 ], [ -3.9859835, 40.231804 ], [ -3.986713, 40.231674 ], [ -3.9873463, 40.231497 ], [ -3.988001, 40.2313285 ], [ -3.9882892, 40.2312475 ], [ -3.9842273, 40.2299229 ], [ -3.9833901, 40.229663 ], [ -3.9835105, 40.2293855 ], [ -3.9841133, 40.2276308 ], [ -3.9843853, 40.226656 ], [ -3.9843698, 40.226676 ], [ -3.9809626, 40.2253846 ], [ -3.9811031, 40.2231178 ], [ -3.9814502, 40.2213127 ], [ -3.9814811, 40.2212982 ], [ -3.9812648, 40.2209615 ], [ -3.9806949, 40.220256 ], [ -3.9795904, 40.2191355 ], [ -3.9787779, 40.2184273 ], [ -3.9786438, 40.2181853 ], [ -3.9781965, 40.21735 ], [ -3.9779671, 40.2169657 ], [ -3.9773386, 40.21607 ], [ -3.9765081, 40.2154048 ], [ -3.9760302, 40.215037 ], [ -3.975627, 40.2146685 ], [ -3.9754564, 40.214484 ], [ -3.9753181, 40.2143756 ], [ -3.9747101, 40.214047 ], [ -3.9745332, 40.2138482 ], [ -3.9743339, 40.213397 ], [ -3.9742048, 40.2130644 ], [ -3.9741433, 40.2126787 ], [ -3.9739031, 40.2124042 ], [ -3.9737232, 40.2119455 ], [ -3.9737206, 40.2119455 ], [ -3.9672321, 40.211981 ], [ -3.9642178, 40.2121608 ], [ -3.9625586, 40.2122597 ], [ -3.9621046, 40.2122868 ], [ -3.9561857, 40.2114646 ], [ -3.9544584, 40.2121578 ], [ -3.9529169, 40.2123393 ], [ -3.9528874, 40.2125783 ], [ -3.952867, 40.2127965 ], [ -3.9528386, 40.2129013 ], [ -3.9527262, 40.2133157 ], [ -3.9526353, 40.2136227 ], [ -3.9525635, 40.2138675 ], [ -3.9525035, 40.2140337 ], [ -3.9524089, 40.214248 ], [ -3.9523266, 40.2144073 ], [ -3.9522336, 40.2145675 ], [ -3.951816, 40.2152926 ], [ -3.9516658, 40.2155587 ], [ -3.951542, 40.2157858 ], [ -3.9514068, 40.2160329 ], [ -3.9512734, 40.2162779 ], [ -3.9512246, 40.2163677 ], [ -3.9511827, 40.2164483 ], [ -3.9507989, 40.2171856 ], [ -3.949907, 40.2190489 ], [ -3.9494626, 40.2202129 ], [ -3.949311, 40.2205565 ], [ -3.9491276, 40.2208759 ], [ -3.9490334, 40.2210399 ], [ -3.9482894, 40.2203613 ], [ -3.948155, 40.2202516 ], [ -3.9480779, 40.2201981 ], [ -3.9480209, 40.2201616 ], [ -3.9479665, 40.2201324 ], [ -3.947905, 40.2201023 ], [ -3.9477963, 40.2200644 ], [ -3.9477491, 40.2200495 ], [ -3.9476808, 40.2200365 ], [ -3.9476255, 40.2200297 ], [ -3.9474984, 40.2200263 ], [ -3.9472587, 40.2200292 ], [ -3.9462283, 40.2200511 ], [ -3.9461632, 40.2205228 ], [ -3.9461603, 40.2206544 ], [ -3.9461628, 40.2208318 ], [ -3.9461711, 40.2209219 ], [ -3.946185, 40.2209947 ], [ -3.9461901, 40.2210172 ], [ -3.9462058, 40.221054 ], [ -3.9462385, 40.2211213 ], [ -3.9463264, 40.2212747 ], [ -3.9463651, 40.2213536 ], [ -3.946392, 40.2214246 ], [ -3.9464208, 40.2215514 ], [ -3.9464448, 40.2216701 ], [ -3.946442, 40.2218124 ], [ -3.9464275, 40.2219504 ], [ -3.9464003, 40.2221083 ], [ -3.9463757, 40.2221995 ], [ -3.9463376, 40.2223304 ], [ -3.9462934, 40.2224543 ], [ -3.9461339, 40.2228114 ], [ -3.9460482, 40.222995 ], [ -3.9459558, 40.2231904 ], [ -3.9458965, 40.2233215 ], [ -3.9457828, 40.223599 ], [ -3.9457329, 40.2237291 ], [ -3.9456277, 40.2240255 ], [ -3.9455849, 40.2241592 ], [ -3.9455564, 40.2243017 ], [ -3.9455446, 40.2244739 ], [ -3.945577, 40.2246899 ], [ -3.9463796, 40.2245977 ] ] ] } }
]
}
