{
"type": "FeatureCollection",
"name": "28051",
"features": [
{ "type": "Feature", "properties": { "CCAA": "13 - Comunidad de Madrid", "PROVINCIA": "28 - Madrid", "MUNICIPIO": "28051 - Chapinería", "COD_MUNICIPIO": "28051", "DISTRITO": "01", "SECCION": "2805101001", "V1_H": 80.38, "V1_M": 86.41, "V2_H": 80.21151379, "V2_M": 86.36716419, "V3_H": 80.6951312, "V3_M": 86.59024448 }, "geometry": { "type": "Polygon", "coordinates": [ [ [ -4.182401, 40.347774 ], [ -4.1826534, 40.3480141 ], [ -4.1828378, 40.3481528 ], [ -4.183058, 40.3483889 ], [ -4.183167, 40.3485783 ], [ -4.1834028, 40.3487745 ], [ -4.1835944, 40.3489304 ], [ -4.1837342, 40.3490573 ], [ -4.1838733, 40.3492355 ], [ -4.1839234, 40.349373 ], [ -4.1840189, 40.349471 ], [ -4.1841227, 40.3495176 ], [ -4.1843385, 40.3495537 ], [ -4.1845243, 40.3496067 ], [ -4.1846496, 40.3497048 ], [ -4.1847151, 40.3498139 ], [ -4.1848096, 40.3499804 ], [ -4.1849266, 40.3501299 ], [ -4.1850595, 40.3502224 ], [ -4.1853288, 40.3501848 ], [ -4.1855308, 40.3501522 ], [ -4.1857992, 40.3501659 ], [ -4.1858583, 40.3502064 ], [ -4.1859015, 40.3503039 ], [ -4.1858546, 40.3504463 ], [ -4.1857775, 40.3506055 ], [ -4.1857515, 40.3508453 ], [ -4.1856721, 40.351153 ], [ -4.1856829, 40.3514273 ], [ -4.1857555, 40.3515536 ], [ -4.1859489, 40.3515952 ], [ -4.1862548, 40.3515978 ], [ -4.1866056, 40.3516008 ], [ -4.1868362, 40.3516428 ], [ -4.1869324, 40.351695 ], [ -4.1870499, 40.3518217 ], [ -4.1872126, 40.3519202 ], [ -4.1874432, 40.3519621 ], [ -4.1875999, 40.3519634 ], [ -4.1878454, 40.3519425 ], [ -4.1880843, 40.3519292 ], [ -4.1883897, 40.3519398 ], [ -4.188619, 40.3520118 ], [ -4.1887567, 40.3521734 ], [ -4.1886839, 40.3524056 ], [ -4.1885381, 40.3525741 ], [ -4.1883245, 40.3527699 ], [ -4.1880747, 40.3529253 ], [ -4.1878467, 40.3530981 ], [ -4.1878722, 40.353275 ], [ -4.1879601, 40.353339 ], [ -4.1881142, 40.3534382 ], [ -4.1883423, 40.3535614 ], [ -4.1886428, 40.3537712 ], [ -4.1889107, 40.3540942 ], [ -4.1889248, 40.35433 ], [ -4.1889009, 40.3543809 ], [ -4.1888383, 40.3544765 ], [ -4.1887394, 40.3545431 ], [ -4.1886044, 40.3545692 ], [ -4.1884344, 40.3545149 ], [ -4.18828, 40.3544382 ], [ -4.1880971, 40.3543211 ], [ -4.1879537, 40.3542042 ], [ -4.1877979, 40.3541732 ], [ -4.1877302, 40.3541949 ], [ -4.1875406, 40.3543261 ], [ -4.1875411, 40.3543287 ], [ -4.1875424, 40.354331 ], [ -4.1875444, 40.3543331 ], [ -4.187547, 40.3543347 ], [ -4.1875501, 40.3543357 ], [ -4.1875435, 40.3545251 ], [ -4.1875224, 40.3547977 ], [ -4.1874425, 40.3550298 ], [ -4.1873861, 40.355211 ], [ -4.1873312, 40.3553297 ], [ -4.1872309, 40.3554705 ], [ -4.1870586, 40.3555082 ], [ -4.1868191, 40.3555451 ], [ -4.1864919, 40.3555069 ], [ -4.1862836, 40.3554816 ], [ -4.18615, 40.3554572 ], [ -4.1859264, 40.3554544 ], [ -4.1856512, 40.3554226 ], [ -4.1854215, 40.3553572 ], [ -4.1852729, 40.3553326 ], [ -4.1851313, 40.3553308 ], [ -4.1849652, 40.3554198 ], [ -4.1849095, 40.3555726 ], [ -4.1849056, 40.3557431 ], [ -4.1849166, 40.3559137 ], [ -4.184957, 40.3561018 ], [ -4.1850214, 40.3562163 ], [ -4.1850843, 40.356399 ], [ -4.1851104, 40.3565642 ], [ -4.1851665, 40.3567184 ], [ -4.1852616, 40.3567991 ], [ -4.185469, 40.3568586 ], [ -4.1856831, 40.3569522 ], [ -4.1858216, 40.3570903 ], [ -4.1858848, 40.3572616 ], [ -4.1859125, 40.357353 ], [ -4.1860604, 40.3574059 ], [ -4.1862102, 40.3573793 ], [ -4.1863755, 40.3573246 ], [ -4.1865785, 40.3572532 ], [ -4.186737, 40.3571699 ], [ -4.18694, 40.3570985 ], [ -4.1870818, 40.3570945 ], [ -4.1871721, 40.3570559 ], [ -4.1872556, 40.3569944 ], [ -4.1873468, 40.3569216 ], [ -4.1874365, 40.3569113 ], [ -4.1875333, 40.3569182 ], [ -4.1876153, 40.3569192 ], [ -4.1878273, 40.3571114 ], [ -4.1879263, 40.3572953 ], [ -4.1879878, 40.3574842 ], [ -4.187992, 40.3575925 ], [ -4.1878907, 40.3577387 ], [ -4.1877509, 40.3579241 ], [ -4.1877168, 40.3580658 ], [ -4.1877119, 40.3582308 ], [ -4.1877597, 40.3583796 ], [ -4.1878366, 40.3585518 ], [ -4.1879491, 40.3587815 ], [ -4.1880104, 40.3589761 ], [ -4.1880622, 40.3592389 ], [ -4.1880265, 40.3594375 ], [ -4.1881311, 40.3596841 ], [ -4.1883464, 40.3597164 ], [ -4.1884582, 40.3597183 ], [ -4.1886145, 40.3597325 ], [ -4.1888695, 40.3596858 ], [ -4.1891396, 40.3596336 ], [ -4.1894721, 40.3594915 ], [ -4.1896925, 40.3593531 ], [ -4.1899712, 40.3592669 ], [ -4.1901811, 40.3592308 ], [ -4.1905398, 40.3592086 ], [ -4.1908619, 40.3591631 ], [ -4.1911471, 40.3591055 ], [ -4.19141, 40.3590418 ], [ -4.19165, 40.3590005 ], [ -4.1918364, 40.3590038 ], [ -4.1921351, 40.358992 ], [ -4.1924422, 40.3589519 ], [ -4.192779, 40.3589122 ], [ -4.1931271, 40.3589981 ], [ -4.1933328, 40.3591042 ], [ -4.1934697, 40.359266 ], [ -4.1935902, 40.3594788 ], [ -4.1936684, 40.3596111 ], [ -4.1939132, 40.3596552 ], [ -4.1941956, 40.3596886 ], [ -4.194508, 40.3597226 ], [ -4.1948406, 40.3598253 ], [ -4.1949777, 40.3599814 ], [ -4.1952029, 40.3601845 ], [ -4.1955786, 40.3603449 ], [ -4.1959188, 40.3604419 ], [ -4.1962906, 40.3604827 ], [ -4.1966755, 40.3605862 ], [ -4.1970291, 40.3607347 ], [ -4.1973816, 40.3609231 ], [ -4.197517, 40.3611361 ], [ -4.1975641, 40.3613077 ], [ -4.1974115, 40.3614246 ], [ -4.1971024, 40.361533 ], [ -4.1969416, 40.3616725 ], [ -4.1968471, 40.3618416 ], [ -4.1966913, 40.3620608 ], [ -4.196559, 40.3622464 ], [ -4.1964582, 40.3623755 ], [ -4.1962835, 40.3624806 ], [ -4.1961002, 40.3626254 ], [ -4.1959082, 40.3628099 ], [ -4.195726, 40.3629148 ], [ -4.1955794, 40.3630773 ], [ -4.1953824, 40.363182 ], [ -4.1952511, 40.3633334 ], [ -4.1952317, 40.363481 ], [ -4.1951778, 40.363537 ], [ -4.1951084, 40.3636155 ], [ -4.1951063, 40.3636838 ], [ -4.195064, 40.3638538 ], [ -4.1950142, 40.3640237 ], [ -4.1950179, 40.364149 ], [ -4.195126, 40.3642762 ], [ -4.1952804, 40.3643529 ], [ -4.1955762, 40.3644435 ], [ -4.195776, 40.3644982 ], [ -4.1958856, 40.3645741 ], [ -4.1960127, 40.364565 ], [ -4.1961398, 40.3645558 ], [ -4.1963065, 40.3644677 ], [ -4.1965414, 40.3643466 ], [ -4.1967742, 40.3642938 ], [ -4.1969216, 40.3643533 ], [ -4.1971118, 40.3644819 ], [ -4.197294, 40.3646274 ], [ -4.1975656, 40.3660325 ], [ -4.1975943, 40.3665738 ], [ -4.1956127, 40.3682353 ], [ -4.1957008, 40.3685329 ], [ -4.1955368, 40.3687805 ], [ -4.1952511, 40.3691056 ], [ -4.1950255, 40.3694147 ], [ -4.1948222, 40.3697299 ], [ -4.1946702, 40.3700745 ], [ -4.1945352, 40.3703511 ], [ -4.1943648, 40.3705587 ], [ -4.1941126, 40.3707592 ], [ -4.193914, 40.3709151 ], [ -4.1936663, 40.3712181 ], [ -4.1935017, 40.3714827 ], [ -4.1933012, 40.3717012 ], [ -4.1931114, 40.3718117 ], [ -4.1929034, 40.3720301 ], [ -4.1927623, 40.372261 ], [ -4.1923466, 40.372692 ], [ -4.1924374, 40.3728985 ], [ -4.1922715, 40.3729582 ], [ -4.1920413, 40.3730714 ], [ -4.1920367, 40.3730736 ], [ -4.191882, 40.3732587 ], [ -4.1917856, 40.3734904 ], [ -4.1916659, 40.3737502 ], [ -4.1914996, 40.3740717 ], [ -4.1912634, 40.3742383 ], [ -4.190979, 40.374518 ], [ -4.1906549, 40.3748765 ], [ -4.1903345, 40.3751595 ], [ -4.189426, 40.3760491 ], [ -4.1876237, 40.377846 ], [ -4.1867557, 40.3786714 ], [ -4.1866548, 40.3788522 ], [ -4.1866281, 40.379051 ], [ -4.1866242, 40.3792274 ], [ -4.186649, 40.3794553 ], [ -4.186638, 40.3796202 ], [ -4.1866249, 40.379876 ], [ -4.1865822, 40.3801259 ], [ -4.1865794, 40.380251 ], [ -4.1866784, 40.380497 ], [ -4.1868015, 40.3806635 ], [ -4.1869615, 40.3808533 ], [ -4.1871216, 40.3810318 ], [ -4.1873117, 40.3812049 ], [ -4.1876183, 40.3815047 ], [ -4.18788, 40.3817585 ], [ -4.1881019, 40.3820379 ], [ -4.188295, 40.3821523 ], [ -4.1884733, 40.3822666 ], [ -4.1885612, 40.3824944 ], [ -4.1887388, 40.3826884 ], [ -4.188977, 40.3827745 ], [ -4.1892898, 40.3828324 ], [ -4.1894827, 40.3829809 ], [ -4.1895563, 40.3831233 ], [ -4.1897636, 40.3833401 ], [ -4.1898818, 40.3835225 ], [ -4.1901563, 40.3837224 ], [ -4.1903121, 40.3838538 ], [ -4.1904003, 40.3840417 ], [ -4.1904818, 40.3841216 ], [ -4.1907568, 40.3842533 ], [ -4.1909947, 40.3843679 ], [ -4.1911579, 40.3844992 ], [ -4.1911345, 40.3846413 ], [ -4.1909919, 40.3847887 ], [ -4.1907901, 40.3848335 ], [ -4.1906033, 40.3848897 ], [ -4.1904234, 40.3850255 ], [ -4.1903443, 40.385151 ], [ -4.1902876, 40.3852411 ], [ -4.1902492, 40.3854059 ], [ -4.1902401, 40.3856447 ], [ -4.1902374, 40.3856522 ], [ -4.1901792, 40.3858151 ], [ -4.1900962, 40.386013 ], [ -4.1900958, 40.3860138 ], [ -4.1901023, 40.386156 ], [ -4.1901386, 40.3863097 ], [ -4.1902347, 40.3864351 ], [ -4.1902931, 40.3866115 ], [ -4.1903142, 40.3867993 ], [ -4.1904695, 40.3869932 ], [ -4.1907591, 40.3871875 ], [ -4.1909294, 40.38737 ], [ -4.1909953, 40.3875409 ], [ -4.1910609, 40.3877685 ], [ -4.1911492, 40.3879451 ], [ -4.1913945, 40.3880653 ], [ -4.1916623, 40.3881857 ], [ -4.191803, 40.388334 ], [ -4.1919432, 40.3885505 ], [ -4.1922027, 40.3887903 ], [ -4.1924472, 40.3890129 ], [ -4.1925807, 40.3891328 ], [ -4.1926317, 40.3893149 ], [ -4.1925407, 40.389525 ], [ -4.1924876, 40.3896613 ], [ -4.1928115, 40.3902992 ], [ -4.1939064, 40.3916279 ], [ -4.1929348, 40.3919032 ], [ -4.1924489, 40.3920788 ], [ -4.1879169, 40.3937169 ], [ -4.1876243, 40.3938523 ], [ -4.1819376, 40.3959954 ], [ -4.1813319, 40.3962251 ], [ -4.1796821, 40.3973701 ], [ -4.1777909, 40.3988153 ], [ -4.1778574, 40.3988783 ], [ -4.1779832, 40.3989759 ], [ -4.178183, 40.3991307 ], [ -4.1783372, 40.3993821 ], [ -4.1783805, 40.399536 ], [ -4.1783716, 40.3996953 ], [ -4.1783037, 40.3997859 ], [ -4.1781835, 40.3998876 ], [ -4.1780705, 40.4000235 ], [ -4.1780848, 40.4000919 ], [ -4.1781502, 40.400263 ], [ -4.1782822, 40.4005085 ], [ -4.178414, 40.4007541 ], [ -4.1786199, 40.4010684 ], [ -4.1788484, 40.4013373 ], [ -4.1791734, 40.4016579 ], [ -4.1794471, 40.4018815 ], [ -4.1797064, 40.4020426 ], [ -4.1798245, 40.4021685 ], [ -4.1800251, 40.4022437 ], [ -4.1801803, 40.4023812 ], [ -4.1803057, 40.4025185 ], [ -4.1803639, 40.4026726 ], [ -4.1803845, 40.4028719 ], [ -4.1804046, 40.4031224 ], [ -4.1805216, 40.4033678 ], [ -4.1806702, 40.40342 ], [ -4.1809013, 40.4034043 ], [ -4.1812971, 40.4033157 ], [ -4.1817145, 40.4033012 ], [ -4.1820422, 40.4033317 ], [ -4.1823107, 40.4033049 ], [ -4.1826387, 40.4033012 ], [ -4.1830034, 40.4033547 ], [ -4.1833159, 40.4034078 ], [ -4.1836058, 40.4034892 ], [ -4.1838286, 40.4035759 ], [ -4.1841785, 40.403618 ], [ -4.1844319, 40.4036138 ], [ -4.1846862, 40.4035186 ], [ -4.1848663, 40.4033718 ], [ -4.1850252, 40.4031167 ], [ -4.1852581, 40.4029075 ], [ -4.1854006, 40.4028116 ], [ -4.1856919, 40.4027395 ], [ -4.1859975, 40.4027299 ], [ -4.1862281, 40.4027769 ], [ -4.1862808, 40.4027203 ], [ -4.1863636, 40.4026297 ], [ -4.1864987, 40.4025167 ], [ -4.1867311, 40.4023702 ], [ -4.1870157, 40.4022126 ], [ -4.1872704, 40.4020605 ], [ -4.1876003, 40.4018406 ], [ -4.1877759, 40.4017598 ], [ -4.1878749, 40.4016931 ], [ -4.1880708, 40.401628 ], [ -4.1882677, 40.4015345 ], [ -4.1885431, 40.4015506 ], [ -4.1888187, 40.4015666 ], [ -4.1890479, 40.4016331 ], [ -4.1892586, 40.401819 ], [ -4.1895532, 40.4019435 ], [ -4.1899681, 40.4020359 ], [ -4.1904803, 40.4021186 ], [ -4.190851, 40.4021932 ], [ -4.1911387, 40.4023005 ], [ -4.1914173, 40.402459 ], [ -4.191631, 40.402548 ], [ -4.1918877, 40.4026891 ], [ -4.1922349, 40.4028031 ], [ -4.1925829, 40.4028887 ], [ -4.1929734, 40.4030491 ], [ -4.1933365, 40.4031292 ], [ -4.1937231, 40.4031699 ], [ -4.1941147, 40.4032961 ], [ -4.1944846, 40.4033991 ], [ -4.1947387, 40.4033806 ], [ -4.1949891, 40.4032424 ], [ -4.1951756, 40.4030006 ], [ -4.1953082, 40.4028092 ], [ -4.1955149, 40.4026361 ], [ -4.1957594, 40.4024466 ], [ -4.1960045, 40.4022343 ], [ -4.1963319, 40.4020176 ], [ -4.1966648, 40.4018637 ], [ -4.1970125, 40.4017158 ], [ -4.1986627, 40.4016637 ], [ -4.1988641, 40.4018076 ], [ -4.1995607, 40.4023053 ], [ -4.2010868, 40.4033959 ], [ -4.201998, 40.4037792 ], [ -4.2027368, 40.4040899 ], [ -4.205514, 40.4047572 ], [ -4.2055157, 40.4047566 ], [ -4.2057788, 40.404664 ], [ -4.209699, 40.4032835 ], [ -4.2109613, 40.4032305 ], [ -4.2113723, 40.4032089 ], [ -4.2119035, 40.4031551 ], [ -4.2139312, 40.4027104 ], [ -4.2156553, 40.4021866 ], [ -4.2172989, 40.4038372 ], [ -4.2216977, 40.4011933 ], [ -4.2228402, 40.4001586 ], [ -4.2233249, 40.3996711 ], [ -4.2241233, 40.399166 ], [ -4.2255451, 40.3977713 ], [ -4.2265901, 40.3982442 ], [ -4.2277699, 40.3969595 ], [ -4.2289401, 40.3962441 ], [ -4.2292959, 40.3960677 ], [ -4.2302696, 40.3955088 ], [ -4.2311612, 40.395018 ], [ -4.2326537, 40.3939785 ], [ -4.2339695, 40.3936542 ], [ -4.235659, 40.3932577 ], [ -4.2336062, 40.3922547 ], [ -4.2329437, 40.3920246 ], [ -4.2320735, 40.3915835 ], [ -4.2311436, 40.3911761 ], [ -4.2309422, 40.3911639 ], [ -4.2292962, 40.389651 ], [ -4.2276007, 40.3881496 ], [ -4.2287182, 40.3836269 ], [ -4.2292888, 40.3822686 ], [ -4.2293573, 40.3820813 ], [ -4.2297287, 40.381119 ], [ -4.2298224, 40.3808762 ], [ -4.2300187, 40.3803677 ], [ -4.2314327, 40.3787709 ], [ -4.2322834, 40.377706 ], [ -4.2334671, 40.3759548 ], [ -4.2338514, 40.3754221 ], [ -4.2340996, 40.375139 ], [ -4.2353088, 40.3737361 ], [ -4.2358463, 40.3711018 ], [ -4.2363776, 40.3697254 ], [ -4.2367028, 40.3685456 ], [ -4.2369041, 40.3675691 ], [ -4.2371316, 40.3667523 ], [ -4.237674, 40.3648808 ], [ -4.237498, 40.3640932 ], [ -4.2367698, 40.3623197 ], [ -4.2360236, 40.3610183 ], [ -4.2352564, 40.3603086 ], [ -4.2345385, 40.3584157 ], [ -4.2342144, 40.3579051 ], [ -4.2331835, 40.3560025 ], [ -4.2326412, 40.3545955 ], [ -4.2326335, 40.3543368 ], [ -4.232483, 40.3535685 ], [ -4.2325593, 40.3525952 ], [ -4.2325327, 40.3514563 ], [ -4.2326085, 40.3505456 ], [ -4.2323254, 40.3488759 ], [ -4.232663, 40.3479267 ], [ -4.2326646, 40.3469644 ], [ -4.2326015, 40.3457228 ], [ -4.2324903, 40.3432511 ], [ -4.2328666, 40.3413625 ], [ -4.2321186, 40.3382955 ], [ -4.232023, 40.3373442 ], [ -4.2317907, 40.336637 ], [ -4.2317621, 40.3349116 ], [ -4.2315804, 40.3340841 ], [ -4.2315703, 40.3340863 ], [ -4.2308099, 40.3342429 ], [ -4.2288527, 40.3347925 ], [ -4.2275449, 40.3345362 ], [ -4.2261261, 40.3349197 ], [ -4.2249938, 40.3351911 ], [ -4.2242847, 40.3353644 ], [ -4.2234734, 40.3355513 ], [ -4.2227056, 40.3357361 ], [ -4.2217711, 40.3359432 ], [ -4.2209049, 40.3361542 ], [ -4.2207244, 40.3362002 ], [ -4.2206905, 40.3362123 ], [ -4.220666, 40.3362279 ], [ -4.2206034, 40.3362772 ], [ -4.2205547, 40.3363209 ], [ -4.2205256, 40.3363402 ], [ -4.2204533, 40.3363769 ], [ -4.2204229, 40.336389 ], [ -4.2203818, 40.3363984 ], [ -4.2203443, 40.3364024 ], [ -4.2202596, 40.3364069 ], [ -4.2202007, 40.3364066 ], [ -4.2201652, 40.3363944 ], [ -4.2201223, 40.3363705 ], [ -4.220064, 40.3363333 ], [ -4.2199724, 40.3362829 ], [ -4.2199178, 40.3362546 ], [ -4.2198525, 40.3362265 ], [ -4.2198051, 40.3362081 ], [ -4.2196203, 40.3361434 ], [ -4.2195055, 40.3361086 ], [ -4.2193873, 40.3360864 ], [ -4.2193119, 40.3360791 ], [ -4.2192085, 40.3360919 ], [ -4.2190655, 40.3361258 ], [ -4.2189295, 40.3361633 ], [ -4.2188137, 40.3362032 ], [ -4.218753, 40.3362282 ], [ -4.2186782, 40.3362587 ], [ -4.2185451, 40.3363232 ], [ -4.2184262, 40.3363884 ], [ -4.2183108, 40.3364491 ], [ -4.2181675, 40.3365371 ], [ -4.2180792, 40.3365993 ], [ -4.2179969, 40.3366722 ], [ -4.2179068, 40.336765 ], [ -4.2178167, 40.3368651 ], [ -4.217689, 40.3370295 ], [ -4.2175605, 40.3372137 ], [ -4.2174179, 40.3374044 ], [ -4.2173577, 40.3374627 ], [ -4.2172795, 40.3375014 ], [ -4.2169491, 40.3376535 ], [ -4.2166902, 40.3377923 ], [ -4.2165304, 40.3378741 ], [ -4.216415, 40.3379366 ], [ -4.216304, 40.3379873 ], [ -4.2161986, 40.3380155 ], [ -4.2161118, 40.3380362 ], [ -4.2159992, 40.3380599 ], [ -4.215908, 40.3380914 ], [ -4.2157607, 40.338148 ], [ -4.2155237, 40.3382612 ], [ -4.2151984, 40.3384413 ], [ -4.215123, 40.338497 ], [ -4.215081, 40.33852 ], [ -4.2150167, 40.3385441 ], [ -4.2144201, 40.3387602 ], [ -4.2132069, 40.3393216 ], [ -4.213256, 40.3394406 ], [ -4.2141053, 40.3414978 ], [ -4.2151302, 40.3432384 ], [ -4.2140419, 40.3456417 ], [ -4.2116129, 40.3469635 ], [ -4.2117842, 40.3470617 ], [ -4.2119726, 40.3471931 ], [ -4.2120409, 40.34726 ], [ -4.2120974, 40.3473269 ], [ -4.2121361, 40.3473833 ], [ -4.2121675, 40.3474271 ], [ -4.2122029, 40.3474943 ], [ -4.2122133, 40.34755 ], [ -4.2122156, 40.3476131 ], [ -4.21223, 40.3476967 ], [ -4.2122489, 40.3477668 ], [ -4.2122859, 40.3478556 ], [ -4.2123588, 40.3479827 ], [ -4.2125015, 40.3481893 ], [ -4.2126217, 40.3483935 ], [ -4.212773, 40.348691 ], [ -4.2129032, 40.3489932 ], [ -4.2130234, 40.349392 ], [ -4.2130693, 40.3497816 ], [ -4.213035, 40.3498396 ], [ -4.2128045, 40.3498574 ], [ -4.212555, 40.3498671 ], [ -4.2123266, 40.3498705 ], [ -4.2121301, 40.3498734 ], [ -4.211923, 40.3498819 ], [ -4.2111316, 40.3499406 ], [ -4.2110481, 40.3499478 ], [ -4.2109587, 40.3499533 ], [ -4.2108705, 40.3499569 ], [ -4.2107715, 40.3499552 ], [ -4.2107172, 40.3499486 ], [ -4.2106805, 40.3499424 ], [ -4.2106617, 40.3499392 ], [ -4.2105859, 40.3499184 ], [ -4.2104781, 40.3498808 ], [ -4.2103618, 40.349828 ], [ -4.2102525, 40.3497733 ], [ -4.2101431, 40.3497105 ], [ -4.2099773, 40.3495969 ], [ -4.2098867, 40.349532 ], [ -4.2098485, 40.3494966 ], [ -4.2098041, 40.3494554 ], [ -4.2097198, 40.3493518 ], [ -4.2096413, 40.3493521 ], [ -4.2082857, 40.3493569 ], [ -4.199121, 40.3438289 ], [ -4.1959451, 40.3417329 ], [ -4.1930699, 40.3395923 ], [ -4.1879615, 40.3378521 ], [ -4.1874638, 40.3380662 ], [ -4.1872882, 40.3381239 ], [ -4.1870716, 40.3381909 ], [ -4.1869545, 40.3382309 ], [ -4.1868996, 40.3382549 ], [ -4.1868437, 40.338287 ], [ -4.1867474, 40.3383681 ], [ -4.1866653, 40.3384564 ], [ -4.1865903, 40.3385418 ], [ -4.186545, 40.338581 ], [ -4.1864927, 40.3386167 ], [ -4.1864252, 40.3386588 ], [ -4.186348, 40.3386911 ], [ -4.1862765, 40.3387081 ], [ -4.1862036, 40.338717 ], [ -4.1859672, 40.3387284 ], [ -4.185853, 40.338726 ], [ -4.1857775, 40.3387204 ], [ -4.1856997, 40.3387113 ], [ -4.1856218, 40.3386995 ], [ -4.1855378, 40.3386806 ], [ -4.1854586, 40.3386597 ], [ -4.185384, 40.3386371 ], [ -4.185301, 40.3386046 ], [ -4.1851942, 40.3385534 ], [ -4.1850872, 40.3384951 ], [ -4.1845595, 40.3382086 ], [ -4.1834933, 40.3375601 ], [ -4.1825552, 40.338385 ], [ -4.1821021, 40.3396733 ], [ -4.1826001, 40.3408242 ], [ -4.1828052, 40.3448112 ], [ -4.182342, 40.3449687 ], [ -4.1823381, 40.34497 ], [ -4.1823782, 40.345039 ], [ -4.1824149, 40.3451206 ], [ -4.1824447, 40.3452077 ], [ -4.1824563, 40.3452625 ], [ -4.1824747, 40.3453732 ], [ -4.1825153, 40.3456755 ], [ -4.1825476, 40.345976 ], [ -4.1825513, 40.3461886 ], [ -4.1825458, 40.3463445 ], [ -4.1825274, 40.3465024 ], [ -4.1824386, 40.3473519 ], [ -4.1824012, 40.347773 ], [ -4.182401, 40.347774 ] ] ] } }
]
}
