{
"type": "FeatureCollection",
"name": "28111",
"features": [
{ "type": "Feature", "properties": { "CCAA": "13 - Comunidad de Madrid", "PROVINCIA": "28 - Madrid", "MUNICIPIO": "28111 - Pezuela de las Torres", "COD_MUNICIPIO": "28111", "DISTRITO": "01", "SECCION": "2811101001", "V1_H": 80.27, "V1_M": 86.36, "V2_H": 80.04050342, "V2_M": 86.25745667, "V3_H": 80.55487256000001, "V3_M": 86.64917866 }, "geometry": { "type": "Polygon", "coordinates": [ [ [ -3.1555775, 40.4394245 ], [ -3.1569955, 40.4394386 ], [ -3.1576061, 40.4395329 ], [ -3.158148, 40.439542 ], [ -3.1590389, 40.4391337 ], [ -3.1597411, 40.4389846 ], [ -3.1600574, 40.4389503 ], [ -3.1602671, 40.4389276 ], [ -3.1603681, 40.4389086 ], [ -3.161326, 40.438678 ], [ -3.1626224, 40.4385148 ], [ -3.1633729, 40.4385524 ], [ -3.1641286, 40.4385345 ], [ -3.1653427, 40.438606 ], [ -3.1662625, 40.4386429 ], [ -3.1672671, 40.438728 ], [ -3.1679475, 40.4387104 ], [ -3.1690409, 40.4387877 ], [ -3.1696094, 40.4385975 ], [ -3.1696321, 40.4385724 ], [ -3.1704491, 40.4376646 ], [ -3.1715866, 40.4369815 ], [ -3.1726407, 40.436262 ], [ -3.1731013, 40.4371242 ], [ -3.1742538, 40.4379603 ], [ -3.1742705, 40.4379679 ], [ -3.1760936, 40.4387998 ], [ -3.1773031, 40.4391937 ], [ -3.1794413, 40.4396096 ], [ -3.1809458, 40.4398253 ], [ -3.1824916, 40.4400255 ], [ -3.1840841, 40.4399126 ], [ -3.1854358, 40.4399172 ], [ -3.1867439, 40.4402133 ], [ -3.1875666, 40.4408025 ], [ -3.1882986, 40.4411347 ], [ -3.1891717, 40.4413224 ], [ -3.1926387, 40.4414519 ], [ -3.1934173, 40.4415677 ], [ -3.1941643, 40.441659 ], [ -3.1944706, 40.4417132 ], [ -3.1957639, 40.4418679 ], [ -3.1985972, 40.4422515 ], [ -3.1986184, 40.442225 ], [ -3.2000185, 40.4404692 ], [ -3.201995, 40.4401577 ], [ -3.2033417, 40.4390499 ], [ -3.2055794, 40.4381605 ], [ -3.2061901, 40.4379177 ], [ -3.2061988, 40.4379143 ], [ -3.2077432, 40.4370701 ], [ -3.2101408, 40.4345928 ], [ -3.2111578, 40.4344306 ], [ -3.212014, 40.4333741 ], [ -3.2120375, 40.4322082 ], [ -3.2122251, 40.430388 ], [ -3.2136059, 40.4285702 ], [ -3.2139418, 40.4278038 ], [ -3.2148505, 40.4262336 ], [ -3.214765, 40.42454 ], [ -3.2146951, 40.4234885 ], [ -3.2146597, 40.4229563 ], [ -3.2146474, 40.4227709 ], [ -3.2146234, 40.420797 ], [ -3.2149069, 40.4194658 ], [ -3.2160336, 40.417933 ], [ -3.2160772, 40.4164465 ], [ -3.2158797, 40.4121693 ], [ -3.2152322, 40.4093992 ], [ -3.2170311, 40.4076986 ], [ -3.2178697, 40.40606 ], [ -3.2187776, 40.4043538 ], [ -3.219319, 40.4030492 ], [ -3.2199539, 40.4022209 ], [ -3.2202686, 40.4015059 ], [ -3.2208894, 40.4003641 ], [ -3.2218092, 40.3998408 ], [ -3.2224397, 40.3994909 ], [ -3.2228903, 40.3989036 ], [ -3.2234719, 40.3983781 ], [ -3.2237537, 40.397337 ], [ -3.2234849, 40.3969375 ], [ -3.2233736, 40.3957044 ], [ -3.2233699, 40.3956728 ], [ -3.2236303, 40.3956588 ], [ -3.2236821, 40.3956524 ], [ -3.223721, 40.3956406 ], [ -3.2237551, 40.3956271 ], [ -3.2237892, 40.3956125 ], [ -3.2238163, 40.3956035 ], [ -3.2238551, 40.3955962 ], [ -3.2239823, 40.3955797 ], [ -3.2243498, 40.3955277 ], [ -3.2245583, 40.3954922 ], [ -3.2247173, 40.3954702 ], [ -3.2248904, 40.395451 ], [ -3.2249929, 40.39544 ], [ -3.2251601, 40.3954162 ], [ -3.2253191, 40.3953844 ], [ -3.2255829, 40.3953199 ], [ -3.225783, 40.3952736 ], [ -3.2259408, 40.39523 ], [ -3.2260585, 40.395192 ], [ -3.2261808, 40.3951395 ], [ -3.2262985, 40.3950861 ], [ -3.2266044, 40.3949269 ], [ -3.2269384, 40.3947461 ], [ -3.2271994, 40.3945762 ], [ -3.227351, 40.394466 ], [ -3.2275661, 40.3942935 ], [ -3.2277858, 40.3941039 ], [ -3.2279679, 40.3939558 ], [ -3.2281536, 40.3937978 ], [ -3.2282981, 40.3936651 ], [ -3.2284214, 40.3935405 ], [ -3.2285587, 40.393369 ], [ -3.2287146, 40.3931435 ], [ -3.2287919, 40.3930046 ], [ -3.2288551, 40.3928729 ], [ -3.2290246, 40.3924663 ], [ -3.2291168, 40.392221 ], [ -3.2291564, 40.3920814 ], [ -3.2291774, 40.3920065 ], [ -3.2291936, 40.3919146 ], [ -3.2291968, 40.3918173 ], [ -3.2291881, 40.391693 ], [ -3.2291823, 40.3913705 ], [ -3.2291754, 40.3910651 ], [ -3.2291731, 40.3907236 ], [ -3.2292187, 40.3902974 ], [ -3.2292326, 40.3898406 ], [ -3.2292385, 40.3895018 ], [ -3.2292222, 40.3891974 ], [ -3.2292175, 40.3888919 ], [ -3.2292003, 40.3886631 ], [ -3.2291701, 40.3884632 ], [ -3.2291068, 40.3882084 ], [ -3.2290747, 40.3881058 ], [ -3.2290379, 40.3880229 ], [ -3.2290023, 40.3879644 ], [ -3.2289349, 40.3878682 ], [ -3.2287847, 40.3876919 ], [ -3.2286841, 40.3875732 ], [ -3.2286403, 40.3875138 ], [ -3.2285715, 40.3873923 ], [ -3.2285146, 40.3872861 ], [ -3.2284495, 40.3871799 ], [ -3.2283725, 40.3870656 ], [ -3.2282246, 40.3868803 ], [ -3.2280613, 40.3866627 ], [ -3.2278731, 40.3864026 ], [ -3.2277144, 40.3861624 ], [ -3.2276219, 40.385986 ], [ -3.2274809, 40.3857259 ], [ -3.2273505, 40.3854714 ], [ -3.2273353, 40.3854418 ], [ -3.2261695, 40.3853314 ], [ -3.2248079, 40.3851258 ], [ -3.2230178, 40.3853232 ], [ -3.2217831, 40.3857841 ], [ -3.2209297, 40.3861194 ], [ -3.2193394, 40.3864176 ], [ -3.2180807, 40.3865967 ], [ -3.2185618, 40.3871706 ], [ -3.2178698, 40.3874281 ], [ -3.2164172, 40.3880644 ], [ -3.2152932, 40.388658 ], [ -3.2148665, 40.3888979 ], [ -3.2139738, 40.3892942 ], [ -3.2121958, 40.3896036 ], [ -3.2104842, 40.3901386 ], [ -3.2080988, 40.3906627 ], [ -3.2062578, 40.3911046 ], [ -3.2044361, 40.3912597 ], [ -3.2035501, 40.3912963 ], [ -3.2018542, 40.3911605 ], [ -3.2011004, 40.3905659 ], [ -3.1995801, 40.3893667 ], [ -3.199093, 40.3889442 ], [ -3.198414, 40.3884975 ], [ -3.1983627, 40.3883144 ], [ -3.1982402, 40.3882217 ], [ -3.1977564, 40.3878554 ], [ -3.1974549, 40.3876271 ], [ -3.1970329, 40.3873311 ], [ -3.1965155, 40.3869809 ], [ -3.1949099, 40.3859837 ], [ -3.1938048, 40.3850885 ], [ -3.1925976, 40.3840047 ], [ -3.1913934, 40.382914 ], [ -3.1902438, 40.381902 ], [ -3.1889241, 40.3808925 ], [ -3.1874542, 40.380236 ], [ -3.1854994, 40.379562 ], [ -3.1842417, 40.37843 ], [ -3.1838757, 40.3756741 ], [ -3.1836502, 40.3745106 ], [ -3.1823413, 40.3741002 ], [ -3.1812222, 40.3740204 ], [ -3.1799124, 40.3739806 ], [ -3.178206, 40.3739704 ], [ -3.1774415, 40.3740688 ], [ -3.1768212, 40.3741666 ], [ -3.1738036, 40.3761351 ], [ -3.1698106, 40.3772572 ], [ -3.1684995, 40.3777357 ], [ -3.166704, 40.3781437 ], [ -3.1605452, 40.3786586 ], [ -3.1579525, 40.3782306 ], [ -3.1549814, 40.3776633 ], [ -3.1526986, 40.3767285 ], [ -3.1507821, 40.3762688 ], [ -3.1501264, 40.3734219 ], [ -3.1500544, 40.3731093 ], [ -3.148508, 40.3734005 ], [ -3.1453746, 40.373677 ], [ -3.1432371, 40.3741773 ], [ -3.1408395, 40.3748088 ], [ -3.1382874, 40.3755424 ], [ -3.138765, 40.3760515 ], [ -3.1389764, 40.3761831 ], [ -3.1392616, 40.3763607 ], [ -3.1396987, 40.3766692 ], [ -3.1398028, 40.3769218 ], [ -3.1397906, 40.3769867 ], [ -3.1397589, 40.3771552 ], [ -3.139702, 40.37732 ], [ -3.1397187, 40.3775144 ], [ -3.1399242, 40.3776085 ], [ -3.1400984, 40.3775497 ], [ -3.140217, 40.3775097 ], [ -3.1405283, 40.3775424 ], [ -3.1406817, 40.3776358 ], [ -3.1407444, 40.3777794 ], [ -3.1407385, 40.3779848 ], [ -3.14073, 40.3782758 ], [ -3.1407293, 40.3783504 ], [ -3.1407268, 40.3786412 ], [ -3.1407212, 40.3788351 ], [ -3.1406328, 40.3790623 ], [ -3.1404562, 40.379254 ], [ -3.1403431, 40.3795665 ], [ -3.1403801, 40.3798296 ], [ -3.140457, 40.3799961 ], [ -3.1406202, 40.3801412 ], [ -3.1406527, 40.38017 ], [ -3.1408849, 40.3803673 ], [ -3.1410285, 40.3805405 ], [ -3.1411175, 40.3808043 ], [ -3.1411427, 40.3808706 ], [ -3.1412419, 40.3811313 ], [ -3.1414126, 40.3813962 ], [ -3.1415751, 40.3816896 ], [ -3.141545, 40.3819575 ], [ -3.1415414, 40.3820846 ], [ -3.1415386, 40.38218 ], [ -3.1416735, 40.3823988 ], [ -3.1416675, 40.3826042 ], [ -3.1415863, 40.3828429 ], [ -3.141594, 40.3830885 ], [ -3.1417277, 40.3833471 ], [ -3.1419484, 40.3834301 ], [ -3.1421253, 40.3834611 ], [ -3.142407, 40.3835105 ], [ -3.142948, 40.3835748 ], [ -3.1431764, 40.3836464 ], [ -3.1432692, 40.383779 ], [ -3.1432683, 40.3838095 ], [ -3.1432655, 40.3839045 ], [ -3.1432057, 40.384172 ], [ -3.1431373, 40.3844793 ], [ -3.1430755, 40.3848154 ], [ -3.1431036, 40.3851297 ], [ -3.1432578, 40.3854514 ], [ -3.1434823, 40.38566 ], [ -3.1435433, 40.3857806 ], [ -3.1435642, 40.385911 ], [ -3.1435615, 40.3860036 ], [ -3.1434661, 40.3862192 ], [ -3.1433455, 40.3865316 ], [ -3.1432713, 40.3867817 ], [ -3.1433083, 40.3870448 ], [ -3.1433442, 40.387534 ], [ -3.1420837, 40.3878121 ], [ -3.142057, 40.387818 ], [ -3.1416993, 40.3878987 ], [ -3.1402573, 40.388156 ], [ -3.1399374, 40.3882343 ], [ -3.1394155, 40.3883173 ], [ -3.1377346, 40.3887602 ], [ -3.136855, 40.3893474 ], [ -3.136381, 40.389578 ], [ -3.1354023, 40.3901049 ], [ -3.1353911, 40.3903719 ], [ -3.1353487, 40.3904231 ], [ -3.1350907, 40.391036 ], [ -3.1350316, 40.3914595 ], [ -3.1349138, 40.3923037 ], [ -3.1349112, 40.3923223 ], [ -3.1345313, 40.3935193 ], [ -3.1344686, 40.3939507 ], [ -3.1347616, 40.3956351 ], [ -3.1349459, 40.3960793 ], [ -3.1348643, 40.396395 ], [ -3.1345412, 40.397216 ], [ -3.1340968, 40.3982207 ], [ -3.1340947, 40.3987222 ], [ -3.1340939, 40.3989037 ], [ -3.1340966, 40.3997494 ], [ -3.1331164, 40.4009943 ], [ -3.1323454, 40.4021351 ], [ -3.1319352, 40.402943 ], [ -3.1313434, 40.4039015 ], [ -3.1305965, 40.4051205 ], [ -3.1305574, 40.4051843 ], [ -3.1310064, 40.4054304 ], [ -3.132135, 40.4060609 ], [ -3.1330633, 40.4065734 ], [ -3.1334775, 40.4068161 ], [ -3.1354695, 40.4078865 ], [ -3.1372952, 40.40869 ], [ -3.1384017, 40.4097349 ], [ -3.1406215, 40.4114364 ], [ -3.1420735, 40.4124567 ], [ -3.1425559, 40.4141685 ], [ -3.1432532, 40.4151117 ], [ -3.1435346, 40.4155929 ], [ -3.1436608, 40.4158154 ], [ -3.1442742, 40.416698 ], [ -3.1459703, 40.4180894 ], [ -3.1473656, 40.4195871 ], [ -3.1473306, 40.4197003 ], [ -3.1474471, 40.420307 ], [ -3.1475411, 40.4215983 ], [ -3.147578, 40.4220957 ], [ -3.1476336, 40.4227089 ], [ -3.1478247, 40.4235772 ], [ -3.1491671, 40.4244587 ], [ -3.1500941, 40.4252296 ], [ -3.1510105, 40.4264367 ], [ -3.1512312, 40.4269427 ], [ -3.151213, 40.4277421 ], [ -3.151198, 40.4283955 ], [ -3.1511138, 40.4296775 ], [ -3.1510633, 40.4304453 ], [ -3.1509449, 40.4309593 ], [ -3.1512603, 40.4316197 ], [ -3.1514481, 40.4320041 ], [ -3.1518628, 40.4325468 ], [ -3.152095, 40.4327467 ], [ -3.1522725, 40.4331705 ], [ -3.1528247, 40.4337836 ], [ -3.1533549, 40.4341514 ], [ -3.1535006, 40.434527 ], [ -3.1539345, 40.4349822 ], [ -3.1538889, 40.435687 ], [ -3.154382, 40.4362811 ], [ -3.1544115, 40.4365716 ], [ -3.154559, 40.436879 ], [ -3.1542109, 40.4371305 ], [ -3.1544077, 40.4376148 ], [ -3.1544898, 40.4378026 ], [ -3.1548534, 40.4384994 ], [ -3.1555147, 40.4394239 ], [ -3.1555775, 40.4394245 ] ] ] } }
]
}
