{
"type": "FeatureCollection",
"name": "28120",
"features": [
{ "type": "Feature", "properties": { "CCAA": "13 - Comunidad de Madrid", "PROVINCIA": "28 - Madrid", "MUNICIPIO": "28120 - Rascafría", "COD_MUNICIPIO": "28120", "DISTRITO": "01", "SECCION": "2812001001", "V1_H": 80.91, "V1_M": 86.7, "V2_H": 80.91796575, "V2_M": 86.73459974, "V3_H": 81.00259482, "V3_M": 86.81948346 }, "geometry": { "type": "Polygon", "coordinates": [ [ [ -3.8194436, 40.8605376 ], [ -3.8200953, 40.8598374 ], [ -3.8214613, 40.8594033 ], [ -3.8232557, 40.8587957 ], [ -3.824059, 40.8585169 ], [ -3.8254092, 40.8602286 ], [ -3.8287705, 40.8644899 ], [ -3.8288553, 40.8655017 ], [ -3.8289985, 40.8666219 ], [ -3.8294969, 40.8674375 ], [ -3.8316389, 40.8714338 ], [ -3.8341884, 40.8751487 ], [ -3.8347207, 40.8750327 ], [ -3.8353116, 40.8750195 ], [ -3.8361361, 40.8752792 ], [ -3.8361883, 40.8753419 ], [ -3.8363379, 40.8754391 ], [ -3.8364202, 40.8755019 ], [ -3.8365925, 40.8755649 ], [ -3.8366373, 40.8756106 ], [ -3.8368395, 40.8757192 ], [ -3.8369815, 40.8758334 ], [ -3.8370862, 40.8759077 ], [ -3.8372134, 40.8759763 ], [ -3.8373402, 40.8761246 ], [ -3.837385, 40.8761646 ], [ -3.8374445, 40.8762729 ], [ -3.8374666, 40.8763469 ], [ -3.8375176, 40.8765974 ], [ -3.8375245, 40.8767056 ], [ -3.8375013, 40.8768136 ], [ -3.8374706, 40.876916 ], [ -3.8374101, 40.8769898 ], [ -3.8372741, 40.8771146 ], [ -3.8371986, 40.8771827 ], [ -3.8370175, 40.8773245 ], [ -3.8369495, 40.8773925 ], [ -3.836964, 40.8774837 ], [ -3.8370311, 40.8775464 ], [ -3.8372709, 40.8776438 ], [ -3.8374358, 40.8776898 ], [ -3.8375707, 40.8777527 ], [ -3.8376154, 40.8778098 ], [ -3.8376828, 40.8778498 ], [ -3.8378852, 40.8779072 ], [ -3.8379302, 40.8779244 ], [ -3.8381329, 40.8779478 ], [ -3.8383128, 40.8780108 ], [ -3.8385075, 40.8780796 ], [ -3.838567, 40.8781879 ], [ -3.8385283, 40.8783813 ], [ -3.8381646, 40.8789095 ], [ -3.8380585, 40.8790629 ], [ -3.8380199, 40.8792335 ], [ -3.8379888, 40.8794098 ], [ -3.8379431, 40.8795121 ], [ -3.8379049, 40.8796087 ], [ -3.8378592, 40.8797281 ], [ -3.837791, 40.8798304 ], [ -3.837738, 40.8798985 ], [ -3.8376249, 40.8799665 ], [ -3.8374817, 40.8800401 ], [ -3.8372482, 40.8801532 ], [ -3.8371277, 40.8802042 ], [ -3.8370072, 40.8802494 ], [ -3.8369094, 40.8802775 ], [ -3.8368639, 40.8803457 ], [ -3.8368332, 40.8804594 ], [ -3.836795, 40.8805674 ], [ -3.8368466, 40.8807326 ], [ -3.8369135, 40.8808466 ], [ -3.8370179, 40.8809664 ], [ -3.837152, 40.8811488 ], [ -3.8371512, 40.8812797 ], [ -3.8370898, 40.8814958 ], [ -3.8370438, 40.8816493 ], [ -3.8370051, 40.8818313 ], [ -3.8369369, 40.8819449 ], [ -3.8368313, 40.8819959 ], [ -3.8366128, 40.8821091 ], [ -3.8364999, 40.8821486 ], [ -3.8362592, 40.8822105 ], [ -3.8360108, 40.8823009 ], [ -3.83586, 40.8823745 ], [ -3.8357545, 40.8824482 ], [ -3.8357088, 40.8825391 ], [ -3.8357002, 40.8827268 ], [ -3.8356842, 40.8828804 ], [ -3.8356455, 40.8830681 ], [ -3.8356674, 40.8831649 ], [ -3.8357565, 40.8833473 ], [ -3.8358011, 40.8834157 ], [ -3.8358456, 40.8835239 ], [ -3.8359048, 40.8836663 ], [ -3.8359114, 40.88382 ], [ -3.8358957, 40.8839167 ], [ -3.8358126, 40.8840075 ], [ -3.8357294, 40.8840927 ], [ -3.8356087, 40.8841834 ], [ -3.835488, 40.884257 ], [ -3.83545, 40.8843423 ], [ -3.835419, 40.8844958 ], [ -3.8354022, 40.8847803 ], [ -3.8354166, 40.8848942 ], [ -3.8354008, 40.8850079 ], [ -3.8353399, 40.8851443 ], [ -3.8352491, 40.8852465 ], [ -3.8351884, 40.8853602 ], [ -3.8351653, 40.8854341 ], [ -3.8350823, 40.8855079 ], [ -3.8349236, 40.885661 ], [ -3.8347951, 40.8857973 ], [ -3.8346818, 40.885888 ], [ -3.8345985, 40.8860073 ], [ -3.8346125, 40.8861723 ], [ -3.8347393, 40.8863206 ], [ -3.8349341, 40.8864122 ], [ -3.8351512, 40.8865266 ], [ -3.8353309, 40.8866239 ], [ -3.8354052, 40.8867492 ], [ -3.8354495, 40.8868859 ], [ -3.8354558, 40.8870737 ], [ -3.8354996, 40.8872787 ], [ -3.8354988, 40.8874267 ], [ -3.8354531, 40.8875233 ], [ -3.8354217, 40.8877394 ], [ -3.8353757, 40.8878872 ], [ -3.8353671, 40.888075 ], [ -3.8353965, 40.8881832 ], [ -3.835478, 40.8883598 ], [ -3.8355899, 40.8885024 ], [ -3.8356718, 40.8886164 ], [ -3.8356784, 40.8887701 ], [ -3.835632, 40.8889805 ], [ -3.8356009, 40.8891569 ], [ -3.8355921, 40.8893674 ], [ -3.8356361, 40.8895496 ], [ -3.8357027, 40.8897148 ], [ -3.8357992, 40.8899028 ], [ -3.8359103, 40.8901649 ], [ -3.8359544, 40.89033 ], [ -3.8359366, 40.8907795 ], [ -3.8359211, 40.8908592 ], [ -3.8358523, 40.8910639 ], [ -3.8358058, 40.89128 ], [ -3.8357899, 40.8914393 ], [ -3.8357964, 40.8915986 ], [ -3.8359006, 40.8917525 ], [ -3.8359527, 40.891838 ], [ -3.8360498, 40.8919237 ], [ -3.8362592, 40.8920892 ], [ -3.8364759, 40.8922719 ], [ -3.8366625, 40.8924716 ], [ -3.8368942, 40.8926828 ], [ -3.8371782, 40.8929169 ], [ -3.8373875, 40.8930995 ], [ -3.8376119, 40.8932651 ], [ -3.8377686, 40.8934363 ], [ -3.8378876, 40.8936358 ], [ -3.8379468, 40.8937839 ], [ -3.8380054, 40.8940288 ], [ -3.8379815, 40.8942563 ], [ -3.8379045, 40.8945577 ], [ -3.8378057, 40.8947452 ], [ -3.8376838, 40.8950237 ], [ -3.8375552, 40.8951713 ], [ -3.8373664, 40.8953302 ], [ -3.8371929, 40.8954492 ], [ -3.8371093, 40.8956139 ], [ -3.8372121, 40.8959999 ], [ -3.837219, 40.8960342 ], [ -3.8372557, 40.8960914 ], [ -3.837336, 40.8962402 ], [ -3.8376121, 40.8963679 ], [ -3.8376795, 40.8963856 ], [ -3.8377615, 40.8964262 ], [ -3.8379404, 40.8965189 ], [ -3.8379404, 40.8965246 ], [ -3.8381421, 40.8966061 ], [ -3.8383401, 40.8969096 ], [ -3.8383535, 40.8970065 ], [ -3.8383503, 40.8972 ], [ -3.8383711, 40.8973026 ], [ -3.8384515, 40.8974457 ], [ -3.8385999, 40.8975609 ], [ -3.8388389, 40.8976598 ], [ -3.8391246, 40.8976681 ], [ -3.8393432, 40.8976359 ], [ -3.8395771, 40.8975925 ], [ -3.8398562, 40.8975438 ], [ -3.8401277, 40.8975008 ], [ -3.8403008, 40.897491 ], [ -3.8404287, 40.8974921 ], [ -3.8408318, 40.8976723 ], [ -3.840852, 40.8978148 ], [ -3.8408509, 40.8978773 ], [ -3.8408931, 40.8980542 ], [ -3.8409221, 40.8981171 ], [ -3.8409433, 40.8982026 ], [ -3.8410388, 40.8983401 ], [ -3.8411729, 40.8984153 ], [ -3.8413141, 40.8985134 ], [ -3.8414031, 40.8985882 ], [ -3.8414534, 40.8987309 ], [ -3.8413823, 40.8989352 ], [ -3.8412662, 40.8991334 ], [ -3.841173, 40.899309 ], [ -3.8411846, 40.899514 ], [ -3.8413097, 40.8996802 ], [ -3.8414355, 40.8998009 ], [ -3.8416069, 40.8998992 ], [ -3.8417253, 40.9000198 ], [ -3.8417608, 40.9001397 ], [ -3.8417346, 40.9003614 ], [ -3.8416328, 40.9005995 ], [ -3.8413944, 40.9009161 ], [ -3.8411884, 40.9010907 ], [ -3.8410727, 40.9012604 ], [ -3.8410236, 40.9014991 ], [ -3.8411098, 40.9017446 ], [ -3.8412195, 40.9019334 ], [ -3.8412534, 40.9021557 ], [ -3.8412277, 40.9023376 ], [ -3.8411192, 40.9025302 ], [ -3.8408361, 40.9028179 ], [ -3.8406751, 40.9030042 ], [ -3.8405063, 40.903202 ], [ -3.8404055, 40.9033832 ], [ -3.8403803, 40.9036526 ], [ -3.8403688, 40.9037756 ], [ -3.840452, 40.9038439 ], [ -3.840495, 40.9038792 ], [ -3.840644, 40.9039659 ], [ -3.8409205, 40.9040709 ], [ -3.8412267, 40.9041989 ], [ -3.8413762, 40.9042572 ], [ -3.8414882, 40.9043095 ], [ -3.8415846, 40.90439 ], [ -3.8416486, 40.9046126 ], [ -3.8416758, 40.9047836 ], [ -3.8417032, 40.9049489 ], [ -3.8417596, 40.9051714 ], [ -3.8417114, 40.9053588 ], [ -3.8416996, 40.9056148 ], [ -3.8417642, 40.9058033 ], [ -3.8421919, 40.9063137 ], [ -3.8423394, 40.9064915 ], [ -3.8424725, 40.9066237 ], [ -3.8425908, 40.90675 ], [ -3.8426634, 40.90691 ], [ -3.8427066, 40.908379 ], [ -3.8431847, 40.9099315 ], [ -3.8435462, 40.9099063 ], [ -3.8455035, 40.9120757 ], [ -3.8470703, 40.9137633 ], [ -3.8481306, 40.9148294 ], [ -3.8481728, 40.9148718 ], [ -3.8501144, 40.9166482 ], [ -3.8502266, 40.9168165 ], [ -3.8504125, 40.9170848 ], [ -3.8504277, 40.9170974 ], [ -3.8507635, 40.9173764 ], [ -3.85104, 40.9175995 ], [ -3.8512266, 40.917771 ], [ -3.8513983, 40.9179311 ], [ -3.8515704, 40.9180343 ], [ -3.8518101, 40.9181491 ], [ -3.8520422, 40.918281 ], [ -3.852153, 40.9183452 ], [ -3.8521776, 40.9183595 ], [ -3.8522892, 40.9184242 ], [ -3.8524992, 40.9184991 ], [ -3.8527232, 40.9186992 ], [ -3.8530212, 40.9190419 ], [ -3.8532824, 40.9192933 ], [ -3.853484, 40.9194649 ], [ -3.8536692, 40.9198185 ], [ -3.8539158, 40.9200073 ], [ -3.8542692, 40.9202698 ], [ -3.85496, 40.9207503 ], [ -3.8552795, 40.9209646 ], [ -3.8556952, 40.9212655 ], [ -3.8560213, 40.9215311 ], [ -3.8563544, 40.9218197 ], [ -3.8566952, 40.9221027 ], [ -3.8569674, 40.9224305 ], [ -3.8572856, 40.9227132 ], [ -3.8576191, 40.9229846 ], [ -3.8579158, 40.9232101 ], [ -3.8581905, 40.9234068 ], [ -3.8585252, 40.9236156 ], [ -3.8589124, 40.9238363 ], [ -3.8592253, 40.924005 ], [ -3.8595241, 40.9241222 ], [ -3.8597485, 40.9241986 ], [ -3.8599283, 40.9242404 ], [ -3.8601299, 40.9243281 ], [ -3.8603749, 40.9245017 ], [ -3.8605899, 40.924675 ], [ -3.8608283, 40.924803 ], [ -3.8611553, 40.925023 ], [ -3.8614222, 40.9252367 ], [ -3.8617331, 40.925508 ], [ -3.862089, 40.9257911 ], [ -3.8624522, 40.9260856 ], [ -3.8629661, 40.9263704 ], [ -3.8632706, 40.9265845 ], [ -3.8636657, 40.9267825 ], [ -3.8640095, 40.9269116 ], [ -3.8643988, 40.927024 ], [ -3.8646756, 40.9271124 ], [ -3.8648844, 40.9272172 ], [ -3.8651514, 40.9274253 ], [ -3.8653951, 40.927673 ], [ -3.8656535, 40.9279379 ], [ -3.8658881, 40.9282653 ], [ -3.8661898, 40.9286276 ], [ -3.8663884, 40.9288748 ], [ -3.866683, 40.9292086 ], [ -3.8669487, 40.9294907 ], [ -3.8672436, 40.929813 ], [ -3.8675601, 40.9301869 ], [ -3.8679065, 40.9305782 ], [ -3.8682841, 40.9309071 ], [ -3.8686975, 40.931339 ], [ -3.8691413, 40.9317484 ], [ -3.869415, 40.932002 ], [ -3.8698979, 40.9323378 ], [ -3.8703359, 40.9326616 ], [ -3.8706994, 40.9329447 ], [ -3.8711007, 40.9332169 ], [ -3.8716823, 40.9335137 ], [ -3.8721674, 40.9337354 ], [ -3.8728553, 40.933982 ], [ -3.8733872, 40.9341188 ], [ -3.8739278, 40.9341928 ], [ -3.8744986, 40.9342615 ], [ -3.8751832, 40.9342915 ], [ -3.8756797, 40.9343081 ], [ -3.8762889, 40.9343372 ], [ -3.8768237, 40.93432 ], [ -3.8773506, 40.9343255 ], [ -3.8778851, 40.9343254 ], [ -3.878449, 40.9343655 ], [ -3.8789223, 40.934416 ], [ -3.8792597, 40.9344879 ], [ -3.8796121, 40.9345657 ], [ -3.8799568, 40.9346491 ], [ -3.8803306, 40.9347898 ], [ -3.8806812, 40.9349588 ], [ -3.8809713, 40.9351442 ], [ -3.8812467, 40.9353124 ], [ -3.8816035, 40.9355499 ], [ -3.8818858, 40.9357523 ], [ -3.8823585, 40.9362361 ], [ -3.8825726, 40.9364606 ], [ -3.8827039, 40.9366843 ], [ -3.8828198, 40.9369249 ], [ -3.8829137, 40.9371368 ], [ -3.8829708, 40.9373027 ], [ -3.8830429, 40.9374688 ], [ -3.8830818, 40.9376695 ], [ -3.8832638, 40.9382864 ], [ -3.8839246, 40.9391743 ], [ -3.8860185, 40.9412517 ], [ -3.886016, 40.94372 ], [ -3.8867432, 40.9447452 ], [ -3.8872544, 40.9455581 ], [ -3.8893206, 40.9466774 ], [ -3.8905178, 40.9473921 ], [ -3.8907121, 40.9475188 ], [ -3.8932647, 40.9496902 ], [ -3.8942274, 40.9505288 ], [ -3.8946299, 40.9509247 ], [ -3.8958471, 40.9534124 ], [ -3.8958826, 40.9534821 ], [ -3.8959877, 40.9538195 ], [ -3.8968174, 40.9556934 ], [ -3.8986989, 40.9583218 ], [ -3.8988899, 40.9582105 ], [ -3.8989895, 40.9581378 ], [ -3.8991948, 40.9580551 ], [ -3.8993392, 40.9580001 ], [ -3.9013355, 40.9573435 ], [ -3.9023023, 40.9569065 ], [ -3.9042084, 40.9565438 ], [ -3.9042315, 40.9565394 ], [ -3.9071562, 40.955149 ], [ -3.9083522, 40.952955 ], [ -3.9093939, 40.951881 ], [ -3.9099177, 40.9497634 ], [ -3.9103704, 40.9497239 ], [ -3.9122222, 40.9492584 ], [ -3.9125218, 40.949183 ], [ -3.9118483, 40.947628 ], [ -3.9114497, 40.946708 ], [ -3.9119086, 40.9457573 ], [ -3.9118805, 40.9446974 ], [ -3.9122396, 40.9445936 ], [ -3.9172254, 40.9431511 ], [ -3.9185062, 40.9406959 ], [ -3.9196316, 40.9385381 ], [ -3.9200873, 40.9377267 ], [ -3.9201722, 40.9370313 ], [ -3.9212102, 40.9323912 ], [ -3.921756, 40.929951 ], [ -3.9273672, 40.9276463 ], [ -3.9298029, 40.9270479 ], [ -3.9337289, 40.9272261 ], [ -3.9375934, 40.9264621 ], [ -3.937652, 40.9264562 ], [ -3.9378264, 40.9264386 ], [ -3.9375966, 40.9252688 ], [ -3.9366275, 40.9209181 ], [ -3.9366021, 40.9202711 ], [ -3.9371713, 40.9168434 ], [ -3.9373128, 40.9159324 ], [ -3.9376317, 40.9152138 ], [ -3.9398769, 40.9133708 ], [ -3.9411372, 40.9126223 ], [ -3.9418523, 40.9119679 ], [ -3.942097, 40.9116416 ], [ -3.9428563, 40.909086 ], [ -3.9437764, 40.9069886 ], [ -3.9450243, 40.9045642 ], [ -3.9456155, 40.9035595 ], [ -3.9468385, 40.9014669 ], [ -3.9469949, 40.9012467 ], [ -3.9471936, 40.9009972 ], [ -3.9487793, 40.8997951 ], [ -3.9492589, 40.8992957 ], [ -3.9510164, 40.89684 ], [ -3.9518032, 40.8954102 ], [ -3.9525481, 40.8943681 ], [ -3.9526951, 40.8938625 ], [ -3.9527252, 40.8934748 ], [ -3.9525296, 40.8930801 ], [ -3.952034, 40.8924626 ], [ -3.9509853, 40.8913453 ], [ -3.9489081, 40.8896958 ], [ -3.948009, 40.8890817 ], [ -3.9473995, 40.8887894 ], [ -3.9462188, 40.8888147 ], [ -3.9454669, 40.8886972 ], [ -3.9446361, 40.8887699 ], [ -3.9432904, 40.8886519 ], [ -3.9429148, 40.8872767 ], [ -3.9427231, 40.8854767 ], [ -3.9434194, 40.8801741 ], [ -3.9437117, 40.8790277 ], [ -3.9439293, 40.8784764 ], [ -3.9445907, 40.877408 ], [ -3.9448411, 40.8770727 ], [ -3.9459291, 40.8756161 ], [ -3.9467636, 40.8744989 ], [ -3.9476303, 40.8733384 ], [ -3.9475297, 40.8712764 ], [ -3.9469833, 40.8704071 ], [ -3.9467251, 40.8695361 ], [ -3.9466717, 40.8693557 ], [ -3.9466532, 40.8690118 ], [ -3.9465826, 40.867699 ], [ -3.946478, 40.865754 ], [ -3.9466299, 40.8647528 ], [ -3.9470117, 40.8638256 ], [ -3.9470542, 40.8637224 ], [ -3.9475621, 40.8627183 ], [ -3.9484638, 40.861468 ], [ -3.9486209, 40.8612503 ], [ -3.9487415, 40.86116 ], [ -3.9496941, 40.8604471 ], [ -3.9502762, 40.8600115 ], [ -3.9506124, 40.85968 ], [ -3.9507091, 40.8595846 ], [ -3.9513242, 40.8586246 ], [ -3.9515778, 40.8581091 ], [ -3.951581, 40.8580927 ], [ -3.9519178, 40.8563289 ], [ -3.9519311, 40.8562595 ], [ -3.952496, 40.8551108 ], [ -3.9540268, 40.8534766 ], [ -3.9550523, 40.852189 ], [ -3.9558401, 40.8508672 ], [ -3.9563118, 40.8498454 ], [ -3.9563464, 40.8497484 ], [ -3.9566082, 40.8490142 ], [ -3.9568997, 40.8486045 ], [ -3.957108, 40.8483118 ], [ -3.9572013, 40.8481805 ], [ -3.9594135, 40.8461083 ], [ -3.9595501, 40.8460209 ], [ -3.9605676, 40.8453698 ], [ -3.9617526, 40.8446115 ], [ -3.9623176, 40.8443095 ], [ -3.962443, 40.8439571 ], [ -3.9630191, 40.840322 ], [ -3.9630742, 40.8402668 ], [ -3.964603, 40.8387376 ], [ -3.9648898, 40.8384506 ], [ -3.9653342, 40.8371948 ], [ -3.9654375, 40.8361399 ], [ -3.965401, 40.8352574 ], [ -3.96513, 40.8345661 ], [ -3.9647086, 40.8341282 ], [ -3.9644629, 40.8335447 ], [ -3.9641264, 40.8332412 ], [ -3.9634596, 40.8297786 ], [ -3.962223, 40.825456 ], [ -3.9620056, 40.823539 ], [ -3.9621034, 40.8220969 ], [ -3.9622733, 40.821546 ], [ -3.9641092, 40.8184889 ], [ -3.9641491, 40.8184224 ], [ -3.9644601, 40.8180241 ], [ -3.964673, 40.8177514 ], [ -3.9649036, 40.8156596 ], [ -3.9678254, 40.8119237 ], [ -3.9682708, 40.8115687 ], [ -3.9688467, 40.8112215 ], [ -3.9697889, 40.8107812 ], [ -3.9713768, 40.810188 ], [ -3.971935, 40.8099794 ], [ -3.9726176, 40.8096314 ], [ -3.9733091, 40.809085 ], [ -3.9735206, 40.8088721 ], [ -3.9749332, 40.8074498 ], [ -3.9751775, 40.8071325 ], [ -3.9754712, 40.8061391 ], [ -3.9755067, 40.8055482 ], [ -3.9755189, 40.8053459 ], [ -3.975497, 40.8050413 ], [ -3.9754147, 40.8038965 ], [ -3.9754735, 40.8038191 ], [ -3.9759356, 40.8032104 ], [ -3.9760892, 40.803008 ], [ -3.9766335, 40.8025342 ], [ -3.9769672, 40.8022438 ], [ -3.9793236, 40.8004492 ], [ -3.9796585, 40.7998428 ], [ -3.9797455, 40.7995727 ], [ -3.9797719, 40.7994906 ], [ -3.979729, 40.7989955 ], [ -3.9791562, 40.7979283 ], [ -3.9790076, 40.7974972 ], [ -3.9789917, 40.7972865 ], [ -3.9789783, 40.7971101 ], [ -3.9791056, 40.7962191 ], [ -3.9794834, 40.7935745 ], [ -3.979552, 40.7925921 ], [ -3.9795197, 40.7920068 ], [ -3.9786598, 40.7899512 ], [ -3.9786187, 40.7898276 ], [ -3.9786151, 40.7898168 ], [ -3.9779406, 40.7877863 ], [ -3.9781522, 40.78733 ], [ -3.9758669, 40.7877255 ], [ -3.9745582, 40.7884125 ], [ -3.9732057, 40.7893101 ], [ -3.9710561, 40.7898584 ], [ -3.9686165, 40.7908681 ], [ -3.9662344, 40.7914058 ], [ -3.9648072, 40.7918234 ], [ -3.9645288, 40.7919245 ], [ -3.9641622, 40.7918207 ], [ -3.9631154, 40.7915233 ], [ -3.9630248, 40.7914976 ], [ -3.9629397, 40.7918325 ], [ -3.9627154, 40.7925818 ], [ -3.9627077, 40.7926045 ], [ -3.9626546, 40.7926668 ], [ -3.9623597, 40.7929327 ], [ -3.9602756, 40.7947096 ], [ -3.9600845, 40.7948724 ], [ -3.9520993, 40.7946563 ], [ -3.9505168, 40.7946607 ], [ -3.9472841, 40.7954935 ], [ -3.9430075, 40.795668 ], [ -3.9386018, 40.7960179 ], [ -3.9380074, 40.7962141 ], [ -3.9375852, 40.796451 ], [ -3.9349578, 40.7976392 ], [ -3.9328789, 40.7994636 ], [ -3.9312185, 40.8005068 ], [ -3.9303841, 40.8006361 ], [ -3.9224537, 40.800146 ], [ -3.9213416, 40.8002898 ], [ -3.9191532, 40.7998327 ], [ -3.9136499, 40.8006997 ], [ -3.9120196, 40.8013108 ], [ -3.9102001, 40.8024263 ], [ -3.9087968, 40.8028094 ], [ -3.90308, 40.8043702 ], [ -3.9007684, 40.8045215 ], [ -3.8984936, 40.8046703 ], [ -3.8971098, 40.8053119 ], [ -3.8959141, 40.8055115 ], [ -3.8953062, 40.8056105 ], [ -3.8931678, 40.8057764 ], [ -3.8909994, 40.8064938 ], [ -3.8891912, 40.8065288 ], [ -3.889171, 40.806539 ], [ -3.8891503, 40.8065486 ], [ -3.8891291, 40.8065576 ], [ -3.8891075, 40.806566 ], [ -3.8890855, 40.8065737 ], [ -3.889063, 40.8065807 ], [ -3.8890402, 40.8065871 ], [ -3.8890171, 40.8065927 ], [ -3.8889938, 40.8065977 ], [ -3.8889702, 40.8066019 ], [ -3.8889464, 40.8066055 ], [ -3.8889224, 40.8066083 ], [ -3.8888983, 40.8066105 ], [ -3.888874, 40.8066118 ], [ -3.8888498, 40.8066125 ], [ -3.8888256, 40.8066124 ], [ -3.8888013, 40.8066115 ], [ -3.8887772, 40.80661 ], [ -3.888753, 40.8066078 ], [ -3.8887291, 40.8066048 ], [ -3.8887053, 40.8066011 ], [ -3.8886817, 40.8065966 ], [ -3.8886585, 40.8065915 ], [ -3.8883508, 40.8066144 ], [ -3.8879907, 40.8067169 ], [ -3.8876906, 40.806791 ], [ -3.8873904, 40.8068365 ], [ -3.8859122, 40.8074398 ], [ -3.8853569, 40.8075764 ], [ -3.8829113, 40.8058777 ], [ -3.8791075, 40.8052936 ], [ -3.8773289, 40.806471 ], [ -3.8741242, 40.808928 ], [ -3.8709498, 40.8102195 ], [ -3.8684952, 40.8123009 ], [ -3.8680153, 40.8126613 ], [ -3.8660829, 40.8139275 ], [ -3.8651242, 40.8141372 ], [ -3.8644038, 40.8141241 ], [ -3.8618377, 40.8150072 ], [ -3.8545178, 40.8145403 ], [ -3.8542469, 40.8144508 ], [ -3.8525701, 40.813677 ], [ -3.8512289, 40.8133173 ], [ -3.846294, 40.8134706 ], [ -3.8440555, 40.8135511 ], [ -3.8405936, 40.812674 ], [ -3.83936, 40.8123512 ], [ -3.8381742, 40.8123067 ], [ -3.8375599, 40.812665 ], [ -3.8358097, 40.8135969 ], [ -3.82944, 40.8137824 ], [ -3.8260695, 40.8153502 ], [ -3.828089, 40.8154171 ], [ -3.8299394, 40.8185151 ], [ -3.830208, 40.8283573 ], [ -3.8302186, 40.8287413 ], [ -3.830281, 40.8310263 ], [ -3.8300712, 40.8311645 ], [ -3.8265352, 40.8334931 ], [ -3.8159081, 40.8405569 ], [ -3.8126066, 40.8438327 ], [ -3.8090543, 40.8473203 ], [ -3.8032208, 40.8482901 ], [ -3.7983224, 40.8489874 ], [ -3.7982938, 40.8489915 ], [ -3.7982401, 40.8489991 ], [ -3.7982685, 40.8493981 ], [ -3.7982484, 40.8506919 ], [ -3.7996674, 40.850951 ], [ -3.8015934, 40.8515588 ], [ -3.8030775, 40.852388 ], [ -3.8043606, 40.8530173 ], [ -3.8054728, 40.8534183 ], [ -3.8075411, 40.8544783 ], [ -3.8083096, 40.854726 ], [ -3.8086757, 40.8547902 ], [ -3.8094264, 40.8553616 ], [ -3.8095627, 40.856027 ], [ -3.8101971, 40.8562117 ], [ -3.8110786, 40.856386 ], [ -3.8126099, 40.8563682 ], [ -3.81427, 40.8563337 ], [ -3.8167002, 40.8562985 ], [ -3.8174128, 40.8567065 ], [ -3.818379, 40.8577639 ], [ -3.8194311, 40.8585321 ], [ -3.8196099, 40.8597888 ], [ -3.8194436, 40.8605376 ] ] ] } }
]
}
