{
"type": "FeatureCollection",
"name": "28147",
"features": [
{ "type": "Feature", "properties": { "CCAA": "13 - Comunidad de Madrid", "PROVINCIA": "28 - Madrid", "MUNICIPIO": "28147 - Titulcia", "COD_MUNICIPIO": "28147", "DISTRITO": "01", "SECCION": "2814701001", "V1_H": 80.3, "V1_M": 86.18, "V2_H": 80.25682951, "V2_M": 86.26310791, "V3_H": 80.49886239, "V3_M": 86.29802272000001 }, "geometry": { "type": "Polygon", "coordinates": [ [ [ -3.5356247, 40.1490738 ], [ -3.536061, 40.1490462 ], [ -3.5367097, 40.1489602 ], [ -3.5374554, 40.1489312 ], [ -3.5380447, 40.1490341 ], [ -3.5386043, 40.1493143 ], [ -3.5392462, 40.1498062 ], [ -3.5399022, 40.150199 ], [ -3.5402913, 40.150427 ], [ -3.5407104, 40.150672 ], [ -3.5411667, 40.1509055 ], [ -3.5417275, 40.1511043 ], [ -3.5422312, 40.1514609 ], [ -3.5422591, 40.1514807 ], [ -3.5426493, 40.1520004 ], [ -3.5429503, 40.1526291 ], [ -3.5432655, 40.1530804 ], [ -3.5436032, 40.1535144 ], [ -3.5437916, 40.1539889 ], [ -3.543851, 40.1544299 ], [ -3.5440936, 40.1556452 ], [ -3.545236, 40.1562728 ], [ -3.545993, 40.1574274 ], [ -3.5458614, 40.158665 ], [ -3.5454084, 40.1602892 ], [ -3.5452373, 40.1609023 ], [ -3.5453101, 40.1613044 ], [ -3.5454652, 40.1621614 ], [ -3.5453249, 40.1628895 ], [ -3.5438682, 40.1638339 ], [ -3.5440937, 40.1640496 ], [ -3.5445347, 40.1649707 ], [ -3.5446813, 40.1659564 ], [ -3.5454958, 40.1668511 ], [ -3.5473671, 40.168844 ], [ -3.5480752, 40.1690966 ], [ -3.5481171, 40.1691116 ], [ -3.5490388, 40.1694404 ], [ -3.5492361, 40.1694937 ], [ -3.5507796, 40.1699106 ], [ -3.5509787, 40.1699644 ], [ -3.5516527, 40.1697679 ], [ -3.5539904, 40.1704931 ], [ -3.5556677, 40.1709654 ], [ -3.5563086, 40.1712454 ], [ -3.5600236, 40.1705899 ], [ -3.5605768, 40.1707191 ], [ -3.5616084, 40.1709599 ], [ -3.5619567, 40.1711281 ], [ -3.5620687, 40.1709976 ], [ -3.5621928, 40.1708575 ], [ -3.5623256, 40.1706833 ], [ -3.5624055, 40.1705251 ], [ -3.562516, 40.1703504 ], [ -3.562576, 40.1702386 ], [ -3.5629558, 40.1700973 ], [ -3.5630978, 40.1699723 ], [ -3.5632321, 40.1698758 ], [ -3.5633667, 40.1697394 ], [ -3.5635238, 40.169546 ], [ -3.5636739, 40.1693127 ], [ -3.5637787, 40.1691704 ], [ -3.5638614, 40.1690053 ], [ -3.5639296, 40.1687945 ], [ -3.5639753, 40.1686064 ], [ -3.5640585, 40.1683614 ], [ -3.5641906, 40.1673979 ], [ -3.5642217, 40.1671641 ], [ -3.5642377, 40.1669702 ], [ -3.564209, 40.1668061 ], [ -3.5641302, 40.1663962 ], [ -3.5639835, 40.1661339 ], [ -3.5639041, 40.165815 ], [ -3.5638247, 40.1654904 ], [ -3.5637456, 40.165126 ], [ -3.5636807, 40.164847 ], [ -3.5636451, 40.1646307 ], [ -3.5636323, 40.1643348 ], [ -3.5635825, 40.1640275 ], [ -3.5634958, 40.1636801 ], [ -3.5633491, 40.1634235 ], [ -3.5632465, 40.1632353 ], [ -3.563182, 40.1629052 ], [ -3.5629324, 40.1625002 ], [ -3.562808, 40.162238 ], [ -3.5627286, 40.1619077 ], [ -3.5627526, 40.1616689 ], [ -3.5629245, 40.1615104 ], [ -3.5631631, 40.1613634 ], [ -3.5634617, 40.1611486 ], [ -3.563738, 40.1609279 ], [ -3.5638882, 40.1606896 ], [ -3.5638979, 40.1603654 ], [ -3.5638334, 40.1600238 ], [ -3.5637238, 40.1597787 ], [ -3.5636141, 40.1595337 ], [ -3.5635489, 40.1593115 ], [ -3.5634319, 40.1590493 ], [ -3.5632344, 40.1586219 ], [ -3.5631177, 40.1583313 ], [ -3.5630377, 40.1580863 ], [ -3.5631362, 40.157808 ], [ -3.5632494, 40.1575525 ], [ -3.5633551, 40.157297 ], [ -3.5634686, 40.1570073 ], [ -3.5635969, 40.1567178 ], [ -3.563829, 40.1564343 ], [ -3.5640457, 40.1562361 ], [ -3.5643968, 40.1559418 ], [ -3.5649344, 40.1555117 ], [ -3.5653976, 40.1550927 ], [ -3.565786, 40.1547587 ], [ -3.5658911, 40.1546055 ], [ -3.5659601, 40.1542986 ], [ -3.566007, 40.1539632 ], [ -3.5660693, 40.1535482 ], [ -3.5661239, 40.153173 ], [ -3.5661937, 40.1527466 ], [ -3.5662786, 40.1522862 ], [ -3.5663629, 40.1519054 ], [ -3.5664094, 40.1516326 ], [ -3.5664638, 40.1512858 ], [ -3.5665098, 40.1509929 ], [ -3.5665182, 40.150939 ], [ -3.5665728, 40.1505638 ], [ -3.5666801, 40.1500864 ], [ -3.5668014, 40.1497172 ], [ -3.5668334, 40.1494044 ], [ -3.5669472, 40.1490466 ], [ -3.5670156, 40.1488193 ], [ -3.5671427, 40.148689 ], [ -3.567268, 40.1486321 ], [ -3.5674779, 40.1485368 ], [ -3.5678647, 40.148436 ], [ -3.5682884, 40.1483524 ], [ -3.5687194, 40.1482973 ], [ -3.569061, 40.1482817 ], [ -3.5696625, 40.1482615 ], [ -3.5703235, 40.1482244 ], [ -3.5709695, 40.14821 ], [ -3.5713779, 40.1482003 ], [ -3.5717272, 40.1481391 ], [ -3.5720695, 40.1480211 ], [ -3.5724861, 40.1479034 ], [ -3.5729027, 40.14778 ], [ -3.5733191, 40.1476963 ], [ -3.5736539, 40.1475953 ], [ -3.5740408, 40.1474718 ], [ -3.5743308, 40.1473876 ], [ -3.5745838, 40.1473033 ], [ -3.5747703, 40.1471903 ], [ -3.5749864, 40.1470604 ], [ -3.5752698, 40.1468852 ], [ -3.5754712, 40.1467381 ], [ -3.5757398, 40.1465458 ], [ -3.5759561, 40.1463931 ], [ -3.5760239, 40.1462454 ], [ -3.5760768, 40.1461149 ], [ -3.5761445, 40.1459843 ], [ -3.5761451, 40.1456646 ], [ -3.576207, 40.1452776 ], [ -3.5761956, 40.1447763 ], [ -3.57614, 40.1442008 ], [ -3.5759866, 40.1438241 ], [ -3.5757286, 40.1435438 ], [ -3.5753965, 40.1432288 ], [ -3.5751608, 40.14296 ], [ -3.5749774, 40.142623 ], [ -3.5749865, 40.1423611 ], [ -3.5751074, 40.1420541 ], [ -3.5751469, 40.1417012 ], [ -3.575068, 40.1412907 ], [ -3.5748998, 40.1409083 ], [ -3.5747465, 40.1405145 ], [ -3.5747119, 40.1401385 ], [ -3.5748183, 40.1397688 ], [ -3.5749838, 40.1394392 ], [ -3.5752533, 40.1391159 ], [ -3.5756711, 40.1388162 ], [ -3.5762071, 40.1385967 ], [ -3.5768319, 40.138429 ], [ -3.5772025, 40.138374 ], [ -3.5772035, 40.1383739 ], [ -3.5775452, 40.1383471 ], [ -3.5776506, 40.1383081 ], [ -3.5778951, 40.1382178 ], [ -3.5782894, 40.1380945 ], [ -3.5788548, 40.1379321 ], [ -3.5793154, 40.137756 ], [ -3.5794577, 40.1377016 ], [ -3.5799492, 40.1374819 ], [ -3.5805228, 40.1371886 ], [ -3.5810517, 40.1369292 ], [ -3.5816473, 40.1366701 ], [ -3.5822509, 40.1363314 ], [ -3.5826758, 40.1360772 ], [ -3.5830565, 40.1357715 ], [ -3.5834673, 40.1353976 ], [ -3.5837516, 40.1350573 ], [ -3.5839619, 40.1346995 ], [ -3.584113, 40.1342959 ], [ -3.584175, 40.1338974 ], [ -3.5841778, 40.1334646 ], [ -3.5840766, 40.1330427 ], [ -3.583886, 40.1326886 ], [ -3.5835692, 40.1323168 ], [ -3.5832447, 40.1319735 ], [ -3.5829123, 40.131727 ], [ -3.5827057, 40.1315266 ], [ -3.5825961, 40.1312698 ], [ -3.5826274, 40.1310136 ], [ -3.5827557, 40.1307067 ], [ -3.5828648, 40.1305592 ], [ -3.5829654, 40.1304229 ], [ -3.5831826, 40.1301335 ], [ -3.5833628, 40.1298326 ], [ -3.5835062, 40.1294688 ], [ -3.5835607, 40.1290874 ], [ -3.5835624, 40.1288336 ], [ -3.5835628, 40.1287685 ], [ -3.583563, 40.1287481 ], [ -3.5835639, 40.1285919 ], [ -3.5837418, 40.1285139 ], [ -3.5836891, 40.1285208 ], [ -3.5827511, 40.1286441 ], [ -3.5822561, 40.1286791 ], [ -3.5821834, 40.1286875 ], [ -3.5821272, 40.1286995 ], [ -3.5820288, 40.1287288 ], [ -3.5819399, 40.1287608 ], [ -3.5818766, 40.1287747 ], [ -3.5818309, 40.1287776 ], [ -3.5817698, 40.1287779 ], [ -3.5817099, 40.1287755 ], [ -3.5816547, 40.1287686 ], [ -3.5815901, 40.1287535 ], [ -3.5815288, 40.1287322 ], [ -3.5814582, 40.1287056 ], [ -3.5814251, 40.1286841 ], [ -3.5813673, 40.1286393 ], [ -3.5812917, 40.1285893 ], [ -3.5812658, 40.1285786 ], [ -3.5812387, 40.1285706 ], [ -3.5811988, 40.1285636 ], [ -3.581153, 40.1285621 ], [ -3.5811213, 40.1285676 ], [ -3.5810863, 40.1285822 ], [ -3.5810524, 40.1286022 ], [ -3.5810244, 40.1286239 ], [ -3.5809965, 40.1286502 ], [ -3.5809733, 40.1286792 ], [ -3.580935, 40.1287379 ], [ -3.5809166, 40.1287831 ], [ -3.580924, 40.1288218 ], [ -3.5809371, 40.1288532 ], [ -3.5809668, 40.1288891 ], [ -3.5810129, 40.128925 ], [ -3.5810683, 40.1289589 ], [ -3.5811097, 40.1289884 ], [ -3.5811405, 40.129018 ], [ -3.5811536, 40.1290422 ], [ -3.5811574, 40.1290845 ], [ -3.581153, 40.129118 ], [ -3.5811485, 40.1291396 ], [ -3.5811393, 40.1291576 ], [ -3.5810774, 40.1291904 ], [ -3.5809266, 40.1292704 ], [ -3.5808764, 40.1293004 ], [ -3.5808309, 40.1293385 ], [ -3.5808183, 40.1293719 ], [ -3.5808174, 40.1294025 ], [ -3.5808317, 40.1294276 ], [ -3.580853, 40.1294483 ], [ -3.5808707, 40.1294581 ], [ -3.5808907, 40.129467 ], [ -3.5809366, 40.1294767 ], [ -3.5809754, 40.1294819 ], [ -3.5810059, 40.1294836 ], [ -3.5811397, 40.1294784 ], [ -3.5811667, 40.1294792 ], [ -3.5812336, 40.1294878 ], [ -3.5812842, 40.1294993 ], [ -3.5813148, 40.1295081 ], [ -3.5813349, 40.1295206 ], [ -3.5813527, 40.1295431 ], [ -3.5813646, 40.1295646 ], [ -3.5813742, 40.1295998 ], [ -3.5813792, 40.1296312 ], [ -3.581369, 40.1296764 ], [ -3.5813448, 40.1297179 ], [ -3.5812504, 40.1298039 ], [ -3.5810327, 40.1300095 ], [ -3.5809316, 40.1301254 ], [ -3.5808921, 40.1301814 ], [ -3.5808864, 40.1301995 ], [ -3.5808543, 40.1302835 ], [ -3.5808335, 40.1303232 ], [ -3.5808184, 40.1303467 ], [ -3.5807951, 40.1303702 ], [ -3.5807671, 40.1303875 ], [ -3.5807331, 40.1303922 ], [ -3.5807061, 40.1303914 ], [ -3.580665, 40.130388 ], [ -3.5806215, 40.1303801 ], [ -3.5805615, 40.1303606 ], [ -3.5805072, 40.1303348 ], [ -3.5803831, 40.1302227 ], [ -3.5802767, 40.1301395 ], [ -3.5801845, 40.130058 ], [ -3.5801619, 40.1300284 ], [ -3.5801321, 40.1299753 ], [ -3.5801024, 40.1299242 ], [ -3.5800893, 40.129908 ], [ -3.5800728, 40.1298972 ], [ -3.5800386, 40.1298848 ], [ -3.5800045, 40.1298741 ], [ -3.579981, 40.1298689 ], [ -3.5798954, 40.1298711 ], [ -3.579839, 40.1298723 ], [ -3.5798214, 40.1298742 ], [ -3.579771, 40.1298879 ], [ -3.5797429, 40.1298953 ], [ -3.5797042, 40.1299009 ], [ -3.5796526, 40.1299038 ], [ -3.5796292, 40.129904 ], [ -3.579601, 40.1299005 ], [ -3.5795669, 40.1298935 ], [ -3.5795515, 40.1298863 ], [ -3.5795362, 40.1298765 ], [ -3.5795196, 40.1298577 ], [ -3.579509, 40.1298424 ], [ -3.5794982, 40.1298199 ], [ -3.5794921, 40.1298001 ], [ -3.5794944, 40.1297812 ], [ -3.5795012, 40.1297614 ], [ -3.5795558, 40.1296981 ], [ -3.5796173, 40.1296166 ], [ -3.57963, 40.1295932 ], [ -3.5796346, 40.1295715 ], [ -3.5796332, 40.1295499 ], [ -3.579626, 40.1295283 ], [ -3.5796128, 40.1295022 ], [ -3.5795939, 40.1294798 ], [ -3.5795597, 40.1294574 ], [ -3.5795161, 40.1294405 ], [ -3.5794668, 40.1294408 ], [ -3.5794116, 40.1294483 ], [ -3.5793708, 40.1294728 ], [ -3.5793358, 40.1295018 ], [ -3.5793208, 40.1295253 ], [ -3.579307, 40.1295596 ], [ -3.5792818, 40.1296319 ], [ -3.5792511, 40.1297482 ], [ -3.5792213, 40.1298339 ], [ -3.5791739, 40.1299198 ], [ -3.5790882, 40.1300572 ], [ -3.579062, 40.1301555 ], [ -3.579065, 40.1302258 ], [ -3.5790847, 40.1303382 ], [ -3.5791135, 40.1304147 ], [ -3.5791244, 40.1304561 ], [ -3.5791272, 40.1304957 ], [ -3.5791181, 40.1305309 ], [ -3.5790925, 40.1305625 ], [ -3.5790516, 40.1305889 ], [ -3.5790212, 40.1306025 ], [ -3.5789896, 40.1306108 ], [ -3.578958, 40.1306137 ], [ -3.578897, 40.1306203 ], [ -3.5787645, 40.1306291 ], [ -3.5785836, 40.1306281 ], [ -3.5785378, 40.1306248 ], [ -3.5784709, 40.1306152 ], [ -3.5784284, 40.1305992 ], [ -3.5783966, 40.1305805 ], [ -3.5783576, 40.1305509 ], [ -3.5783233, 40.130516 ], [ -3.5783125, 40.1304889 ], [ -3.5783134, 40.1304538 ], [ -3.5783237, 40.1304304 ], [ -3.5783399, 40.1304006 ], [ -3.5783585, 40.1303743 ], [ -3.5783748, 40.1303571 ], [ -3.5784763, 40.1302881 ], [ -3.5785428, 40.1302418 ], [ -3.5786093, 40.1301938 ], [ -3.5786349, 40.1301666 ], [ -3.5786476, 40.1301431 ], [ -3.5786532, 40.1301125 ], [ -3.5786471, 40.1300872 ], [ -3.5786364, 40.1300648 ], [ -3.578621, 40.1300469 ], [ -3.5785973, 40.1300344 ], [ -3.5785503, 40.1300175 ], [ -3.5784973, 40.1300051 ], [ -3.5784609, 40.1299999 ], [ -3.5784327, 40.1299992 ], [ -3.5783706, 40.1300067 ], [ -3.5782558, 40.1300289 ], [ -3.5780485, 40.1300803 ], [ -3.5777533, 40.1301593 ], [ -3.5775942, 40.1302115 ], [ -3.5782757, 40.1289242 ], [ -3.5789666, 40.127763 ], [ -3.5788253, 40.1257727 ], [ -3.5775377, 40.1243727 ], [ -3.5750091, 40.1216518 ], [ -3.5735645, 40.1222347 ], [ -3.5707915, 40.1237953 ], [ -3.5676805, 40.1243989 ], [ -3.5666848, 40.124629 ], [ -3.5636527, 40.1253745 ], [ -3.5634736, 40.1254185 ], [ -3.5634732, 40.1254186 ], [ -3.5616131, 40.1258637 ], [ -3.5593138, 40.1255676 ], [ -3.557586, 40.1252387 ], [ -3.5575713, 40.1253774 ], [ -3.5573329, 40.127627 ], [ -3.5569913, 40.1299714 ], [ -3.5561339, 40.1329077 ], [ -3.555919, 40.1329535 ], [ -3.5557645, 40.1329865 ], [ -3.5553459, 40.132856 ], [ -3.5550616, 40.1326908 ], [ -3.5548895, 40.1325939 ], [ -3.5547102, 40.1325429 ], [ -3.5545985, 40.1326061 ], [ -3.5546288, 40.1327434 ], [ -3.5549428, 40.1330984 ], [ -3.5558549, 40.1359177 ], [ -3.5559216, 40.136362 ], [ -3.5552978, 40.1372633 ], [ -3.5529033, 40.1387358 ], [ -3.5519903, 40.1401428 ], [ -3.5511543, 40.1416515 ], [ -3.5508874, 40.1421081 ], [ -3.5502772, 40.1423712 ], [ -3.5472351, 40.1436826 ], [ -3.5443117, 40.1449782 ], [ -3.5407876, 40.1466398 ], [ -3.5356247, 40.1490738 ] ] ] } }
]
}
