{
"type": "FeatureCollection",
"name": "28164",
"features": [
{ "type": "Feature", "properties": { "CCAA": "13 - Comunidad de Madrid", "PROVINCIA": "28 - Madrid", "MUNICIPIO": "28164 - Valdetorres de Jarama", "COD_MUNICIPIO": "28164", "DISTRITO": "01", "SECCION": "2816401001", "V1_H": 80.3, "V1_M": 86.18, "V2_H": 80.25682951, "V2_M": 86.26310791, "V3_H": 80.49886239, "V3_M": 86.29802272000001 }, "geometry": { "type": "Polygon", "coordinates": [ [ [ -3.4685451, 40.6899368 ], [ -3.4687482, 40.6899518 ], [ -3.4695866, 40.6905454 ], [ -3.4701508, 40.6909146 ], [ -3.4700039, 40.6918549 ], [ -3.4699084, 40.6922878 ], [ -3.4701328, 40.6923065 ], [ -3.4706039, 40.6923555 ], [ -3.4712173, 40.6923998 ], [ -3.4717037, 40.6924261 ], [ -3.4721825, 40.6924523 ], [ -3.4728633, 40.692497 ], [ -3.4739715, 40.6925049 ], [ -3.4741424, 40.6926031 ], [ -3.4743651, 40.692753 ], [ -3.4746846, 40.6929492 ], [ -3.4749215, 40.6931563 ], [ -3.4751282, 40.6933802 ], [ -3.4751783, 40.6935632 ], [ -3.4751969, 40.6938656 ], [ -3.4751711, 40.6941279 ], [ -3.4751147, 40.6944299 ], [ -3.4749904, 40.6947827 ], [ -3.4748588, 40.6951127 ], [ -3.474713, 40.6953912 ], [ -3.4745151, 40.6956351 ], [ -3.4743768, 40.6959137 ], [ -3.4742237, 40.6961693 ], [ -3.4741085, 40.6963968 ], [ -3.4739861, 40.6965956 ], [ -3.4738401, 40.6968855 ], [ -3.473732, 40.6971415 ], [ -3.4736091, 40.6973745 ], [ -3.4735385, 40.6976308 ], [ -3.4735284, 40.6978247 ], [ -3.4734731, 40.6980525 ], [ -3.4734255, 40.6982575 ], [ -3.4734529, 40.6984574 ], [ -3.4734723, 40.6986972 ], [ -3.473446, 40.698988 ], [ -3.4733535, 40.6991984 ], [ -3.4732751, 40.699466 ], [ -3.4732579, 40.6996427 ], [ -3.4732254, 40.6998422 ], [ -3.4731775, 40.70007 ], [ -3.4731368, 40.7003265 ], [ -3.4731394, 40.700703 ], [ -3.4731208, 40.7009825 ], [ -3.4731239, 40.7013248 ], [ -3.4731268, 40.7016728 ], [ -3.4730477, 40.7020031 ], [ -3.4729092, 40.7022931 ], [ -3.4727861, 40.702549 ], [ -3.4726328, 40.7028218 ], [ -3.4724867, 40.7031117 ], [ -3.4725316, 40.7031177 ], [ -3.4727935, 40.703131 ], [ -3.4731008, 40.7031104 ], [ -3.4733405, 40.7031064 ], [ -3.4737217, 40.7031604 ], [ -3.4740054, 40.7032366 ], [ -3.4742894, 40.7032785 ], [ -3.4746031, 40.7033378 ], [ -3.4748793, 40.7034082 ], [ -3.4750519, 40.7033866 ], [ -3.4752851, 40.7033027 ], [ -3.4754357, 40.7032409 ], [ -3.4756224, 40.7032822 ], [ -3.4757412, 40.7033629 ], [ -3.4759495, 40.7034728 ], [ -3.4762389, 40.7036745 ], [ -3.4764317, 40.7038242 ], [ -3.4766703, 40.7039058 ], [ -3.4768652, 40.70389 ], [ -3.4770678, 40.7038629 ], [ -3.4770898, 40.7038628 ], [ -3.4771118, 40.7038633 ], [ -3.4771338, 40.7038646 ], [ -3.4771556, 40.7038666 ], [ -3.4771773, 40.7038693 ], [ -3.4771989, 40.7038727 ], [ -3.4772203, 40.7038768 ], [ -3.4772413, 40.7038816 ], [ -3.4772622, 40.7038871 ], [ -3.477426, 40.7039624 ], [ -3.4776939, 40.7040898 ], [ -3.4780372, 40.7041892 ], [ -3.4782985, 40.7042481 ], [ -3.4785012, 40.7042096 ], [ -3.4786741, 40.7041595 ], [ -3.4789063, 40.7041554 ], [ -3.4790557, 40.7041793 ], [ -3.4792273, 40.7042318 ], [ -3.4793506, 40.7042389 ], [ -3.4794557, 40.7042553 ], [ -3.4796669, 40.7043678 ], [ -3.4797948, 40.7044069 ], [ -3.4803442, 40.704597 ], [ -3.4806519, 40.7046292 ], [ -3.4809594, 40.704633 ], [ -3.481238, 40.7047452 ], [ -3.481345, 40.7049266 ], [ -3.4815116, 40.7050849 ], [ -3.4817371, 40.705129 ], [ -3.4820359, 40.7050305 ], [ -3.4824664, 40.7053124 ], [ -3.4826481, 40.7054763 ], [ -3.4827844, 40.7056007 ], [ -3.4828309, 40.7057426 ], [ -3.4830884, 40.7059744 ], [ -3.4834045, 40.7060862 ], [ -3.4837259, 40.7059932 ], [ -3.483964, 40.705821 ], [ -3.4842481, 40.7057453 ], [ -3.4844953, 40.7057267 ], [ -3.4847588, 40.7058161 ], [ -3.4850753, 40.7059678 ], [ -3.4853746, 40.7059147 ], [ -3.4857264, 40.7058556 ], [ -3.4860423, 40.7059447 ], [ -3.4862833, 40.7060456 ], [ -3.4866438, 40.7060947 ], [ -3.4869438, 40.7061042 ], [ -3.4872828, 40.70625 ], [ -3.4878854, 40.7065024 ], [ -3.488698, 40.7067591 ], [ -3.4896015, 40.7070949 ], [ -3.4905659, 40.7075101 ], [ -3.4913271, 40.7078696 ], [ -3.4920438, 40.7082691 ], [ -3.492385, 40.7084595 ], [ -3.4928363, 40.7087832 ], [ -3.49348, 40.7092513 ], [ -3.4939901, 40.709644 ], [ -3.4945035, 40.7102534 ], [ -3.4946673, 40.7107054 ], [ -3.4948204, 40.7113284 ], [ -3.494959, 40.7119284 ], [ -3.4952421, 40.7124214 ], [ -3.4956601, 40.7129215 ], [ -3.4960655, 40.7132961 ], [ -3.4966489, 40.7137807 ], [ -3.4969213, 40.714012 ], [ -3.4971582, 40.7142133 ], [ -3.4974752, 40.7145072 ], [ -3.4980505, 40.7150259 ], [ -3.4987513, 40.7156428 ], [ -3.49943, 40.716248 ], [ -3.5000132, 40.716744 ], [ -3.5005222, 40.7171994 ], [ -3.5008024, 40.717453 ], [ -3.5009118, 40.717541 ], [ -3.5010463, 40.7176492 ], [ -3.5012238, 40.717782 ], [ -3.501492, 40.7178816 ], [ -3.5017968, 40.7180271 ], [ -3.502116, 40.7182069 ], [ -3.5023916, 40.7183122 ], [ -3.5026657, 40.7184916 ], [ -3.5030351, 40.7187917 ], [ -3.5036044, 40.7192305 ], [ -3.5039907, 40.7194338 ], [ -3.5047949, 40.7197552 ], [ -3.5055538, 40.7200875 ], [ -3.5066486, 40.7205143 ], [ -3.5077949, 40.7209929 ], [ -3.5087994, 40.7214359 ], [ -3.5101022, 40.721973 ], [ -3.5112861, 40.7224519 ], [ -3.5117583, 40.7226361 ], [ -3.5118392, 40.7226676 ], [ -3.5120872, 40.7227643 ], [ -3.5125001, 40.7229254 ], [ -3.5135202, 40.72334 ], [ -3.5142575, 40.7236264 ], [ -3.515124, 40.7238343 ], [ -3.5159842, 40.7239737 ], [ -3.5168144, 40.7241128 ], [ -3.5177197, 40.7242526 ], [ -3.5185722, 40.7243976 ], [ -3.5185838, 40.7244197 ], [ -3.5186592, 40.7245638 ], [ -3.5188533, 40.725016 ], [ -3.51909, 40.7255941 ], [ -3.519284, 40.7260464 ], [ -3.5195639, 40.7263284 ], [ -3.5198287, 40.7266103 ], [ -3.5201081, 40.7269151 ], [ -3.5204765, 40.7272778 ], [ -3.5208967, 40.7277286 ], [ -3.5209601, 40.7279347 ], [ -3.5209879, 40.7284199 ], [ -3.521077, 40.7288431 ], [ -3.5212175, 40.7293239 ], [ -3.5212965, 40.729437 ], [ -3.5214126, 40.7296151 ], [ -3.5215725, 40.7298564 ], [ -3.5216891, 40.7300174 ], [ -3.5217602, 40.7302007 ], [ -3.5218393, 40.7303613 ], [ -3.5223479, 40.7307717 ], [ -3.525897, 40.7325333 ], [ -3.5263137, 40.7313811 ], [ -3.5260215, 40.7294493 ], [ -3.526331, 40.7230787 ], [ -3.5268399, 40.7193525 ], [ -3.5271888, 40.7183176 ], [ -3.5284559, 40.7145596 ], [ -3.5328918, 40.7102131 ], [ -3.5346195, 40.7084791 ], [ -3.5411152, 40.7020855 ], [ -3.5434972, 40.6997405 ], [ -3.5465343, 40.6966999 ], [ -3.550528, 40.6927013 ], [ -3.5521451, 40.6910819 ], [ -3.552608, 40.6901307 ], [ -3.549039, 40.6891938 ], [ -3.5466014, 40.6899099 ], [ -3.5431653, 40.6907856 ], [ -3.5412647, 40.6915413 ], [ -3.5411193, 40.6918661 ], [ -3.5397577, 40.6929011 ], [ -3.5386709, 40.6935684 ], [ -3.5369532, 40.6940696 ], [ -3.53513, 40.6952616 ], [ -3.5302419, 40.6951714 ], [ -3.529761, 40.69523 ], [ -3.5274711, 40.6955627 ], [ -3.5261645, 40.695742 ], [ -3.5240946, 40.6960366 ], [ -3.5224137, 40.6962679 ], [ -3.5221196, 40.6962525 ], [ -3.5218394, 40.6961195 ], [ -3.5214609, 40.696591 ], [ -3.5211366, 40.6964638 ], [ -3.5207454, 40.6962307 ], [ -3.5200313, 40.6960717 ], [ -3.5195968, 40.6959394 ], [ -3.519111, 40.6958354 ], [ -3.518685, 40.6958652 ], [ -3.5180455, 40.6958401 ], [ -3.5177074, 40.6958249 ], [ -3.5170681, 40.6958165 ], [ -3.5166566, 40.6958184 ], [ -3.5160688, 40.6958266 ], [ -3.5156273, 40.6957447 ], [ -3.5154355, 40.695656 ], [ -3.5151701, 40.6955398 ], [ -3.5149709, 40.6954344 ], [ -3.5146252, 40.6953912 ], [ -3.5144634, 40.6953695 ], [ -3.5140783, 40.6949797 ], [ -3.5138202, 40.6948634 ], [ -3.5135849, 40.6948421 ], [ -3.5131072, 40.6948386 ], [ -3.5128059, 40.6948288 ], [ -3.5127006, 40.6945105 ], [ -3.512656, 40.6944436 ], [ -3.5120957, 40.6942 ], [ -3.51144, 40.6939735 ], [ -3.5106737, 40.6937029 ], [ -3.5093409, 40.693334 ], [ -3.5088259, 40.6932468 ], [ -3.5082447, 40.6931487 ], [ -3.5074206, 40.6929957 ], [ -3.5070814, 40.6928462 ], [ -3.5065947, 40.6926078 ], [ -3.5061234, 40.6924757 ], [ -3.5053348, 40.6922562 ], [ -3.5031424, 40.6915147 ], [ -3.5014853, 40.6910144 ], [ -3.5000168, 40.6907772 ], [ -3.4975329, 40.6902601 ], [ -3.4933677, 40.6895675 ], [ -3.489736, 40.6888725 ], [ -3.4881332, 40.6884936 ], [ -3.4874387, 40.6883342 ], [ -3.4869038, 40.6881131 ], [ -3.485161, 40.686801 ], [ -3.4826407, 40.6849035 ], [ -3.4809787, 40.6836722 ], [ -3.4779109, 40.683482 ], [ -3.4759095, 40.6832669 ], [ -3.4729516, 40.6835226 ], [ -3.4721793, 40.6836679 ], [ -3.4706067, 40.6837555 ], [ -3.4687929, 40.6836613 ], [ -3.4680467, 40.6837252 ], [ -3.4666614, 40.6838932 ], [ -3.4642914, 40.6843493 ], [ -3.463359, 40.6844748 ], [ -3.4625875, 40.6848604 ], [ -3.4628429, 40.6849174 ], [ -3.4648256, 40.6853597 ], [ -3.465877, 40.685579 ], [ -3.4669203, 40.6858325 ], [ -3.4665385, 40.6868788 ], [ -3.466961, 40.6876521 ], [ -3.4685451, 40.6899368 ] ] ] } },
{ "type": "Feature", "properties": { "CCAA": "13 - Comunidad de Madrid", "PROVINCIA": "28 - Madrid", "MUNICIPIO": "28164 - Valdetorres de Jarama", "COD_MUNICIPIO": "28164", "DISTRITO": "01", "SECCION": "2816401002", "V1_H": 81.11, "V1_M": 86.51, "V2_H": 80.75023294, "V2_M": 86.37370028, "V3_H": 81.47997818, "V3_M": 86.68611994 }, "geometry": { "type": "Polygon", "coordinates": [ [ [ -3.4625875, 40.6848604 ], [ -3.463359, 40.6844748 ], [ -3.4642914, 40.6843493 ], [ -3.4666614, 40.6838932 ], [ -3.4680467, 40.6837252 ], [ -3.4687929, 40.6836613 ], [ -3.4706067, 40.6837555 ], [ -3.4721793, 40.6836679 ], [ -3.4729516, 40.6835226 ], [ -3.4759095, 40.6832669 ], [ -3.4779109, 40.683482 ], [ -3.4809787, 40.6836722 ], [ -3.4826407, 40.6849035 ], [ -3.485161, 40.686801 ], [ -3.4869038, 40.6881131 ], [ -3.4874387, 40.6883342 ], [ -3.4881332, 40.6884936 ], [ -3.489736, 40.6888725 ], [ -3.4933677, 40.6895675 ], [ -3.4975329, 40.6902601 ], [ -3.5000168, 40.6907772 ], [ -3.5014853, 40.6910144 ], [ -3.5031424, 40.6915147 ], [ -3.5053348, 40.6922562 ], [ -3.5061234, 40.6924757 ], [ -3.5065947, 40.6926078 ], [ -3.5070814, 40.6928462 ], [ -3.5074206, 40.6929957 ], [ -3.5082447, 40.6931487 ], [ -3.5088259, 40.6932468 ], [ -3.5093409, 40.693334 ], [ -3.5106737, 40.6937029 ], [ -3.51144, 40.6939735 ], [ -3.5120957, 40.6942 ], [ -3.512656, 40.6944436 ], [ -3.5127006, 40.6945105 ], [ -3.5128059, 40.6948288 ], [ -3.5131072, 40.6948386 ], [ -3.5135849, 40.6948421 ], [ -3.5138202, 40.6948634 ], [ -3.5140783, 40.6949797 ], [ -3.5144634, 40.6953695 ], [ -3.5146252, 40.6953912 ], [ -3.5149709, 40.6954344 ], [ -3.5151701, 40.6955398 ], [ -3.5154355, 40.695656 ], [ -3.5156273, 40.6957447 ], [ -3.5160688, 40.6958266 ], [ -3.5166566, 40.6958184 ], [ -3.5170681, 40.6958165 ], [ -3.5177074, 40.6958249 ], [ -3.5180455, 40.6958401 ], [ -3.518685, 40.6958652 ], [ -3.519111, 40.6958354 ], [ -3.5195968, 40.6959394 ], [ -3.5200313, 40.6960717 ], [ -3.5207454, 40.6962307 ], [ -3.5211366, 40.6964638 ], [ -3.5214609, 40.696591 ], [ -3.5218394, 40.6961195 ], [ -3.5221196, 40.6962525 ], [ -3.5224137, 40.6962679 ], [ -3.5240946, 40.6960366 ], [ -3.5261645, 40.695742 ], [ -3.5274711, 40.6955627 ], [ -3.529761, 40.69523 ], [ -3.5302419, 40.6951714 ], [ -3.53513, 40.6952616 ], [ -3.5369532, 40.6940696 ], [ -3.5386709, 40.6935684 ], [ -3.5397577, 40.6929011 ], [ -3.5411193, 40.6918661 ], [ -3.5412647, 40.6915413 ], [ -3.5431653, 40.6907856 ], [ -3.5466014, 40.6899099 ], [ -3.549039, 40.6891938 ], [ -3.552608, 40.6901307 ], [ -3.5531772, 40.6889609 ], [ -3.55369, 40.687653 ], [ -3.5552059, 40.6838131 ], [ -3.5535401, 40.6781208 ], [ -3.5548217, 40.6668351 ], [ -3.5548243, 40.6663166 ], [ -3.5544221, 40.6659901 ], [ -3.556278, 40.6628774 ], [ -3.556779, 40.6609322 ], [ -3.5561266, 40.6609006 ], [ -3.5523709, 40.6607244 ], [ -3.5505091, 40.660637 ], [ -3.5483529, 40.6603923 ], [ -3.5483017, 40.6604273 ], [ -3.5463364, 40.6617721 ], [ -3.5462923, 40.6630335 ], [ -3.5426626, 40.6608137 ], [ -3.5402841, 40.661178 ], [ -3.5373973, 40.6623184 ], [ -3.53264, 40.6642187 ], [ -3.5323544, 40.666083 ], [ -3.5308764, 40.6666167 ], [ -3.5272491, 40.667926 ], [ -3.5272486, 40.6679274 ], [ -3.5260453, 40.6693891 ], [ -3.5252339, 40.6703749 ], [ -3.5222255, 40.6708732 ], [ -3.5167744, 40.671776 ], [ -3.5149094, 40.671564 ], [ -3.5146694, 40.6715367 ], [ -3.5109173, 40.6711101 ], [ -3.5108279, 40.671097 ], [ -3.5108114, 40.6710946 ], [ -3.5104831, 40.6710464 ], [ -3.5101071, 40.6709913 ], [ -3.5099827, 40.6709731 ], [ -3.5094861, 40.6709003 ], [ -3.5084891, 40.6707541 ], [ -3.5059789, 40.6708913 ], [ -3.5027353, 40.6710684 ], [ -3.4991349, 40.6709147 ], [ -3.4983245, 40.6709298 ], [ -3.4969687, 40.670955 ], [ -3.4969286, 40.6709557 ], [ -3.4961518, 40.6708449 ], [ -3.4954297, 40.6707418 ], [ -3.4922822, 40.6702927 ], [ -3.4916558, 40.670398 ], [ -3.4912659, 40.6704583 ], [ -3.4909798, 40.6705045 ], [ -3.4911622, 40.6690669 ], [ -3.4876134, 40.6689954 ], [ -3.4865442, 40.6690458 ], [ -3.4847364, 40.6680678 ], [ -3.4827931, 40.6679535 ], [ -3.4834088, 40.6701751 ], [ -3.4833404, 40.6702051 ], [ -3.4827178, 40.6703947 ], [ -3.4826804, 40.6704061 ], [ -3.4789265, 40.6700871 ], [ -3.4788831, 40.6700834 ], [ -3.4775481, 40.6699822 ], [ -3.4741028, 40.669721 ], [ -3.4710073, 40.6697138 ], [ -3.4700248, 40.6714569 ], [ -3.4678785, 40.6714628 ], [ -3.4664044, 40.674086 ], [ -3.4661429, 40.6756009 ], [ -3.4664694, 40.6757746 ], [ -3.4655593, 40.6771532 ], [ -3.4656887, 40.6775529 ], [ -3.4660959, 40.6788113 ], [ -3.4667676, 40.6788964 ], [ -3.4665426, 40.6794593 ], [ -3.4638562, 40.6805787 ], [ -3.4609187, 40.6819982 ], [ -3.463703, 40.6833776 ], [ -3.4624401, 40.6848276 ], [ -3.4625875, 40.6848604 ] ] ] } }
]
}
