{
"type": "FeatureCollection",
"name": "29026",
"features": [
{ "type": "Feature", "properties": { "CCAA": "01 - Andalucía", "PROVINCIA": "29 - Málaga", "MUNICIPIO": "29026 - Benamargosa", "COD_MUNICIPIO": "29026", "DISTRITO": "01", "SECCION": "2902601001", "V1_H": 78.55, "V1_M": 84.66, "V2_H": 78.61689556, "V2_M": 84.78747684, "V3_H": 78.67326671, "V3_M": 84.67928018000001 }, "geometry": { "type": "Polygon", "coordinates": [ [ [ -4.208614, 36.8785949 ], [ -4.2088698, 36.8786094 ], [ -4.2109059, 36.8760918 ], [ -4.2118777, 36.8751084 ], [ -4.2118975, 36.8742248 ], [ -4.2119646, 36.873503 ], [ -4.2122388, 36.8731036 ], [ -4.2126146, 36.8727482 ], [ -4.2136034, 36.8721342 ], [ -4.2137985, 36.8716995 ], [ -4.2138, 36.8710865 ], [ -4.2135565, 36.8705842 ], [ -4.2132255, 36.870227 ], [ -4.2112711, 36.8693726 ], [ -4.2102628, 36.8687519 ], [ -4.2093623, 36.8678506 ], [ -4.2098073, 36.8676117 ], [ -4.2094732, 36.8663442 ], [ -4.2094009, 36.8653173 ], [ -4.2092294, 36.8643996 ], [ -4.2092108, 36.8639311 ], [ -4.2093948, 36.8635055 ], [ -4.2096698, 36.8631602 ], [ -4.2102905, 36.8626851 ], [ -4.2102479, 36.8606934 ], [ -4.2101392, 36.8602078 ], [ -4.2095598, 36.8590328 ], [ -4.2094393, 36.8585022 ], [ -4.2094311, 36.8579795 ], [ -4.2096574, 36.8566792 ], [ -4.2096392, 36.8562376 ], [ -4.2092701, 36.8555924 ], [ -4.2087443, 36.8556789 ], [ -4.2077397, 36.8559955 ], [ -4.2072115, 36.8559288 ], [ -4.2068043, 36.8557166 ], [ -4.2063378, 36.8552977 ], [ -4.2060028, 36.8546791 ], [ -4.2059508, 36.8542289 ], [ -4.2061332, 36.8536952 ], [ -4.2064157, 36.8531154 ], [ -4.2071469, 36.8525402 ], [ -4.2085366, 36.8517508 ], [ -4.2091465, 36.851303 ], [ -4.2093645, 36.8509041 ], [ -4.2094771, 36.8502179 ], [ -4.2094016, 36.8496958 ], [ -4.2092145, 36.849211 ], [ -4.208863, 36.8489711 ], [ -4.2085618, 36.8490734 ], [ -4.2079723, 36.8493858 ], [ -4.2074396, 36.8497518 ], [ -4.2068713, 36.8499919 ], [ -4.2063792, 36.8500781 ], [ -4.2059269, 36.8498483 ], [ -4.2057207, 36.8495709 ], [ -4.2056241, 36.8491392 ], [ -4.2053566, 36.848529 ], [ -4.2048357, 36.8474976 ], [ -4.2047621, 36.8471017 ], [ -4.2049157, 36.8468748 ], [ -4.2052497, 36.8467182 ], [ -4.205709, 36.8466865 ], [ -4.2062144, 36.8467264 ], [ -4.2068218, 36.8468375 ], [ -4.207296, 36.84704 ], [ -4.2074745, 36.8469751 ], [ -4.2079882, 36.8461226 ], [ -4.2089608, 36.8452113 ], [ -4.2092605, 36.8450099 ], [ -4.2094006, 36.8446479 ], [ -4.2094607, 36.8441876 ], [ -4.2093576, 36.8433413 ], [ -4.2098076, 36.8427238 ], [ -4.2099264, 36.8424251 ], [ -4.2098436, 36.8421555 ], [ -4.2095924, 36.8418696 ], [ -4.2091639, 36.8417207 ], [ -4.2085236, 36.8416551 ], [ -4.2053327, 36.842003 ], [ -4.2048602, 36.8419086 ], [ -4.2044753, 36.8416781 ], [ -4.2040096, 36.8413043 ], [ -4.2035077, 36.8407685 ], [ -4.2032742, 36.8401759 ], [ -4.2030325, 36.8397817 ], [ -4.2029481, 36.839404 ], [ -4.2031349, 36.8391588 ], [ -4.2034247, 36.8390477 ], [ -4.2038058, 36.8390348 ], [ -4.2045888, 36.8389097 ], [ -4.2060805, 36.8389126 ], [ -4.2065391, 36.8388358 ], [ -4.2067047, 36.8386719 ], [ -4.2074694, 36.8373751 ], [ -4.2078665, 36.8369564 ], [ -4.2083218, 36.8366723 ], [ -4.2089567, 36.8363955 ], [ -4.2093772, 36.8360396 ], [ -4.2105872, 36.83454 ], [ -4.211523, 36.8334398 ], [ -4.2114846, 36.8331336 ], [ -4.2116597, 36.8328615 ], [ -4.2119246, 36.8325973 ], [ -4.2120524, 36.8321633 ], [ -4.2121438, 36.8315585 ], [ -4.2124142, 36.8309338 ], [ -4.2126653, 36.8304985 ], [ -4.2127594, 36.8300648 ], [ -4.2129457, 36.8297925 ], [ -4.2130442, 36.8296383 ], [ -4.2135404, 36.8291104 ], [ -4.2138998, 36.8284307 ], [ -4.21421, 36.8281932 ], [ -4.2145774, 36.8280271 ], [ -4.2146102, 36.8272696 ], [ -4.2144121, 36.8260818 ], [ -4.2141606, 36.8250658 ], [ -4.2141296, 36.8245253 ], [ -4.2128829, 36.8236816 ], [ -4.2109577, 36.8231784 ], [ -4.2102391, 36.8231226 ], [ -4.2083277, 36.8227815 ], [ -4.2074853, 36.8226909 ], [ -4.2049199, 36.822122 ], [ -4.2042211, 36.8218857 ], [ -4.2035094, 36.8215413 ], [ -4.2016824, 36.8208657 ], [ -4.2000567, 36.8201519 ], [ -4.1992797, 36.8199344 ], [ -4.198729, 36.8198498 ], [ -4.1980899, 36.8198473 ], [ -4.1970708, 36.8199296 ], [ -4.196333, 36.8200633 ], [ -4.1958842, 36.8200407 ], [ -4.1948045, 36.8198262 ], [ -4.1942005, 36.8199225 ], [ -4.1936849, 36.8199366 ], [ -4.1932801, 36.8198595 ], [ -4.1925698, 36.8196053 ], [ -4.1920154, 36.8192773 ], [ -4.1916289, 36.8189387 ], [ -4.1912792, 36.8187979 ], [ -4.1904352, 36.818599 ], [ -4.1896152, 36.8184991 ], [ -4.1891532, 36.8183504 ], [ -4.1888338, 36.8179931 ], [ -4.1886598, 36.8176162 ], [ -4.1876761, 36.8170852 ], [ -4.1867855, 36.8167696 ], [ -4.186072, 36.8162989 ], [ -4.185756, 36.8161669 ], [ -4.1852282, 36.816109 ], [ -4.1831576, 36.816346 ], [ -4.1827669, 36.8164491 ], [ -4.1832885, 36.8168315 ], [ -4.183303, 36.8170477 ], [ -4.183303, 36.8170477 ], [ -4.1829118, 36.81734 ], [ -4.1824717, 36.8176689 ], [ -4.1822853, 36.8178951 ], [ -4.1821195, 36.8180961 ], [ -4.1817315, 36.8183794 ], [ -4.1811639, 36.8186554 ], [ -4.1798917, 36.8190467 ], [ -4.1788816, 36.8197057 ], [ -4.1779945, 36.8203545 ], [ -4.1774497, 36.8206483 ], [ -4.177704, 36.8211506 ], [ -4.1780454, 36.8214807 ], [ -4.1783735, 36.8216668 ], [ -4.1802302, 36.8220991 ], [ -4.1812661, 36.8223863 ], [ -4.1821772, 36.8225755 ], [ -4.1822002, 36.8226895 ], [ -4.1829057, 36.8229264 ], [ -4.1828748, 36.8233847 ], [ -4.1828328, 36.8237361 ], [ -4.1827877, 36.8238892 ], [ -4.1828223, 36.8239843 ], [ -4.1828476, 36.8240833 ], [ -4.1828252, 36.8241674 ], [ -4.182846, 36.8242893 ], [ -4.1828486, 36.8244534 ], [ -4.1828594, 36.8245411 ], [ -4.1828842, 36.8246095 ], [ -4.1829047, 36.8247085 ], [ -4.18293, 36.8248113 ], [ -4.1829369, 36.8249524 ], [ -4.1829507, 36.8249843 ], [ -4.1829894, 36.8250328 ], [ -4.1830185, 36.8250722 ], [ -4.1830344, 36.8251148 ], [ -4.1830464, 36.8251543 ], [ -4.1830529, 36.8252077 ], [ -4.1830591, 36.8252427 ], [ -4.1830772, 36.8253067 ], [ -4.1831125, 36.8253781 ], [ -4.1831326, 36.8254511 ], [ -4.1831954, 36.8255879 ], [ -4.1832427, 36.8256973 ], [ -4.1832605, 36.825746 ], [ -4.1832746, 36.8257947 ], [ -4.1832846, 36.8258266 ], [ -4.1832685, 36.8258909 ], [ -4.1832614, 36.8259261 ], [ -4.1832393, 36.825969 ], [ -4.1832155, 36.8260242 ], [ -4.1831865, 36.8261146 ], [ -4.1831627, 36.8261728 ], [ -4.1831163, 36.826245 ], [ -4.1830864, 36.8262728 ], [ -4.1830219, 36.8262811 ], [ -4.1829386, 36.8262926 ], [ -4.1828633, 36.8263361 ], [ -4.1827884, 36.8264024 ], [ -4.1827587, 36.8264501 ], [ -4.1827442, 36.8264945 ], [ -4.1827393, 36.8265418 ], [ -4.1827497, 36.8266028 ], [ -4.182768, 36.826685 ], [ -4.1827881, 36.826755 ], [ -4.1828038, 36.8267854 ], [ -4.1828067, 36.8268541 ], [ -4.1828179, 36.8269188 ], [ -4.1828188, 36.8269789 ], [ -4.1828125, 36.8270305 ], [ -4.1827749, 36.8271311 ], [ -4.1827337, 36.8272288 ], [ -4.1826856, 36.8273437 ], [ -4.1826375, 36.8274587 ], [ -4.1825858, 36.827568 ], [ -4.1825445, 36.82766 ], [ -4.1825142, 36.8277747 ], [ -4.1824943, 36.8278637 ], [ -4.1824779, 36.8279611 ], [ -4.1824829, 36.8280527 ], [ -4.1824914, 36.8281442 ], [ -4.1825324, 36.8282582 ], [ -4.1825669, 36.828421 ], [ -4.1825788, 36.8284982 ], [ -4.1826406, 36.8285834 ], [ -4.1826737, 36.8286518 ], [ -4.1827103, 36.8287172 ], [ -4.1827934, 36.8287966 ], [ -4.1828837, 36.8288787 ], [ -4.1829382, 36.8289497 ], [ -4.1829822, 36.8290351 ], [ -4.1830083, 36.8291121 ], [ -4.1830242, 36.8292207 ], [ -4.1830363, 36.8293122 ], [ -4.1830483, 36.8293922 ], [ -4.183028, 36.8294668 ], [ -4.183012, 36.8295814 ], [ -4.1829702, 36.8296391 ], [ -4.1828387, 36.8296576 ], [ -4.182746, 36.829647 ], [ -4.1826456, 36.8296022 ], [ -4.1825844, 36.8295542 ], [ -4.1825449, 36.8295346 ], [ -4.1824665, 36.8295325 ], [ -4.1823998, 36.8294887 ], [ -4.1823732, 36.8294875 ], [ -4.1817549, 36.8293854 ], [ -4.181285, 36.8294532 ], [ -4.181032, 36.8297712 ], [ -4.1808702, 36.8301875 ], [ -4.1808702, 36.8301875 ], [ -4.1808797, 36.8308094 ], [ -4.1812601, 36.8314817 ], [ -4.1812504, 36.8323111 ], [ -4.1814703, 36.8327596 ], [ -4.181732, 36.8330004 ], [ -4.1819962, 36.8334124 ], [ -4.1817118, 36.8338749 ], [ -4.1818256, 36.833982 ], [ -4.1825767, 36.8339655 ], [ -4.1827346, 36.834027 ], [ -4.182704, 36.8342256 ], [ -4.1825386, 36.8344076 ], [ -4.1825229, 36.8346607 ], [ -4.1825207, 36.8346962 ], [ -4.1825207, 36.8346962 ], [ -4.1826344, 36.834859 ], [ -4.1827271, 36.8349916 ], [ -4.1835643, 36.83547 ], [ -4.1836916, 36.8357212 ], [ -4.1832613, 36.8361852 ], [ -4.1832409, 36.8363206 ], [ -4.1833669, 36.8364906 ], [ -4.1837179, 36.8367035 ], [ -4.1837545, 36.8369014 ], [ -4.1837214, 36.8369726 ], [ -4.1836786, 36.8370644 ], [ -4.183468, 36.8372288 ], [ -4.1833922, 36.8374008 ], [ -4.1833922, 36.8374008 ], [ -4.1834082, 36.8377161 ], [ -4.1835612, 36.8381833 ], [ -4.1837092, 36.8383261 ], [ -4.1839687, 36.8384317 ], [ -4.1839688, 36.8384317 ], [ -4.1842296, 36.8386184 ], [ -4.1842845, 36.8387306 ], [ -4.184357, 36.8388785 ], [ -4.1843426, 36.8394015 ], [ -4.1844269, 36.8397793 ], [ -4.1856443, 36.841633 ], [ -4.1858223, 36.8417076 ], [ -4.1864007, 36.84195 ], [ -4.1865829, 36.842133 ], [ -4.1867651, 36.842316 ], [ -4.1871, 36.8429346 ], [ -4.1871862, 36.8434385 ], [ -4.1870288, 36.8441342 ], [ -4.1864629, 36.8452576 ], [ -4.1864283, 36.845916 ], [ -4.1865915, 36.84632 ], [ -4.1868996, 36.8466594 ], [ -4.1875013, 36.8471312 ], [ -4.1875269, 36.8473382 ], [ -4.1873193, 36.8476919 ], [ -4.1873766, 36.8477724 ], [ -4.1876699, 36.8478777 ], [ -4.1880308, 36.8480002 ], [ -4.1881506, 36.8481588 ], [ -4.1881795, 36.8481971 ], [ -4.1881292, 36.8485672 ], [ -4.1876762, 36.8490134 ], [ -4.1876762, 36.8490134 ], [ -4.1874975, 36.8490564 ], [ -4.1873633, 36.8490887 ], [ -4.18699, 36.8496062 ], [ -4.1865822, 36.8508001 ], [ -4.1866743, 36.8509525 ], [ -4.1866439, 36.8511691 ], [ -4.1866995, 36.8518536 ], [ -4.186915, 36.8520137 ], [ -4.1869151, 36.8520137 ], [ -4.1876675, 36.8520783 ], [ -4.1880979, 36.8523444 ], [ -4.1883399, 36.8527566 ], [ -4.1883, 36.8538027 ], [ -4.1880691, 36.8541025 ], [ -4.1876804, 36.8543587 ], [ -4.1874411, 36.8548389 ], [ -4.1874244, 36.8552176 ], [ -4.1876776, 36.8556298 ], [ -4.1881765, 36.8566974 ], [ -4.1883069, 36.8568282 ], [ -4.1884924, 36.856848 ], [ -4.188806, 36.856862 ], [ -4.1890198, 36.8568714 ], [ -4.1895177, 36.8568263 ], [ -4.1897595, 36.856801 ], [ -4.1899081, 36.8567365 ], [ -4.1900493, 36.856655 ], [ -4.1902132, 36.8566591 ], [ -4.1905638, 36.8567586 ], [ -4.1909002, 36.856864 ], [ -4.1911901, 36.8567294 ], [ -4.1915155, 36.8565831 ], [ -4.1917918, 36.856483 ], [ -4.1920194, 36.8564635 ], [ -4.1921762, 36.8564734 ], [ -4.1923498, 36.8566377 ], [ -4.1924591, 36.8567968 ], [ -4.1925325, 36.8569392 ], [ -4.1925847, 36.8570875 ], [ -4.1926652, 36.8572298 ], [ -4.1928321, 36.8574227 ], [ -4.1930058, 36.8575984 ], [ -4.1931996, 36.8576938 ], [ -4.1935719, 36.857816 ], [ -4.1938233, 36.8579508 ], [ -4.1939311, 36.8580127 ], [ -4.1938781, 36.8582708 ], [ -4.193811, 36.8585348 ], [ -4.1937785, 36.8587355 ], [ -4.193816, 36.8588553 ], [ -4.1938882, 36.8589175 ], [ -4.1939967, 36.8590252 ], [ -4.1939909, 36.8591111 ], [ -4.1938862, 36.8592495 ], [ -4.1937024, 36.8593372 ], [ -4.1935473, 36.8594418 ], [ -4.1934987, 36.8595225 ], [ -4.1935075, 36.8596311 ], [ -4.1935448, 36.8597395 ], [ -4.1935399, 36.8598826 ], [ -4.1934705, 36.8600035 ], [ -4.1933789, 36.8600674 ], [ -4.1932594, 36.8601659 ], [ -4.1932586, 36.8602671 ], [ -4.1932575, 36.860351 ], [ -4.1932585, 36.8604178 ], [ -4.1932527, 36.8605037 ], [ -4.1932395, 36.8605706 ], [ -4.1932193, 36.8606433 ], [ -4.1932056, 36.8606778 ], [ -4.1932259, 36.8607654 ], [ -4.1932124, 36.8608132 ], [ -4.193155, 36.8609359 ], [ -4.193098, 36.8610891 ], [ -4.1930208, 36.8613131 ], [ -4.192957, 36.8614874 ], [ -4.1928591, 36.8617593 ], [ -4.1928142, 36.8618456 ], [ -4.1927835, 36.8619346 ], [ -4.1927631, 36.8619978 ], [ -4.1927142, 36.8620613 ], [ -4.1926477, 36.8621335 ], [ -4.1925813, 36.86222 ], [ -4.1925862, 36.862303 ], [ -4.1925841, 36.8624003 ], [ -4.1927816, 36.8627274 ], [ -4.1930339, 36.8631513 ], [ -4.1930668, 36.8632082 ], [ -4.1934479, 36.8636595 ], [ -4.1932737, 36.8639131 ], [ -4.1931623, 36.8640802 ], [ -4.1931347, 36.8641377 ], [ -4.1931147, 36.8642266 ], [ -4.1930986, 36.8643327 ], [ -4.1930821, 36.8644187 ], [ -4.1930692, 36.8645076 ], [ -4.1931129, 36.8645672 ], [ -4.1932003, 36.8646865 ], [ -4.19328, 36.8647773 ], [ -4.1933138, 36.864823 ], [ -4.1933429, 36.8648578 ], [ -4.1933565, 36.8648821 ], [ -4.193382, 36.8649291 ], [ -4.1935056, 36.8650592 ], [ -4.1935961, 36.8651376 ], [ -4.1936539, 36.8651905 ], [ -4.1937303, 36.8652172 ], [ -4.1937708, 36.8652595 ], [ -4.1938344, 36.8653138 ], [ -4.1939227, 36.865374 ], [ -4.1940725, 36.8654763 ], [ -4.19418, 36.86555 ], [ -4.194219, 36.8656168 ], [ -4.1942464, 36.8656638 ], [ -4.1942822, 36.8657703 ], [ -4.1943019, 36.8658128 ], [ -4.1943078, 36.865828 ], [ -4.1943778, 36.8659342 ], [ -4.1944809, 36.8660858 ], [ -4.1945604, 36.8661873 ], [ -4.1946244, 36.8662721 ], [ -4.1946766, 36.8663296 ], [ -4.1947076, 36.866372 ], [ -4.1947352, 36.8664343 ], [ -4.1947728, 36.8665316 ], [ -4.1948464, 36.8666209 ], [ -4.1949837, 36.8667768 ], [ -4.1950935, 36.8668749 ], [ -4.1951704, 36.8669321 ], [ -4.1952853, 36.8669935 ], [ -4.195461, 36.8670513 ], [ -4.1956231, 36.8670954 ], [ -4.1957756, 36.8671275 ], [ -4.1959144, 36.8671322 ], [ -4.1960189, 36.8671357 ], [ -4.1961689, 36.8671281 ], [ -4.1965653, 36.867089 ], [ -4.1966619, 36.8670728 ], [ -4.1967512, 36.8670734 ], [ -4.1969831, 36.8670802 ], [ -4.1973409, 36.8672445 ], [ -4.1974862, 36.8673011 ], [ -4.1975965, 36.8673106 ], [ -4.1977202, 36.8673216 ], [ -4.1977697, 36.8673303 ], [ -4.1979394, 36.8673713 ], [ -4.1980289, 36.8673841 ], [ -4.1982402, 36.8674141 ], [ -4.1984119, 36.8674551 ], [ -4.1985362, 36.8675133 ], [ -4.1986265, 36.867575 ], [ -4.1987433, 36.8676334 ], [ -4.1988728, 36.8676549 ], [ -4.1989373, 36.8676467 ], [ -4.1990376, 36.8676243 ], [ -4.1990697, 36.8676102 ], [ -4.1991962, 36.8676837 ], [ -4.1993036, 36.8677498 ], [ -4.199605, 36.8680688 ], [ -4.1997228, 36.8681943 ], [ -4.1998782, 36.868411 ], [ -4.2000025, 36.8685869 ], [ -4.2001082, 36.8686621 ], [ -4.2001476, 36.8687533 ], [ -4.2001991, 36.8688871 ], [ -4.2002386, 36.8689844 ], [ -4.2002796, 36.8690557 ], [ -4.2004022, 36.8692407 ], [ -4.2005054, 36.8694014 ], [ -4.2005655, 36.8694787 ], [ -4.2005938, 36.8695868 ], [ -4.2006219, 36.8696857 ], [ -4.2006543, 36.8698075 ], [ -4.2006784, 36.8698958 ], [ -4.2006981, 36.8699383 ], [ -4.2007487, 36.8700156 ], [ -4.2008249, 36.8701492 ], [ -4.2009051, 36.870298 ], [ -4.2010027, 36.8704618 ], [ -4.2011061, 36.8706378 ], [ -4.2011174, 36.8707537 ], [ -4.2011566, 36.8710708 ], [ -4.2011744, 36.8712355 ], [ -4.2011959, 36.8713986 ], [ -4.2011854, 36.8714567 ], [ -4.2011552, 36.8717135 ], [ -4.2011378, 36.8718098 ], [ -4.2011276, 36.8718893 ], [ -4.2011756, 36.8720399 ], [ -4.201228, 36.8722332 ], [ -4.2012682, 36.8723763 ], [ -4.2012208, 36.8725452 ], [ -4.201194, 36.8726322 ], [ -4.2011805, 36.8726781 ], [ -4.2011781, 36.872685 ], [ -4.2010843, 36.8727724 ], [ -4.200986, 36.8728638 ], [ -4.2008544, 36.8729859 ], [ -4.200815, 36.8730229 ], [ -4.2007861, 36.8730624 ], [ -4.2006979, 36.8731844 ], [ -4.2006501, 36.8732507 ], [ -4.2005762, 36.8733527 ], [ -4.200569, 36.8733714 ], [ -4.2005561, 36.8734119 ], [ -4.2005594, 36.8734434 ], [ -4.200569, 36.8735294 ], [ -4.2005711, 36.8735486 ], [ -4.2005888, 36.8735922 ], [ -4.2006055, 36.8736315 ], [ -4.2006208, 36.8736551 ], [ -4.2006544, 36.8737063 ], [ -4.2006745, 36.8737381 ], [ -4.2007151, 36.8738073 ], [ -4.2007333, 36.8738549 ], [ -4.2007519, 36.8739042 ], [ -4.2007511, 36.8739686 ], [ -4.2007527, 36.874049 ], [ -4.200752, 36.8740685 ], [ -4.2007533, 36.8741904 ], [ -4.2007537, 36.8742906 ], [ -4.2007826, 36.8743161 ], [ -4.2008458, 36.8743741 ], [ -4.20096, 36.8743839 ], [ -4.2011342, 36.8743993 ], [ -4.2012548, 36.8744096 ], [ -4.2013908, 36.8744068 ], [ -4.2016822, 36.8744009 ], [ -4.2017083, 36.8744002 ], [ -4.2017996, 36.8744312 ], [ -4.2019895, 36.8744971 ], [ -4.2021053, 36.8745798 ], [ -4.2022391, 36.8747402 ], [ -4.2022729, 36.8747809 ], [ -4.2023102, 36.874829 ], [ -4.202399, 36.8749182 ], [ -4.202507, 36.875024 ], [ -4.2025578, 36.8751402 ], [ -4.2026326, 36.8753684 ], [ -4.2027996, 36.8755671 ], [ -4.2031199, 36.8760046 ], [ -4.2034546, 36.8764476 ], [ -4.2036862, 36.87668 ], [ -4.2038953, 36.8768324 ], [ -4.2041251, 36.8769503 ], [ -4.2043761, 36.8770565 ], [ -4.2045627, 36.8771405 ], [ -4.2048846, 36.877223 ], [ -4.2051355, 36.8773178 ], [ -4.2058833, 36.877751 ], [ -4.2060548, 36.8777836 ], [ -4.2068637, 36.8780272 ], [ -4.2074361, 36.8781759 ], [ -4.208614, 36.8785949 ] ] ] } }
]
}
