{
"type": "FeatureCollection",
"name": "29032",
"features": [
{ "type": "Feature", "properties": { "CCAA": "01 - Andalucía", "PROVINCIA": "29 - Málaga", "MUNICIPIO": "29032 - Campillos", "COD_MUNICIPIO": "29032", "DISTRITO": "01", "SECCION": "2903201002", "V1_H": 80.06, "V1_M": 86.12, "V2_H": 80.10460866, "V2_M": 86.20761786, "V3_H": 80.17898723, "V3_M": 86.18020212 }, "geometry": { "type": "Polygon", "coordinates": [ [ [ -4.7995805, 37.0502303 ], [ -4.8010735, 37.0524252 ], [ -4.8154541, 37.073585 ], [ -4.8184833, 37.078039 ], [ -4.8186843, 37.0777999 ], [ -4.8187692, 37.0776934 ], [ -4.818879, 37.0775613 ], [ -4.8190247, 37.0774098 ], [ -4.8191617, 37.0772835 ], [ -4.8192294, 37.0772347 ], [ -4.8192535, 37.0772124 ], [ -4.8193072, 37.0771629 ], [ -4.8193617, 37.0771278 ], [ -4.8194195, 37.077072 ], [ -4.8195002, 37.0770038 ], [ -4.8197382, 37.0767715 ], [ -4.8200049, 37.0765211 ], [ -4.8202864, 37.0762296 ], [ -4.8205044, 37.0760018 ], [ -4.8206069, 37.0758867 ], [ -4.8207751, 37.0757766 ], [ -4.8209117, 37.0756892 ], [ -4.8210669, 37.0756008 ], [ -4.8213111, 37.0754625 ], [ -4.8216016, 37.0752844 ], [ -4.8217181, 37.0751957 ], [ -4.8217973, 37.0751355 ], [ -4.8218737, 37.0750764 ], [ -4.8219339, 37.0750481 ], [ -4.8220029, 37.0750027 ], [ -4.8221121, 37.0749495 ], [ -4.8222571, 37.0748667 ], [ -4.8223578, 37.0748066 ], [ -4.8224094, 37.0747768 ], [ -4.8224282, 37.0747658 ], [ -4.8225086, 37.0747204 ], [ -4.8225905, 37.0746854 ], [ -4.8227139, 37.0746335 ], [ -4.8228544, 37.0745724 ], [ -4.8230065, 37.074516 ], [ -4.8231899, 37.0744713 ], [ -4.8234635, 37.0744133 ], [ -4.8238577, 37.0742885 ], [ -4.8240484, 37.0742175 ], [ -4.8243628, 37.0741314 ], [ -4.8246777, 37.0740554 ], [ -4.8247835, 37.0740299 ], [ -4.8248449, 37.0740167 ], [ -4.8252166, 37.0739375 ], [ -4.8257698, 37.0738012 ], [ -4.8265236, 37.0736021 ], [ -4.8266241, 37.073574 ], [ -4.8270669, 37.0734498 ], [ -4.8276547, 37.0732805 ], [ -4.828149, 37.0731656 ], [ -4.8282259, 37.0731511 ], [ -4.8282893, 37.073139 ], [ -4.828451, 37.073124 ], [ -4.8285496, 37.0731257 ], [ -4.8286509, 37.0731344 ], [ -4.8287281, 37.0731338 ], [ -4.8288512, 37.0731174 ], [ -4.8289428, 37.0731099 ], [ -4.82906, 37.0731049 ], [ -4.8292042, 37.0731185 ], [ -4.8292152, 37.0731206 ], [ -4.8295408, 37.0731825 ], [ -4.8298828, 37.0732178 ], [ -4.8299077, 37.0732204 ], [ -4.8303276, 37.0732414 ], [ -4.8306249, 37.0732353 ], [ -4.8307566, 37.0732155 ], [ -4.8308426, 37.0731921 ], [ -4.8309173, 37.0731558 ], [ -4.8309577, 37.0731262 ], [ -4.8310082, 37.0730818 ], [ -4.8311034, 37.0729954 ], [ -4.8311539, 37.0729499 ], [ -4.8312174, 37.0728907 ], [ -4.83127, 37.0728543 ], [ -4.8312879, 37.0728418 ], [ -4.8313741, 37.0728001 ], [ -4.8314788, 37.0727628 ], [ -4.8316079, 37.072727 ], [ -4.8317213, 37.0726854 ], [ -4.8318189, 37.0726492 ], [ -4.8319495, 37.0725939 ], [ -4.8320874, 37.0725215 ], [ -4.8321794, 37.0724728 ], [ -4.8322744, 37.072415 ], [ -4.8324732, 37.0722558 ], [ -4.832685, 37.0721001 ], [ -4.8328261, 37.0720071 ], [ -4.8329542, 37.0719163 ], [ -4.8332247, 37.0717461 ], [ -4.8336549, 37.071476 ], [ -4.8341027, 37.071166 ], [ -4.8345766, 37.0708138 ], [ -4.8348125, 37.0706629 ], [ -4.8349822, 37.0705631 ], [ -4.8351307, 37.0704483 ], [ -4.8353214, 37.0702524 ], [ -4.8356751, 37.069912 ], [ -4.8359365, 37.0696593 ], [ -4.8362107, 37.0694066 ], [ -4.8362421, 37.0693824 ], [ -4.8365435, 37.0691498 ], [ -4.8367378, 37.0690283 ], [ -4.836817, 37.0689658 ], [ -4.8369106, 37.0689057 ], [ -4.8370169, 37.0688433 ], [ -4.8371061, 37.0687912 ], [ -4.8372096, 37.0687345 ], [ -4.8373032, 37.0686629 ], [ -4.8374342, 37.0685699 ], [ -4.8375192, 37.0685096 ], [ -4.8376217, 37.0684569 ], [ -4.8377168, 37.0684079 ], [ -4.8377922, 37.0683692 ], [ -4.8380104, 37.0682801 ], [ -4.8380649, 37.0682574 ], [ -4.838164, 37.0682191 ], [ -4.8382328, 37.0681966 ], [ -4.8383174, 37.0681685 ], [ -4.8384121, 37.0681325 ], [ -4.8385098, 37.0680872 ], [ -4.8385219, 37.0680802 ], [ -4.8387168, 37.0679682 ], [ -4.8390114, 37.0678085 ], [ -4.8391496, 37.0677615 ], [ -4.8392825, 37.0677162 ], [ -4.8395549, 37.06764 ], [ -4.8397447, 37.0675957 ], [ -4.8397697, 37.0675898 ], [ -4.8402222, 37.0675033 ], [ -4.8406603, 37.0674293 ], [ -4.8410213, 37.0673479 ], [ -4.8413141, 37.0672606 ], [ -4.8413222, 37.0672581 ], [ -4.8415359, 37.0671884 ], [ -4.8418686, 37.0670851 ], [ -4.8425373, 37.0668234 ], [ -4.8425934, 37.0668011 ], [ -4.843216, 37.0665537 ], [ -4.8434695, 37.066438 ], [ -4.8440603, 37.0661683 ], [ -4.8443571, 37.0660538 ], [ -4.8443703, 37.0660488 ], [ -4.8444677, 37.0660242 ], [ -4.8446023, 37.0659976 ], [ -4.8447253, 37.0659857 ], [ -4.8448557, 37.0659578 ], [ -4.8450216, 37.0659417 ], [ -4.8451532, 37.0659356 ], [ -4.8453003, 37.0659319 ], [ -4.8453704, 37.0659301 ], [ -4.8457292, 37.0659152 ], [ -4.8460182, 37.0658963 ], [ -4.8461453, 37.065888 ], [ -4.8465358, 37.0658595 ], [ -4.8467584, 37.0658387 ], [ -4.8468119, 37.0658338 ], [ -4.8470366, 37.0658007 ], [ -4.8471582, 37.065774 ], [ -4.8471872, 37.0657667 ], [ -4.8473617, 37.0657225 ], [ -4.8474075, 37.0657104 ], [ -4.8476256, 37.0656523 ], [ -4.8477702, 37.0656139 ], [ -4.8482548, 37.0654531 ], [ -4.8485886, 37.0653267 ], [ -4.8490438, 37.0651543 ], [ -4.8490931, 37.0651336 ], [ -4.8494868, 37.0649681 ], [ -4.8497744, 37.0648472 ], [ -4.8501693, 37.0646628 ], [ -4.8504236, 37.064536 ], [ -4.8506697, 37.0643692 ], [ -4.8509603, 37.064161 ], [ -4.8509678, 37.0641556 ], [ -4.8511721, 37.0640113 ], [ -4.851299, 37.0639014 ], [ -4.8513048, 37.0638963 ], [ -4.8516922, 37.0634656 ], [ -4.8518908, 37.0632099 ], [ -4.8519501, 37.0631337 ], [ -4.852273, 37.0627175 ], [ -4.8524134, 37.062543 ], [ -4.8524625, 37.0624949 ], [ -4.8525145, 37.062444 ], [ -4.8526091, 37.0623597 ], [ -4.852627, 37.0623438 ], [ -4.8529209, 37.0621142 ], [ -4.8532681, 37.0618435 ], [ -4.8537093, 37.0614716 ], [ -4.8539662, 37.0612152 ], [ -4.8540293, 37.0611495 ], [ -4.8543526, 37.060812 ], [ -4.8543739, 37.0607988 ], [ -4.8544633, 37.0607435 ], [ -4.8545837, 37.0606463 ], [ -4.8548934, 37.0603801 ], [ -4.8552016, 37.0600957 ], [ -4.8554455, 37.059851 ], [ -4.855612, 37.0596532 ], [ -4.8556911, 37.0594953 ], [ -4.8557833, 37.0593065 ], [ -4.8557946, 37.0592832 ], [ -4.8558475, 37.0591734 ], [ -4.855864, 37.0591393 ], [ -4.8559142, 37.0590353 ], [ -4.8560125, 37.0587698 ], [ -4.8560466, 37.0586944 ], [ -4.856105, 37.0585657 ], [ -4.8561089, 37.0585569 ], [ -4.8562454, 37.0583579 ], [ -4.8563716, 37.0582184 ], [ -4.8565923, 37.0580574 ], [ -4.8568071, 37.0579342 ], [ -4.8569402, 37.0578818 ], [ -4.8571648, 37.0578169 ], [ -4.8575797, 37.0576907 ], [ -4.8576803, 37.05766 ], [ -4.8579593, 37.0575747 ], [ -4.8580075, 37.0574919 ], [ -4.8579978, 37.057474 ], [ -4.8579837, 37.0574086 ], [ -4.8579824, 37.0573514 ], [ -4.8579799, 37.0572849 ], [ -4.8580074, 37.0571888 ], [ -4.8580257, 37.0571496 ], [ -4.8581096, 37.0569703 ], [ -4.8582365, 37.0566555 ], [ -4.8582582, 37.0565982 ], [ -4.8583317, 37.0564048 ], [ -4.8583923, 37.0562309 ], [ -4.8584082, 37.0561577 ], [ -4.8584213, 37.0560968 ], [ -4.8584791, 37.0559263 ], [ -4.8585139, 37.0557958 ], [ -4.858561, 37.0556418 ], [ -4.8585865, 37.0554944 ], [ -4.8586166, 37.0552954 ], [ -4.8586411, 37.0550931 ], [ -4.8587007, 37.0548395 ], [ -4.858791, 37.0545473 ], [ -4.8588525, 37.0543509 ], [ -4.8589463, 37.0541057 ], [ -4.8590727, 37.0538687 ], [ -4.8592013, 37.0536811 ], [ -4.8592888, 37.0535685 ], [ -4.8594032, 37.0534199 ], [ -4.8594496, 37.0533597 ], [ -4.8596429, 37.0531739 ], [ -4.859829, 37.0529945 ], [ -4.8601474, 37.0526318 ], [ -4.8603265, 37.0524143 ], [ -4.8604882, 37.0522115 ], [ -4.8605753, 37.0521243 ], [ -4.8608234, 37.0518056 ], [ -4.8609845, 37.0515789 ], [ -4.86118, 37.0512992 ], [ -4.8613752, 37.05101 ], [ -4.8616169, 37.0506723 ], [ -4.8618956, 37.0502707 ], [ -4.8620351, 37.0500124 ], [ -4.8620508, 37.050002 ], [ -4.8620809, 37.0499365 ], [ -4.8621326, 37.0498594 ], [ -4.8621804, 37.0497938 ], [ -4.8622491, 37.0496382 ], [ -4.8623171, 37.0494964 ], [ -4.8624987, 37.0491382 ], [ -4.862746, 37.0489102 ], [ -4.8629379, 37.0487259 ], [ -4.8630597, 37.0485976 ], [ -4.863076, 37.048533 ], [ -4.8631619, 37.0483981 ], [ -4.8633531, 37.048066 ], [ -4.8633774, 37.0479631 ], [ -4.8635031, 37.0477489 ], [ -4.8635744, 37.0476237 ], [ -4.8636638, 37.0474604 ], [ -4.8636416, 37.0474534 ], [ -4.8635154, 37.0473995 ], [ -4.8635153, 37.0473993 ], [ -4.8631358, 37.0472097 ], [ -4.8628528, 37.0470711 ], [ -4.8623473, 37.0468664 ], [ -4.8620829, 37.0467314 ], [ -4.8618835, 37.0466082 ], [ -4.861634, 37.0463808 ], [ -4.8612826, 37.0467321 ], [ -4.8610533, 37.0470862 ], [ -4.860696, 37.04744 ], [ -4.8605445, 37.0475712 ], [ -4.8603648, 37.0474023 ], [ -4.860148, 37.047172 ], [ -4.8599409, 37.0469749 ], [ -4.859679, 37.046731 ], [ -4.859559, 37.0466077 ], [ -4.8589355, 37.0460805 ], [ -4.8586409, 37.045819 ], [ -4.8585565, 37.0457324 ], [ -4.8584836, 37.0456458 ], [ -4.8584034, 37.0455592 ], [ -4.858357, 37.0455118 ], [ -4.8583233, 37.0454726 ], [ -4.8582557, 37.0454067 ], [ -4.8581852, 37.0453477 ], [ -4.8578876, 37.0450942 ], [ -4.8576846, 37.0449148 ], [ -4.8576027, 37.0448488 ], [ -4.8575321, 37.0447955 ], [ -4.85745, 37.0447489 ], [ -4.857338, 37.0446895 ], [ -4.8572143, 37.0446551 ], [ -4.8570367, 37.0445899 ], [ -4.8569498, 37.044558 ], [ -4.8569102, 37.0445435 ], [ -4.8567555, 37.0444888 ], [ -4.856491, 37.0443953 ], [ -4.8561345, 37.044258 ], [ -4.8555995, 37.0440229 ], [ -4.855286, 37.0438746 ], [ -4.8552136, 37.0438464 ], [ -4.8551372, 37.0437988 ], [ -4.8550667, 37.0437386 ], [ -4.8549919, 37.0436749 ], [ -4.8549329, 37.0436103 ], [ -4.8548854, 37.0435354 ], [ -4.854827, 37.0434376 ], [ -4.8547992, 37.0433917 ], [ -4.8547628, 37.0433316 ], [ -4.8547252, 37.0432648 ], [ -4.8547228, 37.0432568 ], [ -4.8547036, 37.0431948 ], [ -4.8546852, 37.0430835 ], [ -4.854692, 37.0430093 ], [ -4.8547101, 37.0429522 ], [ -4.8547279, 37.0429205 ], [ -4.8548519, 37.0428322 ], [ -4.8549357, 37.0427689 ], [ -4.8550009, 37.0427167 ], [ -4.8550443, 37.0426794 ], [ -4.8550554, 37.0426607 ], [ -4.8550618, 37.0426498 ], [ -4.8550625, 37.0426098 ], [ -4.8550573, 37.0425697 ], [ -4.8550356, 37.0424996 ], [ -4.8549655, 37.0422254 ], [ -4.854959, 37.0421863 ], [ -4.8549579, 37.0421623 ], [ -4.8549654, 37.0421407 ], [ -4.8549942, 37.0421191 ], [ -4.8550361, 37.0420898 ], [ -4.8552314, 37.042033 ], [ -4.8550985, 37.0419897 ], [ -4.8550652, 37.0419761 ], [ -4.8549735, 37.0419384 ], [ -4.8548749, 37.0418868 ], [ -4.8548613, 37.0418773 ], [ -4.8547883, 37.0418261 ], [ -4.854731, 37.0417861 ], [ -4.8545455, 37.0416151 ], [ -4.8543531, 37.0414158 ], [ -4.8541987, 37.0412706 ], [ -4.8538904, 37.0409999 ], [ -4.8536353, 37.0407566 ], [ -4.8533807, 37.0404865 ], [ -4.8532577, 37.0403292 ], [ -4.853177, 37.0401855 ], [ -4.8531, 37.040015 ], [ -4.8529888, 37.0397898 ], [ -4.8528487, 37.0395451 ], [ -4.8526273, 37.0391964 ], [ -4.8524009, 37.0388976 ], [ -4.8521402, 37.0385585 ], [ -4.8519791, 37.0383624 ], [ -4.8516369, 37.0379859 ], [ -4.8512764, 37.0376474 ], [ -4.8509029, 37.0373261 ], [ -4.8505178, 37.036999 ], [ -4.8501825, 37.0367387 ], [ -4.8498691, 37.0364753 ], [ -4.8495979, 37.0362145 ], [ -4.8493529, 37.0359754 ], [ -4.8489986, 37.0356409 ], [ -4.8486731, 37.0353201 ], [ -4.8483471, 37.0350044 ], [ -4.8480202, 37.0347029 ], [ -4.8477267, 37.0344177 ], [ -4.8474702, 37.0341673 ], [ -4.8472523, 37.0339554 ], [ -4.8470647, 37.0337428 ], [ -4.846915, 37.0335632 ], [ -4.846668, 37.0332401 ], [ -4.846441, 37.0329128 ], [ -4.8460454, 37.032283 ], [ -4.8458466, 37.0319753 ], [ -4.8452959, 37.0310946 ], [ -4.8451113, 37.0308086 ], [ -4.8447844, 37.0302903 ], [ -4.8445967, 37.0300628 ], [ -4.8443811, 37.0298139 ], [ -4.8440722, 37.0294742 ], [ -4.8438485, 37.0292729 ], [ -4.8435419, 37.0290583 ], [ -4.8433521, 37.0289369 ], [ -4.84302, 37.0287703 ], [ -4.842279, 37.0284557 ], [ -4.8418877, 37.0282899 ], [ -4.8407092, 37.0278651 ], [ -4.8390528, 37.027324 ], [ -4.8380896, 37.0270154 ], [ -4.8372425, 37.0267513 ], [ -4.8370337, 37.0266898 ], [ -4.8368256, 37.0266561 ], [ -4.8360988, 37.0266026 ], [ -4.8350523, 37.0265488 ], [ -4.8343156, 37.0265302 ], [ -4.8339238, 37.0265139 ], [ -4.8336809, 37.0264877 ], [ -4.8334191, 37.0264543 ], [ -4.8330346, 37.0263555 ], [ -4.8321069, 37.026138 ], [ -4.8319196, 37.0261035 ], [ -4.8317609, 37.026091 ], [ -4.8315928, 37.0260865 ], [ -4.831367, 37.0261224 ], [ -4.8310043, 37.0261865 ], [ -4.830802, 37.0261896 ], [ -4.8306395, 37.0261662 ], [ -4.8304848, 37.026123 ], [ -4.8303292, 37.0260475 ], [ -4.8301896, 37.0259652 ], [ -4.8300315, 37.0257922 ], [ -4.8299276, 37.0256621 ], [ -4.8298226, 37.0255307 ], [ -4.8297717, 37.025467 ], [ -4.829606, 37.0252596 ], [ -4.8294152, 37.0250676 ], [ -4.8292444, 37.0249533 ], [ -4.8290296, 37.0248678 ], [ -4.8288161, 37.0248437 ], [ -4.8286205, 37.0248535 ], [ -4.8281799, 37.0249423 ], [ -4.8276032, 37.0250401 ], [ -4.8273228, 37.025065 ], [ -4.827243, 37.0250638 ], [ -4.8270928, 37.0250616 ], [ -4.8267853, 37.0250185 ], [ -4.8266144, 37.0249938 ], [ -4.8263731, 37.0248745 ], [ -4.8260001, 37.0245932 ], [ -4.8254522, 37.0241242 ], [ -4.8250601, 37.0237806 ], [ -4.8249317, 37.0236581 ], [ -4.8248246, 37.0235057 ], [ -4.82474, 37.0233648 ], [ -4.8247048, 37.0232718 ], [ -4.8246587, 37.0231642 ], [ -4.8245954, 37.0230673 ], [ -4.8244975, 37.0229745 ], [ -4.8243784, 37.0229135 ], [ -4.8241635, 37.0228399 ], [ -4.8240501, 37.0228216 ], [ -4.8236221, 37.0227147 ], [ -4.822943, 37.02258 ], [ -4.8221701, 37.0224658 ], [ -4.821729, 37.0224221 ], [ -4.8213905, 37.0223915 ], [ -4.8209035, 37.0223566 ], [ -4.8207071, 37.0223466 ], [ -4.8205807, 37.0223403 ], [ -4.820089, 37.0223308 ], [ -4.8198985, 37.022321 ], [ -4.8196814, 37.0223032 ], [ -4.819533, 37.0222842 ], [ -4.8192457, 37.0222328 ], [ -4.8187366, 37.0221097 ], [ -4.8178823, 37.0218956 ], [ -4.8173607, 37.0217865 ], [ -4.8168647, 37.0216637 ], [ -4.816545, 37.0215715 ], [ -4.8163242, 37.0215081 ], [ -4.8160879, 37.0214207 ], [ -4.8158667, 37.0213391 ], [ -4.8153388, 37.0210742 ], [ -4.8144288, 37.020633 ], [ -4.8141481, 37.0204841 ], [ -4.813973, 37.0204012 ], [ -4.8136503, 37.0202779 ], [ -4.8131945, 37.0201565 ], [ -4.8120828, 37.0199009 ], [ -4.8111664, 37.0196942 ], [ -4.8108258, 37.0196132 ], [ -4.8106951, 37.0195579 ], [ -4.8105594, 37.0194777 ], [ -4.8105111, 37.0194403 ], [ -4.8104706, 37.0194565 ], [ -4.8102511, 37.019512 ], [ -4.8101869, 37.0195246 ], [ -4.8101241, 37.0195278 ], [ -4.8100655, 37.0195243 ], [ -4.8099957, 37.0195117 ], [ -4.8099342, 37.0194876 ], [ -4.8098088, 37.0194393 ], [ -4.8096133, 37.019368 ], [ -4.8092708, 37.0192931 ], [ -4.8087258, 37.0192007 ], [ -4.8083989, 37.019135 ], [ -4.8082007, 37.0190717 ], [ -4.808125, 37.0190545 ], [ -4.8079723, 37.0190565 ], [ -4.8078167, 37.0190678 ], [ -4.8076681, 37.019087 ], [ -4.8075124, 37.0190994 ], [ -4.8074139, 37.0191176 ], [ -4.806986, 37.0189383 ], [ -4.8066779, 37.0188325 ], [ -4.8061401, 37.0186875 ], [ -4.805538, 37.0185412 ], [ -4.8052745, 37.0184493 ], [ -4.8052412, 37.0184377 ], [ -4.8051926, 37.0184163 ], [ -4.804832, 37.0182573 ], [ -4.8045361, 37.0181021 ], [ -4.8044514, 37.0180576 ], [ -4.8042163, 37.017914 ], [ -4.8039854, 37.0177751 ], [ -4.8036845, 37.0175973 ], [ -4.8033724, 37.0174571 ], [ -4.8031713, 37.0173803 ], [ -4.8030443, 37.0173318 ], [ -4.8027262, 37.0172523 ], [ -4.8023309, 37.0171682 ], [ -4.8021368, 37.0171346 ], [ -4.8019899, 37.0171012 ], [ -4.8018243, 37.0170506 ], [ -4.8016918, 37.0169851 ], [ -4.8015582, 37.0169217 ], [ -4.8014624, 37.0168325 ], [ -4.8013073, 37.016649 ], [ -4.8011851, 37.0164439 ], [ -4.8011354, 37.0162801 ], [ -4.8011215, 37.0162343 ], [ -4.8010325, 37.0158848 ], [ -4.8008767, 37.0154907 ], [ -4.8007976, 37.015359 ], [ -4.8006722, 37.0151503 ], [ -4.8004431, 37.0148294 ], [ -4.8001773, 37.0144866 ], [ -4.7998556, 37.0141506 ], [ -4.7995165, 37.0138971 ], [ -4.7992768, 37.0137367 ], [ -4.799115, 37.0136284 ], [ -4.799062, 37.0135929 ], [ -4.798823, 37.0134609 ], [ -4.7985902, 37.0133323 ], [ -4.7984291, 37.0132576 ], [ -4.798335, 37.0131968 ], [ -4.7982881, 37.0131554 ], [ -4.7982539, 37.0131108 ], [ -4.7982284, 37.013082 ], [ -4.7981771, 37.0130557 ], [ -4.7980942, 37.0130235 ], [ -4.7979231, 37.0129957 ], [ -4.7977789, 37.0129818 ], [ -4.7975663, 37.0129448 ], [ -4.7975138, 37.0129324 ], [ -4.7973486, 37.0128937 ], [ -4.7968358, 37.0127731 ], [ -4.7965804, 37.0127212 ], [ -4.796442, 37.0127096 ], [ -4.796275, 37.0127264 ], [ -4.7960806, 37.0127457 ], [ -4.7959735, 37.0127672 ], [ -4.7958565, 37.0127728 ], [ -4.7958022, 37.0127612 ], [ -4.795748, 37.0127383 ], [ -4.7956925, 37.0127061 ], [ -4.7955913, 37.0126509 ], [ -4.7955414, 37.0126131 ], [ -4.7954587, 37.0125809 ], [ -4.7952575, 37.0125303 ], [ -4.7951377, 37.012514 ], [ -4.7950662, 37.0125197 ], [ -4.7950107, 37.0125081 ], [ -4.7949593, 37.0124897 ], [ -4.7949152, 37.0124484 ], [ -4.7946801, 37.0122957 ], [ -4.7943425, 37.0120353 ], [ -4.7942414, 37.0119413 ], [ -4.794186, 37.0118598 ], [ -4.7941419, 37.0117796 ], [ -4.7941235, 37.0117174 ], [ -4.7941151, 37.0116891 ], [ -4.7941053, 37.0116204 ], [ -4.7940954, 37.0115665 ], [ -4.7940736, 37.0114353 ], [ -4.7938401, 37.0112808 ], [ -4.7935357, 37.0113839 ], [ -4.793223, 37.0111424 ], [ -4.7927228, 37.0107561 ], [ -4.7921658, 37.0105676 ], [ -4.7916089, 37.010379 ], [ -4.7912383, 37.0102862 ], [ -4.7903711, 37.0099546 ], [ -4.7888902, 37.0096323 ], [ -4.7879616, 37.0093017 ], [ -4.7869717, 37.0089719 ], [ -4.7862306, 37.0087862 ], [ -4.7839519, 37.0084758 ], [ -4.7833146, 37.0082824 ], [ -4.7835617, 37.0095166 ], [ -4.7836, 37.010192 ], [ -4.7835118, 37.0112298 ], [ -4.7832488, 37.0124776 ], [ -4.7831357, 37.0134076 ], [ -4.7832606, 37.0144243 ], [ -4.7833826, 37.0148371 ], [ -4.7836651, 37.0153826 ], [ -4.7843491, 37.0162736 ], [ -4.7848991, 37.0172028 ], [ -4.7863149, 37.0205434 ], [ -4.7874271, 37.0229151 ], [ -4.7896054, 37.0276052 ], [ -4.7904731, 37.0291334 ], [ -4.7911819, 37.0305918 ], [ -4.7912107, 37.0313395 ], [ -4.7904543, 37.0321621 ], [ -4.7902704, 37.0324713 ], [ -4.7910382, 37.0335684 ], [ -4.7913527, 37.0340323 ], [ -4.7923089, 37.035496 ], [ -4.792461, 37.0357461 ], [ -4.7933989, 37.0373813 ], [ -4.7956601, 37.0426919 ], [ -4.7960024, 37.0438584 ], [ -4.7959946, 37.0449582 ], [ -4.7995805, 37.0502303 ] ] ] } },
{ "type": "Feature", "properties": { "CCAA": "01 - Andalucía", "PROVINCIA": "29 - Málaga", "MUNICIPIO": "29032 - Campillos", "COD_MUNICIPIO": "29032", "DISTRITO": "01", "SECCION": "2903201001", "V1_H": 79.94, "V1_M": 85.93, "V2_H": 80.18978947, "V2_M": 86.02067046000001, "V3_H": 79.89390484, "V3_M": 85.97042077 }, "geometry": { "type": "Polygon", "coordinates": [ [ [ -4.7833146, 37.0082824 ], [ -4.7839519, 37.0084758 ], [ -4.7862306, 37.0087862 ], [ -4.7869717, 37.0089719 ], [ -4.7879616, 37.0093017 ], [ -4.7888902, 37.0096323 ], [ -4.7903711, 37.0099546 ], [ -4.7912383, 37.0102862 ], [ -4.7916089, 37.010379 ], [ -4.7921658, 37.0105676 ], [ -4.7927228, 37.0107561 ], [ -4.793223, 37.0111424 ], [ -4.7935357, 37.0113839 ], [ -4.7938401, 37.0112808 ], [ -4.7940736, 37.0114353 ], [ -4.7940954, 37.0115665 ], [ -4.7941053, 37.0116204 ], [ -4.7941151, 37.0116891 ], [ -4.7941235, 37.0117174 ], [ -4.7941419, 37.0117796 ], [ -4.794186, 37.0118598 ], [ -4.7942414, 37.0119413 ], [ -4.7943425, 37.0120353 ], [ -4.7946801, 37.0122957 ], [ -4.7949152, 37.0124484 ], [ -4.7949593, 37.0124897 ], [ -4.7950107, 37.0125081 ], [ -4.7950662, 37.0125197 ], [ -4.7951377, 37.012514 ], [ -4.7952575, 37.0125303 ], [ -4.7954587, 37.0125809 ], [ -4.7955414, 37.0126131 ], [ -4.7955913, 37.0126509 ], [ -4.7956925, 37.0127061 ], [ -4.795748, 37.0127383 ], [ -4.7958022, 37.0127612 ], [ -4.7958565, 37.0127728 ], [ -4.7959735, 37.0127672 ], [ -4.7960806, 37.0127457 ], [ -4.796275, 37.0127264 ], [ -4.796442, 37.0127096 ], [ -4.7965804, 37.0127212 ], [ -4.7968358, 37.0127731 ], [ -4.7973486, 37.0128937 ], [ -4.7975138, 37.0129324 ], [ -4.7975663, 37.0129448 ], [ -4.7977789, 37.0129818 ], [ -4.7979231, 37.0129957 ], [ -4.7980942, 37.0130235 ], [ -4.7981771, 37.0130557 ], [ -4.7982284, 37.013082 ], [ -4.7982539, 37.0131108 ], [ -4.7982881, 37.0131554 ], [ -4.798335, 37.0131968 ], [ -4.7984291, 37.0132576 ], [ -4.7985902, 37.0133323 ], [ -4.798823, 37.0134609 ], [ -4.799062, 37.0135929 ], [ -4.799115, 37.0136284 ], [ -4.7992768, 37.0137367 ], [ -4.7995165, 37.0138971 ], [ -4.7998556, 37.0141506 ], [ -4.8001773, 37.0144866 ], [ -4.8004431, 37.0148294 ], [ -4.8006722, 37.0151503 ], [ -4.8007976, 37.015359 ], [ -4.8008767, 37.0154907 ], [ -4.8010325, 37.0158848 ], [ -4.8011215, 37.0162343 ], [ -4.8011354, 37.0162801 ], [ -4.8011851, 37.0164439 ], [ -4.8013073, 37.016649 ], [ -4.8014624, 37.0168325 ], [ -4.8015582, 37.0169217 ], [ -4.8016918, 37.0169851 ], [ -4.8018243, 37.0170506 ], [ -4.8019899, 37.0171012 ], [ -4.8021368, 37.0171346 ], [ -4.8023309, 37.0171682 ], [ -4.8027262, 37.0172523 ], [ -4.8030443, 37.0173318 ], [ -4.8031713, 37.0173803 ], [ -4.8033724, 37.0174571 ], [ -4.8036845, 37.0175973 ], [ -4.8039854, 37.0177751 ], [ -4.8042163, 37.017914 ], [ -4.8044514, 37.0180576 ], [ -4.8045361, 37.0181021 ], [ -4.804832, 37.0182573 ], [ -4.8051926, 37.0184163 ], [ -4.8052412, 37.0184377 ], [ -4.8052745, 37.0184493 ], [ -4.805538, 37.0185412 ], [ -4.8061401, 37.0186875 ], [ -4.8066779, 37.0188325 ], [ -4.806986, 37.0189383 ], [ -4.8074139, 37.0191176 ], [ -4.8075124, 37.0190994 ], [ -4.8076681, 37.019087 ], [ -4.8078167, 37.0190678 ], [ -4.8079723, 37.0190565 ], [ -4.808125, 37.0190545 ], [ -4.8082007, 37.0190717 ], [ -4.8083989, 37.019135 ], [ -4.8087258, 37.0192007 ], [ -4.8092708, 37.0192931 ], [ -4.8096133, 37.019368 ], [ -4.8098088, 37.0194393 ], [ -4.8099342, 37.0194876 ], [ -4.8099957, 37.0195117 ], [ -4.8100655, 37.0195243 ], [ -4.8101241, 37.0195278 ], [ -4.8101869, 37.0195246 ], [ -4.8102511, 37.019512 ], [ -4.8104706, 37.0194565 ], [ -4.8105111, 37.0194403 ], [ -4.8105594, 37.0194777 ], [ -4.8106951, 37.0195579 ], [ -4.8108258, 37.0196132 ], [ -4.8111664, 37.0196942 ], [ -4.8120828, 37.0199009 ], [ -4.8131945, 37.0201565 ], [ -4.8136503, 37.0202779 ], [ -4.813973, 37.0204012 ], [ -4.8141481, 37.0204841 ], [ -4.8144288, 37.020633 ], [ -4.8153388, 37.0210742 ], [ -4.8158667, 37.0213391 ], [ -4.8160879, 37.0214207 ], [ -4.8163242, 37.0215081 ], [ -4.816545, 37.0215715 ], [ -4.8168647, 37.0216637 ], [ -4.8173607, 37.0217865 ], [ -4.8178823, 37.0218956 ], [ -4.8187366, 37.0221097 ], [ -4.8192457, 37.0222328 ], [ -4.819533, 37.0222842 ], [ -4.8196814, 37.0223032 ], [ -4.8198985, 37.022321 ], [ -4.820089, 37.0223308 ], [ -4.8205807, 37.0223403 ], [ -4.8207071, 37.0223466 ], [ -4.8209035, 37.0223566 ], [ -4.8213905, 37.0223915 ], [ -4.821729, 37.0224221 ], [ -4.8221701, 37.0224658 ], [ -4.822943, 37.02258 ], [ -4.8236221, 37.0227147 ], [ -4.8240501, 37.0228216 ], [ -4.8241635, 37.0228399 ], [ -4.8243784, 37.0229135 ], [ -4.8244975, 37.0229745 ], [ -4.8245954, 37.0230673 ], [ -4.8246587, 37.0231642 ], [ -4.8247048, 37.0232718 ], [ -4.82474, 37.0233648 ], [ -4.8248246, 37.0235057 ], [ -4.8249317, 37.0236581 ], [ -4.8250601, 37.0237806 ], [ -4.8254522, 37.0241242 ], [ -4.8260001, 37.0245932 ], [ -4.8263731, 37.0248745 ], [ -4.8266144, 37.0249938 ], [ -4.8267853, 37.0250185 ], [ -4.8270928, 37.0250616 ], [ -4.827243, 37.0250638 ], [ -4.8273228, 37.025065 ], [ -4.8276032, 37.0250401 ], [ -4.8281799, 37.0249423 ], [ -4.8286205, 37.0248535 ], [ -4.8288161, 37.0248437 ], [ -4.8290296, 37.0248678 ], [ -4.8292444, 37.0249533 ], [ -4.8294152, 37.0250676 ], [ -4.829606, 37.0252596 ], [ -4.8297717, 37.025467 ], [ -4.8298226, 37.0255307 ], [ -4.8299276, 37.0256621 ], [ -4.8300315, 37.0257922 ], [ -4.8301896, 37.0259652 ], [ -4.8303292, 37.0260475 ], [ -4.8304848, 37.026123 ], [ -4.8306395, 37.0261662 ], [ -4.830802, 37.0261896 ], [ -4.8310043, 37.0261865 ], [ -4.831367, 37.0261224 ], [ -4.8315928, 37.0260865 ], [ -4.8317609, 37.026091 ], [ -4.8319196, 37.0261035 ], [ -4.8321069, 37.026138 ], [ -4.8330346, 37.0263555 ], [ -4.8334191, 37.0264543 ], [ -4.8336809, 37.0264877 ], [ -4.8339238, 37.0265139 ], [ -4.8343156, 37.0265302 ], [ -4.8350523, 37.0265488 ], [ -4.8360988, 37.0266026 ], [ -4.8368256, 37.0266561 ], [ -4.8370337, 37.0266898 ], [ -4.8372425, 37.0267513 ], [ -4.8380896, 37.0270154 ], [ -4.8390528, 37.027324 ], [ -4.8407092, 37.0278651 ], [ -4.8418877, 37.0282899 ], [ -4.842279, 37.0284557 ], [ -4.84302, 37.0287703 ], [ -4.8433521, 37.0289369 ], [ -4.8435419, 37.0290583 ], [ -4.8438485, 37.0292729 ], [ -4.8440722, 37.0294742 ], [ -4.8443811, 37.0298139 ], [ -4.8445967, 37.0300628 ], [ -4.8447844, 37.0302903 ], [ -4.8451113, 37.0308086 ], [ -4.8452959, 37.0310946 ], [ -4.8458466, 37.0319753 ], [ -4.8460454, 37.032283 ], [ -4.846441, 37.0329128 ], [ -4.846668, 37.0332401 ], [ -4.846915, 37.0335632 ], [ -4.8470647, 37.0337428 ], [ -4.8472523, 37.0339554 ], [ -4.8474702, 37.0341673 ], [ -4.8477267, 37.0344177 ], [ -4.8480202, 37.0347029 ], [ -4.8483471, 37.0350044 ], [ -4.8486731, 37.0353201 ], [ -4.8489986, 37.0356409 ], [ -4.8493529, 37.0359754 ], [ -4.8495979, 37.0362145 ], [ -4.8498691, 37.0364753 ], [ -4.8501825, 37.0367387 ], [ -4.8505178, 37.036999 ], [ -4.8509029, 37.0373261 ], [ -4.8512764, 37.0376474 ], [ -4.8516369, 37.0379859 ], [ -4.8519791, 37.0383624 ], [ -4.8521402, 37.0385585 ], [ -4.8524009, 37.0388976 ], [ -4.8526273, 37.0391964 ], [ -4.8528487, 37.0395451 ], [ -4.8529888, 37.0397898 ], [ -4.8531, 37.040015 ], [ -4.853177, 37.0401855 ], [ -4.8532577, 37.0403292 ], [ -4.8533807, 37.0404865 ], [ -4.8536353, 37.0407566 ], [ -4.8538904, 37.0409999 ], [ -4.8541987, 37.0412706 ], [ -4.8543531, 37.0414158 ], [ -4.8545455, 37.0416151 ], [ -4.854731, 37.0417861 ], [ -4.8547883, 37.0418261 ], [ -4.8548613, 37.0418773 ], [ -4.8548749, 37.0418868 ], [ -4.8549735, 37.0419384 ], [ -4.8550652, 37.0419761 ], [ -4.8550985, 37.0419897 ], [ -4.8552314, 37.042033 ], [ -4.8550361, 37.0420898 ], [ -4.8549942, 37.0421191 ], [ -4.8549654, 37.0421407 ], [ -4.8549579, 37.0421623 ], [ -4.854959, 37.0421863 ], [ -4.8549655, 37.0422254 ], [ -4.8550356, 37.0424996 ], [ -4.8550573, 37.0425697 ], [ -4.8550625, 37.0426098 ], [ -4.8550618, 37.0426498 ], [ -4.8550554, 37.0426607 ], [ -4.8550443, 37.0426794 ], [ -4.8550009, 37.0427167 ], [ -4.8549357, 37.0427689 ], [ -4.8548519, 37.0428322 ], [ -4.8547279, 37.0429205 ], [ -4.8547101, 37.0429522 ], [ -4.854692, 37.0430093 ], [ -4.8546852, 37.0430835 ], [ -4.8547036, 37.0431948 ], [ -4.8547228, 37.0432568 ], [ -4.8547252, 37.0432648 ], [ -4.8547628, 37.0433316 ], [ -4.8547992, 37.0433917 ], [ -4.854827, 37.0434376 ], [ -4.8548854, 37.0435354 ], [ -4.8549329, 37.0436103 ], [ -4.8549919, 37.0436749 ], [ -4.8550667, 37.0437386 ], [ -4.8551372, 37.0437988 ], [ -4.8552136, 37.0438464 ], [ -4.855286, 37.0438746 ], [ -4.8555995, 37.0440229 ], [ -4.8561345, 37.044258 ], [ -4.856491, 37.0443953 ], [ -4.8567555, 37.0444888 ], [ -4.8569102, 37.0445435 ], [ -4.8569498, 37.044558 ], [ -4.8570367, 37.0445899 ], [ -4.8572143, 37.0446551 ], [ -4.857338, 37.0446895 ], [ -4.85745, 37.0447489 ], [ -4.8575321, 37.0447955 ], [ -4.8576027, 37.0448488 ], [ -4.8576846, 37.0449148 ], [ -4.8578876, 37.0450942 ], [ -4.8581852, 37.0453477 ], [ -4.8582557, 37.0454067 ], [ -4.8583233, 37.0454726 ], [ -4.858357, 37.0455118 ], [ -4.8584034, 37.0455592 ], [ -4.8584836, 37.0456458 ], [ -4.8585565, 37.0457324 ], [ -4.8586409, 37.045819 ], [ -4.8589355, 37.0460805 ], [ -4.859559, 37.0466077 ], [ -4.859679, 37.046731 ], [ -4.8599409, 37.0469749 ], [ -4.860148, 37.047172 ], [ -4.8603648, 37.0474023 ], [ -4.8605445, 37.0475712 ], [ -4.860696, 37.04744 ], [ -4.8610533, 37.0470862 ], [ -4.8612826, 37.0467321 ], [ -4.861634, 37.0463808 ], [ -4.8618835, 37.0466082 ], [ -4.8620829, 37.0467314 ], [ -4.8623473, 37.0468664 ], [ -4.8623794, 37.0468126 ], [ -4.8624655, 37.0466825 ], [ -4.8625337, 37.0465527 ], [ -4.8627916, 37.046148 ], [ -4.8629461, 37.0458976 ], [ -4.8631351, 37.0455989 ], [ -4.8634333, 37.0451411 ], [ -4.8636163, 37.0448378 ], [ -4.8638028, 37.0446774 ], [ -4.8639355, 37.0444861 ], [ -4.8641025, 37.0442816 ], [ -4.864305, 37.0440447 ], [ -4.8645888, 37.0437303 ], [ -4.8648666, 37.0434111 ], [ -4.8650682, 37.0431409 ], [ -4.865172, 37.0430057 ], [ -4.8652109, 37.0428906 ], [ -4.8653095, 37.0427243 ], [ -4.8653753, 37.0426209 ], [ -4.8656564, 37.04218 ], [ -4.8656649, 37.0421667 ], [ -4.8657035, 37.0421071 ], [ -4.8660023, 37.0416452 ], [ -4.8661682, 37.0413887 ], [ -4.8664037, 37.0410173 ], [ -4.8667865, 37.0404222 ], [ -4.8672237, 37.039715 ], [ -4.8677114, 37.0389691 ], [ -4.8678724, 37.0387297 ], [ -4.8680793, 37.0384403 ], [ -4.868452, 37.0379365 ], [ -4.8688201, 37.0374437 ], [ -4.8692687, 37.0368442 ], [ -4.8695347, 37.0364912 ], [ -4.8697786, 37.0361552 ], [ -4.8700276, 37.0358313 ], [ -4.8701444, 37.0356694 ], [ -4.87023, 37.0355249 ], [ -4.8704013, 37.0352359 ], [ -4.8704664, 37.0351128 ], [ -4.870844, 37.0343491 ], [ -4.8710132, 37.0340212 ], [ -4.8710309, 37.033987 ], [ -4.8713413, 37.0333856 ], [ -4.8715707, 37.0329111 ], [ -4.8719659, 37.0321435 ], [ -4.8721312, 37.0318206 ], [ -4.8722715, 37.0315291 ], [ -4.872461, 37.031119 ], [ -4.872627, 37.0307693 ], [ -4.8727725, 37.0304166 ], [ -4.8727916, 37.0303704 ], [ -4.8728154, 37.0303124 ], [ -4.8730519, 37.0297096 ], [ -4.8732367, 37.0292674 ], [ -4.8738019, 37.027865 ], [ -4.8743117, 37.0264871 ], [ -4.874679, 37.0254892 ], [ -4.8750214, 37.024557 ], [ -4.8751453, 37.0241849 ], [ -4.8752562, 37.0238354 ], [ -4.8752804, 37.0237295 ], [ -4.875361, 37.0232358 ], [ -4.875703, 37.0209382 ], [ -4.8757418, 37.0206467 ], [ -4.8757695, 37.0204386 ], [ -4.8758124, 37.0202238 ], [ -4.8758936, 37.0198495 ], [ -4.8759655, 37.0195975 ], [ -4.8761388, 37.0189274 ], [ -4.8761853, 37.0187743 ], [ -4.8762601, 37.0186388 ], [ -4.8763334, 37.0185251 ], [ -4.8764006, 37.0184428 ], [ -4.8764343, 37.0184015 ], [ -4.8764719, 37.0183671 ], [ -4.8765986, 37.0182512 ], [ -4.8766684, 37.0181601 ], [ -4.8767755, 37.0179593 ], [ -4.8768349, 37.0177722 ], [ -4.8768476, 37.017637 ], [ -4.8768203, 37.0175026 ], [ -4.8767436, 37.0173112 ], [ -4.8766342, 37.017118 ], [ -4.8765957, 37.0170499 ], [ -4.8766178, 37.0170133 ], [ -4.87669, 37.0168948 ], [ -4.8769666, 37.0164689 ], [ -4.8773621, 37.0160005 ], [ -4.878108, 37.0151366 ], [ -4.8789347, 37.0141988 ], [ -4.879672, 37.0133382 ], [ -4.8803334, 37.0126133 ], [ -4.8816624, 37.0111081 ], [ -4.881563, 37.0108882 ], [ -4.8807188, 37.0103788 ], [ -4.8802944, 37.0095744 ], [ -4.8815506, 37.0081033 ], [ -4.8828908, 37.0068563 ], [ -4.8827575, 37.0064619 ], [ -4.8823041, 37.0058472 ], [ -4.8817439, 37.0045491 ], [ -4.8815341, 37.004246 ], [ -4.8796237, 37.0046999 ], [ -4.8792233, 37.0048685 ], [ -4.8771146, 37.0045773 ], [ -4.8749911, 37.0073419 ], [ -4.8731983, 37.0093891 ], [ -4.8723804, 37.0104114 ], [ -4.8713471, 37.0104367 ], [ -4.8707951, 37.0103823 ], [ -4.8704105, 37.0102802 ], [ -4.86963, 37.0096166 ], [ -4.8681684, 37.0086752 ], [ -4.8674527, 37.008362 ], [ -4.8670117, 37.0068727 ], [ -4.8664991, 37.005673 ], [ -4.8656658, 37.0046857 ], [ -4.8644044, 37.003651 ], [ -4.8639011, 37.0032893 ], [ -4.8625179, 37.0023286 ], [ -4.8611544, 37.0012504 ], [ -4.8598844, 37.0007836 ], [ -4.8594292, 37.0005474 ], [ -4.8592493, 37.0000815 ], [ -4.8543623, 36.9973549 ], [ -4.8533193, 36.9965149 ], [ -4.8508715, 36.9956608 ], [ -4.8508026, 36.9955987 ], [ -4.8493524, 36.9951076 ], [ -4.8488344, 36.9950616 ], [ -4.8481168, 36.9951268 ], [ -4.8476213, 36.9950804 ], [ -4.8472556, 36.9948248 ], [ -4.8469481, 36.9941896 ], [ -4.846516, 36.99398 ], [ -4.845577, 36.9937152 ], [ -4.8454162, 36.9935735 ], [ -4.8453596, 36.9930876 ], [ -4.8454543, 36.9923561 ], [ -4.8457505, 36.9915944 ], [ -4.845763, 36.9907199 ], [ -4.8459963, 36.9896798 ], [ -4.8458856, 36.9892849 ], [ -4.8456424, 36.9889823 ], [ -4.8448852, 36.9883361 ], [ -4.843639, 36.9874451 ], [ -4.8427406, 36.9865307 ], [ -4.8398254, 36.9839801 ], [ -4.8397576, 36.9839631 ], [ -4.837404, 36.9851352 ], [ -4.8370377, 36.9853211 ], [ -4.83505, 36.9811517 ], [ -4.8343189, 36.9797119 ], [ -4.8339334, 36.9790959 ], [ -4.833452, 36.9786977 ], [ -4.8330807, 36.9782077 ], [ -4.8327609, 36.9775187 ], [ -4.8328438, 36.9767603 ], [ -4.8333079, 36.9750316 ], [ -4.8335434, 36.9745502 ], [ -4.8337572, 36.9740963 ], [ -4.8340203, 36.9738218 ], [ -4.8342304, 36.9736834 ], [ -4.8343325, 36.9737269 ], [ -4.8343824, 36.9748708 ], [ -4.8344207, 36.9750595 ], [ -4.8345118, 36.9755808 ], [ -4.8348315, 36.9762609 ], [ -4.8351323, 36.9766258 ], [ -4.835304, 36.9767584 ], [ -4.8356186, 36.9767625 ], [ -4.836847, 36.9764551 ], [ -4.8370146, 36.9764164 ], [ -4.8379721, 36.9760591 ], [ -4.838039, 36.97604 ], [ -4.8383083, 36.9760269 ], [ -4.8385202, 36.9764292 ], [ -4.8387401, 36.9766962 ], [ -4.8391256, 36.9768434 ], [ -4.8408947, 36.9770684 ], [ -4.843956, 36.977769 ], [ -4.8446775, 36.977875 ], [ -4.8448363, 36.9779356 ], [ -4.8443818, 36.9786547 ], [ -4.8441816, 36.9787389 ], [ -4.8436227, 36.9788558 ], [ -4.843112, 36.979107 ], [ -4.8423283, 36.979687 ], [ -4.8419443, 36.9800625 ], [ -4.8407399, 36.9809014 ], [ -4.8405535, 36.9810936 ], [ -4.8405259, 36.9813464 ], [ -4.8406324, 36.98157 ], [ -4.8409919, 36.9820332 ], [ -4.8411381, 36.9820399 ], [ -4.8416173, 36.9818792 ], [ -4.8420166, 36.9816658 ], [ -4.843233, 36.9808628 ], [ -4.8437403, 36.9804673 ], [ -4.8446465, 36.9798493 ], [ -4.8458036, 36.9784524 ], [ -4.8468935, 36.9789221 ], [ -4.8522566, 36.980497 ], [ -4.8539239, 36.981147 ], [ -4.8543563, 36.9813746 ], [ -4.8558533, 36.9824148 ], [ -4.8563173, 36.9820921 ], [ -4.8570159, 36.98264 ], [ -4.8578152, 36.9831682 ], [ -4.8585539, 36.9835172 ], [ -4.8588239, 36.983531 ], [ -4.859943, 36.9828916 ], [ -4.8627065, 36.9810366 ], [ -4.8630692, 36.9802468 ], [ -4.86342, 36.9798898 ], [ -4.8638861, 36.9796571 ], [ -4.8643501, 36.9793344 ], [ -4.8647326, 36.9788957 ], [ -4.8648264, 36.9785969 ], [ -4.864704, 36.9781842 ], [ -4.8642077, 36.9776422 ], [ -4.8641465, 36.9774358 ], [ -4.8642062, 36.9766597 ], [ -4.8644304, 36.9761785 ], [ -4.8653658, 36.9749201 ], [ -4.8658224, 36.9743 ], [ -4.8660796, 36.9737912 ], [ -4.864264, 36.9735042 ], [ -4.8633219, 36.9735641 ], [ -4.8631204, 36.9735943 ], [ -4.8627851, 36.9736626 ], [ -4.860888, 36.9741791 ], [ -4.8605064, 36.9741941 ], [ -4.8602004, 36.9740817 ], [ -4.8599902, 36.9737515 ], [ -4.8599709, 36.9724989 ], [ -4.8600883, 36.9722448 ], [ -4.8605179, 36.9718955 ], [ -4.8617293, 36.9709031 ], [ -4.8623806, 36.9708929 ], [ -4.8631883, 36.9690055 ], [ -4.8637161, 36.9676182 ], [ -4.8640323, 36.966766 ], [ -4.8643196, 36.9656529 ], [ -4.8649222, 36.9650305 ], [ -4.8654843, 36.9641294 ], [ -4.8653339, 36.9639515 ], [ -4.8646341, 36.9638093 ], [ -4.8630699, 36.9636896 ], [ -4.862607, 36.9635887 ], [ -4.8622206, 36.9634055 ], [ -4.8616467, 36.9629007 ], [ -4.8613091, 36.9624103 ], [ -4.8611469, 36.9622055 ], [ -4.8605343, 36.9614941 ], [ -4.8601806, 36.9612653 ], [ -4.8598468, 36.9613967 ], [ -4.8597587, 36.9614701 ], [ -4.859395, 36.9617553 ], [ -4.8573337, 36.9642842 ], [ -4.8569501, 36.9646777 ], [ -4.8568733, 36.964751 ], [ -4.8558415, 36.9643525 ], [ -4.855917, 36.9642252 ], [ -4.8576817, 36.961043 ], [ -4.8578709, 36.9605082 ], [ -4.857507, 36.9603247 ], [ -4.8562184, 36.9599843 ], [ -4.8552659, 36.9596116 ], [ -4.8546364, 36.9591257 ], [ -4.8543621, 36.9589317 ], [ -4.8537558, 36.9584724 ], [ -4.852703, 36.9581283 ], [ -4.8521168, 36.9580384 ], [ -4.8517478, 36.9581072 ], [ -4.851337, 36.9583029 ], [ -4.851018, 36.9585782 ], [ -4.8505832, 36.9591799 ], [ -4.8497657, 36.958814 ], [ -4.8493431, 36.9589829 ], [ -4.8483046, 36.9592334 ], [ -4.8477785, 36.9593047 ], [ -4.8471486, 36.9592694 ], [ -4.8465503, 36.9591435 ], [ -4.8462671, 36.9590397 ], [ -4.8480791, 36.95455 ], [ -4.8497007, 36.95055 ], [ -4.8503788, 36.9488719 ], [ -4.8519355, 36.94499 ], [ -4.8520575, 36.944925 ], [ -4.8543628, 36.945529 ], [ -4.8545286, 36.9454183 ], [ -4.8547655, 36.945 ], [ -4.8550935, 36.9446343 ], [ -4.8556808, 36.9443097 ], [ -4.8563944, 36.9441003 ], [ -4.8571453, 36.9440435 ], [ -4.8575514, 36.9441182 ], [ -4.8578423, 36.9440776 ], [ -4.8582757, 36.9438906 ], [ -4.8585958, 36.9436602 ], [ -4.8585469, 36.9434988 ], [ -4.856814, 36.9414979 ], [ -4.855754, 36.9399191 ], [ -4.8543713, 36.9370745 ], [ -4.8514261, 36.9295042 ], [ -4.8503095, 36.9269708 ], [ -4.8497997, 36.9258521 ], [ -4.8480065, 36.9269075 ], [ -4.846955, 36.9275277 ], [ -4.8460458, 36.9280015 ], [ -4.8444241, 36.9291894 ], [ -4.8418705, 36.9303737 ], [ -4.8380806, 36.9324514 ], [ -4.8365993, 36.9334117 ], [ -4.8351228, 36.9341104 ], [ -4.8331397, 36.9352227 ], [ -4.8316456, 36.936129 ], [ -4.8264384, 36.9390574 ], [ -4.8215023, 36.9392413 ], [ -4.8158764, 36.9396969 ], [ -4.8148435, 36.9397037 ], [ -4.8064902, 36.93783 ], [ -4.8058469, 36.9376866 ], [ -4.8029556, 36.9369733 ], [ -4.8020636, 36.9367615 ], [ -4.801883, 36.9367192 ], [ -4.8006081, 36.9364591 ], [ -4.7976498, 36.9367112 ], [ -4.796406, 36.9368202 ], [ -4.7963273, 36.9368123 ], [ -4.7960685, 36.9367892 ], [ -4.7945431, 36.9368573 ], [ -4.7930507, 36.9368979 ], [ -4.7901978, 36.9368598 ], [ -4.7890763, 36.9369127 ], [ -4.7870132, 36.9370339 ], [ -4.7861939, 36.9370552 ], [ -4.7846825, 36.9382046 ], [ -4.7832217, 36.9391188 ], [ -4.7819913, 36.9398043 ], [ -4.7807403, 36.9396067 ], [ -4.7803617, 36.9421542 ], [ -4.7801423, 36.9428605 ], [ -4.7806358, 36.9437995 ], [ -4.7822279, 36.9465878 ], [ -4.7831447, 36.9483406 ], [ -4.7836007, 36.9495957 ], [ -4.7838625, 36.9507094 ], [ -4.7840629, 36.9515987 ], [ -4.7843003, 36.952145 ], [ -4.7845558, 36.9529884 ], [ -4.7844883, 36.9539448 ], [ -4.7843127, 36.9550831 ], [ -4.7842234, 36.9555892 ], [ -4.7840095, 36.9565298 ], [ -4.7839008, 36.9590912 ], [ -4.7838457, 36.9591371 ], [ -4.7839248, 36.9615605 ], [ -4.7839355, 36.96202 ], [ -4.7840768, 36.9632617 ], [ -4.7827719, 36.9646243 ], [ -4.7826749, 36.964797 ], [ -4.7824966, 36.9659816 ], [ -4.782422, 36.9664773 ], [ -4.7820754, 36.9684744 ], [ -4.781904, 36.969793 ], [ -4.7816778, 36.9706886 ], [ -4.7816987, 36.9720674 ], [ -4.781642, 36.9725279 ], [ -4.7816211, 36.9725913 ], [ -4.7814645, 36.9731074 ], [ -4.7811241, 36.9739237 ], [ -4.7804543, 36.9750695 ], [ -4.7798681, 36.9759435 ], [ -4.7788974, 36.9771929 ], [ -4.7783378, 36.9777691 ], [ -4.7783314, 36.9779765 ], [ -4.7787642, 36.9791959 ], [ -4.7789485, 36.9803558 ], [ -4.7789093, 36.9810864 ], [ -4.7787554, 36.9817107 ], [ -4.7781435, 36.9824499 ], [ -4.7777562, 36.9827081 ], [ -4.776806, 36.9829116 ], [ -4.7766954, 36.9829853 ], [ -4.7765517, 36.9830866 ], [ -4.7764539, 36.9832323 ], [ -4.7763515, 36.9846219 ], [ -4.7761404, 36.9876264 ], [ -4.7759371, 36.9890266 ], [ -4.7772222, 36.9896924 ], [ -4.777914, 36.9909348 ], [ -4.778483, 36.9912418 ], [ -4.7798584, 36.9924019 ], [ -4.7812145, 36.9936975 ], [ -4.7815503, 36.9950895 ], [ -4.7818288, 36.9973928 ], [ -4.7819373, 37.0001132 ], [ -4.7819383, 37.0001582 ], [ -4.7818162, 37.0007008 ], [ -4.7823546, 37.0040276 ], [ -4.7827486, 37.0054999 ], [ -4.7828045, 37.0059677 ], [ -4.7832181, 37.0078002 ], [ -4.7833146, 37.0082824 ] ] ] } },
{ "type": "Feature", "properties": { "CCAA": "01 - Andalucía", "PROVINCIA": "29 - Málaga", "MUNICIPIO": "29032 - Campillos", "COD_MUNICIPIO": "29032", "DISTRITO": "01", "SECCION": "2903201003", "V1_H": 79.96, "V1_M": 85.86, "V2_H": 79.90630759, "V2_M": 85.80766239, "V3_H": 80.18166072, "V3_M": 86.22029934 }, "geometry": { "type": "Polygon", "coordinates": [ [ [ -4.8636638, 37.0474604 ], [ -4.8636655, 37.0474578 ], [ -4.8638761, 37.0475546 ], [ -4.8639994, 37.0476075 ], [ -4.864234, 37.0477088 ], [ -4.8644899, 37.0478359 ], [ -4.8647633, 37.0479413 ], [ -4.865079, 37.0480794 ], [ -4.8655085, 37.0482444 ], [ -4.8660551, 37.0484528 ], [ -4.8663493, 37.0485602 ], [ -4.8667387, 37.0486686 ], [ -4.8671268, 37.0487221 ], [ -4.8676964, 37.0487775 ], [ -4.8680687, 37.0487955 ], [ -4.8681072, 37.049031 ], [ -4.8686441, 37.0489653 ], [ -4.8691648, 37.048864 ], [ -4.8693788, 37.0489031 ], [ -4.8694671, 37.0489193 ], [ -4.8697515, 37.0489698 ], [ -4.8700952, 37.0490168 ], [ -4.8702799, 37.0490338 ], [ -4.8704688, 37.0490481 ], [ -4.8707593, 37.0490534 ], [ -4.8712452, 37.0490854 ], [ -4.8713449, 37.0490944 ], [ -4.8715295, 37.0491109 ], [ -4.8717868, 37.0491185 ], [ -4.8719997, 37.0491063 ], [ -4.8723955, 37.0490648 ], [ -4.8727065, 37.0490126 ], [ -4.8730742, 37.0489522 ], [ -4.8732147, 37.0489318 ], [ -4.873558, 37.0489015 ], [ -4.8736876, 37.0488995 ], [ -4.8740235, 37.04891 ], [ -4.8743165, 37.0489162 ], [ -4.8747463, 37.0489399 ], [ -4.8750531, 37.0489905 ], [ -4.8753841, 37.049021 ], [ -4.8757651, 37.0490269 ], [ -4.8761467, 37.0490614 ], [ -4.8764712, 37.0489466 ], [ -4.8769917, 37.0485807 ], [ -4.8771772, 37.0484427 ], [ -4.8772355, 37.0484133 ], [ -4.8783065, 37.0478656 ], [ -4.8790237, 37.0474979 ], [ -4.8800467, 37.0469805 ], [ -4.8804421, 37.0467814 ], [ -4.8808171, 37.0466138 ], [ -4.881134, 37.0464887 ], [ -4.881477, 37.0463839 ], [ -4.8820202, 37.0462388 ], [ -4.8824125, 37.0461596 ], [ -4.8826497, 37.0461118 ], [ -4.8834166, 37.0459809 ], [ -4.8846563, 37.0457401 ], [ -4.8861428, 37.0454659 ], [ -4.8879499, 37.0451297 ], [ -4.8887627, 37.0449759 ], [ -4.8897336, 37.0447948 ], [ -4.8904136, 37.0446526 ], [ -4.8907046, 37.0446136 ], [ -4.8910811, 37.0445791 ], [ -4.8915144, 37.0445453 ], [ -4.8925813, 37.044495 ], [ -4.8939376, 37.0444269 ], [ -4.8949487, 37.0443796 ], [ -4.8970648, 37.044284 ], [ -4.8978581, 37.0442483 ], [ -4.8990744, 37.0441879 ], [ -4.9000942, 37.0441424 ], [ -4.9008744, 37.0440911 ], [ -4.9011349, 37.0440679 ], [ -4.9016241, 37.0440029 ], [ -4.9021287, 37.0439249 ], [ -4.9023804, 37.0438669 ], [ -4.9028526, 37.0437546 ], [ -4.9032062, 37.0436536 ], [ -4.9035634, 37.0435335 ], [ -4.9039267, 37.0434029 ], [ -4.9044239, 37.0432104 ], [ -4.9049318, 37.042987 ], [ -4.9051666, 37.0428787 ], [ -4.9052809, 37.0428175 ], [ -4.9055246, 37.04277 ], [ -4.90554, 37.0427668 ], [ -4.9057682, 37.0427193 ], [ -4.9060203, 37.0426903 ], [ -4.9063656, 37.0426721 ], [ -4.9066708, 37.0426609 ], [ -4.9068623, 37.0426358 ], [ -4.9070839, 37.0425694 ], [ -4.9075888, 37.0423978 ], [ -4.9080946, 37.0422299 ], [ -4.9086512, 37.0420498 ], [ -4.9090142, 37.0419099 ], [ -4.909165, 37.0418219 ], [ -4.9093197, 37.0417078 ], [ -4.9095467, 37.0415106 ], [ -4.9096832, 37.0414043 ], [ -4.9098565, 37.041286 ], [ -4.9100724, 37.0411505 ], [ -4.9103215, 37.0410188 ], [ -4.9106198, 37.0408819 ], [ -4.9108746, 37.0407677 ], [ -4.9110758, 37.0406941 ], [ -4.9113259, 37.0406065 ], [ -4.9114673, 37.0405602 ], [ -4.9117795, 37.0404674 ], [ -4.91203, 37.0404012 ], [ -4.9124059, 37.0403095 ], [ -4.9125986, 37.0402597 ], [ -4.9126569, 37.0402434 ], [ -4.9135134, 37.0400037 ], [ -4.9142065, 37.039798 ], [ -4.914639, 37.0396431 ], [ -4.9149599, 37.039521 ], [ -4.9151243, 37.0394673 ], [ -4.9153372, 37.0394065 ], [ -4.9156658, 37.0393549 ], [ -4.9160573, 37.0393022 ], [ -4.9161742, 37.0392902 ], [ -4.9163422, 37.03929 ], [ -4.9167163, 37.0392915 ], [ -4.9171922, 37.0393014 ], [ -4.9175712, 37.0393027 ], [ -4.9179086, 37.0393009 ], [ -4.9182686, 37.0392802 ], [ -4.9187853, 37.0392301 ], [ -4.91928, 37.0391869 ], [ -4.9195853, 37.0391468 ], [ -4.9197933, 37.0391005 ], [ -4.9204914, 37.0389279 ], [ -4.920898, 37.03882 ], [ -4.9216002, 37.038614 ], [ -4.9222017, 37.0384218 ], [ -4.9227492, 37.0382416 ], [ -4.9230392, 37.0381429 ], [ -4.9231583, 37.0381082 ], [ -4.9233038, 37.0380776 ], [ -4.9234817, 37.0380583 ], [ -4.923672, 37.0380646 ], [ -4.9239942, 37.0380828 ], [ -4.9243604, 37.0381016 ], [ -4.9247013, 37.038118 ], [ -4.9248641, 37.0381214 ], [ -4.9250442, 37.0381337 ], [ -4.9251867, 37.0381542 ], [ -4.9253393, 37.0381988 ], [ -4.925451, 37.038236 ], [ -4.9258309, 37.0383697 ], [ -4.9259503, 37.0384088 ], [ -4.9261988, 37.0384943 ], [ -4.9263668, 37.0385359 ], [ -4.926728, 37.038619 ], [ -4.9271046, 37.0386892 ], [ -4.9274064, 37.0387298 ], [ -4.9275986, 37.0387518 ], [ -4.927806, 37.0387636 ], [ -4.9282022, 37.0387848 ], [ -4.9284951, 37.0387978 ], [ -4.9289791, 37.0388162 ], [ -4.9291833, 37.0388392 ], [ -4.9294059, 37.0388764 ], [ -4.9296262, 37.0389194 ], [ -4.929952, 37.0389838 ], [ -4.9303986, 37.0390829 ], [ -4.9306656, 37.0391442 ], [ -4.9307639, 37.0391604 ], [ -4.9308608, 37.0391744 ], [ -4.9309542, 37.0391704 ], [ -4.9310987, 37.0391576 ], [ -4.9312301, 37.0391348 ], [ -4.9312849, 37.0391159 ], [ -4.9313641, 37.0390887 ], [ -4.9316067, 37.0390098 ], [ -4.9318461, 37.0389259 ], [ -4.9321254, 37.0388318 ], [ -4.9325805, 37.0386753 ], [ -4.9331363, 37.038489 ], [ -4.9336593, 37.0383153 ], [ -4.9339629, 37.0382146 ], [ -4.9344682, 37.0380508 ], [ -4.9346065, 37.0379942 ], [ -4.9347376, 37.0379215 ], [ -4.9348727, 37.0378225 ], [ -4.935147, 37.0375636 ], [ -4.9331414, 37.0372155 ], [ -4.9236169, 37.0304483 ], [ -4.9167724, 37.0255929 ], [ -4.9174725, 37.0212464 ], [ -4.9176403, 37.0198737 ], [ -4.915449, 37.0172052 ], [ -4.8996028, 37.0154679 ], [ -4.8979895, 37.0152233 ], [ -4.8964914, 37.0150941 ], [ -4.895475, 37.0135421 ], [ -4.8944744, 37.0139816 ], [ -4.893438, 37.0147913 ], [ -4.8923458, 37.0128979 ], [ -4.890567, 37.012773 ], [ -4.8894643, 37.0136288 ], [ -4.8875425, 37.0136324 ], [ -4.8866187, 37.0135479 ], [ -4.8857131, 37.0132829 ], [ -4.885532, 37.0132317 ], [ -4.8845473, 37.0129499 ], [ -4.8830469, 37.0122707 ], [ -4.8821811, 37.0117977 ], [ -4.8818803, 37.011451 ], [ -4.8817532, 37.0113088 ], [ -4.8816624, 37.0111081 ], [ -4.8803334, 37.0126133 ], [ -4.879672, 37.0133382 ], [ -4.8789347, 37.0141988 ], [ -4.878108, 37.0151366 ], [ -4.8773621, 37.0160005 ], [ -4.8769666, 37.0164689 ], [ -4.87669, 37.0168948 ], [ -4.8766178, 37.0170133 ], [ -4.8765957, 37.0170499 ], [ -4.8766342, 37.017118 ], [ -4.8767436, 37.0173112 ], [ -4.8768203, 37.0175026 ], [ -4.8768476, 37.017637 ], [ -4.8768349, 37.0177722 ], [ -4.8767755, 37.0179593 ], [ -4.8766684, 37.0181601 ], [ -4.8765986, 37.0182512 ], [ -4.8764719, 37.0183671 ], [ -4.8764343, 37.0184015 ], [ -4.8764006, 37.0184428 ], [ -4.8763334, 37.0185251 ], [ -4.8762601, 37.0186388 ], [ -4.8761853, 37.0187743 ], [ -4.8761388, 37.0189274 ], [ -4.8759655, 37.0195975 ], [ -4.8758936, 37.0198495 ], [ -4.8758124, 37.0202238 ], [ -4.8757695, 37.0204386 ], [ -4.8757418, 37.0206467 ], [ -4.875703, 37.0209382 ], [ -4.875361, 37.0232358 ], [ -4.8752804, 37.0237295 ], [ -4.8752562, 37.0238354 ], [ -4.8751453, 37.0241849 ], [ -4.8750214, 37.024557 ], [ -4.874679, 37.0254892 ], [ -4.8743117, 37.0264871 ], [ -4.8738019, 37.027865 ], [ -4.8732367, 37.0292674 ], [ -4.8730519, 37.0297096 ], [ -4.8728154, 37.0303124 ], [ -4.8727916, 37.0303704 ], [ -4.8727725, 37.0304166 ], [ -4.872627, 37.0307693 ], [ -4.872461, 37.031119 ], [ -4.8722715, 37.0315291 ], [ -4.8721312, 37.0318206 ], [ -4.8719659, 37.0321435 ], [ -4.8715707, 37.0329111 ], [ -4.8713413, 37.0333856 ], [ -4.8710309, 37.033987 ], [ -4.8710132, 37.0340212 ], [ -4.870844, 37.0343491 ], [ -4.8704664, 37.0351128 ], [ -4.8704013, 37.0352359 ], [ -4.87023, 37.0355249 ], [ -4.8701444, 37.0356694 ], [ -4.8700276, 37.0358313 ], [ -4.8697786, 37.0361552 ], [ -4.8695347, 37.0364912 ], [ -4.8692687, 37.0368442 ], [ -4.8688201, 37.0374437 ], [ -4.868452, 37.0379365 ], [ -4.8680793, 37.0384403 ], [ -4.8678724, 37.0387297 ], [ -4.8677114, 37.0389691 ], [ -4.8672237, 37.039715 ], [ -4.8667865, 37.0404222 ], [ -4.8664037, 37.0410173 ], [ -4.8661682, 37.0413887 ], [ -4.8660023, 37.0416452 ], [ -4.8657035, 37.0421071 ], [ -4.8656649, 37.0421667 ], [ -4.8656564, 37.04218 ], [ -4.8653753, 37.0426209 ], [ -4.8653095, 37.0427243 ], [ -4.8652109, 37.0428906 ], [ -4.865172, 37.0430057 ], [ -4.8650682, 37.0431409 ], [ -4.8648666, 37.0434111 ], [ -4.8645888, 37.0437303 ], [ -4.864305, 37.0440447 ], [ -4.8641025, 37.0442816 ], [ -4.8639355, 37.0444861 ], [ -4.8638028, 37.0446774 ], [ -4.8636163, 37.0448378 ], [ -4.8634333, 37.0451411 ], [ -4.8631351, 37.0455989 ], [ -4.8629461, 37.0458976 ], [ -4.8627916, 37.046148 ], [ -4.8625337, 37.0465527 ], [ -4.8624655, 37.0466825 ], [ -4.8623794, 37.0468126 ], [ -4.8623473, 37.0468664 ], [ -4.8628528, 37.0470711 ], [ -4.8631358, 37.0472097 ], [ -4.8635153, 37.0473993 ], [ -4.8635154, 37.0473995 ], [ -4.8636416, 37.0474534 ], [ -4.8636638, 37.0474604 ] ] ] } },
{ "type": "Feature", "properties": { "CCAA": "01 - Andalucía", "PROVINCIA": "29 - Málaga", "MUNICIPIO": "29032 - Campillos", "COD_MUNICIPIO": "29032", "DISTRITO": "01", "SECCION": "2903201004", "V1_H": 79.9, "V1_M": 85.71, "V2_H": 79.8721496, "V2_M": 85.86187756, "V3_H": 80.05417582, "V3_M": 85.81846709 }, "geometry": { "type": "Polygon", "coordinates": [ [ [ -4.8621804, 37.0497938 ], [ -4.8621681, 37.0498541 ], [ -4.8622134, 37.049882 ], [ -4.8623726, 37.0499415 ], [ -4.8627179, 37.050072 ], [ -4.8629736, 37.0501848 ], [ -4.8633303, 37.0504177 ], [ -4.8635607, 37.0505905 ], [ -4.863822, 37.0508154 ], [ -4.8640905, 37.0506013 ], [ -4.8643821, 37.0503582 ], [ -4.8648117, 37.0506519 ], [ -4.8650115, 37.0507919 ], [ -4.8652775, 37.0509594 ], [ -4.8655606, 37.0511028 ], [ -4.8659105, 37.0512976 ], [ -4.8661931, 37.0514663 ], [ -4.8666944, 37.0517685 ], [ -4.8669831, 37.0519499 ], [ -4.8671151, 37.0520123 ], [ -4.8672572, 37.0519902 ], [ -4.8675135, 37.0520299 ], [ -4.8676602, 37.0520871 ], [ -4.8678052, 37.0521755 ], [ -4.8679049, 37.0523599 ], [ -4.8679745, 37.0525305 ], [ -4.8680939, 37.0527862 ], [ -4.8681954, 37.0530421 ], [ -4.8682815, 37.0533021 ], [ -4.8683949, 37.0535504 ], [ -4.868511, 37.0537812 ], [ -4.8686062, 37.0540229 ], [ -4.8687339, 37.0541354 ], [ -4.8688121, 37.0542184 ], [ -4.868826, 37.0542447 ], [ -4.8688669, 37.0542815 ], [ -4.8689289, 37.0543372 ], [ -4.869193, 37.0545423 ], [ -4.869465, 37.0547852 ], [ -4.8698211, 37.0550496 ], [ -4.8699744, 37.0551522 ], [ -4.8701222, 37.055251 ], [ -4.8701437, 37.0552655 ], [ -4.8701867, 37.0552895 ], [ -4.8702731, 37.0553377 ], [ -4.870392, 37.0554041 ], [ -4.8704837, 37.0554552 ], [ -4.8706535, 37.0555345 ], [ -4.8708845, 37.0556423 ], [ -4.8709119, 37.0556618 ], [ -4.8710827, 37.0557843 ], [ -4.8712397, 37.0558848 ], [ -4.8712939, 37.0559194 ], [ -4.8713864, 37.0559786 ], [ -4.8717201, 37.0562163 ], [ -4.8721194, 37.0564669 ], [ -4.8725059, 37.0567082 ], [ -4.8728058, 37.0568875 ], [ -4.8728482, 37.0569128 ], [ -4.873058, 37.0570173 ], [ -4.8732405, 37.0571083 ], [ -4.8736513, 37.057336 ], [ -4.8737425, 37.0573798 ], [ -4.8740766, 37.0575407 ], [ -4.8741076, 37.0575549 ], [ -4.8744496, 37.057712 ], [ -4.8745075, 37.0577386 ], [ -4.87486, 37.057887 ], [ -4.8751497, 37.0580123 ], [ -4.8752138, 37.0580401 ], [ -4.8753395, 37.058086 ], [ -4.8755322, 37.0581564 ], [ -4.8760319, 37.0583155 ], [ -4.8765301, 37.0584837 ], [ -4.8769841, 37.0586004 ], [ -4.8774525, 37.058725 ], [ -4.8777266, 37.0588056 ], [ -4.8781206, 37.0589485 ], [ -4.8783822, 37.0590548 ], [ -4.8784546, 37.0590843 ], [ -4.8788913, 37.0592627 ], [ -4.8793067, 37.0594296 ], [ -4.8797134, 37.0595977 ], [ -4.8797438, 37.0596076 ], [ -4.8800702, 37.0597151 ], [ -4.8805501, 37.0598593 ], [ -4.8808746, 37.0599548 ], [ -4.8810513, 37.0600069 ], [ -4.8811674, 37.0600417 ], [ -4.8812378, 37.0600627 ], [ -4.8814596, 37.0601291 ], [ -4.8817255, 37.0602092 ], [ -4.8819108, 37.0602651 ], [ -4.8821919, 37.0603644 ], [ -4.8823119, 37.0604069 ], [ -4.8827187, 37.0605669 ], [ -4.882806, 37.0606008 ], [ -4.8830683, 37.0607026 ], [ -4.8833551, 37.0608453 ], [ -4.8836648, 37.0610154 ], [ -4.8837301, 37.0610591 ], [ -4.8838003, 37.0611061 ], [ -4.8839001, 37.0611808 ], [ -4.8839913, 37.061237 ], [ -4.8840286, 37.0612667 ], [ -4.8841025, 37.0613255 ], [ -4.8842837, 37.0614312 ], [ -4.8845049, 37.0615313 ], [ -4.8846397, 37.0615877 ], [ -4.884656, 37.0615946 ], [ -4.8848805, 37.061697 ], [ -4.8850309, 37.061757 ], [ -4.8851475, 37.0618035 ], [ -4.885399, 37.0619146 ], [ -4.8855544, 37.0619833 ], [ -4.8859599, 37.062194 ], [ -4.8862055, 37.06232 ], [ -4.8863284, 37.0623509 ], [ -4.8864984, 37.0623921 ], [ -4.8866083, 37.0624196 ], [ -4.8866825, 37.0624541 ], [ -4.8867354, 37.0624861 ], [ -4.8867954, 37.0625273 ], [ -4.8868382, 37.0625582 ], [ -4.8868896, 37.062588 ], [ -4.8869381, 37.0626235 ], [ -4.8869995, 37.0626464 ], [ -4.8871138, 37.0626865 ], [ -4.8872166, 37.0626991 ], [ -4.887282, 37.0627083 ], [ -4.8874194, 37.0627278 ], [ -4.8877221, 37.0628491 ], [ -4.8878664, 37.0629327 ], [ -4.8879949, 37.0630415 ], [ -4.8881617, 37.0632109 ], [ -4.888372, 37.0635215 ], [ -4.8884028, 37.0635671 ], [ -4.8884876, 37.0637032 ], [ -4.8885222, 37.0637588 ], [ -4.8885725, 37.0638396 ], [ -4.8886651, 37.0640572 ], [ -4.8887335, 37.0642244 ], [ -4.8888203, 37.0644213 ], [ -4.8888589, 37.0645198 ], [ -4.8888658, 37.0646137 ], [ -4.8888715, 37.0646926 ], [ -4.8888642, 37.06479 ], [ -4.888854, 37.0648671 ], [ -4.8888325, 37.0650294 ], [ -4.8888195, 37.0651483 ], [ -4.8888408, 37.0652469 ], [ -4.8888651, 37.0652995 ], [ -4.8889207, 37.0653694 ], [ -4.8889438, 37.0653875 ], [ -4.8889834, 37.0654186 ], [ -4.8889965, 37.065428 ], [ -4.8890292, 37.0654514 ], [ -4.8891238, 37.0655193 ], [ -4.8891447, 37.0655342 ], [ -4.8893518, 37.0657095 ], [ -4.8894202, 37.0657576 ], [ -4.8894773, 37.0657988 ], [ -4.8895259, 37.0658263 ], [ -4.8896244, 37.0658721 ], [ -4.8897479, 37.0659216 ], [ -4.8900785, 37.0660542 ], [ -4.8900941, 37.0660632 ], [ -4.8903427, 37.0662076 ], [ -4.890454, 37.0662522 ], [ -4.8905341, 37.066297 ], [ -4.8906826, 37.0663564 ], [ -4.8910068, 37.0664709 ], [ -4.8911504, 37.0665471 ], [ -4.891171, 37.066558 ], [ -4.8915665, 37.0667446 ], [ -4.89171, 37.0668065 ], [ -4.8919864, 37.0669255 ], [ -4.8923062, 37.0670905 ], [ -4.8927603, 37.0673103 ], [ -4.8930789, 37.0674087 ], [ -4.8933331, 37.0675267 ], [ -4.8935315, 37.0676412 ], [ -4.8937658, 37.0677614 ], [ -4.8937918, 37.0677742 ], [ -4.89385, 37.0678027 ], [ -4.8939213, 37.0678256 ], [ -4.894037, 37.0678439 ], [ -4.8940654, 37.067847 ], [ -4.8941528, 37.0678565 ], [ -4.8942557, 37.0678542 ], [ -4.8943957, 37.0678382 ], [ -4.8945719, 37.0678298 ], [ -4.8947101, 37.0678233 ], [ -4.8947753, 37.0678249 ], [ -4.8954773, 37.0678416 ], [ -4.8961189, 37.0678886 ], [ -4.8964775, 37.0679218 ], [ -4.8966774, 37.0679709 ], [ -4.8967932, 37.0680145 ], [ -4.8969559, 37.0680923 ], [ -4.8973129, 37.0682859 ], [ -4.8975328, 37.0684003 ], [ -4.8976384, 37.068477 ], [ -4.8976998, 37.0685228 ], [ -4.8977398, 37.0685755 ], [ -4.8979353, 37.0687839 ], [ -4.8982165, 37.0689613 ], [ -4.8984223, 37.0690392 ], [ -4.8985079, 37.0690553 ], [ -4.8985465, 37.0690563 ], [ -4.898618, 37.0690541 ], [ -4.8986795, 37.069046 ], [ -4.8987552, 37.0690427 ], [ -4.8988166, 37.0690495 ], [ -4.8988766, 37.0690735 ], [ -4.8988937, 37.069093 ], [ -4.8988977, 37.0690964 ], [ -4.8989294, 37.0691239 ], [ -4.8989566, 37.0691399 ], [ -4.8990051, 37.069148 ], [ -4.8990365, 37.0691525 ], [ -4.8991123, 37.0691548 ], [ -4.899188, 37.0691651 ], [ -4.8992594, 37.0691972 ], [ -4.8993222, 37.0692464 ], [ -4.8993679, 37.0692899 ], [ -4.8995164, 37.0693803 ], [ -4.8997949, 37.0694971 ], [ -4.9001562, 37.0695613 ], [ -4.9005406, 37.0695933 ], [ -4.900885, 37.0695933 ], [ -4.9011164, 37.0695921 ], [ -4.9011362, 37.0695926 ], [ -4.9011999, 37.0695942 ], [ -4.9012951, 37.0695966 ], [ -4.9015051, 37.0696425 ], [ -4.901675, 37.0696894 ], [ -4.9019536, 37.0698474 ], [ -4.9021063, 37.0699653 ], [ -4.9021905, 37.0700134 ], [ -4.9022677, 37.0700421 ], [ -4.9023547, 37.0700603 ], [ -4.9024605, 37.0700626 ], [ -4.9026234, 37.0700317 ], [ -4.9026664, 37.0700179 ], [ -4.9027178, 37.07001 ], [ -4.9027521, 37.0700168 ], [ -4.9028207, 37.0700397 ], [ -4.9029034, 37.0700958 ], [ -4.9029477, 37.0701325 ], [ -4.9030248, 37.0701611 ], [ -4.9031034, 37.0701782 ], [ -4.9031877, 37.070192 ], [ -4.903272, 37.0701943 ], [ -4.9033677, 37.0701908 ], [ -4.9034792, 37.0701794 ], [ -4.9035266, 37.0701779 ], [ -4.9036293, 37.0701747 ], [ -4.9036596, 37.0701739 ], [ -4.9038636, 37.070169 ], [ -4.9042509, 37.0701632 ], [ -4.9046837, 37.0701804 ], [ -4.905021, 37.0701769 ], [ -4.905281, 37.0701551 ], [ -4.9055726, 37.0700933 ], [ -4.905907, 37.0700509 ], [ -4.9061642, 37.0700394 ], [ -4.9063942, 37.070052 ], [ -4.9066114, 37.0700852 ], [ -4.9068271, 37.0701206 ], [ -4.9069038, 37.0701402 ], [ -4.9070371, 37.0701744 ], [ -4.907307, 37.0702499 ], [ -4.9073875, 37.0702768 ], [ -4.9076285, 37.0703575 ], [ -4.907807, 37.0704091 ], [ -4.9078957, 37.0704182 ], [ -4.9079899, 37.0704251 ], [ -4.9080814, 37.0704285 ], [ -4.9081743, 37.0704319 ], [ -4.9082857, 37.0704537 ], [ -4.9084028, 37.0705063 ], [ -4.9085413, 37.0705911 ], [ -4.9086555, 37.0706826 ], [ -4.9087554, 37.0707719 ], [ -4.9088082, 37.0708635 ], [ -4.9088582, 37.0709471 ], [ -4.9089295, 37.0710284 ], [ -4.9090352, 37.0711177 ], [ -4.9091465, 37.0712001 ], [ -4.9092909, 37.0712722 ], [ -4.9093836, 37.0713128 ], [ -4.9094872, 37.0713581 ], [ -4.9097148, 37.0716672 ], [ -4.9101316, 37.0721595 ], [ -4.9105854, 37.0726575 ], [ -4.9109709, 37.0730318 ], [ -4.9111551, 37.0731933 ], [ -4.9112202, 37.073242 ], [ -4.9112422, 37.0732586 ], [ -4.9112764, 37.0732917 ], [ -4.911305, 37.0733386 ], [ -4.9113249, 37.0733937 ], [ -4.9113421, 37.0734532 ], [ -4.9113691, 37.0735138 ], [ -4.9113962, 37.0735757 ], [ -4.9114204, 37.0736364 ], [ -4.9114718, 37.073712 ], [ -4.9114989, 37.0737554 ], [ -4.9115489, 37.0738058 ], [ -4.911616, 37.0738516 ], [ -4.9116646, 37.073878 ], [ -4.9117461, 37.0739054 ], [ -4.9119302, 37.0739798 ], [ -4.9122545, 37.0741652 ], [ -4.9123938, 37.0742742 ], [ -4.9138773, 37.074644 ], [ -4.9161642, 37.0758912 ], [ -4.9172501, 37.0765871 ], [ -4.9179291, 37.0776224 ], [ -4.9199134, 37.0786366 ], [ -4.9214789, 37.0795149 ], [ -4.9248436, 37.0811249 ], [ -4.9253303, 37.0815925 ], [ -4.9267748, 37.0823776 ], [ -4.9275738, 37.0834585 ], [ -4.9292666, 37.0846675 ], [ -4.9308952, 37.0856873 ], [ -4.9313004, 37.0856668 ], [ -4.9313469, 37.08564 ], [ -4.9315279, 37.0855702 ], [ -4.9318166, 37.0854566 ], [ -4.9320509, 37.0853596 ], [ -4.9321615, 37.0853137 ], [ -4.9324375, 37.0851967 ], [ -4.9328357, 37.0850209 ], [ -4.9331521, 37.0848594 ], [ -4.9334656, 37.0847151 ], [ -4.9335855, 37.0846669 ], [ -4.9339325, 37.0845273 ], [ -4.9343534, 37.084362 ], [ -4.9347068, 37.0842191 ], [ -4.935111, 37.084024 ], [ -4.9354651, 37.0838295 ], [ -4.9357965, 37.0836063 ], [ -4.9360375, 37.0834191 ], [ -4.9361864, 37.0832786 ], [ -4.9365384, 37.0830578 ], [ -4.9370017, 37.0828125 ], [ -4.937401, 37.0826385 ], [ -4.9375024, 37.082645 ], [ -4.937687, 37.0826936 ], [ -4.9379117, 37.0827765 ], [ -4.938201, 37.0829313 ], [ -4.9385864, 37.0831842 ], [ -4.9388285, 37.0834189 ], [ -4.9390389, 37.0836309 ], [ -4.9392126, 37.083813 ], [ -4.9395158, 37.0841714 ], [ -4.9397529, 37.0844239 ], [ -4.9399436, 37.0846222 ], [ -4.9401557, 37.0848104 ], [ -4.9403652, 37.0849882 ], [ -4.9406061, 37.085172 ], [ -4.9408417, 37.0853215 ], [ -4.941059, 37.0854421 ], [ -4.9414025, 37.0856599 ], [ -4.9415241, 37.0857627 ], [ -4.941531, 37.0857716 ], [ -4.9416422, 37.0858171 ], [ -4.941854, 37.0859185 ], [ -4.9420917, 37.0860072 ], [ -4.9423854, 37.0860849 ], [ -4.9427474, 37.0861699 ], [ -4.9431214, 37.0862254 ], [ -4.9437068, 37.0863028 ], [ -4.9440953, 37.0863365 ], [ -4.9444968, 37.086352 ], [ -4.9450087, 37.0863568 ], [ -4.9452621, 37.0863518 ], [ -4.9454042, 37.0863547 ], [ -4.9455399, 37.0863518 ], [ -4.9457029, 37.0863357 ], [ -4.945973, 37.0862829 ], [ -4.9463504, 37.0862117 ], [ -4.9467819, 37.0861462 ], [ -4.9471608, 37.0861151 ], [ -4.9474523, 37.0861173 ], [ -4.9476967, 37.0861378 ], [ -4.9478396, 37.0861617 ], [ -4.9481756, 37.0862348 ], [ -4.9485703, 37.0863697 ], [ -4.9487704, 37.0864474 ], [ -4.949012, 37.0865698 ], [ -4.9492479, 37.0867002 ], [ -4.9494552, 37.0868042 ], [ -4.9496739, 37.0868809 ], [ -4.9498713, 37.0869483 ], [ -4.9500342, 37.0870077 ], [ -4.9502173, 37.0870947 ], [ -4.9503317, 37.0871999 ], [ -4.9504432, 37.0873303 ], [ -4.9505575, 37.0875157 ], [ -4.950612, 37.0876485 ], [ -4.950632, 37.0877309 ], [ -4.9506463, 37.087779 ], [ -4.950665, 37.0878225 ], [ -4.950705, 37.0878729 ], [ -4.9507307, 37.0879003 ], [ -4.950787, 37.0879514 ], [ -4.9508434, 37.0880198 ], [ -4.9509052, 37.0881052 ], [ -4.9509682, 37.0882184 ], [ -4.9509896, 37.0883353 ], [ -4.9509911, 37.0884497 ], [ -4.9509811, 37.0885619 ], [ -4.9510084, 37.0886672 ], [ -4.9510741, 37.0887977 ], [ -4.9511857, 37.0889293 ], [ -4.9513273, 37.0890574 ], [ -4.9514302, 37.0891444 ], [ -4.9514832, 37.0892634 ], [ -4.951539, 37.0894259 ], [ -4.9515734, 37.0895908 ], [ -4.9515892, 37.0897339 ], [ -4.9515693, 37.0899033 ], [ -4.951585, 37.0900785 ], [ -4.9516237, 37.0902239 ], [ -4.9516996, 37.0903875 ], [ -4.9517939, 37.0905523 ], [ -4.9519169, 37.0906816 ], [ -4.95203, 37.0907937 ], [ -4.9521515, 37.090891 ], [ -4.9523159, 37.0909951 ], [ -4.9525346, 37.0911003 ], [ -4.9527363, 37.0911883 ], [ -4.9529707, 37.0912763 ], [ -4.9532238, 37.0913575 ], [ -4.9534595, 37.0914435 ], [ -4.9535155, 37.0914638 ], [ -4.9536155, 37.0915053 ], [ -4.9537557, 37.0915632 ], [ -4.9540045, 37.0916375 ], [ -4.9542697, 37.0916862 ], [ -4.9545434, 37.0914195 ], [ -4.9575749, 37.0885575 ], [ -4.9590668, 37.0866402 ], [ -4.9611936, 37.0853523 ], [ -4.9616098, 37.0849128 ], [ -4.962899, 37.0834314 ], [ -4.9637184, 37.0824895 ], [ -4.9652057, 37.0812752 ], [ -4.9661999, 37.0805738 ], [ -4.9702629, 37.0780459 ], [ -4.9722853, 37.0753535 ], [ -4.972859, 37.0749204 ], [ -4.9734683, 37.0745587 ], [ -4.9746131, 37.0740259 ], [ -4.9757151, 37.073584 ], [ -4.9767877, 37.0733048 ], [ -4.9784221, 37.0730072 ], [ -4.9786369, 37.0721834 ], [ -4.9788283, 37.0704588 ], [ -4.9789133, 37.0702681 ], [ -4.9791419, 37.0699758 ], [ -4.9797136, 37.0694706 ], [ -4.9801228, 37.0692025 ], [ -4.9806451, 37.0689594 ], [ -4.9818836, 37.0685782 ], [ -4.9821054, 37.0684573 ], [ -4.9826527, 37.0678804 ], [ -4.9830272, 37.0675767 ], [ -4.9847847, 37.0668263 ], [ -4.9882913, 37.0645775 ], [ -4.9864561, 37.0632112 ], [ -4.9773671, 37.0561979 ], [ -4.9759546, 37.0550678 ], [ -4.9709031, 37.05106 ], [ -4.9692136, 37.049646 ], [ -4.9671092, 37.0487075 ], [ -4.9510421, 37.0408342 ], [ -4.9488677, 37.0397793 ], [ -4.9374326, 37.0379657 ], [ -4.9370824, 37.0378993 ], [ -4.935147, 37.0375636 ], [ -4.9348727, 37.0378225 ], [ -4.9347376, 37.0379215 ], [ -4.9346065, 37.0379942 ], [ -4.9344682, 37.0380508 ], [ -4.9339629, 37.0382146 ], [ -4.9336593, 37.0383153 ], [ -4.9331363, 37.038489 ], [ -4.9325805, 37.0386753 ], [ -4.9321254, 37.0388318 ], [ -4.9318461, 37.0389259 ], [ -4.9316067, 37.0390098 ], [ -4.9313641, 37.0390887 ], [ -4.9312849, 37.0391159 ], [ -4.9312301, 37.0391348 ], [ -4.9310987, 37.0391576 ], [ -4.9309542, 37.0391704 ], [ -4.9308608, 37.0391744 ], [ -4.9307639, 37.0391604 ], [ -4.9306656, 37.0391442 ], [ -4.9303986, 37.0390829 ], [ -4.929952, 37.0389838 ], [ -4.9296262, 37.0389194 ], [ -4.9294059, 37.0388764 ], [ -4.9291833, 37.0388392 ], [ -4.9289791, 37.0388162 ], [ -4.9284951, 37.0387978 ], [ -4.9282022, 37.0387848 ], [ -4.927806, 37.0387636 ], [ -4.9275986, 37.0387518 ], [ -4.9274064, 37.0387298 ], [ -4.9271046, 37.0386892 ], [ -4.926728, 37.038619 ], [ -4.9263668, 37.0385359 ], [ -4.9261988, 37.0384943 ], [ -4.9259503, 37.0384088 ], [ -4.9258309, 37.0383697 ], [ -4.925451, 37.038236 ], [ -4.9253393, 37.0381988 ], [ -4.9251867, 37.0381542 ], [ -4.9250442, 37.0381337 ], [ -4.9248641, 37.0381214 ], [ -4.9247013, 37.038118 ], [ -4.9243604, 37.0381016 ], [ -4.9239942, 37.0380828 ], [ -4.923672, 37.0380646 ], [ -4.9234817, 37.0380583 ], [ -4.9233038, 37.0380776 ], [ -4.9231583, 37.0381082 ], [ -4.9230392, 37.0381429 ], [ -4.9227492, 37.0382416 ], [ -4.9222017, 37.0384218 ], [ -4.9216002, 37.038614 ], [ -4.920898, 37.03882 ], [ -4.9204914, 37.0389279 ], [ -4.9197933, 37.0391005 ], [ -4.9195853, 37.0391468 ], [ -4.91928, 37.0391869 ], [ -4.9187853, 37.0392301 ], [ -4.9182686, 37.0392802 ], [ -4.9179086, 37.0393009 ], [ -4.9175712, 37.0393027 ], [ -4.9171922, 37.0393014 ], [ -4.9167163, 37.0392915 ], [ -4.9163422, 37.03929 ], [ -4.9161742, 37.0392902 ], [ -4.9160573, 37.0393022 ], [ -4.9156658, 37.0393549 ], [ -4.9153372, 37.0394065 ], [ -4.9151243, 37.0394673 ], [ -4.9149599, 37.039521 ], [ -4.914639, 37.0396431 ], [ -4.9142065, 37.039798 ], [ -4.9135134, 37.0400037 ], [ -4.9126569, 37.0402434 ], [ -4.9125986, 37.0402597 ], [ -4.9124059, 37.0403095 ], [ -4.91203, 37.0404012 ], [ -4.9117795, 37.0404674 ], [ -4.9114673, 37.0405602 ], [ -4.9113259, 37.0406065 ], [ -4.9110758, 37.0406941 ], [ -4.9108746, 37.0407677 ], [ -4.9106198, 37.0408819 ], [ -4.9103215, 37.0410188 ], [ -4.9100724, 37.0411505 ], [ -4.9098565, 37.041286 ], [ -4.9096832, 37.0414043 ], [ -4.9095467, 37.0415106 ], [ -4.9093197, 37.0417078 ], [ -4.909165, 37.0418219 ], [ -4.9090142, 37.0419099 ], [ -4.9086512, 37.0420498 ], [ -4.9080946, 37.0422299 ], [ -4.9075888, 37.0423978 ], [ -4.9070839, 37.0425694 ], [ -4.9068623, 37.0426358 ], [ -4.9066708, 37.0426609 ], [ -4.9063656, 37.0426721 ], [ -4.9060203, 37.0426903 ], [ -4.9057682, 37.0427193 ], [ -4.90554, 37.0427668 ], [ -4.9055246, 37.04277 ], [ -4.9052809, 37.0428175 ], [ -4.9051666, 37.0428787 ], [ -4.9049318, 37.042987 ], [ -4.9044239, 37.0432104 ], [ -4.9039267, 37.0434029 ], [ -4.9035634, 37.0435335 ], [ -4.9032062, 37.0436536 ], [ -4.9028526, 37.0437546 ], [ -4.9023804, 37.0438669 ], [ -4.9021287, 37.0439249 ], [ -4.9016241, 37.0440029 ], [ -4.9011349, 37.0440679 ], [ -4.9008744, 37.0440911 ], [ -4.9000942, 37.0441424 ], [ -4.8990744, 37.0441879 ], [ -4.8978581, 37.0442483 ], [ -4.8970648, 37.044284 ], [ -4.8949487, 37.0443796 ], [ -4.8939376, 37.0444269 ], [ -4.8925813, 37.044495 ], [ -4.8915144, 37.0445453 ], [ -4.8910811, 37.0445791 ], [ -4.8907046, 37.0446136 ], [ -4.8904136, 37.0446526 ], [ -4.8897336, 37.0447948 ], [ -4.8887627, 37.0449759 ], [ -4.8879499, 37.0451297 ], [ -4.8861428, 37.0454659 ], [ -4.8846563, 37.0457401 ], [ -4.8834166, 37.0459809 ], [ -4.8826497, 37.0461118 ], [ -4.8824125, 37.0461596 ], [ -4.8820202, 37.0462388 ], [ -4.881477, 37.0463839 ], [ -4.881134, 37.0464887 ], [ -4.8808171, 37.0466138 ], [ -4.8804421, 37.0467814 ], [ -4.8800467, 37.0469805 ], [ -4.8790237, 37.0474979 ], [ -4.8783065, 37.0478656 ], [ -4.8772355, 37.0484133 ], [ -4.8771772, 37.0484427 ], [ -4.8769917, 37.0485807 ], [ -4.8764712, 37.0489466 ], [ -4.8761467, 37.0490614 ], [ -4.8757651, 37.0490269 ], [ -4.8753841, 37.049021 ], [ -4.8750531, 37.0489905 ], [ -4.8747463, 37.0489399 ], [ -4.8743165, 37.0489162 ], [ -4.8740235, 37.04891 ], [ -4.8736876, 37.0488995 ], [ -4.873558, 37.0489015 ], [ -4.8732147, 37.0489318 ], [ -4.8730742, 37.0489522 ], [ -4.8727065, 37.0490126 ], [ -4.8723955, 37.0490648 ], [ -4.8719997, 37.0491063 ], [ -4.8717868, 37.0491185 ], [ -4.8715295, 37.0491109 ], [ -4.8713449, 37.0490944 ], [ -4.8712452, 37.0490854 ], [ -4.8707593, 37.0490534 ], [ -4.8704688, 37.0490481 ], [ -4.8702799, 37.0490338 ], [ -4.8700952, 37.0490168 ], [ -4.8697515, 37.0489698 ], [ -4.8694671, 37.0489193 ], [ -4.8693788, 37.0489031 ], [ -4.8691648, 37.048864 ], [ -4.8686441, 37.0489653 ], [ -4.8681072, 37.049031 ], [ -4.8680687, 37.0487955 ], [ -4.8676964, 37.0487775 ], [ -4.8671268, 37.0487221 ], [ -4.8667387, 37.0486686 ], [ -4.8663493, 37.0485602 ], [ -4.8660551, 37.0484528 ], [ -4.8655085, 37.0482444 ], [ -4.865079, 37.0480794 ], [ -4.8647633, 37.0479413 ], [ -4.8644899, 37.0478359 ], [ -4.864234, 37.0477088 ], [ -4.8639994, 37.0476075 ], [ -4.8638761, 37.0475546 ], [ -4.8636655, 37.0474578 ], [ -4.8636638, 37.0474604 ], [ -4.8635744, 37.0476237 ], [ -4.8635031, 37.0477489 ], [ -4.8633774, 37.0479631 ], [ -4.8633531, 37.048066 ], [ -4.8631619, 37.0483981 ], [ -4.863076, 37.048533 ], [ -4.8630597, 37.0485976 ], [ -4.8629379, 37.0487259 ], [ -4.862746, 37.0489102 ], [ -4.8624987, 37.0491382 ], [ -4.8623171, 37.0494964 ], [ -4.8622491, 37.0496382 ], [ -4.8621804, 37.0497938 ] ] ] } },
{ "type": "Feature", "properties": { "CCAA": "01 - Andalucía", "PROVINCIA": "29 - Málaga", "MUNICIPIO": "29032 - Campillos", "COD_MUNICIPIO": "29032", "DISTRITO": "01", "SECCION": "2903201005", "V1_H": 78.77, "V1_M": 84.85, "V2_H": 78.83270398000001, "V2_M": 84.81764444, "V3_H": 78.82199574000001, "V3_M": 85.12573797 }, "geometry": { "type": "Polygon", "coordinates": [ [ [ -4.8621804, 37.0497938 ], [ -4.8621326, 37.0498594 ], [ -4.8620809, 37.0499365 ], [ -4.8620508, 37.050002 ], [ -4.8620351, 37.0500124 ], [ -4.8618956, 37.0502707 ], [ -4.8616169, 37.0506723 ], [ -4.8613752, 37.05101 ], [ -4.86118, 37.0512992 ], [ -4.8609845, 37.0515789 ], [ -4.8608234, 37.0518056 ], [ -4.8605753, 37.0521243 ], [ -4.8604882, 37.0522115 ], [ -4.8603265, 37.0524143 ], [ -4.8601474, 37.0526318 ], [ -4.859829, 37.0529945 ], [ -4.8596429, 37.0531739 ], [ -4.8594496, 37.0533597 ], [ -4.8594032, 37.0534199 ], [ -4.8592888, 37.0535685 ], [ -4.8592013, 37.0536811 ], [ -4.8590727, 37.0538687 ], [ -4.8589463, 37.0541057 ], [ -4.8588525, 37.0543509 ], [ -4.858791, 37.0545473 ], [ -4.8587007, 37.0548395 ], [ -4.8586411, 37.0550931 ], [ -4.8586166, 37.0552954 ], [ -4.8585865, 37.0554944 ], [ -4.858561, 37.0556418 ], [ -4.8585139, 37.0557958 ], [ -4.8584791, 37.0559263 ], [ -4.8584213, 37.0560968 ], [ -4.8584082, 37.0561577 ], [ -4.8583923, 37.0562309 ], [ -4.8583317, 37.0564048 ], [ -4.8582582, 37.0565982 ], [ -4.8582365, 37.0566555 ], [ -4.8581096, 37.0569703 ], [ -4.8580257, 37.0571496 ], [ -4.8580074, 37.0571888 ], [ -4.8579799, 37.0572849 ], [ -4.8579824, 37.0573514 ], [ -4.8579837, 37.0574086 ], [ -4.8579978, 37.057474 ], [ -4.8580075, 37.0574919 ], [ -4.8579593, 37.0575747 ], [ -4.8576803, 37.05766 ], [ -4.8575797, 37.0576907 ], [ -4.8571648, 37.0578169 ], [ -4.8569402, 37.0578818 ], [ -4.8568071, 37.0579342 ], [ -4.8565923, 37.0580574 ], [ -4.8563716, 37.0582184 ], [ -4.8562454, 37.0583579 ], [ -4.8561089, 37.0585569 ], [ -4.856105, 37.0585657 ], [ -4.8560466, 37.0586944 ], [ -4.8560125, 37.0587698 ], [ -4.8559142, 37.0590353 ], [ -4.855864, 37.0591393 ], [ -4.8558475, 37.0591734 ], [ -4.8557946, 37.0592832 ], [ -4.8557833, 37.0593065 ], [ -4.8556911, 37.0594953 ], [ -4.855612, 37.0596532 ], [ -4.8554455, 37.059851 ], [ -4.8552016, 37.0600957 ], [ -4.8548934, 37.0603801 ], [ -4.8545837, 37.0606463 ], [ -4.8544633, 37.0607435 ], [ -4.8543739, 37.0607988 ], [ -4.8543526, 37.060812 ], [ -4.8540293, 37.0611495 ], [ -4.8539662, 37.0612152 ], [ -4.8537093, 37.0614716 ], [ -4.8532681, 37.0618435 ], [ -4.8529209, 37.0621142 ], [ -4.852627, 37.0623438 ], [ -4.8526091, 37.0623597 ], [ -4.8525145, 37.062444 ], [ -4.8524625, 37.0624949 ], [ -4.8524134, 37.062543 ], [ -4.852273, 37.0627175 ], [ -4.8519501, 37.0631337 ], [ -4.8518908, 37.0632099 ], [ -4.8516922, 37.0634656 ], [ -4.8513048, 37.0638963 ], [ -4.851299, 37.0639014 ], [ -4.8511721, 37.0640113 ], [ -4.8509678, 37.0641556 ], [ -4.8509603, 37.064161 ], [ -4.8506697, 37.0643692 ], [ -4.8504236, 37.064536 ], [ -4.8501693, 37.0646628 ], [ -4.8497744, 37.0648472 ], [ -4.8494868, 37.0649681 ], [ -4.8490931, 37.0651336 ], [ -4.8490438, 37.0651543 ], [ -4.8485886, 37.0653267 ], [ -4.8482548, 37.0654531 ], [ -4.8477702, 37.0656139 ], [ -4.8476256, 37.0656523 ], [ -4.8474075, 37.0657104 ], [ -4.8473617, 37.0657225 ], [ -4.8471872, 37.0657667 ], [ -4.8471582, 37.065774 ], [ -4.8470366, 37.0658007 ], [ -4.8468119, 37.0658338 ], [ -4.8467584, 37.0658387 ], [ -4.8465358, 37.0658595 ], [ -4.8461453, 37.065888 ], [ -4.8460182, 37.0658963 ], [ -4.8457292, 37.0659152 ], [ -4.8453704, 37.0659301 ], [ -4.8453003, 37.0659319 ], [ -4.8451532, 37.0659356 ], [ -4.8450216, 37.0659417 ], [ -4.8448557, 37.0659578 ], [ -4.8447253, 37.0659857 ], [ -4.8446023, 37.0659976 ], [ -4.8444677, 37.0660242 ], [ -4.8443703, 37.0660488 ], [ -4.8443571, 37.0660538 ], [ -4.8440603, 37.0661683 ], [ -4.8434695, 37.066438 ], [ -4.843216, 37.0665537 ], [ -4.8425934, 37.0668011 ], [ -4.8425373, 37.0668234 ], [ -4.8418686, 37.0670851 ], [ -4.8415359, 37.0671884 ], [ -4.8413222, 37.0672581 ], [ -4.8413141, 37.0672606 ], [ -4.8410213, 37.0673479 ], [ -4.8406603, 37.0674293 ], [ -4.8402222, 37.0675033 ], [ -4.8397697, 37.0675898 ], [ -4.8397447, 37.0675957 ], [ -4.8395549, 37.06764 ], [ -4.8392825, 37.0677162 ], [ -4.8391496, 37.0677615 ], [ -4.8390114, 37.0678085 ], [ -4.8387168, 37.0679682 ], [ -4.8385219, 37.0680802 ], [ -4.8385098, 37.0680872 ], [ -4.8384121, 37.0681325 ], [ -4.8383174, 37.0681685 ], [ -4.8382328, 37.0681966 ], [ -4.838164, 37.0682191 ], [ -4.8380649, 37.0682574 ], [ -4.8380104, 37.0682801 ], [ -4.8377922, 37.0683692 ], [ -4.8377168, 37.0684079 ], [ -4.8376217, 37.0684569 ], [ -4.8375192, 37.0685096 ], [ -4.8374342, 37.0685699 ], [ -4.8373032, 37.0686629 ], [ -4.8372096, 37.0687345 ], [ -4.8371061, 37.0687912 ], [ -4.8370169, 37.0688433 ], [ -4.8369106, 37.0689057 ], [ -4.836817, 37.0689658 ], [ -4.8367378, 37.0690283 ], [ -4.8365435, 37.0691498 ], [ -4.8362421, 37.0693824 ], [ -4.8362107, 37.0694066 ], [ -4.8359365, 37.0696593 ], [ -4.8356751, 37.069912 ], [ -4.8353214, 37.0702524 ], [ -4.8351307, 37.0704483 ], [ -4.8349822, 37.0705631 ], [ -4.8348125, 37.0706629 ], [ -4.8345766, 37.0708138 ], [ -4.8341027, 37.071166 ], [ -4.8336549, 37.071476 ], [ -4.8332247, 37.0717461 ], [ -4.8329542, 37.0719163 ], [ -4.8328261, 37.0720071 ], [ -4.832685, 37.0721001 ], [ -4.8324732, 37.0722558 ], [ -4.8322744, 37.072415 ], [ -4.8321794, 37.0724728 ], [ -4.8320874, 37.0725215 ], [ -4.8319495, 37.0725939 ], [ -4.8318189, 37.0726492 ], [ -4.8317213, 37.0726854 ], [ -4.8316079, 37.072727 ], [ -4.8314788, 37.0727628 ], [ -4.8313741, 37.0728001 ], [ -4.8312879, 37.0728418 ], [ -4.83127, 37.0728543 ], [ -4.8312174, 37.0728907 ], [ -4.8311539, 37.0729499 ], [ -4.8311034, 37.0729954 ], [ -4.8310082, 37.0730818 ], [ -4.8309577, 37.0731262 ], [ -4.8309173, 37.0731558 ], [ -4.8308426, 37.0731921 ], [ -4.8307566, 37.0732155 ], [ -4.8306249, 37.0732353 ], [ -4.8303276, 37.0732414 ], [ -4.8299077, 37.0732204 ], [ -4.8298828, 37.0732178 ], [ -4.8295408, 37.0731825 ], [ -4.8292152, 37.0731206 ], [ -4.8292042, 37.0731185 ], [ -4.82906, 37.0731049 ], [ -4.8289428, 37.0731099 ], [ -4.8288512, 37.0731174 ], [ -4.8287281, 37.0731338 ], [ -4.8286509, 37.0731344 ], [ -4.8285496, 37.0731257 ], [ -4.828451, 37.073124 ], [ -4.8282893, 37.073139 ], [ -4.8282259, 37.0731511 ], [ -4.828149, 37.0731656 ], [ -4.8276547, 37.0732805 ], [ -4.8270669, 37.0734498 ], [ -4.8266241, 37.073574 ], [ -4.8265236, 37.0736021 ], [ -4.8257698, 37.0738012 ], [ -4.8252166, 37.0739375 ], [ -4.8248449, 37.0740167 ], [ -4.8247835, 37.0740299 ], [ -4.8246777, 37.0740554 ], [ -4.8243628, 37.0741314 ], [ -4.8240484, 37.0742175 ], [ -4.8238577, 37.0742885 ], [ -4.8234635, 37.0744133 ], [ -4.8231899, 37.0744713 ], [ -4.8230065, 37.074516 ], [ -4.8228544, 37.0745724 ], [ -4.8227139, 37.0746335 ], [ -4.8225905, 37.0746854 ], [ -4.8225086, 37.0747204 ], [ -4.8224282, 37.0747658 ], [ -4.8224094, 37.0747768 ], [ -4.8223578, 37.0748066 ], [ -4.8222571, 37.0748667 ], [ -4.8221121, 37.0749495 ], [ -4.8220029, 37.0750027 ], [ -4.8219339, 37.0750481 ], [ -4.8218737, 37.0750764 ], [ -4.8217973, 37.0751355 ], [ -4.8217181, 37.0751957 ], [ -4.8216016, 37.0752844 ], [ -4.8213111, 37.0754625 ], [ -4.8210669, 37.0756008 ], [ -4.8209117, 37.0756892 ], [ -4.8207751, 37.0757766 ], [ -4.8206069, 37.0758867 ], [ -4.8205044, 37.0760018 ], [ -4.8202864, 37.0762296 ], [ -4.8200049, 37.0765211 ], [ -4.8197382, 37.0767715 ], [ -4.8195002, 37.0770038 ], [ -4.8194195, 37.077072 ], [ -4.8193617, 37.0771278 ], [ -4.8193072, 37.0771629 ], [ -4.8192535, 37.0772124 ], [ -4.8192294, 37.0772347 ], [ -4.8191617, 37.0772835 ], [ -4.8190247, 37.0774098 ], [ -4.818879, 37.0775613 ], [ -4.8187692, 37.0776934 ], [ -4.8186843, 37.0777999 ], [ -4.8184833, 37.078039 ], [ -4.822146, 37.0834237 ], [ -4.8277907, 37.0917459 ], [ -4.8291178, 37.0921942 ], [ -4.8333771, 37.0929306 ], [ -4.8349396, 37.093339 ], [ -4.8368224, 37.0939678 ], [ -4.8392072, 37.0948772 ], [ -4.8404548, 37.0952905 ], [ -4.842822, 37.0959387 ], [ -4.8465227, 37.0968275 ], [ -4.8480186, 37.0972639 ], [ -4.8533105, 37.0992633 ], [ -4.8543505, 37.0994634 ], [ -4.8716169, 37.1044548 ], [ -4.8732758, 37.1049342 ], [ -4.8771973, 37.1060709 ], [ -4.8815671, 37.1071283 ], [ -4.8859648, 37.1084013 ], [ -4.8934511, 37.1103279 ], [ -4.8943954, 37.1111961 ], [ -4.9028314, 37.1132782 ], [ -4.9083689, 37.1146493 ], [ -4.9092182, 37.1144103 ], [ -4.9140804, 37.1126375 ], [ -4.9148256, 37.112292 ], [ -4.9169653, 37.1110137 ], [ -4.9171473, 37.1079644 ], [ -4.9182663, 37.107712 ], [ -4.9200248, 37.1073861 ], [ -4.9219586, 37.1068771 ], [ -4.921407, 37.1046419 ], [ -4.9214096, 37.1042994 ], [ -4.9219334, 37.103651 ], [ -4.9226203, 37.1032253 ], [ -4.9229444, 37.1031389 ], [ -4.9235075, 37.1031568 ], [ -4.9258323, 37.1034255 ], [ -4.9270155, 37.1034964 ], [ -4.9273156, 37.1033473 ], [ -4.9291468, 37.1014609 ], [ -4.9307393, 37.0999208 ], [ -4.9313, 37.0998486 ], [ -4.9317504, 37.0998593 ], [ -4.9322023, 37.0999331 ], [ -4.9328149, 37.1001304 ], [ -4.9336055, 37.1002437 ], [ -4.9341107, 37.1001994 ], [ -4.9347306, 37.1002434 ], [ -4.9357272, 37.1004975 ], [ -4.9369819, 37.1002787 ], [ -4.9440043, 37.0976853 ], [ -4.946441, 37.0966179 ], [ -4.9475844, 37.0960133 ], [ -4.9495216, 37.0947738 ], [ -4.9517172, 37.0935209 ], [ -4.9531455, 37.0926232 ], [ -4.9539507, 37.091997 ], [ -4.9542697, 37.0916862 ], [ -4.9540045, 37.0916375 ], [ -4.9537557, 37.0915632 ], [ -4.9536155, 37.0915053 ], [ -4.9535155, 37.0914638 ], [ -4.9534595, 37.0914435 ], [ -4.9532238, 37.0913575 ], [ -4.9529707, 37.0912763 ], [ -4.9527363, 37.0911883 ], [ -4.9525346, 37.0911003 ], [ -4.9523159, 37.0909951 ], [ -4.9521515, 37.090891 ], [ -4.95203, 37.0907937 ], [ -4.9519169, 37.0906816 ], [ -4.9517939, 37.0905523 ], [ -4.9516996, 37.0903875 ], [ -4.9516237, 37.0902239 ], [ -4.951585, 37.0900785 ], [ -4.9515693, 37.0899033 ], [ -4.9515892, 37.0897339 ], [ -4.9515734, 37.0895908 ], [ -4.951539, 37.0894259 ], [ -4.9514832, 37.0892634 ], [ -4.9514302, 37.0891444 ], [ -4.9513273, 37.0890574 ], [ -4.9511857, 37.0889293 ], [ -4.9510741, 37.0887977 ], [ -4.9510084, 37.0886672 ], [ -4.9509811, 37.0885619 ], [ -4.9509911, 37.0884497 ], [ -4.9509896, 37.0883353 ], [ -4.9509682, 37.0882184 ], [ -4.9509052, 37.0881052 ], [ -4.9508434, 37.0880198 ], [ -4.950787, 37.0879514 ], [ -4.9507307, 37.0879003 ], [ -4.950705, 37.0878729 ], [ -4.950665, 37.0878225 ], [ -4.9506463, 37.087779 ], [ -4.950632, 37.0877309 ], [ -4.950612, 37.0876485 ], [ -4.9505575, 37.0875157 ], [ -4.9504432, 37.0873303 ], [ -4.9503317, 37.0871999 ], [ -4.9502173, 37.0870947 ], [ -4.9500342, 37.0870077 ], [ -4.9498713, 37.0869483 ], [ -4.9496739, 37.0868809 ], [ -4.9494552, 37.0868042 ], [ -4.9492479, 37.0867002 ], [ -4.949012, 37.0865698 ], [ -4.9487704, 37.0864474 ], [ -4.9485703, 37.0863697 ], [ -4.9481756, 37.0862348 ], [ -4.9478396, 37.0861617 ], [ -4.9476967, 37.0861378 ], [ -4.9474523, 37.0861173 ], [ -4.9471608, 37.0861151 ], [ -4.9467819, 37.0861462 ], [ -4.9463504, 37.0862117 ], [ -4.945973, 37.0862829 ], [ -4.9457029, 37.0863357 ], [ -4.9455399, 37.0863518 ], [ -4.9454042, 37.0863547 ], [ -4.9452621, 37.0863518 ], [ -4.9450087, 37.0863568 ], [ -4.9444968, 37.086352 ], [ -4.9440953, 37.0863365 ], [ -4.9437068, 37.0863028 ], [ -4.9431214, 37.0862254 ], [ -4.9427474, 37.0861699 ], [ -4.9423854, 37.0860849 ], [ -4.9420917, 37.0860072 ], [ -4.941854, 37.0859185 ], [ -4.9416422, 37.0858171 ], [ -4.941531, 37.0857716 ], [ -4.9415241, 37.0857627 ], [ -4.9414025, 37.0856599 ], [ -4.941059, 37.0854421 ], [ -4.9408417, 37.0853215 ], [ -4.9406061, 37.085172 ], [ -4.9403652, 37.0849882 ], [ -4.9401557, 37.0848104 ], [ -4.9399436, 37.0846222 ], [ -4.9397529, 37.0844239 ], [ -4.9395158, 37.0841714 ], [ -4.9392126, 37.083813 ], [ -4.9390389, 37.0836309 ], [ -4.9388285, 37.0834189 ], [ -4.9385864, 37.0831842 ], [ -4.938201, 37.0829313 ], [ -4.9379117, 37.0827765 ], [ -4.937687, 37.0826936 ], [ -4.9375024, 37.082645 ], [ -4.937401, 37.0826385 ], [ -4.9370017, 37.0828125 ], [ -4.9365384, 37.0830578 ], [ -4.9361864, 37.0832786 ], [ -4.9360375, 37.0834191 ], [ -4.9357965, 37.0836063 ], [ -4.9354651, 37.0838295 ], [ -4.935111, 37.084024 ], [ -4.9347068, 37.0842191 ], [ -4.9343534, 37.084362 ], [ -4.9339325, 37.0845273 ], [ -4.9335855, 37.0846669 ], [ -4.9334656, 37.0847151 ], [ -4.9331521, 37.0848594 ], [ -4.9328357, 37.0850209 ], [ -4.9324375, 37.0851967 ], [ -4.9321615, 37.0853137 ], [ -4.9320509, 37.0853596 ], [ -4.9318166, 37.0854566 ], [ -4.9315279, 37.0855702 ], [ -4.9313469, 37.08564 ], [ -4.9313004, 37.0856668 ], [ -4.9308952, 37.0856873 ], [ -4.9292666, 37.0846675 ], [ -4.9275738, 37.0834585 ], [ -4.9267748, 37.0823776 ], [ -4.9253303, 37.0815925 ], [ -4.9248436, 37.0811249 ], [ -4.9214789, 37.0795149 ], [ -4.9199134, 37.0786366 ], [ -4.9179291, 37.0776224 ], [ -4.9172501, 37.0765871 ], [ -4.9161642, 37.0758912 ], [ -4.9138773, 37.074644 ], [ -4.9123938, 37.0742742 ], [ -4.9122545, 37.0741652 ], [ -4.9119302, 37.0739798 ], [ -4.9117461, 37.0739054 ], [ -4.9116646, 37.073878 ], [ -4.911616, 37.0738516 ], [ -4.9115489, 37.0738058 ], [ -4.9114989, 37.0737554 ], [ -4.9114718, 37.073712 ], [ -4.9114204, 37.0736364 ], [ -4.9113962, 37.0735757 ], [ -4.9113691, 37.0735138 ], [ -4.9113421, 37.0734532 ], [ -4.9113249, 37.0733937 ], [ -4.911305, 37.0733386 ], [ -4.9112764, 37.0732917 ], [ -4.9112422, 37.0732586 ], [ -4.9112202, 37.073242 ], [ -4.9111551, 37.0731933 ], [ -4.9109709, 37.0730318 ], [ -4.9105854, 37.0726575 ], [ -4.9101316, 37.0721595 ], [ -4.9097148, 37.0716672 ], [ -4.9094872, 37.0713581 ], [ -4.9093836, 37.0713128 ], [ -4.9092909, 37.0712722 ], [ -4.9091465, 37.0712001 ], [ -4.9090352, 37.0711177 ], [ -4.9089295, 37.0710284 ], [ -4.9088582, 37.0709471 ], [ -4.9088082, 37.0708635 ], [ -4.9087554, 37.0707719 ], [ -4.9086555, 37.0706826 ], [ -4.9085413, 37.0705911 ], [ -4.9084028, 37.0705063 ], [ -4.9082857, 37.0704537 ], [ -4.9081743, 37.0704319 ], [ -4.9080814, 37.0704285 ], [ -4.9079899, 37.0704251 ], [ -4.9078957, 37.0704182 ], [ -4.907807, 37.0704091 ], [ -4.9076285, 37.0703575 ], [ -4.9073875, 37.0702768 ], [ -4.907307, 37.0702499 ], [ -4.9070371, 37.0701744 ], [ -4.9069038, 37.0701402 ], [ -4.9068271, 37.0701206 ], [ -4.9066114, 37.0700852 ], [ -4.9063942, 37.070052 ], [ -4.9061642, 37.0700394 ], [ -4.905907, 37.0700509 ], [ -4.9055726, 37.0700933 ], [ -4.905281, 37.0701551 ], [ -4.905021, 37.0701769 ], [ -4.9046837, 37.0701804 ], [ -4.9042509, 37.0701632 ], [ -4.9038636, 37.070169 ], [ -4.9036596, 37.0701739 ], [ -4.9036293, 37.0701747 ], [ -4.9035266, 37.0701779 ], [ -4.9034792, 37.0701794 ], [ -4.9033677, 37.0701908 ], [ -4.903272, 37.0701943 ], [ -4.9031877, 37.070192 ], [ -4.9031034, 37.0701782 ], [ -4.9030248, 37.0701611 ], [ -4.9029477, 37.0701325 ], [ -4.9029034, 37.0700958 ], [ -4.9028207, 37.0700397 ], [ -4.9027521, 37.0700168 ], [ -4.9027178, 37.07001 ], [ -4.9026664, 37.0700179 ], [ -4.9026234, 37.0700317 ], [ -4.9024605, 37.0700626 ], [ -4.9023547, 37.0700603 ], [ -4.9022677, 37.0700421 ], [ -4.9021905, 37.0700134 ], [ -4.9021063, 37.0699653 ], [ -4.9019536, 37.0698474 ], [ -4.901675, 37.0696894 ], [ -4.9015051, 37.0696425 ], [ -4.9012951, 37.0695966 ], [ -4.9011999, 37.0695942 ], [ -4.9011362, 37.0695926 ], [ -4.9011164, 37.0695921 ], [ -4.900885, 37.0695933 ], [ -4.9005406, 37.0695933 ], [ -4.9001562, 37.0695613 ], [ -4.8997949, 37.0694971 ], [ -4.8995164, 37.0693803 ], [ -4.8993679, 37.0692899 ], [ -4.8993222, 37.0692464 ], [ -4.8992594, 37.0691972 ], [ -4.899188, 37.0691651 ], [ -4.8991123, 37.0691548 ], [ -4.8990365, 37.0691525 ], [ -4.8990051, 37.069148 ], [ -4.8989566, 37.0691399 ], [ -4.8989294, 37.0691239 ], [ -4.8988977, 37.0690964 ], [ -4.8988937, 37.069093 ], [ -4.8988766, 37.0690735 ], [ -4.8988166, 37.0690495 ], [ -4.8987552, 37.0690427 ], [ -4.8986795, 37.069046 ], [ -4.898618, 37.0690541 ], [ -4.8985465, 37.0690563 ], [ -4.8985079, 37.0690553 ], [ -4.8984223, 37.0690392 ], [ -4.8982165, 37.0689613 ], [ -4.8979353, 37.0687839 ], [ -4.8977398, 37.0685755 ], [ -4.8976998, 37.0685228 ], [ -4.8976384, 37.068477 ], [ -4.8975328, 37.0684003 ], [ -4.8973129, 37.0682859 ], [ -4.8969559, 37.0680923 ], [ -4.8967932, 37.0680145 ], [ -4.8966774, 37.0679709 ], [ -4.8964775, 37.0679218 ], [ -4.8961189, 37.0678886 ], [ -4.8954773, 37.0678416 ], [ -4.8947753, 37.0678249 ], [ -4.8947101, 37.0678233 ], [ -4.8945719, 37.0678298 ], [ -4.8943957, 37.0678382 ], [ -4.8942557, 37.0678542 ], [ -4.8941528, 37.0678565 ], [ -4.8940654, 37.067847 ], [ -4.894037, 37.0678439 ], [ -4.8939213, 37.0678256 ], [ -4.89385, 37.0678027 ], [ -4.8937918, 37.0677742 ], [ -4.8937658, 37.0677614 ], [ -4.8935315, 37.0676412 ], [ -4.8933331, 37.0675267 ], [ -4.8930789, 37.0674087 ], [ -4.8927603, 37.0673103 ], [ -4.8923062, 37.0670905 ], [ -4.8919864, 37.0669255 ], [ -4.89171, 37.0668065 ], [ -4.8915665, 37.0667446 ], [ -4.891171, 37.066558 ], [ -4.8911504, 37.0665471 ], [ -4.8910068, 37.0664709 ], [ -4.8906826, 37.0663564 ], [ -4.8905341, 37.066297 ], [ -4.890454, 37.0662522 ], [ -4.8903427, 37.0662076 ], [ -4.8900941, 37.0660632 ], [ -4.8900785, 37.0660542 ], [ -4.8897479, 37.0659216 ], [ -4.8896244, 37.0658721 ], [ -4.8895259, 37.0658263 ], [ -4.8894773, 37.0657988 ], [ -4.8894202, 37.0657576 ], [ -4.8893518, 37.0657095 ], [ -4.8891447, 37.0655342 ], [ -4.8891238, 37.0655193 ], [ -4.8890292, 37.0654514 ], [ -4.8889965, 37.065428 ], [ -4.8889834, 37.0654186 ], [ -4.8889438, 37.0653875 ], [ -4.8889207, 37.0653694 ], [ -4.8888651, 37.0652995 ], [ -4.8888408, 37.0652469 ], [ -4.8888195, 37.0651483 ], [ -4.8888325, 37.0650294 ], [ -4.888854, 37.0648671 ], [ -4.8888642, 37.06479 ], [ -4.8888715, 37.0646926 ], [ -4.8888658, 37.0646137 ], [ -4.8888589, 37.0645198 ], [ -4.8888203, 37.0644213 ], [ -4.8887335, 37.0642244 ], [ -4.8886651, 37.0640572 ], [ -4.8885725, 37.0638396 ], [ -4.8885222, 37.0637588 ], [ -4.8884876, 37.0637032 ], [ -4.8884028, 37.0635671 ], [ -4.888372, 37.0635215 ], [ -4.8881617, 37.0632109 ], [ -4.8879949, 37.0630415 ], [ -4.8878664, 37.0629327 ], [ -4.8877221, 37.0628491 ], [ -4.8874194, 37.0627278 ], [ -4.887282, 37.0627083 ], [ -4.8872166, 37.0626991 ], [ -4.8871138, 37.0626865 ], [ -4.8869995, 37.0626464 ], [ -4.8869381, 37.0626235 ], [ -4.8868896, 37.062588 ], [ -4.8868382, 37.0625582 ], [ -4.8867954, 37.0625273 ], [ -4.8867354, 37.0624861 ], [ -4.8866825, 37.0624541 ], [ -4.8866083, 37.0624196 ], [ -4.8864984, 37.0623921 ], [ -4.8863284, 37.0623509 ], [ -4.8862055, 37.06232 ], [ -4.8859599, 37.062194 ], [ -4.8855544, 37.0619833 ], [ -4.885399, 37.0619146 ], [ -4.8851475, 37.0618035 ], [ -4.8850309, 37.061757 ], [ -4.8848805, 37.061697 ], [ -4.884656, 37.0615946 ], [ -4.8846397, 37.0615877 ], [ -4.8845049, 37.0615313 ], [ -4.8842837, 37.0614312 ], [ -4.8841025, 37.0613255 ], [ -4.8840286, 37.0612667 ], [ -4.8839913, 37.061237 ], [ -4.8839001, 37.0611808 ], [ -4.8838003, 37.0611061 ], [ -4.8837301, 37.0610591 ], [ -4.8836648, 37.0610154 ], [ -4.8833551, 37.0608453 ], [ -4.8830683, 37.0607026 ], [ -4.882806, 37.0606008 ], [ -4.8827187, 37.0605669 ], [ -4.8823119, 37.0604069 ], [ -4.8821919, 37.0603644 ], [ -4.8819108, 37.0602651 ], [ -4.8817255, 37.0602092 ], [ -4.8814596, 37.0601291 ], [ -4.8812378, 37.0600627 ], [ -4.8811674, 37.0600417 ], [ -4.8810513, 37.0600069 ], [ -4.8808746, 37.0599548 ], [ -4.8805501, 37.0598593 ], [ -4.8800702, 37.0597151 ], [ -4.8797438, 37.0596076 ], [ -4.8797134, 37.0595977 ], [ -4.8793067, 37.0594296 ], [ -4.8788913, 37.0592627 ], [ -4.8784546, 37.0590843 ], [ -4.8783822, 37.0590548 ], [ -4.8781206, 37.0589485 ], [ -4.8777266, 37.0588056 ], [ -4.8774525, 37.058725 ], [ -4.8769841, 37.0586004 ], [ -4.8765301, 37.0584837 ], [ -4.8760319, 37.0583155 ], [ -4.8755322, 37.0581564 ], [ -4.8753395, 37.058086 ], [ -4.8752138, 37.0580401 ], [ -4.8751497, 37.0580123 ], [ -4.87486, 37.057887 ], [ -4.8745075, 37.0577386 ], [ -4.8744496, 37.057712 ], [ -4.8741076, 37.0575549 ], [ -4.8740766, 37.0575407 ], [ -4.8737425, 37.0573798 ], [ -4.8736513, 37.057336 ], [ -4.8732405, 37.0571083 ], [ -4.873058, 37.0570173 ], [ -4.8728482, 37.0569128 ], [ -4.8728058, 37.0568875 ], [ -4.8725059, 37.0567082 ], [ -4.8721194, 37.0564669 ], [ -4.8717201, 37.0562163 ], [ -4.8713864, 37.0559786 ], [ -4.8712939, 37.0559194 ], [ -4.8712397, 37.0558848 ], [ -4.8710827, 37.0557843 ], [ -4.8709119, 37.0556618 ], [ -4.8708845, 37.0556423 ], [ -4.8706535, 37.0555345 ], [ -4.8704837, 37.0554552 ], [ -4.870392, 37.0554041 ], [ -4.8702731, 37.0553377 ], [ -4.8701867, 37.0552895 ], [ -4.8701437, 37.0552655 ], [ -4.8701222, 37.055251 ], [ -4.8699744, 37.0551522 ], [ -4.8698211, 37.0550496 ], [ -4.869465, 37.0547852 ], [ -4.869193, 37.0545423 ], [ -4.8689289, 37.0543372 ], [ -4.8688669, 37.0542815 ], [ -4.868826, 37.0542447 ], [ -4.8688121, 37.0542184 ], [ -4.8687339, 37.0541354 ], [ -4.8686062, 37.0540229 ], [ -4.868511, 37.0537812 ], [ -4.8683949, 37.0535504 ], [ -4.8682815, 37.0533021 ], [ -4.8681954, 37.0530421 ], [ -4.8680939, 37.0527862 ], [ -4.8679745, 37.0525305 ], [ -4.8679049, 37.0523599 ], [ -4.8678052, 37.0521755 ], [ -4.8676602, 37.0520871 ], [ -4.8675135, 37.0520299 ], [ -4.8672572, 37.0519902 ], [ -4.8671151, 37.0520123 ], [ -4.8669831, 37.0519499 ], [ -4.8666944, 37.0517685 ], [ -4.8661931, 37.0514663 ], [ -4.8659105, 37.0512976 ], [ -4.8655606, 37.0511028 ], [ -4.8652775, 37.0509594 ], [ -4.8650115, 37.0507919 ], [ -4.8648117, 37.0506519 ], [ -4.8643821, 37.0503582 ], [ -4.8640905, 37.0506013 ], [ -4.863822, 37.0508154 ], [ -4.8635607, 37.0505905 ], [ -4.8633303, 37.0504177 ], [ -4.8629736, 37.0501848 ], [ -4.8627179, 37.050072 ], [ -4.8623726, 37.0499415 ], [ -4.8622134, 37.049882 ], [ -4.8621681, 37.0498541 ], [ -4.8621804, 37.0497938 ] ] ] } }
]
}
