{
"type": "FeatureCollection",
"name": "29073",
"features": [
{ "type": "Feature", "properties": { "CCAA": "01 - Andalucía", "PROVINCIA": "29 - Málaga", "MUNICIPIO": "29073 - Monda", "COD_MUNICIPIO": "29073", "DISTRITO": "01", "SECCION": "2907301001", "V1_H": 79.47, "V1_M": 85.31, "V2_H": 79.34656828, "V2_M": 85.44731594, "V3_H": 79.76976452, "V3_M": 85.31663719 }, "geometry": { "type": "Polygon", "coordinates": [ [ [ -4.8687021, 36.6585513 ], [ -4.8709096, 36.660085 ], [ -4.871605, 36.6606239 ], [ -4.8725521, 36.6604648 ], [ -4.8730403, 36.6602949 ], [ -4.8733453, 36.6599566 ], [ -4.8735375, 36.659575 ], [ -4.874435, 36.6596781 ], [ -4.8751841, 36.6596573 ], [ -4.8768644, 36.6592883 ], [ -4.8774745, 36.6590714 ], [ -4.8847443, 36.658533 ], [ -4.8898985, 36.6579466 ], [ -4.8904414, 36.657271 ], [ -4.8917599, 36.6553752 ], [ -4.8926513, 36.6543155 ], [ -4.8930706, 36.6536238 ], [ -4.8934602, 36.6535455 ], [ -4.8963131, 36.6540139 ], [ -4.8982076, 36.654173 ], [ -4.9009072, 36.6534089 ], [ -4.9063802, 36.651708 ], [ -4.9123562, 36.6499988 ], [ -4.9123496, 36.6492779 ], [ -4.9127575, 36.649037 ], [ -4.9132455, 36.6488669 ], [ -4.9153735, 36.6462638 ], [ -4.915982, 36.6450913 ], [ -4.9165745, 36.6441714 ], [ -4.9168399, 36.6435993 ], [ -4.9169535, 36.6432189 ], [ -4.9166593, 36.6417274 ], [ -4.9167046, 36.639942 ], [ -4.9166011, 36.6389251 ], [ -4.916439, 36.6364399 ], [ -4.916323, 36.6359042 ], [ -4.9162874, 36.6357393 ], [ -4.9157576, 36.6346663 ], [ -4.9157575, 36.6346662 ], [ -4.9149775, 36.6311635 ], [ -4.9144044, 36.6293709 ], [ -4.9141776, 36.6286615 ], [ -4.9139353, 36.6274576 ], [ -4.9134076, 36.6242032 ], [ -4.9131968, 36.623819 ], [ -4.9129819, 36.6236552 ], [ -4.9124903, 36.6232805 ], [ -4.9093011, 36.6213757 ], [ -4.9088894, 36.6210038 ], [ -4.9087542, 36.6205102 ], [ -4.9087542, 36.6205101 ], [ -4.9087461, 36.6197261 ], [ -4.9087461, 36.6197261 ], [ -4.9087534, 36.6196605 ], [ -4.9088469, 36.6188231 ], [ -4.9086176, 36.6181418 ], [ -4.9084084, 36.6178206 ], [ -4.9068443, 36.6169623 ], [ -4.9054571, 36.6160291 ], [ -4.9049541, 36.6155565 ], [ -4.904759, 36.6153732 ], [ -4.9033118, 36.61381 ], [ -4.9024891, 36.613093 ], [ -4.90173, 36.6126815 ], [ -4.8998011, 36.6119911 ], [ -4.8984959, 36.6116514 ], [ -4.8975931, 36.6113142 ], [ -4.8959492, 36.6103849 ], [ -4.8953635, 36.6102068 ], [ -4.8952171, 36.6101622 ], [ -4.8943307, 36.6100321 ], [ -4.8943306, 36.6100321 ], [ -4.8935299, 36.6097474 ], [ -4.8930092, 36.6094853 ], [ -4.8895081, 36.6066655 ], [ -4.887743, 36.6053414 ], [ -4.8843234, 36.6026374 ], [ -4.8838413, 36.6030416 ], [ -4.8830618, 36.6040904 ], [ -4.8825475, 36.6045492 ], [ -4.8821812, 36.6046542 ], [ -4.8812683, 36.6048128 ], [ -4.8792339, 36.6052866 ], [ -4.8778431, 36.6055609 ], [ -4.8774561, 36.6057382 ], [ -4.8767963, 36.6061903 ], [ -4.876166, 36.6064796 ], [ -4.8737311, 36.606572 ], [ -4.8697938, 36.6064896 ], [ -4.866123, 36.6063308 ], [ -4.8655942, 36.6061949 ], [ -4.8653985, 36.6061138 ], [ -4.865007, 36.6059517 ], [ -4.8634515, 36.6051918 ], [ -4.861896, 36.604432 ], [ -4.859937, 36.6033899 ], [ -4.8599369, 36.6033899 ], [ -4.8549637, 36.6015835 ], [ -4.854384, 36.601187 ], [ -4.8535375, 36.6008486 ], [ -4.853078, 36.6006673 ], [ -4.8518672, 36.6001895 ], [ -4.8502402, 36.5989979 ], [ -4.8499, 36.5987959 ], [ -4.8440121, 36.5984635 ], [ -4.8402263, 36.5981524 ], [ -4.8402262, 36.5981524 ], [ -4.8377998, 36.5981268 ], [ -4.8350872, 36.5968706 ], [ -4.8333734, 36.5971944 ], [ -4.833, 36.5955867 ], [ -4.8325421, 36.5946563 ], [ -4.8325137, 36.5939266 ], [ -4.8311944, 36.5915492 ], [ -4.830841, 36.5912573 ], [ -4.8287537, 36.590433 ], [ -4.8284352, 36.5902035 ], [ -4.8280336, 36.589759 ], [ -4.8277434, 36.5893037 ], [ -4.8274805, 36.5890554 ], [ -4.8270499, 36.5888096 ], [ -4.8267066, 36.5884723 ], [ -4.8263939, 36.5880084 ], [ -4.8262117, 36.5873892 ], [ -4.8262019, 36.5869747 ], [ -4.8264024, 36.5864669 ], [ -4.8265042, 36.5860417 ], [ -4.8264608, 36.58515 ], [ -4.826303, 36.5846206 ], [ -4.8259187, 36.5844372 ], [ -4.8255615, 36.5844607 ], [ -4.8252647, 36.5846726 ], [ -4.82496, 36.5850198 ], [ -4.8244403, 36.5852621 ], [ -4.8218694, 36.5862028 ], [ -4.8181282, 36.5877652 ], [ -4.8175873, 36.5880529 ], [ -4.8172696, 36.5883281 ], [ -4.8171212, 36.5885253 ], [ -4.8169336, 36.5887749 ], [ -4.8167946, 36.5890739 ], [ -4.816444, 36.5898279 ], [ -4.8161814, 36.5900663 ], [ -4.8158801, 36.5900889 ], [ -4.8147914, 36.5898982 ], [ -4.8141982, 36.5898621 ], [ -4.8137322, 36.5900134 ], [ -4.8133256, 36.590308 ], [ -4.8127135, 36.5909033 ], [ -4.8124956, 36.5912181 ], [ -4.8124108, 36.5913405 ], [ -4.8120056, 36.5916982 ], [ -4.8114839, 36.5918594 ], [ -4.8100915, 36.5920608 ], [ -4.8096046, 36.5922755 ], [ -4.8092934, 36.5928301 ], [ -4.8098533, 36.5938311 ], [ -4.8101025, 36.5944493 ], [ -4.8101843, 36.595079 ], [ -4.8100864, 36.5956754 ], [ -4.8094974, 36.596784 ], [ -4.809408, 36.5982185 ], [ -4.8092954, 36.5986619 ], [ -4.8091357, 36.5990069 ], [ -4.8078699, 36.6003331 ], [ -4.8076238, 36.6008055 ], [ -4.8075488, 36.602384 ], [ -4.8071759, 36.6036516 ], [ -4.8072343, 36.6042366 ], [ -4.80742, 36.6045313 ], [ -4.8079684, 36.6050367 ], [ -4.80776, 36.6066443 ], [ -4.8075689, 36.6070799 ], [ -4.8072279, 36.6073194 ], [ -4.8067682, 36.607741 ], [ -4.806797, 36.6084977 ], [ -4.8066253, 36.6088068 ], [ -4.8058955, 36.6091513 ], [ -4.8051639, 36.6132637 ], [ -4.8043068, 36.6134299 ], [ -4.802595, 36.6153036 ], [ -4.802008, 36.6160245 ], [ -4.8018822, 36.616387 ], [ -4.8019954, 36.6169261 ], [ -4.8019579, 36.6177198 ], [ -4.8017727, 36.6184077 ], [ -4.8011335, 36.6197694 ], [ -4.8012292, 36.6200384 ], [ -4.8007925, 36.6209734 ], [ -4.8007454, 36.6213527 ], [ -4.8009322, 36.6216924 ], [ -4.8009922, 36.6223495 ], [ -4.8011634, 36.6225001 ], [ -4.801534, 36.6225666 ], [ -4.8017082, 36.6228434 ], [ -4.8007582, 36.6252734 ], [ -4.7989566, 36.6309973 ], [ -4.8012695, 36.6382779 ], [ -4.8016839, 36.6395822 ], [ -4.8026142, 36.6425517 ], [ -4.8063749, 36.6455323 ], [ -4.8068919, 36.6470748 ], [ -4.8081334, 36.6494626 ], [ -4.8096894, 36.6518997 ], [ -4.8107991, 36.6548664 ], [ -4.8129252, 36.6563213 ], [ -4.8130105, 36.6566175 ], [ -4.8128948, 36.6578902 ], [ -4.8162097, 36.6589844 ], [ -4.81845, 36.6591035 ], [ -4.818919, 36.6590693 ], [ -4.8197232, 36.6590119 ], [ -4.8202176, 36.6591035 ], [ -4.8212571, 36.6595383 ], [ -4.8226496, 36.6597604 ], [ -4.8231792, 36.6599236 ], [ -4.824063, 36.6603968 ], [ -4.8245796, 36.660479 ], [ -4.8251609, 36.6604611 ], [ -4.8261503, 36.6601936 ], [ -4.8264816, 36.6600082 ], [ -4.8266451, 36.6598254 ], [ -4.8265316, 36.6595848 ], [ -4.8263624, 36.6592258 ], [ -4.8255727, 36.6570476 ], [ -4.827822, 36.6551834 ], [ -4.8292428, 36.6547109 ], [ -4.8298638, 36.6540073 ], [ -4.8312846, 36.6530661 ], [ -4.8311446, 36.6520993 ], [ -4.8311374, 36.6520498 ], [ -4.8320355, 36.6507651 ], [ -4.8330091, 36.6503084 ], [ -4.837058, 36.6483983 ], [ -4.8374575, 36.6482659 ], [ -4.8380497, 36.6482388 ], [ -4.8412388, 36.6487574 ], [ -4.8425106, 36.6486116 ], [ -4.84288, 36.6486239 ], [ -4.8465174, 36.6501089 ], [ -4.846787, 36.6501588 ], [ -4.8492606, 36.6502196 ], [ -4.8496873, 36.6502851 ], [ -4.850478, 36.6506063 ], [ -4.8513072, 36.6506655 ], [ -4.8523508, 36.6508026 ], [ -4.8543746, 36.6512308 ], [ -4.8551055, 36.6513906 ], [ -4.8561472, 36.6514466 ], [ -4.8571974, 36.6513941 ], [ -4.8580482, 36.6514169 ], [ -4.8584314, 36.6515371 ], [ -4.8587343, 36.6520372 ], [ -4.8589105, 36.6528546 ], [ -4.8592304, 36.6535978 ], [ -4.8594634, 36.6539818 ], [ -4.8599735, 36.6542622 ], [ -4.8603802, 36.6544271 ], [ -4.8617474, 36.6549916 ], [ -4.8657861, 36.6568574 ], [ -4.8673081, 36.657807 ], [ -4.8687021, 36.6585513 ] ], [ [ -4.8273286, 36.6316408 ], [ -4.8273734, 36.6315352 ], [ -4.8275536, 36.6313965 ], [ -4.8277022, 36.6312988 ], [ -4.8278332, 36.6310798 ], [ -4.8279967, 36.630865 ], [ -4.8281306, 36.6307676 ], [ -4.8282904, 36.6306435 ], [ -4.8280275, 36.6305054 ], [ -4.8279975, 36.6304057 ], [ -4.8279524, 36.6302506 ], [ -4.8280988, 36.6300146 ], [ -4.8281795, 36.6299243 ], [ -4.8280089, 36.6298775 ], [ -4.8278697, 36.6298701 ], [ -4.8277901, 36.6298078 ], [ -4.8278711, 36.6297287 ], [ -4.8280463, 36.6295479 ], [ -4.8281385, 36.6293572 ], [ -4.8282572, 36.6291217 ], [ -4.8283767, 36.6289195 ], [ -4.8284439, 36.6288406 ], [ -4.8286057, 36.6286711 ], [ -4.8287403, 36.6285244 ], [ -4.8291229, 36.6283515 ], [ -4.8298261, 36.6283073 ], [ -4.8302124, 36.6282903 ], [ -4.8305216, 36.6282189 ], [ -4.8307754, 36.6281592 ], [ -4.8314641, 36.6280818 ], [ -4.8316717, 36.6281009 ], [ -4.8317805, 36.6280834 ], [ -4.8318955, 36.6280673 ], [ -4.8320325, 36.627977 ], [ -4.8322107, 36.6278256 ], [ -4.8324086, 36.627689 ], [ -4.8326032, 36.6276574 ], [ -4.8327911, 36.6275973 ], [ -4.83304, 36.6275679 ], [ -4.8331892, 36.6274543 ], [ -4.8332699, 36.627364 ], [ -4.8333753, 36.6271509 ], [ -4.8333727, 36.6270396 ], [ -4.8335508, 36.6269812 ], [ -4.8337428, 36.6269226 ], [ -4.8338787, 36.6268315 ], [ -4.8340147, 36.6267404 ], [ -4.8343689, 36.6265345 ], [ -4.8345188, 36.6264543 ], [ -4.8347246, 36.6263955 ], [ -4.8350095, 36.6261797 ], [ -4.8351879, 36.6261324 ], [ -4.8354525, 36.6262285 ], [ -4.8355911, 36.6262486 ], [ -4.835715, 36.6262355 ], [ -4.8360456, 36.6261971 ], [ -4.8362099, 36.6261389 ], [ -4.8364841, 36.6260567 ], [ -4.8367727, 36.6259967 ], [ -4.8369821, 36.6260936 ], [ -4.8371095, 36.6262252 ], [ -4.8371961, 36.6263797 ], [ -4.8372969, 36.6265562 ], [ -4.8374506, 36.6266318 ], [ -4.8376178, 36.626696 ], [ -4.8378105, 36.6267345 ], [ -4.8379145, 36.626752 ], [ -4.8380243, 36.626767 ], [ -4.8378299, 36.6269042 ], [ -4.8376794, 36.6269622 ], [ -4.8375291, 36.6270313 ], [ -4.8373158, 36.6270832 ], [ -4.8370207, 36.6271393 ], [ -4.8368437, 36.6272422 ], [ -4.8366403, 36.6274011 ], [ -4.8364502, 36.6275376 ], [ -4.8364227, 36.6276026 ], [ -4.8363708, 36.6276582 ], [ -4.8361254, 36.6279172 ], [ -4.8360066, 36.628024 ], [ -4.8358995, 36.628121 ], [ -4.8357865, 36.6282229 ], [ -4.8356259, 36.6283136 ], [ -4.8355596, 36.6283862 ], [ -4.8354868, 36.6284374 ], [ -4.8353534, 36.6285515 ], [ -4.8352224, 36.6286418 ], [ -4.835005, 36.6288312 ], [ -4.8348247, 36.6289651 ], [ -4.8345019, 36.6290798 ], [ -4.8341993, 36.6291703 ], [ -4.8340429, 36.629187 ], [ -4.8339247, 36.6291936 ], [ -4.833813, 36.6293035 ], [ -4.8336475, 36.6293601 ], [ -4.8334159, 36.6293255 ], [ -4.8331974, 36.6293455 ], [ -4.8330586, 36.6292709 ], [ -4.8329383, 36.6293133 ], [ -4.832782, 36.6292132 ], [ -4.8326576, 36.6292918 ], [ -4.8325815, 36.629324 ], [ -4.8325376, 36.6292599 ], [ -4.8324755, 36.6292207 ], [ -4.8322745, 36.6292309 ], [ -4.8320084, 36.6292398 ], [ -4.8319914, 36.6293975 ], [ -4.8319485, 36.6294697 ], [ -4.8317732, 36.629427 ], [ -4.8315372, 36.6294593 ], [ -4.8314109, 36.629509 ], [ -4.8312839, 36.6295181 ], [ -4.8312088, 36.629586 ], [ -4.8311207, 36.6296537 ], [ -4.8309604, 36.6297563 ], [ -4.8308725, 36.6297923 ], [ -4.8305421, 36.6297942 ], [ -4.8303859, 36.6298228 ], [ -4.8301746, 36.6298952 ], [ -4.8300033, 36.6299631 ], [ -4.8298124, 36.6300662 ], [ -4.8296306, 36.6301659 ], [ -4.8295209, 36.6302893 ], [ -4.8294256, 36.6303885 ], [ -4.8292447, 36.6305869 ], [ -4.8291626, 36.6306549 ], [ -4.8290755, 36.6307254 ], [ -4.8289124, 36.6308328 ], [ -4.8288103, 36.6309052 ], [ -4.8285915, 36.6309976 ], [ -4.8284585, 36.6310647 ], [ -4.8282778, 36.6311819 ], [ -4.8281989, 36.6313501 ], [ -4.8281959, 36.6314196 ], [ -4.8280655, 36.6315089 ], [ -4.827917, 36.6314983 ], [ -4.8276258, 36.6315719 ], [ -4.8273286, 36.6316408 ] ] ] } },
{ "type": "Feature", "properties": { "CCAA": "01 - Andalucía", "PROVINCIA": "29 - Málaga", "MUNICIPIO": "29073 - Monda", "COD_MUNICIPIO": "29073", "DISTRITO": "01", "SECCION": "2907301002", "V1_H": 79.16, "V1_M": 85.0, "V2_H": 79.432337, "V2_M": 85.16926182, "V3_H": 78.95181978, "V3_M": 84.90024095 }, "geometry": { "type": "Polygon", "coordinates": [ [ [ -4.8273734, 36.6315352 ], [ -4.8273286, 36.6316408 ], [ -4.8276258, 36.6315719 ], [ -4.827917, 36.6314983 ], [ -4.8280655, 36.6315089 ], [ -4.8281959, 36.6314196 ], [ -4.8281989, 36.6313501 ], [ -4.8282778, 36.6311819 ], [ -4.8284585, 36.6310647 ], [ -4.8285915, 36.6309976 ], [ -4.8288103, 36.6309052 ], [ -4.8289124, 36.6308328 ], [ -4.8290755, 36.6307254 ], [ -4.8291626, 36.6306549 ], [ -4.8292447, 36.6305869 ], [ -4.8294256, 36.6303885 ], [ -4.8295209, 36.6302893 ], [ -4.8296306, 36.6301659 ], [ -4.8298124, 36.6300662 ], [ -4.8300033, 36.6299631 ], [ -4.8301746, 36.6298952 ], [ -4.8303859, 36.6298228 ], [ -4.8305421, 36.6297942 ], [ -4.8308725, 36.6297923 ], [ -4.8309604, 36.6297563 ], [ -4.8311207, 36.6296537 ], [ -4.8312088, 36.629586 ], [ -4.8312839, 36.6295181 ], [ -4.8314109, 36.629509 ], [ -4.8315372, 36.6294593 ], [ -4.8317732, 36.629427 ], [ -4.8319485, 36.6294697 ], [ -4.8319914, 36.6293975 ], [ -4.8320084, 36.6292398 ], [ -4.8322745, 36.6292309 ], [ -4.8324755, 36.6292207 ], [ -4.8325376, 36.6292599 ], [ -4.8325815, 36.629324 ], [ -4.8326576, 36.6292918 ], [ -4.832782, 36.6292132 ], [ -4.8329383, 36.6293133 ], [ -4.8330586, 36.6292709 ], [ -4.8331974, 36.6293455 ], [ -4.8334159, 36.6293255 ], [ -4.8336475, 36.6293601 ], [ -4.833813, 36.6293035 ], [ -4.8339247, 36.6291936 ], [ -4.8340429, 36.629187 ], [ -4.8341993, 36.6291703 ], [ -4.8345019, 36.6290798 ], [ -4.8348247, 36.6289651 ], [ -4.835005, 36.6288312 ], [ -4.8352224, 36.6286418 ], [ -4.8353534, 36.6285515 ], [ -4.8354868, 36.6284374 ], [ -4.8355596, 36.6283862 ], [ -4.8356259, 36.6283136 ], [ -4.8357865, 36.6282229 ], [ -4.8358995, 36.628121 ], [ -4.8360066, 36.628024 ], [ -4.8361254, 36.6279172 ], [ -4.8363708, 36.6276582 ], [ -4.8364227, 36.6276026 ], [ -4.8364502, 36.6275376 ], [ -4.8366403, 36.6274011 ], [ -4.8368437, 36.6272422 ], [ -4.8370207, 36.6271393 ], [ -4.8373158, 36.6270832 ], [ -4.8375291, 36.6270313 ], [ -4.8376794, 36.6269622 ], [ -4.8378299, 36.6269042 ], [ -4.8380243, 36.626767 ], [ -4.8379145, 36.626752 ], [ -4.8378105, 36.6267345 ], [ -4.8376178, 36.626696 ], [ -4.8374506, 36.6266318 ], [ -4.8372969, 36.6265562 ], [ -4.8371961, 36.6263797 ], [ -4.8371095, 36.6262252 ], [ -4.8369821, 36.6260936 ], [ -4.8367727, 36.6259967 ], [ -4.8364841, 36.6260567 ], [ -4.8362099, 36.6261389 ], [ -4.8360456, 36.6261971 ], [ -4.835715, 36.6262355 ], [ -4.8355911, 36.6262486 ], [ -4.8354525, 36.6262285 ], [ -4.8351879, 36.6261324 ], [ -4.8350095, 36.6261797 ], [ -4.8347246, 36.6263955 ], [ -4.8345188, 36.6264543 ], [ -4.8343689, 36.6265345 ], [ -4.8340147, 36.6267404 ], [ -4.8338787, 36.6268315 ], [ -4.8337428, 36.6269226 ], [ -4.8335508, 36.6269812 ], [ -4.8333727, 36.6270396 ], [ -4.8333753, 36.6271509 ], [ -4.8332699, 36.627364 ], [ -4.8331892, 36.6274543 ], [ -4.83304, 36.6275679 ], [ -4.8327911, 36.6275973 ], [ -4.8326032, 36.6276574 ], [ -4.8324086, 36.627689 ], [ -4.8322107, 36.6278256 ], [ -4.8320325, 36.627977 ], [ -4.8318955, 36.6280673 ], [ -4.8317805, 36.6280834 ], [ -4.8316717, 36.6281009 ], [ -4.8314641, 36.6280818 ], [ -4.8307754, 36.6281592 ], [ -4.8305216, 36.6282189 ], [ -4.8302124, 36.6282903 ], [ -4.8298261, 36.6283073 ], [ -4.8291229, 36.6283515 ], [ -4.8287403, 36.6285244 ], [ -4.8286057, 36.6286711 ], [ -4.8284439, 36.6288406 ], [ -4.8283767, 36.6289195 ], [ -4.8282572, 36.6291217 ], [ -4.8281385, 36.6293572 ], [ -4.8280463, 36.6295479 ], [ -4.8278711, 36.6297287 ], [ -4.8277901, 36.6298078 ], [ -4.8278697, 36.6298701 ], [ -4.8280089, 36.6298775 ], [ -4.8281795, 36.6299243 ], [ -4.8280988, 36.6300146 ], [ -4.8279524, 36.6302506 ], [ -4.8279975, 36.6304057 ], [ -4.8280275, 36.6305054 ], [ -4.8282904, 36.6306435 ], [ -4.8281306, 36.6307676 ], [ -4.8279967, 36.630865 ], [ -4.8278332, 36.6310798 ], [ -4.8277022, 36.6312988 ], [ -4.8275536, 36.6313965 ], [ -4.8273734, 36.6315352 ] ] ] } }
]
}
