{
"type": "FeatureCollection",
"name": "29089",
"features": [
{ "type": "Feature", "properties": { "CCAA": "01 - Andalucía", "PROVINCIA": "29 - Málaga", "MUNICIPIO": "29089 - Teba", "COD_MUNICIPIO": "29089", "DISTRITO": "01", "SECCION": "2908901001", "V1_H": 79.27, "V1_M": 85.17, "V2_H": 79.19654882, "V2_M": 85.28496149, "V3_H": 79.61871206, "V3_M": 85.37047204 }, "geometry": { "type": "Polygon", "coordinates": [ [ [ -4.9175614, 36.98187 ], [ -4.917528, 36.981848 ], [ -4.9174264, 36.9818258 ], [ -4.9169457, 36.9817405 ], [ -4.9165233, 36.9817283 ], [ -4.9161961, 36.9816024 ], [ -4.9151368, 36.981319 ], [ -4.9151011, 36.9813172 ], [ -4.9150118, 36.9813139 ], [ -4.9149799, 36.9813454 ], [ -4.9149761, 36.9814289 ], [ -4.9149993, 36.9815263 ], [ -4.9150401, 36.9816115 ], [ -4.915041, 36.9816497 ], [ -4.9149752, 36.9816316 ], [ -4.9148289, 36.9814862 ], [ -4.9146825, 36.9813383 ], [ -4.9145951, 36.981292 ], [ -4.9144726, 36.9812677 ], [ -4.914425, 36.9812637 ], [ -4.9136524, 36.9807993 ], [ -4.913761, 36.9809811 ], [ -4.9139782, 36.981228 ], [ -4.9141751, 36.9813727 ], [ -4.9142297, 36.9814195 ], [ -4.9142373, 36.9814862 ], [ -4.9142328, 36.9815411 ], [ -4.9141716, 36.9815922 ], [ -4.9141008, 36.9816124 ], [ -4.9139023, 36.9817563 ], [ -4.9138188, 36.9819842 ], [ -4.9138713, 36.9821789 ], [ -4.9140225, 36.9824006 ], [ -4.9143525, 36.982524 ], [ -4.9145793, 36.9826754 ], [ -4.9147244, 36.9828901 ], [ -4.9149275, 36.9836427 ], [ -4.9152941, 36.9843928 ], [ -4.9155492, 36.9850826 ], [ -4.9157021, 36.9854879 ], [ -4.9157582, 36.9857088 ], [ -4.9147965, 36.9865995 ], [ -4.9148836, 36.9866315 ], [ -4.9149446, 36.9865756 ], [ -4.9149769, 36.9865608 ], [ -4.9150098, 36.9865674 ], [ -4.9150255, 36.986603 ], [ -4.915025, 36.9867007 ], [ -4.9150282, 36.9868271 ], [ -4.915069, 36.9869123 ], [ -4.9151119, 36.986964 ], [ -4.9151925, 36.9869794 ], [ -4.9152103, 36.9869791 ], [ -4.9150597, 36.9874919 ], [ -4.9151785, 36.9877237 ], [ -4.9157218, 36.9879319 ], [ -4.9164424, 36.9881015 ], [ -4.9170831, 36.987805 ], [ -4.9176672, 36.9873926 ], [ -4.9188832, 36.9871607 ], [ -4.9200617, 36.9867386 ], [ -4.9214025, 36.9863902 ], [ -4.9226292, 36.9859959 ], [ -4.9231299, 36.9855776 ], [ -4.9236767, 36.9849797 ], [ -4.9238964, 36.9847306 ], [ -4.9239711, 36.9846292 ], [ -4.9240162, 36.9845331 ], [ -4.924055, 36.9844204 ], [ -4.9240458, 36.9841725 ], [ -4.9240168, 36.9840824 ], [ -4.9239821, 36.9840042 ], [ -4.9239386, 36.983931 ], [ -4.9237842, 36.9838167 ], [ -4.9236244, 36.9837286 ], [ -4.9234037, 36.983582 ], [ -4.9231258, 36.9834076 ], [ -4.9228909, 36.983285 ], [ -4.9226829, 36.9831829 ], [ -4.9226804, 36.9831871 ], [ -4.9226241, 36.983188 ], [ -4.9226359, 36.9831781 ], [ -4.9223382, 36.9831748 ], [ -4.9220848, 36.9832647 ], [ -4.9217782, 36.9833651 ], [ -4.9214674, 36.9834178 ], [ -4.9211289, 36.9834304 ], [ -4.9210573, 36.983422 ], [ -4.9209801, 36.9834233 ], [ -4.9201983, 36.9836601 ], [ -4.9200162, 36.9835128 ], [ -4.9194987, 36.9832636 ], [ -4.9192254, 36.9831536 ], [ -4.9187549, 36.9830014 ], [ -4.9186899, 36.9830168 ], [ -4.918633, 36.9829986 ], [ -4.9184829, 36.9829414 ], [ -4.9183538, 36.9828911 ], [ -4.9182851, 36.9828755 ], [ -4.9182199, 36.9828837 ], [ -4.9181694, 36.9828869 ], [ -4.9181036, 36.9828713 ], [ -4.9176288, 36.9826667 ], [ -4.9173877, 36.9825347 ], [ -4.9171554, 36.9823977 ], [ -4.917478, 36.9819847 ], [ -4.9175455, 36.9818894 ], [ -4.9175394, 36.9818884 ], [ -4.9175614, 36.98187 ] ] ] } },
{ "type": "Feature", "properties": { "CCAA": "01 - Andalucía", "PROVINCIA": "29 - Málaga", "MUNICIPIO": "29089 - Teba", "COD_MUNICIPIO": "29089", "DISTRITO": "01", "SECCION": "2908901002", "V1_H": 79.29, "V1_M": 85.18, "V2_H": 79.29248013, "V2_M": 85.31775581, "V3_H": 79.43295666, "V3_M": 85.21995842 }, "geometry": { "type": "Polygon", "coordinates": [ [ [ -4.9175614, 36.98187 ], [ -4.9175394, 36.9818884 ], [ -4.9175455, 36.9818894 ], [ -4.917478, 36.9819847 ], [ -4.9171554, 36.9823977 ], [ -4.9173877, 36.9825347 ], [ -4.9176288, 36.9826667 ], [ -4.9181036, 36.9828713 ], [ -4.9181694, 36.9828869 ], [ -4.9182199, 36.9828837 ], [ -4.9182851, 36.9828755 ], [ -4.9183538, 36.9828911 ], [ -4.9184829, 36.9829414 ], [ -4.918633, 36.9829986 ], [ -4.9186899, 36.9830168 ], [ -4.9187549, 36.9830014 ], [ -4.9192254, 36.9831536 ], [ -4.9194987, 36.9832636 ], [ -4.9200162, 36.9835128 ], [ -4.9201983, 36.9836601 ], [ -4.9209801, 36.9834233 ], [ -4.9210573, 36.983422 ], [ -4.9211289, 36.9834304 ], [ -4.9214674, 36.9834178 ], [ -4.9217782, 36.9833651 ], [ -4.9220848, 36.9832647 ], [ -4.9223382, 36.9831748 ], [ -4.9226359, 36.9831781 ], [ -4.9226241, 36.983188 ], [ -4.9226804, 36.9831871 ], [ -4.9226829, 36.9831829 ], [ -4.922726, 36.9831124 ], [ -4.9227112, 36.9829958 ], [ -4.9226736, 36.9829177 ], [ -4.9226335, 36.9828611 ], [ -4.9225881, 36.9828285 ], [ -4.9223951, 36.9828388 ], [ -4.9220655, 36.9828513 ], [ -4.922044, 36.982823 ], [ -4.9220372, 36.9827897 ], [ -4.9220693, 36.9827677 ], [ -4.9223089, 36.9825993 ], [ -4.9226002, 36.9823633 ], [ -4.9226293, 36.9823413 ], [ -4.9226788, 36.9823 ], [ -4.9226781, 36.982269 ], [ -4.9226624, 36.9822383 ], [ -4.9226234, 36.9822246 ], [ -4.9224955, 36.9822195 ], [ -4.9223262, 36.9822246 ], [ -4.92224, 36.982226 ], [ -4.9220862, 36.9822571 ], [ -4.9218155, 36.9821304 ], [ -4.9214571, 36.981943 ], [ -4.9213636, 36.9818897 ], [ -4.9210666, 36.9816656 ], [ -4.9213498, 36.9813414 ], [ -4.9206749, 36.9808611 ], [ -4.9205084, 36.9809783 ], [ -4.9201306, 36.9812038 ], [ -4.9196606, 36.981426 ], [ -4.9192324, 36.9816547 ], [ -4.9189857, 36.9817755 ], [ -4.9188443, 36.9818255 ], [ -4.9186022, 36.9818914 ], [ -4.9180086, 36.9819273 ], [ -4.9179875, 36.9819157 ], [ -4.9179662, 36.9818946 ], [ -4.9178737, 36.9818841 ], [ -4.9176469, 36.9818449 ], [ -4.91757, 36.9818628 ], [ -4.9175614, 36.98187 ] ] ] } },
{ "type": "Feature", "properties": { "CCAA": "01 - Andalucía", "PROVINCIA": "29 - Málaga", "MUNICIPIO": "29089 - Teba", "COD_MUNICIPIO": "29089", "DISTRITO": "01", "SECCION": "2908901003", "V1_H": 78.9, "V1_M": 84.87, "V2_H": 79.02373168, "V2_M": 85.07467156, "V3_H": 78.82484982, "V3_M": 84.79604014 }, "geometry": { "type": "Polygon", "coordinates": [ [ [ -4.9331414, 37.0372155 ], [ -4.935147, 37.0375636 ], [ -4.9370824, 37.0378993 ], [ -4.9374326, 37.0379657 ], [ -4.9488677, 37.0397793 ], [ -4.9510421, 37.0408342 ], [ -4.9671092, 37.0487075 ], [ -4.9692136, 37.049646 ], [ -4.9709031, 37.05106 ], [ -4.9759546, 37.0550678 ], [ -4.9773671, 37.0561979 ], [ -4.9864561, 37.0632112 ], [ -4.9882913, 37.0645775 ], [ -4.9884254, 37.063683 ], [ -4.9888376, 37.0553483 ], [ -4.9890511, 37.0510366 ], [ -4.9891316, 37.0455013 ], [ -4.9901244, 37.0383105 ], [ -4.9905344, 37.0367895 ], [ -4.990669, 37.0350568 ], [ -4.9906896, 37.0341191 ], [ -4.9913299, 37.031089 ], [ -4.9915308, 37.0280213 ], [ -4.9911788, 37.0265942 ], [ -4.9912256, 37.0258002 ], [ -4.9914687, 37.0247777 ], [ -4.991488, 37.0242276 ], [ -4.9907591, 37.0217072 ], [ -4.9907194, 37.0210499 ], [ -4.9907528, 37.0206078 ], [ -4.9922139, 37.0193124 ], [ -4.9935494, 37.0183707 ], [ -4.9948439, 37.0171592 ], [ -4.9952182, 37.0168555 ], [ -4.9955842, 37.0166691 ], [ -4.9964314, 37.0176914 ], [ -4.996775, 37.0179379 ], [ -4.9971388, 37.0180941 ], [ -4.9974772, 37.0181424 ], [ -4.9987126, 37.0181036 ], [ -5.0000993, 37.0178369 ], [ -5.0003436, 37.0177246 ], [ -5.0004964, 37.0175508 ], [ -5.0007509, 37.0169697 ], [ -5.0014707, 37.0152722 ], [ -5.0012516, 37.0150595 ], [ -5.0007715, 37.0147522 ], [ -4.9990847, 37.0138613 ], [ -4.9975724, 37.0127602 ], [ -4.9968187, 37.0123042 ], [ -4.9950001, 37.0115236 ], [ -4.994235, 37.0110588 ], [ -4.9942646, 37.0104725 ], [ -4.994416, 37.0102446 ], [ -4.9949371, 37.0099744 ], [ -4.9964051, 37.0093819 ], [ -4.9956017, 37.0065925 ], [ -4.9952555, 37.0062468 ], [ -4.99471, 37.0060126 ], [ -4.992388, 37.0057452 ], [ -4.9916878, 37.0056127 ], [ -4.9917569, 37.0039532 ], [ -4.9922621, 37.0039357 ], [ -4.9928555, 37.0038536 ], [ -4.9931335, 37.0037408 ], [ -4.9933673, 37.0036558 ], [ -4.9938884, 37.0033856 ], [ -4.9951032, 37.0025721 ], [ -4.9958927, 37.0018198 ], [ -4.9961198, 37.0014825 ], [ -4.996271, 37.0012456 ], [ -4.9965515, 37.0007993 ], [ -4.99694, 37.0001888 ], [ -4.9969936, 37.0000888 ], [ -4.9996389, 36.994258 ], [ -5.0029018, 36.985857 ], [ -5.0039489, 36.9829462 ], [ -5.0034623, 36.9810978 ], [ -5.003161, 36.9803187 ], [ -5.0017648, 36.978053 ], [ -5.0002317, 36.9761321 ], [ -4.999342, 36.974759 ], [ -4.9984822, 36.9736649 ], [ -4.9975466, 36.9726802 ], [ -4.9967453, 36.9721079 ], [ -4.9962147, 36.971576 ], [ -4.9953353, 36.971023 ], [ -4.9943695, 36.9705976 ], [ -4.9932707, 36.9698138 ], [ -4.9907397, 36.9683782 ], [ -4.9897034, 36.9678368 ], [ -4.9889325, 36.9675612 ], [ -4.9866852, 36.9670941 ], [ -4.9840923, 36.9662993 ], [ -4.9830344, 36.9657852 ], [ -4.9826123, 36.9655309 ], [ -4.9814529, 36.9645678 ], [ -4.9808791, 36.9640997 ], [ -4.9800124, 36.9631588 ], [ -4.979602, 36.9624896 ], [ -4.9795671, 36.9620125 ], [ -4.9796896, 36.9611002 ], [ -4.9799778, 36.9596533 ], [ -4.9797315, 36.9570797 ], [ -4.9794329, 36.9555254 ], [ -4.9792664, 36.9551676 ], [ -4.9791271, 36.9549897 ], [ -4.9780827, 36.9536912 ], [ -4.9774944, 36.9530881 ], [ -4.9755732, 36.9478385 ], [ -4.975143, 36.9463945 ], [ -4.9747343, 36.9453558 ], [ -4.974382, 36.9447578 ], [ -4.9739986, 36.9442595 ], [ -4.9730527, 36.9432837 ], [ -4.972418, 36.9421857 ], [ -4.9716447, 36.9400624 ], [ -4.9713897, 36.9397512 ], [ -4.9710016, 36.9395053 ], [ -4.9708606, 36.9392642 ], [ -4.9709173, 36.9388487 ], [ -4.9708942, 36.9383894 ], [ -4.9708777, 36.9381824 ], [ -4.9709062, 36.9379836 ], [ -4.9707884, 36.9377692 ], [ -4.9705264, 36.9376204 ], [ -4.9691696, 36.9372553 ], [ -4.9686027, 36.9370394 ], [ -4.9677465, 36.9369274 ], [ -4.9676001, 36.9369118 ], [ -4.9668096, 36.9367356 ], [ -4.965926, 36.9364258 ], [ -4.9651634, 36.9360238 ], [ -4.9648316, 36.9357859 ], [ -4.9642764, 36.9355878 ], [ -4.9637123, 36.93548 ], [ -4.963611, 36.9354726 ], [ -4.9627455, 36.9354328 ], [ -4.9618126, 36.9353942 ], [ -4.9613408, 36.9353839 ], [ -4.9609013, 36.9353191 ], [ -4.9602107, 36.9350961 ], [ -4.9592102, 36.9346079 ], [ -4.9587104, 36.9343818 ], [ -4.9584087, 36.9339992 ], [ -4.9582286, 36.9335425 ], [ -4.9579521, 36.9332677 ], [ -4.9574397, 36.9329877 ], [ -4.9570954, 36.9326959 ], [ -4.9565786, 36.9318031 ], [ -4.9561654, 36.9314494 ], [ -4.9553305, 36.9308503 ], [ -4.955144, 36.9305829 ], [ -4.9551093, 36.9305384 ], [ -4.9543879, 36.9291082 ], [ -4.9541795, 36.9288593 ], [ -4.9539521, 36.9287458 ], [ -4.952503, 36.9282739 ], [ -4.9516712, 36.9282335 ], [ -4.951212, 36.9282771 ], [ -4.9494301, 36.9288382 ], [ -4.9481455, 36.9290935 ], [ -4.9467329, 36.9291708 ], [ -4.9462754, 36.9292774 ], [ -4.9459188, 36.9293824 ], [ -4.9449274, 36.9296871 ], [ -4.9447004, 36.9295916 ], [ -4.9443069, 36.9291294 ], [ -4.9440449, 36.9289804 ], [ -4.9429315, 36.9288995 ], [ -4.9426718, 36.9288407 ], [ -4.9407639, 36.9275379 ], [ -4.9404637, 36.9272093 ], [ -4.939356, 36.9264703 ], [ -4.9384123, 36.925999 ], [ -4.9381723, 36.9258317 ], [ -4.9379566, 36.9252944 ], [ -4.9378393, 36.9242057 ], [ -4.9375669, 36.922759 ], [ -4.9372743, 36.9218444 ], [ -4.9369802, 36.9213085 ], [ -4.9365618, 36.9211891 ], [ -4.9360848, 36.9209715 ], [ -4.9357611, 36.9205983 ], [ -4.9355072, 36.9198813 ], [ -4.9353069, 36.919506 ], [ -4.9349935, 36.9190966 ], [ -4.9343344, 36.9178905 ], [ -4.9338459, 36.9167718 ], [ -4.9334891, 36.9159755 ], [ -4.9329632, 36.9151548 ], [ -4.932594, 36.9147552 ], [ -4.9326492, 36.9107164 ], [ -4.9300506, 36.906919 ], [ -4.9296744, 36.9062401 ], [ -4.9269543, 36.9065276 ], [ -4.9217969, 36.907188 ], [ -4.9189908, 36.9071792 ], [ -4.9113552, 36.9070319 ], [ -4.9089268, 36.9073143 ], [ -4.9080929, 36.9076341 ], [ -4.9052012, 36.9091496 ], [ -4.9042153, 36.9101208 ], [ -4.903299, 36.9111901 ], [ -4.9024847, 36.9118431 ], [ -4.8975314, 36.9135175 ], [ -4.8951443, 36.9145741 ], [ -4.8936651, 36.9151295 ], [ -4.8923914, 36.9153661 ], [ -4.8909244, 36.9155066 ], [ -4.8901447, 36.9166637 ], [ -4.8900238, 36.9167648 ], [ -4.8888243, 36.9177392 ], [ -4.8855784, 36.919945 ], [ -4.8836574, 36.9221656 ], [ -4.8822398, 36.9238645 ], [ -4.8817461, 36.924332 ], [ -4.8810489, 36.9247396 ], [ -4.8804709, 36.9249741 ], [ -4.877801, 36.9250524 ], [ -4.8763607, 36.9253726 ], [ -4.8745667, 36.9259237 ], [ -4.8703261, 36.926964 ], [ -4.8678027, 36.9275264 ], [ -4.8670211, 36.9277009 ], [ -4.8665165, 36.9277269 ], [ -4.8645449, 36.9274424 ], [ -4.8608227, 36.9271852 ], [ -4.8601472, 36.9271057 ], [ -4.8593306, 36.9267669 ], [ -4.8577217, 36.9256925 ], [ -4.8563266, 36.9246417 ], [ -4.8559851, 36.9244487 ], [ -4.8548932, 36.9238619 ], [ -4.8543614, 36.9236899 ], [ -4.8540532, 36.9234784 ], [ -4.8538276, 36.9234368 ], [ -4.8529388, 36.9238203 ], [ -4.8517696, 36.9246767 ], [ -4.8497997, 36.9258521 ], [ -4.8503095, 36.9269708 ], [ -4.8514261, 36.9295042 ], [ -4.8543713, 36.9370745 ], [ -4.855754, 36.9399191 ], [ -4.856814, 36.9414979 ], [ -4.8585469, 36.9434988 ], [ -4.8585958, 36.9436602 ], [ -4.8582757, 36.9438906 ], [ -4.8578423, 36.9440776 ], [ -4.8575514, 36.9441182 ], [ -4.8571453, 36.9440435 ], [ -4.8563944, 36.9441003 ], [ -4.8556808, 36.9443097 ], [ -4.8550935, 36.9446343 ], [ -4.8547655, 36.945 ], [ -4.8545286, 36.9454183 ], [ -4.8543628, 36.945529 ], [ -4.8520575, 36.944925 ], [ -4.8519355, 36.94499 ], [ -4.8503788, 36.9488719 ], [ -4.8497007, 36.95055 ], [ -4.8480791, 36.95455 ], [ -4.8462671, 36.9590397 ], [ -4.8465503, 36.9591435 ], [ -4.8471486, 36.9592694 ], [ -4.8477785, 36.9593047 ], [ -4.8483046, 36.9592334 ], [ -4.8493431, 36.9589829 ], [ -4.8497657, 36.958814 ], [ -4.8505832, 36.9591799 ], [ -4.851018, 36.9585782 ], [ -4.851337, 36.9583029 ], [ -4.8517478, 36.9581072 ], [ -4.8521168, 36.9580384 ], [ -4.852703, 36.9581283 ], [ -4.8537558, 36.9584724 ], [ -4.8543621, 36.9589317 ], [ -4.8546364, 36.9591257 ], [ -4.8552659, 36.9596116 ], [ -4.8562184, 36.9599843 ], [ -4.857507, 36.9603247 ], [ -4.8578709, 36.9605082 ], [ -4.8576817, 36.961043 ], [ -4.855917, 36.9642252 ], [ -4.8558415, 36.9643525 ], [ -4.8568733, 36.964751 ], [ -4.8569501, 36.9646777 ], [ -4.8573337, 36.9642842 ], [ -4.859395, 36.9617553 ], [ -4.8597587, 36.9614701 ], [ -4.8598468, 36.9613967 ], [ -4.8601806, 36.9612653 ], [ -4.8605343, 36.9614941 ], [ -4.8611469, 36.9622055 ], [ -4.8613091, 36.9624103 ], [ -4.8616467, 36.9629007 ], [ -4.8622206, 36.9634055 ], [ -4.862607, 36.9635887 ], [ -4.8630699, 36.9636896 ], [ -4.8646341, 36.9638093 ], [ -4.8653339, 36.9639515 ], [ -4.8654843, 36.9641294 ], [ -4.8649222, 36.9650305 ], [ -4.8643196, 36.9656529 ], [ -4.8640323, 36.966766 ], [ -4.8637161, 36.9676182 ], [ -4.8631883, 36.9690055 ], [ -4.8623806, 36.9708929 ], [ -4.8617293, 36.9709031 ], [ -4.8605179, 36.9718955 ], [ -4.8600883, 36.9722448 ], [ -4.8599709, 36.9724989 ], [ -4.8599902, 36.9737515 ], [ -4.8602004, 36.9740817 ], [ -4.8605064, 36.9741941 ], [ -4.860888, 36.9741791 ], [ -4.8627851, 36.9736626 ], [ -4.8631204, 36.9735943 ], [ -4.8633219, 36.9735641 ], [ -4.864264, 36.9735042 ], [ -4.8660796, 36.9737912 ], [ -4.8658224, 36.9743 ], [ -4.8653658, 36.9749201 ], [ -4.8644304, 36.9761785 ], [ -4.8642062, 36.9766597 ], [ -4.8641465, 36.9774358 ], [ -4.8642077, 36.9776422 ], [ -4.864704, 36.9781842 ], [ -4.8648264, 36.9785969 ], [ -4.8647326, 36.9788957 ], [ -4.8643501, 36.9793344 ], [ -4.8638861, 36.9796571 ], [ -4.86342, 36.9798898 ], [ -4.8630692, 36.9802468 ], [ -4.8627065, 36.9810366 ], [ -4.859943, 36.9828916 ], [ -4.8588239, 36.983531 ], [ -4.8585539, 36.9835172 ], [ -4.8578152, 36.9831682 ], [ -4.8570159, 36.98264 ], [ -4.8563173, 36.9820921 ], [ -4.8558533, 36.9824148 ], [ -4.8543563, 36.9813746 ], [ -4.8539239, 36.981147 ], [ -4.8522566, 36.980497 ], [ -4.8468935, 36.9789221 ], [ -4.8458036, 36.9784524 ], [ -4.8446465, 36.9798493 ], [ -4.8437403, 36.9804673 ], [ -4.843233, 36.9808628 ], [ -4.8420166, 36.9816658 ], [ -4.8416173, 36.9818792 ], [ -4.8411381, 36.9820399 ], [ -4.8409919, 36.9820332 ], [ -4.8406324, 36.98157 ], [ -4.8405259, 36.9813464 ], [ -4.8405535, 36.9810936 ], [ -4.8407399, 36.9809014 ], [ -4.8419443, 36.9800625 ], [ -4.8423283, 36.979687 ], [ -4.843112, 36.979107 ], [ -4.8436227, 36.9788558 ], [ -4.8441816, 36.9787389 ], [ -4.8443818, 36.9786547 ], [ -4.8448363, 36.9779356 ], [ -4.8446775, 36.977875 ], [ -4.843956, 36.977769 ], [ -4.8408947, 36.9770684 ], [ -4.8391256, 36.9768434 ], [ -4.8387401, 36.9766962 ], [ -4.8385202, 36.9764292 ], [ -4.8383083, 36.9760269 ], [ -4.838039, 36.97604 ], [ -4.8379721, 36.9760591 ], [ -4.8370146, 36.9764164 ], [ -4.836847, 36.9764551 ], [ -4.8356186, 36.9767625 ], [ -4.835304, 36.9767584 ], [ -4.8351323, 36.9766258 ], [ -4.8348315, 36.9762609 ], [ -4.8345118, 36.9755808 ], [ -4.8344207, 36.9750595 ], [ -4.8343824, 36.9748708 ], [ -4.8343325, 36.9737269 ], [ -4.8342304, 36.9736834 ], [ -4.8340203, 36.9738218 ], [ -4.8337572, 36.9740963 ], [ -4.8335434, 36.9745502 ], [ -4.8333079, 36.9750316 ], [ -4.8328438, 36.9767603 ], [ -4.8327609, 36.9775187 ], [ -4.8330807, 36.9782077 ], [ -4.833452, 36.9786977 ], [ -4.8339334, 36.9790959 ], [ -4.8343189, 36.9797119 ], [ -4.83505, 36.9811517 ], [ -4.8370377, 36.9853211 ], [ -4.837404, 36.9851352 ], [ -4.8397576, 36.9839631 ], [ -4.8398254, 36.9839801 ], [ -4.8427406, 36.9865307 ], [ -4.843639, 36.9874451 ], [ -4.8448852, 36.9883361 ], [ -4.8456424, 36.9889823 ], [ -4.8458856, 36.9892849 ], [ -4.8459963, 36.9896798 ], [ -4.845763, 36.9907199 ], [ -4.8457505, 36.9915944 ], [ -4.8454543, 36.9923561 ], [ -4.8453596, 36.9930876 ], [ -4.8454162, 36.9935735 ], [ -4.845577, 36.9937152 ], [ -4.846516, 36.99398 ], [ -4.8469481, 36.9941896 ], [ -4.8472556, 36.9948248 ], [ -4.8476213, 36.9950804 ], [ -4.8481168, 36.9951268 ], [ -4.8488344, 36.9950616 ], [ -4.8493524, 36.9951076 ], [ -4.8508026, 36.9955987 ], [ -4.8508715, 36.9956608 ], [ -4.8533193, 36.9965149 ], [ -4.8543623, 36.9973549 ], [ -4.8592493, 37.0000815 ], [ -4.8594292, 37.0005474 ], [ -4.8598844, 37.0007836 ], [ -4.8611544, 37.0012504 ], [ -4.8625179, 37.0023286 ], [ -4.8639011, 37.0032893 ], [ -4.8644044, 37.003651 ], [ -4.8656658, 37.0046857 ], [ -4.8664991, 37.005673 ], [ -4.8670117, 37.0068727 ], [ -4.8674527, 37.008362 ], [ -4.8681684, 37.0086752 ], [ -4.86963, 37.0096166 ], [ -4.8704105, 37.0102802 ], [ -4.8707951, 37.0103823 ], [ -4.8713471, 37.0104367 ], [ -4.8723804, 37.0104114 ], [ -4.8731983, 37.0093891 ], [ -4.8749911, 37.0073419 ], [ -4.8771146, 37.0045773 ], [ -4.8792233, 37.0048685 ], [ -4.8796237, 37.0046999 ], [ -4.8815341, 37.004246 ], [ -4.8817439, 37.0045491 ], [ -4.8823041, 37.0058472 ], [ -4.8827575, 37.0064619 ], [ -4.8828908, 37.0068563 ], [ -4.8815506, 37.0081033 ], [ -4.8802944, 37.0095744 ], [ -4.8807188, 37.0103788 ], [ -4.881563, 37.0108882 ], [ -4.8816624, 37.0111081 ], [ -4.8817532, 37.0113088 ], [ -4.8818803, 37.011451 ], [ -4.8821811, 37.0117977 ], [ -4.8830469, 37.0122707 ], [ -4.8845473, 37.0129499 ], [ -4.885532, 37.0132317 ], [ -4.8857131, 37.0132829 ], [ -4.8866187, 37.0135479 ], [ -4.8875425, 37.0136324 ], [ -4.8894643, 37.0136288 ], [ -4.890567, 37.012773 ], [ -4.8923458, 37.0128979 ], [ -4.893438, 37.0147913 ], [ -4.8944744, 37.0139816 ], [ -4.895475, 37.0135421 ], [ -4.8964914, 37.0150941 ], [ -4.8979895, 37.0152233 ], [ -4.8996028, 37.0154679 ], [ -4.915449, 37.0172052 ], [ -4.9176403, 37.0198737 ], [ -4.9174725, 37.0212464 ], [ -4.9167724, 37.0255929 ], [ -4.9236169, 37.0304483 ], [ -4.9331414, 37.0372155 ] ], [ [ -4.922726, 36.9831124 ], [ -4.9226829, 36.9831829 ], [ -4.9228909, 36.983285 ], [ -4.9231258, 36.9834076 ], [ -4.9234037, 36.983582 ], [ -4.9236244, 36.9837286 ], [ -4.9237842, 36.9838167 ], [ -4.9239386, 36.983931 ], [ -4.9239821, 36.9840042 ], [ -4.9240168, 36.9840824 ], [ -4.9240458, 36.9841725 ], [ -4.924055, 36.9844204 ], [ -4.9240162, 36.9845331 ], [ -4.9239711, 36.9846292 ], [ -4.9238964, 36.9847306 ], [ -4.9236767, 36.9849797 ], [ -4.9231299, 36.9855776 ], [ -4.9226292, 36.9859959 ], [ -4.9214025, 36.9863902 ], [ -4.9200617, 36.9867386 ], [ -4.9188832, 36.9871607 ], [ -4.9176672, 36.9873926 ], [ -4.9170831, 36.987805 ], [ -4.9164424, 36.9881015 ], [ -4.9157218, 36.9879319 ], [ -4.9151785, 36.9877237 ], [ -4.9150597, 36.9874919 ], [ -4.9152103, 36.9869791 ], [ -4.9151925, 36.9869794 ], [ -4.9151119, 36.986964 ], [ -4.915069, 36.9869123 ], [ -4.9150282, 36.9868271 ], [ -4.915025, 36.9867007 ], [ -4.9150255, 36.986603 ], [ -4.9150098, 36.9865674 ], [ -4.9149769, 36.9865608 ], [ -4.9149446, 36.9865756 ], [ -4.9148836, 36.9866315 ], [ -4.9147965, 36.9865995 ], [ -4.9157582, 36.9857088 ], [ -4.9157021, 36.9854879 ], [ -4.9155492, 36.9850826 ], [ -4.9152941, 36.9843928 ], [ -4.9149275, 36.9836427 ], [ -4.9147244, 36.9828901 ], [ -4.9145793, 36.9826754 ], [ -4.9143525, 36.982524 ], [ -4.9140225, 36.9824006 ], [ -4.9138713, 36.9821789 ], [ -4.9138188, 36.9819842 ], [ -4.9139023, 36.9817563 ], [ -4.9141008, 36.9816124 ], [ -4.9141716, 36.9815922 ], [ -4.9142328, 36.9815411 ], [ -4.9142373, 36.9814862 ], [ -4.9142297, 36.9814195 ], [ -4.9141751, 36.9813727 ], [ -4.9139782, 36.981228 ], [ -4.913761, 36.9809811 ], [ -4.9136524, 36.9807993 ], [ -4.914425, 36.9812637 ], [ -4.9144726, 36.9812677 ], [ -4.9145951, 36.981292 ], [ -4.9146825, 36.9813383 ], [ -4.9148289, 36.9814862 ], [ -4.9149752, 36.9816316 ], [ -4.915041, 36.9816497 ], [ -4.9150401, 36.9816115 ], [ -4.9149993, 36.9815263 ], [ -4.9149761, 36.9814289 ], [ -4.9149799, 36.9813454 ], [ -4.9150118, 36.9813139 ], [ -4.9151011, 36.9813172 ], [ -4.9151368, 36.981319 ], [ -4.9161961, 36.9816024 ], [ -4.9165233, 36.9817283 ], [ -4.9169457, 36.9817405 ], [ -4.9174264, 36.9818258 ], [ -4.917528, 36.981848 ], [ -4.9175614, 36.98187 ], [ -4.91757, 36.9818628 ], [ -4.9176469, 36.9818449 ], [ -4.9178737, 36.9818841 ], [ -4.9179662, 36.9818946 ], [ -4.9179875, 36.9819157 ], [ -4.9180086, 36.9819273 ], [ -4.9186022, 36.9818914 ], [ -4.9188443, 36.9818255 ], [ -4.9189857, 36.9817755 ], [ -4.9192324, 36.9816547 ], [ -4.9196606, 36.981426 ], [ -4.9201306, 36.9812038 ], [ -4.9205084, 36.9809783 ], [ -4.9206749, 36.9808611 ], [ -4.9213498, 36.9813414 ], [ -4.9210666, 36.9816656 ], [ -4.9213636, 36.9818897 ], [ -4.9214571, 36.981943 ], [ -4.9218155, 36.9821304 ], [ -4.9220862, 36.9822571 ], [ -4.92224, 36.982226 ], [ -4.9223262, 36.9822246 ], [ -4.9224955, 36.9822195 ], [ -4.9226234, 36.9822246 ], [ -4.9226624, 36.9822383 ], [ -4.9226781, 36.982269 ], [ -4.9226788, 36.9823 ], [ -4.9226293, 36.9823413 ], [ -4.9226002, 36.9823633 ], [ -4.9223089, 36.9825993 ], [ -4.9220693, 36.9827677 ], [ -4.9220372, 36.9827897 ], [ -4.922044, 36.982823 ], [ -4.9220655, 36.9828513 ], [ -4.9223951, 36.9828388 ], [ -4.9225881, 36.9828285 ], [ -4.9226335, 36.9828611 ], [ -4.9226736, 36.9829177 ], [ -4.9227112, 36.9829958 ], [ -4.922726, 36.9831124 ] ] ] } }
]
}
