{
"type": "FeatureCollection",
"name": "30008",
"features": [
{ "type": "Feature", "properties": { "CCAA": "14 - Región de Murcia", "PROVINCIA": "30 - Murcia", "MUNICIPIO": "30008 - Alhama de Murcia", "COD_MUNICIPIO": "30008", "DISTRITO": "01", "SECCION": "3000801003", "V1_H": 79.78, "V1_M": 85.67, "V2_H": 79.78305357000001, "V2_M": 85.83721796, "V3_H": 80.07461692, "V3_M": 85.64972132 }, "geometry": { "type": "Polygon", "coordinates": [ [ [ -1.4303345, 37.8512809 ], [ -1.4304373, 37.8512927 ], [ -1.4314229, 37.8513983 ], [ -1.4323148, 37.8514936 ], [ -1.4333255, 37.8516094 ], [ -1.4341441, 37.8517089 ], [ -1.4344234, 37.8517379 ], [ -1.4345982, 37.8517453 ], [ -1.4349415, 37.8517549 ], [ -1.4353126, 37.8517383 ], [ -1.4365119, 37.8515215 ], [ -1.437785, 37.8511765 ], [ -1.4402899, 37.8504856 ], [ -1.4393049, 37.8489752 ], [ -1.4384862, 37.8484378 ], [ -1.4374817, 37.8488358 ], [ -1.4361076, 37.8490479 ], [ -1.4346467, 37.8494399 ], [ -1.4333484, 37.8490113 ], [ -1.4331802, 37.849176 ], [ -1.4329934, 37.8492798 ], [ -1.4327174, 37.8493876 ], [ -1.4326379, 37.849384 ], [ -1.432439, 37.8494487 ], [ -1.4321674, 37.8495371 ], [ -1.4317684, 37.8497696 ], [ -1.4314383, 37.8499826 ], [ -1.4309781, 37.8502686 ], [ -1.4304665, 37.8505539 ], [ -1.4301906, 37.8507088 ], [ -1.4295653, 37.8510976 ], [ -1.4295456, 37.8511897 ], [ -1.4303345, 37.8512809 ] ] ] } },
{ "type": "Feature", "properties": { "CCAA": "14 - Región de Murcia", "PROVINCIA": "30 - Murcia", "MUNICIPIO": "30008 - Alhama de Murcia", "COD_MUNICIPIO": "30008", "DISTRITO": "01", "SECCION": "3000801005", "V1_H": 79.68, "V1_M": 85.47, "V2_H": 79.93758061, "V2_M": 85.65037312, "V3_H": 79.53414521000001, "V3_M": 85.4025844 }, "geometry": { "type": "Polygon", "coordinates": [ [ [ -1.4191706, 37.8546816 ], [ -1.4199749, 37.8561616 ], [ -1.4205535, 37.8555709 ], [ -1.4207479, 37.8553042 ], [ -1.4212147, 37.8546522 ], [ -1.4213496, 37.8545193 ], [ -1.4214858, 37.8543267 ], [ -1.4218854, 37.8541675 ], [ -1.4222719, 37.8537388 ], [ -1.4231495, 37.853462 ], [ -1.4229061, 37.8530627 ], [ -1.4231017, 37.8529868 ], [ -1.4237355, 37.852803 ], [ -1.4239929, 37.8527394 ], [ -1.4243646, 37.8526179 ], [ -1.4246935, 37.852559 ], [ -1.4249238, 37.8525013 ], [ -1.424771, 37.8522576 ], [ -1.4247831, 37.8521389 ], [ -1.4246105, 37.8518734 ], [ -1.4244156, 37.8514659 ], [ -1.4242643, 37.8510994 ], [ -1.4242248, 37.850972 ], [ -1.4240189, 37.8504833 ], [ -1.4240133, 37.8504676 ], [ -1.4237525, 37.8505102 ], [ -1.423224, 37.8506005 ], [ -1.4230513, 37.8506288 ], [ -1.4229417, 37.8506663 ], [ -1.4228952, 37.8507075 ], [ -1.4228838, 37.8507491 ], [ -1.4225298, 37.8511613 ], [ -1.4226728, 37.8512446 ], [ -1.4227712, 37.8513309 ], [ -1.4224745, 37.8515193 ], [ -1.4226183, 37.8517123 ], [ -1.4226765, 37.8518193 ], [ -1.4227587, 37.8519925 ], [ -1.4227959, 37.8521854 ], [ -1.4226111, 37.8521981 ], [ -1.4224549, 37.8522087 ], [ -1.4220669, 37.8522035 ], [ -1.4217328, 37.8522015 ], [ -1.4214339, 37.8521924 ], [ -1.421451, 37.8522888 ], [ -1.4214923, 37.8524412 ], [ -1.4212115, 37.8524729 ], [ -1.4212543, 37.8528582 ], [ -1.4212504, 37.8530404 ], [ -1.4212297, 37.8531161 ], [ -1.4211827, 37.8532268 ], [ -1.4208781, 37.8534859 ], [ -1.4198397, 37.8538314 ], [ -1.4199208, 37.8540578 ], [ -1.42008, 37.8543534 ], [ -1.4191706, 37.8546816 ] ] ] } },
{ "type": "Feature", "properties": { "CCAA": "14 - Región de Murcia", "PROVINCIA": "30 - Murcia", "MUNICIPIO": "30008 - Alhama de Murcia", "COD_MUNICIPIO": "30008", "DISTRITO": "01", "SECCION": "3000801007", "V1_H": 80.39, "V1_M": 86.24, "V2_H": 80.20629068, "V2_M": 86.34105578, "V3_H": 80.66489809, "V3_M": 86.38520791000001 }, "geometry": { "type": "Polygon", "coordinates": [ [ [ -1.4240133, 37.8504676 ], [ -1.4240189, 37.8504833 ], [ -1.4242248, 37.850972 ], [ -1.4242643, 37.8510994 ], [ -1.4242917, 37.8510858 ], [ -1.4246621, 37.851025 ], [ -1.4249284, 37.8509995 ], [ -1.4250752, 37.8508269 ], [ -1.4251404, 37.850707 ], [ -1.4252551, 37.8503998 ], [ -1.4253568, 37.8500331 ], [ -1.4255242, 37.8494217 ], [ -1.4256246, 37.8490498 ], [ -1.4257142, 37.8487182 ], [ -1.4261252, 37.8471928 ], [ -1.4262646, 37.8466178 ], [ -1.4261734, 37.8464192 ], [ -1.4260024, 37.846083 ], [ -1.4262213, 37.8458101 ], [ -1.4265807, 37.8453645 ], [ -1.4266804, 37.8451634 ], [ -1.4268574, 37.8446192 ], [ -1.4270759, 37.8438466 ], [ -1.4272683, 37.843171 ], [ -1.4275879, 37.8420542 ], [ -1.4276509, 37.8417818 ], [ -1.4278848, 37.8410699 ], [ -1.4275872, 37.8410447 ], [ -1.4273553, 37.8413864 ], [ -1.4267326, 37.8423038 ], [ -1.4262161, 37.8430646 ], [ -1.4252383, 37.8437996 ], [ -1.4242627, 37.8444299 ], [ -1.4234743, 37.8448299 ], [ -1.42361, 37.8450876 ], [ -1.4238653, 37.8455159 ], [ -1.4242446, 37.8461555 ], [ -1.424555, 37.8466752 ], [ -1.4245962, 37.8467551 ], [ -1.4228312, 37.8474396 ], [ -1.4225362, 37.8475377 ], [ -1.4225097, 37.8475654 ], [ -1.4225137, 37.8475638 ], [ -1.4226664, 37.84771 ], [ -1.4228978, 37.8479902 ], [ -1.4230828, 37.848266 ], [ -1.4233261, 37.8487907 ], [ -1.4235754, 37.8493408 ], [ -1.4237836, 37.8498777 ], [ -1.4238988, 37.8501475 ], [ -1.4240133, 37.8504676 ] ] ] } },
{ "type": "Feature", "properties": { "CCAA": "14 - Región de Murcia", "PROVINCIA": "30 - Murcia", "MUNICIPIO": "30008 - Alhama de Murcia", "COD_MUNICIPIO": "30008", "DISTRITO": "01", "SECCION": "3000801011", "V1_H": 79.85, "V1_M": 85.78, "V2_H": 79.86035794, "V2_M": 85.76242541000001, "V3_H": 79.99500792000001, "V3_M": 85.93655133 }, "geometry": { "type": "Polygon", "coordinates": [ [ [ -1.4231495, 37.853462 ], [ -1.4247803, 37.8528823 ], [ -1.4242791, 37.8549007 ], [ -1.4257409, 37.8553 ], [ -1.4254085, 37.8557388 ], [ -1.4269764, 37.855202 ], [ -1.4266794, 37.8548972 ], [ -1.4268192, 37.8548144 ], [ -1.4272248, 37.8546357 ], [ -1.4274091, 37.8545287 ], [ -1.4276253, 37.8543972 ], [ -1.4277785, 37.8542798 ], [ -1.4278743, 37.8542014 ], [ -1.4280463, 37.8540843 ], [ -1.4285765, 37.8536484 ], [ -1.428896, 37.8533839 ], [ -1.4289673, 37.8533387 ], [ -1.4288052, 37.8533314 ], [ -1.4285533, 37.8532066 ], [ -1.4282698, 37.8530763 ], [ -1.4280875, 37.8529675 ], [ -1.4279133, 37.852783 ], [ -1.4278447, 37.8524177 ], [ -1.4277373, 37.8522778 ], [ -1.4276838, 37.852208 ], [ -1.4272431, 37.8516859 ], [ -1.426853, 37.8517693 ], [ -1.4263697, 37.8519071 ], [ -1.4258277, 37.8521124 ], [ -1.4251262, 37.852413 ], [ -1.4249238, 37.8525013 ], [ -1.4246935, 37.852559 ], [ -1.4243646, 37.8526179 ], [ -1.4239929, 37.8527394 ], [ -1.4237355, 37.852803 ], [ -1.4231017, 37.8529868 ], [ -1.4229061, 37.8530627 ], [ -1.4231495, 37.853462 ] ] ] } },
{ "type": "Feature", "properties": { "CCAA": "14 - Región de Murcia", "PROVINCIA": "30 - Murcia", "MUNICIPIO": "30008 - Alhama de Murcia", "COD_MUNICIPIO": "30008", "DISTRITO": "01", "SECCION": "3000801018", "V1_H": 79.96, "V1_M": 85.86, "V2_H": 79.90630759, "V2_M": 85.80766239, "V3_H": 80.18166072, "V3_M": 86.22029934 }, "geometry": { "type": "Polygon", "coordinates": [ [ [ -1.4168373, 37.8479366 ], [ -1.4164323, 37.8481261 ], [ -1.4150922, 37.8487408 ], [ -1.4145784, 37.8489567 ], [ -1.4142893, 37.8490844 ], [ -1.4136771, 37.8494406 ], [ -1.411407, 37.8504969 ], [ -1.4116264, 37.8506256 ], [ -1.4120444, 37.8504778 ], [ -1.4124741, 37.8504288 ], [ -1.4127962, 37.8502358 ], [ -1.413012, 37.8504908 ], [ -1.4139097, 37.8505358 ], [ -1.4142113, 37.8506605 ], [ -1.4142206, 37.8515158 ], [ -1.4132284, 37.8520067 ], [ -1.4127272, 37.8521644 ], [ -1.4116654, 37.8520295 ], [ -1.4106144, 37.8520372 ], [ -1.4099183, 37.8522581 ], [ -1.4091103, 37.8525432 ], [ -1.408748, 37.8526698 ], [ -1.4080793, 37.852902 ], [ -1.4078162, 37.8529203 ], [ -1.4076382, 37.8528412 ], [ -1.4073084, 37.8524037 ], [ -1.4049088, 37.8537361 ], [ -1.4034077, 37.8547354 ], [ -1.4014865, 37.8559811 ], [ -1.4025049, 37.8562032 ], [ -1.4028393, 37.8560872 ], [ -1.4037632, 37.8568452 ], [ -1.402387, 37.8578242 ], [ -1.4028812, 37.8586312 ], [ -1.407495, 37.8562818 ], [ -1.4094307, 37.8588624 ], [ -1.4109393, 37.8581592 ], [ -1.4095273, 37.8562983 ], [ -1.4101304, 37.8560115 ], [ -1.4116744, 37.8552526 ], [ -1.4120491, 37.8550731 ], [ -1.4124721, 37.8557863 ], [ -1.4134225, 37.8554201 ], [ -1.4133205, 37.855083 ], [ -1.4134681, 37.8549414 ], [ -1.4137831, 37.8547989 ], [ -1.413853, 37.8548048 ], [ -1.4139306, 37.8548945 ], [ -1.4140386, 37.8550529 ], [ -1.4140625, 37.8551266 ], [ -1.4140831, 37.8552029 ], [ -1.4141089, 37.8553349 ], [ -1.4141341, 37.8554251 ], [ -1.4152205, 37.8549233 ], [ -1.4147186, 37.8542837 ], [ -1.4148373, 37.8542422 ], [ -1.4148888, 37.8542125 ], [ -1.4149437, 37.8541824 ], [ -1.4139826, 37.8529962 ], [ -1.4157092, 37.8520923 ], [ -1.4156807, 37.8520281 ], [ -1.4185586, 37.8505922 ], [ -1.419547, 37.850064 ], [ -1.4199299, 37.8496778 ], [ -1.4196723, 37.8495149 ], [ -1.4194121, 37.8494038 ], [ -1.4188108, 37.8490996 ], [ -1.4182697, 37.8488139 ], [ -1.4177402, 37.8484993 ], [ -1.4171746, 37.8481627 ], [ -1.4170637, 37.8481409 ], [ -1.4170446, 37.8480634 ], [ -1.4168373, 37.8479366 ] ] ] } },
{ "type": "Feature", "properties": { "CCAA": "14 - Región de Murcia", "PROVINCIA": "30 - Murcia", "MUNICIPIO": "30008 - Alhama de Murcia", "COD_MUNICIPIO": "30008", "DISTRITO": "01", "SECCION": "3000801012", "V1_H": 80.23, "V1_M": 86.04, "V2_H": 80.01377171, "V2_M": 86.1814847, "V3_H": 80.55154758, "V3_M": 86.06989916000001 }, "geometry": { "type": "Polygon", "coordinates": [ [ [ -1.4199299, 37.8496778 ], [ -1.4202193, 37.8498336 ], [ -1.4202778, 37.8498558 ], [ -1.4206358, 37.8500732 ], [ -1.4215601, 37.8505969 ], [ -1.4225298, 37.8511613 ], [ -1.4228838, 37.8507491 ], [ -1.4228952, 37.8507075 ], [ -1.4229417, 37.8506663 ], [ -1.4230513, 37.8506288 ], [ -1.423224, 37.8506005 ], [ -1.4237525, 37.8505102 ], [ -1.4240133, 37.8504676 ], [ -1.4238988, 37.8501475 ], [ -1.4237836, 37.8498777 ], [ -1.4235754, 37.8493408 ], [ -1.4233261, 37.8487907 ], [ -1.4230828, 37.848266 ], [ -1.4228978, 37.8479902 ], [ -1.4226664, 37.84771 ], [ -1.4225137, 37.8475638 ], [ -1.4225097, 37.8475654 ], [ -1.4217274, 37.8478772 ], [ -1.4212726, 37.8481597 ], [ -1.4209923, 37.8483899 ], [ -1.4205092, 37.8489606 ], [ -1.4199299, 37.8496778 ] ] ] } },
{ "type": "Feature", "properties": { "CCAA": "14 - Región de Murcia", "PROVINCIA": "30 - Murcia", "MUNICIPIO": "30008 - Alhama de Murcia", "COD_MUNICIPIO": "30008", "DISTRITO": "01", "SECCION": "3000801013", "V1_H": 80.25, "V1_M": 86.11, "V2_H": 80.02266353, "V2_M": 86.02270939, "V3_H": 80.50879823, "V3_M": 86.37032083 }, "geometry": { "type": "Polygon", "coordinates": [ [ [ -1.4168373, 37.8479366 ], [ -1.4170446, 37.8480634 ], [ -1.4170637, 37.8481409 ], [ -1.4171746, 37.8481627 ], [ -1.4177402, 37.8484993 ], [ -1.4182697, 37.8488139 ], [ -1.4188108, 37.8490996 ], [ -1.4194121, 37.8494038 ], [ -1.4196723, 37.8495149 ], [ -1.4199299, 37.8496778 ], [ -1.4205092, 37.8489606 ], [ -1.4209923, 37.8483899 ], [ -1.4212726, 37.8481597 ], [ -1.4217274, 37.8478772 ], [ -1.4225097, 37.8475654 ], [ -1.4225362, 37.8475377 ], [ -1.4228312, 37.8474396 ], [ -1.4245962, 37.8467551 ], [ -1.424555, 37.8466752 ], [ -1.4242446, 37.8461555 ], [ -1.4238653, 37.8455159 ], [ -1.42361, 37.8450876 ], [ -1.4234743, 37.8448299 ], [ -1.4219358, 37.8456105 ], [ -1.4205823, 37.8462656 ], [ -1.4199538, 37.8465414 ], [ -1.418848, 37.8470801 ], [ -1.4178011, 37.8475149 ], [ -1.4168373, 37.8479366 ] ] ] } },
{ "type": "Feature", "properties": { "CCAA": "14 - Región de Murcia", "PROVINCIA": "30 - Murcia", "MUNICIPIO": "30008 - Alhama de Murcia", "COD_MUNICIPIO": "30008", "DISTRITO": "01", "SECCION": "3000801001", "V1_H": 80.02, "V1_M": 86.02, "V2_H": 79.96138623, "V2_M": 86.18252023, "V3_H": 80.18726569, "V3_M": 86.15258899 }, "geometry": { "type": "Polygon", "coordinates": [ [ [ -1.4254085, 37.8557388 ], [ -1.423973, 37.8576334 ], [ -1.4255342, 37.8578568 ], [ -1.4268287, 37.8568514 ], [ -1.426904, 37.8568309 ], [ -1.4273169, 37.856725 ], [ -1.4277203, 37.8566139 ], [ -1.42796, 37.8565691 ], [ -1.4283989, 37.8564332 ], [ -1.4287944, 37.8563132 ], [ -1.4292819, 37.8561425 ], [ -1.4294005, 37.8561011 ], [ -1.4297491, 37.8560197 ], [ -1.4299864, 37.8559367 ], [ -1.4302747, 37.8558494 ], [ -1.4305134, 37.8557704 ], [ -1.4306385, 37.8557214 ], [ -1.4308249, 37.8556404 ], [ -1.4311997, 37.8555264 ], [ -1.4314531, 37.855436 ], [ -1.431814, 37.8553776 ], [ -1.4317845, 37.8558657 ], [ -1.4318434, 37.8560893 ], [ -1.4320267, 37.8564512 ], [ -1.4322885, 37.8567129 ], [ -1.4337462, 37.8561146 ], [ -1.4330108, 37.8553707 ], [ -1.4335433, 37.8551753 ], [ -1.4333898, 37.85491 ], [ -1.434167, 37.8545811 ], [ -1.4352716, 37.8562261 ], [ -1.4350473, 37.8581014 ], [ -1.4352891, 37.8581046 ], [ -1.436686, 37.8576777 ], [ -1.4360008, 37.8557548 ], [ -1.4346546, 37.8544003 ], [ -1.4363375, 37.8538278 ], [ -1.4361941, 37.8535938 ], [ -1.4356171, 37.8537836 ], [ -1.4350278, 37.8539581 ], [ -1.4346556, 37.854105 ], [ -1.4341095, 37.8543661 ], [ -1.4339628, 37.8544491 ], [ -1.4335745, 37.854606 ], [ -1.4332282, 37.8547329 ], [ -1.4331001, 37.8547691 ], [ -1.4330523, 37.8547711 ], [ -1.4329632, 37.8547699 ], [ -1.4328079, 37.8547425 ], [ -1.4325511, 37.8546986 ], [ -1.4324115, 37.8546815 ], [ -1.4322257, 37.8546727 ], [ -1.4321021, 37.8546509 ], [ -1.4318801, 37.8546175 ], [ -1.4318134, 37.8546115 ], [ -1.4317527, 37.8546209 ], [ -1.431698, 37.8546506 ], [ -1.4316688, 37.8546806 ], [ -1.4316428, 37.8548573 ], [ -1.4316309, 37.8549685 ], [ -1.4314223, 37.8548999 ], [ -1.4312649, 37.8548168 ], [ -1.4309901, 37.8546448 ], [ -1.4309153, 37.8545755 ], [ -1.4308055, 37.8545032 ], [ -1.4307054, 37.8544183 ], [ -1.4306587, 37.8543697 ], [ -1.4305749, 37.8542699 ], [ -1.4304631, 37.8541419 ], [ -1.430272, 37.8539229 ], [ -1.4301606, 37.8537746 ], [ -1.4301207, 37.8537058 ], [ -1.4300506, 37.8535644 ], [ -1.4300152, 37.8535108 ], [ -1.4299359, 37.8534274 ], [ -1.4297331, 37.8533843 ], [ -1.4294409, 37.8533601 ], [ -1.4289673, 37.8533387 ], [ -1.428896, 37.8533839 ], [ -1.4285765, 37.8536484 ], [ -1.4280463, 37.8540843 ], [ -1.4278743, 37.8542014 ], [ -1.4277785, 37.8542798 ], [ -1.4276253, 37.8543972 ], [ -1.4274091, 37.8545287 ], [ -1.4272248, 37.8546357 ], [ -1.4268192, 37.8548144 ], [ -1.4266794, 37.8548972 ], [ -1.4269764, 37.855202 ], [ -1.4254085, 37.8557388 ] ] ] } },
{ "type": "Feature", "properties": { "CCAA": "14 - Región de Murcia", "PROVINCIA": "30 - Murcia", "MUNICIPIO": "30008 - Alhama de Murcia", "COD_MUNICIPIO": "30008", "DISTRITO": "01", "SECCION": "3000801004", "V1_H": 80.55, "V1_M": 86.21, "V2_H": 80.25181467, "V2_M": 85.94546636, "V3_H": 81.01047082, "V3_M": 86.65561049 }, "geometry": { "type": "Polygon", "coordinates": [ [ [ -1.4256246, 37.8490498 ], [ -1.4263602, 37.8495929 ], [ -1.4270351, 37.8494288 ], [ -1.4273662, 37.8493549 ], [ -1.4273262, 37.8489134 ], [ -1.4273362, 37.8486359 ], [ -1.4273517, 37.8484533 ], [ -1.4274362, 37.8483658 ], [ -1.4276265, 37.8480951 ], [ -1.4278634, 37.8477239 ], [ -1.4280512, 37.8474151 ], [ -1.4284024, 37.8468316 ], [ -1.4285845, 37.8465425 ], [ -1.4287579, 37.8462671 ], [ -1.4291272, 37.8456546 ], [ -1.4293381, 37.8452285 ], [ -1.4293926, 37.8450597 ], [ -1.4294604, 37.8447124 ], [ -1.4294362, 37.8443812 ], [ -1.4294146, 37.843926 ], [ -1.4299092, 37.8427333 ], [ -1.4302882, 37.8420767 ], [ -1.4299488, 37.8418488 ], [ -1.4292169, 37.841442 ], [ -1.4285752, 37.8412102 ], [ -1.4278848, 37.8410699 ], [ -1.4276509, 37.8417818 ], [ -1.4275879, 37.8420542 ], [ -1.4272683, 37.843171 ], [ -1.4270759, 37.8438466 ], [ -1.4268574, 37.8446192 ], [ -1.4266804, 37.8451634 ], [ -1.4265807, 37.8453645 ], [ -1.4262213, 37.8458101 ], [ -1.4260024, 37.846083 ], [ -1.4261734, 37.8464192 ], [ -1.4262646, 37.8466178 ], [ -1.4261252, 37.8471928 ], [ -1.4257142, 37.8487182 ], [ -1.4256246, 37.8490498 ] ] ] } },
{ "type": "Feature", "properties": { "CCAA": "14 - Región de Murcia", "PROVINCIA": "30 - Murcia", "MUNICIPIO": "30008 - Alhama de Murcia", "COD_MUNICIPIO": "30008", "DISTRITO": "01", "SECCION": "3000801006", "V1_H": 80.06, "V1_M": 86.12, "V2_H": 80.10460866, "V2_M": 86.20761786, "V3_H": 80.17898723, "V3_M": 86.18020212 }, "geometry": { "type": "Polygon", "coordinates": [ [ [ -1.4149437, 37.8541824 ], [ -1.4152304, 37.8540247 ], [ -1.4156275, 37.8538263 ], [ -1.4157557, 37.8539344 ], [ -1.4158707, 37.8540651 ], [ -1.4159534, 37.8542105 ], [ -1.4160174, 37.8543454 ], [ -1.4160665, 37.8544321 ], [ -1.4161898, 37.8546237 ], [ -1.416361, 37.8548728 ], [ -1.4164593, 37.8550362 ], [ -1.4166943, 37.8553608 ], [ -1.4168365, 37.8555602 ], [ -1.4191706, 37.8546816 ], [ -1.42008, 37.8543534 ], [ -1.4199208, 37.8540578 ], [ -1.4198397, 37.8538314 ], [ -1.4208781, 37.8534859 ], [ -1.4211827, 37.8532268 ], [ -1.4212297, 37.8531161 ], [ -1.4212504, 37.8530404 ], [ -1.4212543, 37.8528582 ], [ -1.4195734, 37.8527635 ], [ -1.4163761, 37.8524289 ], [ -1.4159112, 37.8525476 ], [ -1.4157092, 37.8520923 ], [ -1.4139826, 37.8529962 ], [ -1.4149437, 37.8541824 ] ] ] } },
{ "type": "Feature", "properties": { "CCAA": "14 - Región de Murcia", "PROVINCIA": "30 - Murcia", "MUNICIPIO": "30008 - Alhama de Murcia", "COD_MUNICIPIO": "30008", "DISTRITO": "01", "SECCION": "3000801010", "V1_H": 79.57, "V1_M": 85.52, "V2_H": 79.5571672, "V2_M": 85.61629353, "V3_H": 79.73611669, "V3_M": 85.61269153000001 }, "geometry": { "type": "Polygon", "coordinates": [ [ [ -1.4157092, 37.8520923 ], [ -1.4159112, 37.8525476 ], [ -1.4163761, 37.8524289 ], [ -1.4195734, 37.8527635 ], [ -1.4212543, 37.8528582 ], [ -1.4212115, 37.8524729 ], [ -1.4214923, 37.8524412 ], [ -1.421451, 37.8522888 ], [ -1.4214339, 37.8521924 ], [ -1.4217328, 37.8522015 ], [ -1.4220669, 37.8522035 ], [ -1.4224549, 37.8522087 ], [ -1.4226111, 37.8521981 ], [ -1.4227959, 37.8521854 ], [ -1.4227587, 37.8519925 ], [ -1.4226765, 37.8518193 ], [ -1.4226183, 37.8517123 ], [ -1.4224745, 37.8515193 ], [ -1.4227712, 37.8513309 ], [ -1.4226728, 37.8512446 ], [ -1.4225298, 37.8511613 ], [ -1.4215601, 37.8505969 ], [ -1.4206358, 37.8500732 ], [ -1.4202778, 37.8498558 ], [ -1.4202193, 37.8498336 ], [ -1.4199299, 37.8496778 ], [ -1.419547, 37.850064 ], [ -1.4185586, 37.8505922 ], [ -1.4156807, 37.8520281 ], [ -1.4157092, 37.8520923 ] ] ] } },
{ "type": "Feature", "properties": { "CCAA": "14 - Región de Murcia", "PROVINCIA": "30 - Murcia", "MUNICIPIO": "30008 - Alhama de Murcia", "COD_MUNICIPIO": "30008", "DISTRITO": "01", "SECCION": "3000801017", "V1_H": 80.27, "V1_M": 86.36, "V2_H": 80.04050342, "V2_M": 86.25745667, "V3_H": 80.55487256000001, "V3_M": 86.64917866 }, "geometry": { "type": "Polygon", "coordinates": [ [ [ -1.4273517, 37.8484533 ], [ -1.4274504, 37.8484521 ], [ -1.4279623, 37.8483072 ], [ -1.4282047, 37.84828 ], [ -1.4290103, 37.8492876 ], [ -1.4297171, 37.8501573 ], [ -1.4301906, 37.8507088 ], [ -1.4304665, 37.8505539 ], [ -1.4309781, 37.8502686 ], [ -1.4314383, 37.8499826 ], [ -1.4317684, 37.8497696 ], [ -1.4321674, 37.8495371 ], [ -1.432439, 37.8494487 ], [ -1.4317119, 37.8485452 ], [ -1.4320444, 37.8483609 ], [ -1.4319216, 37.8482216 ], [ -1.4321489, 37.8479539 ], [ -1.4308748, 37.8473772 ], [ -1.4302672, 37.8471498 ], [ -1.4290784, 37.8467208 ], [ -1.4285845, 37.8465425 ], [ -1.4284024, 37.8468316 ], [ -1.4280512, 37.8474151 ], [ -1.4278634, 37.8477239 ], [ -1.4276265, 37.8480951 ], [ -1.4274362, 37.8483658 ], [ -1.4273517, 37.8484533 ] ] ] } },
{ "type": "Feature", "properties": { "CCAA": "14 - Región de Murcia", "PROVINCIA": "30 - Murcia", "MUNICIPIO": "30008 - Alhama de Murcia", "COD_MUNICIPIO": "30008", "DISTRITO": "01", "SECCION": "3000801014", "V1_H": 80.91, "V1_M": 86.7, "V2_H": 80.91796575, "V2_M": 86.73459974, "V3_H": 81.00259482, "V3_M": 86.81948346 }, "geometry": { "type": "Polygon", "coordinates": [ [ [ -1.4242643, 37.8510994 ], [ -1.4244156, 37.8514659 ], [ -1.4246105, 37.8518734 ], [ -1.4247831, 37.8521389 ], [ -1.424771, 37.8522576 ], [ -1.4249238, 37.8525013 ], [ -1.4251262, 37.852413 ], [ -1.4258277, 37.8521124 ], [ -1.4263697, 37.8519071 ], [ -1.426853, 37.8517693 ], [ -1.4272431, 37.8516859 ], [ -1.4276838, 37.852208 ], [ -1.4277373, 37.8522778 ], [ -1.4282149, 37.8521562 ], [ -1.4283077, 37.852285 ], [ -1.4283412, 37.8523652 ], [ -1.4285282, 37.8523199 ], [ -1.4288216, 37.8522361 ], [ -1.4290745, 37.8521637 ], [ -1.4292465, 37.8521102 ], [ -1.4293425, 37.8520915 ], [ -1.4294736, 37.8520734 ], [ -1.4296301, 37.8520396 ], [ -1.4297564, 37.8520134 ], [ -1.430004, 37.8519529 ], [ -1.4301099, 37.8519383 ], [ -1.430468, 37.8518833 ], [ -1.4304174, 37.8516594 ], [ -1.4303345, 37.8512809 ], [ -1.4295456, 37.8511897 ], [ -1.4292442, 37.8511603 ], [ -1.4287238, 37.8510977 ], [ -1.4283482, 37.8510705 ], [ -1.4281736, 37.8510556 ], [ -1.4278913, 37.8510152 ], [ -1.4275737, 37.8509881 ], [ -1.4271862, 37.8509678 ], [ -1.4263207, 37.8509764 ], [ -1.4256014, 37.8509921 ], [ -1.4249284, 37.8509995 ], [ -1.4246621, 37.851025 ], [ -1.4242917, 37.8510858 ], [ -1.4242643, 37.8510994 ] ] ] } },
{ "type": "Feature", "properties": { "CCAA": "14 - Región de Murcia", "PROVINCIA": "30 - Murcia", "MUNICIPIO": "30008 - Alhama de Murcia", "COD_MUNICIPIO": "30008", "DISTRITO": "01", "SECCION": "3000801015", "V1_H": 80.01, "V1_M": 85.88, "V2_H": 79.90171161000001, "V2_M": 85.93881404, "V3_H": 80.29104055000001, "V3_M": 85.88520273 }, "geometry": { "type": "Polygon", "coordinates": [ [ [ -1.4249284, 37.8509995 ], [ -1.4256014, 37.8509921 ], [ -1.4263207, 37.8509764 ], [ -1.4271862, 37.8509678 ], [ -1.4275737, 37.8509881 ], [ -1.4278913, 37.8510152 ], [ -1.4281736, 37.8510556 ], [ -1.4283482, 37.8510705 ], [ -1.4287238, 37.8510977 ], [ -1.4292442, 37.8511603 ], [ -1.4295456, 37.8511897 ], [ -1.4295653, 37.8510976 ], [ -1.4301906, 37.8507088 ], [ -1.4297171, 37.8501573 ], [ -1.4290103, 37.8492876 ], [ -1.4282047, 37.84828 ], [ -1.4279623, 37.8483072 ], [ -1.4274504, 37.8484521 ], [ -1.4273517, 37.8484533 ], [ -1.4273362, 37.8486359 ], [ -1.4273262, 37.8489134 ], [ -1.4273662, 37.8493549 ], [ -1.4270351, 37.8494288 ], [ -1.4263602, 37.8495929 ], [ -1.4256246, 37.8490498 ], [ -1.4255242, 37.8494217 ], [ -1.4253568, 37.8500331 ], [ -1.4252551, 37.8503998 ], [ -1.4251404, 37.850707 ], [ -1.4250752, 37.8508269 ], [ -1.4249284, 37.8509995 ] ] ] } },
{ "type": "Feature", "properties": { "CCAA": "14 - Región de Murcia", "PROVINCIA": "30 - Murcia", "MUNICIPIO": "30008 - Alhama de Murcia", "COD_MUNICIPIO": "30008", "DISTRITO": "01", "SECCION": "3000801002", "V1_H": 79.63, "V1_M": 85.51, "V2_H": 79.79644461, "V2_M": 85.57767022, "V3_H": 79.53263393, "V3_M": 85.68344389000001 }, "geometry": { "type": "Polygon", "coordinates": [ [ [ -1.4289673, 37.8533387 ], [ -1.4294409, 37.8533601 ], [ -1.4297331, 37.8533843 ], [ -1.4299359, 37.8534274 ], [ -1.4300152, 37.8535108 ], [ -1.4300506, 37.8535644 ], [ -1.4301207, 37.8537058 ], [ -1.4301606, 37.8537746 ], [ -1.430272, 37.8539229 ], [ -1.4304631, 37.8541419 ], [ -1.4305749, 37.8542699 ], [ -1.4306587, 37.8543697 ], [ -1.4307054, 37.8544183 ], [ -1.4308055, 37.8545032 ], [ -1.4309153, 37.8545755 ], [ -1.4309901, 37.8546448 ], [ -1.4312649, 37.8548168 ], [ -1.4314223, 37.8548999 ], [ -1.4316309, 37.8549685 ], [ -1.4316428, 37.8548573 ], [ -1.4316688, 37.8546806 ], [ -1.431698, 37.8546506 ], [ -1.4317527, 37.8546209 ], [ -1.4318134, 37.8546115 ], [ -1.4318801, 37.8546175 ], [ -1.4321021, 37.8546509 ], [ -1.4322257, 37.8546727 ], [ -1.4324115, 37.8546815 ], [ -1.4325511, 37.8546986 ], [ -1.4328079, 37.8547425 ], [ -1.4329632, 37.8547699 ], [ -1.4330523, 37.8547711 ], [ -1.4331001, 37.8547691 ], [ -1.4332282, 37.8547329 ], [ -1.4335745, 37.854606 ], [ -1.4339628, 37.8544491 ], [ -1.4341095, 37.8543661 ], [ -1.4346556, 37.854105 ], [ -1.4350278, 37.8539581 ], [ -1.4356171, 37.8537836 ], [ -1.4361941, 37.8535938 ], [ -1.4353126, 37.8517383 ], [ -1.4349415, 37.8517549 ], [ -1.4345982, 37.8517453 ], [ -1.4344234, 37.8517379 ], [ -1.4341441, 37.8517089 ], [ -1.4333255, 37.8516094 ], [ -1.4323148, 37.8514936 ], [ -1.4314229, 37.8513983 ], [ -1.4304373, 37.8512927 ], [ -1.4303345, 37.8512809 ], [ -1.4304174, 37.8516594 ], [ -1.430468, 37.8518833 ], [ -1.4301099, 37.8519383 ], [ -1.430004, 37.8519529 ], [ -1.4297564, 37.8520134 ], [ -1.4296301, 37.8520396 ], [ -1.4294736, 37.8520734 ], [ -1.4293425, 37.8520915 ], [ -1.4292465, 37.8521102 ], [ -1.4290745, 37.8521637 ], [ -1.4288216, 37.8522361 ], [ -1.4285282, 37.8523199 ], [ -1.4283412, 37.8523652 ], [ -1.4283077, 37.852285 ], [ -1.4282149, 37.8521562 ], [ -1.4277373, 37.8522778 ], [ -1.4278447, 37.8524177 ], [ -1.4279133, 37.852783 ], [ -1.4280875, 37.8529675 ], [ -1.4282698, 37.8530763 ], [ -1.4285533, 37.8532066 ], [ -1.4288052, 37.8533314 ], [ -1.4289673, 37.8533387 ] ] ] } },
{ "type": "Feature", "properties": { "CCAA": "14 - Región de Murcia", "PROVINCIA": "30 - Murcia", "MUNICIPIO": "30008 - Alhama de Murcia", "COD_MUNICIPIO": "30008", "DISTRITO": "01", "SECCION": "3000801009", "V1_H": 80.85, "V1_M": 86.44, "V2_H": 80.47892397, "V2_M": 86.23437891, "V3_H": 81.22204479, "V3_M": 86.80010662 }, "geometry": { "type": "Polygon", "coordinates": [ [ [ -1.4285845, 37.8465425 ], [ -1.4290784, 37.8467208 ], [ -1.4302672, 37.8471498 ], [ -1.4308748, 37.8473772 ], [ -1.4314379, 37.8463614 ], [ -1.4337445, 37.8442519 ], [ -1.4335755, 37.844141 ], [ -1.4341638, 37.8434626 ], [ -1.434331, 37.8432542 ], [ -1.4345319, 37.8430735 ], [ -1.4346979, 37.8429194 ], [ -1.434813, 37.8427443 ], [ -1.4348688, 37.8425344 ], [ -1.4356342, 37.8419942 ], [ -1.4355795, 37.8417422 ], [ -1.4352752, 37.8415479 ], [ -1.4351089, 37.8413079 ], [ -1.435258, 37.8411468 ], [ -1.4356073, 37.8408322 ], [ -1.4355337, 37.8406681 ], [ -1.43512, 37.8403773 ], [ -1.4341751, 37.8396921 ], [ -1.4335145, 37.8401385 ], [ -1.4330565, 37.8403227 ], [ -1.4323396, 37.8405984 ], [ -1.4317673, 37.8409237 ], [ -1.4311259, 37.8412753 ], [ -1.43056, 37.8417025 ], [ -1.4302882, 37.8420767 ], [ -1.4299092, 37.8427333 ], [ -1.4294146, 37.843926 ], [ -1.4294362, 37.8443812 ], [ -1.4294604, 37.8447124 ], [ -1.4293926, 37.8450597 ], [ -1.4293381, 37.8452285 ], [ -1.4291272, 37.8456546 ], [ -1.4287579, 37.8462671 ], [ -1.4285845, 37.8465425 ] ] ] } },
{ "type": "Feature", "properties": { "CCAA": "14 - Región de Murcia", "PROVINCIA": "30 - Murcia", "MUNICIPIO": "30008 - Alhama de Murcia", "COD_MUNICIPIO": "30008", "DISTRITO": "01", "SECCION": "3000801016", "V1_H": 79.63, "V1_M": 85.51, "V2_H": 79.79644461, "V2_M": 85.57767022, "V3_H": 79.53263393, "V3_M": 85.68344389000001 }, "geometry": { "type": "Polygon", "coordinates": [ [ [ -1.2687103, 37.8482847 ], [ -1.2695649, 37.8530467 ], [ -1.270157, 37.8559212 ], [ -1.2706251, 37.8587488 ], [ -1.2716157, 37.8640264 ], [ -1.273508, 37.8750038 ], [ -1.2744611, 37.8784964 ], [ -1.2774658, 37.8881202 ], [ -1.2778191, 37.8895492 ], [ -1.2785149, 37.8919026 ], [ -1.279048, 37.8934244 ], [ -1.27966, 37.89547 ], [ -1.2804899, 37.8979244 ], [ -1.2814442, 37.9009934 ], [ -1.281548, 37.9013284 ], [ -1.282104, 37.9033372 ], [ -1.2823804, 37.904657 ], [ -1.2846949, 37.903438 ], [ -1.2861373, 37.9025488 ], [ -1.2870084, 37.9017685 ], [ -1.2883401, 37.9007424 ], [ -1.2892289, 37.9001786 ], [ -1.2905394, 37.8995758 ], [ -1.2913055, 37.8993977 ], [ -1.2927394, 37.8988687 ], [ -1.293088, 37.8985494 ], [ -1.2946682, 37.896112 ], [ -1.2958202, 37.8939928 ], [ -1.2964095, 37.8921088 ], [ -1.2966803, 37.8917072 ], [ -1.2972757, 37.8910399 ], [ -1.2981914, 37.8902871 ], [ -1.2991044, 37.8896515 ], [ -1.29985, 37.8893738 ], [ -1.3007393, 37.8892696 ], [ -1.3030583, 37.8888073 ], [ -1.3035887, 37.8889862 ], [ -1.3044872, 37.8894768 ], [ -1.3051759, 37.889694 ], [ -1.3057895, 37.8897118 ], [ -1.3065214, 37.8895331 ], [ -1.3069519, 37.8891067 ], [ -1.3071355, 37.8885416 ], [ -1.3073254, 37.8881929 ], [ -1.3077085, 37.8878469 ], [ -1.3090858, 37.8867943 ], [ -1.3094729, 37.8862771 ], [ -1.309701, 37.8857487 ], [ -1.3099815, 37.8854193 ], [ -1.3105126, 37.8850664 ], [ -1.3120326, 37.8842321 ], [ -1.3123916, 37.8839489 ], [ -1.3127898, 37.8834409 ], [ -1.3134679, 37.8821258 ], [ -1.3142168, 37.880199 ], [ -1.3141773, 37.8779454 ], [ -1.3144481, 37.8775347 ], [ -1.3159898, 37.876241 ], [ -1.3166094, 37.8754929 ], [ -1.3169461, 37.8751823 ], [ -1.3173015, 37.8750522 ], [ -1.3183494, 37.874968 ], [ -1.3193602, 37.8750185 ], [ -1.3202265, 37.8749227 ], [ -1.3207371, 37.8749661 ], [ -1.3211651, 37.8751434 ], [ -1.3217985, 37.8752876 ], [ -1.322437, 37.8752066 ], [ -1.3236285, 37.874809 ], [ -1.3246735, 37.8743462 ], [ -1.3254068, 37.8740953 ], [ -1.3259654, 37.8740312 ], [ -1.3271253, 37.8740206 ], [ -1.3286455, 37.8736637 ], [ -1.3293414, 37.8735564 ], [ -1.33034, 37.8736427 ], [ -1.3319129, 37.8739714 ], [ -1.3322202, 37.8739578 ], [ -1.3324406, 37.8737626 ], [ -1.3331795, 37.8727547 ], [ -1.3339861, 37.8712701 ], [ -1.3348496, 37.870282 ], [ -1.3355066, 37.869381 ], [ -1.3360867, 37.8688575 ], [ -1.3369044, 37.8683915 ], [ -1.3399892, 37.8672004 ], [ -1.3401305, 37.8671866 ], [ -1.3407184, 37.8671295 ], [ -1.34115, 37.8671446 ], [ -1.3414711, 37.867023 ], [ -1.3420417, 37.8664182 ], [ -1.3431173, 37.8650905 ], [ -1.3439886, 37.8642557 ], [ -1.344846, 37.8635287 ], [ -1.3462193, 37.8626108 ], [ -1.34722, 37.8620841 ], [ -1.3482423, 37.8616118 ], [ -1.3507211, 37.8610698 ], [ -1.3513919, 37.8610612 ], [ -1.3518202, 37.8612294 ], [ -1.3525314, 37.8619603 ], [ -1.3529903, 37.8622822 ], [ -1.3535325, 37.8624339 ], [ -1.3541105, 37.8625141 ], [ -1.3548855, 37.8624258 ], [ -1.3555424, 37.8620204 ], [ -1.3566657, 37.8610898 ], [ -1.3573552, 37.860757 ], [ -1.3584178, 37.8605105 ], [ -1.3594334, 37.8603354 ], [ -1.3605352, 37.8603688 ], [ -1.361227, 37.8604415 ], [ -1.363048, 37.859835 ], [ -1.3641733, 37.8599401 ], [ -1.3670032, 37.859443 ], [ -1.3681482, 37.8586543 ], [ -1.368067, 37.8572228 ], [ -1.3694394, 37.8563478 ], [ -1.3703648, 37.8552878 ], [ -1.3689962, 37.8545367 ], [ -1.3681731, 37.854085 ], [ -1.3682822, 37.852577 ], [ -1.3690969, 37.8514261 ], [ -1.3711473, 37.8504711 ], [ -1.3726381, 37.8493295 ], [ -1.3742259, 37.8489045 ], [ -1.375596, 37.8481188 ], [ -1.3754177, 37.8459708 ], [ -1.3751053, 37.8422077 ], [ -1.3748909, 37.8396247 ], [ -1.3762801, 37.8374898 ], [ -1.3777647, 37.8366162 ], [ -1.3781498, 37.834476 ], [ -1.3779616, 37.8327748 ], [ -1.3784573, 37.8307254 ], [ -1.3785043, 37.8285805 ], [ -1.3798819, 37.8274373 ], [ -1.3817974, 37.8274636 ], [ -1.38293, 37.827211 ], [ -1.3838626, 37.8257934 ], [ -1.3831266, 37.8233695 ], [ -1.382132, 37.8224618 ], [ -1.3818272, 37.8209378 ], [ -1.3799686, 37.8183197 ], [ -1.379221, 37.816432 ], [ -1.379359, 37.8152717 ], [ -1.3781472, 37.8140035 ], [ -1.3771354, 37.8129445 ], [ -1.3778796, 37.8107814 ], [ -1.3793715, 37.8095503 ], [ -1.3807529, 37.8084103 ], [ -1.3822677, 37.8059248 ], [ -1.3826875, 37.8021757 ], [ -1.3815285, 37.7984944 ], [ -1.3827114, 37.7959181 ], [ -1.3838108, 37.7919996 ], [ -1.3852109, 37.7897838 ], [ -1.3858187, 37.7877359 ], [ -1.3859936, 37.7848775 ], [ -1.3876012, 37.7834691 ], [ -1.390997, 37.7827109 ], [ -1.3926123, 37.780945 ], [ -1.3942057, 37.7792029 ], [ -1.3963921, 37.7780463 ], [ -1.39791, 37.7755637 ], [ -1.3979717, 37.7727037 ], [ -1.3959701, 37.7715143 ], [ -1.3939145, 37.7702927 ], [ -1.3935512, 37.7687993 ], [ -1.3952941, 37.7663198 ], [ -1.399737, 37.7639664 ], [ -1.4020502, 37.761137 ], [ -1.4078914, 37.7565672 ], [ -1.4106117, 37.7544387 ], [ -1.4093757, 37.7536668 ], [ -1.4072338, 37.7519165 ], [ -1.4063176, 37.7512372 ], [ -1.4049692, 37.7500744 ], [ -1.4012237, 37.7469054 ], [ -1.3948674, 37.7416729 ], [ -1.3757849, 37.7268385 ], [ -1.3693253, 37.7218196 ], [ -1.3685741, 37.7219263 ], [ -1.3675812, 37.7221919 ], [ -1.3654816, 37.7222169 ], [ -1.3646779, 37.7221336 ], [ -1.3645646, 37.7221231 ], [ -1.3625875, 37.7222579 ], [ -1.3560079, 37.722716 ], [ -1.3542558, 37.7229349 ], [ -1.3535388, 37.723033 ], [ -1.341204, 37.7241218 ], [ -1.3391669, 37.7238858 ], [ -1.3380533, 37.7239602 ], [ -1.3335838, 37.7244288 ], [ -1.3291518, 37.7247356 ], [ -1.3258366, 37.7253284 ], [ -1.3241141, 37.7257365 ], [ -1.3205531, 37.7271638 ], [ -1.3195093, 37.7276626 ], [ -1.3171308, 37.7289715 ], [ -1.315196, 37.7297279 ], [ -1.3138498, 37.7300511 ], [ -1.3126655, 37.7302324 ], [ -1.311552, 37.7302976 ], [ -1.3090317, 37.7298559 ], [ -1.3072446, 37.729605 ], [ -1.3060733, 37.7297143 ], [ -1.305216, 37.7299903 ], [ -1.3018617, 37.7312849 ], [ -1.3012898, 37.7314839 ], [ -1.2980292, 37.7326445 ], [ -1.2973771, 37.7328784 ], [ -1.2957773, 37.73336 ], [ -1.2841647, 37.7374633 ], [ -1.2824246, 37.7381228 ], [ -1.2782235, 37.7406661 ], [ -1.2749326, 37.7426096 ], [ -1.2745288, 37.7428921 ], [ -1.2729422, 37.7432834 ], [ -1.2751136, 37.7440993 ], [ -1.2754782, 37.7479528 ], [ -1.2756786, 37.7500736 ], [ -1.277062, 37.7648018 ], [ -1.2826764, 37.7797359 ], [ -1.2894006, 37.7894858 ], [ -1.2883131, 37.8036371 ], [ -1.2877445, 37.8051428 ], [ -1.2866324, 37.8075509 ], [ -1.2866509, 37.8111741 ], [ -1.2865856, 37.8135073 ], [ -1.2865414, 37.8247537 ], [ -1.2804779, 37.833407 ], [ -1.2804307, 37.8334785 ], [ -1.2766944, 37.8382723 ], [ -1.2703107, 37.8464248 ], [ -1.2687103, 37.8482847 ] ] ] } },
{ "type": "Feature", "properties": { "CCAA": "14 - Región de Murcia", "PROVINCIA": "30 - Murcia", "MUNICIPIO": "30008 - Alhama de Murcia", "COD_MUNICIPIO": "30008", "DISTRITO": "01", "SECCION": "3000801008", "V1_H": 80.66, "V1_M": 86.4, "V2_H": 80.5853616, "V2_M": 86.40568132, "V3_H": 80.91378542, "V3_M": 86.56441087 }, "geometry": { "type": "Polygon", "coordinates": [ [ [ -1.393347, 37.8935803 ], [ -1.3942736, 37.894377 ], [ -1.3948042, 37.8950782 ], [ -1.3951376, 37.8954342 ], [ -1.3954656, 37.8960424 ], [ -1.3958198, 37.8964889 ], [ -1.3963137, 37.896793 ], [ -1.3975314, 37.8972782 ], [ -1.3980215, 37.8977536 ], [ -1.3986312, 37.8984828 ], [ -1.3997112, 37.8995519 ], [ -1.4004886, 37.9004187 ], [ -1.4010522, 37.9011743 ], [ -1.4017667, 37.9017969 ], [ -1.4025642, 37.9022583 ], [ -1.4064141, 37.9035812 ], [ -1.409251, 37.9049444 ], [ -1.4103727, 37.9056715 ], [ -1.4106612, 37.9060089 ], [ -1.4132467, 37.9058455 ], [ -1.4187905, 37.9051 ], [ -1.4201564, 37.9050553 ], [ -1.4249579, 37.9044437 ], [ -1.4273315, 37.904079 ], [ -1.4290673, 37.9037507 ], [ -1.4304019, 37.9035703 ], [ -1.4334981, 37.9034493 ], [ -1.4362629, 37.903405 ], [ -1.4397432, 37.9028744 ], [ -1.4420575, 37.9026167 ], [ -1.4485755, 37.9014952 ], [ -1.4509598, 37.9011481 ], [ -1.452607, 37.9007011 ], [ -1.4560627, 37.9002418 ], [ -1.4579102, 37.9000047 ], [ -1.4627873, 37.8995548 ], [ -1.465489, 37.8992567 ], [ -1.4714524, 37.8979735 ], [ -1.472974, 37.8975426 ], [ -1.4762766, 37.8967743 ], [ -1.4769737, 37.8966121 ], [ -1.4779107, 37.8963989 ], [ -1.4795002, 37.8959779 ], [ -1.4807937, 37.895571 ], [ -1.4811305, 37.8954307 ], [ -1.4811323, 37.8954316 ], [ -1.4817334, 37.8953202 ], [ -1.4824454, 37.8952316 ], [ -1.4837774, 37.8945453 ], [ -1.4839749, 37.8944525 ], [ -1.4847921, 37.8940719 ], [ -1.4855296, 37.8937667 ], [ -1.4867761, 37.8932844 ], [ -1.4871006, 37.8931621 ], [ -1.4883006, 37.8927484 ], [ -1.4885975, 37.8926496 ], [ -1.489096, 37.8922531 ], [ -1.4892975, 37.892115 ], [ -1.4895135, 37.8919961 ], [ -1.489687, 37.8918982 ], [ -1.489909, 37.8917866 ], [ -1.4899819, 37.891747 ], [ -1.4908289, 37.8914554 ], [ -1.4924701, 37.8907194 ], [ -1.4937801, 37.8900512 ], [ -1.4944034, 37.8895996 ], [ -1.4950689, 37.8893107 ], [ -1.4974274, 37.8885297 ], [ -1.498443, 37.8883534 ], [ -1.5006388, 37.8877415 ], [ -1.5031492, 37.8873139 ], [ -1.5039334, 37.8873329 ], [ -1.5054645, 37.8875326 ], [ -1.5071565, 37.8876532 ], [ -1.5084648, 37.8876247 ], [ -1.5100705, 37.8875099 ], [ -1.5102071, 37.8875026 ], [ -1.511766, 37.8874502 ], [ -1.5131279, 37.8875846 ], [ -1.5162584, 37.8874168 ], [ -1.5170656, 37.887427 ], [ -1.5179732, 37.8875376 ], [ -1.5209137, 37.8883406 ], [ -1.5215265, 37.8884024 ], [ -1.522085, 37.8883373 ], [ -1.5232551, 37.8883971 ], [ -1.523871, 37.8883057 ], [ -1.5245571, 37.888116 ], [ -1.5249784, 37.8880852 ], [ -1.5273396, 37.8888628 ], [ -1.5279416, 37.8888974 ], [ -1.5298213, 37.8887316 ], [ -1.5310424, 37.8885125 ], [ -1.5316142, 37.8883485 ], [ -1.5324068, 37.8879528 ], [ -1.5330987, 37.8874658 ], [ -1.5339813, 37.8865395 ], [ -1.5346108, 37.8857632 ], [ -1.5350636, 37.8852912 ], [ -1.537181, 37.8851734 ], [ -1.5388628, 37.8852303 ], [ -1.5410692, 37.8852126 ], [ -1.5419231, 37.8851601 ], [ -1.5433635, 37.8853492 ], [ -1.5452325, 37.8857148 ], [ -1.5462511, 37.8859617 ], [ -1.5479148, 37.885784 ], [ -1.5506304, 37.8864753 ], [ -1.5515141, 37.8866394 ], [ -1.5526746, 37.8866086 ], [ -1.557217, 37.8886742 ], [ -1.5575133, 37.8886417 ], [ -1.5587286, 37.8881339 ], [ -1.5592192, 37.8880498 ], [ -1.5602881, 37.8880539 ], [ -1.5613157, 37.8866695 ], [ -1.5645839, 37.8869978 ], [ -1.5648908, 37.8870286 ], [ -1.5584754, 37.8807137 ], [ -1.5382257, 37.8628268 ], [ -1.5342597, 37.8593167 ], [ -1.5209113, 37.8475418 ], [ -1.5111581, 37.838019 ], [ -1.5081637, 37.8349169 ], [ -1.5078117, 37.8343447 ], [ -1.5074222, 37.8339342 ], [ -1.5068532, 37.8334132 ], [ -1.5068422, 37.8333951 ], [ -1.5045616, 37.8309779 ], [ -1.4980322, 37.8246042 ], [ -1.497074, 37.8236727 ], [ -1.496617, 37.8232343 ], [ -1.4898637, 37.8167671 ], [ -1.4893063, 37.8162463 ], [ -1.4872909, 37.8142467 ], [ -1.4865093, 37.8135787 ], [ -1.4817963, 37.8096247 ], [ -1.4682069, 37.8009952 ], [ -1.4653326, 37.7960911 ], [ -1.4640925, 37.7951158 ], [ -1.4617789, 37.793296 ], [ -1.4607396, 37.7924803 ], [ -1.4596654, 37.7917093 ], [ -1.4591034, 37.7913131 ], [ -1.459075, 37.7912536 ], [ -1.4523747, 37.7863394 ], [ -1.4451498, 37.7812654 ], [ -1.4388285, 37.7766989 ], [ -1.4377397, 37.7759023 ], [ -1.435734, 37.7741397 ], [ -1.4346937, 37.7733247 ], [ -1.4330322, 37.7712042 ], [ -1.4320517, 37.7698368 ], [ -1.4303667, 37.7676969 ], [ -1.4280033, 37.7646895 ], [ -1.4250384, 37.7628567 ], [ -1.4213384, 37.7605753 ], [ -1.4168088, 37.7577675 ], [ -1.4130758, 37.7554383 ], [ -1.4129617, 37.755916 ], [ -1.4108654, 37.7545972 ], [ -1.4106117, 37.7544387 ], [ -1.4078914, 37.7565672 ], [ -1.4020502, 37.761137 ], [ -1.399737, 37.7639664 ], [ -1.3952941, 37.7663198 ], [ -1.3935512, 37.7687993 ], [ -1.3939145, 37.7702927 ], [ -1.3959701, 37.7715143 ], [ -1.3979717, 37.7727037 ], [ -1.39791, 37.7755637 ], [ -1.3963921, 37.7780463 ], [ -1.3942057, 37.7792029 ], [ -1.3926123, 37.780945 ], [ -1.390997, 37.7827109 ], [ -1.3876012, 37.7834691 ], [ -1.3859936, 37.7848775 ], [ -1.3858187, 37.7877359 ], [ -1.3852109, 37.7897838 ], [ -1.3838108, 37.7919996 ], [ -1.3827114, 37.7959181 ], [ -1.3815285, 37.7984944 ], [ -1.3826875, 37.8021757 ], [ -1.3822677, 37.8059248 ], [ -1.3807529, 37.8084103 ], [ -1.3793715, 37.8095503 ], [ -1.3778796, 37.8107814 ], [ -1.3771354, 37.8129445 ], [ -1.3781472, 37.8140035 ], [ -1.379359, 37.8152717 ], [ -1.379221, 37.816432 ], [ -1.3799686, 37.8183197 ], [ -1.3818272, 37.8209378 ], [ -1.382132, 37.8224618 ], [ -1.3831266, 37.8233695 ], [ -1.3838626, 37.8257934 ], [ -1.38293, 37.827211 ], [ -1.3817974, 37.8274636 ], [ -1.3798819, 37.8274373 ], [ -1.3785043, 37.8285805 ], [ -1.3784573, 37.8307254 ], [ -1.3779616, 37.8327748 ], [ -1.3781498, 37.834476 ], [ -1.3777647, 37.8366162 ], [ -1.3762801, 37.8374898 ], [ -1.3748909, 37.8396247 ], [ -1.3751053, 37.8422077 ], [ -1.3754177, 37.8459708 ], [ -1.375596, 37.8481188 ], [ -1.3742259, 37.8489045 ], [ -1.3726381, 37.8493295 ], [ -1.3711473, 37.8504711 ], [ -1.3690969, 37.8514261 ], [ -1.3682822, 37.852577 ], [ -1.3681731, 37.854085 ], [ -1.3689962, 37.8545367 ], [ -1.3703648, 37.8552878 ], [ -1.3694394, 37.8563478 ], [ -1.368067, 37.8572228 ], [ -1.3681482, 37.8586543 ], [ -1.3670032, 37.859443 ], [ -1.3641733, 37.8599401 ], [ -1.363048, 37.859835 ], [ -1.361227, 37.8604415 ], [ -1.3609084, 37.8614824 ], [ -1.3603533, 37.862421 ], [ -1.3596054, 37.8633388 ], [ -1.3594347, 37.8648865 ], [ -1.3591118, 37.8666303 ], [ -1.3588606, 37.8671946 ], [ -1.3585707, 37.8674519 ], [ -1.3576429, 37.8677634 ], [ -1.3571397, 37.8679006 ], [ -1.3568168, 37.8681034 ], [ -1.3567299, 37.8684356 ], [ -1.356933, 37.8690152 ], [ -1.3572173, 37.8695238 ], [ -1.3573132, 37.8698135 ], [ -1.3571357, 37.8701265 ], [ -1.3565808, 37.8705423 ], [ -1.3562201, 37.8709158 ], [ -1.3561907, 37.8712128 ], [ -1.3564313, 37.8716397 ], [ -1.3568203, 37.8720417 ], [ -1.3573252, 37.8723461 ], [ -1.3586307, 37.8734548 ], [ -1.3589856, 37.8738563 ], [ -1.359135, 37.8743 ], [ -1.3595258, 37.8746208 ], [ -1.3603586, 37.875002 ], [ -1.3604911, 37.875184 ], [ -1.3609038, 37.8765686 ], [ -1.3611684, 37.8769418 ], [ -1.362354, 37.8773098 ], [ -1.3626452, 37.8775121 ], [ -1.3626701, 37.877927 ], [ -1.3619051, 37.8796106 ], [ -1.3619751, 37.8800442 ], [ -1.3624653, 37.8805016 ], [ -1.3625647, 37.8805653 ], [ -1.3631267, 37.8809254 ], [ -1.3631269, 37.8809255 ], [ -1.363938, 37.8812611 ], [ -1.3646734, 37.8814245 ], [ -1.3660275, 37.8813802 ], [ -1.3665264, 37.8814412 ], [ -1.3676209, 37.8818259 ], [ -1.3683344, 37.8819529 ], [ -1.3697531, 37.8820718 ], [ -1.3702828, 37.8822864 ], [ -1.3708876, 37.8827003 ], [ -1.3728526, 37.8843497 ], [ -1.3736705, 37.8849017 ], [ -1.374446, 37.885318 ], [ -1.3752459, 37.8856534 ], [ -1.3762309, 37.8858473 ], [ -1.3782379, 37.8861092 ], [ -1.3789274, 37.886299 ], [ -1.3794889, 37.8866222 ], [ -1.3799125, 37.8870065 ], [ -1.3804189, 37.8872478 ], [ -1.3813619, 37.8872878 ], [ -1.3826026, 37.8872328 ], [ -1.3835105, 37.8873173 ], [ -1.3843589, 37.8875182 ], [ -1.385839, 37.8884758 ], [ -1.3865158, 37.8887284 ], [ -1.3873313, 37.8888748 ], [ -1.3881608, 37.8889042 ], [ -1.3888733, 37.8890851 ], [ -1.3895036, 37.8893822 ], [ -1.3899625, 37.8897219 ], [ -1.3903378, 37.8902407 ], [ -1.3906983, 37.8909216 ], [ -1.3912265, 37.8917309 ], [ -1.3917586, 37.89236 ], [ -1.3924943, 37.8930459 ], [ -1.393347, 37.8935803 ] ], [ [ -1.4095273, 37.8562983 ], [ -1.4109393, 37.8581592 ], [ -1.4094307, 37.8588624 ], [ -1.407495, 37.8562818 ], [ -1.4028812, 37.8586312 ], [ -1.402387, 37.8578242 ], [ -1.4037632, 37.8568452 ], [ -1.4028393, 37.8560872 ], [ -1.4025049, 37.8562032 ], [ -1.4014865, 37.8559811 ], [ -1.4034077, 37.8547354 ], [ -1.4049088, 37.8537361 ], [ -1.4073084, 37.8524037 ], [ -1.4076382, 37.8528412 ], [ -1.4078162, 37.8529203 ], [ -1.4080793, 37.852902 ], [ -1.408748, 37.8526698 ], [ -1.4091103, 37.8525432 ], [ -1.4099183, 37.8522581 ], [ -1.4106144, 37.8520372 ], [ -1.4116654, 37.8520295 ], [ -1.4127272, 37.8521644 ], [ -1.4132284, 37.8520067 ], [ -1.4142206, 37.8515158 ], [ -1.4142113, 37.8506605 ], [ -1.4139097, 37.8505358 ], [ -1.413012, 37.8504908 ], [ -1.4127962, 37.8502358 ], [ -1.4124741, 37.8504288 ], [ -1.4120444, 37.8504778 ], [ -1.4116264, 37.8506256 ], [ -1.411407, 37.8504969 ], [ -1.4136771, 37.8494406 ], [ -1.4142893, 37.8490844 ], [ -1.4145784, 37.8489567 ], [ -1.4150922, 37.8487408 ], [ -1.4164323, 37.8481261 ], [ -1.4168373, 37.8479366 ], [ -1.4178011, 37.8475149 ], [ -1.418848, 37.8470801 ], [ -1.4199538, 37.8465414 ], [ -1.4205823, 37.8462656 ], [ -1.4219358, 37.8456105 ], [ -1.4234743, 37.8448299 ], [ -1.4242627, 37.8444299 ], [ -1.4252383, 37.8437996 ], [ -1.4262161, 37.8430646 ], [ -1.4267326, 37.8423038 ], [ -1.4273553, 37.8413864 ], [ -1.4275872, 37.8410447 ], [ -1.4278848, 37.8410699 ], [ -1.4285752, 37.8412102 ], [ -1.4292169, 37.841442 ], [ -1.4299488, 37.8418488 ], [ -1.4302882, 37.8420767 ], [ -1.43056, 37.8417025 ], [ -1.4311259, 37.8412753 ], [ -1.4317673, 37.8409237 ], [ -1.4323396, 37.8405984 ], [ -1.4330565, 37.8403227 ], [ -1.4335145, 37.8401385 ], [ -1.4341751, 37.8396921 ], [ -1.43512, 37.8403773 ], [ -1.4355337, 37.8406681 ], [ -1.4356073, 37.8408322 ], [ -1.435258, 37.8411468 ], [ -1.4351089, 37.8413079 ], [ -1.4352752, 37.8415479 ], [ -1.4355795, 37.8417422 ], [ -1.4356342, 37.8419942 ], [ -1.4348688, 37.8425344 ], [ -1.434813, 37.8427443 ], [ -1.4346979, 37.8429194 ], [ -1.4345319, 37.8430735 ], [ -1.434331, 37.8432542 ], [ -1.4341638, 37.8434626 ], [ -1.4335755, 37.844141 ], [ -1.4337445, 37.8442519 ], [ -1.4314379, 37.8463614 ], [ -1.4308748, 37.8473772 ], [ -1.4321489, 37.8479539 ], [ -1.4319216, 37.8482216 ], [ -1.4320444, 37.8483609 ], [ -1.4317119, 37.8485452 ], [ -1.432439, 37.8494487 ], [ -1.4326379, 37.849384 ], [ -1.4327174, 37.8493876 ], [ -1.4329934, 37.8492798 ], [ -1.4331802, 37.849176 ], [ -1.4333484, 37.8490113 ], [ -1.4346467, 37.8494399 ], [ -1.4361076, 37.8490479 ], [ -1.4374817, 37.8488358 ], [ -1.4384862, 37.8484378 ], [ -1.4393049, 37.8489752 ], [ -1.4402899, 37.8504856 ], [ -1.437785, 37.8511765 ], [ -1.4365119, 37.8515215 ], [ -1.4353126, 37.8517383 ], [ -1.4361941, 37.8535938 ], [ -1.4363375, 37.8538278 ], [ -1.4346546, 37.8544003 ], [ -1.4360008, 37.8557548 ], [ -1.436686, 37.8576777 ], [ -1.4352891, 37.8581046 ], [ -1.4350473, 37.8581014 ], [ -1.4352716, 37.8562261 ], [ -1.434167, 37.8545811 ], [ -1.4333898, 37.85491 ], [ -1.4335433, 37.8551753 ], [ -1.4330108, 37.8553707 ], [ -1.4337462, 37.8561146 ], [ -1.4322885, 37.8567129 ], [ -1.4320267, 37.8564512 ], [ -1.4318434, 37.8560893 ], [ -1.4317845, 37.8558657 ], [ -1.431814, 37.8553776 ], [ -1.4314531, 37.855436 ], [ -1.4311997, 37.8555264 ], [ -1.4308249, 37.8556404 ], [ -1.4306385, 37.8557214 ], [ -1.4305134, 37.8557704 ], [ -1.4302747, 37.8558494 ], [ -1.4299864, 37.8559367 ], [ -1.4297491, 37.8560197 ], [ -1.4294005, 37.8561011 ], [ -1.4292819, 37.8561425 ], [ -1.4287944, 37.8563132 ], [ -1.4283989, 37.8564332 ], [ -1.42796, 37.8565691 ], [ -1.4277203, 37.8566139 ], [ -1.4273169, 37.856725 ], [ -1.426904, 37.8568309 ], [ -1.4268287, 37.8568514 ], [ -1.4255342, 37.8578568 ], [ -1.423973, 37.8576334 ], [ -1.4254085, 37.8557388 ], [ -1.4257409, 37.8553 ], [ -1.4242791, 37.8549007 ], [ -1.4247803, 37.8528823 ], [ -1.4231495, 37.853462 ], [ -1.4222719, 37.8537388 ], [ -1.4218854, 37.8541675 ], [ -1.4214858, 37.8543267 ], [ -1.4213496, 37.8545193 ], [ -1.4212147, 37.8546522 ], [ -1.4207479, 37.8553042 ], [ -1.4205535, 37.8555709 ], [ -1.4199749, 37.8561616 ], [ -1.4191706, 37.8546816 ], [ -1.4168365, 37.8555602 ], [ -1.4166943, 37.8553608 ], [ -1.4164593, 37.8550362 ], [ -1.416361, 37.8548728 ], [ -1.4161898, 37.8546237 ], [ -1.4160665, 37.8544321 ], [ -1.4160174, 37.8543454 ], [ -1.4159534, 37.8542105 ], [ -1.4158707, 37.8540651 ], [ -1.4157557, 37.8539344 ], [ -1.4156275, 37.8538263 ], [ -1.4152304, 37.8540247 ], [ -1.4149437, 37.8541824 ], [ -1.4148888, 37.8542125 ], [ -1.4148373, 37.8542422 ], [ -1.4147186, 37.8542837 ], [ -1.4152205, 37.8549233 ], [ -1.4141341, 37.8554251 ], [ -1.4141089, 37.8553349 ], [ -1.4140831, 37.8552029 ], [ -1.4140625, 37.8551266 ], [ -1.4140386, 37.8550529 ], [ -1.4139306, 37.8548945 ], [ -1.413853, 37.8548048 ], [ -1.4137831, 37.8547989 ], [ -1.4134681, 37.8549414 ], [ -1.4133205, 37.855083 ], [ -1.4134225, 37.8554201 ], [ -1.4124721, 37.8557863 ], [ -1.4120491, 37.8550731 ], [ -1.4116744, 37.8552526 ], [ -1.4101304, 37.8560115 ], [ -1.4095273, 37.8562983 ] ] ] } }
]
}
