{
"type": "FeatureCollection",
"name": "30009",
"features": [
{ "type": "Feature", "properties": { "CCAA": "14 - Región de Murcia", "PROVINCIA": "30 - Murcia", "MUNICIPIO": "30009 - Archena", "COD_MUNICIPIO": "30009", "DISTRITO": "01", "SECCION": "3000901002", "V1_H": 79.19, "V1_M": 85.12, "V2_H": 79.38537767, "V2_M": 85.11224236, "V3_H": 79.115857, "V3_M": 85.3484756 }, "geometry": { "type": "Polygon", "coordinates": [ [ [ -1.266552, 38.129208 ], [ -1.2658945, 38.1317126 ], [ -1.2658373, 38.131928 ], [ -1.2656615, 38.1326103 ], [ -1.2657663, 38.1329993 ], [ -1.2662087, 38.1335916 ], [ -1.2668679, 38.1341781 ], [ -1.2679138, 38.135302 ], [ -1.2685672, 38.1361407 ], [ -1.2696596, 38.1372292 ], [ -1.2713602, 38.13866 ], [ -1.2735578, 38.1402872 ], [ -1.2735581, 38.1402874 ], [ -1.2735582, 38.1402855 ], [ -1.2736345, 38.1386845 ], [ -1.2736484, 38.1383963 ], [ -1.2748855, 38.1372249 ], [ -1.2762414, 38.135848 ], [ -1.2767309, 38.1354137 ], [ -1.2771122, 38.135212 ], [ -1.2780337, 38.134838 ], [ -1.2813133, 38.1331648 ], [ -1.2860752, 38.1310355 ], [ -1.286536, 38.1308439 ], [ -1.2868154, 38.1306047 ], [ -1.2872737, 38.1300347 ], [ -1.2876471, 38.1296796 ], [ -1.2881683, 38.1293448 ], [ -1.2909622, 38.1284212 ], [ -1.2918774, 38.1278217 ], [ -1.2924647, 38.1271003 ], [ -1.2931497, 38.1261009 ], [ -1.2937683, 38.1250105 ], [ -1.2941207, 38.1245741 ], [ -1.2941207, 38.124574 ], [ -1.29303, 38.1231235 ], [ -1.2922641, 38.1208 ], [ -1.2924222, 38.1202301 ], [ -1.2924656, 38.1197647 ], [ -1.2924666, 38.1197623 ], [ -1.2927697, 38.1187854 ], [ -1.2925734, 38.117886 ], [ -1.2935775, 38.1162411 ], [ -1.2940301, 38.1154656 ], [ -1.2938945, 38.115114 ], [ -1.293899, 38.1142293 ], [ -1.2939188, 38.1129843 ], [ -1.2933596, 38.1121178 ], [ -1.2920585, 38.1105593 ], [ -1.2889911, 38.1105302 ], [ -1.2883992, 38.1105861 ], [ -1.2879883, 38.1106202 ], [ -1.2875446, 38.11062 ], [ -1.2872398, 38.1106897 ], [ -1.2869548, 38.1108346 ], [ -1.2861655, 38.1113073 ], [ -1.2862571, 38.1113395 ], [ -1.2775482, 38.1174838 ], [ -1.2688426, 38.1203097 ], [ -1.2687755, 38.1205715 ], [ -1.266552, 38.129208 ] ] ] } },
{ "type": "Feature", "properties": { "CCAA": "14 - Región de Murcia", "PROVINCIA": "30 - Murcia", "MUNICIPIO": "30009 - Archena", "COD_MUNICIPIO": "30009", "DISTRITO": "01", "SECCION": "3000901006", "V1_H": 79.81, "V1_M": 85.63, "V2_H": 79.83092799000001, "V2_M": 85.85143097, "V3_H": 80.00184088, "V3_M": 85.62912109 }, "geometry": { "type": "Polygon", "coordinates": [ [ [ -1.3024177, 38.1146881 ], [ -1.3027348, 38.1147772 ], [ -1.3032187, 38.1149269 ], [ -1.3033128, 38.1149594 ], [ -1.303811, 38.115131 ], [ -1.3039133, 38.115169 ], [ -1.304039, 38.1150987 ], [ -1.3045064, 38.1147257 ], [ -1.3047515, 38.1144502 ], [ -1.304934, 38.1142671 ], [ -1.30501, 38.1142113 ], [ -1.3052639, 38.1140566 ], [ -1.3052539, 38.1140441 ], [ -1.3048687, 38.1135658 ], [ -1.3041891, 38.1127163 ], [ -1.3041827, 38.1126834 ], [ -1.3055434, 38.1119544 ], [ -1.3039529, 38.1110468 ], [ -1.3031602, 38.1098313 ], [ -1.302719, 38.1092026 ], [ -1.2968158, 38.107369 ], [ -1.2964458, 38.1072541 ], [ -1.2976427, 38.1090957 ], [ -1.2971636, 38.1093545 ], [ -1.2971659, 38.1093583 ], [ -1.2973428, 38.1096426 ], [ -1.2976029, 38.1101086 ], [ -1.297693, 38.11026 ], [ -1.2978575, 38.1105703 ], [ -1.2979514, 38.1107466 ], [ -1.2981049, 38.1110157 ], [ -1.2982261, 38.1111965 ], [ -1.2984543, 38.1115113 ], [ -1.298649, 38.1117924 ], [ -1.2989551, 38.1122376 ], [ -1.2988173, 38.1123557 ], [ -1.2986172, 38.112544 ], [ -1.2983522, 38.1126961 ], [ -1.2984012, 38.1127582 ], [ -1.2984283, 38.1127881 ], [ -1.298651, 38.112743 ], [ -1.2987896, 38.1127178 ], [ -1.2989532, 38.1127413 ], [ -1.2990855, 38.1128143 ], [ -1.2990254, 38.1130379 ], [ -1.2990127, 38.1131195 ], [ -1.2990274, 38.1131553 ], [ -1.299109, 38.1131725 ], [ -1.2991863, 38.1131901 ], [ -1.2992298, 38.1132423 ], [ -1.2992704, 38.1132995 ], [ -1.2993016, 38.1133426 ], [ -1.2994648, 38.1132909 ], [ -1.2995352, 38.1133854 ], [ -1.299576, 38.1134515 ], [ -1.2996388, 38.1135525 ], [ -1.2996498, 38.1135965 ], [ -1.2997165, 38.1136839 ], [ -1.2998561, 38.1138378 ], [ -1.299877, 38.1138638 ], [ -1.3000755, 38.1140981 ], [ -1.3002957, 38.1143541 ], [ -1.3005966, 38.1147068 ], [ -1.3007603, 38.114653 ], [ -1.3008023, 38.1146431 ], [ -1.3009604, 38.1146711 ], [ -1.3010808, 38.1146944 ], [ -1.3011651, 38.1147067 ], [ -1.3014778, 38.1147246 ], [ -1.3015737, 38.1147235 ], [ -1.3017005, 38.1147149 ], [ -1.3019972, 38.114689 ], [ -1.3023382, 38.1146645 ], [ -1.3024034, 38.1146844 ], [ -1.3024177, 38.1146881 ] ] ] } },
{ "type": "Feature", "properties": { "CCAA": "14 - Región de Murcia", "PROVINCIA": "30 - Murcia", "MUNICIPIO": "30009 - Archena", "COD_MUNICIPIO": "30009", "DISTRITO": "01", "SECCION": "3000901008", "V1_H": 79.68, "V1_M": 85.47, "V2_H": 79.93758061, "V2_M": 85.65037312, "V3_H": 79.53414521000001, "V3_M": 85.4025844 }, "geometry": { "type": "Polygon", "coordinates": [ [ [ -1.2968158, 38.107369 ], [ -1.302719, 38.1092026 ], [ -1.3031602, 38.1098313 ], [ -1.3039529, 38.1110468 ], [ -1.3055434, 38.1119544 ], [ -1.3041827, 38.1126834 ], [ -1.3041891, 38.1127163 ], [ -1.3048687, 38.1135658 ], [ -1.3052539, 38.1140441 ], [ -1.3053051, 38.1140408 ], [ -1.305739, 38.1138087 ], [ -1.305878, 38.1138011 ], [ -1.306017, 38.1137936 ], [ -1.3063315, 38.1137648 ], [ -1.3065926, 38.113697 ], [ -1.3078431, 38.1133907 ], [ -1.3087608, 38.1131178 ], [ -1.3090722, 38.1135637 ], [ -1.3090949, 38.1135494 ], [ -1.3093793, 38.1138815 ], [ -1.3094164, 38.1139248 ], [ -1.3096748, 38.1137568 ], [ -1.3096923, 38.1137727 ], [ -1.3097495, 38.1136924 ], [ -1.3134635, 38.111247 ], [ -1.3146547, 38.1125988 ], [ -1.3146568, 38.1126013 ], [ -1.314852, 38.1128227 ], [ -1.315757, 38.1123599 ], [ -1.3163729, 38.111864 ], [ -1.3171134, 38.111406 ], [ -1.3185171, 38.1108765 ], [ -1.318999, 38.1097569 ], [ -1.3194026, 38.1090687 ], [ -1.3209031, 38.1072968 ], [ -1.321274, 38.1055448 ], [ -1.3215602, 38.1049992 ], [ -1.3219594, 38.1045002 ], [ -1.3220182, 38.10442 ], [ -1.3237564, 38.1027235 ], [ -1.3226661, 38.0970395 ], [ -1.3228317, 38.0967805 ], [ -1.3231577, 38.0964878 ], [ -1.3246, 38.0957494 ], [ -1.3253154, 38.0953831 ], [ -1.3255852, 38.0900609 ], [ -1.32473, 38.0900569 ], [ -1.3208764, 38.0900388 ], [ -1.3172406, 38.0899537 ], [ -1.3169107, 38.089946 ], [ -1.3169104, 38.089946 ], [ -1.3138019, 38.0897663 ], [ -1.3138016, 38.0897662 ], [ -1.3073737, 38.0866639 ], [ -1.3064263, 38.0862177 ], [ -1.3047695, 38.086383 ], [ -1.3038849, 38.0871633 ], [ -1.3032268, 38.0880099 ], [ -1.3024814, 38.0886841 ], [ -1.3006634, 38.0898834 ], [ -1.2993494, 38.0904952 ], [ -1.2962998, 38.0916947 ], [ -1.295851, 38.0918684 ], [ -1.2957934, 38.0918946 ], [ -1.2948456, 38.0919529 ], [ -1.2942047, 38.0920517 ], [ -1.2936834, 38.0924047 ], [ -1.2930069, 38.0930527 ], [ -1.2926393, 38.0936602 ], [ -1.2923591, 38.0944311 ], [ -1.2921844, 38.0955641 ], [ -1.2921151, 38.0965814 ], [ -1.292102, 38.0966533 ], [ -1.2917474, 38.0973875 ], [ -1.2916827, 38.0975213 ], [ -1.2911054, 38.098315 ], [ -1.2902621, 38.099267 ], [ -1.2894893, 38.0996432 ], [ -1.2878665, 38.1002775 ], [ -1.2809127, 38.1026614 ], [ -1.282441, 38.1025833 ], [ -1.2839085, 38.1027955 ], [ -1.2844899, 38.1027086 ], [ -1.2855334, 38.1024759 ], [ -1.287063, 38.1020976 ], [ -1.2881851, 38.1015989 ], [ -1.2911043, 38.1006305 ], [ -1.2917335, 38.1005633 ], [ -1.2944313, 38.1008123 ], [ -1.2957335, 38.1008694 ], [ -1.2969602, 38.1010589 ], [ -1.2981484, 38.1029073 ], [ -1.2996591, 38.105428 ], [ -1.2995557, 38.1067617 ], [ -1.29822, 38.1071048 ], [ -1.2968158, 38.107369 ] ] ] } },
{ "type": "Feature", "properties": { "CCAA": "14 - Región de Murcia", "PROVINCIA": "30 - Murcia", "MUNICIPIO": "30009 - Archena", "COD_MUNICIPIO": "30009", "DISTRITO": "01", "SECCION": "3000901003", "V1_H": 79.33, "V1_M": 85.14, "V2_H": 79.29974376, "V2_M": 85.20981541, "V3_H": 79.50065775, "V3_M": 85.33298389 }, "geometry": { "type": "Polygon", "coordinates": [ [ [ -1.2967465, 38.1151568 ], [ -1.2970039, 38.1151348 ], [ -1.2970332, 38.1151203 ], [ -1.2973588, 38.1149617 ], [ -1.2975376, 38.1148466 ], [ -1.2979265, 38.1146102 ], [ -1.2980665, 38.1145322 ], [ -1.2980914, 38.1145523 ], [ -1.2981879, 38.1146488 ], [ -1.2982399, 38.1147004 ], [ -1.298326, 38.1147837 ], [ -1.2984357, 38.1150115 ], [ -1.2982499, 38.1150689 ], [ -1.2982193, 38.1151522 ], [ -1.2982012, 38.1151953 ], [ -1.2982987, 38.1152442 ], [ -1.2984837, 38.1153093 ], [ -1.2985861, 38.1153557 ], [ -1.2986468, 38.1154139 ], [ -1.2986891, 38.1154532 ], [ -1.2987638, 38.1155053 ], [ -1.2988878, 38.1155878 ], [ -1.2990069, 38.1156584 ], [ -1.2991892, 38.115766 ], [ -1.2993259, 38.1158531 ], [ -1.2995968, 38.1160642 ], [ -1.2997576, 38.1161789 ], [ -1.299879, 38.1162323 ], [ -1.3002794, 38.1163922 ], [ -1.3004305, 38.1164489 ], [ -1.3005792, 38.1162984 ], [ -1.3009301, 38.1159423 ], [ -1.3009769, 38.1159785 ], [ -1.3010395, 38.1159281 ], [ -1.3011217, 38.1158616 ], [ -1.3013475, 38.1156811 ], [ -1.3014117, 38.115637 ], [ -1.3014939, 38.115566 ], [ -1.3015254, 38.115538 ], [ -1.3015123, 38.1155085 ], [ -1.3016576, 38.1153956 ], [ -1.3016902, 38.1153795 ], [ -1.3018465, 38.1153106 ], [ -1.3019016, 38.1152799 ], [ -1.3019278, 38.1152535 ], [ -1.3017641, 38.1151151 ], [ -1.3016869, 38.1150481 ], [ -1.302266, 38.1147629 ], [ -1.3024177, 38.1146881 ], [ -1.3024034, 38.1146844 ], [ -1.3023382, 38.1146645 ], [ -1.3019972, 38.114689 ], [ -1.3017005, 38.1147149 ], [ -1.3015737, 38.1147235 ], [ -1.3014778, 38.1147246 ], [ -1.3011651, 38.1147067 ], [ -1.3010808, 38.1146944 ], [ -1.3009604, 38.1146711 ], [ -1.3008023, 38.1146431 ], [ -1.3007603, 38.114653 ], [ -1.3005966, 38.1147068 ], [ -1.3002957, 38.1143541 ], [ -1.3000755, 38.1140981 ], [ -1.299877, 38.1138638 ], [ -1.2998561, 38.1138378 ], [ -1.2997165, 38.1136839 ], [ -1.2996498, 38.1135965 ], [ -1.2996388, 38.1135525 ], [ -1.299576, 38.1134515 ], [ -1.2995352, 38.1133854 ], [ -1.2994648, 38.1132909 ], [ -1.2993016, 38.1133426 ], [ -1.2992704, 38.1132995 ], [ -1.2992298, 38.1132423 ], [ -1.2991863, 38.1131901 ], [ -1.299109, 38.1131725 ], [ -1.2990274, 38.1131553 ], [ -1.2990127, 38.1131195 ], [ -1.2990254, 38.1130379 ], [ -1.2990855, 38.1128143 ], [ -1.2989532, 38.1127413 ], [ -1.2987896, 38.1127178 ], [ -1.298651, 38.112743 ], [ -1.2984283, 38.1127881 ], [ -1.2984012, 38.1127582 ], [ -1.2983522, 38.1126961 ], [ -1.2986172, 38.112544 ], [ -1.2988173, 38.1123557 ], [ -1.2989551, 38.1122376 ], [ -1.298649, 38.1117924 ], [ -1.2984543, 38.1115113 ], [ -1.2982261, 38.1111965 ], [ -1.2981049, 38.1110157 ], [ -1.2979514, 38.1107466 ], [ -1.2978575, 38.1105703 ], [ -1.297693, 38.11026 ], [ -1.2976029, 38.1101086 ], [ -1.2973428, 38.1096426 ], [ -1.2971659, 38.1093583 ], [ -1.2971636, 38.1093545 ], [ -1.2976427, 38.1090957 ], [ -1.2964458, 38.1072541 ], [ -1.296259, 38.1073434 ], [ -1.295811, 38.1070569 ], [ -1.2959909, 38.107454 ], [ -1.2958023, 38.1070651 ], [ -1.2955538, 38.1075621 ], [ -1.2948969, 38.1077815 ], [ -1.2929713, 38.1085737 ], [ -1.2918912, 38.1093401 ], [ -1.2915163, 38.1098878 ], [ -1.2913828, 38.110439 ], [ -1.2920585, 38.1105593 ], [ -1.2933596, 38.1121178 ], [ -1.2939188, 38.1129843 ], [ -1.293899, 38.1142293 ], [ -1.2938945, 38.115114 ], [ -1.2961514, 38.1151454 ], [ -1.2966686, 38.1151634 ], [ -1.2967465, 38.1151568 ] ] ] } },
{ "type": "Feature", "properties": { "CCAA": "14 - Región de Murcia", "PROVINCIA": "30 - Murcia", "MUNICIPIO": "30009 - Archena", "COD_MUNICIPIO": "30009", "DISTRITO": "01", "SECCION": "3000901005", "V1_H": 79.35, "V1_M": 85.2, "V2_H": 79.29922448000001, "V2_M": 85.22530012, "V3_H": 79.59037894, "V3_M": 85.4114479 }, "geometry": { "type": "Polygon", "coordinates": [ [ [ -1.2987623, 38.1175238 ], [ -1.2988844, 38.1175363 ], [ -1.2992538, 38.1175823 ], [ -1.2998142, 38.1176933 ], [ -1.3008029, 38.1178644 ], [ -1.3013568, 38.1179658 ], [ -1.3019956, 38.1180822 ], [ -1.3020022, 38.1180721 ], [ -1.3028069, 38.1168402 ], [ -1.3028916, 38.1166985 ], [ -1.3031, 38.1163842 ], [ -1.3034057, 38.1159232 ], [ -1.3039133, 38.115169 ], [ -1.303811, 38.115131 ], [ -1.3033128, 38.1149594 ], [ -1.3032187, 38.1149269 ], [ -1.3027348, 38.1147772 ], [ -1.3024177, 38.1146881 ], [ -1.302266, 38.1147629 ], [ -1.3016869, 38.1150481 ], [ -1.3017641, 38.1151151 ], [ -1.3019278, 38.1152535 ], [ -1.3019016, 38.1152799 ], [ -1.3018465, 38.1153106 ], [ -1.3016902, 38.1153795 ], [ -1.3016576, 38.1153956 ], [ -1.3015123, 38.1155085 ], [ -1.3015254, 38.115538 ], [ -1.3014939, 38.115566 ], [ -1.3014117, 38.115637 ], [ -1.3013475, 38.1156811 ], [ -1.3011217, 38.1158616 ], [ -1.3010395, 38.1159281 ], [ -1.3009769, 38.1159785 ], [ -1.3009301, 38.1159423 ], [ -1.3005792, 38.1162984 ], [ -1.3004305, 38.1164489 ], [ -1.3002794, 38.1163922 ], [ -1.299879, 38.1162323 ], [ -1.2997576, 38.1161789 ], [ -1.2995968, 38.1160642 ], [ -1.2993259, 38.1158531 ], [ -1.2991892, 38.115766 ], [ -1.2990069, 38.1156584 ], [ -1.2988878, 38.1155878 ], [ -1.2987638, 38.1155053 ], [ -1.2986891, 38.1154532 ], [ -1.2986468, 38.1154139 ], [ -1.2985861, 38.1153557 ], [ -1.2984837, 38.1153093 ], [ -1.2982987, 38.1152442 ], [ -1.2982012, 38.1151953 ], [ -1.2982193, 38.1151522 ], [ -1.2982499, 38.1150689 ], [ -1.2984357, 38.1150115 ], [ -1.298326, 38.1147837 ], [ -1.2982399, 38.1147004 ], [ -1.2981879, 38.1146488 ], [ -1.2980914, 38.1145523 ], [ -1.2980665, 38.1145322 ], [ -1.2979265, 38.1146102 ], [ -1.2975376, 38.1148466 ], [ -1.2973588, 38.1149617 ], [ -1.2970332, 38.1151203 ], [ -1.2970039, 38.1151348 ], [ -1.2967465, 38.1151568 ], [ -1.2967508, 38.1152042 ], [ -1.2967111, 38.1152528 ], [ -1.2967787, 38.1153082 ], [ -1.2968583, 38.1153782 ], [ -1.2969403, 38.1154568 ], [ -1.2969052, 38.1154858 ], [ -1.2970616, 38.115604 ], [ -1.2970985, 38.1156173 ], [ -1.2972529, 38.1157923 ], [ -1.2971255, 38.1158411 ], [ -1.297271, 38.1160496 ], [ -1.2973278, 38.1160972 ], [ -1.2974587, 38.1162036 ], [ -1.2975095, 38.1162134 ], [ -1.2975228, 38.1162508 ], [ -1.2975623, 38.1163122 ], [ -1.2975946, 38.1163381 ], [ -1.2976439, 38.1163749 ], [ -1.2977348, 38.1164375 ], [ -1.2977792, 38.1164479 ], [ -1.2978641, 38.1165073 ], [ -1.298015, 38.1166336 ], [ -1.2981116, 38.1167202 ], [ -1.2983088, 38.1168897 ], [ -1.2984472, 38.1170351 ], [ -1.2985579, 38.1171504 ], [ -1.2986574, 38.117217 ], [ -1.2987379, 38.1174059 ], [ -1.2987623, 38.1175238 ] ] ] } },
{ "type": "Feature", "properties": { "CCAA": "14 - Región de Murcia", "PROVINCIA": "30 - Murcia", "MUNICIPIO": "30009 - Archena", "COD_MUNICIPIO": "30009", "DISTRITO": "01", "SECCION": "3000901001", "V1_H": 79.86, "V1_M": 85.62, "V2_H": 79.74592797, "V2_M": 85.80311169, "V3_H": 80.14073418, "V3_M": 85.57864485 }, "geometry": { "type": "Polygon", "coordinates": [ [ [ -1.2770249, 38.1039941 ], [ -1.2771827, 38.1040775 ], [ -1.277133, 38.1042479 ], [ -1.2771719, 38.1045369 ], [ -1.2775781, 38.1052097 ], [ -1.2779941, 38.1059458 ], [ -1.2782775, 38.1067998 ], [ -1.2783456, 38.1070053 ], [ -1.2786315, 38.1074601 ], [ -1.2787409, 38.1076599 ], [ -1.2777924, 38.1077362 ], [ -1.276002, 38.1077279 ], [ -1.2756101, 38.1076667 ], [ -1.2753656, 38.1076285 ], [ -1.273218, 38.1068039 ], [ -1.2727546, 38.1066259 ], [ -1.2723815, 38.1064852 ], [ -1.2722806, 38.1068983 ], [ -1.2718927, 38.1083525 ], [ -1.2718424, 38.10855 ], [ -1.2706029, 38.1132269 ], [ -1.2700068, 38.1157684 ], [ -1.2688426, 38.1203097 ], [ -1.2775482, 38.1174838 ], [ -1.2862571, 38.1113395 ], [ -1.2861655, 38.1113073 ], [ -1.2869548, 38.1108346 ], [ -1.2872398, 38.1106897 ], [ -1.2875446, 38.11062 ], [ -1.2879883, 38.1106202 ], [ -1.2883992, 38.1105861 ], [ -1.2889911, 38.1105302 ], [ -1.2920585, 38.1105593 ], [ -1.2913828, 38.110439 ], [ -1.2915163, 38.1098878 ], [ -1.2918912, 38.1093401 ], [ -1.2929713, 38.1085737 ], [ -1.2948969, 38.1077815 ], [ -1.2955538, 38.1075621 ], [ -1.2958023, 38.1070651 ], [ -1.2959909, 38.107454 ], [ -1.295811, 38.1070569 ], [ -1.296259, 38.1073434 ], [ -1.2964458, 38.1072541 ], [ -1.2968158, 38.107369 ], [ -1.29822, 38.1071048 ], [ -1.2995557, 38.1067617 ], [ -1.2996591, 38.105428 ], [ -1.2981484, 38.1029073 ], [ -1.2969602, 38.1010589 ], [ -1.2957335, 38.1008694 ], [ -1.2944313, 38.1008123 ], [ -1.2917335, 38.1005633 ], [ -1.2911043, 38.1006305 ], [ -1.2881851, 38.1015989 ], [ -1.287063, 38.1020976 ], [ -1.2855334, 38.1024759 ], [ -1.2844899, 38.1027086 ], [ -1.2839085, 38.1027955 ], [ -1.282441, 38.1025833 ], [ -1.2809127, 38.1026614 ], [ -1.2770249, 38.1039941 ] ] ] } },
{ "type": "Feature", "properties": { "CCAA": "14 - Región de Murcia", "PROVINCIA": "30 - Murcia", "MUNICIPIO": "30009 - Archena", "COD_MUNICIPIO": "30009", "DISTRITO": "01", "SECCION": "3000901011", "V1_H": 79.83, "V1_M": 85.66, "V2_H": 79.86201885, "V2_M": 85.75249, "V3_H": 79.86616026, "V3_M": 85.80070523000001 }, "geometry": { "type": "Polygon", "coordinates": [ [ [ -1.3020022, 38.1180721 ], [ -1.3027636, 38.1182796 ], [ -1.3034175, 38.1178834 ], [ -1.3036626, 38.1177248 ], [ -1.3037486, 38.1176593 ], [ -1.3038476, 38.117687 ], [ -1.3037972, 38.1176481 ], [ -1.3046585, 38.117049 ], [ -1.3046167, 38.1170311 ], [ -1.3049682, 38.1168615 ], [ -1.3053738, 38.1165526 ], [ -1.3062934, 38.1159364 ], [ -1.3093793, 38.1138815 ], [ -1.3090949, 38.1135494 ], [ -1.3090722, 38.1135637 ], [ -1.3087608, 38.1131178 ], [ -1.3078431, 38.1133907 ], [ -1.3065926, 38.113697 ], [ -1.3063315, 38.1137648 ], [ -1.306017, 38.1137936 ], [ -1.305878, 38.1138011 ], [ -1.305739, 38.1138087 ], [ -1.3053051, 38.1140408 ], [ -1.3052539, 38.1140441 ], [ -1.3052639, 38.1140566 ], [ -1.30501, 38.1142113 ], [ -1.304934, 38.1142671 ], [ -1.3047515, 38.1144502 ], [ -1.3045064, 38.1147257 ], [ -1.304039, 38.1150987 ], [ -1.3039133, 38.115169 ], [ -1.3034057, 38.1159232 ], [ -1.3031, 38.1163842 ], [ -1.3028916, 38.1166985 ], [ -1.3028069, 38.1168402 ], [ -1.3020022, 38.1180721 ] ] ] } },
{ "type": "Feature", "properties": { "CCAA": "14 - Región de Murcia", "PROVINCIA": "30 - Murcia", "MUNICIPIO": "30009 - Archena", "COD_MUNICIPIO": "30009", "DISTRITO": "01", "SECCION": "3000901004", "V1_H": 79.96, "V1_M": 85.86, "V2_H": 79.90630759, "V2_M": 85.80766239, "V3_H": 80.18166072, "V3_M": 86.22029934 }, "geometry": { "type": "Polygon", "coordinates": [ [ [ -1.2924666, 38.1197623 ], [ -1.2934265, 38.120005 ], [ -1.2939892, 38.1200776 ], [ -1.2945676, 38.1201241 ], [ -1.2948156, 38.1201015 ], [ -1.2950932, 38.1201055 ], [ -1.2951637, 38.1201876 ], [ -1.2953144, 38.1203257 ], [ -1.2955767, 38.1204702 ], [ -1.2957997, 38.1206117 ], [ -1.2961968, 38.1209275 ], [ -1.296331, 38.1209986 ], [ -1.2978015, 38.1215385 ], [ -1.2978441, 38.1214201 ], [ -1.297844, 38.1212337 ], [ -1.29774, 38.1207716 ], [ -1.297752, 38.1206881 ], [ -1.2981148, 38.1197461 ], [ -1.2984999, 38.1187716 ], [ -1.2987986, 38.1180136 ], [ -1.2988322, 38.1178622 ], [ -1.2987623, 38.1175238 ], [ -1.2987379, 38.1174059 ], [ -1.2986574, 38.117217 ], [ -1.2985579, 38.1171504 ], [ -1.2984472, 38.1170351 ], [ -1.2983088, 38.1168897 ], [ -1.2981116, 38.1167202 ], [ -1.298015, 38.1166336 ], [ -1.2978641, 38.1165073 ], [ -1.2977792, 38.1164479 ], [ -1.2977348, 38.1164375 ], [ -1.2976439, 38.1163749 ], [ -1.2975946, 38.1163381 ], [ -1.2975623, 38.1163122 ], [ -1.2975228, 38.1162508 ], [ -1.2975095, 38.1162134 ], [ -1.2974587, 38.1162036 ], [ -1.2973278, 38.1160972 ], [ -1.297271, 38.1160496 ], [ -1.2971255, 38.1158411 ], [ -1.2972529, 38.1157923 ], [ -1.2970985, 38.1156173 ], [ -1.2970616, 38.115604 ], [ -1.2969052, 38.1154858 ], [ -1.2969403, 38.1154568 ], [ -1.2968583, 38.1153782 ], [ -1.2967787, 38.1153082 ], [ -1.2967111, 38.1152528 ], [ -1.2967508, 38.1152042 ], [ -1.2967465, 38.1151568 ], [ -1.2966686, 38.1151634 ], [ -1.2961514, 38.1151454 ], [ -1.2938945, 38.115114 ], [ -1.2940301, 38.1154656 ], [ -1.2935775, 38.1162411 ], [ -1.2925734, 38.117886 ], [ -1.2927697, 38.1187854 ], [ -1.2924666, 38.1197623 ] ] ] } },
{ "type": "Feature", "properties": { "CCAA": "14 - Región de Murcia", "PROVINCIA": "30 - Murcia", "MUNICIPIO": "30009 - Archena", "COD_MUNICIPIO": "30009", "DISTRITO": "01", "SECCION": "3000901009", "V1_H": 80.21, "V1_M": 86.09, "V2_H": 80.08965404, "V2_M": 85.91309697, "V3_H": 80.44476746, "V3_M": 86.42186139 }, "geometry": { "type": "Polygon", "coordinates": [ [ [ -1.2941207, 38.124574 ], [ -1.2948918, 38.1246844 ], [ -1.2959543, 38.1248382 ], [ -1.2967181, 38.1240812 ], [ -1.2967349, 38.1238812 ], [ -1.2967404, 38.1236428 ], [ -1.2969489, 38.1235028 ], [ -1.297216, 38.1234399 ], [ -1.2976744, 38.1234561 ], [ -1.2983514, 38.1234182 ], [ -1.2984238, 38.1234192 ], [ -1.2985345, 38.1228104 ], [ -1.2985306, 38.1224575 ], [ -1.2983986, 38.1219024 ], [ -1.2983686, 38.1216349 ], [ -1.2983717, 38.1215014 ], [ -1.2983514, 38.121339 ], [ -1.2984394, 38.1211877 ], [ -1.2986266, 38.1209233 ], [ -1.2989716, 38.1206231 ], [ -1.2991568, 38.1204446 ], [ -1.2994386, 38.1202675 ], [ -1.2997566, 38.1200909 ], [ -1.3000869, 38.1199049 ], [ -1.3003575, 38.1196895 ], [ -1.3005908, 38.1195212 ], [ -1.3011655, 38.1192052 ], [ -1.3017657, 38.1188324 ], [ -1.3022064, 38.1185717 ], [ -1.3027563, 38.118284 ], [ -1.3027636, 38.1182796 ], [ -1.3020022, 38.1180721 ], [ -1.3019956, 38.1180822 ], [ -1.3013568, 38.1179658 ], [ -1.3008029, 38.1178644 ], [ -1.2998142, 38.1176933 ], [ -1.2992538, 38.1175823 ], [ -1.2988844, 38.1175363 ], [ -1.2987623, 38.1175238 ], [ -1.2988322, 38.1178622 ], [ -1.2987986, 38.1180136 ], [ -1.2984999, 38.1187716 ], [ -1.2981148, 38.1197461 ], [ -1.297752, 38.1206881 ], [ -1.29774, 38.1207716 ], [ -1.297844, 38.1212337 ], [ -1.2978441, 38.1214201 ], [ -1.2978015, 38.1215385 ], [ -1.296331, 38.1209986 ], [ -1.2961968, 38.1209275 ], [ -1.2957997, 38.1206117 ], [ -1.2955767, 38.1204702 ], [ -1.2953144, 38.1203257 ], [ -1.2951637, 38.1201876 ], [ -1.2950932, 38.1201055 ], [ -1.2948156, 38.1201015 ], [ -1.2945676, 38.1201241 ], [ -1.2939892, 38.1200776 ], [ -1.2934265, 38.120005 ], [ -1.2924666, 38.1197623 ], [ -1.2924656, 38.1197647 ], [ -1.2924222, 38.1202301 ], [ -1.2922641, 38.1208 ], [ -1.29303, 38.1231235 ], [ -1.2941207, 38.124574 ] ] ] } },
{ "type": "Feature", "properties": { "CCAA": "14 - Región de Murcia", "PROVINCIA": "30 - Murcia", "MUNICIPIO": "30009 - Archena", "COD_MUNICIPIO": "30009", "DISTRITO": "01", "SECCION": "3000901007", "V1_H": 79.63, "V1_M": 85.51, "V2_H": 79.79644461, "V2_M": 85.57767022, "V3_H": 79.53263393, "V3_M": 85.68344389000001 }, "geometry": { "type": "Polygon", "coordinates": [ [ [ -1.3126123, 38.1199089 ], [ -1.3126123, 38.1199081 ], [ -1.3125934, 38.1198293 ], [ -1.3124207, 38.1195944 ], [ -1.3122054, 38.119228 ], [ -1.312021, 38.1189602 ], [ -1.3118607, 38.1187223 ], [ -1.3117484, 38.1185603 ], [ -1.3115543, 38.1183545 ], [ -1.3113721, 38.1181719 ], [ -1.311194, 38.1179893 ], [ -1.3110257, 38.1177414 ], [ -1.3108772, 38.117533 ], [ -1.3107942, 38.1173584 ], [ -1.310645, 38.1170027 ], [ -1.3105383, 38.1167786 ], [ -1.310425, 38.1166591 ], [ -1.3103619, 38.1165208 ], [ -1.3102691, 38.1164147 ], [ -1.309982, 38.115918 ], [ -1.3096816, 38.1153573 ], [ -1.3094044, 38.1149306 ], [ -1.3094451, 38.1149152 ], [ -1.3096701, 38.1148353 ], [ -1.3096705, 38.1148352 ], [ -1.309681, 38.1148286 ], [ -1.3099884, 38.1147162 ], [ -1.3102715, 38.1146106 ], [ -1.3105271, 38.1145189 ], [ -1.311014, 38.1143471 ], [ -1.3113764, 38.1142044 ], [ -1.3115134, 38.1141516 ], [ -1.3120892, 38.1139166 ], [ -1.312324, 38.1138103 ], [ -1.3124307, 38.1137666 ], [ -1.3125619, 38.1137041 ], [ -1.3126443, 38.1136623 ], [ -1.3127087, 38.113618 ], [ -1.3127517, 38.1135876 ], [ -1.3128161, 38.1135408 ], [ -1.3128746, 38.1134916 ], [ -1.3129214, 38.1134255 ], [ -1.3129867, 38.1133406 ], [ -1.3129999, 38.1132931 ], [ -1.313041, 38.1132126 ], [ -1.3130941, 38.1131347 ], [ -1.3131652, 38.1130618 ], [ -1.3132421, 38.1129961 ], [ -1.3133005, 38.1129493 ], [ -1.3133709, 38.1129098 ], [ -1.3134901, 38.1128423 ], [ -1.3135846, 38.1128008 ], [ -1.313679, 38.112764 ], [ -1.3137639, 38.1127461 ], [ -1.3138671, 38.1127214 ], [ -1.31397, 38.1127109 ], [ -1.3140516, 38.1127049 ], [ -1.31413, 38.1127061 ], [ -1.3142147, 38.1126978 ], [ -1.314348, 38.1126758 ], [ -1.3144906, 38.1126445 ], [ -1.3146059, 38.1126151 ], [ -1.3146547, 38.1125988 ], [ -1.3134635, 38.111247 ], [ -1.3097495, 38.1136924 ], [ -1.3096923, 38.1137727 ], [ -1.3096748, 38.1137568 ], [ -1.3094164, 38.1139248 ], [ -1.3093793, 38.1138815 ], [ -1.3062934, 38.1159364 ], [ -1.3053738, 38.1165526 ], [ -1.3049682, 38.1168615 ], [ -1.3046167, 38.1170311 ], [ -1.3046585, 38.117049 ], [ -1.3037972, 38.1176481 ], [ -1.3038476, 38.117687 ], [ -1.3049694, 38.1185522 ], [ -1.3049497, 38.1185638 ], [ -1.3052528, 38.1187918 ], [ -1.3054135, 38.1189135 ], [ -1.305579, 38.1191048 ], [ -1.3095821, 38.1211065 ], [ -1.3095837, 38.1211054 ], [ -1.3098561, 38.1209425 ], [ -1.3104348, 38.1207147 ], [ -1.3108673, 38.1205445 ], [ -1.3110863, 38.1204714 ], [ -1.3112111, 38.1204255 ], [ -1.3113079, 38.1204173 ], [ -1.3113675, 38.1204492 ], [ -1.3114241, 38.1204834 ], [ -1.3115047, 38.1205203 ], [ -1.3117584, 38.1205144 ], [ -1.3125517, 38.120533 ], [ -1.3126082, 38.1199138 ], [ -1.3126123, 38.1199089 ] ] ] } },
{ "type": "Feature", "properties": { "CCAA": "14 - Región de Murcia", "PROVINCIA": "30 - Murcia", "MUNICIPIO": "30009 - Archena", "COD_MUNICIPIO": "30009", "DISTRITO": "01", "SECCION": "3000901010", "V1_H": 80.02, "V1_M": 86.02, "V2_H": 79.96138623, "V2_M": 86.18252023, "V3_H": 80.18726569, "V3_M": 86.15258899 }, "geometry": { "type": "Polygon", "coordinates": [ [ [ -1.2959543, 38.1248382 ], [ -1.2966903, 38.1249448 ], [ -1.2979047, 38.1252147 ], [ -1.2986671, 38.1252978 ], [ -1.2997956, 38.1258278 ], [ -1.3008204, 38.1264014 ], [ -1.3017416, 38.1270185 ], [ -1.3023851, 38.1278344 ], [ -1.3026171, 38.1281306 ], [ -1.3031905, 38.1287111 ], [ -1.3035702, 38.1290951 ], [ -1.3042446, 38.1297762 ], [ -1.3051667, 38.1303573 ], [ -1.3058439, 38.1306734 ], [ -1.3064576, 38.1307724 ], [ -1.3070412, 38.1306907 ], [ -1.3075746, 38.1303199 ], [ -1.3077884, 38.1299805 ], [ -1.307918, 38.1297751 ], [ -1.3080785, 38.1292457 ], [ -1.3083743, 38.1287904 ], [ -1.3086495, 38.1285736 ], [ -1.3088158, 38.1284453 ], [ -1.3094617, 38.1281392 ], [ -1.309462, 38.1281392 ], [ -1.309364, 38.1279395 ], [ -1.3096625, 38.1267889 ], [ -1.3096616, 38.1267836 ], [ -1.3096712, 38.1264953 ], [ -1.3098114, 38.1259155 ], [ -1.3097714, 38.125295 ], [ -1.3097761, 38.1252211 ], [ -1.3101127, 38.1247587 ], [ -1.3102628, 38.1245582 ], [ -1.3098445, 38.1243734 ], [ -1.3098943, 38.1233917 ], [ -1.309776, 38.1224983 ], [ -1.3096909, 38.12187 ], [ -1.3096305, 38.1213493 ], [ -1.3095981, 38.1211145 ], [ -1.3095821, 38.1211065 ], [ -1.305579, 38.1191048 ], [ -1.3054135, 38.1189135 ], [ -1.3052528, 38.1187918 ], [ -1.3049497, 38.1185638 ], [ -1.3049694, 38.1185522 ], [ -1.3038476, 38.117687 ], [ -1.3037486, 38.1176593 ], [ -1.3036626, 38.1177248 ], [ -1.3034175, 38.1178834 ], [ -1.3027636, 38.1182796 ], [ -1.3027563, 38.118284 ], [ -1.3022064, 38.1185717 ], [ -1.3017657, 38.1188324 ], [ -1.3011655, 38.1192052 ], [ -1.3005908, 38.1195212 ], [ -1.3003575, 38.1196895 ], [ -1.3000869, 38.1199049 ], [ -1.2997566, 38.1200909 ], [ -1.2994386, 38.1202675 ], [ -1.2991568, 38.1204446 ], [ -1.2989716, 38.1206231 ], [ -1.2986266, 38.1209233 ], [ -1.2984394, 38.1211877 ], [ -1.2983514, 38.121339 ], [ -1.2983717, 38.1215014 ], [ -1.2983686, 38.1216349 ], [ -1.2983986, 38.1219024 ], [ -1.2985306, 38.1224575 ], [ -1.2985345, 38.1228104 ], [ -1.2984238, 38.1234192 ], [ -1.2983514, 38.1234182 ], [ -1.2976744, 38.1234561 ], [ -1.297216, 38.1234399 ], [ -1.2969489, 38.1235028 ], [ -1.2967404, 38.1236428 ], [ -1.2967349, 38.1238812 ], [ -1.2967181, 38.1240812 ], [ -1.2959543, 38.1248382 ] ] ] } }
]
}
