{
"type": "FeatureCollection",
"name": "31002",
"features": [
{ "type": "Feature", "properties": { "CCAA": "15 - Comunidad Foral de Navarra", "PROVINCIA": "31 - Navarra", "MUNICIPIO": "31002 - Abárzuza/Abartzuza", "COD_MUNICIPIO": "31002", "DISTRITO": "01", "SECCION": "3100201001", "V1_H": 82.11, "V1_M": 87.17, "V2_H": 81.68538902, "V2_M": 87.16795144, "V3_H": 82.5577829, "V3_M": 87.30202001000001 }, "geometry": { "type": "Polygon", "coordinates": [ [ [ -2.0237292, 42.7385715 ], [ -2.023804, 42.7383729 ], [ -2.023851, 42.738205 ], [ -2.0238963, 42.7381373 ], [ -2.0240765, 42.7379407 ], [ -2.0241995, 42.7377937 ], [ -2.0243341, 42.7380206 ], [ -2.0244514, 42.7382383 ], [ -2.0245594, 42.7384097 ], [ -2.0246627, 42.7385896 ], [ -2.0247742, 42.7387802 ], [ -2.0248824, 42.7389928 ], [ -2.025006, 42.7391936 ], [ -2.0250952, 42.7393481 ], [ -2.0251896, 42.7395132 ], [ -2.0252911, 42.7397088 ], [ -2.0253899, 42.7398841 ], [ -2.0255119, 42.7400884 ], [ -2.0256093, 42.7402592 ], [ -2.0257313, 42.7404651 ], [ -2.0258411, 42.7406681 ], [ -2.0259382, 42.7408079 ], [ -2.0260851, 42.7409831 ], [ -2.0262027, 42.7411276 ], [ -2.0263557, 42.7413051 ], [ -2.026476, 42.7414716 ], [ -2.0266151, 42.7416596 ], [ -2.0267544, 42.7418336 ], [ -2.0268953, 42.7420031 ], [ -2.0270686, 42.7422015 ], [ -2.0274799, 42.7421713 ], [ -2.0278247, 42.7421438 ], [ -2.0280854, 42.7421201 ], [ -2.0282345, 42.7421101 ], [ -2.0283661, 42.7420921 ], [ -2.0284721, 42.7421527 ], [ -2.0285988, 42.7422078 ], [ -2.0286871, 42.742271 ], [ -2.0287602, 42.7423341 ], [ -2.0288095, 42.7424021 ], [ -2.0288484, 42.742457 ], [ -2.0289379, 42.7424927 ], [ -2.0290313, 42.7425272 ], [ -2.0291259, 42.7425832 ], [ -2.0292248, 42.7426533 ], [ -2.0293568, 42.7427118 ], [ -2.029491, 42.7427681 ], [ -2.0296171, 42.7428131 ], [ -2.0297118, 42.7428623 ], [ -2.0298058, 42.7429086 ], [ -2.0298806, 42.7429566 ], [ -2.0299439, 42.7430139 ], [ -2.029965, 42.7430772 ], [ -2.0299867, 42.7431527 ], [ -2.0300184, 42.7432251 ], [ -2.0300387, 42.7432984 ], [ -2.0300832, 42.7433844 ], [ -2.0301345, 42.7434731 ], [ -2.0301809, 42.7435304 ], [ -2.0302277, 42.7435657 ], [ -2.0303056, 42.7436181 ], [ -2.0303691, 42.7436535 ], [ -2.0304708, 42.7436955 ], [ -2.0306247, 42.7437666 ], [ -2.030746, 42.7438256 ], [ -2.0308392, 42.7438725 ], [ -2.0309229, 42.7439408 ], [ -2.0309496, 42.7439855 ], [ -2.030967, 42.7440441 ], [ -2.0309736, 42.7441123 ], [ -2.0309624, 42.7441961 ], [ -2.0309555, 42.7442979 ], [ -2.0309445, 42.7444126 ], [ -2.030953, 42.7445061 ], [ -2.0309485, 42.7445967 ], [ -2.0309704, 42.744665 ], [ -2.0309991, 42.744735 ], [ -2.0310564, 42.7448261 ], [ -2.0311046, 42.7449177 ], [ -2.0311514, 42.7450037 ], [ -2.0312217, 42.7450994 ], [ -2.0313045, 42.7451761 ], [ -2.0313634, 42.7452182 ], [ -2.0314411, 42.7452751 ], [ -2.031536, 42.7453142 ], [ -2.031623, 42.745315 ], [ -2.0317056, 42.7453106 ], [ -2.0318092, 42.7452783 ], [ -2.0319254, 42.7452207 ], [ -2.0320467, 42.7451784 ], [ -2.032158, 42.745145 ], [ -2.0322573, 42.7451414 ], [ -2.0323418, 42.7451561 ], [ -2.0324132, 42.7451775 ], [ -2.0324629, 42.745223 ], [ -2.0324942, 42.7452756 ], [ -2.0325191, 42.7453434 ], [ -2.0325444, 42.745437 ], [ -2.0325614, 42.7455666 ], [ -2.0325807, 42.7457024 ], [ -2.0326081, 42.7458113 ], [ -2.0326269, 42.7459291 ], [ -2.0326614, 42.7461106 ], [ -2.0326742, 42.7462193 ], [ -2.0326997, 42.7463028 ], [ -2.0327389, 42.7463853 ], [ -2.0328025, 42.7464664 ], [ -2.0328677, 42.7465452 ], [ -2.0329767, 42.746657 ], [ -2.0330593, 42.7467449 ], [ -2.0331419, 42.7468368 ], [ -2.0332449, 42.7469406 ], [ -2.0334127, 42.7470535 ], [ -2.0335578, 42.7471515 ], [ -2.0337147, 42.7472277 ], [ -2.0338487, 42.7472987 ], [ -2.0340103, 42.7473715 ], [ -2.0341626, 42.7474471 ], [ -2.034331, 42.74752 ], [ -2.0345158, 42.7475688 ], [ -2.0347146, 42.7476015 ], [ -2.0348542, 42.7476127 ], [ -2.0349957, 42.7476455 ], [ -2.0351541, 42.7476282 ], [ -2.0353353, 42.7476129 ], [ -2.0354551, 42.7476206 ], [ -2.0355254, 42.7476629 ], [ -2.0355595, 42.7477307 ], [ -2.0355757, 42.7478198 ], [ -2.0355646, 42.7478928 ], [ -2.0355264, 42.7479949 ], [ -2.0354998, 42.748082 ], [ -2.0354961, 42.7481726 ], [ -2.0355135, 42.7482374 ], [ -2.0355553, 42.7482946 ], [ -2.0356451, 42.7483196 ], [ -2.0358114, 42.748326 ], [ -2.0360292, 42.7483178 ], [ -2.0363289, 42.7483 ], [ -2.0361876, 42.7484457 ], [ -2.0358771, 42.7487679 ], [ -2.0356171, 42.7490381 ], [ -2.0355215, 42.7491949 ], [ -2.0353419, 42.7494984 ], [ -2.035163, 42.7498031 ], [ -2.0350151, 42.750036 ], [ -2.0347005, 42.7504239 ], [ -2.0345162, 42.7506841 ], [ -2.0345546, 42.7508218 ], [ -2.0346208, 42.75103 ], [ -2.0346614, 42.7511711 ], [ -2.0346778, 42.7513429 ], [ -2.0347002, 42.7515766 ], [ -2.0347316, 42.7518178 ], [ -2.0347698, 42.7520607 ], [ -2.0348005, 42.752245 ], [ -2.0348854, 42.7525339 ], [ -2.0349391, 42.7527617 ], [ -2.035003, 42.7529761 ], [ -2.0350626, 42.753217 ], [ -2.0351182, 42.7534257 ], [ -2.0352614, 42.7535462 ], [ -2.0354182, 42.7536798 ], [ -2.0356396, 42.7538826 ], [ -2.0358625, 42.7540865 ], [ -2.0361187, 42.7543144 ], [ -2.0363679, 42.7545456 ], [ -2.0365909, 42.7547399 ], [ -2.0368066, 42.7549185 ], [ -2.0369785, 42.7550623 ], [ -2.0372434, 42.7552677 ], [ -2.0374803, 42.7554555 ], [ -2.037878, 42.755716 ], [ -2.0381214, 42.7558813 ], [ -2.0383794, 42.7560371 ], [ -2.0385222, 42.7561385 ], [ -2.0387184, 42.7562927 ], [ -2.0388886, 42.756445 ], [ -2.0392051, 42.7564741 ], [ -2.0397158, 42.7564969 ], [ -2.0406817, 42.7565653 ], [ -2.0409579, 42.7565816 ], [ -2.0409732, 42.7566273 ], [ -2.0410378, 42.7567996 ], [ -2.0410762, 42.7568359 ], [ -2.0411546, 42.7569019 ], [ -2.0412736, 42.7569631 ], [ -2.0414668, 42.7570637 ], [ -2.0417513, 42.7571877 ], [ -2.0419475, 42.7572929 ], [ -2.0421353, 42.757398 ], [ -2.042308, 42.7575351 ], [ -2.0425002, 42.7577016 ], [ -2.0427031, 42.7578699 ], [ -2.0424705, 42.7579958 ], [ -2.0422347, 42.7581294 ], [ -2.0419334, 42.758302 ], [ -2.0416798, 42.7584518 ], [ -2.0414239, 42.7585999 ], [ -2.041249, 42.7586987 ], [ -2.0416172, 42.7589972 ], [ -2.0419235, 42.7592424 ], [ -2.0423544, 42.7595775 ], [ -2.0427732, 42.7599108 ], [ -2.0432671, 42.7603298 ], [ -2.0435804, 42.7606138 ], [ -2.0438032, 42.7608278 ], [ -2.0439696, 42.7609835 ], [ -2.044274, 42.7612573 ], [ -2.0444734, 42.7614565 ], [ -2.0446117, 42.7615978 ], [ -2.0447435, 42.7617188 ], [ -2.0448016, 42.761816 ], [ -2.0448417, 42.7618918 ], [ -2.0447385, 42.7620964 ], [ -2.0445971, 42.7623997 ], [ -2.0445921, 42.7625725 ], [ -2.0445998, 42.7627217 ], [ -2.0448057, 42.7629412 ], [ -2.0447679, 42.7631193 ], [ -2.0447025, 42.7632904 ], [ -2.044633, 42.7635398 ], [ -2.0445729, 42.763774 ], [ -2.0444877, 42.7640496 ], [ -2.0444422, 42.7642265 ], [ -2.0445156, 42.7643701 ], [ -2.0446559, 42.7645812 ], [ -2.0447335, 42.7647006 ], [ -2.0447929, 42.7648142 ], [ -2.0448572, 42.7649037 ], [ -2.0449078, 42.7649936 ], [ -2.0449351, 42.7650552 ], [ -2.0449837, 42.7651743 ], [ -2.0450131, 42.7653007 ], [ -2.0450677, 42.7654266 ], [ -2.0451038, 42.7655586 ], [ -2.0451465, 42.7657143 ], [ -2.0451961, 42.7659162 ], [ -2.0452622, 42.766089 ], [ -2.0453224, 42.7662955 ], [ -2.045378, 42.7664569 ], [ -2.0454288, 42.7666313 ], [ -2.045477, 42.7667746 ], [ -2.0455331, 42.7669051 ], [ -2.0455873, 42.7670575 ], [ -2.0456512, 42.7671701 ], [ -2.0457103, 42.7673023 ], [ -2.0458023, 42.7674241 ], [ -2.0458868, 42.767494 ], [ -2.045972, 42.767569 ], [ -2.0460393, 42.7676151 ], [ -2.0461444, 42.7676892 ], [ -2.0463296, 42.7678101 ], [ -2.0464801, 42.7679138 ], [ -2.0465758, 42.7679945 ], [ -2.0466265, 42.7680793 ], [ -2.0466828, 42.7681428 ], [ -2.046704, 42.7682043 ], [ -2.0466939, 42.7682673 ], [ -2.0466948, 42.7683613 ], [ -2.0466559, 42.7685017 ], [ -2.0466352, 42.76856 ], [ -2.0465888, 42.7686401 ], [ -2.046546, 42.7687417 ], [ -2.0464795, 42.7688981 ], [ -2.0464014, 42.7690568 ], [ -2.0463491, 42.7691824 ], [ -2.046271, 42.769341 ], [ -2.0462012, 42.7695087 ], [ -2.0461261, 42.7696708 ], [ -2.046083, 42.7697931 ], [ -2.0460585, 42.7699403 ], [ -2.0460472, 42.7700832 ], [ -2.0460566, 42.7702139 ], [ -2.0460757, 42.7703193 ], [ -2.046098, 42.7704568 ], [ -2.0461462, 42.7705518 ], [ -2.0461785, 42.7706393 ], [ -2.0462428, 42.7708756 ], [ -2.0462902, 42.7710224 ], [ -2.0463415, 42.7711641 ], [ -2.0463973, 42.771312 ], [ -2.0464457, 42.7713946 ], [ -2.0465622, 42.7715205 ], [ -2.046722, 42.7717081 ], [ -2.0467842, 42.7717897 ], [ -2.0467619, 42.7719465 ], [ -2.0467262, 42.7720836 ], [ -2.0467402, 42.772167 ], [ -2.0467795, 42.7722934 ], [ -2.0470148, 42.7725407 ], [ -2.0472515, 42.7727994 ], [ -2.0473694, 42.7729298 ], [ -2.047549, 42.7731277 ], [ -2.0475571, 42.7731998 ], [ -2.0475711, 42.7733272 ], [ -2.0476096, 42.77361 ], [ -2.0476438, 42.7738197 ], [ -2.047864, 42.774054 ], [ -2.0480641, 42.7742605 ], [ -2.0482041, 42.774251 ], [ -2.0483982, 42.7741974 ], [ -2.0487088, 42.7741207 ], [ -2.0490183, 42.7740636 ], [ -2.0492739, 42.7740325 ], [ -2.0494127, 42.7740055 ], [ -2.0495757, 42.773986 ], [ -2.0496983, 42.7739572 ], [ -2.0498151, 42.773916 ], [ -2.0498829, 42.7738794 ], [ -2.0500293, 42.7738451 ], [ -2.0503042, 42.7738063 ], [ -2.0505621, 42.7737798 ], [ -2.0507324, 42.7737823 ], [ -2.0509381, 42.7737699 ], [ -2.051334, 42.7737147 ], [ -2.0515982, 42.7736679 ], [ -2.0519489, 42.7736202 ], [ -2.0522857, 42.7735791 ], [ -2.0525636, 42.7735374 ], [ -2.0527143, 42.773573 ], [ -2.053008, 42.7736571 ], [ -2.0533686, 42.7737518 ], [ -2.0536311, 42.7738277 ], [ -2.0539429, 42.7739215 ], [ -2.0540673, 42.7739293 ], [ -2.0542116, 42.7739344 ], [ -2.0544369, 42.7739374 ], [ -2.0545889, 42.7739397 ], [ -2.054831, 42.773895 ], [ -2.055007, 42.773879 ], [ -2.0552817, 42.7738475 ], [ -2.0556282, 42.7738234 ], [ -2.0559321, 42.7737798 ], [ -2.0561969, 42.7737527 ], [ -2.0564089, 42.7737263 ], [ -2.0567631, 42.7736943 ], [ -2.0571533, 42.7736564 ], [ -2.05749, 42.7736243 ], [ -2.057698, 42.7736086 ], [ -2.0575525, 42.7738325 ], [ -2.0574451, 42.7740157 ], [ -2.0573225, 42.7742381 ], [ -2.0571965, 42.7744397 ], [ -2.0570958, 42.7746252 ], [ -2.0570057, 42.7747792 ], [ -2.0568596, 42.7750414 ], [ -2.0567851, 42.7751618 ], [ -2.0566558, 42.7753735 ], [ -2.0565643, 42.775519 ], [ -2.0565241, 42.7755981 ], [ -2.0564665, 42.7757169 ], [ -2.0563898, 42.7758908 ], [ -2.056306, 42.7760741 ], [ -2.0562458, 42.7762138 ], [ -2.0561588, 42.776405 ], [ -2.0560821, 42.7765743 ], [ -2.0560345, 42.7766944 ], [ -2.0559563, 42.7768648 ], [ -2.05589, 42.7769988 ], [ -2.0558132, 42.7771766 ], [ -2.0556926, 42.777475 ], [ -2.0556113, 42.7776438 ], [ -2.0555342, 42.7777923 ], [ -2.0554636, 42.7779594 ], [ -2.0554095, 42.7780969 ], [ -2.0553535, 42.7782146 ], [ -2.0552958, 42.7783396 ], [ -2.055232, 42.7784691 ], [ -2.0551777, 42.7785705 ], [ -2.0551285, 42.778645 ], [ -2.0550582, 42.7787424 ], [ -2.0549586, 42.7788569 ], [ -2.0548641, 42.778994 ], [ -2.0547582, 42.7791271 ], [ -2.0546962, 42.779229 ], [ -2.054581, 42.7793204 ], [ -2.0544588, 42.7794224 ], [ -2.0543033, 42.7795438 ], [ -2.0541754, 42.7796648 ], [ -2.0540919, 42.77973 ], [ -2.0540143, 42.7798048 ], [ -2.0539319, 42.7798998 ], [ -2.0538819, 42.7799708 ], [ -2.053837, 42.7800622 ], [ -2.0537966, 42.7802032 ], [ -2.0537037, 42.7804855 ], [ -2.0536535, 42.7806173 ], [ -2.053604, 42.7807064 ], [ -2.0535477, 42.7807904 ], [ -2.0534376, 42.7809516 ], [ -2.053299, 42.7811665 ], [ -2.0531872, 42.7813339 ], [ -2.0530197, 42.7815937 ], [ -2.0528798, 42.7818008 ], [ -2.0529884, 42.7818433 ], [ -2.0531327, 42.7819042 ], [ -2.0532431, 42.7819304 ], [ -2.0533392, 42.7819408 ], [ -2.053451, 42.7818719 ], [ -2.0535427, 42.7817714 ], [ -2.0536751, 42.7816098 ], [ -2.053852, 42.7814334 ], [ -2.0540433, 42.7812115 ], [ -2.0541736, 42.7810894 ], [ -2.0543012, 42.7809334 ], [ -2.0544364, 42.7807848 ], [ -2.0545606, 42.7806597 ], [ -2.0547363, 42.7804631 ], [ -2.0548794, 42.7802971 ], [ -2.0550155, 42.7801367 ], [ -2.055176, 42.7799365 ], [ -2.0552988, 42.7797979 ], [ -2.0553999, 42.7796834 ], [ -2.0555206, 42.7795358 ], [ -2.0556172, 42.7794134 ], [ -2.0557167, 42.7792988 ], [ -2.0558163, 42.7791831 ], [ -2.0559018, 42.7790892 ], [ -2.056001, 42.7789921 ], [ -2.056105, 42.7788377 ], [ -2.0561861, 42.7787303 ], [ -2.0562991, 42.7785882 ], [ -2.0563817, 42.7784769 ], [ -2.0564827, 42.7783708 ], [ -2.0565638, 42.778264 ], [ -2.0566289, 42.7781519 ], [ -2.0566924, 42.7780455 ], [ -2.0567421, 42.7779446 ], [ -2.0568214, 42.7778018 ], [ -2.0569009, 42.7776482 ], [ -2.0569676, 42.7775351 ], [ -2.0570421, 42.7774113 ], [ -2.0571245, 42.7772662 ], [ -2.0571882, 42.777148 ], [ -2.0572437, 42.777059 ], [ -2.0573327, 42.7769398 ], [ -2.0574215, 42.7768251 ], [ -2.0575093, 42.7767257 ], [ -2.0576152, 42.7765943 ], [ -2.0576964, 42.7764841 ], [ -2.0577877, 42.7763582 ], [ -2.0578935, 42.7762324 ], [ -2.0580069, 42.7761078 ], [ -2.0581093, 42.7759613 ], [ -2.0582227, 42.7758316 ], [ -2.0583067, 42.7757377 ], [ -2.0584359, 42.7755823 ], [ -2.0585365, 42.7754503 ], [ -2.0586205, 42.7753474 ], [ -2.0587433, 42.7752123 ], [ -2.0588477, 42.7750775 ], [ -2.0589331, 42.7749859 ], [ -2.0590352, 42.7748589 ], [ -2.0591491, 42.7746984 ], [ -2.0592278, 42.7745943 ], [ -2.059332, 42.7744753 ], [ -2.0595232, 42.7742658 ], [ -2.0596412, 42.7740906 ], [ -2.0597689, 42.7739307 ], [ -2.0598911, 42.7737792 ], [ -2.0600373, 42.7736155 ], [ -2.0601457, 42.7734655 ], [ -2.0602562, 42.7733342 ], [ -2.0603663, 42.7732253 ], [ -2.0605067, 42.7730891 ], [ -2.0606289, 42.772986 ], [ -2.0607718, 42.7728352 ], [ -2.0609274, 42.7726974 ], [ -2.0610592, 42.7725697 ], [ -2.0611762, 42.7724631 ], [ -2.0612197, 42.7724162 ], [ -2.0612643, 42.7723485 ], [ -2.0612864, 42.7722963 ], [ -2.0613226, 42.7721784 ], [ -2.0613717, 42.7720105 ], [ -2.0614235, 42.7718702 ], [ -2.0614885, 42.771667 ], [ -2.0615929, 42.7714275 ], [ -2.0617145, 42.7712158 ], [ -2.0617962, 42.7710206 ], [ -2.0618645, 42.7708489 ], [ -2.0618948, 42.7706657 ], [ -2.0619075, 42.7703787 ], [ -2.062302, 42.7701079 ], [ -2.0625437, 42.7699376 ], [ -2.0626146, 42.7698971 ], [ -2.0626886, 42.7698499 ], [ -2.0627675, 42.7697841 ], [ -2.0628397, 42.7697132 ], [ -2.0629448, 42.7695801 ], [ -2.0631314, 42.7693627 ], [ -2.063326, 42.769124 ], [ -2.0635127, 42.7689015 ], [ -2.0636249, 42.7687544 ], [ -2.0636725, 42.7686935 ], [ -2.0638896, 42.7685804 ], [ -2.0643569, 42.7683433 ], [ -2.0645895, 42.7682186 ], [ -2.0647653, 42.7679538 ], [ -2.064919, 42.7677401 ], [ -2.0650404, 42.7675418 ], [ -2.0653098, 42.7671562 ], [ -2.0654997, 42.7668702 ], [ -2.0656825, 42.7666015 ], [ -2.0659492, 42.7661877 ], [ -2.0661642, 42.7658603 ], [ -2.0663879, 42.7655137 ], [ -2.0665631, 42.7652399 ], [ -2.066798, 42.7648107 ], [ -2.066961, 42.7645373 ], [ -2.0671069, 42.7642819 ], [ -2.067238, 42.7640499 ], [ -2.0673651, 42.7638219 ], [ -2.0676464, 42.7635095 ], [ -2.0679305, 42.763204 ], [ -2.0681185, 42.7629962 ], [ -2.068293, 42.7628192 ], [ -2.0683994, 42.7627041 ], [ -2.0686168, 42.7624149 ], [ -2.0688202, 42.7621486 ], [ -2.0690639, 42.761841 ], [ -2.0692974, 42.7615002 ], [ -2.0695046, 42.7612322 ], [ -2.0697757, 42.7608799 ], [ -2.0699884, 42.7605996 ], [ -2.0701857, 42.76033 ], [ -2.0704013, 42.7600559 ], [ -2.0705936, 42.7598127 ], [ -2.0707274, 42.7596083 ], [ -2.0709201, 42.75928 ], [ -2.0710787, 42.7590494 ], [ -2.0713853, 42.758667 ], [ -2.0715467, 42.7584476 ], [ -2.0717456, 42.7582236 ], [ -2.0716087, 42.7580812 ], [ -2.071402, 42.7578549 ], [ -2.071233, 42.7576689 ], [ -2.0711726, 42.75762 ], [ -2.0709588, 42.7575097 ], [ -2.070454, 42.757254 ], [ -2.0700367, 42.7570699 ], [ -2.0695542, 42.7569 ], [ -2.0694072, 42.756668 ], [ -2.0693854, 42.7564427 ], [ -2.0693481, 42.75613 ], [ -2.0693053, 42.7557751 ], [ -2.0692826, 42.7555076 ], [ -2.0691308, 42.7553875 ], [ -2.0690169, 42.7552977 ], [ -2.0687885, 42.7551945 ], [ -2.0685497, 42.7550772 ], [ -2.0682759, 42.75495 ], [ -2.0679095, 42.7547793 ], [ -2.0673232, 42.7545111 ], [ -2.0670146, 42.7543623 ], [ -2.0667096, 42.7542281 ], [ -2.0665328, 42.7540972 ], [ -2.0662212, 42.7538476 ], [ -2.0659221, 42.7536251 ], [ -2.0657329, 42.7534597 ], [ -2.0654317, 42.7532265 ], [ -2.0653329, 42.7530377 ], [ -2.0652316, 42.7527678 ], [ -2.0651342, 42.7525391 ], [ -2.0651077, 42.7524719 ], [ -2.0650589, 42.752418 ], [ -2.0649767, 42.752351 ], [ -2.0648676, 42.7522926 ], [ -2.0647175, 42.7522154 ], [ -2.0645945, 42.7521666 ], [ -2.0644298, 42.75215 ], [ -2.064216, 42.7521427 ], [ -2.0639283, 42.7521313 ], [ -2.0635756, 42.7521211 ], [ -2.0632748, 42.752113 ], [ -2.0629871, 42.7521022 ], [ -2.062739, 42.7520974 ], [ -2.062516, 42.7520944 ], [ -2.0623553, 42.7520661 ], [ -2.0621667, 42.7520077 ], [ -2.0619242, 42.7519365 ], [ -2.0616369, 42.7518447 ], [ -2.0612849, 42.751741 ], [ -2.0610135, 42.7516583 ], [ -2.0608174, 42.7515948 ], [ -2.0606206, 42.7515273 ], [ -2.0603367, 42.7514152 ], [ -2.0600309, 42.7512838 ], [ -2.0597474, 42.7511897 ], [ -2.0596192, 42.7511358 ], [ -2.0596464, 42.7510522 ], [ -2.0597129, 42.7509508 ], [ -2.0597692, 42.7508624 ], [ -2.0598382, 42.7507965 ], [ -2.0599518, 42.7507051 ], [ -2.0601184, 42.750599 ], [ -2.0602353, 42.7505408 ], [ -2.0603516, 42.7504805 ], [ -2.0604929, 42.7503764 ], [ -2.060663, 42.7502376 ], [ -2.0607609, 42.7501304 ], [ -2.0606182, 42.7501202 ], [ -2.0603461, 42.7500859 ], [ -2.060076, 42.750073 ], [ -2.059818, 42.7500624 ], [ -2.059601, 42.7500708 ], [ -2.0594227, 42.7500924 ], [ -2.0592086, 42.7501114 ], [ -2.0590533, 42.7501265 ], [ -2.0589191, 42.7501602 ], [ -2.0586813, 42.750232 ], [ -2.0583683, 42.750328 ], [ -2.0581304, 42.7503997 ], [ -2.0578986, 42.7504772 ], [ -2.0575865, 42.7505607 ], [ -2.0573249, 42.7506436 ], [ -2.0571101, 42.7507026 ], [ -2.057005, 42.7507344 ], [ -2.0568201, 42.750739 ], [ -2.0566886, 42.7507492 ], [ -2.0565826, 42.7507432 ], [ -2.0564368, 42.7507353 ], [ -2.0562442, 42.7506988 ], [ -2.0560152, 42.7506378 ], [ -2.0557545, 42.750558 ], [ -2.0555312, 42.750474 ], [ -2.0552492, 42.7503366 ], [ -2.0550131, 42.7502446 ], [ -2.0547384, 42.7501297 ], [ -2.0544812, 42.7500195 ], [ -2.0542662, 42.749894 ], [ -2.0540013, 42.749737 ], [ -2.0538167, 42.7496206 ], [ -2.0535932, 42.7495006 ], [ -2.0534201, 42.7493877 ], [ -2.0532308, 42.7492775 ], [ -2.0530545, 42.7491731 ], [ -2.0529456, 42.7491057 ], [ -2.0528315, 42.7490254 ], [ -2.0526781, 42.748915 ], [ -2.052531, 42.7488006 ], [ -2.0523588, 42.7486753 ], [ -2.0522023, 42.7485655 ], [ -2.0520338, 42.7484481 ], [ -2.0518662, 42.7483268 ], [ -2.0517179, 42.7481843 ], [ -2.051594, 42.7480961 ], [ -2.051493, 42.7480057 ], [ -2.0514142, 42.7479657 ], [ -2.0514016, 42.7478947 ], [ -2.0513835, 42.747778 ], [ -2.0513749, 42.7476873 ], [ -2.0513358, 42.7476003 ], [ -2.0512756, 42.7474884 ], [ -2.0512204, 42.7474058 ], [ -2.0511681, 42.7473288 ], [ -2.0511322, 42.7472328 ], [ -2.0510832, 42.7471356 ], [ -2.0510213, 42.7470416 ], [ -2.0509549, 42.746942 ], [ -2.0508916, 42.7468374 ], [ -2.050803, 42.7467319 ], [ -2.0507337, 42.7466267 ], [ -2.0506378, 42.7465522 ], [ -2.0505743, 42.7464548 ], [ -2.0504629, 42.7463554 ], [ -2.0503643, 42.7462611 ], [ -2.0502762, 42.7461788 ], [ -2.0502093, 42.7461107 ], [ -2.0501462, 42.746041 ], [ -2.0501076, 42.7459692 ], [ -2.0500562, 42.7458854 ], [ -2.0500106, 42.7457708 ], [ -2.0499761, 42.7456816 ], [ -2.0499455, 42.7455817 ], [ -2.0499098, 42.7455156 ], [ -2.0498561, 42.7454386 ], [ -2.049796, 42.7453221 ], [ -2.0497188, 42.7452269 ], [ -2.0496401, 42.7451284 ], [ -2.0495426, 42.7450116 ], [ -2.0494279, 42.7448772 ], [ -2.0493304, 42.7447549 ], [ -2.0492174, 42.7446537 ], [ -2.0491414, 42.7445805 ], [ -2.0490784, 42.7445096 ], [ -2.0490215, 42.7444371 ], [ -2.0489699, 42.7443663 ], [ -2.0488893, 42.744288 ], [ -2.0488559, 42.7442275 ], [ -2.0488096, 42.7441061 ], [ -2.048787, 42.7439939 ], [ -2.0487453, 42.7438692 ], [ -2.048721, 42.7437102 ], [ -2.0486978, 42.7435834 ], [ -2.0486706, 42.743465 ], [ -2.0486523, 42.7433624 ], [ -2.048629, 42.7432339 ], [ -2.0486019, 42.7431138 ], [ -2.0485676, 42.7430088 ], [ -2.0485217, 42.7429122 ], [ -2.0484913, 42.7428027 ], [ -2.0484526, 42.742687 ], [ -2.0484155, 42.7425713 ], [ -2.0483825, 42.7424337 ], [ -2.0483543, 42.7423299 ], [ -2.0483253, 42.7422233 ], [ -2.0483042, 42.742159 ], [ -2.0482156, 42.7420558 ], [ -2.0481633, 42.741985 ], [ -2.0481073, 42.7419035 ], [ -2.0480392, 42.7418106 ], [ -2.0480225, 42.7417514 ], [ -2.0479859, 42.7415991 ], [ -2.0479582, 42.7414655 ], [ -2.0479075, 42.7413367 ], [ -2.0478751, 42.7412065 ], [ -2.0478232, 42.7410574 ], [ -2.0477821, 42.7408973 ], [ -2.047759, 42.7408093 ], [ -2.0477436, 42.7407168 ], [ -2.0477313, 42.740625 ], [ -2.0477321, 42.7405254 ], [ -2.0477278, 42.7403587 ], [ -2.0477191, 42.740178 ], [ -2.0477183, 42.7400266 ], [ -2.0477247, 42.7399146 ], [ -2.0477207, 42.7397773 ], [ -2.0477012, 42.7396043 ], [ -2.0476874, 42.7395074 ], [ -2.0476799, 42.7393965 ], [ -2.0476506, 42.7392679 ], [ -2.0474958, 42.7390572 ], [ -2.047406, 42.7389355 ], [ -2.0472648, 42.7387294 ], [ -2.0471312, 42.7385324 ], [ -2.046933, 42.7382116 ], [ -2.0465275, 42.7375188 ], [ -2.0463253, 42.737158 ], [ -2.0461945, 42.7369279 ], [ -2.0461737, 42.7368911 ], [ -2.0461714, 42.7368888 ], [ -2.0459683, 42.7366434 ], [ -2.0457953, 42.7365227 ], [ -2.0455727, 42.736402 ], [ -2.0453162, 42.7362958 ], [ -2.0450823, 42.7361683 ], [ -2.0448864, 42.7360485 ], [ -2.0448319, 42.7360154 ], [ -2.0447939, 42.735956 ], [ -2.0447449, 42.7358655 ], [ -2.0447192, 42.7357426 ], [ -2.0446502, 42.7355619 ], [ -2.0445814, 42.7354234 ], [ -2.04444, 42.7352309 ], [ -2.0442338, 42.7349922 ], [ -2.0439419, 42.7347562 ], [ -2.0437445, 42.734633 ], [ -2.0435029, 42.7345088 ], [ -2.0433593, 42.7344131 ], [ -2.0432174, 42.7343055 ], [ -2.0430619, 42.7341399 ], [ -2.0429401, 42.7339672 ], [ -2.0428456, 42.7337564 ], [ -2.0427686, 42.7336534 ], [ -2.042611, 42.7334708 ], [ -2.0424651, 42.7332793 ], [ -2.0423389, 42.7330954 ], [ -2.042244, 42.7329178 ], [ -2.0421635, 42.7326853 ], [ -2.0420917, 42.73254 ], [ -2.0419577, 42.7323689 ], [ -2.0417328, 42.7321019 ], [ -2.0413413, 42.7316901 ], [ -2.0412259, 42.7315529 ], [ -2.0411321, 42.7313945 ], [ -2.0410656, 42.7311553 ], [ -2.0410569, 42.7310775 ], [ -2.0410638, 42.7310253 ], [ -2.041086, 42.7309737 ], [ -2.0413373, 42.730713 ], [ -2.0416361, 42.7305016 ], [ -2.0419573, 42.7303163 ], [ -2.042233, 42.7301587 ], [ -2.0424976, 42.7300349 ], [ -2.0427449, 42.7299339 ], [ -2.0428583, 42.7299107 ], [ -2.04322, 42.7299188 ], [ -2.0437288, 42.7292048 ], [ -2.043894, 42.7289828 ], [ -2.0435958, 42.7286161 ], [ -2.0435502, 42.72856 ], [ -2.0383898, 42.7222125 ], [ -2.036912, 42.7224082 ], [ -2.0366677, 42.7218664 ], [ -2.0365349, 42.7215727 ], [ -2.0364126, 42.7214799 ], [ -2.0363475, 42.7214467 ], [ -2.0361967, 42.7214285 ], [ -2.0357758, 42.7213985 ], [ -2.0348303, 42.7213303 ], [ -2.0348204, 42.7213291 ], [ -2.0336638, 42.7211888 ], [ -2.033063, 42.7210931 ], [ -2.0325585, 42.7206926 ], [ -2.0324997, 42.7206459 ], [ -2.0324653, 42.7206501 ], [ -2.0321845, 42.7206951 ], [ -2.0319334, 42.7207453 ], [ -2.0316485, 42.7208014 ], [ -2.0314937, 42.7208372 ], [ -2.031375, 42.7208649 ], [ -2.0313474, 42.7208714 ], [ -2.0314091, 42.7206851 ], [ -2.0316521, 42.7202746 ], [ -2.031715, 42.7201581 ], [ -2.0317378, 42.7201155 ], [ -2.0318934, 42.7198258 ], [ -2.0321625, 42.7193114 ], [ -2.0322104, 42.7192246 ], [ -2.0323157, 42.7190347 ], [ -2.0323344, 42.7190084 ], [ -2.0324491, 42.7188455 ], [ -2.0328005, 42.7184382 ], [ -2.0329822, 42.7182895 ], [ -2.0330686, 42.7182266 ], [ -2.0333118, 42.7180001 ], [ -2.0333492, 42.717956 ], [ -2.0337185, 42.7175235 ], [ -2.033734, 42.717505 ], [ -2.0338133, 42.7174117 ], [ -2.034074, 42.7170914 ], [ -2.0344179, 42.7167684 ], [ -2.0346819, 42.7165264 ], [ -2.0347432, 42.7165145 ], [ -2.0347317, 42.7164699 ], [ -2.0346711, 42.7164407 ], [ -2.0343346, 42.7163332 ], [ -2.0340387, 42.716266 ], [ -2.0337561, 42.7161814 ], [ -2.0334175, 42.7160626 ], [ -2.0330548, 42.7159273 ], [ -2.0326701, 42.7157822 ], [ -2.0322853, 42.7156393 ], [ -2.032032, 42.7155303 ], [ -2.0319052, 42.7154887 ], [ -2.0316114, 42.7153877 ], [ -2.0314034, 42.7153189 ], [ -2.0311959, 42.7152654 ], [ -2.0309882, 42.7151742 ], [ -2.0307939, 42.7150498 ], [ -2.030662, 42.7149457 ], [ -2.0305487, 42.7148659 ], [ -2.0304475, 42.7147953 ], [ -2.0302556, 42.7147222 ], [ -2.0300616, 42.7146766 ], [ -2.029785, 42.7146 ], [ -2.0293908, 42.7144745 ], [ -2.0291379, 42.7143924 ], [ -2.0289491, 42.7143171 ], [ -2.028924, 42.7143068 ], [ -2.028781, 42.7142262 ], [ -2.0286602, 42.714148 ], [ -2.0285253, 42.7140833 ], [ -2.0283484, 42.7140284 ], [ -2.0281712, 42.7139829 ], [ -2.0279742, 42.7138918 ], [ -2.0277615, 42.7137774 ], [ -2.0275696, 42.713652 ], [ -2.0274453, 42.713549 ], [ -2.0273983, 42.7134816 ], [ -2.0273116, 42.713307 ], [ -2.0272118, 42.7131046 ], [ -2.027191, 42.7130651 ], [ -2.0271577, 42.7130006 ], [ -2.0270195, 42.7128097 ], [ -2.0268449, 42.7126017 ], [ -2.0267275, 42.712451 ], [ -2.0266529, 42.7123378 ], [ -2.0266151, 42.7123651 ], [ -2.0260396, 42.7122678 ], [ -2.0255901, 42.7122128 ], [ -2.0254257, 42.71219 ], [ -2.0249429, 42.7121656 ], [ -2.0242034, 42.7121121 ], [ -2.0237646, 42.7120627 ], [ -2.0234529, 42.7120308 ], [ -2.0233455, 42.7120186 ], [ -2.0231314, 42.7119948 ], [ -2.0229466, 42.7120006 ], [ -2.0226506, 42.7119924 ], [ -2.0225081, 42.7119777 ], [ -2.0220999, 42.711923 ], [ -2.021188, 42.7118128 ], [ -2.0211789, 42.7118115 ], [ -2.0208056, 42.711814 ], [ -2.0202914, 42.7118023 ], [ -2.0200978, 42.7117815 ], [ -2.019663, 42.711722 ], [ -2.0196332, 42.7115827 ], [ -2.0195805, 42.7115823 ], [ -2.0194633, 42.7115622 ], [ -2.0193844, 42.71153 ], [ -2.0191962, 42.7114096 ], [ -2.0188229, 42.7111233 ], [ -2.0186331, 42.7110125 ], [ -2.0185521, 42.7109752 ], [ -2.0185096, 42.7109557 ], [ -2.0184945, 42.7109488 ], [ -2.0184726, 42.7109318 ], [ -2.0184425, 42.7109073 ], [ -2.0182487, 42.7107097 ], [ -2.0181241, 42.7106259 ], [ -2.0180943, 42.7106724 ], [ -2.0180275, 42.7107005 ], [ -2.0177434, 42.7109047 ], [ -2.0174281, 42.7111051 ], [ -2.0173423, 42.7111218 ], [ -2.0170169, 42.7111444 ], [ -2.016806, 42.7109658 ], [ -2.0167207, 42.7108593 ], [ -2.0167303, 42.710825 ], [ -2.0167534, 42.7106676 ], [ -2.016797, 42.71052 ], [ -2.0167245, 42.7104693 ], [ -2.0166626, 42.7104277 ], [ -2.016572, 42.7103666 ], [ -2.0160967, 42.7100192 ], [ -2.0159132, 42.709891 ], [ -2.0155443, 42.7097668 ], [ -2.0153986, 42.7097121 ], [ -2.0152977, 42.7096741 ], [ -2.015191, 42.7099062 ], [ -2.0151452, 42.7100054 ], [ -2.0143377, 42.710487 ], [ -2.0142092, 42.7106002 ], [ -2.0141844, 42.7106224 ], [ -2.0139182, 42.7108571 ], [ -2.0136203, 42.7110611 ], [ -2.0134271, 42.7111664 ], [ -2.0128527, 42.71105 ], [ -2.0126593, 42.7110258 ], [ -2.0126141, 42.7110322 ], [ -2.0120946, 42.7107789 ], [ -2.011578, 42.7105336 ], [ -2.0110871, 42.7103002 ], [ -2.0107787, 42.7101602 ], [ -2.009798, 42.7111649 ], [ -2.009437, 42.7115023 ], [ -2.0089343, 42.7119673 ], [ -2.0086556, 42.7123533 ], [ -2.0086302, 42.7123727 ], [ -2.0084515, 42.7125676 ], [ -2.0082764, 42.7127789 ], [ -2.0076724, 42.7135644 ], [ -2.0072759, 42.714157 ], [ -2.0068718, 42.7148025 ], [ -2.0066419, 42.7151022 ], [ -2.0066083, 42.7151435 ], [ -2.0051775, 42.7158898 ], [ -2.0050087, 42.7159907 ], [ -2.0047961, 42.7163064 ], [ -2.0046246, 42.7165756 ], [ -2.0044303, 42.7168429 ], [ -2.0043479, 42.7170764 ], [ -2.0042582, 42.7172889 ], [ -2.0041681, 42.7175786 ], [ -2.0040685, 42.7178917 ], [ -2.0040761, 42.7183685 ], [ -2.0040683, 42.7189977 ], [ -2.0040778, 42.7200244 ], [ -2.0042147, 42.7203408 ], [ -2.0042181, 42.7203645 ], [ -2.0051994, 42.722491 ], [ -2.005253, 42.7225764 ], [ -2.0065256, 42.7248141 ], [ -2.0066217, 42.7249607 ], [ -2.0066418, 42.7249912 ], [ -2.0066453, 42.7250154 ], [ -2.0066743, 42.7250608 ], [ -2.0067615, 42.7251983 ], [ -2.0066313, 42.725648 ], [ -2.0066226, 42.7257211 ], [ -2.0066037, 42.7259956 ], [ -2.0065815, 42.726288 ], [ -2.0066377, 42.7267776 ], [ -2.0066496, 42.7271796 ], [ -2.0066538, 42.7273029 ], [ -2.0066437, 42.7273619 ], [ -2.0064018, 42.7280656 ], [ -2.0062804, 42.7284507 ], [ -2.0062632, 42.7284759 ], [ -2.006233, 42.7285538 ], [ -2.0060172, 42.7292043 ], [ -2.0059219, 42.7295322 ], [ -2.0057922, 42.7299993 ], [ -2.0058063, 42.7300298 ], [ -2.0059159, 42.730194 ], [ -2.0064479, 42.7309624 ], [ -2.0066025, 42.73089 ], [ -2.0072759, 42.7306966 ], [ -2.0073243, 42.7306818 ], [ -2.0074401, 42.730649 ], [ -2.0075882, 42.7307893 ], [ -2.0078205, 42.7309709 ], [ -2.0079206, 42.7310579 ], [ -2.0079978, 42.731103 ], [ -2.008038, 42.7311647 ], [ -2.0080994, 42.7312908 ], [ -2.0081659, 42.7314304 ], [ -2.0082166, 42.7314122 ], [ -2.0083751, 42.7313343 ], [ -2.0085318, 42.7312709 ], [ -2.0087027, 42.7311851 ], [ -2.0088885, 42.7313562 ], [ -2.0089913, 42.7314251 ], [ -2.0092071, 42.7315812 ], [ -2.0092857, 42.7316297 ], [ -2.0093372, 42.7316623 ], [ -2.0094079, 42.7317276 ], [ -2.0095329, 42.7318323 ], [ -2.0096055, 42.7319257 ], [ -2.0096677, 42.7320462 ], [ -2.0097413, 42.7321734 ], [ -2.0098517, 42.7323843 ], [ -2.0099737, 42.732588 ], [ -2.0100698, 42.7327369 ], [ -2.0102809, 42.732898 ], [ -2.0103826, 42.73299 ], [ -2.0104704, 42.7330358 ], [ -2.0105523, 42.7330681 ], [ -2.0106531, 42.7331201 ], [ -2.0107662, 42.7332061 ], [ -2.0108461, 42.7332709 ], [ -2.0109279, 42.7333623 ], [ -2.0110382, 42.7334358 ], [ -2.0112301, 42.7335602 ], [ -2.0113988, 42.7336574 ], [ -2.0115248, 42.7337046 ], [ -2.0116144, 42.7337403 ], [ -2.0117505, 42.7337696 ], [ -2.0119867, 42.7338538 ], [ -2.012114, 42.7339117 ], [ -2.0123002, 42.7340175 ], [ -2.0124318, 42.7340935 ], [ -2.0125166, 42.7341398 ], [ -2.012627, 42.7342066 ], [ -2.0128554, 42.7342941 ], [ -2.0129722, 42.7343396 ], [ -2.0131896, 42.7344022 ], [ -2.013348, 42.7344289 ], [ -2.0134709, 42.7344761 ], [ -2.0134987, 42.7345107 ], [ -2.0135897, 42.7345914 ], [ -2.0137426, 42.7347244 ], [ -2.0138048, 42.7347965 ], [ -2.0138631, 42.7348757 ], [ -2.0140023, 42.7350537 ], [ -2.0140507, 42.7351357 ], [ -2.014123, 42.7352416 ], [ -2.0141589, 42.7352942 ], [ -2.0142192, 42.7353871 ], [ -2.0143539, 42.7355633 ], [ -2.0144428, 42.735685 ], [ -2.0145687, 42.7358342 ], [ -2.0146988, 42.7360081 ], [ -2.0147373, 42.7360816 ], [ -2.0147682, 42.736155 ], [ -2.0148205, 42.7362742 ], [ -2.0148423, 42.7363932 ], [ -2.0148573, 42.7365109 ], [ -2.0149221, 42.7366629 ], [ -2.0149821, 42.7367765 ], [ -2.015102, 42.7369644 ], [ -2.015213, 42.7370971 ], [ -2.015277, 42.7371522 ], [ -2.0153558, 42.7372385 ], [ -2.0154371, 42.7373129 ], [ -2.0154936, 42.7373601 ], [ -2.0155636, 42.7374243 ], [ -2.0156397, 42.7374874 ], [ -2.015777, 42.7375899 ], [ -2.0158734, 42.7376797 ], [ -2.0160044, 42.7377945 ], [ -2.0160758, 42.7378632 ], [ -2.0161851, 42.7380043 ], [ -2.0163153, 42.7381726 ], [ -2.0163907, 42.7382756 ], [ -2.0164713, 42.7383484 ], [ -2.0165186, 42.7383955 ], [ -2.0166006, 42.7384745 ], [ -2.0166648, 42.7385195 ], [ -2.0167154, 42.7385593 ], [ -2.0168135, 42.7386288 ], [ -2.016925, 42.7387238 ], [ -2.0171156, 42.7388881 ], [ -2.017254, 42.7390226 ], [ -2.0174592, 42.7391775 ], [ -2.0175665, 42.7392488 ], [ -2.0176486, 42.7393176 ], [ -2.0177718, 42.7394498 ], [ -2.0178894, 42.7395453 ], [ -2.0182189, 42.739856 ], [ -2.0186099, 42.7391789 ], [ -2.0187197, 42.7389891 ], [ -2.0192471, 42.738231 ], [ -2.0194913, 42.7379471 ], [ -2.0197317, 42.7377195 ], [ -2.019805, 42.7376667 ], [ -2.0198574, 42.737639 ], [ -2.0201894, 42.7376458 ], [ -2.0205158, 42.7376716 ], [ -2.0208384, 42.7377448 ], [ -2.0209365, 42.7377704 ], [ -2.0210757, 42.7378042 ], [ -2.0222795, 42.7379704 ], [ -2.0227256, 42.7380513 ], [ -2.0228093, 42.7380757 ], [ -2.0234134, 42.7383049 ], [ -2.0236711, 42.7384314 ], [ -2.0237333, 42.738504 ], [ -2.0237292, 42.7385715 ] ] ] } }
]
}
