{
"type": "FeatureCollection",
"name": "31015",
"features": [
{ "type": "Feature", "properties": { "CCAA": "15 - Comunidad Foral de Navarra", "PROVINCIA": "31 - Navarra", "MUNICIPIO": "31015 - Andosilla", "COD_MUNICIPIO": "31015", "DISTRITO": "01", "SECCION": "3101501001", "V1_H": 80.63, "V1_M": 86.52, "V2_H": 80.3855305, "V2_M": 86.44800565, "V3_H": 80.88841766, "V3_M": 86.66780776 }, "geometry": { "type": "Polygon", "coordinates": [ [ [ -1.9087384, 42.4329244 ], [ -1.9089519, 42.4329219 ], [ -1.909333, 42.4328991 ], [ -1.9095683, 42.4329143 ], [ -1.9096937, 42.4329081 ], [ -1.910116, 42.4329201 ], [ -1.9104726, 42.4329521 ], [ -1.9105844, 42.4329448 ], [ -1.9107608, 42.432938 ], [ -1.9110798, 42.4329016 ], [ -1.9115705, 42.4328208 ], [ -1.9122231, 42.4327403 ], [ -1.9123892, 42.4327098 ], [ -1.9127773, 42.432638 ], [ -1.9129182, 42.4326146 ], [ -1.9133914, 42.4325374 ], [ -1.9135514, 42.4325114 ], [ -1.9136314, 42.4324987 ], [ -1.9137979, 42.4324952 ], [ -1.9138868, 42.4324932 ], [ -1.914322, 42.4324163 ], [ -1.9150779, 42.4322878 ], [ -1.9156051, 42.4322083 ], [ -1.9157392, 42.4321882 ], [ -1.9164371, 42.432075 ], [ -1.9164928, 42.4320659 ], [ -1.9169827, 42.4319872 ], [ -1.9170414, 42.4319776 ], [ -1.9171602, 42.4319585 ], [ -1.9178327, 42.431827 ], [ -1.9185215, 42.431668 ], [ -1.9186808, 42.4316425 ], [ -1.9191516, 42.4315664 ], [ -1.9195671, 42.4314871 ], [ -1.920032, 42.4313575 ], [ -1.9205029, 42.4312809 ], [ -1.9210616, 42.4311775 ], [ -1.9217875, 42.4310279 ], [ -1.922379, 42.430918 ], [ -1.9228264, 42.4307928 ], [ -1.9232321, 42.430661 ], [ -1.9234094, 42.4306035 ], [ -1.9239712, 42.4304529 ], [ -1.924777, 42.4302049 ], [ -1.9252961, 42.4300618 ], [ -1.9253571, 42.4300466 ], [ -1.9254144, 42.4300302 ], [ -1.925863, 42.4298335 ], [ -1.9263356, 42.4296527 ], [ -1.9265605, 42.4295654 ], [ -1.9268726, 42.4294444 ], [ -1.9274115, 42.4292075 ], [ -1.9278859, 42.4290166 ], [ -1.9282137, 42.4288598 ], [ -1.9284468, 42.4287331 ], [ -1.9286839, 42.428598 ], [ -1.9289108, 42.4283035 ], [ -1.9291051, 42.428043 ], [ -1.9292995, 42.4277825 ], [ -1.9296641, 42.4273013 ], [ -1.9299153, 42.4269592 ], [ -1.9299632, 42.4268701 ], [ -1.9300494, 42.4267122 ], [ -1.9302455, 42.4263937 ], [ -1.9305296, 42.4258645 ], [ -1.9306893, 42.4255857 ], [ -1.9307806, 42.4253991 ], [ -1.9308654, 42.42515 ], [ -1.9308789, 42.4251141 ], [ -1.9309528, 42.4249206 ], [ -1.9310716, 42.4245969 ], [ -1.9312311, 42.4241949 ], [ -1.931366, 42.4238145 ], [ -1.9313732, 42.4237915 ], [ -1.9313942, 42.4237208 ], [ -1.9314707, 42.4234614 ], [ -1.9315159, 42.4233082 ], [ -1.9316253, 42.4229056 ], [ -1.9317512, 42.4225139 ], [ -1.9318781, 42.4222443 ], [ -1.9319334, 42.4220749 ], [ -1.9320319, 42.4218214 ], [ -1.9321308, 42.4215442 ], [ -1.9321699, 42.4214349 ], [ -1.9322079, 42.4213001 ], [ -1.9322941, 42.4210555 ], [ -1.9324379, 42.4206398 ], [ -1.9325652, 42.4203449 ], [ -1.9326343, 42.4201688 ], [ -1.9327279, 42.4199383 ], [ -1.9328347, 42.4195954 ], [ -1.9328725, 42.4194314 ], [ -1.9329398, 42.4191371 ], [ -1.9330619, 42.4187003 ], [ -1.9330792, 42.418615 ], [ -1.9329961, 42.4180575 ], [ -1.9332008, 42.4178072 ], [ -1.9332334, 42.4177676 ], [ -1.9334591, 42.4174916 ], [ -1.9334809, 42.4174648 ], [ -1.9339687, 42.4168722 ], [ -1.9340951, 42.4167196 ], [ -1.9341857, 42.4165308 ], [ -1.9342146, 42.4164838 ], [ -1.934353, 42.4163393 ], [ -1.9346131, 42.4160558 ], [ -1.9348026, 42.4158533 ], [ -1.9350291, 42.4155751 ], [ -1.9351613, 42.4153939 ], [ -1.9352427, 42.4153007 ], [ -1.9353351, 42.4152244 ], [ -1.9355045, 42.4150036 ], [ -1.9356313, 42.4148703 ], [ -1.9357221, 42.4147552 ], [ -1.9358777, 42.4146323 ], [ -1.9360658, 42.414513 ], [ -1.9362262, 42.4144109 ], [ -1.9363829, 42.4143083 ], [ -1.9366301, 42.4141563 ], [ -1.9366929, 42.4141276 ], [ -1.9366993, 42.4141074 ], [ -1.9367008, 42.4141052 ], [ -1.9367701, 42.4140101 ], [ -1.9368527, 42.413837 ], [ -1.9368891, 42.4137962 ], [ -1.936997, 42.413616 ], [ -1.9370628, 42.4134562 ], [ -1.9371317, 42.4133341 ], [ -1.9372242, 42.4132044 ], [ -1.9373466, 42.4130209 ], [ -1.9374729, 42.412833 ], [ -1.9375132, 42.4127821 ], [ -1.9376562, 42.412592 ], [ -1.9378163, 42.4122401 ], [ -1.9379862, 42.4118944 ], [ -1.9381397, 42.4115316 ], [ -1.9381864, 42.4114668 ], [ -1.9383727, 42.4110947 ], [ -1.9384147, 42.410991 ], [ -1.9384919, 42.4108735 ], [ -1.9385635, 42.4107217 ], [ -1.9385943, 42.4106532 ], [ -1.9386007, 42.410637 ], [ -1.9386201, 42.410613 ], [ -1.9388117, 42.4101498 ], [ -1.9388674, 42.4100001 ], [ -1.9390118, 42.4096361 ], [ -1.9390966, 42.4094275 ], [ -1.9392589, 42.4090355 ], [ -1.9392765, 42.4089377 ], [ -1.9393899, 42.408699 ], [ -1.9394672, 42.4085714 ], [ -1.9396764, 42.408149 ], [ -1.9398414, 42.4078229 ], [ -1.9399463, 42.4076393 ], [ -1.940112, 42.4073571 ], [ -1.9401903, 42.4072216 ], [ -1.9402509, 42.4070927 ], [ -1.9402848, 42.4070221 ], [ -1.9403389, 42.4069646 ], [ -1.9404058, 42.406918 ], [ -1.9404227, 42.4069046 ], [ -1.9408016, 42.4065952 ], [ -1.9413972, 42.4061318 ], [ -1.941712, 42.4058848 ], [ -1.9421608, 42.4055304 ], [ -1.9423432, 42.4053886 ], [ -1.9423887, 42.4053496 ], [ -1.9424021, 42.4053165 ], [ -1.9424481, 42.4052438 ], [ -1.942507, 42.4051784 ], [ -1.9425565, 42.4051237 ], [ -1.9426476, 42.4050362 ], [ -1.942799, 42.404929 ], [ -1.9428759, 42.4048711 ], [ -1.9430006, 42.4048177 ], [ -1.9430626, 42.4047885 ], [ -1.9432317, 42.4047157 ], [ -1.9432969, 42.404678 ], [ -1.9433568, 42.4046386 ], [ -1.9436204, 42.4044519 ], [ -1.9436743, 42.4044119 ], [ -1.9437433, 42.4043748 ], [ -1.9437463, 42.4043737 ], [ -1.9438509, 42.4042992 ], [ -1.943959, 42.4042372 ], [ -1.9439921, 42.4042133 ], [ -1.9440959, 42.4041343 ], [ -1.9441713, 42.4040788 ], [ -1.9442362, 42.4040107 ], [ -1.9443106, 42.4039213 ], [ -1.944401, 42.4038293 ], [ -1.9444325, 42.4038082 ], [ -1.944464, 42.403787 ], [ -1.9445499, 42.403735 ], [ -1.944595, 42.4037179 ], [ -1.9447117, 42.403692 ], [ -1.9447803, 42.4036774 ], [ -1.9448438, 42.403651 ], [ -1.944893, 42.4036148 ], [ -1.944934, 42.4035679 ], [ -1.9449537, 42.4035226 ], [ -1.944959, 42.4034826 ], [ -1.9449996, 42.4034633 ], [ -1.9450272, 42.4034427 ], [ -1.9450672, 42.4034144 ], [ -1.9452342, 42.4033326 ], [ -1.9454797, 42.4032268 ], [ -1.9457199, 42.4031249 ], [ -1.9459364, 42.4030306 ], [ -1.9459662, 42.4030168 ], [ -1.9460627, 42.4029716 ], [ -1.9465264, 42.402718 ], [ -1.9468409, 42.4025352 ], [ -1.9482236, 42.4017306 ], [ -1.948278, 42.4017041 ], [ -1.9483861, 42.4016449 ], [ -1.9484658, 42.4016011 ], [ -1.9485457, 42.4015439 ], [ -1.9485924, 42.4015224 ], [ -1.9486388, 42.4014733 ], [ -1.9490841, 42.4010952 ], [ -1.9491897, 42.4009976 ], [ -1.9492363, 42.4009373 ], [ -1.9493223, 42.4008367 ], [ -1.9494829, 42.4006772 ], [ -1.9496303, 42.4005395 ], [ -1.9498237, 42.4003753 ], [ -1.9499685, 42.4002488 ], [ -1.950401, 42.39991 ], [ -1.9504372, 42.3998794 ], [ -1.9505889, 42.3997502 ], [ -1.9507551, 42.3996217 ], [ -1.9510075, 42.3994248 ], [ -1.9512038, 42.3992689 ], [ -1.951294, 42.3991848 ], [ -1.9515167, 42.3989453 ], [ -1.95177, 42.3986899 ], [ -1.9519471, 42.3984996 ], [ -1.9521714, 42.3983052 ], [ -1.9522649, 42.3982025 ], [ -1.9523129, 42.3981511 ], [ -1.9523601, 42.3981009 ], [ -1.9524842, 42.3979917 ], [ -1.9525598, 42.3979187 ], [ -1.9526346, 42.3978468 ], [ -1.952714, 42.3977321 ], [ -1.9527893, 42.3976325 ], [ -1.9528882, 42.3974866 ], [ -1.9529675, 42.3973747 ], [ -1.9530218, 42.3973088 ], [ -1.9530883, 42.3972357 ], [ -1.9531939, 42.3971426 ], [ -1.9533094, 42.3970469 ], [ -1.9534036, 42.3969521 ], [ -1.9535288, 42.3968209 ], [ -1.9536341, 42.3966969 ], [ -1.9536861, 42.3966355 ], [ -1.9538678, 42.3964418 ], [ -1.9539931, 42.3963017 ], [ -1.9542014, 42.3960599 ], [ -1.9542578, 42.3960002 ], [ -1.9544124, 42.3958372 ], [ -1.9548564, 42.3953493 ], [ -1.9548687, 42.3953359 ], [ -1.9548953, 42.3952894 ], [ -1.9548993, 42.3952827 ], [ -1.9553753, 42.3947416 ], [ -1.9556756, 42.3943977 ], [ -1.9558033, 42.3942542 ], [ -1.9558412, 42.3942118 ], [ -1.9558435, 42.3942101 ], [ -1.9559092, 42.3941381 ], [ -1.9560201, 42.3940496 ], [ -1.9561495, 42.3939798 ], [ -1.9562162, 42.3939472 ], [ -1.9562776, 42.3939022 ], [ -1.9563207, 42.3938705 ], [ -1.9565688, 42.3936527 ], [ -1.9566911, 42.3935108 ], [ -1.9567182, 42.3934796 ], [ -1.9567428, 42.3934669 ], [ -1.9567451, 42.393464 ], [ -1.9569414, 42.3932565 ], [ -1.9569753, 42.3932235 ], [ -1.95613, 42.3924115 ], [ -1.9551634, 42.3914976 ], [ -1.9537178, 42.3901138 ], [ -1.9526953, 42.3891836 ], [ -1.951644, 42.3881631 ], [ -1.9506869, 42.3872279 ], [ -1.9495594, 42.3861379 ], [ -1.9487549, 42.3851647 ], [ -1.9475413, 42.3836383 ], [ -1.946876, 42.3828808 ], [ -1.9465831, 42.3825538 ], [ -1.9461333, 42.3819818 ], [ -1.9454217, 42.3810943 ], [ -1.944576, 42.3800475 ], [ -1.9438272, 42.3791085 ], [ -1.9428996, 42.3779736 ], [ -1.9427607, 42.3777472 ], [ -1.9429595, 42.3774361 ], [ -1.9435047, 42.3771557 ], [ -1.9443776, 42.3767107 ], [ -1.9448811, 42.3764288 ], [ -1.945186, 42.3760832 ], [ -1.9462501, 42.3749616 ], [ -1.9467697, 42.374443 ], [ -1.9469738, 42.3743131 ], [ -1.9474373, 42.3738288 ], [ -1.9475193, 42.3737429 ], [ -1.9475223, 42.373744 ], [ -1.9475919, 42.3736631 ], [ -1.9478168, 42.3734276 ], [ -1.9479507, 42.3732296 ], [ -1.9480818, 42.3731463 ], [ -1.9478804, 42.3727105 ], [ -1.9474023, 42.3718838 ], [ -1.9469409, 42.3710572 ], [ -1.9463013, 42.3699554 ], [ -1.9460256, 42.3695059 ], [ -1.9445017, 42.3668622 ], [ -1.9430788, 42.3644012 ], [ -1.9416666, 42.3619509 ], [ -1.9408014, 42.3604541 ], [ -1.9404763, 42.3598882 ], [ -1.940404, 42.3597603 ], [ -1.9403373, 42.359619 ], [ -1.9402702, 42.3594597 ], [ -1.9401912, 42.3592839 ], [ -1.9401217, 42.3590829 ], [ -1.9399956, 42.3587766 ], [ -1.9396915, 42.3579503 ], [ -1.9390062, 42.3560583 ], [ -1.9389457, 42.3559064 ], [ -1.9388933, 42.355911 ], [ -1.9386871, 42.3559439 ], [ -1.9384693, 42.3559875 ], [ -1.9383185, 42.3560176 ], [ -1.9381816, 42.3560406 ], [ -1.9381001, 42.3560561 ], [ -1.9380917, 42.3560578 ], [ -1.938043, 42.356068 ], [ -1.9378694, 42.3560996 ], [ -1.9378176, 42.3561093 ], [ -1.9376411, 42.3561397 ], [ -1.9375754, 42.3558909 ], [ -1.9375705, 42.3558666 ], [ -1.937555, 42.3557961 ], [ -1.937551, 42.3557668 ], [ -1.9375309, 42.3557447 ], [ -1.9375053, 42.3557321 ], [ -1.9374405, 42.3557005 ], [ -1.9373926, 42.3556635 ], [ -1.9373679, 42.3556441 ], [ -1.93723, 42.3555837 ], [ -1.9372112, 42.3555751 ], [ -1.9371084, 42.3555494 ], [ -1.9369931, 42.3555021 ], [ -1.9369675, 42.3554907 ], [ -1.9369034, 42.3554614 ], [ -1.9368974, 42.3554585 ], [ -1.93685, 42.355435 ], [ -1.9367364, 42.3553776 ], [ -1.9365622, 42.3552662 ], [ -1.9364201, 42.3551861 ], [ -1.9363185, 42.3551385 ], [ -1.9362121, 42.3551014 ], [ -1.9361654, 42.3550864 ], [ -1.9360627, 42.3550534 ], [ -1.9359698, 42.3550288 ], [ -1.9359176, 42.3550149 ], [ -1.9358313, 42.3550051 ], [ -1.9356848, 42.3550059 ], [ -1.9356293, 42.3550105 ], [ -1.9355214, 42.3550196 ], [ -1.9353548, 42.3550456 ], [ -1.935143, 42.3550937 ], [ -1.934988, 42.3551458 ], [ -1.934985, 42.3551469 ], [ -1.9348337, 42.3552085 ], [ -1.9347028, 42.3552765 ], [ -1.9345841, 42.3553385 ], [ -1.9345153, 42.3553722 ], [ -1.9344586, 42.3554003 ], [ -1.9343387, 42.3554454 ], [ -1.9342891, 42.3554618 ], [ -1.934228, 42.3554821 ], [ -1.9341138, 42.3555069 ], [ -1.9339128, 42.3555422 ], [ -1.9337592, 42.3555644 ], [ -1.9336702, 42.3555771 ], [ -1.9334656, 42.3555999 ], [ -1.9333416, 42.3556219 ], [ -1.9332738, 42.3556336 ], [ -1.9331116, 42.3556687 ], [ -1.9328595, 42.3557232 ], [ -1.9327207, 42.3557613 ], [ -1.9325934, 42.3557961 ], [ -1.9324454, 42.3558398 ], [ -1.9322379, 42.3559003 ], [ -1.9320197, 42.3559704 ], [ -1.9318884, 42.3560125 ], [ -1.9315761, 42.3561328 ], [ -1.9312821, 42.3562376 ], [ -1.9310744, 42.356315 ], [ -1.9308543, 42.3564024 ], [ -1.9306734, 42.3565071 ], [ -1.9305091, 42.356621 ], [ -1.9303367, 42.3567641 ], [ -1.9302311, 42.3568593 ], [ -1.9301313, 42.3569687 ], [ -1.9300798, 42.3570532 ], [ -1.9300067, 42.3571522 ], [ -1.9299503, 42.3572586 ], [ -1.9298907, 42.3573712 ], [ -1.9298201, 42.3575517 ], [ -1.9297522, 42.3577515 ], [ -1.9296918, 42.358002 ], [ -1.9296878, 42.3580166 ], [ -1.9296699, 42.3580873 ], [ -1.9296508, 42.3581406 ], [ -1.9296459, 42.3581541 ], [ -1.9295888, 42.3583044 ], [ -1.929545, 42.358425 ], [ -1.9295268, 42.3584659 ], [ -1.9293981, 42.3587585 ], [ -1.9293593, 42.3588122 ], [ -1.9293169, 42.3588512 ], [ -1.9292938, 42.3588662 ], [ -1.9292352, 42.3588758 ], [ -1.9291823, 42.3588623 ], [ -1.9291116, 42.3588307 ], [ -1.9290552, 42.3587947 ], [ -1.9289396, 42.3587216 ], [ -1.9287461, 42.3585864 ], [ -1.9286329, 42.3585026 ], [ -1.9285946, 42.3584814 ], [ -1.9285525, 42.3584585 ], [ -1.9285332, 42.3584324 ], [ -1.9284983, 42.3583854 ], [ -1.9284724, 42.3583469 ], [ -1.9284517, 42.3583163 ], [ -1.928405, 42.3582066 ], [ -1.9283918, 42.3581806 ], [ -1.928391, 42.3581784 ], [ -1.9283595, 42.3581161 ], [ -1.9283371, 42.3580467 ], [ -1.9283497, 42.3579787 ], [ -1.9284728, 42.3578302 ], [ -1.9285602, 42.3576914 ], [ -1.9285888, 42.357663 ], [ -1.9286251, 42.3576272 ], [ -1.9287258, 42.3575522 ], [ -1.9287922, 42.3574847 ], [ -1.9288385, 42.3574384 ], [ -1.928907, 42.3573361 ], [ -1.9290062, 42.3572171 ], [ -1.9290686, 42.3571147 ], [ -1.9290929, 42.3570693 ], [ -1.9291172, 42.3570217 ], [ -1.9291441, 42.3569634 ], [ -1.9291505, 42.3569421 ], [ -1.9291697, 42.356882 ], [ -1.9291713, 42.3566558 ], [ -1.9291734, 42.3565354 ], [ -1.9291736, 42.3565202 ], [ -1.9291737, 42.356514 ], [ -1.9291738, 42.3565072 ], [ -1.9291693, 42.3564616 ], [ -1.9291701, 42.3564576 ], [ -1.9291838, 42.3564122 ], [ -1.9292043, 42.3563217 ], [ -1.9292284, 42.3561981 ], [ -1.929227, 42.3561931 ], [ -1.9292255, 42.3561869 ], [ -1.9292156, 42.3561457 ], [ -1.9292144, 42.356086 ], [ -1.9292071, 42.3560662 ], [ -1.9291984, 42.3560431 ], [ -1.9291636, 42.3559921 ], [ -1.9291084, 42.3559381 ], [ -1.9290664, 42.3559062 ], [ -1.9290454, 42.3558908 ], [ -1.9290258, 42.3558844 ], [ -1.9289835, 42.3558716 ], [ -1.9289281, 42.3558694 ], [ -1.9288683, 42.3558672 ], [ -1.9287855, 42.3558681 ], [ -1.9287423, 42.3558683 ], [ -1.9286768, 42.3558823 ], [ -1.9286699, 42.3558845 ], [ -1.9286386, 42.3558937 ], [ -1.9286317, 42.3558982 ], [ -1.9286302, 42.3558993 ], [ -1.9285856, 42.3559292 ], [ -1.9285179, 42.3559844 ], [ -1.9285156, 42.355986 ], [ -1.9284923, 42.356019 ], [ -1.9284598, 42.3560553 ], [ -1.9284459, 42.3560709 ], [ -1.9284412, 42.3560771 ], [ -1.9284133, 42.3561112 ], [ -1.9283957, 42.3561616 ], [ -1.9283957, 42.3561633 ], [ -1.9283798, 42.3562093 ], [ -1.9283669, 42.3562486 ], [ -1.9283502, 42.356298 ], [ -1.9283272, 42.3563552 ], [ -1.9283074, 42.3564068 ], [ -1.9282866, 42.3564674 ], [ -1.9282429, 42.3565328 ], [ -1.9281965, 42.3565876 ], [ -1.9281779, 42.3566093 ], [ -1.9281346, 42.3566545 ], [ -1.9281122, 42.3566797 ], [ -1.9280985, 42.3566835 ], [ -1.9280741, 42.35669 ], [ -1.9280391, 42.3566958 ], [ -1.9280216, 42.3566985 ], [ -1.9278607, 42.3567015 ], [ -1.927762, 42.3566989 ], [ -1.9276219, 42.3566835 ], [ -1.9275857, 42.3566685 ], [ -1.9275767, 42.3566651 ], [ -1.9275435, 42.3566507 ], [ -1.9275337, 42.356645 ], [ -1.9275082, 42.3566295 ], [ -1.9274699, 42.3566061 ], [ -1.9274594, 42.3565998 ], [ -1.9274379, 42.3565675 ], [ -1.9274023, 42.356521 ], [ -1.9273978, 42.3565154 ], [ -1.9273972, 42.3565092 ], [ -1.9273914, 42.3564466 ], [ -1.9274075, 42.3561282 ], [ -1.9274156, 42.3559645 ], [ -1.9274069, 42.3559419 ], [ -1.9274039, 42.3559345 ], [ -1.9273784, 42.3559179 ], [ -1.9273206, 42.3558792 ], [ -1.927268, 42.35585 ], [ -1.9272079, 42.3558167 ], [ -1.9271461, 42.355788 ], [ -1.9270317, 42.355734 ], [ -1.9269083, 42.3556721 ], [ -1.9269015, 42.3556687 ], [ -1.9266402, 42.3555508 ], [ -1.9265423, 42.3555043 ], [ -1.9265401, 42.3555032 ], [ -1.9265341, 42.3555003 ], [ -1.9265114, 42.3554922 ], [ -1.9265092, 42.3554911 ], [ -1.9263553, 42.3554356 ], [ -1.9262548, 42.3554076 ], [ -1.9261393, 42.3553756 ], [ -1.9259995, 42.3553377 ], [ -1.9252723, 42.3551237 ], [ -1.9245587, 42.3549183 ], [ -1.9238028, 42.3546996 ], [ -1.9231224, 42.3545041 ], [ -1.9230303, 42.3544762 ], [ -1.9229101, 42.3544503 ], [ -1.9227406, 42.3544194 ], [ -1.9226739, 42.354416 ], [ -1.9226064, 42.3544125 ], [ -1.9224593, 42.3544089 ], [ -1.9223687, 42.3544232 ], [ -1.9222976, 42.3544524 ], [ -1.9222693, 42.3544657 ], [ -1.9222647, 42.3544673 ], [ -1.9221272, 42.3545195 ], [ -1.9221242, 42.3545206 ], [ -1.9221211, 42.3545217 ], [ -1.9220975, 42.3545304 ], [ -1.9219959, 42.3545683 ], [ -1.9216136, 42.3546875 ], [ -1.9216106, 42.354688 ], [ -1.9214587, 42.3547355 ], [ -1.9214488, 42.3547388 ], [ -1.9213474, 42.3547705 ], [ -1.9213435, 42.3547716 ], [ -1.9213176, 42.3547798 ], [ -1.9213138, 42.3547809 ], [ -1.9213046, 42.3547842 ], [ -1.9202669, 42.3551155 ], [ -1.9200395, 42.3551882 ], [ -1.9200349, 42.3551898 ], [ -1.919951, 42.3552133 ], [ -1.919932, 42.3552192 ], [ -1.9197084, 42.3552875 ], [ -1.9192765, 42.3554225 ], [ -1.9190942, 42.3554759 ], [ -1.9183351, 42.3557136 ], [ -1.9183259, 42.3557169 ], [ -1.9178942, 42.3558456 ], [ -1.9177997, 42.3558656 ], [ -1.9177791, 42.3558721 ], [ -1.917741, 42.3558847 ], [ -1.9177211, 42.3558947 ], [ -1.9176912, 42.3559096 ], [ -1.9176698, 42.3559201 ], [ -1.9176445, 42.3559345 ], [ -1.9175633, 42.3559798 ], [ -1.917496, 42.3560125 ], [ -1.9174936, 42.3560135 ], [ -1.9174485, 42.3560362 ], [ -1.917349, 42.3560865 ], [ -1.917278, 42.3561094 ], [ -1.9171404, 42.3561627 ], [ -1.9171001, 42.3561725 ], [ -1.9170909, 42.3561747 ], [ -1.9169553, 42.3562072 ], [ -1.9168562, 42.3562315 ], [ -1.9167921, 42.356254 ], [ -1.9167646, 42.3562633 ], [ -1.9166476, 42.3563162 ], [ -1.9166077, 42.3563395 ], [ -1.9165464, 42.3563749 ], [ -1.9165035, 42.3563965 ], [ -1.9164859, 42.3564054 ], [ -1.9164146, 42.3564491 ], [ -1.9163309, 42.3565063 ], [ -1.9163078, 42.3565219 ], [ -1.9161924, 42.3565697 ], [ -1.9160962, 42.356606 ], [ -1.9160931, 42.3566071 ], [ -1.9160801, 42.3566114 ], [ -1.9158641, 42.3566843 ], [ -1.9157947, 42.3567084 ], [ -1.9157326, 42.3567404 ], [ -1.9156874, 42.3567648 ], [ -1.9155571, 42.356839 ], [ -1.9155118, 42.3568712 ], [ -1.915415, 42.3569361 ], [ -1.9154097, 42.35694 ], [ -1.915309, 42.357015 ], [ -1.9152691, 42.3570395 ], [ -1.9152377, 42.3570582 ], [ -1.9151963, 42.3570793 ], [ -1.9151818, 42.3570865 ], [ -1.9151106, 42.357119 ], [ -1.9149906, 42.3571708 ], [ -1.9148751, 42.3572203 ], [ -1.9147874, 42.3572482 ], [ -1.9147613, 42.3572637 ], [ -1.9147092, 42.3572953 ], [ -1.914637, 42.3573385 ], [ -1.9146118, 42.3573535 ], [ -1.9146102, 42.3573546 ], [ -1.9146056, 42.3573568 ], [ -1.9145099, 42.3574099 ], [ -1.9143895, 42.3574797 ], [ -1.9143311, 42.3575231 ], [ -1.9142737, 42.3575918 ], [ -1.9142557, 42.3576282 ], [ -1.9142454, 42.35765 ], [ -1.9142438, 42.3576556 ], [ -1.9142341, 42.3576904 ], [ -1.9142249, 42.3576948 ], [ -1.9141928, 42.3577109 ], [ -1.9140696, 42.357811 ], [ -1.9133571, 42.3583773 ], [ -1.9132467, 42.3584866 ], [ -1.913046, 42.3586805 ], [ -1.9128918, 42.3588226 ], [ -1.9128331, 42.3588761 ], [ -1.912767, 42.3589289 ], [ -1.9126801, 42.3589945 ], [ -1.9126067, 42.3590259 ], [ -1.9125563, 42.3590417 ], [ -1.9125067, 42.3590575 ], [ -1.9125036, 42.3590592 ], [ -1.9124599, 42.3590864 ], [ -1.9123711, 42.3591306 ], [ -1.9123612, 42.3591356 ], [ -1.912342, 42.3591483 ], [ -1.9122898, 42.3591838 ], [ -1.9122637, 42.359196 ], [ -1.9122385, 42.3592081 ], [ -1.9122338, 42.3592137 ], [ -1.9121912, 42.3592657 ], [ -1.9120609, 42.3593843 ], [ -1.9120377, 42.3594094 ], [ -1.9120354, 42.3594116 ], [ -1.91189, 42.3595679 ], [ -1.9118381, 42.3596298 ], [ -1.9117963, 42.3596796 ], [ -1.9115071, 42.3599853 ], [ -1.9113346, 42.3601711 ], [ -1.9112019, 42.3602998 ], [ -1.9111306, 42.3603858 ], [ -1.9110443, 42.3604627 ], [ -1.9110296, 42.3604755 ], [ -1.9110258, 42.3604788 ], [ -1.910961, 42.3605379 ], [ -1.91086, 42.3606264 ], [ -1.9108008, 42.3606737 ], [ -1.9107954, 42.3606764 ], [ -1.9107625, 42.3606913 ], [ -1.9106851, 42.3607345 ], [ -1.9106828, 42.3607356 ], [ -1.910659, 42.36075 ], [ -1.9105992, 42.3607849 ], [ -1.9101768, 42.3610319 ], [ -1.9098524, 42.3612236 ], [ -1.9098125, 42.3612474 ], [ -1.9092897, 42.3615481 ], [ -1.9092744, 42.3615569 ], [ -1.9092422, 42.3615769 ], [ -1.9090558, 42.3616905 ], [ -1.9089806, 42.3617365 ], [ -1.90894, 42.3617609 ], [ -1.9084479, 42.3620821 ], [ -1.9083297, 42.3621575 ], [ -1.9083274, 42.3621592 ], [ -1.9078884, 42.3624387 ], [ -1.9077012, 42.3625517 ], [ -1.9076621, 42.3625756 ], [ -1.907338, 42.362752 ], [ -1.9072476, 42.3628029 ], [ -1.9071756, 42.3628428 ], [ -1.9071733, 42.3628388 ], [ -1.9071363, 42.3628722 ], [ -1.9071286, 42.3628789 ], [ -1.9070323, 42.3629219 ], [ -1.907003, 42.3629453 ], [ -1.9069892, 42.3629564 ], [ -1.9068494, 42.3630907 ], [ -1.9067899, 42.3631538 ], [ -1.9067659, 42.36318 ], [ -1.9067095, 42.3632391 ], [ -1.9066516, 42.3632954 ], [ -1.9066051, 42.3633507 ], [ -1.9065632, 42.3634009 ], [ -1.9064818, 42.3634998 ], [ -1.9064537, 42.3635468 ], [ -1.9063853, 42.3636362 ], [ -1.9063283, 42.3636891 ], [ -1.9062966, 42.3637187 ], [ -1.9062404, 42.3637671 ], [ -1.9061819, 42.3638133 ], [ -1.9061558, 42.3638293 ], [ -1.9061213, 42.3638515 ], [ -1.9060607, 42.3638859 ], [ -1.9059647, 42.363948 ], [ -1.9059524, 42.3639563 ], [ -1.9058602, 42.3640218 ], [ -1.9058407, 42.3640532 ], [ -1.9058337, 42.3640632 ], [ -1.9057871, 42.3641264 ], [ -1.9057771, 42.3641764 ], [ -1.9057729, 42.3641994 ], [ -1.9057863, 42.3643881 ], [ -1.9057846, 42.3644033 ], [ -1.9057802, 42.3644348 ], [ -1.9057924, 42.3644749 ], [ -1.9057953, 42.3644828 ], [ -1.9057959, 42.3644935 ], [ -1.9057976, 42.3645239 ], [ -1.905714, 42.3646649 ], [ -1.9057053, 42.36468 ], [ -1.9056959, 42.3646991 ], [ -1.9056865, 42.3647153 ], [ -1.905648, 42.364791 ], [ -1.9056069, 42.3648891 ], [ -1.9056053, 42.3648918 ], [ -1.9056045, 42.3648941 ], [ -1.9055958, 42.3649148 ], [ -1.9055895, 42.3649249 ], [ -1.9055724, 42.3649517 ], [ -1.9055369, 42.3649824 ], [ -1.9055037, 42.3650113 ], [ -1.9054667, 42.3650504 ], [ -1.9053932, 42.3651273 ], [ -1.9051618, 42.365339 ], [ -1.9050538, 42.3654449 ], [ -1.9049008, 42.3655938 ], [ -1.9048228, 42.3656724 ], [ -1.9045741, 42.3659216 ], [ -1.904478, 42.3659939 ], [ -1.9043411, 42.3661378 ], [ -1.9042517, 42.366218 ], [ -1.9041275, 42.3663294 ], [ -1.904031, 42.3664241 ], [ -1.9040205, 42.3664589 ], [ -1.9040049, 42.3664852 ], [ -1.9039609, 42.3665738 ], [ -1.9039524, 42.3665821 ], [ -1.9039292, 42.3666055 ], [ -1.9038641, 42.3667248 ], [ -1.9038126, 42.3668065 ], [ -1.903811, 42.3668081 ], [ -1.9037408, 42.3669195 ], [ -1.9036935, 42.3670164 ], [ -1.9036928, 42.3670181 ], [ -1.9036542, 42.3670965 ], [ -1.9032134, 42.3673023 ], [ -1.9032004, 42.3673083 ], [ -1.9031055, 42.3673524 ], [ -1.9027701, 42.3675209 ], [ -1.9026713, 42.3675706 ], [ -1.9026445, 42.3675844 ], [ -1.9025977, 42.3676144 ], [ -1.9025739, 42.3676293 ], [ -1.9025094, 42.3676704 ], [ -1.9024132, 42.3677511 ], [ -1.9019466, 42.3680871 ], [ -1.901935, 42.3680955 ], [ -1.9019258, 42.3681027 ], [ -1.9019227, 42.3681049 ], [ -1.9017826, 42.3682184 ], [ -1.901708, 42.3682734 ], [ -1.9017065, 42.3682745 ], [ -1.9016357, 42.3683268 ], [ -1.9014882, 42.3684328 ], [ -1.901299, 42.3685695 ], [ -1.9010521, 42.3687562 ], [ -1.9008467, 42.3689169 ], [ -1.9008221, 42.3689308 ], [ -1.9007784, 42.3689551 ], [ -1.9006701, 42.3690267 ], [ -1.9006395, 42.3690405 ], [ -1.9006166, 42.3690509 ], [ -1.9005753, 42.3690691 ], [ -1.9004662, 42.3690996 ], [ -1.9003053, 42.3691442 ], [ -1.9001687, 42.3691812 ], [ -1.9001657, 42.3691828 ], [ -1.900073, 42.3692309 ], [ -1.8998482, 42.3693222 ], [ -1.8993785, 42.3694877 ], [ -1.899364, 42.3694926 ], [ -1.8992694, 42.3695238 ], [ -1.8992251, 42.369538 ], [ -1.8991022, 42.3695779 ], [ -1.8990823, 42.3695844 ], [ -1.8990342, 42.3696014 ], [ -1.8988983, 42.3696491 ], [ -1.8988217, 42.3696866 ], [ -1.8988179, 42.3696889 ], [ -1.8987889, 42.3696959 ], [ -1.8987866, 42.3696964 ], [ -1.8987668, 42.3697013 ], [ -1.8986603, 42.3697155 ], [ -1.8986413, 42.3697181 ], [ -1.8986261, 42.3697185 ], [ -1.8985311, 42.3697193 ], [ -1.8985008, 42.3697196 ], [ -1.8984946, 42.3697268 ], [ -1.8982943, 42.369936 ], [ -1.8982151, 42.3700388 ], [ -1.898205, 42.3700522 ], [ -1.8982034, 42.3700539 ], [ -1.8981048, 42.3701847 ], [ -1.8980908, 42.3702031 ], [ -1.8981274, 42.3702389 ], [ -1.8981348, 42.3702463 ], [ -1.898163, 42.3702854 ], [ -1.8981664, 42.3703079 ], [ -1.8981618, 42.3703529 ], [ -1.8981609, 42.370363 ], [ -1.8981563, 42.370408 ], [ -1.8981479, 42.3704524 ], [ -1.8981398, 42.3704788 ], [ -1.8981239, 42.370522 ], [ -1.8981057, 42.3705652 ], [ -1.898086, 42.3706077 ], [ -1.898067, 42.3706509 ], [ -1.8980536, 42.3706812 ], [ -1.8980339, 42.3707238 ], [ -1.8980141, 42.3707669 ], [ -1.8979952, 42.3708095 ], [ -1.8979762, 42.3708521 ], [ -1.897962, 42.3708846 ], [ -1.8979437, 42.3709278 ], [ -1.8979255, 42.3709709 ], [ -1.8979073, 42.3710136 ], [ -1.8978899, 42.3710567 ], [ -1.8978803, 42.3710819 ], [ -1.8978644, 42.3711257 ], [ -1.8978484, 42.3711689 ], [ -1.8978325, 42.3712126 ], [ -1.897815, 42.3712558 ], [ -1.8977961, 42.3712984 ], [ -1.8977835, 42.3713247 ], [ -1.89776, 42.3713661 ], [ -1.8977357, 42.3714076 ], [ -1.8977107, 42.3714484 ], [ -1.8976865, 42.3714899 ], [ -1.8976645, 42.3715318 ], [ -1.8976448, 42.3715716 ], [ -1.8976258, 42.3716142 ], [ -1.8976069, 42.3716568 ], [ -1.8975887, 42.3717 ], [ -1.8975791, 42.371723 ], [ -1.8975609, 42.3717661 ], [ -1.8975427, 42.3718087 ], [ -1.897526, 42.3718525 ], [ -1.8975252, 42.3718542 ], [ -1.8975108, 42.3718979 ], [ -1.8974964, 42.3719417 ], [ -1.8974796, 42.3719848 ], [ -1.8974749, 42.3719961 ], [ -1.8974529, 42.3720381 ], [ -1.8974294, 42.3720795 ], [ -1.8974044, 42.3721209 ], [ -1.8973817, 42.3721623 ], [ -1.8973636, 42.3721971 ], [ -1.8973431, 42.3722396 ], [ -1.8973211, 42.3722811 ], [ -1.8973149, 42.3722923 ], [ -1.8972861, 42.3723325 ], [ -1.8972633, 42.372374 ], [ -1.8972577, 42.3723942 ], [ -1.8972569, 42.3724392 ], [ -1.8972728, 42.3724827 ], [ -1.8972941, 42.3725251 ], [ -1.897305, 42.3725511 ], [ -1.8973217, 42.3725941 ], [ -1.8973232, 42.3725974 ], [ -1.8973392, 42.372637 ], [ -1.8973552, 42.3726766 ], [ -1.8973742, 42.3727195 ], [ -1.8973909, 42.3727625 ], [ -1.8974046, 42.3728065 ], [ -1.8974101, 42.3728347 ], [ -1.8974169, 42.3728798 ], [ -1.8974207, 42.3729248 ], [ -1.8974229, 42.3729699 ], [ -1.8974229, 42.3730149 ], [ -1.8974229, 42.3730566 ], [ -1.8974206, 42.3731016 ], [ -1.897416, 42.3731466 ], [ -1.8974061, 42.373191 ], [ -1.8973948, 42.373233 ], [ -1.8973773, 42.3732762 ], [ -1.8973478, 42.3733159 ], [ -1.8973393, 42.3733237 ], [ -1.8972955, 42.3733542 ], [ -1.897245, 42.3733796 ], [ -1.8971914, 42.3734022 ], [ -1.8971387, 42.3734259 ], [ -1.8971203, 42.3734342 ], [ -1.897069, 42.3734584 ], [ -1.897017, 42.3734816 ], [ -1.8969649, 42.3735047 ], [ -1.8969122, 42.3735273 ], [ -1.8968601, 42.3735499 ], [ -1.8968074, 42.3735724 ], [ -1.8967546, 42.373595 ], [ -1.896734, 42.3736038 ], [ -1.8966805, 42.3736252 ], [ -1.8966269, 42.3736467 ], [ -1.8965734, 42.3736681 ], [ -1.8965206, 42.3736901 ], [ -1.8964694, 42.3737138 ], [ -1.8964303, 42.3737337 ], [ -1.8963812, 42.3737597 ], [ -1.8963322, 42.3737868 ], [ -1.8962847, 42.3738145 ], [ -1.8962378, 42.3738433 ], [ -1.8961918, 42.3738733 ], [ -1.8957898, 42.3739831 ], [ -1.8957438, 42.3740125 ], [ -1.8956969, 42.3740413 ], [ -1.8956486, 42.3740689 ], [ -1.8956003, 42.3740966 ], [ -1.8955712, 42.3741122 ], [ -1.8955221, 42.3741387 ], [ -1.8954723, 42.3741646 ], [ -1.8954226, 42.3741895 ], [ -1.895372, 42.3742149 ], [ -1.8953207, 42.3742392 ], [ -1.8952694, 42.3742634 ], [ -1.8952189, 42.3742883 ], [ -1.8951845, 42.3743043 ], [ -1.895134, 42.374328 ], [ -1.8950819, 42.3743522 ], [ -1.8950306, 42.3743766 ], [ -1.8949793, 42.3744003 ], [ -1.8949273, 42.3744234 ], [ -1.8948753, 42.3744465 ], [ -1.8948232, 42.3744696 ], [ -1.8947705, 42.3744917 ], [ -1.8947529, 42.3744988 ], [ -1.8947001, 42.3745208 ], [ -1.8946466, 42.3745422 ], [ -1.8945923, 42.3745631 ], [ -1.8945381, 42.3745829 ], [ -1.8945106, 42.3745927 ], [ -1.8944549, 42.3746108 ], [ -1.8943984, 42.3746277 ], [ -1.8943419, 42.374644 ], [ -1.8942847, 42.3746598 ], [ -1.894229, 42.3746767 ], [ -1.8941733, 42.3746947 ], [ -1.8941397, 42.3747062 ], [ -1.8940854, 42.3747271 ], [ -1.8940319, 42.3747485 ], [ -1.8939792, 42.3747711 ], [ -1.8939271, 42.3747942 ], [ -1.8938758, 42.3748185 ], [ -1.8938376, 42.3748361 ], [ -1.8937862, 42.3748604 ], [ -1.8937334, 42.3748841 ], [ -1.8936829, 42.3749095 ], [ -1.8936353, 42.3749372 ], [ -1.8935992, 42.3749633 ], [ -1.8935583, 42.3750023 ], [ -1.8935295, 42.3750409 ], [ -1.8935177, 42.3750683 ], [ -1.8935129, 42.3750784 ], [ -1.8933968, 42.3753334 ], [ -1.8933842, 42.3753625 ], [ -1.8933622, 42.3754045 ], [ -1.893341, 42.3754466 ], [ -1.8933205, 42.3754891 ], [ -1.8933, 42.3755317 ], [ -1.8932795, 42.3755737 ], [ -1.8932598, 42.3756163 ], [ -1.8932401, 42.3756589 ], [ -1.8932211, 42.375702 ], [ -1.893203, 42.3757413 ], [ -1.893184, 42.3757844 ], [ -1.8931642, 42.3758271 ], [ -1.8931445, 42.3758696 ], [ -1.8931263, 42.3759128 ], [ -1.8931111, 42.3759565 ], [ -1.893099, 42.3760003 ], [ -1.8930973, 42.3760059 ], [ -1.8930905, 42.3760509 ], [ -1.8930882, 42.3760953 ], [ -1.8930881, 42.3761409 ], [ -1.8930889, 42.376186 ], [ -1.8930896, 42.376231 ], [ -1.8930892, 42.3762507 ], [ -1.8930877, 42.3762957 ], [ -1.8930854, 42.3763407 ], [ -1.8930823, 42.3763857 ], [ -1.89308, 42.3764313 ], [ -1.8930777, 42.3764763 ], [ -1.8930769, 42.3765213 ], [ -1.8930776, 42.3765658 ], [ -1.8930799, 42.3766108 ], [ -1.8930811, 42.3766283 ], [ -1.8930864, 42.3766734 ], [ -1.8930939, 42.376718 ], [ -1.8931038, 42.3767625 ], [ -1.8931151, 42.3768065 ], [ -1.8931273, 42.3768511 ], [ -1.8931294, 42.3768584 ], [ -1.8931446, 42.3769019 ], [ -1.8931613, 42.3769454 ], [ -1.8931802, 42.3769884 ], [ -1.8931985, 42.3770313 ], [ -1.8932159, 42.3770743 ], [ -1.8932304, 42.3771178 ], [ -1.8932325, 42.3771234 ], [ -1.8932439, 42.377168 ], [ -1.893253, 42.3772125 ], [ -1.8932605, 42.3772571 ], [ -1.8932681, 42.3773016 ], [ -1.8932716, 42.3773202 ], [ -1.8932799, 42.3773648 ], [ -1.8932883, 42.3774093 ], [ -1.8932935, 42.3774544 ], [ -1.8932935, 42.3774566 ], [ -1.893295, 42.3775017 ], [ -1.8932927, 42.3775467 ], [ -1.8932896, 42.3775917 ], [ -1.8932873, 42.3776367 ], [ -1.8932866, 42.377675 ], [ -1.8932881, 42.37772 ], [ -1.8932896, 42.3777651 ], [ -1.8932926, 42.3778101 ], [ -1.8932956, 42.3778552 ], [ -1.8932994, 42.3778997 ], [ -1.8933031, 42.3779448 ], [ -1.8933061, 42.3779898 ], [ -1.8933099, 42.3780349 ], [ -1.893311, 42.3780568 ], [ -1.893314, 42.3781019 ], [ -1.893317, 42.378147 ], [ -1.89332, 42.378192 ], [ -1.8933231, 42.3782371 ], [ -1.8933261, 42.3782821 ], [ -1.893329, 42.3783272 ], [ -1.8933313, 42.3783717 ], [ -1.8933335, 42.3784168 ], [ -1.893335, 42.3784618 ], [ -1.8933357, 42.378468 ], [ -1.8933364, 42.378513 ], [ -1.8933371, 42.3785581 ], [ -1.8933371, 42.3786031 ], [ -1.8933363, 42.3786481 ], [ -1.8933363, 42.3786931 ], [ -1.8933362, 42.3787381 ], [ -1.893337, 42.3787832 ], [ -1.8933384, 42.3788282 ], [ -1.8933384, 42.3788316 ], [ -1.8933384, 42.3788772 ], [ -1.8933368, 42.3789228 ], [ -1.8933375, 42.3789678 ], [ -1.8933436, 42.3790123 ], [ -1.8933558, 42.3790502 ], [ -1.8933916, 42.3790871 ], [ -1.8934057, 42.3791047 ], [ -1.8934117, 42.3791498 ], [ -1.8934123, 42.3791633 ], [ -1.8934107, 42.3792083 ], [ -1.8934069, 42.3792533 ], [ -1.893406, 42.379264 ], [ -1.8934021, 42.379309 ], [ -1.8933976, 42.379354 ], [ -1.8933929, 42.379399 ], [ -1.8933876, 42.3794434 ], [ -1.8933823, 42.3794883 ], [ -1.8933762, 42.3795333 ], [ -1.8933718, 42.3795631 ], [ -1.8933701, 42.3795783 ], [ -1.8933683, 42.3795906 ], [ -1.893365, 42.3796092 ], [ -1.8933641, 42.3796176 ], [ -1.8933565, 42.379662 ], [ -1.8933465, 42.379707 ], [ -1.8933374, 42.3797513 ], [ -1.8933298, 42.3797957 ], [ -1.893328, 42.3798143 ], [ -1.8933234, 42.3798593 ], [ -1.8933195, 42.3799043 ], [ -1.8933172, 42.3799493 ], [ -1.8933165, 42.3799943 ], [ -1.8933171, 42.3800393 ], [ -1.8933178, 42.3800489 ], [ -1.8933208, 42.380094 ], [ -1.8933253, 42.380139 ], [ -1.8933313, 42.3801836 ], [ -1.8933382, 42.3802287 ], [ -1.8933434, 42.3802732 ], [ -1.893346, 42.3802985 ], [ -1.8933506, 42.380343 ], [ -1.8933543, 42.3803881 ], [ -1.8933573, 42.3804332 ], [ -1.8933611, 42.3804782 ], [ -1.8933641, 42.3805233 ], [ -1.8933652, 42.3805464 ], [ -1.8933682, 42.3805914 ], [ -1.8933704, 42.3806365 ], [ -1.8933727, 42.3806815 ], [ -1.8933742, 42.3807266 ], [ -1.8933764, 42.3807716 ], [ -1.8933794, 42.3808167 ], [ -1.8933832, 42.3808618 ], [ -1.8933838, 42.3808702 ], [ -1.8933876, 42.3809152 ], [ -1.8933929, 42.3809604 ], [ -1.8933981, 42.3810048 ], [ -1.8934034, 42.3810499 ], [ -1.8934095, 42.3810945 ], [ -1.8934155, 42.3811395 ], [ -1.8934216, 42.3811841 ], [ -1.8934276, 42.3812292 ], [ -1.893433, 42.3812686 ], [ -1.893439, 42.3813132 ], [ -1.8934443, 42.3813582 ], [ -1.8934504, 42.3814028 ], [ -1.8934564, 42.3814479 ], [ -1.8934625, 42.3814923 ], [ -1.8934692, 42.3815375 ], [ -1.8934753, 42.381582 ], [ -1.8934821, 42.3816271 ], [ -1.8934889, 42.3816716 ], [ -1.8934957, 42.3817161 ], [ -1.8934992, 42.3817376 ], [ -1.8935067, 42.3817821 ], [ -1.893515, 42.3818267 ], [ -1.8935241, 42.3818712 ], [ -1.8935332, 42.3819157 ], [ -1.8935423, 42.3819603 ], [ -1.8935506, 42.3820048 ], [ -1.8935582, 42.3820494 ], [ -1.8935636, 42.3820889 ], [ -1.8935689, 42.3821334 ], [ -1.8935726, 42.3821784 ], [ -1.8935748, 42.3822235 ], [ -1.8935779, 42.3822685 ], [ -1.8935801, 42.3823136 ], [ -1.8935824, 42.3823586 ], [ -1.8935829, 42.3823699 ], [ -1.8935859, 42.382415 ], [ -1.893589, 42.38246 ], [ -1.893592, 42.3825051 ], [ -1.8935949, 42.3825501 ], [ -1.8935979, 42.3825946 ], [ -1.893601, 42.3826397 ], [ -1.8936032, 42.3826848 ], [ -1.8936047, 42.3827298 ], [ -1.8936054, 42.3827748 ], [ -1.8936064, 42.382808 ], [ -1.8936063, 42.3828531 ], [ -1.8936055, 42.3828981 ], [ -1.8936047, 42.3829431 ], [ -1.8936024, 42.3829881 ], [ -1.8936009, 42.3830331 ], [ -1.8935978, 42.3830781 ], [ -1.893594, 42.3831231 ], [ -1.8935902, 42.3831619 ], [ -1.8935841, 42.3832064 ], [ -1.8935765, 42.3832513 ], [ -1.8935682, 42.3832957 ], [ -1.893559, 42.3833406 ], [ -1.8935499, 42.383385 ], [ -1.8935408, 42.3834293 ], [ -1.8935339, 42.3834743 ], [ -1.8935278, 42.3835193 ], [ -1.8935248, 42.3835564 ], [ -1.8935241, 42.3836015 ], [ -1.8935241, 42.3836465 ], [ -1.8935255, 42.3836915 ], [ -1.8935285, 42.3837366 ], [ -1.8935323, 42.3837816 ], [ -1.8935368, 42.3838267 ], [ -1.8935414, 42.3838713 ], [ -1.8935459, 42.3839163 ], [ -1.8935477, 42.3839377 ], [ -1.893553, 42.3839822 ], [ -1.8935584, 42.3840273 ], [ -1.8935644, 42.3840718 ], [ -1.893572, 42.3841169 ], [ -1.893576, 42.3841423 ], [ -1.8935781, 42.3841536 ], [ -1.8935872, 42.3841981 ], [ -1.8935978, 42.3842427 ], [ -1.89361, 42.3842867 ], [ -1.8936213, 42.3843313 ], [ -1.8936312, 42.3843758 ], [ -1.893638, 42.3844204 ], [ -1.8936406, 42.3844452 ], [ -1.8936413, 42.3844902 ], [ -1.8936375, 42.3845352 ], [ -1.8936329, 42.3845802 ], [ -1.8936308, 42.3846145 ], [ -1.8936262, 42.3846601 ], [ -1.8936223, 42.3847051 ], [ -1.8936247, 42.3847417 ], [ -1.8936369, 42.3847857 ], [ -1.8936551, 42.3848286 ], [ -1.8936697, 42.3848609 ], [ -1.8936917, 42.3849027 ], [ -1.8937161, 42.3849441 ], [ -1.8937397, 42.3849854 ], [ -1.8937426, 42.384991 ], [ -1.8937669, 42.3850323 ], [ -1.8937897, 42.3850742 ], [ -1.8938066, 42.3851099 ], [ -1.8938225, 42.3851534 ], [ -1.8938354, 42.3851974 ], [ -1.893843, 42.3852425 ], [ -1.8938442, 42.385256 ], [ -1.8938427, 42.385301 ], [ -1.8938358, 42.385346 ], [ -1.8938259, 42.3853904 ], [ -1.8938153, 42.3854353 ], [ -1.8938103, 42.3854566 ], [ -1.8937996, 42.385506 ], [ -1.8937882, 42.3855498 ], [ -1.8937769, 42.3855846 ], [ -1.8933632, 42.3864458 ], [ -1.893348, 42.3864895 ], [ -1.8933328, 42.3865327 ], [ -1.8933169, 42.3865764 ], [ -1.8933009, 42.3866196 ], [ -1.8932842, 42.3866628 ], [ -1.8932667, 42.3867065 ], [ -1.8932493, 42.3867492 ], [ -1.8932311, 42.3867923 ], [ -1.8932224, 42.3868131 ], [ -1.8932041, 42.3868562 ], [ -1.8931852, 42.3868988 ], [ -1.8931639, 42.3869414 ], [ -1.8931474, 42.3869722 ], [ -1.8931232, 42.3870136 ], [ -1.8930982, 42.3870544 ], [ -1.8930716, 42.3870953 ], [ -1.8930443, 42.3871356 ], [ -1.8930171, 42.3871758 ], [ -1.8929882, 42.3872155 ], [ -1.892975, 42.3872334 ], [ -1.8929424, 42.3872781 ], [ -1.8929105, 42.3873195 ], [ -1.8928802, 42.3873574 ], [ -1.8928508, 42.387392 ], [ -1.8928368, 42.3874077 ], [ -1.8927807, 42.3874882 ], [ -1.8927558, 42.3875223 ], [ -1.8914419, 42.389313 ], [ -1.8910972, 42.389783 ], [ -1.8910715, 42.3898239 ], [ -1.8910434, 42.3898636 ], [ -1.8910193, 42.3898965 ], [ -1.8909844, 42.3899378 ], [ -1.8909512, 42.3899713 ], [ -1.8909496, 42.389973 ], [ -1.8907463, 42.3902215 ], [ -1.8894511, 42.3918035 ], [ -1.8893992, 42.3920293 ], [ -1.889384, 42.3920731 ], [ -1.8893681, 42.3921162 ], [ -1.8893522, 42.39216 ], [ -1.8893354, 42.3922032 ], [ -1.8893187, 42.3922464 ], [ -1.8893012, 42.3922895 ], [ -1.8892893, 42.3923198 ], [ -1.8892688, 42.3923669 ], [ -1.8892498, 42.39241 ], [ -1.8892324, 42.3924476 ], [ -1.8892309, 42.3924493 ], [ -1.8887325, 42.392933 ], [ -1.8886977, 42.3929704 ], [ -1.8886644, 42.3930078 ], [ -1.8886319, 42.3930457 ], [ -1.8886008, 42.3930842 ], [ -1.8885961, 42.3930909 ], [ -1.8885619, 42.3931362 ], [ -1.88853, 42.3931787 ], [ -1.8885012, 42.3932195 ], [ -1.8884755, 42.3932586 ], [ -1.888452, 42.3932961 ], [ -1.8884333, 42.3933269 ], [ -1.8877353, 42.3942342 ], [ -1.887455, 42.394885 ], [ -1.8874277, 42.3949708 ], [ -1.8874155, 42.3950146 ], [ -1.887404, 42.395059 ], [ -1.8873974, 42.3950932 ], [ -1.8873928, 42.3951382 ], [ -1.8873882, 42.3951832 ], [ -1.8873793, 42.3952135 ], [ -1.8873543, 42.3952544 ], [ -1.8873209, 42.3952923 ], [ -1.8872854, 42.395328 ], [ -1.8872461, 42.395362 ], [ -1.887203, 42.3953942 ], [ -1.8871584, 42.3954247 ], [ -1.8871177, 42.3954519 ], [ -1.8870701, 42.3954801 ], [ -1.887021, 42.3955067 ], [ -1.8869719, 42.3955332 ], [ -1.8869236, 42.3955603 ], [ -1.8868999, 42.3955742 ], [ -1.8868491, 42.3956074 ], [ -1.8868061, 42.395638 ], [ -1.8867737, 42.3956624 ], [ -1.8865274, 42.3958086 ], [ -1.8863933, 42.395876 ], [ -1.8853064, 42.3963596 ], [ -1.8852305, 42.3964033 ], [ -1.8844002, 42.3968445 ], [ -1.8842778, 42.3968995 ], [ -1.8842257, 42.3969227 ], [ -1.8841707, 42.3969424 ], [ -1.8841356, 42.3969533 ], [ -1.8840722, 42.3969707 ], [ -1.8840135, 42.3969842 ], [ -1.8839602, 42.3969927 ], [ -1.8839533, 42.3969938 ], [ -1.8837883, 42.3970062 ], [ -1.8837276, 42.3970051 ], [ -1.8836661, 42.3970028 ], [ -1.8836062, 42.3969994 ], [ -1.8835455, 42.3969954 ], [ -1.8835137, 42.3969928 ], [ -1.883453, 42.3969872 ], [ -1.8833932, 42.3969799 ], [ -1.8833333, 42.3969719 ], [ -1.8832734, 42.396964 ], [ -1.8832136, 42.3969573 ], [ -1.8831719, 42.3969529 ], [ -1.8831112, 42.3969478 ], [ -1.8830513, 42.3969439 ], [ -1.8829906, 42.3969404 ], [ -1.8829299, 42.3969371 ], [ -1.8828692, 42.3969331 ], [ -1.882826, 42.3969304 ], [ -1.8827577, 42.3969252 ], [ -1.882694, 42.3969201 ], [ -1.8826349, 42.396915 ], [ -1.8825811, 42.3969106 ], [ -1.8825614, 42.3969087 ], [ -1.8815496, 42.3969219 ], [ -1.8813939, 42.3969221 ], [ -1.8810524, 42.3969531 ], [ -1.881415, 42.3971885 ], [ -1.8822488, 42.3977888 ], [ -1.8828445, 42.3982415 ], [ -1.8834791, 42.3987261 ], [ -1.8840606, 42.3992085 ], [ -1.8841137, 42.399253 ], [ -1.8847133, 42.3997001 ], [ -1.885226, 42.4000805 ], [ -1.8856258, 42.4003659 ], [ -1.8861877, 42.4007574 ], [ -1.8866539, 42.4010614 ], [ -1.8871835, 42.4013902 ], [ -1.8873456, 42.4014965 ], [ -1.8875625, 42.4016427 ], [ -1.8876181, 42.4016804 ], [ -1.8877044, 42.4017386 ], [ -1.8877442, 42.4017638 ], [ -1.8877569, 42.4017718 ], [ -1.887781, 42.4017878 ], [ -1.8881473, 42.4020306 ], [ -1.8883628, 42.4021722 ], [ -1.8887554, 42.4024305 ], [ -1.8891614, 42.4027057 ], [ -1.8892409, 42.4027605 ], [ -1.8893858, 42.4028582 ], [ -1.889954, 42.4032368 ], [ -1.8902319, 42.403454 ], [ -1.8903525, 42.4035486 ], [ -1.8904552, 42.4036289 ], [ -1.8906829, 42.4038079 ], [ -1.8909241, 42.4039971 ], [ -1.8910222, 42.4040752 ], [ -1.8912177, 42.4042307 ], [ -1.8912731, 42.4042746 ], [ -1.8913975, 42.4043737 ], [ -1.8914507, 42.4044159 ], [ -1.8915724, 42.4044897 ], [ -1.8917024, 42.4045686 ], [ -1.8917459, 42.4045989 ], [ -1.8918412, 42.404664 ], [ -1.8920866, 42.4048324 ], [ -1.8923359, 42.4049947 ], [ -1.8923847, 42.4050266 ], [ -1.8927381, 42.4052676 ], [ -1.8928942, 42.4053772 ], [ -1.8930645, 42.4054959 ], [ -1.8931891, 42.4055798 ], [ -1.8932281, 42.4056061 ], [ -1.8932739, 42.4056375 ], [ -1.8935247, 42.4058048 ], [ -1.8936086, 42.4058687 ], [ -1.8936633, 42.4059109 ], [ -1.8936933, 42.4059337 ], [ -1.8938626, 42.4060631 ], [ -1.8939488, 42.4061309 ], [ -1.8940484, 42.4062095 ], [ -1.894181, 42.4063133 ], [ -1.8943392, 42.4064319 ], [ -1.8944667, 42.4065271 ], [ -1.8946575, 42.4066854 ], [ -1.8947631, 42.406772 ], [ -1.8950507, 42.4070055 ], [ -1.8951619, 42.4070696 ], [ -1.8953452, 42.407184 ], [ -1.8955111, 42.4072948 ], [ -1.8955742, 42.4073365 ], [ -1.8956306, 42.4073719 ], [ -1.8957711, 42.4074599 ], [ -1.8958184, 42.4074897 ], [ -1.8958206, 42.4074908 ], [ -1.8961739, 42.4077008 ], [ -1.8963138, 42.4077832 ], [ -1.8965949, 42.4079503 ], [ -1.8969354, 42.4081522 ], [ -1.8970978, 42.4082489 ], [ -1.897467, 42.4085052 ], [ -1.897524, 42.4085446 ], [ -1.8975608, 42.4085691 ], [ -1.8976959, 42.4086599 ], [ -1.8978243, 42.4087456 ], [ -1.8978851, 42.4087839 ], [ -1.8980925, 42.4089148 ], [ -1.8981901, 42.4089765 ], [ -1.8983726, 42.4090942 ], [ -1.8985183, 42.4091885 ], [ -1.8987114, 42.4093136 ], [ -1.8990219, 42.4095373 ], [ -1.8991473, 42.4096173 ], [ -1.8992678, 42.4096764 ], [ -1.8993996, 42.4097413 ], [ -1.8994839, 42.4097832 ], [ -1.8995404, 42.4098113 ], [ -1.8998363, 42.409961 ], [ -1.900294, 42.4101917 ], [ -1.9004401, 42.4102691 ], [ -1.9010564, 42.4105936 ], [ -1.9014554, 42.410804 ], [ -1.9017422, 42.4109474 ], [ -1.9020932, 42.4111219 ], [ -1.9022701, 42.4112109 ], [ -1.9024298, 42.4112862 ], [ -1.903049, 42.4115797 ], [ -1.9030883, 42.4115975 ], [ -1.9033128, 42.4117004 ], [ -1.9035027, 42.4117872 ], [ -1.9036489, 42.4118539 ], [ -1.9038222, 42.4119344 ], [ -1.9042253, 42.4121223 ], [ -1.9046274, 42.4123198 ], [ -1.9047223, 42.4123669 ], [ -1.9052823, 42.4126187 ], [ -1.9053893, 42.4126665 ], [ -1.905461, 42.4126992 ], [ -1.9060124, 42.4129584 ], [ -1.9061341, 42.4130827 ], [ -1.9062562, 42.4132247 ], [ -1.9062822, 42.4132564 ], [ -1.9063031, 42.4132808 ], [ -1.9063298, 42.4133132 ], [ -1.9063723, 42.4133637 ], [ -1.9065623, 42.4135749 ], [ -1.906736, 42.4137623 ], [ -1.9067618, 42.4138548 ], [ -1.9067746, 42.4140305 ], [ -1.906831, 42.4142855 ], [ -1.9068827, 42.4145905 ], [ -1.9069046, 42.4148131 ], [ -1.9069103, 42.4148762 ], [ -1.9069551, 42.4150556 ], [ -1.9069567, 42.4151411 ], [ -1.9069545, 42.4152222 ], [ -1.9069536, 42.4153184 ], [ -1.9069525, 42.415382 ], [ -1.9069464, 42.4155536 ], [ -1.9069201, 42.4156237 ], [ -1.9068747, 42.4157454 ], [ -1.9068334, 42.4159843 ], [ -1.9067738, 42.4162229 ], [ -1.9067154, 42.416434 ], [ -1.9066791, 42.4166419 ], [ -1.9066752, 42.4167359 ], [ -1.9066717, 42.4167601 ], [ -1.9066534, 42.41681 ], [ -1.9066182, 42.4169138 ], [ -1.9065668, 42.4170287 ], [ -1.9065555, 42.4171529 ], [ -1.9065529, 42.4172616 ], [ -1.9065642, 42.417354 ], [ -1.9065769, 42.4174537 ], [ -1.9065733, 42.4175713 ], [ -1.90658, 42.4176637 ], [ -1.9065857, 42.4177746 ], [ -1.906596, 42.4179706 ], [ -1.9065844, 42.4181129 ], [ -1.906591, 42.4182103 ], [ -1.9066052, 42.4184013 ], [ -1.9065986, 42.4186939 ], [ -1.9066017, 42.4189067 ], [ -1.9066039, 42.4190458 ], [ -1.9066045, 42.4190547 ], [ -1.906607, 42.4192174 ], [ -1.906609, 42.4193188 ], [ -1.9066309, 42.4194575 ], [ -1.9066411, 42.419484 ], [ -1.9066745, 42.4195733 ], [ -1.9067478, 42.4197659 ], [ -1.9067936, 42.4198851 ], [ -1.9068067, 42.4199196 ], [ -1.9068062, 42.4199499 ], [ -1.906804, 42.4200749 ], [ -1.9068136, 42.4202635 ], [ -1.9068312, 42.4204765 ], [ -1.9068503, 42.4205143 ], [ -1.9068609, 42.4205601 ], [ -1.9068803, 42.4207122 ], [ -1.9068792, 42.4209497 ], [ -1.9068801, 42.421158 ], [ -1.9068771, 42.4212458 ], [ -1.9068719, 42.4212801 ], [ -1.9068656, 42.421383 ], [ -1.9068543, 42.4215084 ], [ -1.9068514, 42.4216283 ], [ -1.9068565, 42.4217713 ], [ -1.9068662, 42.4219166 ], [ -1.9068859, 42.4220468 ], [ -1.9069066, 42.4221675 ], [ -1.9069069, 42.4222817 ], [ -1.9069014, 42.4224702 ], [ -1.9068911, 42.4228 ], [ -1.9068786, 42.4231246 ], [ -1.906864, 42.4233497 ], [ -1.9068591, 42.423416 ], [ -1.9068272, 42.4236786 ], [ -1.9067622, 42.4240089 ], [ -1.9067097, 42.4241846 ], [ -1.9066864, 42.4243009 ], [ -1.9066754, 42.4244094 ], [ -1.9066548, 42.4245899 ], [ -1.9065645, 42.4246712 ], [ -1.9065147, 42.4247371 ], [ -1.906426, 42.4248128 ], [ -1.9063464, 42.4248977 ], [ -1.9062995, 42.424967 ], [ -1.9061763, 42.4250649 ], [ -1.9060372, 42.4251964 ], [ -1.905673, 42.4255627 ], [ -1.9054009, 42.4258336 ], [ -1.9050213, 42.4262117 ], [ -1.9045953, 42.4266337 ], [ -1.9043152, 42.426922 ], [ -1.9040752, 42.4271792 ], [ -1.9039736, 42.4273853 ], [ -1.9039629, 42.4274753 ], [ -1.9039923, 42.4275774 ], [ -1.9040412, 42.4276938 ], [ -1.9040616, 42.4277436 ], [ -1.9040893, 42.4278103 ], [ -1.9041568, 42.4279905 ], [ -1.9042026, 42.4280629 ], [ -1.904297, 42.4281826 ], [ -1.9045312, 42.4284821 ], [ -1.9048162, 42.4288242 ], [ -1.9050516, 42.429136 ], [ -1.9053616, 42.4295285 ], [ -1.9058048, 42.4300404 ], [ -1.9060778, 42.4303757 ], [ -1.9061138, 42.4304008 ], [ -1.9062918, 42.4305179 ], [ -1.906463, 42.4306332 ], [ -1.9064646, 42.4306343 ], [ -1.9066967, 42.4307885 ], [ -1.9070255, 42.4310168 ], [ -1.9074215, 42.4312694 ], [ -1.9078594, 42.4315606 ], [ -1.9079052, 42.431592 ], [ -1.9082341, 42.431818 ], [ -1.9081725, 42.4320815 ], [ -1.9081235, 42.4322774 ], [ -1.9083222, 42.4324724 ], [ -1.9083491, 42.4324985 ], [ -1.9085643, 42.4327077 ], [ -1.9087384, 42.4329244 ] ] ] } },
{ "type": "Feature", "properties": { "CCAA": "15 - Comunidad Foral de Navarra", "PROVINCIA": "31 - Navarra", "MUNICIPIO": "31015 - Andosilla", "COD_MUNICIPIO": "31015", "DISTRITO": "02", "SECCION": "3101502001", "V1_H": 81.57, "V1_M": 86.95, "V2_H": 81.38052192000001, "V2_M": 86.83819346, "V3_H": 81.78107492, "V3_M": 87.15502078 }, "geometry": { "type": "Polygon", "coordinates": [ [ [ -1.9569753, 42.3932235 ], [ -1.9570078, 42.3931906 ], [ -1.9574083, 42.3928476 ], [ -1.9575031, 42.3927662 ], [ -1.9575147, 42.3927562 ], [ -1.957544, 42.3927272 ], [ -1.9582283, 42.3922156 ], [ -1.9583315, 42.3921243 ], [ -1.9584774, 42.3920316 ], [ -1.9585042, 42.3920149 ], [ -1.9585387, 42.3919961 ], [ -1.9585678, 42.39198 ], [ -1.9587248, 42.3919016 ], [ -1.9588917, 42.3918147 ], [ -1.9589132, 42.3918031 ], [ -1.9589315, 42.3917998 ], [ -1.9589345, 42.3917982 ], [ -1.9594351, 42.3916024 ], [ -1.9594428, 42.3915996 ], [ -1.9595597, 42.3915534 ], [ -1.9596415, 42.3915175 ], [ -1.9596454, 42.3915159 ], [ -1.9597637, 42.391477 ], [ -1.9597691, 42.3914743 ], [ -1.9599643, 42.3913798 ], [ -1.9592632, 42.3906107 ], [ -1.9590305, 42.3903091 ], [ -1.958794, 42.3898263 ], [ -1.958421, 42.389058 ], [ -1.9579401, 42.3883444 ], [ -1.9576795, 42.3879407 ], [ -1.957626, 42.3878226 ], [ -1.9576353, 42.3877208 ], [ -1.9576921, 42.3875918 ], [ -1.9579132, 42.3871222 ], [ -1.9580557, 42.386909 ], [ -1.9582667, 42.3866368 ], [ -1.9584267, 42.3864238 ], [ -1.9585595, 42.3864234 ], [ -1.9586689, 42.3863736 ], [ -1.9587892, 42.3862628 ], [ -1.9588262, 42.3862282 ], [ -1.9593727, 42.3857322 ], [ -1.9593959, 42.3857116 ], [ -1.9594144, 42.3856949 ], [ -1.9594611, 42.3856666 ], [ -1.9599331, 42.3854548 ], [ -1.9610718, 42.3849624 ], [ -1.9614834, 42.3847731 ], [ -1.9615078, 42.3847654 ], [ -1.9615354, 42.3847482 ], [ -1.9616019, 42.3847224 ], [ -1.962263, 42.3846884 ], [ -1.9636826, 42.3846107 ], [ -1.9636857, 42.3846039 ], [ -1.9642777, 42.3845693 ], [ -1.9646015, 42.3845497 ], [ -1.9647422, 42.384537 ], [ -1.9650417, 42.3845166 ], [ -1.9651128, 42.3844834 ], [ -1.9651572, 42.3844625 ], [ -1.9667585, 42.3837148 ], [ -1.9670914, 42.3835591 ], [ -1.9671205, 42.3835452 ], [ -1.967158, 42.3835231 ], [ -1.9671747, 42.383521 ], [ -1.9680228, 42.3831059 ], [ -1.9680304, 42.383102 ], [ -1.9682207, 42.3829811 ], [ -1.9682276, 42.382976 ], [ -1.9686547, 42.3827643 ], [ -1.9686632, 42.3827604 ], [ -1.9691164, 42.382527 ], [ -1.9692118, 42.3824986 ], [ -1.9693968, 42.3824676 ], [ -1.9697797, 42.3824097 ], [ -1.9699516, 42.3823848 ], [ -1.9699684, 42.3823804 ], [ -1.9700332, 42.3823636 ], [ -1.9700538, 42.3823598 ], [ -1.9704375, 42.3822912 ], [ -1.9705377, 42.3822454 ], [ -1.9705592, 42.3822377 ], [ -1.9706272, 42.3822124 ], [ -1.9707692, 42.3821608 ], [ -1.970854, 42.3821278 ], [ -1.9713447, 42.3819313 ], [ -1.9714912, 42.381883 ], [ -1.9715669, 42.38185 ], [ -1.9716639, 42.3818159 ], [ -1.9717288, 42.3817934 ], [ -1.9717723, 42.3817319 ], [ -1.9717784, 42.3817269 ], [ -1.9718261, 42.3816902 ], [ -1.9720848, 42.3814257 ], [ -1.9726552, 42.3808077 ], [ -1.9730399, 42.3803985 ], [ -1.973043, 42.3803952 ], [ -1.9744959, 42.3791041 ], [ -1.9745059, 42.3790957 ], [ -1.9749392, 42.3787326 ], [ -1.9749431, 42.3787287 ], [ -1.9754859, 42.3782607 ], [ -1.9756208, 42.3781359 ], [ -1.9756246, 42.3781326 ], [ -1.9758139, 42.3779783 ], [ -1.9758507, 42.3779573 ], [ -1.976353, 42.3775559 ], [ -1.977408, 42.3767289 ], [ -1.9774949, 42.3766605 ], [ -1.9775525, 42.3766165 ], [ -1.977893, 42.3763567 ], [ -1.9779615, 42.3763044 ], [ -1.9788453, 42.3756397 ], [ -1.9789859, 42.3754867 ], [ -1.9790887, 42.3753711 ], [ -1.9793888, 42.3750326 ], [ -1.980032, 42.3745014 ], [ -1.9800918, 42.3744665 ], [ -1.9807291, 42.3741603 ], [ -1.9808163, 42.3741183 ], [ -1.9811286, 42.3743378 ], [ -1.9813848, 42.3745005 ], [ -1.9814268, 42.3745324 ], [ -1.9814967, 42.3745764 ], [ -1.9817645, 42.3746767 ], [ -1.9818476, 42.3747044 ], [ -1.982352, 42.3748721 ], [ -1.982758, 42.3750193 ], [ -1.9833981, 42.3753413 ], [ -1.9836015, 42.3754354 ], [ -1.9840195, 42.3756401 ], [ -1.9842835, 42.3757522 ], [ -1.9847647, 42.3759861 ], [ -1.9850129, 42.3761341 ], [ -1.9851845, 42.3762262 ], [ -1.9853773, 42.376322 ], [ -1.985573, 42.3764239 ], [ -1.985789, 42.3765412 ], [ -1.9858878, 42.3765831 ], [ -1.9860694, 42.3766692 ], [ -1.9863024, 42.3767647 ], [ -1.986454, 42.3768234 ], [ -1.9866963, 42.3769106 ], [ -1.986767, 42.3769551 ], [ -1.9869258, 42.3770415 ], [ -1.9875887, 42.3774509 ], [ -1.9883726, 42.3779458 ], [ -1.9886701, 42.3781416 ], [ -1.9887878, 42.3782338 ], [ -1.9891859, 42.3785503 ], [ -1.9892457, 42.3786003 ], [ -1.989469, 42.3787402 ], [ -1.9895217, 42.3787688 ], [ -1.9895494, 42.3787904 ], [ -1.9895726, 42.3788154 ], [ -1.9896346, 42.3788739 ], [ -1.9897902, 42.3790216 ], [ -1.9899102, 42.3791139 ], [ -1.9900444, 42.3792175 ], [ -1.9902141, 42.3793316 ], [ -1.9903735, 42.3794315 ], [ -1.9905276, 42.3795257 ], [ -1.9906772, 42.379616 ], [ -1.9907608, 42.37966 ], [ -1.9908113, 42.379683 ], [ -1.9908542, 42.3797053 ], [ -1.9909305, 42.3797302 ], [ -1.990993, 42.3797589 ], [ -1.9911091, 42.3798123 ], [ -1.9911833, 42.3798703 ], [ -1.9914071, 42.3800249 ], [ -1.9916889, 42.380208 ], [ -1.9919264, 42.3803547 ], [ -1.9923015, 42.3805883 ], [ -1.9923661, 42.3806299 ], [ -1.9927229, 42.3808689 ], [ -1.9931317, 42.3811354 ], [ -1.9934557, 42.3813318 ], [ -1.9936804, 42.3814768 ], [ -1.9937668, 42.3815344 ], [ -1.9940235, 42.3816723 ], [ -1.9945121, 42.381931 ], [ -1.9947606, 42.3820581 ], [ -1.9948885, 42.3821313 ], [ -1.9949886, 42.3821868 ], [ -1.9950278, 42.3822051 ], [ -1.9950805, 42.3822298 ], [ -1.9950941, 42.3822356 ], [ -1.9951536, 42.3822637 ], [ -1.9952049, 42.3822883 ], [ -1.9954144, 42.3823875 ], [ -1.9956834, 42.3825126 ], [ -1.9957384, 42.3825373 ], [ -1.9961365, 42.3827158 ], [ -1.9963838, 42.3828199 ], [ -1.9964418, 42.3828485 ], [ -1.9965315, 42.3828926 ], [ -1.9969529, 42.3830787 ], [ -1.997234, 42.3832084 ], [ -1.9974061, 42.3832707 ], [ -1.9976717, 42.3833737 ], [ -1.9980898, 42.3835384 ], [ -1.9984157, 42.3836673 ], [ -1.998713, 42.3837842 ], [ -1.9988307, 42.3838297 ], [ -1.9989045, 42.3838669 ], [ -1.9990235, 42.3839271 ], [ -1.9991469, 42.3839985 ], [ -1.9992159, 42.384052 ], [ -1.9993308, 42.3841318 ], [ -1.9993811, 42.3841649 ], [ -1.9996018, 42.3843233 ], [ -1.9997596, 42.3844266 ], [ -1.9999294, 42.3845417 ], [ -2.0000925, 42.3846451 ], [ -2.0005093, 42.3848828 ], [ -2.0008642, 42.3851021 ], [ -2.0011001, 42.3852612 ], [ -2.0012684, 42.3853707 ], [ -2.001385, 42.3854393 ], [ -2.0013888, 42.385441 ], [ -2.001657, 42.3855739 ], [ -2.0019365, 42.3857137 ], [ -2.0020826, 42.3857842 ], [ -2.0021926, 42.3858443 ], [ -2.0022715, 42.3858956 ], [ -2.002373, 42.3859567 ], [ -2.0024708, 42.3860116 ], [ -2.0024889, 42.3860219 ], [ -2.0027513, 42.386184 ], [ -2.0028264, 42.3862331 ], [ -2.0028852, 42.3862629 ], [ -2.0029559, 42.3863012 ], [ -2.0029843, 42.3863336 ], [ -2.0031291, 42.3864434 ], [ -2.0034345, 42.386669 ], [ -2.0036034, 42.3867943 ], [ -2.0037197, 42.3868808 ], [ -2.0039794, 42.38707 ], [ -2.0043727, 42.387361 ], [ -2.0046212, 42.3875399 ], [ -2.004769, 42.3876498 ], [ -2.0047848, 42.3876618 ], [ -2.0049619, 42.3877922 ], [ -2.0051856, 42.3879563 ], [ -2.0052471, 42.3880013 ], [ -2.0054573, 42.3881556 ], [ -2.0056968, 42.3883249 ], [ -2.0059251, 42.3884868 ], [ -2.0060775, 42.3885973 ], [ -2.0061578, 42.3886543 ], [ -2.0063072, 42.3887619 ], [ -2.0064513, 42.3888735 ], [ -2.0065727, 42.3889731 ], [ -2.0066612, 42.3890425 ], [ -2.0067501, 42.3891322 ], [ -2.0068107, 42.3892363 ], [ -2.006926, 42.3894405 ], [ -2.0070574, 42.3896724 ], [ -2.0070693, 42.3896933 ], [ -2.0071469, 42.3898308 ], [ -2.0071483, 42.389833 ], [ -2.0072656, 42.3900513 ], [ -2.0073212, 42.3901357 ], [ -2.0073361, 42.3901572 ], [ -2.0073495, 42.3901753 ], [ -2.0077598, 42.3902498 ], [ -2.0079575, 42.3902802 ], [ -2.0080545, 42.3902951 ], [ -2.0083613, 42.39034 ], [ -2.0082938, 42.3903839 ], [ -2.0081611, 42.39047 ], [ -2.0080543, 42.3905506 ], [ -2.008045, 42.3905618 ], [ -2.0079583, 42.3906664 ], [ -2.0079249, 42.3907133 ], [ -2.0079049, 42.3907295 ], [ -2.0079029, 42.3907582 ], [ -2.0079251, 42.3907978 ], [ -2.0079276, 42.3908321 ], [ -2.0079356, 42.3908508 ], [ -2.0080174, 42.3909657 ], [ -2.0081143, 42.391127 ], [ -2.008261, 42.3913596 ], [ -2.0084108, 42.3915821 ], [ -2.0085666, 42.391817 ], [ -2.0087257, 42.3920351 ], [ -2.0088784, 42.3922222 ], [ -2.0090129, 42.3923579 ], [ -2.0090725, 42.3924304 ], [ -2.009147, 42.3925229 ], [ -2.0091889, 42.3925643 ], [ -2.009408, 42.392824 ], [ -2.0096812, 42.3931275 ], [ -2.0097519, 42.3932154 ], [ -2.0098132, 42.3932766 ], [ -2.0099959, 42.3934899 ], [ -2.0102705, 42.393799 ], [ -2.0104636, 42.394027 ], [ -2.0104673, 42.3940321 ], [ -2.0106049, 42.3942162 ], [ -2.0106108, 42.3942247 ], [ -2.0107352, 42.3944261 ], [ -2.0107367, 42.3944278 ], [ -2.0108538, 42.3945651 ], [ -2.0110777, 42.3949086 ], [ -2.0113012, 42.3952331 ], [ -2.0115598, 42.395595 ], [ -2.0117537, 42.3958657 ], [ -2.0118855, 42.3961297 ], [ -2.0118906, 42.3961405 ], [ -2.0121855, 42.3966608 ], [ -2.012562, 42.3973457 ], [ -2.0126786, 42.3975606 ], [ -2.0129467, 42.3977543 ], [ -2.0129504, 42.3977571 ], [ -2.0133755, 42.3980597 ], [ -2.0133823, 42.3980648 ], [ -2.0138386, 42.3984065 ], [ -2.0149007, 42.3992014 ], [ -2.0149773, 42.39926 ], [ -2.0154855, 42.3996364 ], [ -2.0154878, 42.3996382 ], [ -2.0158678, 42.3999133 ], [ -2.0158708, 42.3999156 ], [ -2.0163453, 42.4002641 ], [ -2.0170369, 42.4008115 ], [ -2.0171353, 42.4008821 ], [ -2.0171443, 42.400889 ], [ -2.0178764, 42.4014215 ], [ -2.0180188, 42.4013034 ], [ -2.0181424, 42.4012161 ], [ -2.0183293, 42.4011153 ], [ -2.0185121, 42.4010347 ], [ -2.0188518, 42.4008749 ], [ -2.0190546, 42.4007754 ], [ -2.0191673, 42.4007042 ], [ -2.0192579, 42.4006409 ], [ -2.0193955, 42.4005351 ], [ -2.0194453, 42.4005069 ], [ -2.0196028, 42.4003934 ], [ -2.0197029, 42.400307 ], [ -2.0198266, 42.4002129 ], [ -2.0199629, 42.4000902 ], [ -2.0200695, 42.3999746 ], [ -2.0202299, 42.3998229 ], [ -2.0204015, 42.3996268 ], [ -2.0205367, 42.3994754 ], [ -2.0206634, 42.3993392 ], [ -2.0207872, 42.3992462 ], [ -2.0209732, 42.3991015 ], [ -2.0209987, 42.399069 ], [ -2.0210626, 42.3990144 ], [ -2.0211325, 42.3988704 ], [ -2.0211979, 42.3987634 ], [ -2.0212836, 42.3986212 ], [ -2.0213439, 42.3985052 ], [ -2.0214132, 42.398302 ], [ -2.0214739, 42.3981106 ], [ -2.0215129, 42.3979922 ], [ -2.021548, 42.3978332 ], [ -2.0215666, 42.3976166 ], [ -2.0216131, 42.3973103 ], [ -2.0216348, 42.3971365 ], [ -2.0216634, 42.3970084 ], [ -2.0217493, 42.3968082 ], [ -2.0218235, 42.396626 ], [ -2.0219132, 42.3964241 ], [ -2.0219676, 42.3963424 ], [ -2.022023, 42.3962483 ], [ -2.0221865, 42.3960363 ], [ -2.0224149, 42.3957591 ], [ -2.0225251, 42.3956086 ], [ -2.0225639, 42.3955505 ], [ -2.0225893, 42.3954803 ], [ -2.0226265, 42.3954299 ], [ -2.0226435, 42.3953659 ], [ -2.0226811, 42.3952891 ], [ -2.0227795, 42.395165 ], [ -2.0228181, 42.3951237 ], [ -2.0228845, 42.3950505 ], [ -2.0229735, 42.3949443 ], [ -2.0230621, 42.394814 ], [ -2.0231538, 42.3946824 ], [ -2.0231771, 42.3946478 ], [ -2.0231944, 42.3946074 ], [ -2.0232228, 42.3945418 ], [ -2.023282, 42.3944421 ], [ -2.0233643, 42.394328 ], [ -2.0234527, 42.3942088 ], [ -2.0235561, 42.3940583 ], [ -2.0236446, 42.3939324 ], [ -2.023709, 42.3938457 ], [ -2.02375, 42.3937892 ], [ -2.0238356, 42.3937061 ], [ -2.0239259, 42.3936123 ], [ -2.0241027, 42.3934798 ], [ -2.0243422, 42.3932618 ], [ -2.0245193, 42.3930544 ], [ -2.0247616, 42.3928078 ], [ -2.0249258, 42.3926442 ], [ -2.0251047, 42.3924684 ], [ -2.0251941, 42.392387 ], [ -2.0252711, 42.3923173 ], [ -2.0253933, 42.3921715 ], [ -2.0254868, 42.3920698 ], [ -2.0256003, 42.3919954 ], [ -2.0256173, 42.3919747 ], [ -2.0257814, 42.3918776 ], [ -2.0258638, 42.3918 ], [ -2.0259523, 42.3917225 ], [ -2.0260132, 42.3916629 ], [ -2.0260581, 42.3916097 ], [ -2.0260705, 42.3915952 ], [ -2.0261838, 42.3914847 ], [ -2.0262567, 42.391384 ], [ -2.0263796, 42.3912455 ], [ -2.0264619, 42.3911302 ], [ -2.0265668, 42.3909735 ], [ -2.0266378, 42.3908492 ], [ -2.026691, 42.39075 ], [ -2.026702, 42.3907287 ], [ -2.0268013, 42.3905871 ], [ -2.0269678, 42.390378 ], [ -2.0271053, 42.39018 ], [ -2.0272402, 42.3900038 ], [ -2.0273509, 42.3898669 ], [ -2.0274536, 42.3897011 ], [ -2.0275162, 42.3895845 ], [ -2.027532, 42.3894434 ], [ -2.0275538, 42.3893119 ], [ -2.0275883, 42.3891895 ], [ -2.0275948, 42.3891665 ], [ -2.0276787, 42.3890388 ], [ -2.0277735, 42.3889485 ], [ -2.0279581, 42.3887986 ], [ -2.0280388, 42.3887345 ], [ -2.0281178, 42.3886823 ], [ -2.0281815, 42.3886401 ], [ -2.0282828, 42.3885717 ], [ -2.0284566, 42.3884308 ], [ -2.0286333, 42.3882972 ], [ -2.0287562, 42.3882048 ], [ -2.0288801, 42.3880972 ], [ -2.0290042, 42.3879727 ], [ -2.0290421, 42.3879292 ], [ -2.0290947, 42.3878688 ], [ -2.0291967, 42.3877543 ], [ -2.0292812, 42.3876424 ], [ -2.0293974, 42.3875432 ], [ -2.0294886, 42.3874883 ], [ -2.0295662, 42.3874281 ], [ -2.0295739, 42.387422 ], [ -2.0296949, 42.3873572 ], [ -2.0298113, 42.3872884 ], [ -2.0298765, 42.3872462 ], [ -2.0300129, 42.3871674 ], [ -2.0300895, 42.3870763 ], [ -2.0301468, 42.387003 ], [ -2.0301982, 42.3869629 ], [ -2.030246, 42.3869183 ], [ -2.0303938, 42.386789 ], [ -2.0305754, 42.3866307 ], [ -2.0307971, 42.3864327 ], [ -2.0310318, 42.3862326 ], [ -2.0311556, 42.386129 ], [ -2.0313434, 42.3859679 ], [ -2.0315672, 42.3857756 ], [ -2.0317919, 42.3855861 ], [ -2.0319196, 42.3854797 ], [ -2.0320282, 42.3852808 ], [ -2.03205, 42.385241 ], [ -2.0320783, 42.3851794 ], [ -2.0320756, 42.3850589 ], [ -2.0320763, 42.3848174 ], [ -2.0320771, 42.3846137 ], [ -2.0320801, 42.3844201 ], [ -2.0320809, 42.3842175 ], [ -2.0320785, 42.3840345 ], [ -2.0320964, 42.3838534 ], [ -2.0321323, 42.3836421 ], [ -2.0321565, 42.3834543 ], [ -2.0321962, 42.3831935 ], [ -2.0322299, 42.3829241 ], [ -2.0322586, 42.3827364 ], [ -2.0322586, 42.3826407 ], [ -2.032247, 42.3825077 ], [ -2.0322247, 42.3822751 ], [ -2.0322058, 42.3820762 ], [ -2.0321999, 42.3818651 ], [ -2.032185, 42.3817018 ], [ -2.0321516, 42.3816502 ], [ -2.0320835, 42.381532 ], [ -2.0320193, 42.3814183 ], [ -2.0319733, 42.3813431 ], [ -2.0319409, 42.3812798 ], [ -2.0318907, 42.381187 ], [ -2.0318625, 42.3811435 ], [ -2.031772, 42.3811033 ], [ -2.0317088, 42.3810645 ], [ -2.0316652, 42.3810388 ], [ -2.0315974, 42.3810044 ], [ -2.0314371, 42.3809125 ], [ -2.0312534, 42.3808085 ], [ -2.0310156, 42.3806742 ], [ -2.0307862, 42.380536 ], [ -2.0306686, 42.3803802 ], [ -2.0304953, 42.3801497 ], [ -2.030406, 42.3800307 ], [ -2.0303426, 42.3799587 ], [ -2.0302571, 42.3797914 ], [ -2.0301836, 42.3796365 ], [ -2.0301416, 42.379554 ], [ -2.030083, 42.3795118 ], [ -2.0300125, 42.3794544 ], [ -2.0299504, 42.3793948 ], [ -2.0298509, 42.3792994 ], [ -2.0297244, 42.3791835 ], [ -2.0295993, 42.3790755 ], [ -2.0294533, 42.3789403 ], [ -2.0293807, 42.3788772 ], [ -2.0293257, 42.378803 ], [ -2.0292592, 42.3787281 ], [ -2.0291989, 42.3786561 ], [ -2.0291625, 42.3786012 ], [ -2.0291409, 42.3785779 ], [ -2.0291072, 42.378545 ], [ -2.0290696, 42.3785182 ], [ -2.029011, 42.3784817 ], [ -2.0289667, 42.3784521 ], [ -2.0289014, 42.3783981 ], [ -2.0288032, 42.3783178 ], [ -2.0287417, 42.3782684 ], [ -2.0286517, 42.3781961 ], [ -2.0285993, 42.3781489 ], [ -2.0285349, 42.3780893 ], [ -2.028452, 42.378007 ], [ -2.0283669, 42.3779083 ], [ -2.0282655, 42.3777893 ], [ -2.0281902, 42.377703 ], [ -2.0281299, 42.3776277 ], [ -2.0280719, 42.377545 ], [ -2.0280442, 42.377475 ], [ -2.0279982, 42.3774042 ], [ -2.0279832, 42.3773889 ], [ -2.0279488, 42.377356 ], [ -2.0278997, 42.3772936 ], [ -2.0278226, 42.3772204 ], [ -2.0277329, 42.3771301 ], [ -2.0276283, 42.3770212 ], [ -2.0275051, 42.3768867 ], [ -2.0274349, 42.3768157 ], [ -2.0273085, 42.376692 ], [ -2.0271971, 42.3765796 ], [ -2.0271097, 42.3764854 ], [ -2.0270606, 42.3764214 ], [ -2.026956, 42.3763158 ], [ -2.026882, 42.3762403 ], [ -2.026746, 42.3760956 ], [ -2.0266296, 42.3759663 ], [ -2.0265077, 42.3758482 ], [ -2.0263523, 42.3756898 ], [ -2.0262014, 42.3755315 ], [ -2.0261073, 42.3754294 ], [ -2.0260015, 42.3752979 ], [ -2.0259354, 42.3752011 ], [ -2.0258364, 42.3750775 ], [ -2.0258117, 42.375007 ], [ -2.0257255, 42.3748852 ], [ -2.0256613, 42.3748154 ], [ -2.0255886, 42.3747535 ], [ -2.0255841, 42.3747489 ], [ -2.0254587, 42.3746094 ], [ -2.0254573, 42.3746077 ], [ -2.0254513, 42.3746009 ], [ -2.0253729, 42.3745141 ], [ -2.0252844, 42.3743968 ], [ -2.025216, 42.3743062 ], [ -2.0251929, 42.3742756 ], [ -2.0250958, 42.3741706 ], [ -2.0250727, 42.3741457 ], [ -2.0249711, 42.3740401 ], [ -2.0248696, 42.3739278 ], [ -2.0247788, 42.3738122 ], [ -2.0246787, 42.3737044 ], [ -2.0245664, 42.3736067 ], [ -2.0244679, 42.3734955 ], [ -2.0243999, 42.3734257 ], [ -2.0242611, 42.3732685 ], [ -2.0241845, 42.3732156 ], [ -2.0241521, 42.3731494 ], [ -2.0241199, 42.3731205 ], [ -2.0240645, 42.373075 ], [ -2.0239332, 42.3729303 ], [ -2.0238503, 42.3728373 ], [ -2.023765, 42.3727549 ], [ -2.0236497, 42.3726504 ], [ -2.0235586, 42.3725562 ], [ -2.0234801, 42.3724795 ], [ -2.0234128, 42.3724142 ], [ -2.023348, 42.3723371 ], [ -2.0232738, 42.3722718 ], [ -2.0231922, 42.3721985 ], [ -2.0230981, 42.3720952 ], [ -2.0229844, 42.3719884 ], [ -2.0228489, 42.3718685 ], [ -2.0227764, 42.3717958 ], [ -2.022718, 42.3717407 ], [ -2.0226377, 42.3716849 ], [ -2.0225202, 42.3715792 ], [ -2.0224438, 42.3715116 ], [ -2.0223599, 42.3714343 ], [ -2.0222956, 42.3713724 ], [ -2.0222124, 42.3713035 ], [ -2.0221079, 42.3711946 ], [ -2.0220107, 42.371093 ], [ -2.0218089, 42.3708943 ], [ -2.021704, 42.3708028 ], [ -2.0216113, 42.3707097 ], [ -2.0215034, 42.3706215 ], [ -2.0213047, 42.370465 ], [ -2.0212558, 42.3703875 ], [ -2.0211187, 42.3702726 ], [ -2.020898, 42.3700658 ], [ -2.0205564, 42.3698237 ], [ -2.0204518, 42.3697125 ], [ -2.0203206, 42.3695605 ], [ -2.0201846, 42.369422 ], [ -2.0200426, 42.3692767 ], [ -2.0199429, 42.3691498 ], [ -2.0198177, 42.3689973 ], [ -2.0197321, 42.368893 ], [ -2.0194427, 42.3685111 ], [ -2.0193362, 42.3685277 ], [ -2.0192938, 42.3685287 ], [ -2.0191783, 42.3685314 ], [ -2.019061, 42.3685562 ], [ -2.0189636, 42.3685667 ], [ -2.0185654, 42.3686573 ], [ -2.018062, 42.3687463 ], [ -2.0173993, 42.3688516 ], [ -2.0167837, 42.3689555 ], [ -2.0165721, 42.3689875 ], [ -2.0161475, 42.3690581 ], [ -2.0160014, 42.3690816 ], [ -2.0157557, 42.3691144 ], [ -2.0156013, 42.3691322 ], [ -2.0154486, 42.3691399 ], [ -2.0149379, 42.3691316 ], [ -2.0144735, 42.3691253 ], [ -2.0143925, 42.3691239 ], [ -2.0141646, 42.3691199 ], [ -2.0138298, 42.3690787 ], [ -2.0135813, 42.3690467 ], [ -2.0133957, 42.3690204 ], [ -2.0131024, 42.3689469 ], [ -2.012736, 42.368834 ], [ -2.012386, 42.3686914 ], [ -2.0121713, 42.3685894 ], [ -2.0119067, 42.3684233 ], [ -2.0116255, 42.3682025 ], [ -2.011422, 42.3680133 ], [ -2.0112069, 42.3677919 ], [ -2.0110334, 42.3675754 ], [ -2.0108295, 42.3673197 ], [ -2.0106966, 42.3670828 ], [ -2.0105962, 42.3668494 ], [ -2.0105636, 42.3667535 ], [ -2.0104871, 42.3665018 ], [ -2.0102814, 42.3657761 ], [ -2.0102117, 42.3655273 ], [ -2.0101458, 42.3652658 ], [ -2.0101295, 42.3652013 ], [ -2.0099884, 42.364815 ], [ -2.0098196, 42.3643464 ], [ -2.0096828, 42.363972 ], [ -2.0095329, 42.3636589 ], [ -2.0094497, 42.363451 ], [ -2.0093349, 42.3632215 ], [ -2.0092282, 42.3630056 ], [ -2.0091274, 42.3628083 ], [ -2.008974, 42.3625987 ], [ -2.0089669, 42.362589 ], [ -2.0088077, 42.3623805 ], [ -2.0086173, 42.362183 ], [ -2.0084164, 42.3619747 ], [ -2.0082108, 42.3617787 ], [ -2.007934, 42.3615196 ], [ -2.0076207, 42.3612693 ], [ -2.0072964, 42.3610441 ], [ -2.0070197, 42.3608796 ], [ -2.0067652, 42.360748 ], [ -2.0064687, 42.360639 ], [ -2.0063484, 42.3606121 ], [ -2.0061348, 42.3605855 ], [ -2.0058125, 42.3605708 ], [ -2.0055582, 42.3605754 ], [ -2.0053757, 42.3606003 ], [ -2.005124, 42.3606729 ], [ -2.0046119, 42.3608751 ], [ -2.0044795, 42.3609274 ], [ -2.0043766, 42.3609552 ], [ -2.0041803, 42.3610283 ], [ -2.0039876, 42.3611195 ], [ -2.0039487, 42.3611343 ], [ -2.0032058, 42.3614156 ], [ -2.0030807, 42.361455 ], [ -2.0028105, 42.36155 ], [ -2.0024897, 42.361675 ], [ -2.0022384, 42.3617764 ], [ -2.00189, 42.3619264 ], [ -2.0016939, 42.3620385 ], [ -2.0010598, 42.3623762 ], [ -2.0010555, 42.3623785 ], [ -2.0005091, 42.3627092 ], [ -2.0002531, 42.3628679 ], [ -1.9999881, 42.3630215 ], [ -1.9997455, 42.3631449 ], [ -1.9994715, 42.3632866 ], [ -1.9994476, 42.3632983 ], [ -1.9991924, 42.3634226 ], [ -1.998831, 42.3635692 ], [ -1.9986231, 42.3636631 ], [ -1.9983101, 42.363774 ], [ -1.9979829, 42.3638781 ], [ -1.9978208, 42.363902 ], [ -1.9976555, 42.3639383 ], [ -1.9974053, 42.3639687 ], [ -1.9972267, 42.3639858 ], [ -1.9969968, 42.3639821 ], [ -1.996722, 42.3639819 ], [ -1.996566, 42.3639608 ], [ -1.9962712, 42.3638828 ], [ -1.9959049, 42.363771 ], [ -1.9957079, 42.3637012 ], [ -1.9954555, 42.3635808 ], [ -1.994625, 42.3632144 ], [ -1.9941189, 42.362969 ], [ -1.9937666, 42.3627841 ], [ -1.9935165, 42.3626203 ], [ -1.993283, 42.3624573 ], [ -1.993078, 42.3622788 ], [ -1.9928581, 42.3620691 ], [ -1.9926868, 42.3618706 ], [ -1.9925263, 42.3616525 ], [ -1.9923823, 42.3614081 ], [ -1.9921813, 42.3610179 ], [ -1.9920744, 42.3608177 ], [ -1.9920095, 42.3606556 ], [ -1.9918475, 42.360345 ], [ -1.9918453, 42.3603407 ], [ -1.9917587, 42.3601063 ], [ -1.9917107, 42.3600231 ], [ -1.9916273, 42.3599262 ], [ -1.991442, 42.3597917 ], [ -1.9911642, 42.3596018 ], [ -1.9907955, 42.3593571 ], [ -1.9905283, 42.3592162 ], [ -1.9902181, 42.3590632 ], [ -1.9899368, 42.3589465 ], [ -1.9896604, 42.358818 ], [ -1.9891492, 42.3586086 ], [ -1.9887576, 42.3584667 ], [ -1.9882589, 42.3582855 ], [ -1.9878399, 42.3581434 ], [ -1.9875056, 42.3580278 ], [ -1.9871901, 42.3579203 ], [ -1.9868629, 42.3578325 ], [ -1.9867624, 42.3578051 ], [ -1.9865463, 42.3577418 ], [ -1.9863212, 42.357674 ], [ -1.9861625, 42.3576382 ], [ -1.9859166, 42.3575888 ], [ -1.9856223, 42.3575316 ], [ -1.9854186, 42.3575028 ], [ -1.985355, 42.3574994 ], [ -1.9852717, 42.3574874 ], [ -1.9851267, 42.3574844 ], [ -1.9849737, 42.3574701 ], [ -1.9848396, 42.3574543 ], [ -1.9846467, 42.3574165 ], [ -1.9845758, 42.3574013 ], [ -1.9840258, 42.3572042 ], [ -1.9837665, 42.3570778 ], [ -1.9834992, 42.3569426 ], [ -1.9829653, 42.3566401 ], [ -1.9827104, 42.3564926 ], [ -1.9824325, 42.3563173 ], [ -1.9823332, 42.3562481 ], [ -1.9819431, 42.3559758 ], [ -1.9817251, 42.355805 ], [ -1.9814583, 42.3555465 ], [ -1.9810672, 42.3551907 ], [ -1.9805345, 42.354672 ], [ -1.9803539, 42.354483 ], [ -1.9802224, 42.3543563 ], [ -1.9801394, 42.3542779 ], [ -1.9800498, 42.3540474 ], [ -1.9800476, 42.3538059 ], [ -1.9800761, 42.3536875 ], [ -1.9802262, 42.3535104 ], [ -1.9804011, 42.3533238 ], [ -1.9805698, 42.3531436 ], [ -1.9807884, 42.352863 ], [ -1.980872, 42.3527596 ], [ -1.9809084, 42.352666 ], [ -1.9808601, 42.3523244 ], [ -1.9807782, 42.3519888 ], [ -1.9806267, 42.3515968 ], [ -1.9804212, 42.3511717 ], [ -1.9802694, 42.3508427 ], [ -1.9801124, 42.3505537 ], [ -1.9798998, 42.3502828 ], [ -1.9796817, 42.3501159 ], [ -1.9793796, 42.349977 ], [ -1.9791442, 42.3498961 ], [ -1.9788751, 42.3497839 ], [ -1.9787288, 42.3497297 ], [ -1.9785109, 42.3496411 ], [ -1.9784217, 42.3496206 ], [ -1.9781466, 42.3496001 ], [ -1.9779176, 42.349588 ], [ -1.9778105, 42.3495943 ], [ -1.977575, 42.3496598 ], [ -1.9774128, 42.3497399 ], [ -1.9771708, 42.3498785 ], [ -1.9766351, 42.3501996 ], [ -1.9763899, 42.3503432 ], [ -1.9760092, 42.3505655 ], [ -1.9759196, 42.3506142 ], [ -1.9758513, 42.3506603 ], [ -1.9753883, 42.3511791 ], [ -1.9751062, 42.3514963 ], [ -1.9747436, 42.3519124 ], [ -1.974364, 42.3523356 ], [ -1.974133, 42.3525925 ], [ -1.9740529, 42.3526616 ], [ -1.9737125, 42.3529737 ], [ -1.9734174, 42.3532352 ], [ -1.9733559, 42.3532897 ], [ -1.9730865, 42.353522 ], [ -1.9729884, 42.3535853 ], [ -1.9729288, 42.3536078 ], [ -1.9727784, 42.3536166 ], [ -1.9725176, 42.353603 ], [ -1.9723885, 42.3535834 ], [ -1.9720482, 42.3535318 ], [ -1.9718585, 42.3534857 ], [ -1.9717028, 42.3534465 ], [ -1.9715528, 42.3533855 ], [ -1.9711925, 42.3532405 ], [ -1.971134, 42.3532144 ], [ -1.9706671, 42.3529978 ], [ -1.9701978, 42.3527626 ], [ -1.96977, 42.3525162 ], [ -1.9697009, 42.3524745 ], [ -1.9695816, 42.352389 ], [ -1.9694467, 42.3522917 ], [ -1.9694354, 42.3522835 ], [ -1.9693363, 42.3521712 ], [ -1.9691612, 42.3519748 ], [ -1.9688937, 42.3516741 ], [ -1.9687863, 42.3515572 ], [ -1.9686354, 42.3514117 ], [ -1.9684365, 42.3512315 ], [ -1.9681774, 42.3510176 ], [ -1.9680569, 42.350918 ], [ -1.9679473, 42.3507999 ], [ -1.9678789, 42.3507126 ], [ -1.9678124, 42.3506017 ], [ -1.9677807, 42.3505423 ], [ -1.9677625, 42.3504549 ], [ -1.9677591, 42.3503817 ], [ -1.9677756, 42.3503036 ], [ -1.9678173, 42.3502089 ], [ -1.9678835, 42.3501086 ], [ -1.9680115, 42.3499382 ], [ -1.9681329, 42.349798 ], [ -1.9682604, 42.3496629 ], [ -1.9683929, 42.3495414 ], [ -1.9685792, 42.3493725 ], [ -1.9687692, 42.3492195 ], [ -1.9689675, 42.3490665 ], [ -1.9691934, 42.3488929 ], [ -1.969417, 42.3487192 ], [ -1.969646, 42.3485423 ], [ -1.9697192, 42.3484777 ], [ -1.9697976, 42.3484154 ], [ -1.9698251, 42.348356 ], [ -1.9699003, 42.348217 ], [ -1.9699329, 42.3481672 ], [ -1.9699471, 42.3480936 ], [ -1.9699407, 42.3479725 ], [ -1.9699021, 42.3477786 ], [ -1.9698375, 42.3475534 ], [ -1.969495, 42.3476623 ], [ -1.9677573, 42.3484037 ], [ -1.9658408, 42.3492223 ], [ -1.9655222, 42.3493579 ], [ -1.9655031, 42.3495035 ], [ -1.9655031, 42.3495052 ], [ -1.9654969, 42.3495586 ], [ -1.9654861, 42.3496604 ], [ -1.9654244, 42.3496734 ], [ -1.9653513, 42.349689 ], [ -1.9652728, 42.3496652 ], [ -1.9652675, 42.3496635 ], [ -1.9652275, 42.3496513 ], [ -1.965093, 42.3496146 ], [ -1.965065, 42.349611 ], [ -1.9650256, 42.3496061 ], [ -1.9649588, 42.34961 ], [ -1.9649259, 42.3496244 ], [ -1.964903, 42.3496349 ], [ -1.9648108, 42.349705 ], [ -1.9647552, 42.3497619 ], [ -1.9647428, 42.3497747 ], [ -1.9646565, 42.3498589 ], [ -1.9646248, 42.349893 ], [ -1.9645993, 42.3499197 ], [ -1.9645371, 42.3499631 ], [ -1.9644729, 42.3499912 ], [ -1.9643801, 42.3500072 ], [ -1.9643246, 42.3500163 ], [ -1.9642844, 42.3500103 ], [ -1.9642405, 42.3500043 ], [ -1.9641674, 42.3499744 ], [ -1.9641471, 42.3499663 ], [ -1.9641117, 42.3499469 ], [ -1.9641102, 42.3499457 ], [ -1.9639568, 42.3498599 ], [ -1.9638635, 42.3498095 ], [ -1.9637646, 42.3497811 ], [ -1.9637207, 42.3497745 ], [ -1.9637169, 42.3497739 ], [ -1.9636994, 42.3497787 ], [ -1.9636567, 42.3497896 ], [ -1.9636402, 42.3497332 ], [ -1.963626, 42.3497173 ], [ -1.9636208, 42.3497117 ], [ -1.9636073, 42.3497019 ], [ -1.9635331, 42.3496472 ], [ -1.9634523, 42.3496251 ], [ -1.9634409, 42.3496228 ], [ -1.9633683, 42.3496063 ], [ -1.9633154, 42.3495946 ], [ -1.9632965, 42.3495905 ], [ -1.9632844, 42.3496349 ], [ -1.9631475, 42.3497006 ], [ -1.9627517, 42.3498687 ], [ -1.9627462, 42.349876 ], [ -1.96272, 42.349905 ], [ -1.9626949, 42.3499554 ], [ -1.9626941, 42.3500033 ], [ -1.9625389, 42.3501133 ], [ -1.962395, 42.3500963 ], [ -1.9623049, 42.3500853 ], [ -1.9623011, 42.3500853 ], [ -1.9622299, 42.3500812 ], [ -1.9622155, 42.3500794 ], [ -1.9618747, 42.3500347 ], [ -1.9618518, 42.3500468 ], [ -1.961835, 42.3500546 ], [ -1.9618158, 42.3500634 ], [ -1.9618067, 42.3500673 ], [ -1.9617906, 42.3500756 ], [ -1.9616583, 42.3501413 ], [ -1.9612298, 42.3503547 ], [ -1.9611742, 42.3503677 ], [ -1.9601699, 42.3504808 ], [ -1.9601628, 42.3504937 ], [ -1.9601301, 42.350642 ], [ -1.9600921, 42.35069 ], [ -1.9600007, 42.3508045 ], [ -1.9599906, 42.3508129 ], [ -1.9599799, 42.3508213 ], [ -1.9592964, 42.3508995 ], [ -1.9592771, 42.350919 ], [ -1.9589661, 42.3513276 ], [ -1.9589092, 42.3513249 ], [ -1.9587146, 42.3512972 ], [ -1.9586377, 42.3513173 ], [ -1.9585614, 42.3513375 ], [ -1.9585446, 42.3513424 ], [ -1.958039, 42.3514959 ], [ -1.9579723, 42.3515381 ], [ -1.9579007, 42.3515994 ], [ -1.9578708, 42.3516194 ], [ -1.9576812, 42.3517466 ], [ -1.9576137, 42.3517915 ], [ -1.9575286, 42.3518414 ], [ -1.9574714, 42.3518617 ], [ -1.9572259, 42.3519315 ], [ -1.9571693, 42.3519609 ], [ -1.9569355, 42.3521011 ], [ -1.9567988, 42.3521973 ], [ -1.9565051, 42.3524271 ], [ -1.9564682, 42.3524554 ], [ -1.9562792, 42.3525983 ], [ -1.9562461, 42.3526234 ], [ -1.9562238, 42.3526406 ], [ -1.9561447, 42.3527001 ], [ -1.9561308, 42.3527163 ], [ -1.9560875, 42.3527649 ], [ -1.9560681, 42.3527906 ], [ -1.956044, 42.3528219 ], [ -1.9560425, 42.3528236 ], [ -1.956017, 42.3528504 ], [ -1.9560116, 42.3528537 ], [ -1.9558912, 42.3529303 ], [ -1.9558889, 42.352932 ], [ -1.9558398, 42.3529636 ], [ -1.9558314, 42.3529674 ], [ -1.9557572, 42.3530039 ], [ -1.9556609, 42.3530419 ], [ -1.9556448, 42.3530524 ], [ -1.9556356, 42.353058 ], [ -1.9555052, 42.3530968 ], [ -1.9553297, 42.3531593 ], [ -1.9553197, 42.3531632 ], [ -1.9551392, 42.3532482 ], [ -1.9550044, 42.3533235 ], [ -1.9548765, 42.353395 ], [ -1.9548696, 42.3533988 ], [ -1.9546834, 42.3535064 ], [ -1.9546819, 42.3535075 ], [ -1.9546643, 42.3535174 ], [ -1.9544676, 42.3536597 ], [ -1.9542641, 42.3538071 ], [ -1.9542287, 42.353832 ], [ -1.9541389, 42.3538965 ], [ -1.9540187, 42.3539123 ], [ -1.9540043, 42.3539139 ], [ -1.9533145, 42.3540038 ], [ -1.9532811, 42.3538662 ], [ -1.9532252, 42.3538533 ], [ -1.9530864, 42.3538452 ], [ -1.9530667, 42.3538468 ], [ -1.9530241, 42.3538503 ], [ -1.9530036, 42.3538557 ], [ -1.9529746, 42.3538639 ], [ -1.9529615, 42.3538717 ], [ -1.9529347, 42.3538872 ], [ -1.9529102, 42.3539011 ], [ -1.9527936, 42.3539777 ], [ -1.952792, 42.3539788 ], [ -1.952667, 42.3540604 ], [ -1.9526252, 42.3540639 ], [ -1.9526229, 42.3540645 ], [ -1.9525256, 42.3540731 ], [ -1.9524686, 42.3540777 ], [ -1.9523721, 42.3540853 ], [ -1.9521121, 42.3541132 ], [ -1.9520749, 42.3541175 ], [ -1.9520657, 42.3541185 ], [ -1.9520414, 42.3541205 ], [ -1.9520262, 42.3541215 ], [ -1.9515712, 42.3541472 ], [ -1.9513928, 42.3541551 ], [ -1.9513905, 42.3541556 ], [ -1.9512196, 42.3541631 ], [ -1.9510298, 42.3541698 ], [ -1.9510275, 42.3541703 ], [ -1.9509493, 42.354173 ], [ -1.9508042, 42.3541779 ], [ -1.9507025, 42.3541814 ], [ -1.9506114, 42.3541823 ], [ -1.9504718, 42.3541838 ], [ -1.9502729, 42.3541865 ], [ -1.950121, 42.3542391 ], [ -1.9500699, 42.3542527 ], [ -1.9499122, 42.3542946 ], [ -1.949903, 42.3542973 ], [ -1.9499, 42.3542979 ], [ -1.9497323, 42.3543425 ], [ -1.9496133, 42.3543735 ], [ -1.9495189, 42.3543929 ], [ -1.9494002, 42.3544121 ], [ -1.9493956, 42.3544126 ], [ -1.9493668, 42.3544174 ], [ -1.9492495, 42.3544422 ], [ -1.9492213, 42.354447 ], [ -1.949216, 42.3544475 ], [ -1.9491597, 42.3544521 ], [ -1.949156, 42.3544526 ], [ -1.9490503, 42.354464 ], [ -1.9490191, 42.3544677 ], [ -1.948953, 42.3544727 ], [ -1.9489507, 42.3544732 ], [ -1.9488861, 42.3544783 ], [ -1.9488816, 42.3544788 ], [ -1.9487568, 42.3544962 ], [ -1.9487317, 42.3545 ], [ -1.9486374, 42.3545115 ], [ -1.9486351, 42.3545114 ], [ -1.9485629, 42.3545175 ], [ -1.9483052, 42.3545455 ], [ -1.9483014, 42.3545461 ], [ -1.9481448, 42.3545655 ], [ -1.9479974, 42.3545771 ], [ -1.9479722, 42.3545802 ], [ -1.9478475, 42.3545965 ], [ -1.947688, 42.3546058 ], [ -1.9476744, 42.3546056 ], [ -1.9476204, 42.3546057 ], [ -1.9475615, 42.3546378 ], [ -1.9475155, 42.3546627 ], [ -1.9474819, 42.3546782 ], [ -1.9474659, 42.3546819 ], [ -1.947069, 42.3547734 ], [ -1.9468015, 42.3548407 ], [ -1.9467839, 42.3548457 ], [ -1.9467817, 42.3548462 ], [ -1.9466231, 42.354892 ], [ -1.9466086, 42.354897 ], [ -1.946446, 42.3549495 ], [ -1.9462682, 42.355007 ], [ -1.9459775, 42.3551005 ], [ -1.9459371, 42.3551131 ], [ -1.9459203, 42.3551175 ], [ -1.9458136, 42.3551446 ], [ -1.9458106, 42.3551457 ], [ -1.9456366, 42.3552038 ], [ -1.9456343, 42.3552043 ], [ -1.9455061, 42.3552448 ], [ -1.9454184, 42.3552693 ], [ -1.9454025, 42.3552737 ], [ -1.945344, 42.3552771 ], [ -1.9451988, 42.3552859 ], [ -1.945116, 42.3552907 ], [ -1.9448844, 42.355301 ], [ -1.94487, 42.3553014 ], [ -1.944721, 42.3553141 ], [ -1.9445802, 42.3553438 ], [ -1.9443472, 42.3553884 ], [ -1.9442733, 42.3554023 ], [ -1.9441021, 42.3554328 ], [ -1.9438311, 42.3554827 ], [ -1.9437937, 42.3554896 ], [ -1.9435752, 42.3555332 ], [ -1.9433392, 42.3555789 ], [ -1.9433217, 42.3555849 ], [ -1.9432595, 42.3555838 ], [ -1.9432126, 42.3555749 ], [ -1.9432059, 42.3555613 ], [ -1.9432001, 42.3555483 ], [ -1.9431932, 42.3555083 ], [ -1.943188, 42.355497 ], [ -1.9431822, 42.3554829 ], [ -1.9431785, 42.3554749 ], [ -1.9431286, 42.3554638 ], [ -1.9430628, 42.3554514 ], [ -1.9429386, 42.3554846 ], [ -1.9427863, 42.3555152 ], [ -1.9426709, 42.3555648 ], [ -1.9425576, 42.3555728 ], [ -1.9422832, 42.3556024 ], [ -1.9422779, 42.3556028 ], [ -1.9422414, 42.355607 ], [ -1.9421418, 42.3556173 ], [ -1.9421228, 42.3556194 ], [ -1.9417616, 42.3556577 ], [ -1.9414805, 42.3556827 ], [ -1.9413352, 42.3557 ], [ -1.9410387, 42.3557287 ], [ -1.941003, 42.3557324 ], [ -1.9410007, 42.3557329 ], [ -1.9409954, 42.3557334 ], [ -1.9406487, 42.3557724 ], [ -1.9404852, 42.35579 ], [ -1.9404822, 42.35579 ], [ -1.9402526, 42.3558138 ], [ -1.9401759, 42.3558193 ], [ -1.9400916, 42.3558241 ], [ -1.9400816, 42.3558268 ], [ -1.9400626, 42.3558312 ], [ -1.9399486, 42.355843 ], [ -1.9399068, 42.3558472 ], [ -1.9397024, 42.3558565 ], [ -1.9394603, 42.3558622 ], [ -1.939183, 42.3558771 ], [ -1.9391268, 42.3558799 ], [ -1.9390279, 42.3558959 ], [ -1.9389526, 42.3559053 ], [ -1.9389488, 42.3559058 ], [ -1.9389457, 42.3559064 ], [ -1.9390062, 42.3560583 ], [ -1.9396915, 42.3579503 ], [ -1.9399956, 42.3587766 ], [ -1.9401217, 42.3590829 ], [ -1.9401912, 42.3592839 ], [ -1.9402702, 42.3594597 ], [ -1.9403373, 42.359619 ], [ -1.940404, 42.3597603 ], [ -1.9404763, 42.3598882 ], [ -1.9408014, 42.3604541 ], [ -1.9416666, 42.3619509 ], [ -1.9430788, 42.3644012 ], [ -1.9445017, 42.3668622 ], [ -1.9460256, 42.3695059 ], [ -1.9463013, 42.3699554 ], [ -1.9469409, 42.3710572 ], [ -1.9474023, 42.3718838 ], [ -1.9478804, 42.3727105 ], [ -1.9480818, 42.3731463 ], [ -1.9479507, 42.3732296 ], [ -1.9478168, 42.3734276 ], [ -1.9475919, 42.3736631 ], [ -1.9475223, 42.373744 ], [ -1.9475193, 42.3737429 ], [ -1.9474373, 42.3738288 ], [ -1.9469738, 42.3743131 ], [ -1.9467697, 42.374443 ], [ -1.9462501, 42.3749616 ], [ -1.945186, 42.3760832 ], [ -1.9448811, 42.3764288 ], [ -1.9443776, 42.3767107 ], [ -1.9435047, 42.3771557 ], [ -1.9429595, 42.3774361 ], [ -1.9427607, 42.3777472 ], [ -1.9428996, 42.3779736 ], [ -1.9438272, 42.3791085 ], [ -1.944576, 42.3800475 ], [ -1.9454217, 42.3810943 ], [ -1.9461333, 42.3819818 ], [ -1.9465831, 42.3825538 ], [ -1.946876, 42.3828808 ], [ -1.9475413, 42.3836383 ], [ -1.9487549, 42.3851647 ], [ -1.9495594, 42.3861379 ], [ -1.9506869, 42.3872279 ], [ -1.951644, 42.3881631 ], [ -1.9526953, 42.3891836 ], [ -1.9537178, 42.3901138 ], [ -1.9551634, 42.3914976 ], [ -1.95613, 42.3924115 ], [ -1.9569753, 42.3932235 ] ] ] } }
]
}
