{
"type": "FeatureCollection",
"name": "31086",
"features": [
{ "type": "Feature", "properties": { "CCAA": "15 - Comunidad Foral de Navarra", "PROVINCIA": "31 - Navarra", "MUNICIPIO": "31086 - Valle de Egüés/Eguesibar", "COD_MUNICIPIO": "31086", "DISTRITO": "01", "SECCION": "3108601004", "V1_H": 83.02, "V1_M": 87.55, "V2_H": 82.56010262, "V2_M": 87.39744151, "V3_H": 83.4975015, "V3_M": 87.7973198 }, "geometry": { "type": "Polygon", "coordinates": [ [ [ -1.5689743, 42.8113786 ], [ -1.5667106, 42.8128893 ], [ -1.5639495, 42.8147317 ], [ -1.5646639, 42.8154757 ], [ -1.565321, 42.8169732 ], [ -1.566186, 42.8194391 ], [ -1.565847, 42.82031 ], [ -1.5651545, 42.8220849 ], [ -1.5642336, 42.8240775 ], [ -1.5648903, 42.8248433 ], [ -1.5661824, 42.8257347 ], [ -1.5674316, 42.8262074 ], [ -1.5696063, 42.8265346 ], [ -1.5714007, 42.8268052 ], [ -1.5722784, 42.8268426 ], [ -1.573818, 42.8277888 ], [ -1.5760534, 42.8294376 ], [ -1.5761683, 42.8293591 ], [ -1.576173, 42.8293558 ], [ -1.5762635, 42.8292787 ], [ -1.5763455, 42.8292031 ], [ -1.5764199, 42.8291275 ], [ -1.5764691, 42.8290139 ], [ -1.5765019, 42.8289214 ], [ -1.5765726, 42.8287371 ], [ -1.5765984, 42.8286159 ], [ -1.5766211, 42.8284918 ], [ -1.5766446, 42.8282658 ], [ -1.5766544, 42.8281742 ], [ -1.5766828, 42.8279354 ], [ -1.5767123, 42.8277185 ], [ -1.5767245, 42.8276517 ], [ -1.5767632, 42.8274332 ], [ -1.5767797, 42.8272471 ], [ -1.5767839, 42.8272303 ], [ -1.5767931, 42.8271949 ], [ -1.5768985, 42.8271355 ], [ -1.5770469, 42.8270664 ], [ -1.5773034, 42.8269182 ], [ -1.5773057, 42.8269171 ], [ -1.5775832, 42.8267545 ], [ -1.578005, 42.8265307 ], [ -1.5783114, 42.8263752 ], [ -1.5786565, 42.8264949 ], [ -1.5790183, 42.8266237 ], [ -1.579371, 42.826748 ], [ -1.5797748, 42.8268819 ], [ -1.580048, 42.8269698 ], [ -1.5800602, 42.8269722 ], [ -1.5800944, 42.8269804 ], [ -1.5801237, 42.8269696 ], [ -1.580338, 42.8268929 ], [ -1.5806558, 42.8267707 ], [ -1.5809188, 42.8266732 ], [ -1.581316, 42.8265256 ], [ -1.5816074, 42.8264206 ], [ -1.5816799, 42.8263928 ], [ -1.5817308, 42.8263738 ], [ -1.5817548, 42.8263628 ], [ -1.5818058, 42.8263404 ], [ -1.5819564, 42.8262083 ], [ -1.5820105, 42.8261504 ], [ -1.5820771, 42.8260803 ], [ -1.5822849, 42.8258842 ], [ -1.5822982, 42.8258715 ], [ -1.5824569, 42.825717 ], [ -1.5826652, 42.8255383 ], [ -1.5828006, 42.8254026 ], [ -1.5829453, 42.8252592 ], [ -1.582968, 42.8252364 ], [ -1.5830954, 42.8251148 ], [ -1.5830962, 42.8251125 ], [ -1.5831705, 42.8250082 ], [ -1.5832298, 42.8249228 ], [ -1.5832575, 42.8248832 ], [ -1.5833523, 42.8247471 ], [ -1.5833562, 42.8247437 ], [ -1.583491, 42.824536 ], [ -1.5836266, 42.8243559 ], [ -1.5837414, 42.8241857 ], [ -1.5838732, 42.8239689 ], [ -1.5839637, 42.8238237 ], [ -1.5839796, 42.8237986 ], [ -1.5840855, 42.8236153 ], [ -1.5841069, 42.8235784 ], [ -1.5841221, 42.8235527 ], [ -1.5841516, 42.8235007 ], [ -1.5844313, 42.8230359 ], [ -1.5846256, 42.8222943 ], [ -1.5847216, 42.8219272 ], [ -1.5833501, 42.8219119 ], [ -1.5824221, 42.8219004 ], [ -1.581813, 42.8218928 ], [ -1.5807739, 42.8216664 ], [ -1.5792451, 42.8212844 ], [ -1.5777768, 42.8207963 ], [ -1.5762501, 42.8203289 ], [ -1.5753343, 42.8197836 ], [ -1.57503, 42.8191391 ], [ -1.5752178, 42.8185435 ], [ -1.5750335, 42.8177298 ], [ -1.5740966, 42.8168425 ], [ -1.5733854, 42.8162357 ], [ -1.5724186, 42.8153908 ], [ -1.5717055, 42.8148694 ], [ -1.5708734, 42.8144746 ], [ -1.5698197, 42.8136286 ], [ -1.5689743, 42.8113786 ] ] ] } },
{ "type": "Feature", "properties": { "CCAA": "15 - Comunidad Foral de Navarra", "PROVINCIA": "31 - Navarra", "MUNICIPIO": "31086 - Valle de Egüés/Eguesibar", "COD_MUNICIPIO": "31086", "DISTRITO": "01", "SECCION": "3108601005", "V1_H": 83.02, "V1_M": 87.55, "V2_H": 82.56010262, "V2_M": 87.39744151, "V3_H": 83.4975015, "V3_M": 87.7973198 }, "geometry": { "type": "Polygon", "coordinates": [ [ [ -1.5689743, 42.8113786 ], [ -1.5698197, 42.8136286 ], [ -1.5708734, 42.8144746 ], [ -1.5717055, 42.8148694 ], [ -1.5724186, 42.8153908 ], [ -1.5733854, 42.8162357 ], [ -1.5740966, 42.8168425 ], [ -1.5750335, 42.8177298 ], [ -1.5752178, 42.8185435 ], [ -1.57503, 42.8191391 ], [ -1.5753343, 42.8197836 ], [ -1.5762501, 42.8203289 ], [ -1.5777768, 42.8207963 ], [ -1.5792451, 42.8212844 ], [ -1.5807739, 42.8216664 ], [ -1.581813, 42.8218928 ], [ -1.5824221, 42.8219004 ], [ -1.5833501, 42.8219119 ], [ -1.5847216, 42.8219272 ], [ -1.5848016, 42.8216211 ], [ -1.5842904, 42.8198998 ], [ -1.5834258, 42.8181258 ], [ -1.5829007, 42.8170482 ], [ -1.582335, 42.8161795 ], [ -1.5822072, 42.8159832 ], [ -1.5809815, 42.815627 ], [ -1.578856, 42.8131714 ], [ -1.5776927, 42.81206 ], [ -1.5767058, 42.8117601 ], [ -1.5748122, 42.8115671 ], [ -1.572029, 42.811493 ], [ -1.5709323, 42.8113488 ], [ -1.5696113, 42.8109535 ], [ -1.5689743, 42.8113786 ] ] ] } },
{ "type": "Feature", "properties": { "CCAA": "15 - Comunidad Foral de Navarra", "PROVINCIA": "31 - Navarra", "MUNICIPIO": "31086 - Valle de Egüés/Eguesibar", "COD_MUNICIPIO": "31086", "DISTRITO": "01", "SECCION": "3108601008", "V1_H": 81.47, "V1_M": 86.75, "V2_H": 81.12898066, "V2_M": 86.51613614, "V3_H": 81.81510349, "V3_M": 87.06728245 }, "geometry": { "type": "Polygon", "coordinates": [ [ [ -1.5925957, 42.8095487 ], [ -1.5965133, 42.8104911 ], [ -1.595758, 42.8068951 ], [ -1.5950109, 42.806616 ], [ -1.5941749, 42.8063922 ], [ -1.5932736, 42.8064879 ], [ -1.5926357, 42.80648 ], [ -1.5922746, 42.8064927 ], [ -1.5911007, 42.8092011 ], [ -1.5925957, 42.8095487 ] ] ] } },
{ "type": "Feature", "properties": { "CCAA": "15 - Comunidad Foral de Navarra", "PROVINCIA": "31 - Navarra", "MUNICIPIO": "31086 - Valle de Egüés/Eguesibar", "COD_MUNICIPIO": "31086", "DISTRITO": "01", "SECCION": "3108601009", "V1_H": 81.41, "V1_M": 86.82, "V2_H": 80.96532964, "V2_M": 86.87567885, "V3_H": 81.8694609, "V3_M": 86.90400308 }, "geometry": { "type": "Polygon", "coordinates": [ [ [ -1.5887585, 42.8086566 ], [ -1.5911007, 42.8092011 ], [ -1.5922746, 42.8064927 ], [ -1.5917359, 42.8065117 ], [ -1.5906685, 42.8062636 ], [ -1.5898069, 42.80589 ], [ -1.5866626, 42.8051464 ], [ -1.585911, 42.8063117 ], [ -1.5842692, 42.8070815 ], [ -1.5844535, 42.8076194 ], [ -1.5887585, 42.8086566 ] ] ] } },
{ "type": "Feature", "properties": { "CCAA": "15 - Comunidad Foral de Navarra", "PROVINCIA": "31 - Navarra", "MUNICIPIO": "31086 - Valle de Egüés/Eguesibar", "COD_MUNICIPIO": "31086", "DISTRITO": "01", "SECCION": "3108601011", "V1_H": 81.41, "V1_M": 86.82, "V2_H": 80.96532964, "V2_M": 86.87567885, "V3_H": 81.8694609, "V3_M": 86.90400308 }, "geometry": { "type": "Polygon", "coordinates": [ [ [ -1.5844535, 42.8076194 ], [ -1.584813, 42.8086685 ], [ -1.5849178, 42.809161 ], [ -1.583753, 42.8119013 ], [ -1.5854237, 42.8124132 ], [ -1.5880208, 42.8130005 ], [ -1.5907068, 42.8135034 ], [ -1.5908616, 42.8135436 ], [ -1.5916805, 42.8116572 ], [ -1.587889, 42.8107568 ], [ -1.5887585, 42.8086566 ], [ -1.5844535, 42.8076194 ] ] ] } },
{ "type": "Feature", "properties": { "CCAA": "15 - Comunidad Foral de Navarra", "PROVINCIA": "31 - Navarra", "MUNICIPIO": "31086 - Valle de Egüés/Eguesibar", "COD_MUNICIPIO": "31086", "DISTRITO": "01", "SECCION": "3108601007", "V1_H": 81.68, "V1_M": 87.08, "V2_H": 81.12537096, "V2_M": 86.91948792, "V3_H": 82.31095034000001, "V3_M": 87.32789848 }, "geometry": { "type": "Polygon", "coordinates": [ [ [ -1.5965133, 42.8104911 ], [ -1.6061179, 42.8127102 ], [ -1.6064709, 42.8125505 ], [ -1.6066834, 42.8124489 ], [ -1.6068758, 42.8123545 ], [ -1.6052515, 42.811653 ], [ -1.6043907, 42.8112368 ], [ -1.6040886, 42.8104856 ], [ -1.6035211, 42.8099235 ], [ -1.6026106, 42.8091436 ], [ -1.6014947, 42.8084679 ], [ -1.6008664, 42.8080331 ], [ -1.5997984, 42.8078065 ], [ -1.599132, 42.807777 ], [ -1.5982385, 42.8075312 ], [ -1.596075, 42.8070135 ], [ -1.595758, 42.8068951 ], [ -1.5965133, 42.8104911 ] ] ] } },
{ "type": "Feature", "properties": { "CCAA": "15 - Comunidad Foral de Navarra", "PROVINCIA": "31 - Navarra", "MUNICIPIO": "31086 - Valle de Egüés/Eguesibar", "COD_MUNICIPIO": "31086", "DISTRITO": "01", "SECCION": "3108601010", "V1_H": 81.41, "V1_M": 86.82, "V2_H": 80.96532964, "V2_M": 86.87567885, "V3_H": 81.8694609, "V3_M": 86.90400308 }, "geometry": { "type": "Polygon", "coordinates": [ [ [ -1.5887585, 42.8086566 ], [ -1.587889, 42.8107568 ], [ -1.5916805, 42.8116572 ], [ -1.5925957, 42.8095487 ], [ -1.5911007, 42.8092011 ], [ -1.5887585, 42.8086566 ] ] ] } },
{ "type": "Feature", "properties": { "CCAA": "15 - Comunidad Foral de Navarra", "PROVINCIA": "31 - Navarra", "MUNICIPIO": "31086 - Valle de Egüés/Eguesibar", "COD_MUNICIPIO": "31086", "DISTRITO": "01", "SECCION": "3108601001", "V1_H": 82.53, "V1_M": 87.34, "V2_H": 82.38507422000001, "V2_M": 87.19104055, "V3_H": 82.74254947, "V3_M": 87.61225513 }, "geometry": { "type": "Polygon", "coordinates": [ [ [ -1.5908583, 42.8135427 ], [ -1.5907068, 42.8135034 ], [ -1.5880208, 42.8130005 ], [ -1.5854237, 42.8124132 ], [ -1.583753, 42.8119013 ], [ -1.5849178, 42.809161 ], [ -1.584813, 42.8086685 ], [ -1.5844535, 42.8076194 ], [ -1.5842692, 42.8070815 ], [ -1.585911, 42.8063117 ], [ -1.5866626, 42.8051464 ], [ -1.5898069, 42.80589 ], [ -1.5906685, 42.8062636 ], [ -1.5917359, 42.8065117 ], [ -1.5922746, 42.8064927 ], [ -1.5926357, 42.80648 ], [ -1.5932736, 42.8064879 ], [ -1.5941749, 42.8063922 ], [ -1.5950109, 42.806616 ], [ -1.595758, 42.8068951 ], [ -1.596075, 42.8070135 ], [ -1.5982385, 42.8075312 ], [ -1.599132, 42.807777 ], [ -1.5997984, 42.8078065 ], [ -1.6008664, 42.8080331 ], [ -1.6014947, 42.8084679 ], [ -1.6026106, 42.8091436 ], [ -1.6035211, 42.8099235 ], [ -1.6040886, 42.8104856 ], [ -1.6043907, 42.8112368 ], [ -1.6052515, 42.811653 ], [ -1.6068758, 42.8123545 ], [ -1.6071071, 42.8122357 ], [ -1.6074957, 42.8120181 ], [ -1.6077849, 42.8118393 ], [ -1.6080728, 42.8116469 ], [ -1.6083324, 42.811457 ], [ -1.6083126, 42.8114191 ], [ -1.6083068, 42.8114078 ], [ -1.6081419, 42.81109 ], [ -1.6080906, 42.8109909 ], [ -1.6078505, 42.8104477 ], [ -1.607558, 42.8096871 ], [ -1.6077267, 42.8094618 ], [ -1.607934, 42.8092178 ], [ -1.6079562, 42.809182 ], [ -1.6079743, 42.8091232 ], [ -1.6079491, 42.8089551 ], [ -1.607908, 42.8086749 ], [ -1.6078945, 42.8085937 ], [ -1.6078702, 42.8085501 ], [ -1.6077517, 42.8084169 ], [ -1.6076511, 42.8083026 ], [ -1.6074627, 42.8081128 ], [ -1.6073745, 42.8079908 ], [ -1.6071929, 42.8077403 ], [ -1.6070227, 42.8075531 ], [ -1.6068474, 42.8073956 ], [ -1.6065986, 42.8071399 ], [ -1.6062709, 42.8068247 ], [ -1.6060019, 42.8065512 ], [ -1.6056175, 42.8061413 ], [ -1.605215, 42.8057165 ], [ -1.6050719, 42.8055538 ], [ -1.605209, 42.805475 ], [ -1.6056969, 42.8051934 ], [ -1.6060486, 42.8049855 ], [ -1.6061973, 42.8048983 ], [ -1.6062368, 42.8048752 ], [ -1.6070376, 42.8044088 ], [ -1.6077284, 42.8040086 ], [ -1.6081818, 42.8037985 ], [ -1.608623, 42.8035878 ], [ -1.6091205, 42.8033535 ], [ -1.6091592, 42.8033332 ], [ -1.6092071, 42.8033073 ], [ -1.6094856, 42.8031587 ], [ -1.6098543, 42.802942 ], [ -1.6101032, 42.8028871 ], [ -1.6101014, 42.8027964 ], [ -1.610107, 42.8026822 ], [ -1.6101142, 42.8025298 ], [ -1.6101072, 42.8022973 ], [ -1.610087, 42.8021096 ], [ -1.6100522, 42.8020236 ], [ -1.6099209, 42.8018132 ], [ -1.6097709, 42.8015137 ], [ -1.6096727, 42.8012919 ], [ -1.6095955, 42.8010894 ], [ -1.6094989, 42.8008974 ], [ -1.6094506, 42.8008023 ], [ -1.6093858, 42.8006225 ], [ -1.6093211, 42.8003387 ], [ -1.6092502, 42.8000243 ], [ -1.6092143, 42.7997526 ], [ -1.609195, 42.799588 ], [ -1.6091959, 42.7994816 ], [ -1.6092344, 42.7993341 ], [ -1.6093071, 42.7991256 ], [ -1.6093966, 42.7989499 ], [ -1.6095651, 42.7986261 ], [ -1.6097371, 42.7983164 ], [ -1.6100275, 42.7977048 ], [ -1.6100724, 42.7976119 ], [ -1.6101813, 42.797154 ], [ -1.6102706, 42.7968517 ], [ -1.6102889, 42.7967517 ], [ -1.6102671, 42.7967025 ], [ -1.6102283, 42.7966592 ], [ -1.6101924, 42.7966228 ], [ -1.6101286, 42.7965713 ], [ -1.6099991, 42.7964178 ], [ -1.6098643, 42.7962248 ], [ -1.6096806, 42.7959631 ], [ -1.609443, 42.7955888 ], [ -1.6090326, 42.7949748 ], [ -1.6085577, 42.7942705 ], [ -1.608136, 42.7936165 ], [ -1.6079695, 42.7935813 ], [ -1.6077497, 42.7935308 ], [ -1.6075536, 42.7934861 ], [ -1.6073927, 42.7934363 ], [ -1.6070171, 42.7932837 ], [ -1.6068249, 42.7931942 ], [ -1.6066312, 42.7931096 ], [ -1.6064214, 42.7929906 ], [ -1.606304, 42.7929109 ], [ -1.6061631, 42.7928203 ], [ -1.6058632, 42.7926309 ], [ -1.6056896, 42.7925021 ], [ -1.6054738, 42.7923785 ], [ -1.6054254, 42.792356 ], [ -1.6053793, 42.7923346 ], [ -1.6053551, 42.792323 ], [ -1.6052398, 42.7922839 ], [ -1.6049648, 42.7922107 ], [ -1.6047762, 42.7921336 ], [ -1.6045423, 42.7920345 ], [ -1.6042752, 42.7919192 ], [ -1.6041742, 42.7918544 ], [ -1.6040935, 42.7918084 ], [ -1.604026, 42.7917513 ], [ -1.6039886, 42.7916833 ], [ -1.6038881, 42.7913258 ], [ -1.6038338, 42.7911586 ], [ -1.6037909, 42.7909914 ], [ -1.6037648, 42.7908966 ], [ -1.6037654, 42.7908346 ], [ -1.6037846, 42.7907634 ], [ -1.6038192, 42.7907228 ], [ -1.603863, 42.7906771 ], [ -1.6038912, 42.7906105 ], [ -1.6039367, 42.7904574 ], [ -1.6039984, 42.7902628 ], [ -1.6040215, 42.7900853 ], [ -1.604036, 42.7899847 ], [ -1.6040613, 42.7898764 ], [ -1.6041464, 42.7896613 ], [ -1.6041753, 42.7895665 ], [ -1.6041669, 42.7893982 ], [ -1.604171, 42.7891804 ], [ -1.6038595, 42.7891029 ], [ -1.6032511, 42.7890059 ], [ -1.6028259, 42.7889169 ], [ -1.6026859, 42.788891 ], [ -1.6025808, 42.7888402 ], [ -1.6025518, 42.7887717 ], [ -1.6024836, 42.7884383 ], [ -1.6024319, 42.788056 ], [ -1.6024032, 42.787835 ], [ -1.6024199, 42.787708 ], [ -1.6024393, 42.7875558 ], [ -1.6024744, 42.7874228 ], [ -1.6025632, 42.7872826 ], [ -1.6026507, 42.787197 ], [ -1.6027153, 42.7871123 ], [ -1.6027745, 42.7870257 ], [ -1.602881, 42.7869466 ], [ -1.6029834, 42.7868774 ], [ -1.6030138, 42.7868193 ], [ -1.6030308, 42.7867722 ], [ -1.603007, 42.7866081 ], [ -1.6029402, 42.7862865 ], [ -1.6028382, 42.7862014 ], [ -1.6026309, 42.7860373 ], [ -1.6025027, 42.7859305 ], [ -1.6023935, 42.7858267 ], [ -1.6022636, 42.7856546 ], [ -1.602157, 42.7855036 ], [ -1.602056, 42.7853775 ], [ -1.6019479, 42.7852225 ], [ -1.6018473, 42.7851064 ], [ -1.6017397, 42.7849667 ], [ -1.6016129, 42.7848267 ], [ -1.6015093, 42.7847483 ], [ -1.6013434, 42.7846472 ], [ -1.6010262, 42.7845178 ], [ -1.6006244, 42.784375 ], [ -1.6002139, 42.784249 ], [ -1.5998262, 42.7841271 ], [ -1.5996927, 42.7840811 ], [ -1.5995053, 42.7839904 ], [ -1.5993534, 42.7839142 ], [ -1.5989055, 42.7837523 ], [ -1.598607, 42.7836372 ], [ -1.5981758, 42.7834827 ], [ -1.5977914, 42.7833486 ], [ -1.5974426, 42.7831974 ], [ -1.5972111, 42.7830944 ], [ -1.5970815, 42.7832172 ], [ -1.5969362, 42.7833224 ], [ -1.5968094, 42.783421 ], [ -1.5966953, 42.7835361 ], [ -1.5965176, 42.7836549 ], [ -1.596333, 42.7837438 ], [ -1.5961462, 42.7838271 ], [ -1.5958298, 42.7839301 ], [ -1.5955924, 42.7840206 ], [ -1.5954391, 42.7840773 ], [ -1.5952871, 42.7841064 ], [ -1.5950621, 42.7841233 ], [ -1.5949095, 42.7841136 ], [ -1.5947983, 42.7840953 ], [ -1.5946484, 42.7840698 ], [ -1.594435, 42.7840132 ], [ -1.5943818, 42.783999 ], [ -1.5942459, 42.7839596 ], [ -1.5940235, 42.7838961 ], [ -1.5939491, 42.783875 ], [ -1.5938518, 42.783849 ], [ -1.5937326, 42.7838171 ], [ -1.5936727, 42.7837984 ], [ -1.5935384, 42.7837551 ], [ -1.5934882, 42.7837421 ], [ -1.5931396, 42.7836534 ], [ -1.5926583, 42.7835158 ], [ -1.5924299, 42.7834454 ], [ -1.5923956, 42.7834405 ], [ -1.5922692, 42.7834221 ], [ -1.5921669, 42.7834135 ], [ -1.5919862, 42.7833983 ], [ -1.5916634, 42.7833803 ], [ -1.5908507, 42.7833359 ], [ -1.5907942, 42.7833319 ], [ -1.590679, 42.7833242 ], [ -1.5905875, 42.7833169 ], [ -1.5903541, 42.7832971 ], [ -1.5902578, 42.7832994 ], [ -1.5900995, 42.7833036 ], [ -1.589764, 42.7833085 ], [ -1.5894875, 42.7833028 ], [ -1.5891746, 42.7832843 ], [ -1.5889772, 42.7832329 ], [ -1.5886691, 42.783139 ], [ -1.588415, 42.7830571 ], [ -1.5882098, 42.7830056 ], [ -1.5879235, 42.78293 ], [ -1.5877104, 42.7828931 ], [ -1.5875871, 42.7828713 ], [ -1.5874037, 42.7828381 ], [ -1.5870255, 42.7828019 ], [ -1.5866789, 42.7827588 ], [ -1.5865342, 42.7827367 ], [ -1.5862311, 42.7826902 ], [ -1.5858595, 42.7826698 ], [ -1.5854382, 42.7826478 ], [ -1.5851587, 42.7826088 ], [ -1.5846829, 42.7825636 ], [ -1.5842487, 42.782539 ], [ -1.5837235, 42.7824847 ], [ -1.583431, 42.7824771 ], [ -1.5832617, 42.782466 ], [ -1.5830519, 42.7824522 ], [ -1.5829138, 42.7824437 ], [ -1.5827113, 42.7824108 ], [ -1.5822794, 42.7823486 ], [ -1.5818468, 42.7822555 ], [ -1.5815647, 42.7821946 ], [ -1.5813078, 42.7821373 ], [ -1.5809266, 42.7820335 ], [ -1.5804878, 42.7818756 ], [ -1.5802494, 42.781809 ], [ -1.580109, 42.7817696 ], [ -1.5797198, 42.7816775 ], [ -1.5793437, 42.7815884 ], [ -1.579051, 42.7814919 ], [ -1.578671, 42.7814028 ], [ -1.5785032, 42.7813551 ], [ -1.5782527, 42.7812845 ], [ -1.5777075, 42.7811342 ], [ -1.5771147, 42.7809624 ], [ -1.5764861, 42.7808206 ], [ -1.5761547, 42.7807462 ], [ -1.5755696, 42.7806055 ], [ -1.5750836, 42.7805055 ], [ -1.5746282, 42.7804086 ], [ -1.5742667, 42.7803152 ], [ -1.5738625, 42.7802145 ], [ -1.5733959, 42.7801051 ], [ -1.5728183, 42.7799701 ], [ -1.5723797, 42.7798734 ], [ -1.5720216, 42.7797958 ], [ -1.5719464, 42.7797786 ], [ -1.5719061, 42.7797696 ], [ -1.5710727, 42.780255 ], [ -1.5706315, 42.7805039 ], [ -1.5704685, 42.7805824 ], [ -1.570315, 42.7807443 ], [ -1.5701007, 42.780992 ], [ -1.5699592, 42.7811304 ], [ -1.5698428, 42.7812404 ], [ -1.5697717, 42.781275 ], [ -1.5694273, 42.781337 ], [ -1.5689332, 42.781421 ], [ -1.5685468, 42.7814792 ], [ -1.5685336, 42.7819534 ], [ -1.5684475, 42.7824071 ], [ -1.5684109, 42.7827652 ], [ -1.5682648, 42.7837354 ], [ -1.568109, 42.7848872 ], [ -1.5679917, 42.7858296 ], [ -1.5679412, 42.7860344 ], [ -1.5677794, 42.7863875 ], [ -1.5676055, 42.7868716 ], [ -1.567248, 42.7877249 ], [ -1.566592, 42.7876097 ], [ -1.5661085, 42.7875339 ], [ -1.5654616, 42.7874216 ], [ -1.5648898, 42.7873306 ], [ -1.5642467, 42.7872207 ], [ -1.5637879, 42.7871333 ], [ -1.5634139, 42.7870802 ], [ -1.5631454, 42.7870307 ], [ -1.5629537, 42.7869917 ], [ -1.5628219, 42.7869759 ], [ -1.5625036, 42.7868909 ], [ -1.5619918, 42.7867882 ], [ -1.5617735, 42.787041 ], [ -1.5615478, 42.7873162 ], [ -1.5611321, 42.7878102 ], [ -1.5605082, 42.788614 ], [ -1.5604628, 42.7887254 ], [ -1.5604537, 42.7889864 ], [ -1.5603916, 42.7897224 ], [ -1.5603762, 42.7899586 ], [ -1.5603351, 42.790576 ], [ -1.5602941, 42.7914197 ], [ -1.5602839, 42.7915305 ], [ -1.5602505, 42.791619 ], [ -1.5601983, 42.7916926 ], [ -1.5598239, 42.792347 ], [ -1.5596825, 42.7925456 ], [ -1.5595873, 42.7926339 ], [ -1.5592749, 42.7928551 ], [ -1.5589975, 42.7930846 ], [ -1.5587521, 42.7932537 ], [ -1.5585033, 42.7934363 ], [ -1.5581953, 42.7936654 ], [ -1.5578945, 42.7938857 ], [ -1.5578515, 42.7939268 ], [ -1.557329, 42.7939821 ], [ -1.5567592, 42.7940351 ], [ -1.556104, 42.794113 ], [ -1.5557154, 42.7941587 ], [ -1.5555451, 42.7941875 ], [ -1.5552266, 42.794179 ], [ -1.5547484, 42.7942033 ], [ -1.5542504, 42.7942229 ], [ -1.5537826, 42.7942919 ], [ -1.5531363, 42.7943833 ], [ -1.5527852, 42.7944616 ], [ -1.5522851, 42.7945375 ], [ -1.5519774, 42.7945926 ], [ -1.5515587, 42.7946549 ], [ -1.5510925, 42.7947205 ], [ -1.5509135, 42.7947593 ], [ -1.5506028, 42.7948111 ], [ -1.5503514, 42.7948405 ], [ -1.5501621, 42.7948961 ], [ -1.5500158, 42.7949455 ], [ -1.5498214, 42.7950539 ], [ -1.5496566, 42.7951413 ], [ -1.5494789, 42.7952899 ], [ -1.5493736, 42.7954135 ], [ -1.5492032, 42.7956381 ], [ -1.5490611, 42.7958328 ], [ -1.5488388, 42.7960883 ], [ -1.5487574, 42.7961706 ], [ -1.5486411, 42.7962096 ], [ -1.5484249, 42.7962378 ], [ -1.5481425, 42.7962877 ], [ -1.5477709, 42.7963955 ], [ -1.5474851, 42.7964887 ], [ -1.5472165, 42.7965731 ], [ -1.5469237, 42.796705 ], [ -1.5465853, 42.7968268 ], [ -1.5462148, 42.7969853 ], [ -1.5459415, 42.7971006 ], [ -1.5457969, 42.797204 ], [ -1.5456647, 42.7973357 ], [ -1.5455042, 42.7974671 ], [ -1.5454251, 42.7975162 ], [ -1.5451153, 42.7976563 ], [ -1.5448537, 42.7977942 ], [ -1.5445491, 42.7979125 ], [ -1.5442944, 42.7980494 ], [ -1.5442302, 42.7980823 ], [ -1.5440692, 42.7981371 ], [ -1.5438543, 42.7982087 ], [ -1.5436088, 42.7983423 ], [ -1.5433907, 42.7984859 ], [ -1.5430754, 42.7986681 ], [ -1.542823, 42.7988394 ], [ -1.5424462, 42.7991295 ], [ -1.5421273, 42.7993681 ], [ -1.5419156, 42.7995291 ], [ -1.5417245, 42.799691 ], [ -1.5415068, 42.7997856 ], [ -1.5412063, 42.7999512 ], [ -1.5409792, 42.8000856 ], [ -1.5406508, 42.8002689 ], [ -1.5403456, 42.8005065 ], [ -1.5402355, 42.8005748 ], [ -1.5399681, 42.8007335 ], [ -1.5397513, 42.8008844 ], [ -1.5396053, 42.8009833 ], [ -1.5392909, 42.8011864 ], [ -1.538995, 42.8014195 ], [ -1.5386946, 42.8016465 ], [ -1.5385674, 42.8017585 ], [ -1.5383476, 42.8019043 ], [ -1.5380455, 42.8021065 ], [ -1.5379539, 42.8021689 ], [ -1.5378557, 42.8022492 ], [ -1.5377079, 42.8020667 ], [ -1.537553, 42.8018925 ], [ -1.5373252, 42.801638 ], [ -1.5371489, 42.8014286 ], [ -1.5369231, 42.8011533 ], [ -1.5366805, 42.8009414 ], [ -1.5363974, 42.8006603 ], [ -1.5360657, 42.8003701 ], [ -1.5356416, 42.8000112 ], [ -1.5353789, 42.7997422 ], [ -1.5351541, 42.7995525 ], [ -1.534913, 42.7993395 ], [ -1.5348105, 42.7992154 ], [ -1.5346928, 42.799053 ], [ -1.5345913, 42.7988513 ], [ -1.5344788, 42.7985994 ], [ -1.5343475, 42.798367 ], [ -1.5342738, 42.7982501 ], [ -1.5341339, 42.798124 ], [ -1.5339223, 42.7979574 ], [ -1.5336508, 42.7977395 ], [ -1.533388, 42.7975105 ], [ -1.5330443, 42.7972398 ], [ -1.5326959, 42.7969793 ], [ -1.5324724, 42.7968611 ], [ -1.5321196, 42.7966556 ], [ -1.5318617, 42.7965431 ], [ -1.5316805, 42.7964811 ], [ -1.5315657, 42.7964577 ], [ -1.5313874, 42.7964334 ], [ -1.5312946, 42.7964137 ], [ -1.5311922, 42.7963825 ], [ -1.5310729, 42.7963231 ], [ -1.5309223, 42.7962254 ], [ -1.5308451, 42.7961614 ], [ -1.5307232, 42.795955 ], [ -1.5306913, 42.7957514 ], [ -1.5306392, 42.7955931 ], [ -1.530568, 42.7954054 ], [ -1.5305219, 42.7953231 ], [ -1.5303513, 42.7951684 ], [ -1.5301848, 42.7949355 ], [ -1.5299761, 42.7946835 ], [ -1.529571, 42.7946209 ], [ -1.5293742, 42.7946043 ], [ -1.5288229, 42.794519 ], [ -1.5284677, 42.7944801 ], [ -1.5281187, 42.7944362 ], [ -1.5277202, 42.7943562 ], [ -1.527247, 42.7942629 ], [ -1.5268605, 42.7941943 ], [ -1.5264258, 42.7940908 ], [ -1.5261076, 42.7940349 ], [ -1.5258828, 42.7940095 ], [ -1.5257353, 42.7940391 ], [ -1.5255128, 42.7941105 ], [ -1.5252783, 42.7942026 ], [ -1.5249522, 42.7943554 ], [ -1.5246816, 42.7944842 ], [ -1.5245415, 42.7945584 ], [ -1.524248, 42.7946238 ], [ -1.5239291, 42.7947289 ], [ -1.5236325, 42.7947988 ], [ -1.5233804, 42.7948912 ], [ -1.5232098, 42.7949616 ], [ -1.5230106, 42.7950767 ], [ -1.5228378, 42.7952129 ], [ -1.5227204, 42.7953256 ], [ -1.5221416, 42.7956908 ], [ -1.5220437, 42.7957582 ], [ -1.5229032, 42.7963141 ], [ -1.5234923, 42.796705 ], [ -1.523929, 42.7969813 ], [ -1.5242753, 42.7972025 ], [ -1.5243601, 42.79727 ], [ -1.5233654, 42.7984396 ], [ -1.522597, 42.7993173 ], [ -1.5224612, 42.7994664 ], [ -1.5223377, 42.7995858 ], [ -1.5220499, 42.7997267 ], [ -1.5217819, 42.7998454 ], [ -1.5216556, 42.7999164 ], [ -1.521344, 42.8001965 ], [ -1.521092, 42.8004117 ], [ -1.5208441, 42.8006454 ], [ -1.5201959, 42.8011953 ], [ -1.5196789, 42.8016563 ], [ -1.5193106, 42.801973 ], [ -1.5189438, 42.8022896 ], [ -1.5185727, 42.8026253 ], [ -1.5180661, 42.8030645 ], [ -1.5177388, 42.8033608 ], [ -1.5173516, 42.8037008 ], [ -1.5168114, 42.8041367 ], [ -1.5160902, 42.8046654 ], [ -1.515485, 42.8051044 ], [ -1.5151933, 42.8053173 ], [ -1.5145868, 42.8055222 ], [ -1.5138183, 42.805792 ], [ -1.5131656, 42.8060097 ], [ -1.5127948, 42.8062058 ], [ -1.5119094, 42.8066632 ], [ -1.5110433, 42.8070774 ], [ -1.510584, 42.8070089 ], [ -1.509997, 42.8069152 ], [ -1.5094931, 42.8068225 ], [ -1.509094, 42.8067678 ], [ -1.5084376, 42.8066624 ], [ -1.5080752, 42.8066031 ], [ -1.5079187, 42.8077357 ], [ -1.5076977, 42.8089176 ], [ -1.5079742, 42.8090208 ], [ -1.5090007, 42.8094675 ], [ -1.5084732, 42.8113759 ], [ -1.5085993, 42.8113782 ], [ -1.5087238, 42.8114107 ], [ -1.5091508, 42.8115204 ], [ -1.5099465, 42.8117165 ], [ -1.5104745, 42.8118517 ], [ -1.5106737, 42.8118655 ], [ -1.5119511, 42.8118676 ], [ -1.5119646, 42.8120034 ], [ -1.5119605, 42.8122065 ], [ -1.5119721, 42.8125202 ], [ -1.5120129, 42.8126974 ], [ -1.5120227, 42.8128304 ], [ -1.5119794, 42.8129142 ], [ -1.5119005, 42.8130505 ], [ -1.5116698, 42.8134252 ], [ -1.5114787, 42.8138386 ], [ -1.5112516, 42.8143163 ], [ -1.5111463, 42.8145648 ], [ -1.5110733, 42.8146736 ], [ -1.5109337, 42.8148204 ], [ -1.5107062, 42.8150004 ], [ -1.5105488, 42.8151193 ], [ -1.510352, 42.815263 ], [ -1.5101997, 42.8153646 ], [ -1.5099887, 42.8154593 ], [ -1.5097719, 42.8155752 ], [ -1.5095793, 42.8157331 ], [ -1.509396, 42.8159164 ], [ -1.5105758, 42.8168278 ], [ -1.510569, 42.8168277 ], [ -1.5103083, 42.8167613 ], [ -1.50987, 42.8166751 ], [ -1.5095604, 42.8166136 ], [ -1.5092423, 42.8165532 ], [ -1.5089764, 42.8164817 ], [ -1.5088097, 42.8164829 ], [ -1.5085659, 42.8165438 ], [ -1.5080863, 42.8166794 ], [ -1.5073595, 42.8168934 ], [ -1.5068117, 42.8170691 ], [ -1.5060289, 42.8172908 ], [ -1.5059991, 42.817385 ], [ -1.5059326, 42.8175727 ], [ -1.5058398, 42.8177448 ], [ -1.505772, 42.8179223 ], [ -1.5055937, 42.8183095 ], [ -1.505386, 42.8187755 ], [ -1.5052364, 42.8190798 ], [ -1.505159, 42.8192493 ], [ -1.505075, 42.8194008 ], [ -1.5047462, 42.8199131 ], [ -1.5043653, 42.8205188 ], [ -1.5041066, 42.8209448 ], [ -1.5038385, 42.8213128 ], [ -1.5036466, 42.8216919 ], [ -1.5035181, 42.8220104 ], [ -1.5033721, 42.8223873 ], [ -1.503241, 42.8227205 ], [ -1.503165, 42.8228889 ], [ -1.5031058, 42.8230001 ], [ -1.5029849, 42.8231618 ], [ -1.5028411, 42.8233861 ], [ -1.5028643, 42.8235018 ], [ -1.5028928, 42.8236834 ], [ -1.5029551, 42.8239206 ], [ -1.503012, 42.8242202 ], [ -1.5030525, 42.8244126 ], [ -1.5030586, 42.8245731 ], [ -1.5030483, 42.8246828 ], [ -1.5029537, 42.8248008 ], [ -1.5027115, 42.825141 ], [ -1.5024652, 42.8255869 ], [ -1.5023227, 42.8258501 ], [ -1.5022087, 42.8261069 ], [ -1.5020968, 42.8263075 ], [ -1.5019779, 42.8265469 ], [ -1.5018089, 42.8268638 ], [ -1.5016618, 42.8271928 ], [ -1.5015397, 42.8275925 ], [ -1.5013862, 42.8279647 ], [ -1.5012845, 42.8283118 ], [ -1.5011731, 42.8287409 ], [ -1.5010893, 42.8289835 ], [ -1.5010419, 42.8291416 ], [ -1.500955, 42.8293504 ], [ -1.500823, 42.8295929 ], [ -1.5007021, 42.8298784 ], [ -1.5005866, 42.8301346 ], [ -1.500413, 42.830452 ], [ -1.5002762, 42.8306984 ], [ -1.5001551, 42.8308978 ], [ -1.500089, 42.8310078 ], [ -1.4999875, 42.8310937 ], [ -1.4997352, 42.8312519 ], [ -1.4993576, 42.8314653 ], [ -1.4989929, 42.8316845 ], [ -1.4984714, 42.8320947 ], [ -1.4979977, 42.8324859 ], [ -1.4977993, 42.8326577 ], [ -1.4970138, 42.8333549 ], [ -1.4966464, 42.833654 ], [ -1.4966956, 42.8338657 ], [ -1.4966336, 42.833897 ], [ -1.4964859, 42.8339682 ], [ -1.4962644, 42.8341127 ], [ -1.4959207, 42.8342855 ], [ -1.4956382, 42.8344534 ], [ -1.4952122, 42.8346775 ], [ -1.4952442, 42.8347747 ], [ -1.4953299, 42.8349311 ], [ -1.4954227, 42.8351429 ], [ -1.4954972, 42.8352846 ], [ -1.4955917, 42.8354243 ], [ -1.4957705, 42.8356506 ], [ -1.495977, 42.83587 ], [ -1.496092, 42.836015 ], [ -1.4961819, 42.8361243 ], [ -1.4963255, 42.8363203 ], [ -1.4966202, 42.8367176 ], [ -1.4964873, 42.8368043 ], [ -1.4963281, 42.8369372 ], [ -1.4961169, 42.8370999 ], [ -1.4958119, 42.8373453 ], [ -1.4954735, 42.8375833 ], [ -1.4950806, 42.8378568 ], [ -1.4945161, 42.8382394 ], [ -1.494267, 42.8384179 ], [ -1.4940807, 42.8385297 ], [ -1.4939903, 42.8385994 ], [ -1.4937718, 42.8388104 ], [ -1.4934984, 42.8390471 ], [ -1.4932843, 42.8392362 ], [ -1.4931604, 42.8393618 ], [ -1.4929536, 42.8395589 ], [ -1.4925868, 42.8399244 ], [ -1.4923432, 42.8401615 ], [ -1.492115, 42.8403932 ], [ -1.492084, 42.8404738 ], [ -1.4920801, 42.8405717 ], [ -1.492083, 42.8406708 ], [ -1.4921168, 42.8410422 ], [ -1.4921463, 42.8413386 ], [ -1.4921664, 42.8416411 ], [ -1.4922033, 42.8419196 ], [ -1.4922354, 42.8422009 ], [ -1.4922523, 42.8423846 ], [ -1.492274, 42.842565 ], [ -1.4923465, 42.8427916 ], [ -1.4924229, 42.8431708 ], [ -1.4924844, 42.8433771 ], [ -1.4925079, 42.8434505 ], [ -1.4924927, 42.8436023 ], [ -1.4924725, 42.8438637 ], [ -1.4924649, 42.8440207 ], [ -1.4924552, 42.8442316 ], [ -1.4924313, 42.8444902 ], [ -1.4924095, 42.8446632 ], [ -1.4923706, 42.8447832 ], [ -1.4922597, 42.8450355 ], [ -1.4922095, 42.8452093 ], [ -1.4921476, 42.8453644 ], [ -1.492031, 42.8455982 ], [ -1.491871, 42.8458893 ], [ -1.4918713, 42.8459709 ], [ -1.4918955, 42.8460433 ], [ -1.4919684, 42.8464427 ], [ -1.4920323, 42.8468634 ], [ -1.4921435, 42.8474823 ], [ -1.4922415, 42.8474126 ], [ -1.4924519, 42.8472528 ], [ -1.4925545, 42.8471855 ], [ -1.4926559, 42.8471091 ], [ -1.4927461, 42.847045 ], [ -1.4927946, 42.847004 ], [ -1.4928196, 42.8469492 ], [ -1.4928638, 42.8468293 ], [ -1.4928961, 42.8467594 ], [ -1.4929494, 42.8467089 ], [ -1.4930183, 42.8466749 ], [ -1.4931094, 42.8466372 ], [ -1.4932139, 42.8466212 ], [ -1.4933137, 42.8466045 ], [ -1.4934235, 42.8465874 ], [ -1.4935718, 42.8465887 ], [ -1.4937178, 42.8465935 ], [ -1.4937752, 42.8465937 ], [ -1.4938107, 42.8465778 ], [ -1.4938682, 42.8465437 ], [ -1.4939622, 42.8464819 ], [ -1.4940494, 42.84642 ], [ -1.4941585, 42.846337 ], [ -1.4943093, 42.8462388 ], [ -1.494398, 42.8461747 ], [ -1.4944668, 42.8461154 ], [ -1.4945294, 42.8460583 ], [ -1.4946664, 42.8459244 ], [ -1.4948631, 42.845703 ], [ -1.4949864, 42.8455701 ], [ -1.4950391, 42.8455095 ], [ -1.4950669, 42.845498 ], [ -1.4951089, 42.8455019 ], [ -1.4951912, 42.8455463 ], [ -1.4952642, 42.8455946 ], [ -1.495332, 42.8456681 ], [ -1.4954032, 42.845794 ], [ -1.4954606, 42.8459484 ], [ -1.4955111, 42.8460413 ], [ -1.4956368, 42.8462484 ], [ -1.495757, 42.8464042 ], [ -1.4958022, 42.8464926 ], [ -1.4958626, 42.8465559 ], [ -1.4959108, 42.8465903 ], [ -1.4959631, 42.8466084 ], [ -1.4960748, 42.8466054 ], [ -1.4963366, 42.8465688 ], [ -1.4965468, 42.8465441 ], [ -1.4966538, 42.8465455 ], [ -1.4968278, 42.8465618 ], [ -1.4970575, 42.8465817 ], [ -1.497353, 42.8466058 ], [ -1.4976136, 42.8466431 ], [ -1.4977905, 42.8467625 ], [ -1.4980075, 42.8469302 ], [ -1.4981659, 42.8470521 ], [ -1.4980308, 42.8472935 ], [ -1.4980036, 42.847341 ], [ -1.4979612, 42.8474181 ], [ -1.497887, 42.8475758 ], [ -1.4978547, 42.8476435 ], [ -1.4978498, 42.8476924 ], [ -1.4978621, 42.8477522 ], [ -1.4978821, 42.8478082 ], [ -1.4979083, 42.8478621 ], [ -1.4979489, 42.8479228 ], [ -1.4979762, 42.8479642 ], [ -1.4979822, 42.8479705 ], [ -1.498091, 42.848089 ], [ -1.4982414, 42.8482288 ], [ -1.4981767, 42.8484025 ], [ -1.4981691, 42.8484621 ], [ -1.4981736, 42.8485009 ], [ -1.498201, 42.8485672 ], [ -1.4982787, 42.8486774 ], [ -1.4983184, 42.8487735 ], [ -1.4983338, 42.8488616 ], [ -1.4983378, 42.8489522 ], [ -1.4983485, 42.8490458 ], [ -1.4983813, 42.849111 ], [ -1.4984302, 42.8492416 ], [ -1.4984594, 42.8493607 ], [ -1.4984948, 42.8494501 ], [ -1.4985511, 42.8495235 ], [ -1.498616, 42.8495919 ], [ -1.4986855, 42.8496575 ], [ -1.4986804, 42.8497751 ], [ -1.4986674, 42.8499319 ], [ -1.4986606, 42.8501795 ], [ -1.4986626, 42.8504125 ], [ -1.498684, 42.8506345 ], [ -1.498688, 42.8507229 ], [ -1.498731, 42.8508428 ], [ -1.4987942, 42.8510424 ], [ -1.4988363, 42.8511673 ], [ -1.4989067, 42.8514485 ], [ -1.4989742, 42.8516959 ], [ -1.4990325, 42.8519398 ], [ -1.499016, 42.8521467 ], [ -1.4989905, 42.852412 ], [ -1.4989663, 42.8526503 ], [ -1.498935, 42.8527107 ], [ -1.4988707, 42.8528399 ], [ -1.4987786, 42.8530413 ], [ -1.4987019, 42.8532057 ], [ -1.4986981, 42.8532698 ], [ -1.4986959, 42.8534522 ], [ -1.4986815, 42.8537345 ], [ -1.4986569, 42.8539587 ], [ -1.4986501, 42.8542085 ], [ -1.49877, 42.8544685 ], [ -1.4988492, 42.8546693 ], [ -1.498969, 42.8549674 ], [ -1.4990518, 42.8551498 ], [ -1.4991117, 42.8552643 ], [ -1.4991719, 42.8553984 ], [ -1.4992452, 42.8555638 ], [ -1.499314, 42.8557234 ], [ -1.4993698, 42.8559183 ], [ -1.499416, 42.8561221 ], [ -1.4994701, 42.8563535 ], [ -1.4995256, 42.8565906 ], [ -1.4995868, 42.8568436 ], [ -1.4996245, 42.8570202 ], [ -1.4996832, 42.8571876 ], [ -1.499738, 42.8573549 ], [ -1.4997832, 42.857544 ], [ -1.4998441, 42.8576839 ], [ -1.4999382, 42.8579029 ], [ -1.5000696, 42.8581933 ], [ -1.5001912, 42.8584797 ], [ -1.5003244, 42.8587612 ], [ -1.5001509, 42.8590049 ], [ -1.5000639, 42.8591557 ], [ -1.5000368, 42.8592313 ], [ -1.4999781, 42.8593819 ], [ -1.4998858, 42.8596239 ], [ -1.4998438, 42.8597764 ], [ -1.4998198, 42.8598825 ], [ -1.4997775, 42.8600176 ], [ -1.4997606, 42.8601811 ], [ -1.4997396, 42.8603182 ], [ -1.4997379, 42.8604853 ], [ -1.4997132, 42.8606831 ], [ -1.4996973, 42.8608641 ], [ -1.4996769, 42.8610456 ], [ -1.4996591, 42.8612711 ], [ -1.4996513, 42.8614348 ], [ -1.4996502, 42.8615743 ], [ -1.4996634, 42.861664 ], [ -1.4996874, 42.8617454 ], [ -1.4997116, 42.8618515 ], [ -1.4997506, 42.8619775 ], [ -1.4997858, 42.8620742 ], [ -1.4998161, 42.8621483 ], [ -1.4998232, 42.8622334 ], [ -1.4998275, 42.8623111 ], [ -1.4998241, 42.8624805 ], [ -1.4998319, 42.8626956 ], [ -1.499843, 42.8630267 ], [ -1.499849, 42.8632221 ], [ -1.4998824, 42.8634228 ], [ -1.4999183, 42.8636118 ], [ -1.4999187, 42.8637559 ], [ -1.4999302, 42.8638793 ], [ -1.4999506, 42.8640181 ], [ -1.4999654, 42.8641348 ], [ -1.4999877, 42.8642234 ], [ -1.5000163, 42.8643341 ], [ -1.5000648, 42.86448 ], [ -1.5001132, 42.8645971 ], [ -1.5001821, 42.8647573 ], [ -1.5002669, 42.8649492 ], [ -1.5003403, 42.8651415 ], [ -1.5004072, 42.8653191 ], [ -1.5004632, 42.8654397 ], [ -1.5005369, 42.8656174 ], [ -1.5006035, 42.8657725 ], [ -1.5006419, 42.865863 ], [ -1.5007029, 42.8659652 ], [ -1.5007933, 42.8660845 ], [ -1.5008642, 42.866189 ], [ -1.5009676, 42.866312 ], [ -1.5011061, 42.8664696 ], [ -1.5012324, 42.8666266 ], [ -1.5013508, 42.866761 ], [ -1.5016251, 42.867028 ], [ -1.5017871, 42.8671962 ], [ -1.5019749, 42.867372 ], [ -1.5022034, 42.8675708 ], [ -1.5024399, 42.8677563 ], [ -1.5026065, 42.8678924 ], [ -1.5028403, 42.8680649 ], [ -1.5030413, 42.8682009 ], [ -1.5031367, 42.8682725 ], [ -1.5032036, 42.8683229 ], [ -1.5033172, 42.8683694 ], [ -1.5036195, 42.8683998 ], [ -1.5036912, 42.8684098 ], [ -1.5039446, 42.8684333 ], [ -1.504231, 42.8684562 ], [ -1.5047079, 42.8685098 ], [ -1.5049523, 42.8685287 ], [ -1.5051562, 42.8685443 ], [ -1.5053632, 42.8685594 ], [ -1.5055823, 42.8685808 ], [ -1.5057975, 42.8686033 ], [ -1.5059753, 42.8686242 ], [ -1.5061075, 42.8686299 ], [ -1.5062875, 42.8686232 ], [ -1.5064478, 42.8686096 ], [ -1.5066233, 42.8685972 ], [ -1.5068217, 42.8685571 ], [ -1.507088, 42.8685234 ], [ -1.5074343, 42.8684727 ], [ -1.5076836, 42.8684428 ], [ -1.5079478, 42.8684046 ], [ -1.5081279, 42.8683906 ], [ -1.508302, 42.8683749 ], [ -1.5084294, 42.8683591 ], [ -1.5089138, 42.8682613 ], [ -1.509403, 42.8681551 ], [ -1.5097457, 42.8680937 ], [ -1.5099796, 42.8680394 ], [ -1.5104766, 42.8679276 ], [ -1.511082, 42.8677931 ], [ -1.5113, 42.8677335 ], [ -1.5115418, 42.867668 ], [ -1.5117844, 42.8676047 ], [ -1.5120385, 42.8675062 ], [ -1.5122254, 42.8674315 ], [ -1.5125226, 42.867289 ], [ -1.5128399, 42.8671418 ], [ -1.5130021, 42.8670752 ], [ -1.5134882, 42.8668435 ], [ -1.5139137, 42.8666486 ], [ -1.5141467, 42.8666313 ], [ -1.514462, 42.8665961 ], [ -1.5147476, 42.8665576 ], [ -1.5150602, 42.8665386 ], [ -1.515401, 42.866368 ], [ -1.5156293, 42.8662589 ], [ -1.5159549, 42.8661129 ], [ -1.516301, 42.8659423 ], [ -1.516504, 42.8658369 ], [ -1.5167246, 42.8657317 ], [ -1.5170668, 42.8655645 ], [ -1.5174074, 42.8654 ], [ -1.5179704, 42.8651485 ], [ -1.5179798, 42.8651683 ], [ -1.5183396, 42.8651932 ], [ -1.5190525, 42.8652655 ], [ -1.5198036, 42.8653405 ], [ -1.5203182, 42.8653837 ], [ -1.5208086, 42.8654188 ], [ -1.5211622, 42.8654425 ], [ -1.5212028, 42.8654447 ], [ -1.5213097, 42.8654506 ], [ -1.5215435, 42.8654665 ], [ -1.5215755, 42.8654686 ], [ -1.5215801, 42.8654693 ], [ -1.5216053, 42.8654701 ], [ -1.5216344, 42.8654728 ], [ -1.5216921, 42.8654583 ], [ -1.5217897, 42.8654078 ], [ -1.5219453, 42.8653322 ], [ -1.522151, 42.8652397 ], [ -1.5225167, 42.8650812 ], [ -1.5229742, 42.8648873 ], [ -1.5234521, 42.8646773 ], [ -1.5238802, 42.8644994 ], [ -1.524338, 42.8642965 ], [ -1.5247399, 42.8641238 ], [ -1.5250693, 42.8639801 ], [ -1.5256247, 42.8639169 ], [ -1.5260492, 42.8638604 ], [ -1.5264572, 42.8638195 ], [ -1.5268646, 42.8637719 ], [ -1.5272567, 42.8637224 ], [ -1.5276625, 42.863678 ], [ -1.5280061, 42.8636419 ], [ -1.5282051, 42.8636704 ], [ -1.5285468, 42.8637181 ], [ -1.5288517, 42.863762 ], [ -1.5291123, 42.863807 ], [ -1.5293428, 42.8637672 ], [ -1.5298065, 42.8637011 ], [ -1.5301827, 42.863648 ], [ -1.5308488, 42.8635597 ], [ -1.5313334, 42.8634843 ], [ -1.5318362, 42.863412 ], [ -1.5322793, 42.863344 ], [ -1.5326885, 42.8632834 ], [ -1.5330463, 42.8632294 ], [ -1.5331238, 42.8632203 ], [ -1.5333201, 42.8631722 ], [ -1.5337226, 42.8630709 ], [ -1.5340558, 42.8629891 ], [ -1.5343282, 42.8629217 ], [ -1.5344335, 42.8629354 ], [ -1.5346652, 42.862971 ], [ -1.5351064, 42.8630465 ], [ -1.5354861, 42.8631025 ], [ -1.5358856, 42.8631639 ], [ -1.5362417, 42.8632135 ], [ -1.5364717, 42.8632559 ], [ -1.5367416, 42.8632965 ], [ -1.5370435, 42.8633425 ], [ -1.5370992, 42.8633494 ], [ -1.537372, 42.8630726 ], [ -1.5376243, 42.8628502 ], [ -1.5378331, 42.8626925 ], [ -1.5379908, 42.862592 ], [ -1.538132, 42.8625094 ], [ -1.5382613, 42.8624435 ], [ -1.5383426, 42.8624035 ], [ -1.5383613, 42.8623874 ], [ -1.5385482, 42.862056 ], [ -1.5387357, 42.8617275 ], [ -1.5388555, 42.8615174 ], [ -1.5389148, 42.8614348 ], [ -1.538962, 42.8613798 ], [ -1.5390291, 42.8613254 ], [ -1.5393727, 42.8610614 ], [ -1.5396831, 42.8608453 ], [ -1.5401157, 42.8605688 ], [ -1.5405921, 42.8602535 ], [ -1.5410201, 42.8599804 ], [ -1.5413723, 42.8597395 ], [ -1.5416881, 42.8597813 ], [ -1.5421294, 42.8598527 ], [ -1.5424863, 42.8598989 ], [ -1.542492, 42.8602418 ], [ -1.5424975, 42.8606594 ], [ -1.5426499, 42.860685 ], [ -1.5428144, 42.8607147 ], [ -1.5431163, 42.8607591 ], [ -1.5435557, 42.8608131 ], [ -1.543935, 42.8608533 ], [ -1.544296, 42.8608895 ], [ -1.5446893, 42.8609198 ], [ -1.5450064, 42.8609396 ], [ -1.5454171, 42.8609443 ], [ -1.5457715, 42.8609369 ], [ -1.5459549, 42.860946 ], [ -1.5463867, 42.8609295 ], [ -1.5469547, 42.8609176 ], [ -1.5474455, 42.8608997 ], [ -1.5480555, 42.8609232 ], [ -1.548607, 42.8609572 ], [ -1.549013, 42.8609691 ], [ -1.549078, 42.8605157 ], [ -1.549172, 42.8597982 ], [ -1.5492638, 42.8591155 ], [ -1.5493384, 42.8584783 ], [ -1.5494249, 42.8578569 ], [ -1.5494884, 42.8573692 ], [ -1.5495404, 42.8569426 ], [ -1.5496126, 42.8564426 ], [ -1.5496777, 42.8559837 ], [ -1.5497016, 42.85581 ], [ -1.549739, 42.8557503 ], [ -1.54986, 42.8555802 ], [ -1.5500071, 42.8553744 ], [ -1.5501343, 42.8552004 ], [ -1.550281, 42.855012 ], [ -1.5506178, 42.8545829 ], [ -1.5508978, 42.8541874 ], [ -1.5510512, 42.8539771 ], [ -1.5512327, 42.8537375 ], [ -1.5513829, 42.8535283 ], [ -1.551523, 42.8533308 ], [ -1.5517451, 42.8533843 ], [ -1.552128, 42.8534629 ], [ -1.5523601, 42.8535159 ], [ -1.5528709, 42.8535888 ], [ -1.5534487, 42.8536749 ], [ -1.5536132, 42.8537085 ], [ -1.5537999, 42.8537384 ], [ -1.553957, 42.8537584 ], [ -1.5541357, 42.8537714 ], [ -1.5542774, 42.8537653 ], [ -1.554526, 42.8537296 ], [ -1.5547427, 42.8536873 ], [ -1.5548875, 42.8536492 ], [ -1.5549623, 42.8536203 ], [ -1.5550669, 42.8535636 ], [ -1.5551012, 42.8535359 ], [ -1.5551398, 42.8534891 ], [ -1.5552028, 42.8534117 ], [ -1.5552107, 42.8533994 ], [ -1.555264, 42.8533168 ], [ -1.5552805, 42.8532962 ], [ -1.5553388, 42.8532221 ], [ -1.5554175, 42.8531285 ], [ -1.5554703, 42.8530301 ], [ -1.5554931, 42.8529364 ], [ -1.555553, 42.8526997 ], [ -1.5555576, 42.8526642 ], [ -1.5555663, 42.8525856 ], [ -1.555576, 42.8525007 ], [ -1.5556128, 42.8523329 ], [ -1.5556569, 42.8521821 ], [ -1.5556782, 42.8520551 ], [ -1.5556928, 42.8519518 ], [ -1.5557032, 42.8517346 ], [ -1.555687, 42.8514772 ], [ -1.5556806, 42.8512965 ], [ -1.5558146, 42.8512891 ], [ -1.5559863, 42.8512739 ], [ -1.5561457, 42.8512618 ], [ -1.5562981, 42.8512536 ], [ -1.5563916, 42.851248 ], [ -1.556486, 42.8512323 ], [ -1.5565799, 42.8512065 ], [ -1.5567028, 42.8511512 ], [ -1.5568857, 42.8510489 ], [ -1.5572163, 42.8508498 ], [ -1.5574009, 42.8507385 ], [ -1.5576055, 42.850593 ], [ -1.5579371, 42.8503468 ], [ -1.5581295, 42.8501955 ], [ -1.5581927, 42.8501417 ], [ -1.5583262, 42.850028 ], [ -1.5584941, 42.8498799 ], [ -1.5585285, 42.8498477 ], [ -1.5586427, 42.8497388 ], [ -1.5587334, 42.8496567 ], [ -1.5588106, 42.8495929 ], [ -1.5588582, 42.849553 ], [ -1.558921, 42.8495172 ], [ -1.5590116, 42.849466 ], [ -1.5592476, 42.849317 ], [ -1.5594547, 42.8491952 ], [ -1.5594702, 42.8491875 ], [ -1.5596452, 42.849098 ], [ -1.5597032, 42.8490678 ], [ -1.5598806, 42.8489698 ], [ -1.5599326, 42.8489407 ], [ -1.5601108, 42.8488421 ], [ -1.5602981, 42.84875 ], [ -1.5604255, 42.8486942 ], [ -1.5605392, 42.8486455 ], [ -1.5605762, 42.8486313 ], [ -1.5606264, 42.8486117 ], [ -1.5608178, 42.8485679 ], [ -1.5610065, 42.8485456 ], [ -1.5613112, 42.8485044 ], [ -1.5615744, 42.8484643 ], [ -1.56185, 42.8484222 ], [ -1.5620519, 42.8483882 ], [ -1.562194, 42.8483641 ], [ -1.5622986, 42.8483418 ], [ -1.5624025, 42.8483132 ], [ -1.5625082, 42.8482746 ], [ -1.5627717, 42.8481569 ], [ -1.562914, 42.8480934 ], [ -1.5631149, 42.8480059 ], [ -1.5632771, 42.8479348 ], [ -1.5633859, 42.847895 ], [ -1.5636073, 42.8478145 ], [ -1.5638065, 42.8477371 ], [ -1.5639469, 42.8476826 ], [ -1.5641692, 42.8475942 ], [ -1.5644108, 42.8475015 ], [ -1.5645467, 42.8474458 ], [ -1.5645529, 42.8474431 ], [ -1.5646216, 42.8474153 ], [ -1.5647526, 42.8473725 ], [ -1.5648661, 42.8473305 ], [ -1.564994, 42.8472871 ], [ -1.5651044, 42.8472451 ], [ -1.5653258, 42.8471635 ], [ -1.5654462, 42.8471161 ], [ -1.5655859, 42.8470627 ], [ -1.5656684, 42.8470322 ], [ -1.5657587, 42.8469996 ], [ -1.5658551, 42.8469642 ], [ -1.565923, 42.8469414 ], [ -1.5660263, 42.8469055 ], [ -1.5661447, 42.8468794 ], [ -1.5662333, 42.8468822 ], [ -1.5663534, 42.8468848 ], [ -1.566485, 42.8468814 ], [ -1.5667805, 42.8468368 ], [ -1.5672244, 42.8467618 ], [ -1.5676972, 42.8466901 ], [ -1.5680296, 42.8466385 ], [ -1.5685435, 42.8465751 ], [ -1.5689241, 42.8465557 ], [ -1.5691386, 42.8465432 ], [ -1.5693859, 42.8465289 ], [ -1.5695787, 42.8465262 ], [ -1.5698365, 42.8465272 ], [ -1.5701159, 42.8465808 ], [ -1.5702134, 42.8466011 ], [ -1.5703055, 42.8466203 ], [ -1.5706252, 42.8466884 ], [ -1.5708612, 42.8467342 ], [ -1.5711989, 42.8468177 ], [ -1.5714863, 42.8468917 ], [ -1.5718634, 42.8469915 ], [ -1.5719424, 42.8467814 ], [ -1.5720057, 42.8465937 ], [ -1.5720691, 42.8463952 ], [ -1.572131, 42.8461664 ], [ -1.5721807, 42.8459666 ], [ -1.5722287, 42.845746 ], [ -1.5722526, 42.8456051 ], [ -1.5722577, 42.8455162 ], [ -1.5722364, 42.8454428 ], [ -1.5722122, 42.8453648 ], [ -1.5722001, 42.845296 ], [ -1.5721878, 42.8452305 ], [ -1.5721871, 42.845226 ], [ -1.5721851, 42.845217 ], [ -1.5721891, 42.845105 ], [ -1.5722101, 42.8449258 ], [ -1.572233, 42.8447657 ], [ -1.572264, 42.844546 ], [ -1.5723185, 42.8442731 ], [ -1.5723796, 42.8440105 ], [ -1.5723906, 42.8439656 ], [ -1.5724696, 42.8436902 ], [ -1.5726279, 42.8432594 ], [ -1.5727466, 42.8428894 ], [ -1.5729021, 42.8424152 ], [ -1.5730395, 42.8420269 ], [ -1.5731565, 42.8416952 ], [ -1.573168, 42.8416621 ], [ -1.5732476, 42.8414267 ], [ -1.5732583, 42.8413959 ], [ -1.5733472, 42.8410863 ], [ -1.5733514, 42.8410701 ], [ -1.5734739, 42.8407356 ], [ -1.5735814, 42.840419 ], [ -1.5736765, 42.8401061 ], [ -1.5737616, 42.8398657 ], [ -1.5737763, 42.8398248 ], [ -1.5738803, 42.8395599 ], [ -1.5739483, 42.839398 ], [ -1.5740047, 42.8392389 ], [ -1.5740334, 42.8391233 ], [ -1.5740593, 42.8390274 ], [ -1.5740668, 42.8389977 ], [ -1.5740725, 42.8389516 ], [ -1.5740746, 42.8389269 ], [ -1.5740765, 42.8389134 ], [ -1.5740833, 42.8388482 ], [ -1.5740764, 42.8387141 ], [ -1.5740739, 42.8386606 ], [ -1.5740551, 42.838513 ], [ -1.574046, 42.8384408 ], [ -1.5740403, 42.8383259 ], [ -1.5740304, 42.8381243 ], [ -1.5740172, 42.8380014 ], [ -1.5739983, 42.8377907 ], [ -1.5739824, 42.8375513 ], [ -1.5739811, 42.8375417 ], [ -1.5739473, 42.8373156 ], [ -1.5739439, 42.8372964 ], [ -1.573941, 42.8371574 ], [ -1.5739388, 42.8370875 ], [ -1.5739389, 42.8369829 ], [ -1.5739395, 42.8367898 ], [ -1.5739408, 42.8367341 ], [ -1.573945, 42.8365828 ], [ -1.5739363, 42.8364651 ], [ -1.5739282, 42.8363518 ], [ -1.5739216, 42.8361401 ], [ -1.5739218, 42.8360979 ], [ -1.5739199, 42.8358829 ], [ -1.5739154, 42.8356791 ], [ -1.5739006, 42.8354904 ], [ -1.5739102, 42.8352755 ], [ -1.5739133, 42.8352401 ], [ -1.5739213, 42.8351552 ], [ -1.5739322, 42.8350512 ], [ -1.5739006, 42.8348932 ], [ -1.573887, 42.8348221 ], [ -1.5738345, 42.8346447 ], [ -1.5737496, 42.8343775 ], [ -1.5736551, 42.8341326 ], [ -1.5735781, 42.8339538 ], [ -1.5735316, 42.8338164 ], [ -1.5733937, 42.8335598 ], [ -1.5736587, 42.8333779 ], [ -1.5738897, 42.8332429 ], [ -1.5741275, 42.8330764 ], [ -1.5743131, 42.8329555 ], [ -1.5744325, 42.8328821 ], [ -1.5743044, 42.8327995 ], [ -1.5740625, 42.8326473 ], [ -1.5737302, 42.8324304 ], [ -1.5735203, 42.8322837 ], [ -1.5732723, 42.8321258 ], [ -1.5730652, 42.8319893 ], [ -1.5728466, 42.8318498 ], [ -1.5729391, 42.8317193 ], [ -1.5729746, 42.8316708 ], [ -1.5731155, 42.8314615 ], [ -1.5732609, 42.831259 ], [ -1.5733848, 42.831059 ], [ -1.5734129, 42.8310182 ], [ -1.5734663, 42.8309407 ], [ -1.5735595, 42.830813 ], [ -1.5736485, 42.8306993 ], [ -1.5737401, 42.8305749 ], [ -1.5737904, 42.8305148 ], [ -1.5738007, 42.8305008 ], [ -1.5738149, 42.8304796 ], [ -1.5739497, 42.8304059 ], [ -1.5741326, 42.8303311 ], [ -1.5744459, 42.83021 ], [ -1.574737, 42.8300853 ], [ -1.5749598, 42.829975 ], [ -1.5751812, 42.8298573 ], [ -1.5753701, 42.8297577 ], [ -1.5754474, 42.8297205 ], [ -1.5756554, 42.8296195 ], [ -1.5759118, 42.8295101 ], [ -1.5760534, 42.8294376 ], [ -1.573818, 42.8277888 ], [ -1.5722784, 42.8268426 ], [ -1.5714007, 42.8268052 ], [ -1.5696063, 42.8265346 ], [ -1.5674316, 42.8262074 ], [ -1.5661824, 42.8257347 ], [ -1.5648903, 42.8248433 ], [ -1.5642336, 42.8240775 ], [ -1.5651545, 42.8220849 ], [ -1.565847, 42.82031 ], [ -1.566186, 42.8194391 ], [ -1.565321, 42.8169732 ], [ -1.5646639, 42.8154757 ], [ -1.5639495, 42.8147317 ], [ -1.5667106, 42.8128893 ], [ -1.5689743, 42.8113786 ], [ -1.5696113, 42.8109535 ], [ -1.5709323, 42.8113488 ], [ -1.572029, 42.811493 ], [ -1.5748122, 42.8115671 ], [ -1.5767058, 42.8117601 ], [ -1.5776927, 42.81206 ], [ -1.578856, 42.8131714 ], [ -1.5809815, 42.815627 ], [ -1.5822072, 42.8159832 ], [ -1.582335, 42.8161795 ], [ -1.5829007, 42.8170482 ], [ -1.5834258, 42.8181258 ], [ -1.5842904, 42.8198998 ], [ -1.5848016, 42.8216211 ], [ -1.5847216, 42.8219272 ], [ -1.5846256, 42.8222943 ], [ -1.5844313, 42.8230359 ], [ -1.5841516, 42.8235007 ], [ -1.584188, 42.8235108 ], [ -1.584207, 42.8235155 ], [ -1.5842936, 42.8235391 ], [ -1.5843977, 42.823573 ], [ -1.5844758, 42.8235982 ], [ -1.5845305, 42.8236152 ], [ -1.5846223, 42.8236439 ], [ -1.5846854, 42.8236638 ], [ -1.5848152, 42.8237042 ], [ -1.5848425, 42.8237136 ], [ -1.5850693, 42.8237941 ], [ -1.5850799, 42.8237964 ], [ -1.5851217, 42.8238065 ], [ -1.58514, 42.8238107 ], [ -1.5851895, 42.8238169 ], [ -1.585246, 42.8238238 ], [ -1.5852872, 42.8238277 ], [ -1.585365, 42.8238349 ], [ -1.5855815, 42.8238589 ], [ -1.585933, 42.8239032 ], [ -1.5861931, 42.8239312 ], [ -1.586431, 42.8239623 ], [ -1.5864394, 42.8239635 ], [ -1.5866925, 42.8239965 ], [ -1.5870829, 42.8240401 ], [ -1.5873887, 42.8240777 ], [ -1.5877717, 42.8241151 ], [ -1.5882725, 42.8241792 ], [ -1.5887821, 42.8242305 ], [ -1.5890422, 42.8242585 ], [ -1.5894228, 42.8242998 ], [ -1.5896517, 42.8243206 ], [ -1.5898813, 42.8243437 ], [ -1.590053, 42.8243582 ], [ -1.5903361, 42.8243842 ], [ -1.5907279, 42.8244391 ], [ -1.5909523, 42.8244548 ], [ -1.5910977, 42.824482 ], [ -1.5913578, 42.8245099 ], [ -1.5916049, 42.8245366 ], [ -1.5916955, 42.8244522 ], [ -1.5918536, 42.8243269 ], [ -1.5920692, 42.824159 ], [ -1.5923162, 42.8239882 ], [ -1.5924476, 42.8238935 ], [ -1.592511, 42.8238285 ], [ -1.5925236, 42.8238151 ], [ -1.5926535, 42.8236844 ], [ -1.5927727, 42.8235508 ], [ -1.5927821, 42.8235408 ], [ -1.5929504, 42.8233679 ], [ -1.5930837, 42.8232232 ], [ -1.5930931, 42.8232131 ], [ -1.5931056, 42.8231992 ], [ -1.5931487, 42.8231519 ], [ -1.5932451, 42.8230512 ], [ -1.5933977, 42.8228978 ], [ -1.5935449, 42.8227442 ], [ -1.5936704, 42.8226051 ], [ -1.5937662, 42.8224931 ], [ -1.5938601, 42.8223637 ], [ -1.5940534, 42.8220335 ], [ -1.5942093, 42.8217675 ], [ -1.5942943, 42.821625 ], [ -1.5944488, 42.8213911 ], [ -1.5947331, 42.8210563 ], [ -1.5948803, 42.8208724 ], [ -1.5950123, 42.820713 ], [ -1.5951368, 42.8205486 ], [ -1.5951915, 42.8204969 ], [ -1.5953834, 42.8204007 ], [ -1.5957779, 42.8202289 ], [ -1.5960723, 42.8200906 ], [ -1.5963574, 42.8199602 ], [ -1.5965253, 42.8198716 ], [ -1.5966992, 42.8197916 ], [ -1.5968329, 42.8197589 ], [ -1.5969419, 42.8197417 ], [ -1.5970535, 42.8197442 ], [ -1.5972643, 42.8197501 ], [ -1.5974458, 42.8197726 ], [ -1.5976794, 42.8197856 ], [ -1.5978945, 42.8198085 ], [ -1.5980384, 42.8198384 ], [ -1.5983265, 42.8198785 ], [ -1.5986539, 42.8199371 ], [ -1.5990506, 42.820009 ], [ -1.5997168, 42.8201308 ], [ -1.6004141, 42.8202632 ], [ -1.6008808, 42.8203516 ], [ -1.6009806, 42.8202329 ], [ -1.6011475, 42.8200515 ], [ -1.6013458, 42.8198344 ], [ -1.6015886, 42.8195813 ], [ -1.6017296, 42.8194299 ], [ -1.6018792, 42.8192714 ], [ -1.6019946, 42.8191405 ], [ -1.6021949, 42.8189381 ], [ -1.6023283, 42.8187861 ], [ -1.6024376, 42.818685 ], [ -1.6025611, 42.8185528 ], [ -1.6015543, 42.8169647 ], [ -1.601229, 42.817037 ], [ -1.6008649, 42.8171088 ], [ -1.5995282, 42.8172544 ], [ -1.5985386, 42.8175092 ], [ -1.5980304, 42.8176555 ], [ -1.5977886, 42.8174714 ], [ -1.5976382, 42.8172504 ], [ -1.5974751, 42.8170196 ], [ -1.597196, 42.8167684 ], [ -1.5968362, 42.8166497 ], [ -1.5966835, 42.8165334 ], [ -1.596495, 42.8162833 ], [ -1.596333, 42.8160049 ], [ -1.5962732, 42.815785 ], [ -1.595814, 42.8154839 ], [ -1.5956117, 42.8152718 ], [ -1.5937752, 42.8151921 ], [ -1.5904898, 42.8145036 ], [ -1.5908583, 42.8135427 ] ] ] } },
{ "type": "Feature", "properties": { "CCAA": "15 - Comunidad Foral de Navarra", "PROVINCIA": "31 - Navarra", "MUNICIPIO": "31086 - Valle de Egüés/Eguesibar", "COD_MUNICIPIO": "31086", "DISTRITO": "01", "SECCION": "3108601006", "V1_H": 81.47, "V1_M": 86.75, "V2_H": 81.12898066, "V2_M": 86.51613614, "V3_H": 81.81510349, "V3_M": 87.06728245 }, "geometry": { "type": "Polygon", "coordinates": [ [ [ -1.604185, 42.8164012 ], [ -1.6052222, 42.8166222 ], [ -1.6052309, 42.8166397 ], [ -1.6053248, 42.816664 ], [ -1.6053107, 42.8167162 ], [ -1.6053921, 42.8168363 ], [ -1.6055595, 42.8168765 ], [ -1.6057166, 42.8167974 ], [ -1.6058008, 42.8167984 ], [ -1.6058355, 42.816694 ], [ -1.6064407, 42.8168396 ], [ -1.6068466, 42.8158929 ], [ -1.6068401, 42.815891 ], [ -1.6069332, 42.815659 ], [ -1.60759, 42.81581 ], [ -1.6075892, 42.8158481 ], [ -1.6080139, 42.8159581 ], [ -1.6082593, 42.8154083 ], [ -1.608271, 42.8154033 ], [ -1.6082725, 42.8153819 ], [ -1.6086549, 42.8145077 ], [ -1.6086646, 42.8145082 ], [ -1.6087144, 42.8143483 ], [ -1.6086139, 42.8143444 ], [ -1.6084504, 42.814339 ], [ -1.6084604, 42.8143014 ], [ -1.6084629, 42.8142896 ], [ -1.6081575, 42.8142735 ], [ -1.6077719, 42.8142536 ], [ -1.6073702, 42.8142341 ], [ -1.6072702, 42.8142301 ], [ -1.6070273, 42.8142209 ], [ -1.6066904, 42.8142112 ], [ -1.6064222, 42.8142051 ], [ -1.6062578, 42.8142043 ], [ -1.6060224, 42.8142025 ], [ -1.6057609, 42.8142033 ], [ -1.6055437, 42.8142063 ], [ -1.6054757, 42.814206 ], [ -1.6053649, 42.8142058 ], [ -1.6050496, 42.8141856 ], [ -1.6048181, 42.8141433 ], [ -1.6047045, 42.8140986 ], [ -1.6046087, 42.8140434 ], [ -1.6045202, 42.8139636 ], [ -1.604467, 42.8138841 ], [ -1.6044315, 42.8137621 ], [ -1.6044398, 42.81363 ], [ -1.6045126, 42.8134896 ], [ -1.6046489, 42.8133753 ], [ -1.604795, 42.8133045 ], [ -1.60509, 42.8131724 ], [ -1.605229, 42.8131105 ], [ -1.6056012, 42.812944 ], [ -1.6061179, 42.8127102 ], [ -1.5965133, 42.8104911 ], [ -1.5925957, 42.8095487 ], [ -1.5916805, 42.8116572 ], [ -1.5908616, 42.8135436 ], [ -1.5908583, 42.8135427 ], [ -1.5904898, 42.8145036 ], [ -1.5937752, 42.8151921 ], [ -1.5956117, 42.8152718 ], [ -1.595814, 42.8154839 ], [ -1.5962732, 42.815785 ], [ -1.596333, 42.8160049 ], [ -1.596495, 42.8162833 ], [ -1.5966835, 42.8165334 ], [ -1.5968362, 42.8166497 ], [ -1.597196, 42.8167684 ], [ -1.5974751, 42.8170196 ], [ -1.5976382, 42.8172504 ], [ -1.5977886, 42.8174714 ], [ -1.5980304, 42.8176555 ], [ -1.5985386, 42.8175092 ], [ -1.5995282, 42.8172544 ], [ -1.6008649, 42.8171088 ], [ -1.601229, 42.817037 ], [ -1.6015543, 42.8169647 ], [ -1.6025611, 42.8185528 ], [ -1.6025645, 42.8185492 ], [ -1.602577, 42.8185353 ], [ -1.6026968, 42.8184467 ], [ -1.6030087, 42.8182102 ], [ -1.6032802, 42.8179996 ], [ -1.6035305, 42.8178181 ], [ -1.6035589, 42.8177996 ], [ -1.6034467, 42.8169961 ], [ -1.6034638, 42.8162339 ], [ -1.6041856, 42.8163761 ], [ -1.604185, 42.8164012 ] ] ] } }
]
}
