{
"type": "FeatureCollection",
"name": "31093",
"features": [
{ "type": "Feature", "properties": { "CCAA": "15 - Comunidad Foral de Navarra", "PROVINCIA": "31 - Navarra", "MUNICIPIO": "31093 - Ezcároz/Ezkaroze", "COD_MUNICIPIO": "31093", "DISTRITO": "01", "SECCION": "3109301001", "V1_H": 82.27, "V1_M": 87.07, "V2_H": 81.979544, "V2_M": 86.90367115, "V3_H": 82.63571561000001, "V3_M": 87.32539334000001 }, "geometry": { "type": "Polygon", "coordinates": [ [ [ -1.06334, 42.9060911 ], [ -1.0634101, 42.906099 ], [ -1.0634589, 42.9061049 ], [ -1.0635478, 42.9061036 ], [ -1.0635885, 42.9060992 ], [ -1.0636193, 42.9060936 ], [ -1.0636486, 42.9060856 ], [ -1.0637684, 42.9060252 ], [ -1.0638355, 42.9059852 ], [ -1.0638448, 42.9059826 ], [ -1.0641175, 42.9059033 ], [ -1.0642027, 42.9058716 ], [ -1.0642507, 42.9058544 ], [ -1.0643569, 42.9058128 ], [ -1.0644656, 42.9057657 ], [ -1.0644687, 42.9057641 ], [ -1.0644842, 42.905757 ], [ -1.0647801, 42.9055966 ], [ -1.0652983, 42.9053082 ], [ -1.0654069, 42.9052605 ], [ -1.0654522, 42.9052331 ], [ -1.0654912, 42.905209 ], [ -1.0655406, 42.9051738 ], [ -1.0655861, 42.9051386 ], [ -1.0656205, 42.9051144 ], [ -1.0661372, 42.9048479 ], [ -1.0668788, 42.904489 ], [ -1.0671033, 42.9043589 ], [ -1.0671433, 42.9043303 ], [ -1.0671747, 42.9043055 ], [ -1.0672046, 42.9042778 ], [ -1.0674297, 42.9040312 ], [ -1.0675141, 42.9039539 ], [ -1.067544, 42.9039274 ], [ -1.0675699, 42.9039058 ], [ -1.0675935, 42.9038877 ], [ -1.0676201, 42.9038695 ], [ -1.0676949, 42.9038274 ], [ -1.0680105, 42.9036516 ], [ -1.0681054, 42.9036025 ], [ -1.0681644, 42.9035742 ], [ -1.0683527, 42.9035026 ], [ -1.0684355, 42.903473 ], [ -1.0685145, 42.9034457 ], [ -1.0686315, 42.9034009 ], [ -1.0686887, 42.9033816 ], [ -1.0688088, 42.9033364 ], [ -1.0688554, 42.9033169 ], [ -1.069146, 42.9031777 ], [ -1.0693887, 42.9030788 ], [ -1.069423, 42.903058 ], [ -1.0694589, 42.9030389 ], [ -1.0694963, 42.9030159 ], [ -1.0695414, 42.902993 ], [ -1.069686, 42.9029223 ], [ -1.0698243, 42.9028588 ], [ -1.0701336, 42.9027082 ], [ -1.0703736, 42.9026261 ], [ -1.0705539, 42.902561 ], [ -1.0705616, 42.90256 ], [ -1.0707107, 42.9025181 ], [ -1.0707549, 42.9024997 ], [ -1.0707936, 42.9024852 ], [ -1.0708169, 42.902476 ], [ -1.0709021, 42.9024419 ], [ -1.070972, 42.9024111 ], [ -1.0711638, 42.9023254 ], [ -1.0713536, 42.9022295 ], [ -1.0718993, 42.9019872 ], [ -1.0719614, 42.9019584 ], [ -1.0719947, 42.901946 ], [ -1.0720133, 42.901939 ], [ -1.0720334, 42.9019337 ], [ -1.0720581, 42.9019268 ], [ -1.0720951, 42.9019179 ], [ -1.072175, 42.9019096 ], [ -1.0722203, 42.9018806 ], [ -1.072671, 42.9015916 ], [ -1.0733915, 42.9011467 ], [ -1.0740064, 42.9007705 ], [ -1.0742396, 42.9006314 ], [ -1.0745683, 42.9004259 ], [ -1.0749441, 42.900206 ], [ -1.0750401, 42.900148 ], [ -1.0751127, 42.9001047 ], [ -1.0757637, 42.8997245 ], [ -1.0760849, 42.8995363 ], [ -1.0761707, 42.8994854 ], [ -1.0762246, 42.8994497 ], [ -1.0762887, 42.8994097 ], [ -1.0763424, 42.8993808 ], [ -1.0764646, 42.8993154 ], [ -1.0766105, 42.8992525 ], [ -1.0768658, 42.899115 ], [ -1.0773033, 42.8989062 ], [ -1.0778974, 42.8986326 ], [ -1.0779675, 42.8985949 ], [ -1.0780049, 42.8985747 ], [ -1.0780359, 42.8985595 ], [ -1.0780778, 42.8985416 ], [ -1.0781213, 42.8985243 ], [ -1.0782471, 42.8984915 ], [ -1.0785755, 42.8984166 ], [ -1.0786969, 42.8984006 ], [ -1.0787976, 42.8983882 ], [ -1.0788508, 42.8983745 ], [ -1.0788939, 42.8983662 ], [ -1.0789155, 42.8983621 ], [ -1.0789326, 42.898355 ], [ -1.0789574, 42.8983425 ], [ -1.0790541, 42.8982625 ], [ -1.0794084, 42.8979944 ], [ -1.0794915, 42.8979316 ], [ -1.0798357, 42.8976695 ], [ -1.0802217, 42.8973912 ], [ -1.0814465, 42.8964792 ], [ -1.0814927, 42.8964451 ], [ -1.0815507, 42.8964016 ], [ -1.0833573, 42.8959766 ], [ -1.0835418, 42.8962009 ], [ -1.0838196, 42.896201 ], [ -1.0838403, 42.8962019 ], [ -1.0838494, 42.8962021 ], [ -1.0838601, 42.8962023 ], [ -1.083874, 42.8961997 ], [ -1.0842914, 42.8958724 ], [ -1.0843734, 42.895818 ], [ -1.0844509, 42.8957636 ], [ -1.0845354, 42.895702 ], [ -1.0845691, 42.8956778 ], [ -1.084598, 42.8956592 ], [ -1.0846324, 42.8956361 ], [ -1.0846629, 42.8956175 ], [ -1.0846909, 42.8956027 ], [ -1.0847266, 42.8955847 ], [ -1.0847616, 42.8955685 ], [ -1.0848143, 42.8955463 ], [ -1.0848778, 42.8955226 ], [ -1.0851942, 42.8954142 ], [ -1.0852407, 42.8953981 ], [ -1.0853064, 42.8953761 ], [ -1.0853304, 42.8953698 ], [ -1.0853658, 42.8953614 ], [ -1.0854003, 42.895358 ], [ -1.0854378, 42.8953592 ], [ -1.0854691, 42.8953625 ], [ -1.0854943, 42.8953658 ], [ -1.0855171, 42.8953701 ], [ -1.0855262, 42.8953719 ], [ -1.0855559, 42.895378 ], [ -1.0855893, 42.895387 ], [ -1.0856189, 42.8953954 ], [ -1.0856597, 42.8954102 ], [ -1.0856961, 42.8954243 ], [ -1.0857346, 42.8954413 ], [ -1.0857738, 42.8954594 ], [ -1.0858032, 42.895475 ], [ -1.0858219, 42.8954877 ], [ -1.0858527, 42.8955085 ], [ -1.0858833, 42.8955321 ], [ -1.0859529, 42.8955828 ], [ -1.0860766, 42.895667 ], [ -1.0862545, 42.8957797 ], [ -1.0864065, 42.8958667 ], [ -1.0866458, 42.8960497 ], [ -1.086634, 42.8962324 ], [ -1.0866123, 42.89629 ], [ -1.0865001, 42.8965537 ], [ -1.0864955, 42.8965751 ], [ -1.0864943, 42.8965914 ], [ -1.0864954, 42.8966049 ], [ -1.0864972, 42.8966212 ], [ -1.0865015, 42.8966314 ], [ -1.086508, 42.8966428 ], [ -1.0865139, 42.8966485 ], [ -1.0865763, 42.8967104 ], [ -1.0868709, 42.8969382 ], [ -1.0870312, 42.8970489 ], [ -1.0872328, 42.8971896 ], [ -1.0872823, 42.8972231 ], [ -1.087298, 42.8972346 ], [ -1.0873213, 42.8972479 ], [ -1.0873492, 42.897263 ], [ -1.0873636, 42.8972689 ], [ -1.0873863, 42.8972766 ], [ -1.0874129, 42.8972827 ], [ -1.087441, 42.8972882 ], [ -1.0874739, 42.8972904 ], [ -1.0876168, 42.8972996 ], [ -1.0877889, 42.8974522 ], [ -1.0878076, 42.8974654 ], [ -1.0878262, 42.8975558 ], [ -1.0878432, 42.8976016 ], [ -1.0878556, 42.897621 ], [ -1.087869, 42.8976347 ], [ -1.0878846, 42.8976485 ], [ -1.0881236, 42.8978168 ], [ -1.0881596, 42.8978399 ], [ -1.0881957, 42.8978614 ], [ -1.0882183, 42.897873 ], [ -1.0882417, 42.8978818 ], [ -1.0882697, 42.8978924 ], [ -1.0883039, 42.8979003 ], [ -1.0884668, 42.8979053 ], [ -1.0890534, 42.8979218 ], [ -1.0895246, 42.8979348 ], [ -1.0908714, 42.897973 ], [ -1.0931262, 42.898032 ], [ -1.0932295, 42.8980349 ], [ -1.0934931, 42.8973313 ], [ -1.0936201, 42.8973818 ], [ -1.0938455, 42.8974711 ], [ -1.094461, 42.8977166 ], [ -1.0944746, 42.8977219 ], [ -1.0944995, 42.897733 ], [ -1.0945116, 42.8977388 ], [ -1.094532, 42.897747 ], [ -1.094644, 42.8977906 ], [ -1.0948408, 42.8978602 ], [ -1.0951036, 42.8979293 ], [ -1.095321, 42.8980016 ], [ -1.0954179, 42.8980381 ], [ -1.0955001, 42.8980783 ], [ -1.0955747, 42.8981173 ], [ -1.0956207, 42.8981389 ], [ -1.0956704, 42.898165 ], [ -1.0957139, 42.898195 ], [ -1.0957999, 42.8982612 ], [ -1.0962408, 42.8985865 ], [ -1.0968986, 42.8990989 ], [ -1.0970931, 42.8992451 ], [ -1.0977745, 42.8997668 ], [ -1.0978134, 42.8997934 ], [ -1.0981799, 42.9001 ], [ -1.0984962, 42.9003664 ], [ -1.0985164, 42.9003848 ], [ -1.0985366, 42.9003998 ], [ -1.0986751, 42.9005011 ], [ -1.0988179, 42.900611 ], [ -1.0988472, 42.9006295 ], [ -1.0988735, 42.9006456 ], [ -1.0988908, 42.9006538 ], [ -1.0996143, 42.9008279 ], [ -1.0998604, 42.9008877 ], [ -1.0999006, 42.9009014 ], [ -1.0999506, 42.9009185 ], [ -1.1003882, 42.9011019 ], [ -1.1004395, 42.9011259 ], [ -1.1004689, 42.9011404 ], [ -1.1004802, 42.9011462 ], [ -1.1005001, 42.9011724 ], [ -1.1007474, 42.9010966 ], [ -1.1007922, 42.9010827 ], [ -1.1016425, 42.9014137 ], [ -1.1017217, 42.9014516 ], [ -1.1018145, 42.9014959 ], [ -1.101877, 42.9015307 ], [ -1.1019138, 42.9015533 ], [ -1.1019408, 42.9015718 ], [ -1.101958, 42.9015855 ], [ -1.1019728, 42.9016004 ], [ -1.101989, 42.9016221 ], [ -1.1020044, 42.9016437 ], [ -1.1020168, 42.9016642 ], [ -1.1020261, 42.9016851 ], [ -1.1020339, 42.9017055 ], [ -1.1020427, 42.9017423 ], [ -1.1020678, 42.9018963 ], [ -1.1020704, 42.901911 ], [ -1.1020716, 42.9019223 ], [ -1.1020724, 42.901924 ], [ -1.1020798, 42.9019309 ], [ -1.1020858, 42.9019343 ], [ -1.1020988, 42.9019351 ], [ -1.1023268, 42.9020385 ], [ -1.102419, 42.9021267 ], [ -1.1025031, 42.9022069 ], [ -1.1030891, 42.902767 ], [ -1.1033422, 42.9026789 ], [ -1.1034559, 42.9026392 ], [ -1.1037386, 42.9031819 ], [ -1.1041695, 42.9040085 ], [ -1.1041871, 42.9040341 ], [ -1.1042098, 42.9040671 ], [ -1.1042465, 42.9041184 ], [ -1.1042561, 42.9041309 ], [ -1.1042884, 42.9041737 ], [ -1.1043111, 42.9042089 ], [ -1.1043308, 42.9042391 ], [ -1.1043548, 42.9042822 ], [ -1.1043577, 42.9042879 ], [ -1.1043739, 42.9043321 ], [ -1.10438, 42.904357 ], [ -1.1043846, 42.9043835 ], [ -1.1043895, 42.9044224 ], [ -1.1043882, 42.9044668 ], [ -1.1043825, 42.9045033 ], [ -1.1043803, 42.9045224 ], [ -1.1043784, 42.9045382 ], [ -1.1043728, 42.9045921 ], [ -1.1043597, 42.9046459 ], [ -1.1043427, 42.9046996 ], [ -1.1043144, 42.9047509 ], [ -1.1042634, 42.9048176 ], [ -1.1041857, 42.9049284 ], [ -1.1041528, 42.9050268 ], [ -1.1041254, 42.9051221 ], [ -1.1040988, 42.9052404 ], [ -1.1040838, 42.9053797 ], [ -1.1040742, 42.9055191 ], [ -1.104061, 42.9055971 ], [ -1.1040525, 42.9056505 ], [ -1.1040374, 42.9057453 ], [ -1.1040301, 42.905784 ], [ -1.1040272, 42.9058015 ], [ -1.1040158, 42.9058986 ], [ -1.1040163, 42.9060061 ], [ -1.1040169, 42.9060151 ], [ -1.1040185, 42.906036 ], [ -1.1040285, 42.9061335 ], [ -1.1040346, 42.9062602 ], [ -1.1040324, 42.9064076 ], [ -1.104012, 42.9065976 ], [ -1.1040158, 42.9066713 ], [ -1.1040245, 42.9067148 ], [ -1.1040549, 42.9068712 ], [ -1.1040827, 42.9070112 ], [ -1.104108, 42.9072599 ], [ -1.1041308, 42.9073666 ], [ -1.104152, 42.9074255 ], [ -1.1041776, 42.9074884 ], [ -1.104205, 42.9075446 ], [ -1.1042605, 42.9076541 ], [ -1.1042755, 42.9076904 ], [ -1.1042832, 42.9077124 ], [ -1.104293, 42.907743 ], [ -1.1043025, 42.9077842 ], [ -1.1043122, 42.9078182 ], [ -1.1043099, 42.9078423 ], [ -1.1043154, 42.9079111 ], [ -1.104312, 42.9079504 ], [ -1.1043058, 42.908001 ], [ -1.1042959, 42.9080492 ], [ -1.1042818, 42.9081339 ], [ -1.1041962, 42.9083796 ], [ -1.1041374, 42.9085992 ], [ -1.1041094, 42.9087625 ], [ -1.1041041, 42.908862 ], [ -1.1041047, 42.908942 ], [ -1.104095, 42.9090572 ], [ -1.1040798, 42.9091543 ], [ -1.104043, 42.9093304 ], [ -1.1040173, 42.9094927 ], [ -1.1040026, 42.9095993 ], [ -1.1039961, 42.9096848 ], [ -1.1039984, 42.9097585 ], [ -1.1040143, 42.909841 ], [ -1.1040357, 42.9099438 ], [ -1.104037, 42.9099505 ], [ -1.1040573, 42.9100375 ], [ -1.1040839, 42.9101179 ], [ -1.1041062, 42.9101886 ], [ -1.1041322, 42.9102673 ], [ -1.1041593, 42.9103324 ], [ -1.1041927, 42.9103898 ], [ -1.1042278, 42.910445 ], [ -1.1042708, 42.9105133 ], [ -1.1043016, 42.9105824 ], [ -1.1043325, 42.9106493 ], [ -1.1043456, 42.9106974 ], [ -1.1043587, 42.9107443 ], [ -1.1043913, 42.9108541 ], [ -1.104424, 42.9109351 ], [ -1.1044601, 42.9110055 ], [ -1.104493, 42.9110589 ], [ -1.1045312, 42.9111113 ], [ -1.1045563, 42.9111421 ], [ -1.1045879, 42.9111832 ], [ -1.1046431, 42.911233 ], [ -1.1046729, 42.9112589 ], [ -1.1047133, 42.9112894 ], [ -1.1047665, 42.9113257 ], [ -1.1048261, 42.9113554 ], [ -1.1049219, 42.9114037 ], [ -1.1050251, 42.9114578 ], [ -1.1051056, 42.9115052 ], [ -1.1051394, 42.9115266 ], [ -1.1051664, 42.9115462 ], [ -1.1051977, 42.9115732 ], [ -1.1052348, 42.9116104 ], [ -1.105259, 42.9116473 ], [ -1.1052655, 42.9116576 ], [ -1.1052926, 42.9117222 ], [ -1.1053039, 42.9117556 ], [ -1.1053223, 42.9118037 ], [ -1.1053393, 42.9118479 ], [ -1.1053534, 42.9118887 ], [ -1.1053651, 42.9119311 ], [ -1.105384, 42.9119882 ], [ -1.1053991, 42.9120453 ], [ -1.1054095, 42.9121304 ], [ -1.1054191, 42.9121937 ], [ -1.1054196, 42.9122246 ], [ -1.105425, 42.9122771 ], [ -1.105425, 42.912326 ], [ -1.1054189, 42.9124008 ], [ -1.1054161, 42.912439 ], [ -1.1054153, 42.9124913 ], [ -1.1054212, 42.9126237 ], [ -1.1054281, 42.9126733 ], [ -1.1054439, 42.9127338 ], [ -1.1054548, 42.9127767 ], [ -1.1054663, 42.912827 ], [ -1.1054758, 42.9128649 ], [ -1.1054844, 42.9129095 ], [ -1.1054911, 42.9129665 ], [ -1.1054901, 42.9130222 ], [ -1.1054704, 42.9130905 ], [ -1.1054585, 42.9131319 ], [ -1.1054528, 42.9131656 ], [ -1.1054513, 42.9131892 ], [ -1.1054518, 42.9132224 ], [ -1.1054555, 42.9132523 ], [ -1.1054685, 42.9133049 ], [ -1.1055115, 42.9134232 ], [ -1.1055473, 42.9135302 ], [ -1.1055532, 42.9135612 ], [ -1.105563, 42.913594 ], [ -1.1055668, 42.9136183 ], [ -1.1055815, 42.9136647 ], [ -1.1055842, 42.9136743 ], [ -1.1055957, 42.9136987 ], [ -1.1056087, 42.9137265 ], [ -1.1056166, 42.9137446 ], [ -1.1056288, 42.9137685 ], [ -1.1056389, 42.9137911 ], [ -1.1056558, 42.9138139 ], [ -1.1056735, 42.9138334 ], [ -1.105756, 42.9139152 ], [ -1.1059408, 42.9141074 ], [ -1.1061155, 42.9143022 ], [ -1.1061504, 42.9143388 ], [ -1.106189, 42.9143777 ], [ -1.1062446, 42.9144355 ], [ -1.1063998, 42.9145928 ], [ -1.1065456, 42.9147342 ], [ -1.1067751, 42.9149648 ], [ -1.106915, 42.9150971 ], [ -1.1070164, 42.9151883 ], [ -1.1071673, 42.915309 ], [ -1.1073397, 42.9154582 ], [ -1.1075475, 42.9156462 ], [ -1.1076389, 42.9157383 ], [ -1.1077345, 42.9158395 ], [ -1.1077754, 42.9158813 ], [ -1.1078021, 42.915911 ], [ -1.1078416, 42.9159437 ], [ -1.1078708, 42.9159639 ], [ -1.1079093, 42.9159859 ], [ -1.1079522, 42.9160086 ], [ -1.1079967, 42.9160307 ], [ -1.1080388, 42.9160545 ], [ -1.1080998, 42.9160887 ], [ -1.1081606, 42.916128 ], [ -1.1082761, 42.9162075 ], [ -1.1084472, 42.9163454 ], [ -1.1085085, 42.9163954 ], [ -1.1085479, 42.9164355 ], [ -1.1085693, 42.91646 ], [ -1.1085871, 42.9164806 ], [ -1.1086075, 42.9165147 ], [ -1.1086269, 42.9165539 ], [ -1.1086154, 42.9165796 ], [ -1.1085561, 42.9167153 ], [ -1.1084707, 42.9169053 ], [ -1.108239, 42.9174198 ], [ -1.1080142, 42.917886 ], [ -1.1078301, 42.9182189 ], [ -1.1077485, 42.9184066 ], [ -1.1077436, 42.9184179 ], [ -1.1077142, 42.9185035 ], [ -1.1076974, 42.918578 ], [ -1.1076979, 42.9186371 ], [ -1.1077035, 42.9186783 ], [ -1.1077152, 42.9187196 ], [ -1.1077324, 42.9187604 ], [ -1.107756, 42.9188154 ], [ -1.107797, 42.9189258 ], [ -1.1078223, 42.9190242 ], [ -1.107855, 42.9190315 ], [ -1.1081182, 42.9190887 ], [ -1.1084003, 42.9191519 ], [ -1.1087062, 42.9192177 ], [ -1.1090345, 42.919275 ], [ -1.1094602, 42.9193242 ], [ -1.1109661, 42.9195095 ], [ -1.112443, 42.9196194 ], [ -1.1138671, 42.9197515 ], [ -1.1146206, 42.9198 ], [ -1.1153496, 42.9198508 ], [ -1.1161009, 42.9199499 ], [ -1.1162458, 42.9199686 ], [ -1.1167583, 42.920035 ], [ -1.1174516, 42.9201263 ], [ -1.1175775, 42.9201408 ], [ -1.1176264, 42.9201472 ], [ -1.1176927, 42.9201562 ], [ -1.1177026, 42.920158 ], [ -1.117775, 42.9201705 ], [ -1.117858, 42.9201859 ], [ -1.1179424, 42.9202047 ], [ -1.1180434, 42.9202312 ], [ -1.1181808, 42.9202712 ], [ -1.1188315, 42.920431 ], [ -1.1192904, 42.920523 ], [ -1.1193763, 42.9205424 ], [ -1.1195057, 42.9205693 ], [ -1.1195994, 42.9205854 ], [ -1.119719, 42.9206065 ], [ -1.1198309, 42.9206275 ], [ -1.1199635, 42.9206483 ], [ -1.1201238, 42.9206655 ], [ -1.1202852, 42.9206733 ], [ -1.121728, 42.9206193 ], [ -1.1232342, 42.9205703 ], [ -1.1246217, 42.920521 ], [ -1.1247505, 42.9205164 ], [ -1.1249015, 42.9205121 ], [ -1.126501, 42.9204657 ], [ -1.1272234, 42.9205563 ], [ -1.1272334, 42.9205576 ], [ -1.1281806, 42.9206846 ], [ -1.1294705, 42.9208509 ], [ -1.1302493, 42.9209497 ], [ -1.1302714, 42.9209529 ], [ -1.1307857, 42.9205083 ], [ -1.131245, 42.9201612 ], [ -1.131546, 42.9199793 ], [ -1.1317044, 42.9198834 ], [ -1.1320208, 42.9196764 ], [ -1.1322375, 42.9194474 ], [ -1.1324005, 42.9192498 ], [ -1.1324609, 42.919177 ], [ -1.1326386, 42.9189711 ], [ -1.1327455, 42.9187781 ], [ -1.1328264, 42.9185363 ], [ -1.1329488, 42.918235 ], [ -1.1330406, 42.9179838 ], [ -1.133074, 42.9178178 ], [ -1.1330992, 42.9176932 ], [ -1.1331339, 42.917355 ], [ -1.1331393, 42.9173038 ], [ -1.1331142, 42.9171453 ], [ -1.1330164, 42.9169124 ], [ -1.1329987, 42.9167872 ], [ -1.1330505, 42.9166687 ], [ -1.1332186, 42.9162004 ], [ -1.1332665, 42.9159068 ], [ -1.1332922, 42.9157406 ], [ -1.1333635, 42.9156371 ], [ -1.1338724, 42.9152397 ], [ -1.1340972, 42.9149726 ], [ -1.1342068, 42.9148416 ], [ -1.1342238, 42.9147107 ], [ -1.1341877, 42.914104 ], [ -1.1341932, 42.9138452 ], [ -1.1343921, 42.9135232 ], [ -1.1346622, 42.9131736 ], [ -1.1344397, 42.9114652 ], [ -1.1344361, 42.9114336 ], [ -1.1343526, 42.9107986 ], [ -1.1343527, 42.9107946 ], [ -1.1353087, 42.9099424 ], [ -1.1351647, 42.9097408 ], [ -1.1350553, 42.9095882 ], [ -1.134951, 42.9094413 ], [ -1.1339879, 42.9080957 ], [ -1.1336838, 42.9076698 ], [ -1.1328639, 42.9066017 ], [ -1.1327335, 42.9064319 ], [ -1.1307641, 42.9050253 ], [ -1.1296813, 42.9042518 ], [ -1.1294083, 42.9041652 ], [ -1.1292726, 42.9041219 ], [ -1.1288273, 42.9038579 ], [ -1.1286492, 42.9035207 ], [ -1.1280713, 42.9024307 ], [ -1.1273241, 42.9010182 ], [ -1.1273074, 42.9009876 ], [ -1.1272935, 42.9009643 ], [ -1.1271797, 42.9007812 ], [ -1.1268469, 42.900245 ], [ -1.1267418, 42.9000761 ], [ -1.1264744, 42.8995765 ], [ -1.1263635, 42.8993698 ], [ -1.1262136, 42.8989897 ], [ -1.1261247, 42.8987648 ], [ -1.1259217, 42.8981644 ], [ -1.1257077, 42.8975457 ], [ -1.1256894, 42.8974937 ], [ -1.1256711, 42.8974404 ], [ -1.1255928, 42.8973705 ], [ -1.1254989, 42.8972874 ], [ -1.1252212, 42.8970549 ], [ -1.1250607, 42.8969211 ], [ -1.1246313, 42.8964171 ], [ -1.1242984, 42.8960087 ], [ -1.1242031, 42.8958681 ], [ -1.1238694, 42.8951614 ], [ -1.1236536, 42.8947566 ], [ -1.1232886, 42.8943493 ], [ -1.1229833, 42.8939689 ], [ -1.1227677, 42.8936575 ], [ -1.1225248, 42.8932866 ], [ -1.1223779, 42.8929825 ], [ -1.1223102, 42.8928441 ], [ -1.1222294, 42.8926796 ], [ -1.1221783, 42.8925757 ], [ -1.1220276, 42.8922688 ], [ -1.1217958, 42.8920888 ], [ -1.1214828, 42.8919604 ], [ -1.1211075, 42.8918417 ], [ -1.1206653, 42.8916352 ], [ -1.1205926, 42.8915569 ], [ -1.1206187, 42.8912799 ], [ -1.1206235, 42.8911978 ], [ -1.1205566, 42.8911066 ], [ -1.1201679, 42.8908498 ], [ -1.1196523, 42.8905408 ], [ -1.1193632, 42.890356 ], [ -1.1190017, 42.890139 ], [ -1.118804, 42.8899449 ], [ -1.1185099, 42.8896744 ], [ -1.1183405, 42.8895309 ], [ -1.1180892, 42.8893867 ], [ -1.1177623, 42.8891888 ], [ -1.1176344, 42.8891164 ], [ -1.1173447, 42.8889523 ], [ -1.1170742, 42.8887892 ], [ -1.116985, 42.888553 ], [ -1.116864, 42.8881503 ], [ -1.1168113, 42.8879733 ], [ -1.1167898, 42.8878992 ], [ -1.1169022, 42.8879506 ], [ -1.1169846, 42.8879593 ], [ -1.1170833, 42.887886 ], [ -1.1171769, 42.8877536 ], [ -1.1172112, 42.8876822 ], [ -1.1171151, 42.8875984 ], [ -1.116922, 42.8874771 ], [ -1.1167021, 42.8872843 ], [ -1.1165465, 42.8871658 ], [ -1.1162783, 42.8870528 ], [ -1.1160894, 42.8869219 ], [ -1.1159705, 42.8867781 ], [ -1.1158734, 42.8866505 ], [ -1.1158547, 42.8865618 ], [ -1.115918, 42.8864683 ], [ -1.1161734, 42.8862986 ], [ -1.1166358, 42.8860687 ], [ -1.1170706, 42.8858654 ], [ -1.1173376, 42.8857921 ], [ -1.1174493, 42.885745 ], [ -1.1174636, 42.8857002 ], [ -1.1175818, 42.8853391 ], [ -1.1177024, 42.8850732 ], [ -1.1177927, 42.8848721 ], [ -1.117917, 42.8845601 ], [ -1.118071, 42.8842779 ], [ -1.1181662, 42.8841156 ], [ -1.1182511, 42.8839173 ], [ -1.1183513, 42.8836915 ], [ -1.1184316, 42.8835195 ], [ -1.1184553, 42.8834445 ], [ -1.1184505, 42.8833499 ], [ -1.1184247, 42.8831164 ], [ -1.1184317, 42.882834 ], [ -1.1184596, 42.8825458 ], [ -1.1184766, 42.8823665 ], [ -1.1185124, 42.8819202 ], [ -1.1185551, 42.8817459 ], [ -1.118635, 42.8815114 ], [ -1.1187505, 42.8812601 ], [ -1.1188746, 42.8809042 ], [ -1.1189566, 42.8806241 ], [ -1.1189992, 42.8804807 ], [ -1.1190878, 42.8801592 ], [ -1.1191171, 42.8800505 ], [ -1.1191296, 42.8799933 ], [ -1.1191993, 42.8796629 ], [ -1.1192421, 42.8795156 ], [ -1.1193248, 42.8792361 ], [ -1.1194499, 42.8789967 ], [ -1.1195848, 42.8787136 ], [ -1.1198408, 42.8783717 ], [ -1.1200521, 42.8780172 ], [ -1.1201562, 42.8777646 ], [ -1.1202043, 42.877592 ], [ -1.1198474, 42.8775496 ], [ -1.1197307, 42.8775381 ], [ -1.1196381, 42.8775377 ], [ -1.119557, 42.877538 ], [ -1.1194873, 42.8775408 ], [ -1.1193998, 42.8775501 ], [ -1.1192466, 42.8775774 ], [ -1.118946, 42.8776248 ], [ -1.1186341, 42.8776641 ], [ -1.1183992, 42.8776884 ], [ -1.1183161, 42.8777034 ], [ -1.118249, 42.8777208 ], [ -1.1181292, 42.8777599 ], [ -1.1178835, 42.8778364 ], [ -1.1177035, 42.8778953 ], [ -1.1175194, 42.8779598 ], [ -1.117231, 42.8780581 ], [ -1.1169132, 42.8781896 ], [ -1.1166044, 42.8783286 ], [ -1.1163866, 42.878419 ], [ -1.1161986, 42.8784868 ], [ -1.1157937, 42.87864 ], [ -1.1155258, 42.8787425 ], [ -1.1153883, 42.8787847 ], [ -1.1152757, 42.8788121 ], [ -1.1151778, 42.8788353 ], [ -1.1151107, 42.8788561 ], [ -1.1150417, 42.8788831 ], [ -1.1149254, 42.8789347 ], [ -1.114585, 42.8791041 ], [ -1.1141568, 42.8793205 ], [ -1.1137538, 42.8795119 ], [ -1.113506, 42.8796322 ], [ -1.1132501, 42.8797439 ], [ -1.1129997, 42.8798478 ], [ -1.112807, 42.8799184 ], [ -1.1126022, 42.8799825 ], [ -1.1123714, 42.880049 ], [ -1.1122526, 42.8800809 ], [ -1.1121261, 42.8801131 ], [ -1.11204, 42.880128 ], [ -1.1119653, 42.8801409 ], [ -1.1117926, 42.8801577 ], [ -1.1114886, 42.8801893 ], [ -1.111385, 42.8801994 ], [ -1.1112599, 42.880212 ], [ -1.1110526, 42.8802333 ], [ -1.1107599, 42.880269 ], [ -1.1105619, 42.8802877 ], [ -1.1102814, 42.8803264 ], [ -1.1099851, 42.8803806 ], [ -1.1099098, 42.8803911 ], [ -1.1098354, 42.8803989 ], [ -1.1097794, 42.8804025 ], [ -1.1097312, 42.8804033 ], [ -1.1096907, 42.8803993 ], [ -1.1096502, 42.8803958 ], [ -1.1095916, 42.8803859 ], [ -1.1095453, 42.8803744 ], [ -1.1094694, 42.8803563 ], [ -1.1093426, 42.880321 ], [ -1.1092651, 42.8803039 ], [ -1.1091843, 42.8802942 ], [ -1.1091195, 42.8802869 ], [ -1.1090354, 42.8802827 ], [ -1.1089481, 42.880284 ], [ -1.1088953, 42.8802855 ], [ -1.1087987, 42.8802906 ], [ -1.1087227, 42.8802967 ], [ -1.1085384, 42.8803178 ], [ -1.1082848, 42.8803541 ], [ -1.1077817, 42.880464 ], [ -1.107429, 42.8805358 ], [ -1.1071998, 42.8805725 ], [ -1.1069675, 42.8806104 ], [ -1.1067264, 42.8806401 ], [ -1.1064975, 42.8806662 ], [ -1.1062386, 42.8807007 ], [ -1.1060543, 42.8807196 ], [ -1.105865, 42.8807311 ], [ -1.1056733, 42.880742 ], [ -1.1055537, 42.8807468 ], [ -1.1054711, 42.8807471 ], [ -1.10539, 42.8807475 ], [ -1.1053097, 42.8807444 ], [ -1.105235, 42.8807364 ], [ -1.1051511, 42.8807266 ], [ -1.1050323, 42.8807072 ], [ -1.1048382, 42.8806725 ], [ -1.1046721, 42.8806489 ], [ -1.1045346, 42.8806145 ], [ -1.1044823, 42.8806013 ], [ -1.1043082, 42.8805607 ], [ -1.1042223, 42.8805424 ], [ -1.1041699, 42.8805308 ], [ -1.1038118, 42.8804529 ], [ -1.1035561, 42.8803805 ], [ -1.103264, 42.8802991 ], [ -1.1030009, 42.8802211 ], [ -1.1027857, 42.8801488 ], [ -1.1026168, 42.8800925 ], [ -1.1023856, 42.8800212 ], [ -1.1022269, 42.8799814 ], [ -1.1020514, 42.8799391 ], [ -1.1018872, 42.8799054 ], [ -1.1016643, 42.8798618 ], [ -1.1014917, 42.879824 ], [ -1.1013138, 42.8797862 ], [ -1.1011972, 42.8797696 ], [ -1.1011125, 42.879762 ], [ -1.1009788, 42.8797542 ], [ -1.1007923, 42.8797493 ], [ -1.1005215, 42.8797437 ], [ -1.1001397, 42.8797436 ], [ -1.099917, 42.8797433 ], [ -1.0996807, 42.8797371 ], [ -1.0995898, 42.8797327 ], [ -1.0994951, 42.8797256 ], [ -1.0992454, 42.8796848 ], [ -1.0990596, 42.8796547 ], [ -1.0988525, 42.8796215 ], [ -1.0983469, 42.8795376 ], [ -1.0976761, 42.879428 ], [ -1.0972898, 42.8793726 ], [ -1.09727, 42.8793695 ], [ -1.0967682, 42.8792885 ], [ -1.0963685, 42.8792194 ], [ -1.095779, 42.8791296 ], [ -1.0951538, 42.8790315 ], [ -1.0945971, 42.8789428 ], [ -1.0937486, 42.878712 ], [ -1.0931007, 42.8783562 ], [ -1.0924548, 42.878185 ], [ -1.0919724, 42.8780464 ], [ -1.0916127, 42.877947 ], [ -1.0911377, 42.8778187 ], [ -1.0907642, 42.8777201 ], [ -1.0905897, 42.8776727 ], [ -1.090337, 42.8776038 ], [ -1.0902445, 42.8775747 ], [ -1.0901778, 42.8775539 ], [ -1.0901216, 42.8775394 ], [ -1.0897344, 42.8774407 ], [ -1.0891208, 42.8774394 ], [ -1.088553, 42.8774384 ], [ -1.08793, 42.877442 ], [ -1.0872557, 42.8774459 ], [ -1.086598, 42.8774327 ], [ -1.0857564, 42.8779724 ], [ -1.0853483, 42.8782262 ], [ -1.0850078, 42.8785221 ], [ -1.0847782, 42.878722 ], [ -1.0836444, 42.878488 ], [ -1.0831349, 42.8790288 ], [ -1.0829621, 42.8791216 ], [ -1.0828611, 42.8791699 ], [ -1.0827906, 42.8791992 ], [ -1.0827334, 42.8792179 ], [ -1.0826716, 42.8792371 ], [ -1.0826213, 42.8792526 ], [ -1.0825541, 42.8792723 ], [ -1.0825179, 42.8792813 ], [ -1.0824825, 42.8792874 ], [ -1.0824556, 42.8792903 ], [ -1.0824119, 42.8792947 ], [ -1.0823697, 42.8792973 ], [ -1.0823185, 42.8792965 ], [ -1.0822826, 42.8792936 ], [ -1.0822422, 42.8792873 ], [ -1.0822119, 42.8792801 ], [ -1.0821421, 42.8792575 ], [ -1.0819422, 42.8791906 ], [ -1.0817193, 42.8790996 ], [ -1.0813091, 42.8789503 ], [ -1.0812214, 42.8789179 ], [ -1.0810935, 42.8788696 ], [ -1.0810042, 42.8788405 ], [ -1.0809564, 42.8788251 ], [ -1.080908, 42.8788079 ], [ -1.080889, 42.8788015 ], [ -1.080864, 42.8787943 ], [ -1.0808442, 42.8787917 ], [ -1.0808335, 42.8787915 ], [ -1.0808113, 42.8787912 ], [ -1.0807883, 42.8787908 ], [ -1.0807784, 42.8787912 ], [ -1.0807631, 42.8787915 ], [ -1.0807462, 42.878794 ], [ -1.0807193, 42.878798 ], [ -1.0806961, 42.8788033 ], [ -1.0806675, 42.8788124 ], [ -1.0806351, 42.8788231 ], [ -1.0806002, 42.8788371 ], [ -1.080542, 42.8788643 ], [ -1.0804292, 42.8789209 ], [ -1.0803638, 42.8789592 ], [ -1.080282, 42.8790062 ], [ -1.0802687, 42.8790139 ], [ -1.0802189, 42.8790406 ], [ -1.0800469, 42.8791329 ], [ -1.0798083, 42.8792532 ], [ -1.0796996, 42.8793021 ], [ -1.0794081, 42.8794491 ], [ -1.0789733, 42.8796743 ], [ -1.0788086, 42.8795826 ], [ -1.0784738, 42.8793963 ], [ -1.0780386, 42.8795607 ], [ -1.0776267, 42.8797164 ], [ -1.0767499, 42.8808649 ], [ -1.0766911, 42.8808876 ], [ -1.0764796, 42.8809701 ], [ -1.076389, 42.8810041 ], [ -1.0763177, 42.8810338 ], [ -1.0762713, 42.8810494 ], [ -1.0762273, 42.8810604 ], [ -1.0761919, 42.8810683 ], [ -1.0761556, 42.8810767 ], [ -1.0761156, 42.8810856 ], [ -1.0760856, 42.8810913 ], [ -1.0760509, 42.8810969 ], [ -1.0760102, 42.881103 ], [ -1.075971, 42.8811079 ], [ -1.0759365, 42.8811101 ], [ -1.0759082, 42.8811102 ], [ -1.0758249, 42.8811071 ], [ -1.0757439, 42.8811018 ], [ -1.0756483, 42.8810991 ], [ -1.0755581, 42.8810959 ], [ -1.0755551, 42.8810958 ], [ -1.0753065, 42.8810889 ], [ -1.0752673, 42.881095 ], [ -1.0752387, 42.8811063 ], [ -1.0752169, 42.8811161 ], [ -1.0751982, 42.8811275 ], [ -1.0751763, 42.8811452 ], [ -1.0751589, 42.8811624 ], [ -1.0751455, 42.8811756 ], [ -1.0751147, 42.8812055 ], [ -1.0748089, 42.8815887 ], [ -1.074265, 42.8816313 ], [ -1.0734297, 42.8822087 ], [ -1.0729165, 42.8821759 ], [ -1.072866, 42.8821728 ], [ -1.0728431, 42.8821713 ], [ -1.0728087, 42.882169 ], [ -1.0727018, 42.8821616 ], [ -1.0713157, 42.8820701 ], [ -1.0705997, 42.8820102 ], [ -1.0695882, 42.8821766 ], [ -1.068513, 42.882347 ], [ -1.0684712, 42.8824116 ], [ -1.0684415, 42.8824572 ], [ -1.0683024, 42.8826715 ], [ -1.0682944, 42.8826821 ], [ -1.0680227, 42.8830737 ], [ -1.0680067, 42.8830959 ], [ -1.0678209, 42.8833619 ], [ -1.067595, 42.883685 ], [ -1.0675861, 42.8836989 ], [ -1.0674859, 42.8838441 ], [ -1.0674667, 42.8838719 ], [ -1.0670538, 42.8844706 ], [ -1.0669416, 42.8846335 ], [ -1.066912, 42.8846764 ], [ -1.0666038, 42.8848136 ], [ -1.0662585, 42.8849681 ], [ -1.0660457, 42.8850658 ], [ -1.0658603, 42.8851443 ], [ -1.0656414, 42.885243 ], [ -1.0654453, 42.8853207 ], [ -1.0651549, 42.8854318 ], [ -1.0647562, 42.8855764 ], [ -1.0643655, 42.8857353 ], [ -1.0642688, 42.8857674 ], [ -1.0641585, 42.8857976 ], [ -1.0640766, 42.8858204 ], [ -1.0638079, 42.8858958 ], [ -1.0633784, 42.8860247 ], [ -1.06295, 42.8861396 ], [ -1.0627009, 42.8862029 ], [ -1.0624933, 42.8862557 ], [ -1.0623837, 42.8862837 ], [ -1.0619818, 42.886386 ], [ -1.0613158, 42.8865374 ], [ -1.0604892, 42.8867344 ], [ -1.0601658, 42.8869191 ], [ -1.0600429, 42.8869812 ], [ -1.0598065, 42.8871004 ], [ -1.0596441, 42.8871788 ], [ -1.0592135, 42.8873876 ], [ -1.0589361, 42.8875224 ], [ -1.0588129, 42.8875699 ], [ -1.0587425, 42.8875945 ], [ -1.0587054, 42.8876074 ], [ -1.0586691, 42.8876153 ], [ -1.0586138, 42.8876216 ], [ -1.0584764, 42.8876373 ], [ -1.0582934, 42.8876387 ], [ -1.0581907, 42.8876431 ], [ -1.0581053, 42.8876563 ], [ -1.0580459, 42.88767 ], [ -1.0579927, 42.8876837 ], [ -1.0579494, 42.8876982 ], [ -1.0578928, 42.8877219 ], [ -1.0578477, 42.8877448 ], [ -1.0577572, 42.8877979 ], [ -1.057567, 42.887932 ], [ -1.0574406, 42.8880356 ], [ -1.0573652, 42.8880974 ], [ -1.0573148, 42.8881393 ], [ -1.0572572, 42.8881721 ], [ -1.0571887, 42.8882086 ], [ -1.057146, 42.8882282 ], [ -1.0570877, 42.8882553 ], [ -1.056994, 42.8882914 ], [ -1.0569051, 42.8883175 ], [ -1.0567962, 42.8883511 ], [ -1.0567245, 42.8883656 ], [ -1.0566108, 42.88838 ], [ -1.0565785, 42.8883846 ], [ -1.0565287, 42.8883877 ], [ -1.0563858, 42.8883796 ], [ -1.0560801, 42.8885106 ], [ -1.0559128, 42.8885027 ], [ -1.0550217, 42.8884611 ], [ -1.0541664, 42.8889587 ], [ -1.0539358, 42.8890881 ], [ -1.0536995, 42.8892254 ], [ -1.053581, 42.8892959 ], [ -1.0535119, 42.889328 ], [ -1.0534909, 42.8893378 ], [ -1.0533879, 42.889376 ], [ -1.0533561, 42.8893884 ], [ -1.053207, 42.8894337 ], [ -1.0531027, 42.8894634 ], [ -1.0529956, 42.8894869 ], [ -1.0528134, 42.8895148 ], [ -1.0527136, 42.8895238 ], [ -1.0526079, 42.8895254 ], [ -1.0525024, 42.8895218 ], [ -1.0524093, 42.8895124 ], [ -1.0523163, 42.8895001 ], [ -1.0521331, 42.889461 ], [ -1.0519882, 42.8894214 ], [ -1.051806, 42.8893715 ], [ -1.0514658, 42.8892616 ], [ -1.0512718, 42.8892004 ], [ -1.0511464, 42.8891712 ], [ -1.0510377, 42.8891491 ], [ -1.0509257, 42.8891326 ], [ -1.0508264, 42.8891275 ], [ -1.0505884, 42.8891268 ], [ -1.0504231, 42.8891245 ], [ -1.0501784, 42.8891187 ], [ -1.0497583, 42.8891408 ], [ -1.0494665, 42.8891707 ], [ -1.0492871, 42.8891812 ], [ -1.0491208, 42.8891862 ], [ -1.0489654, 42.889187 ], [ -1.0488223, 42.889189 ], [ -1.0485677, 42.8891796 ], [ -1.048422, 42.889163 ], [ -1.0483595, 42.8891552 ], [ -1.0482802, 42.8891449 ], [ -1.0482231, 42.8891371 ], [ -1.0481941, 42.8891333 ], [ -1.0480798, 42.8891172 ], [ -1.0479654, 42.8891057 ], [ -1.0478656, 42.88909 ], [ -1.0478101, 42.8890777 ], [ -1.0477419, 42.8890575 ], [ -1.0476018, 42.8890106 ], [ -1.0474535, 42.888954 ], [ -1.0472207, 42.8888617 ], [ -1.0470532, 42.8887862 ], [ -1.046931, 42.888729 ], [ -1.0468655, 42.8886941 ], [ -1.0467714, 42.8886435 ], [ -1.0466415, 42.8885676 ], [ -1.046549, 42.8885148 ], [ -1.0464726, 42.8884595 ], [ -1.0463819, 42.888378 ], [ -1.0461732, 42.8881988 ], [ -1.0460216, 42.8880809 ], [ -1.0459229, 42.8880072 ], [ -1.0458456, 42.8879575 ], [ -1.0457696, 42.8879173 ], [ -1.0456903, 42.8878839 ], [ -1.0455724, 42.8878357 ], [ -1.0454704, 42.887794 ], [ -1.0454056, 42.8877608 ], [ -1.0453236, 42.8877172 ], [ -1.0452741, 42.887686 ], [ -1.0452101, 42.88765 ], [ -1.0450992, 42.8875777 ], [ -1.0449633, 42.8874696 ], [ -1.0447126, 42.8872661 ], [ -1.0443158, 42.8869368 ], [ -1.0441844, 42.8868321 ], [ -1.0441302, 42.8867794 ], [ -1.0440731, 42.8867245 ], [ -1.0439761, 42.886644 ], [ -1.0438519, 42.8865529 ], [ -1.0436537, 42.8864336 ], [ -1.0432715, 42.8861986 ], [ -1.0430843, 42.8860918 ], [ -1.0429432, 42.8860298 ], [ -1.0428179, 42.885973 ], [ -1.0427033, 42.8859187 ], [ -1.0425407, 42.8858349 ], [ -1.0424553, 42.8857991 ], [ -1.0423598, 42.8857452 ], [ -1.0422593, 42.8856815 ], [ -1.042087, 42.8855632 ], [ -1.0418757, 42.8853969 ], [ -1.0418137, 42.8853497 ], [ -1.0415774, 42.8851729 ], [ -1.0410813, 42.8847924 ], [ -1.0406238, 42.8844503 ], [ -1.0401521, 42.8840972 ], [ -1.0398211, 42.8838433 ], [ -1.039783, 42.8838145 ], [ -1.0395852, 42.883801 ], [ -1.0395143, 42.8837919 ], [ -1.0393801, 42.8837744 ], [ -1.0392814, 42.8837513 ], [ -1.0392146, 42.8837355 ], [ -1.0390704, 42.8836965 ], [ -1.0389491, 42.8836595 ], [ -1.0388468, 42.8836257 ], [ -1.0387476, 42.8835925 ], [ -1.0386109, 42.8835355 ], [ -1.0386079, 42.8835338 ], [ -1.03847, 42.8834656 ], [ -1.038449, 42.8834551 ], [ -1.038173, 42.8833254 ], [ -1.0380554, 42.8832694 ], [ -1.0378262, 42.883158 ], [ -1.0377486, 42.88312 ], [ -1.0375693, 42.883032 ], [ -1.0372775, 42.882893 ], [ -1.0371169, 42.8828165 ], [ -1.0370364, 42.8827741 ], [ -1.0369248, 42.8826956 ], [ -1.0367082, 42.8825518 ], [ -1.0365766, 42.8824797 ], [ -1.0364062, 42.8824014 ], [ -1.0362598, 42.882333 ], [ -1.0360023, 42.8822245 ], [ -1.0356423, 42.8820906 ], [ -1.0354625, 42.8820177 ], [ -1.0353387, 42.8819891 ], [ -1.0352314, 42.8819681 ], [ -1.0351288, 42.8819478 ], [ -1.0349489, 42.8819244 ], [ -1.0345485, 42.8818804 ], [ -1.0341191, 42.8818364 ], [ -1.0340886, 42.8818331 ], [ -1.0339162, 42.8818155 ], [ -1.0337703, 42.8818057 ], [ -1.0333323, 42.8817182 ], [ -1.0332395, 42.8817015 ], [ -1.0331662, 42.8816957 ], [ -1.0330221, 42.8817034 ], [ -1.0329394, 42.8817042 ], [ -1.0329068, 42.8816935 ], [ -1.032873, 42.8816749 ], [ -1.0328339, 42.8816545 ], [ -1.0327889, 42.8816222 ], [ -1.0325991, 42.8814558 ], [ -1.0323556, 42.8812687 ], [ -1.0322016, 42.8811512 ], [ -1.0319984, 42.8809963 ], [ -1.0316702, 42.8807785 ], [ -1.0315526, 42.8806971 ], [ -1.0314924, 42.8806652 ], [ -1.0314458, 42.8806396 ], [ -1.0313922, 42.8806178 ], [ -1.0312439, 42.880563 ], [ -1.0311917, 42.8805435 ], [ -1.0311856, 42.8805417 ], [ -1.030772, 42.8804096 ], [ -1.0303062, 42.8802586 ], [ -1.0301078, 42.8801944 ], [ -1.0293902, 42.8799716 ], [ -1.0291207, 42.879878 ], [ -1.0290616, 42.8798596 ], [ -1.0289237, 42.8798167 ], [ -1.0288348, 42.879796 ], [ -1.0287718, 42.8797809 ], [ -1.0286987, 42.87977 ], [ -1.0286292, 42.8797649 ], [ -1.0285572, 42.8797665 ], [ -1.0282666, 42.8797845 ], [ -1.0280994, 42.8797968 ], [ -1.0280611, 42.8797996 ], [ -1.0278914, 42.8798163 ], [ -1.0278078, 42.8798205 ], [ -1.027713, 42.8798189 ], [ -1.0276152, 42.8798138 ], [ -1.0274971, 42.8797977 ], [ -1.0274522, 42.8797913 ], [ -1.0273064, 42.8797787 ], [ -1.0269741, 42.8797358 ], [ -1.0268461, 42.8797195 ], [ -1.0265915, 42.8796875 ], [ -1.0260875, 42.8796305 ], [ -1.0255361, 42.8795703 ], [ -1.0255432, 42.8794708 ], [ -1.0255531, 42.8793747 ], [ -1.0255497, 42.8793358 ], [ -1.0255382, 42.87929 ], [ -1.0255183, 42.8792649 ], [ -1.0254713, 42.8792281 ], [ -1.0252921, 42.879113 ], [ -1.0250634, 42.8789644 ], [ -1.0247676, 42.8787865 ], [ -1.0245418, 42.8786447 ], [ -1.0243009, 42.8784954 ], [ -1.0242453, 42.8784652 ], [ -1.024209, 42.8784505 ], [ -1.0241491, 42.878432 ], [ -1.0239194, 42.8783667 ], [ -1.0235826, 42.8782719 ], [ -1.0229875, 42.8780968 ], [ -1.0225023, 42.8779544 ], [ -1.0223127, 42.8779005 ], [ -1.0222741, 42.8778891 ], [ -1.0218876, 42.877578 ], [ -1.0214274, 42.8772059 ], [ -1.0210224, 42.876877 ], [ -1.0208547, 42.876712 ], [ -1.020733, 42.8765725 ], [ -1.0205999, 42.8764256 ], [ -1.0204827, 42.8762868 ], [ -1.0202605, 42.8760314 ], [ -1.0199337, 42.8756515 ], [ -1.0195316, 42.8751847 ], [ -1.0193823, 42.8750437 ], [ -1.0190715, 42.8747153 ], [ -1.0188908, 42.8745253 ], [ -1.0187725, 42.8744219 ], [ -1.0187569, 42.8744087 ], [ -1.0184528, 42.8741536 ], [ -1.0178443, 42.8744464 ], [ -1.0176646, 42.8740617 ], [ -1.0176324, 42.8739919 ], [ -1.0172859, 42.8732486 ], [ -1.0168156, 42.8722595 ], [ -1.0163274, 42.8712335 ], [ -1.0160545, 42.8706761 ], [ -1.0156525, 42.8709725 ], [ -1.014983, 42.8714483 ], [ -1.0142902, 42.8719372 ], [ -1.0135989, 42.8724255 ], [ -1.0128785, 42.8729364 ], [ -1.0121597, 42.8734479 ], [ -1.0120469, 42.8735275 ], [ -1.0116538, 42.8738325 ], [ -1.0116004, 42.8738737 ], [ -1.011275, 42.8741438 ], [ -1.0112018, 42.8742056 ], [ -1.010951, 42.8744157 ], [ -1.0106772, 42.8745983 ], [ -1.0104374, 42.8747286 ], [ -1.0101637, 42.8748871 ], [ -1.0100328, 42.8749366 ], [ -1.0098787, 42.8749941 ], [ -1.0098609, 42.8750484 ], [ -1.0097656, 42.8752263 ], [ -1.0097103, 42.8753266 ], [ -1.0096116, 42.8755185 ], [ -1.009546, 42.8756536 ], [ -1.0095116, 42.8757245 ], [ -1.0094518, 42.8758467 ], [ -1.0093482, 42.8760474 ], [ -1.0092303, 42.8762379 ], [ -1.0091315, 42.8764061 ], [ -1.0089882, 42.8766288 ], [ -1.0088798, 42.876785 ], [ -1.0087432, 42.8770111 ], [ -1.0086011, 42.8772208 ], [ -1.0084583, 42.8774474 ], [ -1.0083176, 42.8776582 ], [ -1.0082798, 42.8777156 ], [ -1.0082283, 42.877794 ], [ -1.0081889, 42.8778535 ], [ -1.0080783, 42.878034 ], [ -1.0079746, 42.8781869 ], [ -1.0078866, 42.8783295 ], [ -1.0077713, 42.8785109 ], [ -1.007624, 42.8787363 ], [ -1.0075373, 42.8788862 ], [ -1.0074887, 42.8789698 ], [ -1.0074798, 42.8789859 ], [ -1.0073416, 42.8791884 ], [ -1.0072527, 42.8793365 ], [ -1.0071906, 42.8794103 ], [ -1.0071246, 42.8794891 ], [ -1.0070879, 42.8795329 ], [ -1.0069663, 42.8796743 ], [ -1.0067864, 42.8799132 ], [ -1.006633, 42.8801159 ], [ -1.0065254, 42.8802716 ], [ -1.0063738, 42.8804654 ], [ -1.0062453, 42.8806528 ], [ -1.0061107, 42.8808407 ], [ -1.0059884, 42.8809995 ], [ -1.0058629, 42.8811684 ], [ -1.0057427, 42.881311 ], [ -1.0056832, 42.8813763 ], [ -1.005638, 42.8814251 ], [ -1.0055628, 42.8815037 ], [ -1.0054494, 42.8816272 ], [ -1.0052975, 42.881781 ], [ -1.0051723, 42.8819122 ], [ -1.0050571, 42.8820216 ], [ -1.0049365, 42.8821529 ], [ -1.0048225, 42.8822719 ], [ -1.004682, 42.8824282 ], [ -1.0045759, 42.8825361 ], [ -1.0044723, 42.8826423 ], [ -1.0044145, 42.8827015 ], [ -1.0043398, 42.88281 ], [ -1.0042221, 42.8829481 ], [ -1.0041005, 42.8831114 ], [ -1.0040357, 42.883197 ], [ -1.0038941, 42.883365 ], [ -1.0037839, 42.8835066 ], [ -1.0036841, 42.8836602 ], [ -1.0035429, 42.8838603 ], [ -1.0034522, 42.8839893 ], [ -1.0033213, 42.884135 ], [ -1.0031675, 42.8843226 ], [ -1.003058, 42.8844676 ], [ -1.0030349, 42.8844953 ], [ -1.0029975, 42.8845402 ], [ -1.0028612, 42.8847573 ], [ -1.0027686, 42.8849206 ], [ -1.0027043, 42.8850185 ], [ -1.0026431, 42.8851329 ], [ -1.0025977, 42.885212 ], [ -1.0025791, 42.8852443 ], [ -1.0025698, 42.8852706 ], [ -1.0025268, 42.8853942 ], [ -1.0024918, 42.8855287 ], [ -1.0024769, 42.8857321 ], [ -1.002448, 42.8859393 ], [ -1.0024347, 42.8861597 ], [ -1.0024038, 42.8863584 ], [ -1.002389, 42.8865337 ], [ -1.0023775, 42.8866269 ], [ -1.0023132, 42.8867699 ], [ -1.0022111, 42.8869459 ], [ -1.0020743, 42.8872469 ], [ -1.0019414, 42.8875248 ], [ -1.0018435, 42.8877359 ], [ -1.0017445, 42.8879576 ], [ -1.001618, 42.8881546 ], [ -1.0014845, 42.8883273 ], [ -1.0013359, 42.888498 ], [ -1.0012769, 42.8885955 ], [ -1.0011948, 42.8887426 ], [ -1.001063, 42.8889615 ], [ -1.0010006, 42.889069 ], [ -1.0009396, 42.8891547 ], [ -1.0008614, 42.8892287 ], [ -1.000771, 42.8893059 ], [ -1.0007238, 42.8893664 ], [ -1.0007094, 42.8894579 ], [ -1.0006837, 42.8896606 ], [ -1.0006952, 42.889851 ], [ -1.0006855, 42.8899589 ], [ -1.0006681, 42.8900239 ], [ -1.0006351, 42.8900982 ], [ -1.0005989, 42.8901527 ], [ -1.0005188, 42.8902408 ], [ -1.0004052, 42.8903446 ], [ -1.0002301, 42.89048 ], [ -1.0001338, 42.8905723 ], [ -1.0000848, 42.8906671 ], [ -1.0000234, 42.8908124 ], [ -0.9999637, 42.8909791 ], [ -0.9999278, 42.8912142 ], [ -0.9998997, 42.8913241 ], [ -0.999862, 42.8914016 ], [ -0.9997888, 42.8914645 ], [ -0.9997023, 42.8915362 ], [ -0.9994886, 42.8916821 ], [ -0.9993488, 42.8917686 ], [ -0.999277, 42.8918118 ], [ -0.9991874, 42.8919087 ], [ -0.9991031, 42.8920536 ], [ -0.9990465, 42.8921927 ], [ -0.9990135, 42.8922456 ], [ -0.9989118, 42.8923344 ], [ -0.9987732, 42.8924299 ], [ -0.9987107, 42.892493 ], [ -0.9986591, 42.892599 ], [ -0.9986222, 42.8927233 ], [ -0.9986056, 42.8929499 ], [ -0.9985815, 42.89308 ], [ -0.9985362, 42.8931805 ], [ -0.9984893, 42.8932799 ], [ -0.9984208, 42.8934829 ], [ -0.9983427, 42.8936718 ], [ -0.9982919, 42.8937503 ], [ -0.9981799, 42.893902 ], [ -0.9980879, 42.8940005 ], [ -0.9980593, 42.8940316 ], [ -0.998045, 42.8940471 ], [ -0.9980351, 42.8941408 ], [ -0.9980007, 42.8942584 ], [ -0.9979796, 42.8943177 ], [ -0.9979814, 42.8943819 ], [ -0.9980263, 42.8944379 ], [ -0.9980845, 42.8944828 ], [ -0.9981279, 42.8945364 ], [ -0.9981663, 42.8946272 ], [ -0.9981843, 42.8947333 ], [ -0.9981751, 42.8948271 ], [ -0.9981513, 42.894901 ], [ -0.9980966, 42.8949856 ], [ -0.9980651, 42.8950599 ], [ -0.9980662, 42.8951662 ], [ -0.998066, 42.8951719 ], [ -0.9980656, 42.8952096 ], [ -0.9980651, 42.8953193 ], [ -0.9980905, 42.8955263 ], [ -0.9981334, 42.895715 ], [ -0.998195, 42.8958917 ], [ -0.9982455, 42.8959629 ], [ -0.9982937, 42.8960116 ], [ -0.9983811, 42.8960554 ], [ -0.9985291, 42.8961187 ], [ -0.9987137, 42.8961619 ], [ -0.9989038, 42.8962226 ], [ -0.9991462, 42.8963248 ], [ -0.9993012, 42.8964333 ], [ -0.9994237, 42.8965497 ], [ -0.9995976, 42.8967587 ], [ -0.9997282, 42.8969575 ], [ -0.9999094, 42.8972021 ], [ -1.0001, 42.8974828 ], [ -1.0001987, 42.8976517 ], [ -1.0002288, 42.89774 ], [ -1.0001573, 42.8977939 ], [ -1.0001061, 42.8978386 ], [ -0.9999924, 42.8979244 ], [ -0.9999336, 42.8979909 ], [ -0.9998873, 42.8980723 ], [ -0.9998306, 42.8982165 ], [ -0.9998058, 42.8982724 ], [ -0.9998007, 42.8983353 ], [ -0.9998057, 42.8983697 ], [ -0.9998249, 42.8984162 ], [ -0.9998731, 42.8985352 ], [ -0.999911, 42.8986164 ], [ -0.9999342, 42.8987513 ], [ -0.9999525, 42.8988005 ], [ -0.9999616, 42.898826 ], [ -0.9999785, 42.8988714 ], [ -1.0000161, 42.898966 ], [ -1.0000444, 42.8990622 ], [ -1.0000756, 42.8991618 ], [ -1.0001023, 42.8992596 ], [ -1.0001217, 42.8993455 ], [ -1.000139, 42.8994269 ], [ -1.0001391, 42.899518 ], [ -1.0001771, 42.8996442 ], [ -1.0001958, 42.8997537 ], [ -1.0002147, 42.8998294 ], [ -1.0002646, 42.8999204 ], [ -1.0002931, 42.8999867 ], [ -1.0003335, 42.9000611 ], [ -1.0003897, 42.9001707 ], [ -1.0004402, 42.9002679 ], [ -1.0004588, 42.9003307 ], [ -1.0004903, 42.9003959 ], [ -1.0005417, 42.9004886 ], [ -1.0005901, 42.9005789 ], [ -1.0006526, 42.9007032 ], [ -1.0007164, 42.9008141 ], [ -1.0007417, 42.9008838 ], [ -1.0007671, 42.9009523 ], [ -1.000828, 42.9010564 ], [ -1.000864, 42.9011251 ], [ -1.0008887, 42.901215 ], [ -1.0009037, 42.9013205 ], [ -1.000933, 42.9014313 ], [ -1.0009425, 42.9015148 ], [ -1.0009462, 42.9016156 ], [ -1.0009561, 42.9016872 ], [ -1.0009776, 42.9017799 ], [ -1.001009, 42.9018998 ], [ -1.0010333, 42.9019992 ], [ -1.0010455, 42.902094 ], [ -1.0010566, 42.9021775 ], [ -1.0010802, 42.902277 ], [ -1.001096, 42.9023318 ], [ -1.0011417, 42.9024109 ], [ -1.0011771, 42.9024762 ], [ -1.0012492, 42.90259 ], [ -1.0013305, 42.9027282 ], [ -1.001404, 42.9028921 ], [ -1.0014729, 42.9030109 ], [ -1.0015232, 42.9031126 ], [ -1.0015767, 42.9032587 ], [ -1.0016044, 42.9033262 ], [ -1.0016559, 42.9034346 ], [ -1.0016709, 42.9035401 ], [ -1.0017082, 42.9036403 ], [ -1.0017596, 42.9037352 ], [ -1.0018005, 42.9038175 ], [ -1.001874, 42.9039589 ], [ -1.0019151, 42.9040632 ], [ -1.0019239, 42.9041202 ], [ -1.0019061, 42.9041981 ], [ -1.0018878, 42.9042682 ], [ -1.0018703, 42.9043573 ], [ -1.001885, 42.9044257 ], [ -1.0019038, 42.9045071 ], [ -1.001935, 42.9045824 ], [ -1.0019681, 42.9046483 ], [ -1.0020089, 42.9047138 ], [ -1.0020415, 42.9047948 ], [ -1.0020369, 42.9048887 ], [ -1.0020202, 42.9049559 ], [ -1.0019943, 42.9050444 ], [ -1.00198, 42.9051095 ], [ -1.0019773, 42.9051702 ], [ -1.0020072, 42.9052399 ], [ -1.002037, 42.9052866 ], [ -1.0020692, 42.9053328 ], [ -1.0021125, 42.9055086 ], [ -1.0027736, 42.9055218 ], [ -1.0029872, 42.9054968 ], [ -1.0030497, 42.9054827 ], [ -1.0030855, 42.9054625 ], [ -1.0031011, 42.9054532 ], [ -1.0033005, 42.9053481 ], [ -1.0035318, 42.9052035 ], [ -1.0036372, 42.9051395 ], [ -1.0037104, 42.9051008 ], [ -1.003754, 42.9050813 ], [ -1.0037981, 42.9050641 ], [ -1.0038197, 42.9050594 ], [ -1.0038522, 42.9050482 ], [ -1.0038739, 42.9050412 ], [ -1.0038985, 42.9050366 ], [ -1.0039146, 42.9050363 ], [ -1.0039344, 42.90504 ], [ -1.0039686, 42.9050479 ], [ -1.0044736, 42.9051524 ], [ -1.0052166, 42.9053297 ], [ -1.0056135, 42.9054379 ], [ -1.0060108, 42.905531 ], [ -1.0063221, 42.905614 ], [ -1.0066605, 42.9057089 ], [ -1.006913, 42.9057814 ], [ -1.0070889, 42.9058362 ], [ -1.0072741, 42.9058839 ], [ -1.0074842, 42.9059247 ], [ -1.0076791, 42.9059579 ], [ -1.0077788, 42.9059737 ], [ -1.0079092, 42.9059906 ], [ -1.0083485, 42.9060197 ], [ -1.0086978, 42.9060348 ], [ -1.0089387, 42.9060446 ], [ -1.0092577, 42.9060541 ], [ -1.0094562, 42.9060705 ], [ -1.0096566, 42.9060981 ], [ -1.0097684, 42.906122 ], [ -1.009867, 42.9061519 ], [ -1.0099807, 42.906186 ], [ -1.0100897, 42.9062244 ], [ -1.0105061, 42.9067483 ], [ -1.0106406, 42.906924 ], [ -1.0107578, 42.9070887 ], [ -1.0108671, 42.9072369 ], [ -1.0109925, 42.9073854 ], [ -1.0111313, 42.907519 ], [ -1.011276, 42.9076391 ], [ -1.0115003, 42.907831 ], [ -1.0115695, 42.9078901 ], [ -1.0133072, 42.9084482 ], [ -1.0133761, 42.9084702 ], [ -1.0141323, 42.908713 ], [ -1.0151049, 42.9067027 ], [ -1.0172994, 42.9072658 ], [ -1.0189934, 42.9077527 ], [ -1.0190494, 42.9077723 ], [ -1.0190941, 42.907786 ], [ -1.0191458, 42.9077987 ], [ -1.0192067, 42.9078116 ], [ -1.0192752, 42.9078235 ], [ -1.019892, 42.9078797 ], [ -1.020546, 42.9079918 ], [ -1.0208015, 42.9080463 ], [ -1.0209381, 42.9080841 ], [ -1.0210244, 42.9081132 ], [ -1.0211132, 42.9081384 ], [ -1.0212293, 42.9081702 ], [ -1.0214888, 42.908245 ], [ -1.021547, 42.9082697 ], [ -1.021601, 42.9083021 ], [ -1.0216418, 42.9083451 ], [ -1.0216764, 42.9084104 ], [ -1.0217884, 42.9087381 ], [ -1.0218046, 42.9087812 ], [ -1.02183, 42.908852 ], [ -1.0218878, 42.9089577 ], [ -1.0219559, 42.9090551 ], [ -1.0220804, 42.9092311 ], [ -1.0224476, 42.9090985 ], [ -1.0226086, 42.9090439 ], [ -1.022771, 42.908991 ], [ -1.0228599, 42.9089649 ], [ -1.0229632, 42.9089448 ], [ -1.0231255, 42.9089206 ], [ -1.0233731, 42.9088866 ], [ -1.0241789, 42.9080839 ], [ -1.0247193, 42.9081821 ], [ -1.0247754, 42.9082005 ], [ -1.024828, 42.9082318 ], [ -1.0248606, 42.9082656 ], [ -1.0249003, 42.9083192 ], [ -1.024955, 42.9084023 ], [ -1.025047, 42.9085198 ], [ -1.0251326, 42.9086204 ], [ -1.0251876, 42.9086934 ], [ -1.0252413, 42.9087635 ], [ -1.0252457, 42.9087698 ], [ -1.025313, 42.9088666 ], [ -1.0253697, 42.9089604 ], [ -1.0254336, 42.9090713 ], [ -1.0254736, 42.9091361 ], [ -1.025519, 42.9091988 ], [ -1.0255633, 42.9092536 ], [ -1.0256302, 42.9093139 ], [ -1.0257259, 42.9093876 ], [ -1.0259453, 42.9095399 ], [ -1.0261997, 42.9097025 ], [ -1.026494, 42.9098826 ], [ -1.0266856, 42.9099984 ], [ -1.0268728, 42.9101058 ], [ -1.0270156, 42.9101904 ], [ -1.0271772, 42.910286 ], [ -1.0273493, 42.9103864 ], [ -1.0274912, 42.9104738 ], [ -1.0276083, 42.9105445 ], [ -1.0277592, 42.9106383 ], [ -1.0279656, 42.9107679 ], [ -1.028199, 42.9109177 ], [ -1.0284127, 42.9110581 ], [ -1.0286894, 42.9112413 ], [ -1.0294194, 42.9109888 ], [ -1.0296585, 42.9109113 ], [ -1.0298947, 42.9108282 ], [ -1.0300781, 42.910766 ], [ -1.0302931, 42.9106977 ], [ -1.0304493, 42.9106509 ], [ -1.0306009, 42.9106028 ], [ -1.0307168, 42.9105694 ], [ -1.0307986, 42.9105488 ], [ -1.0309103, 42.910526 ], [ -1.0309958, 42.9105106 ], [ -1.031149, 42.9104862 ], [ -1.0313975, 42.9104482 ], [ -1.0316529, 42.910411 ], [ -1.0319197, 42.9103762 ], [ -1.0320995, 42.910354 ], [ -1.0321709, 42.9103479 ], [ -1.0323067, 42.910339 ], [ -1.0324462, 42.9103329 ], [ -1.0326388, 42.910321 ], [ -1.0327109, 42.9103167 ], [ -1.0328214, 42.9103095 ], [ -1.0328497, 42.9103078 ], [ -1.0328597, 42.9103074 ], [ -1.0329587, 42.9103001 ], [ -1.0329656, 42.9102996 ], [ -1.0330861, 42.9102916 ], [ -1.0331622, 42.9102833 ], [ -1.033232, 42.9102761 ], [ -1.0333035, 42.9102683 ], [ -1.0333089, 42.9102678 ], [ -1.0333991, 42.9102964 ], [ -1.0335908, 42.9103571 ], [ -1.033653, 42.9103768 ], [ -1.0342548, 42.9105678 ], [ -1.0348079, 42.9107506 ], [ -1.036048, 42.9110004 ], [ -1.0363671, 42.9110757 ], [ -1.0368384, 42.9111839 ], [ -1.0382653, 42.9115314 ], [ -1.038483, 42.9113056 ], [ -1.038702, 42.9110634 ], [ -1.038918, 42.9108425 ], [ -1.0393357, 42.910467 ], [ -1.0397072, 42.9101255 ], [ -1.0398572, 42.9099807 ], [ -1.0399311, 42.9099206 ], [ -1.0400617, 42.9098103 ], [ -1.0402781, 42.9096485 ], [ -1.0403664, 42.9095921 ], [ -1.0405263, 42.9095008 ], [ -1.0406661, 42.9094143 ], [ -1.0407598, 42.9093568 ], [ -1.0407871, 42.9093415 ], [ -1.040826, 42.9093219 ], [ -1.040889, 42.9092909 ], [ -1.0409543, 42.9092588 ], [ -1.0410125, 42.9092328 ], [ -1.0410622, 42.9092117 ], [ -1.0411102, 42.9091934 ], [ -1.0411551, 42.909179 ], [ -1.0411952, 42.9091701 ], [ -1.0412391, 42.9091624 ], [ -1.0412921, 42.9091582 ], [ -1.041355, 42.9091531 ], [ -1.0434378, 42.9089732 ], [ -1.0441084, 42.9089036 ], [ -1.0443842, 42.9088735 ], [ -1.0450251, 42.9087747 ], [ -1.0450927, 42.9078456 ], [ -1.045184, 42.9068735 ], [ -1.0451884, 42.9068308 ], [ -1.0458666, 42.9065199 ], [ -1.045946, 42.906017 ], [ -1.0460244, 42.9057893 ], [ -1.0460379, 42.9057507 ], [ -1.0461371, 42.9056392 ], [ -1.0462162, 42.9055595 ], [ -1.046278, 42.9054947 ], [ -1.046391, 42.9053836 ], [ -1.0465203, 42.9052648 ], [ -1.0465785, 42.9052151 ], [ -1.0466439, 42.9051571 ], [ -1.046695, 42.905113 ], [ -1.0467564, 42.9050617 ], [ -1.0468505, 42.9049896 ], [ -1.0469406, 42.9049247 ], [ -1.047089, 42.9048321 ], [ -1.0472588, 42.9047405 ], [ -1.047342, 42.904698 ], [ -1.047434, 42.9046461 ], [ -1.0475127, 42.9046019 ], [ -1.0476022, 42.9045567 ], [ -1.047638, 42.9045376 ], [ -1.0477196, 42.9044979 ], [ -1.0478037, 42.9044532 ], [ -1.0478981, 42.9043979 ], [ -1.0479887, 42.9043421 ], [ -1.0480435, 42.9043042 ], [ -1.0481008, 42.9042596 ], [ -1.0481495, 42.904221 ], [ -1.0482014, 42.9041752 ], [ -1.0482472, 42.9041327 ], [ -1.0482925, 42.9040805 ], [ -1.0483359, 42.9040368 ], [ -1.0483842, 42.9039886 ], [ -1.0484364, 42.903935 ], [ -1.048495, 42.9038729 ], [ -1.0485386, 42.9038247 ], [ -1.0485767, 42.903782 ], [ -1.0486102, 42.9037387 ], [ -1.0486375, 42.9036997 ], [ -1.0486721, 42.9036458 ], [ -1.0487052, 42.9035912 ], [ -1.0487355, 42.9035292 ], [ -1.0487816, 42.9034281 ], [ -1.0488567, 42.903206 ], [ -1.0489123, 42.9029492 ], [ -1.0489271, 42.9028909 ], [ -1.048941, 42.902841 ], [ -1.0489536, 42.9028036 ], [ -1.048976, 42.9027477 ], [ -1.0489942, 42.9027069 ], [ -1.0490098, 42.9026734 ], [ -1.0490332, 42.9026361 ], [ -1.0490619, 42.9026005 ], [ -1.049264, 42.9023817 ], [ -1.0494041, 42.9022091 ], [ -1.049476, 42.9021163 ], [ -1.0495483, 42.902032 ], [ -1.0496033, 42.901962 ], [ -1.0496419, 42.9019064 ], [ -1.0496669, 42.9018635 ], [ -1.0496872, 42.9018272 ], [ -1.049702, 42.9017965 ], [ -1.0497167, 42.9017636 ], [ -1.0497359, 42.9017161 ], [ -1.04977, 42.9016047 ], [ -1.0497861, 42.9015571 ], [ -1.0498117, 42.9014979 ], [ -1.0498282, 42.9014593 ], [ -1.0498536, 42.9014069 ], [ -1.0498824, 42.9013409 ], [ -1.049906, 42.9012963 ], [ -1.0499366, 42.9012496 ], [ -1.0499929, 42.9011875 ], [ -1.0500198, 42.9011598 ], [ -1.050056, 42.9011272 ], [ -1.0500892, 42.9010963 ], [ -1.0501362, 42.9010616 ], [ -1.0501991, 42.9010104 ], [ -1.0502603, 42.9009641 ], [ -1.0502986, 42.9009355 ], [ -1.0503314, 42.9009153 ], [ -1.0503752, 42.9008884 ], [ -1.0504268, 42.9008544 ], [ -1.0504821, 42.9008216 ], [ -1.0505397, 42.900791 ], [ -1.0505934, 42.9007661 ], [ -1.0506556, 42.9007356 ], [ -1.0507278, 42.900702 ], [ -1.0508257, 42.9006569 ], [ -1.0509334, 42.9006137 ], [ -1.0510179, 42.9005836 ], [ -1.0511501, 42.9005414 ], [ -1.0512676, 42.9005057 ], [ -1.0513768, 42.9004665 ], [ -1.0515146, 42.9004148 ], [ -1.0517005, 42.9003476 ], [ -1.0517911, 42.9003148 ], [ -1.0519095, 42.9002735 ], [ -1.052035, 42.9002262 ], [ -1.0521334, 42.9001879 ], [ -1.0522428, 42.9001419 ], [ -1.0524889, 42.9000335 ], [ -1.0527419, 42.8999224 ], [ -1.0529335, 42.8998424 ], [ -1.0531427, 42.8997649 ], [ -1.0532612, 42.8997191 ], [ -1.0533619, 42.8996831 ], [ -1.0534896, 42.8996391 ], [ -1.0534934, 42.8996381 ], [ -1.0537744, 42.8995658 ], [ -1.0543775, 42.9002238 ], [ -1.0546298, 42.9004791 ], [ -1.0546729, 42.9005192 ], [ -1.0546929, 42.9005398 ], [ -1.0547153, 42.9005582 ], [ -1.0547377, 42.9005749 ], [ -1.0547512, 42.9005847 ], [ -1.054773, 42.9005986 ], [ -1.054794, 42.9006102 ], [ -1.0548069, 42.9006161 ], [ -1.0548394, 42.9006278 ], [ -1.0548736, 42.900638 ], [ -1.0549214, 42.9006501 ], [ -1.055717, 42.9007632 ], [ -1.0558024, 42.9007754 ], [ -1.055807, 42.900776 ], [ -1.0562642, 42.9008412 ], [ -1.0564371, 42.9008205 ], [ -1.0564809, 42.9008151 ], [ -1.0566198, 42.9011461 ], [ -1.0567192, 42.9013672 ], [ -1.0568194, 42.901589 ], [ -1.0569517, 42.9018389 ], [ -1.0570571, 42.9020393 ], [ -1.0571436, 42.902186 ], [ -1.0572151, 42.9022987 ], [ -1.057269, 42.9023868 ], [ -1.0573132, 42.902441 ], [ -1.0573605, 42.9024936 ], [ -1.0573977, 42.9025291 ], [ -1.0574297, 42.9025589 ], [ -1.0574497, 42.9025801 ], [ -1.0574728, 42.9026008 ], [ -1.0575048, 42.9026277 ], [ -1.0575391, 42.902657 ], [ -1.0575795, 42.9026881 ], [ -1.0576087, 42.9027089 ], [ -1.0576445, 42.902741 ], [ -1.0576622, 42.9027604 ], [ -1.0576935, 42.9027891 ], [ -1.0577237, 42.9028262 ], [ -1.0577688, 42.9028754 ], [ -1.0578102, 42.9029234 ], [ -1.0579188, 42.9030479 ], [ -1.058404, 42.9036139 ], [ -1.0584517, 42.9036552 ], [ -1.0584703, 42.9036712 ], [ -1.0584853, 42.9036816 ], [ -1.058501, 42.9036943 ], [ -1.0585137, 42.9037029 ], [ -1.0585468, 42.903721 ], [ -1.0585672, 42.9037303 ], [ -1.0585922, 42.9037403 ], [ -1.0586103, 42.9037473 ], [ -1.0586346, 42.9037539 ], [ -1.0586566, 42.9037605 ], [ -1.0586816, 42.9037671 ], [ -1.0587068, 42.9037721 ], [ -1.0587471, 42.9037801 ], [ -1.0587769, 42.9037828 ], [ -1.0588128, 42.9037851 ], [ -1.0588747, 42.9037879 ], [ -1.0589473, 42.9037908 ], [ -1.0590644, 42.9037916 ], [ -1.0591976, 42.9038395 ], [ -1.0592279, 42.9038507 ], [ -1.0593732, 42.9039044 ], [ -1.0594368, 42.9039263 ], [ -1.0595434, 42.9039714 ], [ -1.0596709, 42.9040299 ], [ -1.0597493, 42.9040678 ], [ -1.0598528, 42.9041151 ], [ -1.059913, 42.9041459 ], [ -1.0600341, 42.9042156 ], [ -1.0602192, 42.9043183 ], [ -1.0603261, 42.9043753 ], [ -1.060436, 42.904434 ], [ -1.0607529, 42.9045834 ], [ -1.0609787, 42.9046818 ], [ -1.0611743, 42.9047673 ], [ -1.0613736, 42.9048579 ], [ -1.0614451, 42.904894 ], [ -1.0615333, 42.90494 ], [ -1.0616132, 42.9049785 ], [ -1.0617141, 42.9050337 ], [ -1.0618548, 42.905112 ], [ -1.0619555, 42.9051733 ], [ -1.0621035, 42.905262 ], [ -1.0625142, 42.9055194 ], [ -1.06334, 42.9060911 ] ] ] } }
]
}
