{
"type": "FeatureCollection",
"name": "31127",
"features": [
{ "type": "Feature", "properties": { "CCAA": "15 - Comunidad Foral de Navarra", "PROVINCIA": "31 - Navarra", "MUNICIPIO": "31127 - Irañeta", "COD_MUNICIPIO": "31127", "DISTRITO": "01", "SECCION": "3112701001", "V1_H": 82.19, "V1_M": 87.25, "V2_H": 81.84285612, "V2_M": 87.14223952, "V3_H": 82.56554756, "V3_M": 87.46692958 }, "geometry": { "type": "Polygon", "coordinates": [ [ [ -1.9175893, 42.9377583 ], [ -1.9180278, 42.9377816 ], [ -1.918089, 42.9377873 ], [ -1.9181501, 42.9377924 ], [ -1.9182106, 42.9377969 ], [ -1.9182717, 42.9378008 ], [ -1.918333, 42.9378048 ], [ -1.9183942, 42.9378076 ], [ -1.9184225, 42.937809 ], [ -1.9184838, 42.9378102 ], [ -1.9185451, 42.9378101 ], [ -1.9186064, 42.9378096 ], [ -1.9186676, 42.9378096 ], [ -1.9187289, 42.9378108 ], [ -1.9187901, 42.9378142 ], [ -1.9187963, 42.9378147 ], [ -1.9188566, 42.9378221 ], [ -1.9189162, 42.9378322 ], [ -1.9189758, 42.9378441 ], [ -1.9190353, 42.9378536 ], [ -1.9190666, 42.9378579 ], [ -1.9191362, 42.9378647 ], [ -1.9192028, 42.9378704 ], [ -1.9192663, 42.9378744 ], [ -1.9193267, 42.9378778 ], [ -1.9193842, 42.9378794 ], [ -1.9194393, 42.93788 ], [ -1.91947, 42.9378797 ], [ -1.9196299, 42.9378868 ], [ -1.9196437, 42.9378875 ], [ -1.9196965, 42.9378897 ], [ -1.9197524, 42.9378925 ], [ -1.9198106, 42.9378941 ], [ -1.9198726, 42.9378964 ], [ -1.9199369, 42.9378982 ], [ -1.9200043, 42.9378994 ], [ -1.9200747, 42.9379006 ], [ -1.9201314, 42.9379017 ], [ -1.9201927, 42.9379017 ], [ -1.920254, 42.9379017 ], [ -1.9203152, 42.9379012 ], [ -1.9203765, 42.9379006 ], [ -1.9204378, 42.9379006 ], [ -1.9204991, 42.9379001 ], [ -1.9205604, 42.9379001 ], [ -1.9206217, 42.9379007 ], [ -1.920683, 42.9379013 ], [ -1.9207419, 42.9379029 ], [ -1.9208024, 42.9379046 ], [ -1.9208637, 42.9379063 ], [ -1.9209249, 42.9379086 ], [ -1.9209861, 42.9379109 ], [ -1.9210474, 42.9379131 ], [ -1.9211086, 42.937916 ], [ -1.9211698, 42.9379183 ], [ -1.9212311, 42.9379211 ], [ -1.9212923, 42.9379239 ], [ -1.9213535, 42.9379261 ], [ -1.9214148, 42.937929 ], [ -1.921476, 42.9379312 ], [ -1.9215281, 42.9379329 ], [ -1.9215893, 42.9379352 ], [ -1.9216506, 42.9379368 ], [ -1.9217118, 42.937938 ], [ -1.9217731, 42.9379397 ], [ -1.9218343, 42.9379414 ], [ -1.9218956, 42.9379431 ], [ -1.9219568, 42.9379454 ], [ -1.9220181, 42.9379476 ], [ -1.9220793, 42.9379504 ], [ -1.9221405, 42.9379538 ], [ -1.9222017, 42.9379578 ], [ -1.9222209, 42.9379591 ], [ -1.9222813, 42.9379642 ], [ -1.9223425, 42.9379698 ], [ -1.9224029, 42.937976 ], [ -1.9224633, 42.9379822 ], [ -1.9225244, 42.9379895 ], [ -1.9225848, 42.9379963 ], [ -1.9226452, 42.938003 ], [ -1.9227056, 42.9380098 ], [ -1.9227668, 42.9380166 ], [ -1.9228272, 42.9380227 ], [ -1.9228822, 42.9380278 ], [ -1.9229427, 42.938034 ], [ -1.9230039, 42.9380396 ], [ -1.9230642, 42.9380458 ], [ -1.9231246, 42.9380515 ], [ -1.9231859, 42.9380565 ], [ -1.9232471, 42.9380622 ], [ -1.9233075, 42.9380667 ], [ -1.9233687, 42.9380712 ], [ -1.9234299, 42.9380752 ], [ -1.9234889, 42.9380774 ], [ -1.9235501, 42.9380797 ], [ -1.9236113, 42.9380808 ], [ -1.9236726, 42.9380814 ], [ -1.9237339, 42.938082 ], [ -1.9237951, 42.9380826 ], [ -1.9238564, 42.9380842 ], [ -1.9239177, 42.9380865 ], [ -1.9239789, 42.9380899 ], [ -1.9239942, 42.9380906 ], [ -1.9240546, 42.9380957 ], [ -1.9241158, 42.9381025 ], [ -1.9241762, 42.9381092 ], [ -1.9242365, 42.9381171 ], [ -1.9242969, 42.938125 ], [ -1.9243573, 42.9381328 ], [ -1.9244177, 42.9381402 ], [ -1.9244781, 42.9381469 ], [ -1.9245393, 42.9381526 ], [ -1.9246005, 42.9381565 ], [ -1.924641, 42.9381591 ], [ -1.9247023, 42.938162 ], [ -1.9247635, 42.9381637 ], [ -1.9248247, 42.9381654 ], [ -1.924886, 42.9381665 ], [ -1.9249473, 42.9381671 ], [ -1.9250086, 42.9381671 ], [ -1.9250698, 42.9381671 ], [ -1.9251311, 42.9381671 ], [ -1.9251924, 42.9381666 ], [ -1.9252537, 42.938166 ], [ -1.925315, 42.9381655 ], [ -1.9253763, 42.938165 ], [ -1.9254376, 42.9381644 ], [ -1.9254429, 42.9381644 ], [ -1.9255042, 42.9381639 ], [ -1.9255656, 42.9381633 ], [ -1.9256268, 42.9381628 ], [ -1.9256874, 42.9381617 ], [ -1.9257487, 42.9381605 ], [ -1.9258099, 42.9381594 ], [ -1.9258713, 42.9381578 ], [ -1.9259326, 42.9381567 ], [ -1.9259939, 42.938155 ], [ -1.9260552, 42.9381533 ], [ -1.9261165, 42.9381522 ], [ -1.9261778, 42.9381505 ], [ -1.9262391, 42.9381494 ], [ -1.9263004, 42.9381477 ], [ -1.9263617, 42.9381466 ], [ -1.9263962, 42.9381458 ], [ -1.9264575, 42.9381447 ], [ -1.9265188, 42.938143 ], [ -1.9265801, 42.9381419 ], [ -1.9266414, 42.9381402 ], [ -1.9267027, 42.9381386 ], [ -1.926764, 42.9381369 ], [ -1.9268253, 42.9381352 ], [ -1.9268867, 42.9381335 ], [ -1.926948, 42.9381324 ], [ -1.9270093, 42.9381307 ], [ -1.9270706, 42.9381296 ], [ -1.9271319, 42.9381285 ], [ -1.9271924, 42.9381274 ], [ -1.9272537, 42.9381268 ], [ -1.927315, 42.9381263 ], [ -1.9273763, 42.9381257 ], [ -1.9274376, 42.9381258 ], [ -1.9274858, 42.9381262 ], [ -1.9275471, 42.9381268 ], [ -1.9276084, 42.9381279 ], [ -1.9276696, 42.9381296 ], [ -1.9277308, 42.9381313 ], [ -1.9277921, 42.938133 ], [ -1.9278533, 42.9381353 ], [ -1.9279146, 42.938137 ], [ -1.9279759, 42.9381387 ], [ -1.9280371, 42.9381404 ], [ -1.9280983, 42.9381421 ], [ -1.9281596, 42.9381432 ], [ -1.9282209, 42.9381444 ], [ -1.9282729, 42.9381448 ], [ -1.9283342, 42.9381448 ], [ -1.9283955, 42.9381449 ], [ -1.9284568, 42.9381455 ], [ -1.9285181, 42.9381449 ], [ -1.9285794, 42.9381449 ], [ -1.9286406, 42.9381449 ], [ -1.9287019, 42.9381444 ], [ -1.9287632, 42.9381438 ], [ -1.9288245, 42.9381433 ], [ -1.9288858, 42.9381427 ], [ -1.9289471, 42.9381421 ], [ -1.9290084, 42.9381416 ], [ -1.9290697, 42.9381405 ], [ -1.929131, 42.9381399 ], [ -1.9291877, 42.9381394 ], [ -1.929249, 42.9381388 ], [ -1.9293103, 42.9381382 ], [ -1.9293715, 42.9381371 ], [ -1.9294328, 42.9381366 ], [ -1.9294942, 42.9381355 ], [ -1.9295554, 42.9381349 ], [ -1.9296167, 42.9381338 ], [ -1.929678, 42.9381327 ], [ -1.9297394, 42.938131 ], [ -1.9298006, 42.9381299 ], [ -1.929862, 42.9381282 ], [ -1.9299233, 42.9381265 ], [ -1.9299807, 42.9381242 ], [ -1.9300421, 42.938122 ], [ -1.9301034, 42.9381198 ], [ -1.9301647, 42.9381169 ], [ -1.9302253, 42.9381147 ], [ -1.9302866, 42.9381119 ], [ -1.930348, 42.9381085 ], [ -1.9304093, 42.9381058 ], [ -1.9304706, 42.9381029 ], [ -1.9305312, 42.9380996 ], [ -1.9305925, 42.9380967 ], [ -1.9306538, 42.9380939 ], [ -1.9307152, 42.9380912 ], [ -1.9307757, 42.9380883 ], [ -1.9308371, 42.9380856 ], [ -1.9308876, 42.9380832 ], [ -1.930949, 42.938081 ], [ -1.9310103, 42.9380793 ], [ -1.9310716, 42.938077 ], [ -1.9311322, 42.9380754 ], [ -1.9311935, 42.9380731 ], [ -1.9312548, 42.9380709 ], [ -1.9313161, 42.9380686 ], [ -1.9313775, 42.9380664 ], [ -1.9314388, 42.9380636 ], [ -1.9314993, 42.9380608 ], [ -1.9315606, 42.9380574 ], [ -1.931622, 42.9380535 ], [ -1.9316504, 42.9380515 ], [ -1.9317117, 42.938047 ], [ -1.9317724, 42.9380425 ], [ -1.9318337, 42.938038 ], [ -1.9318943, 42.9380324 ], [ -1.9319557, 42.9380273 ], [ -1.9320163, 42.9380211 ], [ -1.932077, 42.938015 ], [ -1.9321376, 42.9380076 ], [ -1.9321974, 42.9380003 ], [ -1.9322581, 42.9379919 ], [ -1.932295, 42.9379866 ], [ -1.9323549, 42.937977 ], [ -1.932414, 42.9379663 ], [ -1.932474, 42.9379551 ], [ -1.9325332, 42.9379438 ], [ -1.9325923, 42.937932 ], [ -1.9326508, 42.9379196 ], [ -1.93271, 42.9379077 ], [ -1.9327692, 42.9378959 ], [ -1.9328284, 42.9378841 ], [ -1.9328714, 42.9378761 ], [ -1.9329306, 42.9378637 ], [ -1.932989, 42.9378513 ], [ -1.9330482, 42.9378389 ], [ -1.9331074, 42.9378265 ], [ -1.9331666, 42.9378141 ], [ -1.9332258, 42.9378028 ], [ -1.9332849, 42.9377921 ], [ -1.9333449, 42.9377831 ], [ -1.9334055, 42.9377752 ], [ -1.9334362, 42.9377721 ], [ -1.9334968, 42.9377665 ], [ -1.9335574, 42.9377626 ], [ -1.9336187, 42.9377597 ], [ -1.9336801, 42.9377575 ], [ -1.9337413, 42.9377558 ], [ -1.9338027, 42.9377547 ], [ -1.933864, 42.9377536 ], [ -1.9339253, 42.9377525 ], [ -1.9339866, 42.9377508 ], [ -1.9340479, 42.937748 ], [ -1.934054, 42.937748 ], [ -1.9341154, 42.9377452 ], [ -1.9341759, 42.9377424 ], [ -1.9342373, 42.9377396 ], [ -1.9342986, 42.9377368 ], [ -1.9343599, 42.937734 ], [ -1.9344205, 42.9377306 ], [ -1.9344818, 42.9377278 ], [ -1.9345431, 42.9377245 ], [ -1.9346045, 42.9377211 ], [ -1.9346651, 42.9377172 ], [ -1.9347264, 42.9377138 ], [ -1.934787, 42.9377093 ], [ -1.9348231, 42.9377068 ], [ -1.9348836, 42.9377023 ], [ -1.934945, 42.9376978 ], [ -1.9350056, 42.9376933 ], [ -1.935067, 42.9376883 ], [ -1.9351275, 42.9376832 ], [ -1.9351889, 42.9376782 ], [ -1.9352495, 42.9376731 ], [ -1.9353101, 42.9376674 ], [ -1.9353707, 42.9376624 ], [ -1.9354321, 42.9376568 ], [ -1.9354927, 42.9376506 ], [ -1.9355534, 42.937645 ], [ -1.935614, 42.9376388 ], [ -1.9356746, 42.9376326 ], [ -1.9357352, 42.9376264 ], [ -1.9357966, 42.9376202 ], [ -1.9368694, 42.937508 ], [ -1.9369093, 42.9375034 ], [ -1.9369669, 42.9374971 ], [ -1.9370291, 42.9374904 ], [ -1.9370981, 42.9374843 ], [ -1.9371303, 42.9374812 ], [ -1.9371917, 42.9374761 ], [ -1.9372523, 42.9374716 ], [ -1.9373137, 42.9374677 ], [ -1.9373512, 42.9374664 ], [ -1.9374125, 42.9374647 ], [ -1.9374738, 42.9374641 ], [ -1.9375521, 42.9374519 ], [ -1.9376089, 42.9374463 ], [ -1.9376542, 42.9374422 ], [ -1.9377194, 42.9374371 ], [ -1.9377463, 42.9374346 ], [ -1.9378076, 42.9374295 ], [ -1.9378682, 42.937425 ], [ -1.9379288, 42.9374199 ], [ -1.9379902, 42.9374149 ], [ -1.9380185, 42.9374123 ], [ -1.9380792, 42.9374073 ], [ -1.9381405, 42.9374022 ], [ -1.9382011, 42.9373966 ], [ -1.9382617, 42.9373915 ], [ -1.9383231, 42.9373865 ], [ -1.9383837, 42.9373814 ], [ -1.9384443, 42.9373769 ], [ -1.9385057, 42.9373719 ], [ -1.9385662, 42.9373679 ], [ -1.9386168, 42.9373644 ], [ -1.9386774, 42.9373605 ], [ -1.9387388, 42.9373571 ], [ -1.9388001, 42.9373537 ], [ -1.9388607, 42.9373504 ], [ -1.938922, 42.9373481 ], [ -1.9389833, 42.9373464 ], [ -1.9389918, 42.937346 ], [ -1.9390531, 42.9373454 ], [ -1.9391143, 42.9373454 ], [ -1.9391756, 42.937346 ], [ -1.9392369, 42.9373465 ], [ -1.9392805, 42.9373475 ], [ -1.9393417, 42.9373492 ], [ -1.939403, 42.9373509 ], [ -1.9394642, 42.9373537 ], [ -1.9398689, 42.9372556 ], [ -1.9398842, 42.9372563 ], [ -1.939937, 42.9372574 ], [ -1.9399921, 42.9372584 ], [ -1.9400496, 42.9372589 ], [ -1.9401101, 42.9372601 ], [ -1.9401728, 42.9372607 ], [ -1.9402387, 42.9372613 ], [ -1.9403069, 42.9372619 ], [ -1.9403773, 42.937262 ], [ -1.9403904, 42.9372621 ], [ -1.9404517, 42.9372627 ], [ -1.9405129, 42.9372638 ], [ -1.9405742, 42.937265 ], [ -1.9406362, 42.9372655 ], [ -1.9406975, 42.9372667 ], [ -1.9407587, 42.9372667 ], [ -1.94082, 42.9372667 ], [ -1.9408805, 42.9372655 ], [ -1.9409419, 42.9372639 ], [ -1.9410032, 42.937261 ], [ -1.9410446, 42.9372586 ], [ -1.9411052, 42.9372524 ], [ -1.9411659, 42.9372451 ], [ -1.9412257, 42.9372378 ], [ -1.9412864, 42.937231 ], [ -1.9413424, 42.9372253 ], [ -1.941403, 42.9372186 ], [ -1.9414636, 42.9372124 ], [ -1.9415243, 42.9372057 ], [ -1.9415849, 42.9371989 ], [ -1.9416455, 42.9371921 ], [ -1.9417062, 42.9371854 ], [ -1.9417668, 42.9371792 ], [ -1.9418274, 42.9371724 ], [ -1.941888, 42.9371662 ], [ -1.9419487, 42.9371595 ], [ -1.9420093, 42.9371533 ], [ -1.9420699, 42.9371477 ], [ -1.9421313, 42.9371415 ], [ -1.9421919, 42.9371364 ], [ -1.9422525, 42.9371308 ], [ -1.9423139, 42.9371263 ], [ -1.9423744, 42.9371212 ], [ -1.9424358, 42.9371173 ], [ -1.9424649, 42.9371153 ], [ -1.9425263, 42.9371114 ], [ -1.9425876, 42.9371074 ], [ -1.9426482, 42.937104 ], [ -1.9427095, 42.9371018 ], [ -1.9427708, 42.9371001 ], [ -1.9428321, 42.9371007 ], [ -1.9428934, 42.9371024 ], [ -1.9428995, 42.9371024 ], [ -1.9429606, 42.9371086 ], [ -1.9430202, 42.937117 ], [ -1.9430806, 42.937126 ], [ -1.943141, 42.9371328 ], [ -1.9431801, 42.9371354 ], [ -1.9432413, 42.9371388 ], [ -1.9433025, 42.937141 ], [ -1.9433638, 42.9371427 ], [ -1.943425, 42.9371439 ], [ -1.9434863, 42.937145 ], [ -1.9435476, 42.9371456 ], [ -1.9436088, 42.9371456 ], [ -1.9436701, 42.9371461 ], [ -1.9437314, 42.9371467 ], [ -1.9437926, 42.9371478 ], [ -1.9438477, 42.9371489 ], [ -1.943909, 42.93715 ], [ -1.9439703, 42.9371506 ], [ -1.9440315, 42.9371517 ], [ -1.9440928, 42.9371528 ], [ -1.9441541, 42.9371534 ], [ -1.9442153, 42.9371546 ], [ -1.9442766, 42.9371557 ], [ -1.9443379, 42.9371573 ], [ -1.9443624, 42.9371581 ], [ -1.9444236, 42.9371598 ], [ -1.9444849, 42.9371615 ], [ -1.9445461, 42.9371632 ], [ -1.9446074, 42.9371649 ], [ -1.9446686, 42.9371666 ], [ -1.9447291, 42.9371688 ], [ -1.9447903, 42.9371717 ], [ -1.9448516, 42.9371739 ], [ -1.9449128, 42.9371773 ], [ -1.9449564, 42.9371799 ], [ -1.9450176, 42.9371839 ], [ -1.9450788, 42.9371889 ], [ -1.9451393, 42.937194 ], [ -1.9452005, 42.9371985 ], [ -1.9452616, 42.937203 ], [ -1.9453229, 42.937207 ], [ -1.9453833, 42.9372103 ], [ -1.9454346, 42.9372119 ], [ -1.9454958, 42.9372136 ], [ -1.9455571, 42.9372153 ], [ -1.9456184, 42.9372159 ], [ -1.9456797, 42.9372159 ], [ -1.9457409, 42.9372159 ], [ -1.9458022, 42.9372148 ], [ -1.9458636, 42.9372131 ], [ -1.9458858, 42.9372122 ], [ -1.9459471, 42.9372093 ], [ -1.9460085, 42.9372048 ], [ -1.9460691, 42.9372003 ], [ -1.9461305, 42.9371947 ], [ -1.946191, 42.9371891 ], [ -1.9462517, 42.937184 ], [ -1.946313, 42.937179 ], [ -1.9463736, 42.937175 ], [ -1.9464349, 42.9371722 ], [ -1.9464441, 42.9371723 ], [ -1.9465047, 42.93717 ], [ -1.946566, 42.9371689 ], [ -1.9466272, 42.9371678 ], [ -1.9466886, 42.9371667 ], [ -1.9467499, 42.9371666 ], [ -1.9468111, 42.9371666 ], [ -1.9468724, 42.9371678 ], [ -1.9469337, 42.9371689 ], [ -1.9469957, 42.9371706 ], [ -1.9470569, 42.9371723 ], [ -1.9471036, 42.937175 ], [ -1.9471648, 42.9371789 ], [ -1.947226, 42.9371834 ], [ -1.9472864, 42.937189 ], [ -1.9473476, 42.9371941 ], [ -1.9474088, 42.9371997 ], [ -1.9474692, 42.9372048 ], [ -1.9475305, 42.9372087 ], [ -1.9475496, 42.93721 ], [ -1.9476108, 42.9372134 ], [ -1.9476712, 42.9372173 ], [ -1.9477325, 42.9372207 ], [ -1.9477937, 42.9372235 ], [ -1.9478549, 42.9372252 ], [ -1.9479162, 42.9372269 ], [ -1.9479775, 42.9372269 ], [ -1.9480212, 42.9372268 ], [ -1.9480824, 42.9372267 ], [ -1.9481445, 42.9372257 ], [ -1.9482058, 42.9372234 ], [ -1.9482664, 42.9372177 ], [ -1.9483263, 42.9372093 ], [ -1.948364, 42.9372012 ], [ -1.9484217, 42.9371865 ], [ -1.9484779, 42.937169 ], [ -1.9485334, 42.9371493 ], [ -1.9485882, 42.9371284 ], [ -1.9486421, 42.9371064 ], [ -1.9486522, 42.9371025 ], [ -1.9487054, 42.9370799 ], [ -1.9487579, 42.9370562 ], [ -1.9488089, 42.9370314 ], [ -1.9488591, 42.9370054 ], [ -1.9489093, 42.9369794 ], [ -1.9489573, 42.9369528 ], [ -1.9490052, 42.9369251 ], [ -1.9490532, 42.9368963 ], [ -1.9491004, 42.936868 ], [ -1.9491476, 42.9368392 ], [ -1.9491894, 42.9368143 ], [ -1.9492359, 42.9367843 ], [ -1.9492816, 42.9367543 ], [ -1.9493281, 42.9367249 ], [ -1.9493745, 42.9366961 ], [ -1.9494232, 42.9366684 ], [ -1.9494735, 42.936643 ], [ -1.9494758, 42.9366424 ], [ -1.9495282, 42.9366193 ], [ -1.9495815, 42.9365978 ], [ -1.949637, 42.9365786 ], [ -1.9496939, 42.9365611 ], [ -1.9497516, 42.9365453 ], [ -1.9501138, 42.9364209 ], [ -1.9501064, 42.9364023 ], [ -1.9500903, 42.9363621 ], [ -1.9500727, 42.9363175 ], [ -1.9500536, 42.9362689 ], [ -1.9500529, 42.9362673 ], [ -1.9500375, 42.9362238 ], [ -1.9500222, 42.9361803 ], [ -1.9500068, 42.9361363 ], [ -1.9499899, 42.9360933 ], [ -1.9499759, 42.9360589 ], [ -1.9499583, 42.9360154 ], [ -1.9499399, 42.935973 ], [ -1.9499207, 42.93593 ], [ -1.9499015, 42.9358871 ], [ -1.9498815, 42.9358447 ], [ -1.9498623, 42.9358018 ], [ -1.9498461, 42.9357678 ], [ -1.9498261, 42.9357254 ], [ -1.9498062, 42.935683 ], [ -1.9497855, 42.9356406 ], [ -1.949764, 42.9355982 ], [ -1.9497417, 42.9355564 ], [ -1.9497239, 42.9355236 ], [ -1.9496993, 42.9354822 ], [ -1.9496747, 42.935441 ], [ -1.9496493, 42.9354002 ], [ -1.9496232, 42.9353594 ], [ -1.9495979, 42.9353181 ], [ -1.9495718, 42.9352774 ], [ -1.9495472, 42.935236 ], [ -1.9495226, 42.9351947 ], [ -1.9494996, 42.9351534 ], [ -1.9494773, 42.9351116 ], [ -1.9494618, 42.9350799 ], [ -1.9494426, 42.935037 ], [ -1.9494242, 42.934994 ], [ -1.9494073, 42.9349511 ], [ -1.9493904, 42.9349076 ], [ -1.9493728, 42.9348647 ], [ -1.9493551, 42.9348212 ], [ -1.9493455, 42.9347986 ], [ -1.9493263, 42.9347562 ], [ -1.9493072, 42.9347132 ], [ -1.9492887, 42.9346703 ], [ -1.9492711, 42.9346273 ], [ -1.9492667, 42.9346155 ], [ -1.9492491, 42.934572 ], [ -1.9492322, 42.9345291 ], [ -1.9492161, 42.9344856 ], [ -1.9492023, 42.9344416 ], [ -1.94919, 42.9343964 ], [ -1.9491816, 42.9343519 ], [ -1.9491755, 42.9343073 ], [ -1.9491708, 42.9342623 ], [ -1.9491686, 42.9342172 ], [ -1.949167, 42.9341722 ], [ -1.9491666, 42.9341497 ], [ -1.9491682, 42.9341047 ], [ -1.949172, 42.9340597 ], [ -1.9491749, 42.934022 ], [ -1.9491841, 42.9339776 ], [ -1.9492024, 42.9339412 ], [ -1.9492299, 42.9339009 ], [ -1.9492611, 42.9338618 ], [ -1.949294, 42.9338233 ], [ -1.9493167, 42.9337959 ], [ -1.9493495, 42.933758 ], [ -1.9493831, 42.93372 ], [ -1.9494174, 42.9336832 ], [ -1.9494525, 42.9336458 ], [ -1.9494884, 42.933609 ], [ -1.9495242, 42.9335727 ], [ -1.94956, 42.9335364 ], [ -1.9495967, 42.9335002 ], [ -1.9496138, 42.9334835 ], [ -1.9496512, 42.9334478 ], [ -1.9496893, 42.9334122 ], [ -1.9497275, 42.933377 ], [ -1.9497663, 42.9333425 ], [ -1.9498045, 42.9333074 ], [ -1.9498426, 42.9332723 ], [ -1.9498558, 42.9332606 ], [ -1.9498939, 42.9332255 ], [ -1.9499328, 42.9331904 ], [ -1.949971, 42.9331558 ], [ -1.9500099, 42.9331207 ], [ -1.950048, 42.9330856 ], [ -1.9500861, 42.9330499 ], [ -1.9501235, 42.9330143 ], [ -1.9501601, 42.9329786 ], [ -1.9501648, 42.9329741 ], [ -1.9502014, 42.9329379 ], [ -1.9502372, 42.9329016 ], [ -1.9502739, 42.9328648 ], [ -1.9503098, 42.9328286 ], [ -1.9503455, 42.9327918 ], [ -1.9503799, 42.9327544 ], [ -1.9504142, 42.932717 ], [ -1.9504463, 42.932679 ], [ -1.9504783, 42.9326404 ], [ -1.9505081, 42.9326013 ], [ -1.950534, 42.9325644 ], [ -1.9505608, 42.9325236 ], [ -1.9505852, 42.9324827 ], [ -1.9506081, 42.9324407 ], [ -1.9506288, 42.9323981 ], [ -1.9506479, 42.9323555 ], [ -1.950655, 42.9323387 ], [ -1.9506719, 42.9322955 ], [ -1.9506879, 42.9322518 ], [ -1.9507009, 42.932208 ], [ -1.9507132, 42.9321636 ], [ -1.9507231, 42.9321193 ], [ -1.9507316, 42.9320743 ], [ -1.9507358, 42.9320502 ], [ -1.9507404, 42.9320052 ], [ -1.9507427, 42.9319602 ], [ -1.9507442, 42.9319152 ], [ -1.9507435, 42.9318701 ], [ -1.9507427, 42.9318251 ], [ -1.9507422, 42.931811 ], [ -1.9507391, 42.931766 ], [ -1.9507345, 42.9317209 ], [ -1.9507283, 42.9316764 ], [ -1.9507222, 42.9316313 ], [ -1.9507188, 42.9316065 ], [ -1.9507127, 42.9315614 ], [ -1.9507058, 42.9315169 ], [ -1.9506981, 42.9314724 ], [ -1.9506897, 42.9314278 ], [ -1.950679, 42.9313833 ], [ -1.9506674, 42.9313438 ], [ -1.950652, 42.9313003 ], [ -1.9506359, 42.9312568 ], [ -1.9506198, 42.9312133 ], [ -1.9506037, 42.9311699 ], [ -1.9505986, 42.931154 ], [ -1.9505856, 42.93111 ], [ -1.9505718, 42.931066 ], [ -1.9505587, 42.931022 ], [ -1.9505434, 42.9309785 ], [ -1.9505258, 42.9309355 ], [ -1.9505243, 42.930931 ], [ -1.9505036, 42.9308886 ], [ -1.9504806, 42.9308468 ], [ -1.9504567, 42.9308055 ], [ -1.9504321, 42.9307642 ], [ -1.9504068, 42.9307234 ], [ -1.950383, 42.9306815 ], [ -1.9503607, 42.9306397 ], [ -1.9503504, 42.9306193 ], [ -1.9503289, 42.9305769 ], [ -1.9503089, 42.9305345 ], [ -1.9502889, 42.9304921 ], [ -1.9502697, 42.9304492 ], [ -1.9502506, 42.9304062 ], [ -1.9502322, 42.9303633 ], [ -1.9502256, 42.9303464 ], [ -1.9502087, 42.9303034 ], [ -1.9501925, 42.9302599 ], [ -1.9501772, 42.9302165 ], [ -1.9501611, 42.930173 ], [ -1.9501458, 42.9301295 ], [ -1.9501289, 42.930086 ], [ -1.9501164, 42.9300521 ], [ -1.9500988, 42.9300092 ], [ -1.9500819, 42.9299657 ], [ -1.9500643, 42.9299228 ], [ -1.9500466, 42.9298798 ], [ -1.9500282, 42.9298363 ], [ -1.9500105, 42.9297934 ], [ -1.9499724, 42.929694 ], [ -1.949963, 42.9296635 ], [ -1.9499474, 42.929633 ], [ -1.9499289, 42.9295934 ], [ -1.9499098, 42.929551 ], [ -1.9498899, 42.9295052 ], [ -1.9498692, 42.9294566 ], [ -1.9498567, 42.9294256 ], [ -1.9498391, 42.9293826 ], [ -1.9498222, 42.9293391 ], [ -1.9498061, 42.9292957 ], [ -1.9497892, 42.9292528 ], [ -1.9497731, 42.9292093 ], [ -1.9497578, 42.9291658 ], [ -1.9497424, 42.9291223 ], [ -1.9497263, 42.9290783 ], [ -1.9497219, 42.9290658 ], [ -1.9497073, 42.9290218 ], [ -1.9496928, 42.9289783 ], [ -1.9496782, 42.9289343 ], [ -1.9496644, 42.9288908 ], [ -1.9496498, 42.9288468 ], [ -1.949636, 42.9288033 ], [ -1.9496331, 42.9287937 ], [ -1.9496186, 42.9287497 ], [ -1.9496039, 42.9287062 ], [ -1.9495894, 42.9286622 ], [ -1.9495756, 42.9286187 ], [ -1.949561, 42.9285747 ], [ -1.9495464, 42.9285312 ], [ -1.9495326, 42.9284872 ], [ -1.9495181, 42.9284437 ], [ -1.9495035, 42.9283997 ], [ -1.9494579, 42.928289 ], [ -1.9494551, 42.9282715 ], [ -1.9494481, 42.9282315 ], [ -1.9494404, 42.9281892 ], [ -1.9494313, 42.9281441 ], [ -1.9494213, 42.9280961 ], [ -1.9494092, 42.9280454 ], [ -1.9494035, 42.9280211 ], [ -1.9493927, 42.9279766 ], [ -1.9493805, 42.9279326 ], [ -1.9493682, 42.9278885 ], [ -1.9493559, 42.9278445 ], [ -1.9493437, 42.9277999 ], [ -1.9493314, 42.9277559 ], [ -1.9493227, 42.9277283 ], [ -1.9493096, 42.9276842 ], [ -1.9492966, 42.9276402 ], [ -1.9492828, 42.9275962 ], [ -1.9492698, 42.9275522 ], [ -1.9492567, 42.9275082 ], [ -1.9492437, 42.9274642 ], [ -1.9492322, 42.9274201 ], [ -1.9492229, 42.9273807 ], [ -1.9492122, 42.9273361 ], [ -1.949203, 42.9272916 ], [ -1.9491938, 42.927247 ], [ -1.9491846, 42.9272025 ], [ -1.9491762, 42.9271579 ], [ -1.949167, 42.9271134 ], [ -1.9491577, 42.9270688 ], [ -1.9491486, 42.9270243 ], [ -1.94914, 42.9269882 ], [ -1.94913, 42.9269437 ], [ -1.94912, 42.9268991 ], [ -1.9491101, 42.9268551 ], [ -1.9490993, 42.9268106 ], [ -1.9490894, 42.926766 ], [ -1.9490708, 42.9266437 ], [ -1.9490584, 42.9266059 ], [ -1.9490373, 42.9264503 ], [ -1.9494762, 42.9262681 ], [ -1.949397, 42.9255638 ], [ -1.949389, 42.9254985 ], [ -1.9493718, 42.9253373 ], [ -1.9493571, 42.9252533 ], [ -1.9491446, 42.9237943 ], [ -1.9491459, 42.9237577 ], [ -1.949341, 42.9221938 ], [ -1.9488876, 42.9219307 ], [ -1.9485606, 42.921747 ], [ -1.9485616, 42.9217341 ], [ -1.9485661, 42.9216942 ], [ -1.9485707, 42.9216503 ], [ -1.9485761, 42.9216031 ], [ -1.9485823, 42.9215525 ], [ -1.948585, 42.92153 ], [ -1.9485911, 42.921485 ], [ -1.9485972, 42.92144 ], [ -1.9486034, 42.9213957 ], [ -1.9486095, 42.9213507 ], [ -1.9486114, 42.921331 ], [ -1.948616, 42.921286 ], [ -1.9486198, 42.921241 ], [ -1.9486251, 42.9211961 ], [ -1.9486295, 42.9211652 ], [ -1.9486372, 42.9211202 ], [ -1.9486464, 42.9210758 ], [ -1.9488621, 42.9201002 ], [ -1.9488714, 42.9200479 ], [ -1.9492524, 42.9184508 ], [ -1.9491134, 42.9183352 ], [ -1.9486966, 42.917987 ], [ -1.9486635, 42.9179574 ], [ -1.948634, 42.9179313 ], [ -1.9485132, 42.9178311 ], [ -1.9484673, 42.9177845 ], [ -1.9483306, 42.9177619 ], [ -1.9474029, 42.917607 ], [ -1.9472424, 42.9175853 ], [ -1.9469225, 42.9175328 ], [ -1.9468629, 42.9175238 ], [ -1.9468025, 42.9175148 ], [ -1.9467422, 42.9175058 ], [ -1.9466826, 42.9174968 ], [ -1.9466223, 42.9174878 ], [ -1.9465627, 42.9174783 ], [ -1.9465024, 42.9174693 ], [ -1.9465001, 42.9174687 ], [ -1.9464397, 42.9174597 ], [ -1.9463802, 42.9174501 ], [ -1.9463206, 42.9174406 ], [ -1.9462603, 42.9174316 ], [ -1.9462007, 42.917422 ], [ -1.9461404, 42.9174125 ], [ -1.9460808, 42.9174029 ], [ -1.9460204, 42.9173939 ], [ -1.9459609, 42.9173844 ], [ -1.9459006, 42.9173754 ], [ -1.9458845, 42.9173724 ], [ -1.9458242, 42.9173634 ], [ -1.9457638, 42.9173544 ], [ -1.9457043, 42.9173454 ], [ -1.9456439, 42.917337 ], [ -1.9455844, 42.917328 ], [ -1.945524, 42.917319 ], [ -1.9454637, 42.9173106 ], [ -1.945404, 42.9173016 ], [ -1.9453437, 42.9172931 ], [ -1.9453154, 42.9172889 ], [ -1.9452467, 42.9172787 ], [ -1.945181, 42.9172691 ], [ -1.9451184, 42.9172595 ], [ -1.9450588, 42.9172511 ], [ -1.9450031, 42.9172427 ], [ -1.9449496, 42.9172349 ], [ -1.9449236, 42.9172313 ], [ -1.9449663, 42.9166154 ], [ -1.9446529, 42.9165815 ], [ -1.9445925, 42.9165753 ], [ -1.9445314, 42.9165697 ], [ -1.944471, 42.9165641 ], [ -1.9444106, 42.9165579 ], [ -1.9443494, 42.9165523 ], [ -1.944289, 42.9165461 ], [ -1.9442279, 42.9165405 ], [ -1.9442248, 42.9165405 ], [ -1.9441636, 42.9165354 ], [ -1.9441024, 42.9165303 ], [ -1.9440421, 42.9165236 ], [ -1.9440314, 42.9165218 ], [ -1.9439726, 42.9165088 ], [ -1.9439597, 42.9165059 ], [ -1.9438985, 42.9165003 ], [ -1.9438863, 42.9164985 ], [ -1.9438269, 42.9164827 ], [ -1.9438162, 42.9164781 ], [ -1.9437944, 42.9165427 ], [ -1.9436577, 42.9165251 ], [ -1.9435238, 42.9165154 ], [ -1.9434626, 42.916512 ], [ -1.9434014, 42.9165087 ], [ -1.9433402, 42.9165052 ], [ -1.943279, 42.9165024 ], [ -1.9432231, 42.9164996 ], [ -1.9431619, 42.9164968 ], [ -1.9431007, 42.9164946 ], [ -1.9430395, 42.9164918 ], [ -1.943002, 42.9164909 ], [ -1.9429354, 42.9164886 ], [ -1.9428834, 42.9164881 ], [ -1.9427978, 42.9164783 ], [ -1.9427374, 42.9164704 ], [ -1.9426762, 42.9164648 ], [ -1.942615, 42.9164614 ], [ -1.9425982, 42.9164607 ], [ -1.942537, 42.9164596 ], [ -1.9424757, 42.9164596 ], [ -1.9424144, 42.9164618 ], [ -1.9423531, 42.9164646 ], [ -1.9423209, 42.9164671 ], [ -1.9422602, 42.9164745 ], [ -1.9422004, 42.916484 ], [ -1.9421405, 42.9164925 ], [ -1.9421075, 42.9164944 ], [ -1.9420471, 42.9164916 ], [ -1.9419989, 42.9164867 ], [ -1.9419309, 42.9164799 ], [ -1.941869, 42.916472 ], [ -1.941814, 42.9164641 ], [ -1.9417934, 42.9164606 ], [ -1.9417629, 42.9164102 ], [ -1.9417575, 42.9163657 ], [ -1.9417585, 42.9163544 ], [ -1.9417653, 42.9163095 ], [ -1.9417744, 42.9162707 ], [ -1.9417828, 42.9162258 ], [ -1.941792, 42.9161814 ], [ -1.9418012, 42.916137 ], [ -1.941802, 42.9161354 ], [ -1.9418128, 42.916091 ], [ -1.941825, 42.9160472 ], [ -1.9418372, 42.9160029 ], [ -1.9418429, 42.9159832 ], [ -1.9418552, 42.9159388 ], [ -1.941869, 42.9158951 ], [ -1.941882, 42.9158508 ], [ -1.941895, 42.915807 ], [ -1.9419039, 42.9157778 ], [ -1.9419161, 42.9157334 ], [ -1.9419283, 42.9156896 ], [ -1.9419398, 42.9156453 ], [ -1.9419521, 42.9156009 ], [ -1.9419651, 42.9155571 ], [ -1.9419781, 42.9155134 ], [ -1.9419911, 42.915469 ], [ -1.9419935, 42.9154612 ], [ -1.9420065, 42.9154174 ], [ -1.9420195, 42.915373 ], [ -1.9420326, 42.9153293 ], [ -1.9420448, 42.9152855 ], [ -1.9420497, 42.9152686 ], [ -1.9420612, 42.9152243 ], [ -1.9420719, 42.9151799 ], [ -1.9420834, 42.9151356 ], [ -1.942089, 42.9151137 ], [ -1.9421037, 42.9150648 ], [ -1.9421175, 42.91502 ], [ -1.9421312, 42.9149796 ], [ -1.942136, 42.914965 ], [ -1.9421583, 42.9147794 ], [ -1.9423267, 42.9142058 ], [ -1.9425659, 42.9133379 ], [ -1.9427964, 42.9122611 ], [ -1.942813, 42.9121453 ], [ -1.9428246, 42.9120931 ], [ -1.9428429, 42.9117398 ], [ -1.9428649, 42.9116168 ], [ -1.9430989, 42.9088628 ], [ -1.9433367, 42.9060132 ], [ -1.9433487, 42.9059401 ], [ -1.9434219, 42.90506 ], [ -1.9434739, 42.9043964 ], [ -1.9434715, 42.9043513 ], [ -1.9434708, 42.9043063 ], [ -1.9434715, 42.9042613 ], [ -1.9434747, 42.9042163 ], [ -1.94348, 42.9041713 ], [ -1.9434809, 42.9041618 ], [ -1.9434878, 42.9041174 ], [ -1.9434969, 42.904073 ], [ -1.9435077, 42.9040286 ], [ -1.9435191, 42.9039843 ], [ -1.9435314, 42.9039399 ], [ -1.9435436, 42.9038961 ], [ -1.9435543, 42.903858 ], [ -1.9435672, 42.9038142 ], [ -1.943581, 42.9037699 ], [ -1.9435899, 42.9037435 ], [ -1.9436052, 42.9037003 ], [ -1.9436205, 42.9036565 ], [ -1.9436373, 42.9036128 ], [ -1.9436533, 42.9035696 ], [ -1.9436679, 42.9035258 ], [ -1.9436809, 42.9034821 ], [ -1.9436891, 42.9034478 ], [ -1.9436975, 42.9034028 ], [ -1.9437044, 42.9033585 ], [ -1.9437098, 42.9033135 ], [ -1.9437129, 42.9032685 ], [ -1.9437159, 42.9032235 ], [ -1.943719, 42.9031785 ], [ -1.9437212, 42.9031374 ], [ -1.943725, 42.9030924 ], [ -1.9437289, 42.9030474 ], [ -1.943732, 42.9030019 ], [ -1.9437335, 42.9029569 ], [ -1.9437327, 42.9029118 ], [ -1.9437281, 42.9028707 ], [ -1.9437189, 42.9028262 ], [ -1.9437066, 42.9027821 ], [ -1.9436913, 42.9027387 ], [ -1.9436744, 42.9026952 ], [ -1.9436576, 42.9026517 ], [ -1.9436422, 42.9026082 ], [ -1.9436379, 42.9025941 ], [ -1.9436233, 42.9025506 ], [ -1.943608, 42.9025066 ], [ -1.9435927, 42.9024631 ], [ -1.9435773, 42.9024196 ], [ -1.9435635, 42.9023756 ], [ -1.9435513, 42.9023316 ], [ -1.9435398, 42.9022876 ], [ -1.9435362, 42.9022706 ], [ -1.9435285, 42.9022261 ], [ -1.9435232, 42.902181 ], [ -1.9435194, 42.902136 ], [ -1.9435163, 42.9020909 ], [ -1.9435148, 42.9020459 ], [ -1.9435133, 42.9020008 ], [ -1.9435134, 42.9019935 ], [ -1.9435119, 42.9019485 ], [ -1.9435126, 42.9019035 ], [ -1.9435134, 42.9018585 ], [ -1.9435142, 42.9018134 ], [ -1.9435165, 42.9017685 ], [ -1.9435188, 42.9017234 ], [ -1.9435211, 42.9016784 ], [ -1.9435221, 42.9016615 ], [ -1.9435237, 42.9016166 ], [ -1.943526, 42.9015715 ], [ -1.9435282, 42.9015265 ], [ -1.9435306, 42.9014816 ], [ -1.9435344, 42.9014366 ], [ -1.943539, 42.9013916 ], [ -1.9435444, 42.9013466 ], [ -1.9435487, 42.9013191 ], [ -1.9435563, 42.9012741 ], [ -1.9435662, 42.9012297 ], [ -1.943577, 42.9011854 ], [ -1.9435877, 42.9011416 ], [ -1.9435999, 42.9010972 ], [ -1.9436129, 42.9010528 ], [ -1.9436251, 42.9010091 ], [ -1.9436341, 42.9009776 ], [ -1.9436471, 42.9009333 ], [ -1.9436594, 42.9008895 ], [ -1.9436716, 42.9008452 ], [ -1.9436846, 42.9008014 ], [ -1.9436983, 42.9007576 ], [ -1.9437129, 42.9007139 ], [ -1.9437289, 42.9006701 ], [ -1.9437457, 42.9006292 ], [ -1.9437641, 42.9005866 ], [ -1.9437839, 42.900544 ], [ -1.9438053, 42.9005014 ], [ -1.9438275, 42.9004594 ], [ -1.9438504, 42.900418 ], [ -1.9438741, 42.900376 ], [ -1.9438985, 42.9003351 ], [ -1.9439174, 42.9003054 ], [ -1.9439441, 42.9002646 ], [ -1.9439731, 42.9002249 ], [ -1.9440029, 42.9001858 ], [ -1.9440334, 42.9001467 ], [ -1.9440639, 42.9001076 ], [ -1.9440937, 42.9000684 ], [ -1.9441227, 42.9000287 ], [ -1.9441282, 42.9000204 ], [ -1.9441556, 42.8999801 ], [ -1.9441816, 42.8999398 ], [ -1.9442863, 42.8998153 ], [ -1.9443012, 42.8997985 ], [ -1.9443293, 42.8997639 ], [ -1.9443583, 42.8997247 ], [ -1.9443873, 42.8996823 ], [ -1.9444165, 42.8996358 ], [ -1.944433, 42.8996073 ], [ -1.944456, 42.8995653 ], [ -1.9444774, 42.8995232 ], [ -1.944498, 42.8994806 ], [ -1.9445171, 42.8994381 ], [ -1.9445354, 42.8993949 ], [ -1.944553, 42.8993534 ], [ -1.9445705, 42.8993102 ], [ -1.9445873, 42.8992671 ], [ -1.9446042, 42.8992238 ], [ -1.9446195, 42.8991801 ], [ -1.944634, 42.8991364 ], [ -1.9446485, 42.8990926 ], [ -1.9447062, 42.898895 ], [ -1.9447097, 42.8988703 ], [ -1.944715, 42.8988281 ], [ -1.944722, 42.898782 ], [ -1.9447297, 42.8987314 ], [ -1.9447348, 42.8986999 ], [ -1.9447425, 42.898655 ], [ -1.9447502, 42.8986106 ], [ -1.9447538, 42.8985797 ], [ -1.9447591, 42.8985347 ], [ -1.9447637, 42.8984897 ], [ -1.9447675, 42.8984447 ], [ -1.9447721, 42.8983998 ], [ -1.9447775, 42.8983548 ], [ -1.9447828, 42.8983104 ], [ -1.9447837, 42.8983059 ], [ -1.9447898, 42.8982609 ], [ -1.9447967, 42.898216 ], [ -1.9448036, 42.8981715 ], [ -1.9448112, 42.8981266 ], [ -1.9448181, 42.8980822 ], [ -1.9448258, 42.8980372 ], [ -1.9448342, 42.8979929 ], [ -1.9448418, 42.8979479 ], [ -1.9448495, 42.8979035 ], [ -1.9448571, 42.8978586 ], [ -1.9448605, 42.8978394 ], [ -1.9448674, 42.8977945 ], [ -1.9448735, 42.8977501 ], [ -1.9448797, 42.8977051 ], [ -1.9448866, 42.8976601 ], [ -1.9448934, 42.8976152 ], [ -1.9449011, 42.8975708 ], [ -1.9449095, 42.8975264 ], [ -1.9449194, 42.897482 ], [ -1.9449302, 42.8974377 ], [ -1.944935, 42.897422 ], [ -1.944948, 42.8973782 ], [ -1.9449625, 42.8973344 ], [ -1.9449778, 42.8972906 ], [ -1.9449946, 42.8972475 ], [ -1.9450115, 42.8972043 ], [ -1.9450283, 42.8971611 ], [ -1.9450466, 42.8971179 ], [ -1.9450642, 42.8970748 ], [ -1.9450818, 42.8970316 ], [ -1.9450993, 42.8969884 ], [ -1.9451169, 42.8969452 ], [ -1.9451337, 42.8969021 ], [ -1.9451498, 42.8968583 ], [ -1.9451586, 42.8968331 ], [ -1.9451739, 42.8967893 ], [ -1.9451892, 42.8967455 ], [ -1.9452053, 42.8967024 ], [ -1.9452206, 42.8966586 ], [ -1.9452359, 42.8966149 ], [ -1.9452504, 42.8965711 ], [ -1.9452649, 42.8965279 ], [ -1.9452794, 42.8964841 ], [ -1.945294, 42.8964398 ], [ -1.945307, 42.896396 ], [ -1.94532, 42.8963522 ], [ -1.945333, 42.8963079 ], [ -1.9453403, 42.8962821 ], [ -1.9453518, 42.8962377 ], [ -1.9453633, 42.8961933 ], [ -1.9453739, 42.896149 ], [ -1.9453847, 42.8961052 ], [ -1.9453946, 42.8960602 ], [ -1.9454046, 42.8960159 ], [ -1.9454145, 42.8959715 ], [ -1.9454237, 42.8959271 ], [ -1.9454329, 42.8958827 ], [ -1.9454413, 42.8958378 ], [ -1.9454497, 42.8957934 ], [ -1.9454581, 42.8957484 ], [ -1.9454615, 42.8957293 ], [ -1.9454692, 42.8956844 ], [ -1.9454775, 42.89564 ], [ -1.9454852, 42.8955951 ], [ -1.9454921, 42.8955507 ], [ -1.9454998, 42.8955057 ], [ -1.9455059, 42.8954608 ], [ -1.945512, 42.8954163 ], [ -1.9455181, 42.8953714 ], [ -1.9455235, 42.8953264 ], [ -1.9455289, 42.8952814 ], [ -1.9455327, 42.8952364 ], [ -1.9455365, 42.8951914 ], [ -1.9455366, 42.8951858 ], [ -1.9455396, 42.8951408 ], [ -1.9455427, 42.8950958 ], [ -1.945545, 42.8950508 ], [ -1.9455466, 42.8950058 ], [ -1.9455481, 42.8949608 ], [ -1.9455488, 42.8949158 ], [ -1.9455489, 42.8948707 ], [ -1.9455489, 42.8948257 ], [ -1.9455481, 42.8947807 ], [ -1.9455474, 42.8947357 ], [ -1.9455458, 42.8946906 ], [ -1.9455435, 42.8946456 ], [ -1.9455412, 42.8946005 ], [ -1.9455413, 42.8945988 ], [ -1.9455382, 42.8945538 ], [ -1.9455344, 42.8945087 ], [ -1.9455305, 42.8944642 ], [ -1.945526, 42.8944191 ], [ -1.9455214, 42.8943741 ], [ -1.945516, 42.894329 ], [ -1.9455099, 42.8942845 ], [ -1.9455037, 42.8942394 ], [ -1.9454968, 42.8941949 ], [ -1.9454892, 42.8941503 ], [ -1.9454816, 42.8941058 ], [ -1.9454731, 42.8940607 ], [ -1.9454639, 42.8940162 ], [ -1.945461, 42.8940055 ], [ -1.9454511, 42.8939609 ], [ -1.9454396, 42.8939169 ], [ -1.9454273, 42.8938723 ], [ -1.9454143, 42.8938283 ], [ -1.9454013, 42.8937849 ], [ -1.9453867, 42.8937408 ], [ -1.9453729, 42.8936968 ], [ -1.9453584, 42.8936533 ], [ -1.9453438, 42.8936093 ], [ -1.94533, 42.8935652 ], [ -1.9453162, 42.8935218 ], [ -1.9453024, 42.8934778 ], [ -1.9452894, 42.8934337 ], [ -1.9452779, 42.8933897 ], [ -1.9452672, 42.8933452 ], [ -1.9452572, 42.8933006 ], [ -1.9452515, 42.8932752 ], [ -1.9452431, 42.8932307 ], [ -1.9452347, 42.8931861 ], [ -1.9452263, 42.893141 ], [ -1.9452186, 42.8930965 ], [ -1.9452117, 42.893052 ], [ -1.9452048, 42.8930069 ], [ -1.9451987, 42.8929624 ], [ -1.9451934, 42.8929173 ], [ -1.9451895, 42.8928723 ], [ -1.9451857, 42.8928272 ], [ -1.9451826, 42.8927827 ], [ -1.9451811, 42.8927377 ], [ -1.9451804, 42.8926921 ], [ -1.9451798, 42.892678 ], [ -1.9451806, 42.892633 ], [ -1.9451814, 42.8925879 ], [ -1.9451836, 42.892543 ], [ -1.9451867, 42.892498 ], [ -1.9451906, 42.892453 ], [ -1.9451944, 42.892408 ], [ -1.9451997, 42.892363 ], [ -1.9452051, 42.892318 ], [ -1.9452112, 42.892273 ], [ -1.9452181, 42.8922286 ], [ -1.945225, 42.8921837 ], [ -1.9452319, 42.8921387 ], [ -1.9452403, 42.8920943 ], [ -1.945248, 42.8920494 ], [ -1.9452564, 42.892005 ], [ -1.9452606, 42.8919842 ], [ -1.9452705, 42.8919399 ], [ -1.9452804, 42.8918955 ], [ -1.9452919, 42.8918511 ], [ -1.9453042, 42.8918073 ], [ -1.9453164, 42.891763 ], [ -1.9453294, 42.8917192 ], [ -1.9453424, 42.8916749 ], [ -1.9453554, 42.8916311 ], [ -1.9453684, 42.8915873 ], [ -1.9453814, 42.891543 ], [ -1.9453936, 42.8914992 ], [ -1.9454051, 42.8914548 ], [ -1.9454083, 42.8914441 ], [ -1.945419, 42.8913998 ], [ -1.9454305, 42.8913554 ], [ -1.9454412, 42.8913111 ], [ -1.9454519, 42.8912667 ], [ -1.9454626, 42.8912223 ], [ -1.9454733, 42.891178 ], [ -1.945484, 42.8911336 ], [ -1.945494, 42.8910892 ], [ -1.9455047, 42.8910448 ], [ -1.9455154, 42.8910005 ], [ -1.9455261, 42.8909561 ], [ -1.9455368, 42.8909118 ], [ -1.9455426, 42.8908859 ], [ -1.9455533, 42.8908416 ], [ -1.9455632, 42.8907972 ], [ -1.9455732, 42.8907528 ], [ -1.9455824, 42.8907079 ], [ -1.9455923, 42.8906635 ], [ -1.9456023, 42.8906192 ], [ -1.9456122, 42.8905748 ], [ -1.9456222, 42.8905304 ], [ -1.9456328, 42.8904861 ], [ -1.9456443, 42.8904417 ], [ -1.9456566, 42.8903979 ], [ -1.9456696, 42.8903536 ], [ -1.9456841, 42.8903098 ], [ -1.9456905, 42.8902896 ], [ -1.9457066, 42.8902458 ], [ -1.9457234, 42.8902027 ], [ -1.945741, 42.89016 ], [ -1.9457601, 42.8901169 ], [ -1.9457784, 42.8900743 ], [ -1.9457983, 42.8900311 ], [ -1.9458174, 42.8899885 ], [ -1.9458365, 42.889946 ], [ -1.9458548, 42.8899028 ], [ -1.9458732, 42.8898596 ], [ -1.9458884, 42.8898226 ], [ -1.9459051, 42.8897794 ], [ -1.9459227, 42.8897362 ], [ -1.9459395, 42.8896931 ], [ -1.9459571, 42.8896499 ], [ -1.9459739, 42.8896067 ], [ -1.9459908, 42.889563 ], [ -1.9460075, 42.8895198 ], [ -1.9460251, 42.8894766 ], [ -1.9460419, 42.8894334 ], [ -1.9460588, 42.8893902 ], [ -1.9460755, 42.889347 ], [ -1.9460779, 42.8893415 ], [ -1.9460947, 42.8892977 ], [ -1.9461116, 42.8892545 ], [ -1.9461284, 42.8892114 ], [ -1.9461452, 42.8891682 ], [ -1.946162, 42.889125 ], [ -1.9461788, 42.8890812 ], [ -1.9461956, 42.8890381 ], [ -1.9462133, 42.8889949 ], [ -1.94623, 42.8889517 ], [ -1.9462484, 42.8889085 ], [ -1.9462667, 42.8888659 ], [ -1.946285, 42.8888227 ], [ -1.9463034, 42.8887802 ], [ -1.9463224, 42.8887375 ], [ -1.9463415, 42.8886944 ], [ -1.9463614, 42.8886518 ], [ -1.9463805, 42.8886092 ], [ -1.9463996, 42.8885666 ], [ -1.9464187, 42.8885234 ], [ -1.9464386, 42.8884808 ], [ -1.9464569, 42.8884382 ], [ -1.9464657, 42.8884175 ], [ -1.9464848, 42.8883749 ], [ -1.9465039, 42.8883323 ], [ -1.9465222, 42.8882891 ], [ -1.9465413, 42.8882465 ], [ -1.9465596, 42.8882034 ], [ -1.946578, 42.8881608 ], [ -1.9465971, 42.8881176 ], [ -1.9466154, 42.888075 ], [ -1.9466337, 42.8880318 ], [ -1.9466979, 42.8878152 ], [ -1.9467159, 42.8877438 ], [ -1.9467215, 42.8877338 ], [ -1.9467405, 42.8876968 ], [ -1.946758, 42.8876564 ], [ -1.9467733, 42.8876138 ], [ -1.9467871, 42.8875683 ], [ -1.9467994, 42.8875206 ], [ -1.9468102, 42.8874695 ], [ -1.9468162, 42.8874324 ], [ -1.9468208, 42.8873874 ], [ -1.9468231, 42.8873424 ], [ -1.9468238, 42.8872974 ], [ -1.9468223, 42.8872524 ], [ -1.94682, 42.8872073 ], [ -1.9468183, 42.8871764 ], [ -1.9468152, 42.8871319 ], [ -1.9468121, 42.8870868 ], [ -1.9468083, 42.8870417 ], [ -1.9468037, 42.8869967 ], [ -1.9467999, 42.8869516 ], [ -1.9467945, 42.8869065 ], [ -1.9467899, 42.886862 ], [ -1.9467838, 42.886817 ], [ -1.9467785, 42.8867719 ], [ -1.9467723, 42.8867274 ], [ -1.9467654, 42.8866823 ], [ -1.9467586, 42.8866378 ], [ -1.9467509, 42.8865927 ], [ -1.9467432, 42.8865481 ], [ -1.9467356, 42.8865036 ], [ -1.9467264, 42.8864591 ], [ -1.9467179, 42.8864145 ], [ -1.946708, 42.8863699 ], [ -1.9466988, 42.8863254 ], [ -1.9466881, 42.8862808 ], [ -1.9466774, 42.8862368 ], [ -1.9466666, 42.8861923 ], [ -1.9466552, 42.8861483 ], [ -1.9466429, 42.8861037 ], [ -1.9466349, 42.8860749 ], [ -1.9466204, 42.8860309 ], [ -1.9466051, 42.8859874 ], [ -1.9465882, 42.8859439 ], [ -1.9465698, 42.885901 ], [ -1.9465506, 42.885858 ], [ -1.9465292, 42.8858156 ], [ -1.946482, 42.8856621 ], [ -1.9464789, 42.8856643 ], [ -1.9464379, 42.8856932 ], [ -1.9463854, 42.8857169 ], [ -1.9463224, 42.885736 ], [ -1.9462893, 42.8857419 ], [ -1.946228, 42.8857453 ], [ -1.9461661, 42.8857447 ], [ -1.9461048, 42.8857475 ], [ -1.9460488, 42.8857555 ], [ -1.9459897, 42.8857673 ], [ -1.9459305, 42.885778 ], [ -1.9458699, 42.8857859 ], [ -1.9458347, 42.8857884 ], [ -1.9457735, 42.8857895 ], [ -1.9457122, 42.885789 ], [ -1.9456502, 42.8857872 ], [ -1.9456074, 42.8857851 ], [ -1.9455463, 42.8857795 ], [ -1.9454851, 42.8857756 ], [ -1.9454238, 42.8857778 ], [ -1.9453916, 42.8857832 ], [ -1.9453347, 42.885799 ], [ -1.9452785, 42.8858181 ], [ -1.9452223, 42.8858373 ], [ -1.9451647, 42.8858514 ], [ -1.9451156, 42.8858577 ], [ -1.945055, 42.8858622 ], [ -1.9449938, 42.8858645 ], [ -1.9449317, 42.8858656 ], [ -1.9448705, 42.8858679 ], [ -1.9448099, 42.8858729 ], [ -1.9447486, 42.8858785 ], [ -1.9446873, 42.8858842 ], [ -1.9446268, 42.8858864 ], [ -1.9445656, 42.8858836 ], [ -1.9445214, 42.8858737 ], [ -1.9444643, 42.8858528 ], [ -1.9444055, 42.8858433 ], [ -1.9444002, 42.8858432 ], [ -1.9443418, 42.8858574 ], [ -1.9442908, 42.885885 ], [ -1.9442714, 42.8859006 ], [ -1.9442386, 42.8859386 ], [ -1.9442111, 42.8859794 ], [ -1.9442088, 42.8859827 ], [ -1.9441889, 42.886027 ], [ -1.9441713, 42.8860719 ], [ -1.944137, 42.8861071 ], [ -1.9440947, 42.8861224 ], [ -1.9440341, 42.886128 ], [ -1.9439706, 42.8861269 ], [ -1.943907, 42.8861302 ], [ -1.9438617, 42.8861366 ], [ -1.9438012, 42.8861445 ], [ -1.9437413, 42.8861551 ], [ -1.9436836, 42.8861698 ], [ -1.9436759, 42.8861726 ], [ -1.9436235, 42.8861951 ], [ -1.9435733, 42.8862217 ], [ -1.9435216, 42.8862465 ], [ -1.9435062, 42.8862532 ], [ -1.9434537, 42.886278 ], [ -1.943399, 42.8862995 ], [ -1.9433406, 42.8863108 ], [ -1.9432848, 42.8863051 ], [ -1.9432269, 42.8862883 ], [ -1.9431683, 42.8862726 ], [ -1.9431103, 42.8862636 ], [ -1.9430499, 42.8862546 ], [ -1.9429896, 42.8862467 ], [ -1.9429285, 42.88624 ], [ -1.9428681, 42.886236 ], [ -1.9428069, 42.8862338 ], [ -1.9427786, 42.8862341 ], [ -1.9427166, 42.8862346 ], [ -1.9426546, 42.8862363 ], [ -1.9425933, 42.8862402 ], [ -1.9425327, 42.886247 ], [ -1.9424728, 42.8862566 ], [ -1.9424145, 42.8862701 ], [ -1.9423836, 42.8862794 ], [ -1.9423297, 42.8863008 ], [ -1.9422795, 42.8863262 ], [ -1.9422293, 42.8863528 ], [ -1.9421791, 42.8863794 ], [ -1.9421259, 42.886402 ], [ -1.9421013, 42.8864107 ], [ -1.9420443, 42.8864282 ], [ -1.9419874, 42.886444 ], [ -1.9419298, 42.8864592 ], [ -1.9418729, 42.8864756 ], [ -1.9418329, 42.886487 ], [ -1.9417752, 42.8865028 ], [ -1.9417183, 42.8865203 ], [ -1.9416665, 42.886544 ], [ -1.941641, 42.8865629 ], [ -1.9416074, 42.8866015 ], [ -1.9415746, 42.8866411 ], [ -1.9415312, 42.8866722 ], [ -1.9415227, 42.8866761 ], [ -1.9414627, 42.8866929 ], [ -1.9414015, 42.8866907 ], [ -1.9413696, 42.8866781 ], [ -1.9413288, 42.886645 ], [ -1.9412951, 42.8866053 ], [ -1.941259, 42.8865661 ], [ -1.9412372, 42.8865418 ], [ -1.941205, 42.8865004 ], [ -1.941158, 42.8864746 ], [ -1.9411442, 42.8864734 ], [ -1.9410875, 42.8864796 ], [ -1.9410336, 42.886501 ], [ -1.9409802, 42.8865304 ], [ -1.9409262, 42.886558 ], [ -1.9408685, 42.8865755 ], [ -1.9408547, 42.8865776 ], [ -1.9407941, 42.8865843 ], [ -1.9407329, 42.8865866 ], [ -1.9406716, 42.8865855 ], [ -1.9406097, 42.8865826 ], [ -1.9405485, 42.8865776 ], [ -1.9405218, 42.8865745 ], [ -1.9404615, 42.8865644 ], [ -1.9404028, 42.8865503 ], [ -1.9403441, 42.8865368 ], [ -1.9402846, 42.8865262 ], [ -1.9402242, 42.8865211 ], [ -1.9401737, 42.8865218 ], [ -1.9401124, 42.8865263 ], [ -1.9400518, 42.8865341 ], [ -1.9399926, 42.8865465 ], [ -1.939935, 42.8865629 ], [ -1.9399296, 42.8865651 ], [ -1.9398786, 42.88659 ], [ -1.9398329, 42.8866216 ], [ -1.9397887, 42.886655 ], [ -1.9397415, 42.8866832 ], [ -1.9396869, 42.8867024 ], [ -1.93965, 42.8867088 ], [ -1.9395849, 42.8867139 ], [ -1.939523, 42.8867071 ], [ -1.939469, 42.8866852 ], [ -1.9394547, 42.8866727 ], [ -1.9394386, 42.8866298 ], [ -1.939431, 42.8865824 ], [ -1.9394245, 42.886557 ], [ -1.9394154, 42.8865119 ], [ -1.9394054, 42.8864674 ], [ -1.9393863, 42.886425 ], [ -1.9393833, 42.8864193 ], [ -1.9393557, 42.8863763 ], [ -1.9393243, 42.8863355 ], [ -1.9392843, 42.8863013 ], [ -1.9392327, 42.8862778 ], [ -1.9391884, 42.8862706 ], [ -1.9391278, 42.8862757 ], [ -1.9390671, 42.8862897 ], [ -1.9390064, 42.8863061 ], [ -1.9389471, 42.886323 ], [ -1.9388917, 42.8863422 ], [ -1.9388385, 42.8863648 ], [ -1.9387883, 42.8863907 ], [ -1.9387791, 42.8863952 ], [ -1.9387257, 42.8864239 ], [ -1.9386976, 42.8864619 ], [ -1.9386982, 42.8864676 ], [ -1.9387382, 42.8865028 ], [ -1.9387662, 42.8865161 ], [ -1.9388101, 42.8865446 ], [ -1.9387945, 42.886567 ], [ -1.9387336, 42.8865889 ], [ -1.9386853, 42.8865986 ], [ -1.9386239, 42.8866031 ], [ -1.9385626, 42.8866076 ], [ -1.9385228, 42.8866117 ], [ -1.9384614, 42.8866179 ], [ -1.9384038, 42.8866314 ], [ -1.9383799, 42.886643 ], [ -1.9383357, 42.8866753 ], [ -1.9382878, 42.886703 ], [ -1.9382555, 42.8867105 ], [ -1.9381942, 42.8867139 ], [ -1.9381896, 42.8867139 ], [ -1.9381285, 42.8867088 ], [ -1.9380681, 42.886702 ], [ -1.9380092, 42.8867004 ], [ -1.9379472, 42.8866998 ], [ -1.9378885, 42.8866902 ], [ -1.9378391, 42.8866667 ], [ -1.9377945, 42.8866348 ], [ -1.9377698, 42.8866008 ], [ -1.9377298, 42.8865706 ], [ -1.9376842, 42.8865955 ], [ -1.9376475, 42.8866379 ], [ -1.937601, 42.8866673 ], [ -1.9375584, 42.886699 ], [ -1.9375402, 42.8867332 ], [ -1.9375158, 42.886774 ], [ -1.9374573, 42.8867909 ], [ -1.937424, 42.8868159 ], [ -1.9373904, 42.8868539 ], [ -1.9373576, 42.886893 ], [ -1.9373173, 42.8869264 ], [ -1.9373087, 42.8869319 ], [ -1.9372585, 42.8869591 ], [ -1.9372038, 42.8869805 ], [ -1.9371439, 42.8869912 ], [ -1.9371286, 42.8869922 ], [ -1.9370659, 42.8869865 ], [ -1.937012, 42.8869641 ], [ -1.9369961, 42.8869521 ], [ -1.9369685, 42.886913 ], [ -1.9369616, 42.886864 ], [ -1.9369397, 42.8867602 ], [ -1.9368861, 42.8867603 ], [ -1.9368231, 42.8867738 ], [ -1.9367815, 42.886792 ], [ -1.9367366, 42.886823 ], [ -1.9367296, 42.8868286 ], [ -1.936693, 42.8868649 ], [ -1.9366647, 42.8869057 ], [ -1.9366286, 42.8870005 ], [ -1.9363988, 42.8868835 ], [ -1.9363772, 42.8868906 ], [ -1.9363165, 42.8869047 ], [ -1.9362942, 42.886909 ], [ -1.9362343, 42.8869208 ], [ -1.9361731, 42.8869225 ], [ -1.9361327, 42.8869126 ], [ -1.9360795, 42.886889 ], [ -1.9360263, 42.8868654 ], [ -1.9359799, 42.8868487 ], [ -1.9359244, 42.8868279 ], [ -1.9358681, 42.8868111 ], [ -1.9358085, 42.8868009 ], [ -1.9357733, 42.8868 ], [ -1.9357128, 42.8868074 ], [ -1.9356529, 42.8868186 ], [ -1.9355915, 42.8868259 ], [ -1.9355349, 42.8868265 ], [ -1.9354737, 42.8868237 ], [ -1.9354125, 42.886822 ], [ -1.9353535, 42.8868226 ], [ -1.9352923, 42.8868231 ], [ -1.935231, 42.8868248 ], [ -1.9351697, 42.8868293 ], [ -1.9351436, 42.8868325 ], [ -1.9350838, 42.8868432 ], [ -1.9350239, 42.886855 ], [ -1.9349633, 42.88686 ], [ -1.934922, 42.8868574 ], [ -1.9348617, 42.8868467 ], [ -1.9348022, 42.8868349 ], [ -1.9347411, 42.8868304 ], [ -1.934725, 42.8868314 ], [ -1.9346659, 42.8868409 ], [ -1.934609, 42.8868601 ], [ -1.9344986, 42.8869542 ], [ -1.9344653, 42.8869364 ], [ -1.9344097, 42.8869185 ], [ -1.934344, 42.8869071 ], [ -1.9343242, 42.8869059 ], [ -1.9342623, 42.8869036 ], [ -1.9342009, 42.886907 ], [ -1.9341404, 42.8869148 ], [ -1.9340804, 42.8869266 ], [ -1.934052, 42.8869348 ], [ -1.9339965, 42.8869534 ], [ -1.9339449, 42.8869777 ], [ -1.9338962, 42.8870066 ], [ -1.9336747, 42.8871109 ], [ -1.9336306, 42.8870913 ], [ -1.933575, 42.8870728 ], [ -1.9335111, 42.887057 ], [ -1.9334958, 42.887054 ], [ -1.9334355, 42.8870411 ], [ -1.9333744, 42.8870332 ], [ -1.9333139, 42.8870366 ], [ -1.9332607, 42.8870586 ], [ -1.933212, 42.8870869 ], [ -1.9331758, 42.8871028 ], [ -1.9331211, 42.8871226 ], [ -1.9330665, 42.8871361 ], [ -1.9330059, 42.8871468 ], [ -1.9329467, 42.8871587 ], [ -1.9328921, 42.8871779 ], [ -1.9328556, 42.887209 ], [ -1.9328144, 42.8872424 ], [ -1.9327736, 42.8872584 ], [ -1.9327136, 42.8872719 ], [ -1.9326516, 42.8872718 ], [ -1.932603, 42.8872494 ], [ -1.9325561, 42.8872186 ], [ -1.9325136, 42.8871963 ], [ -1.9324621, 42.8871693 ], [ -1.9324049, 42.8871576 ], [ -1.9324018, 42.8871575 ], [ -1.9323472, 42.8871756 ], [ -1.9322954, 42.8872021 ], [ -1.9322631, 42.8872136 ], [ -1.9322084, 42.8872345 ], [ -1.9321514, 42.887252 ], [ -1.932093, 42.8872644 ], [ -1.9320387, 42.8872661 ], [ -1.9319775, 42.8872605 ], [ -1.9319714, 42.8872599 ], [ -1.9319143, 42.8872436 ], [ -1.9318556, 42.8872301 ], [ -1.9318059, 42.8872285 ], [ -1.9317446, 42.8872319 ], [ -1.931684, 42.8872381 ], [ -1.9316227, 42.887242 ], [ -1.9315905, 42.8872422 ], [ -1.9315294, 42.8872411 ], [ -1.9314682, 42.8872394 ], [ -1.9314069, 42.8872388 ], [ -1.9313457, 42.8872411 ], [ -1.9313365, 42.8872416 ], [ -1.9312758, 42.8872522 ], [ -1.9312167, 42.8872641 ], [ -1.9311561, 42.8872691 ], [ -1.9311164, 42.8872654 ], [ -1.9310577, 42.8872525 ], [ -1.9309998, 42.8872367 ], [ -1.9309403, 42.8872238 ], [ -1.9308914, 42.8872172 ], [ -1.9308303, 42.8872121 ], [ -1.9307699, 42.8872064 ], [ -1.9307096, 42.8871974 ], [ -1.9306693, 42.8871869 ], [ -1.9306129, 42.8871673 ], [ -1.9305575, 42.8871459 ], [ -1.9305011, 42.8871291 ], [ -1.9304415, 42.8871212 ], [ -1.9303871, 42.887128 ], [ -1.9303293, 42.887146 ], [ -1.9302709, 42.8871601 ], [ -1.9302387, 42.8871643 ], [ -1.9301774, 42.8871694 ], [ -1.9301161, 42.8871722 ], [ -1.9300549, 42.8871733 ], [ -1.9299936, 42.8871722 ], [ -1.9299891, 42.8871721 ], [ -1.9299271, 42.8871704 ], [ -1.9298652, 42.8871682 ], [ -1.929804, 42.8871636 ], [ -1.9297445, 42.8871546 ], [ -1.9296865, 42.8871406 ], [ -1.9296766, 42.8871371 ], [ -1.9296273, 42.8871113 ], [ -1.9295827, 42.8870788 ], [ -1.9295373, 42.8870474 ], [ -1.9294857, 42.8870245 ], [ -1.9294491, 42.8870174 ], [ -1.9293879, 42.8870162 ], [ -1.9293259, 42.8870151 ], [ -1.9293206, 42.8870145 ], [ -1.9292594, 42.8870099 ], [ -1.9291983, 42.8870043 ], [ -1.9291395, 42.8869931 ], [ -1.9291365, 42.8869925 ], [ -1.9290833, 42.8869712 ], [ -1.9290332, 42.8869448 ], [ -1.9289816, 42.8869201 ], [ -1.9289276, 42.8868976 ], [ -1.9288744, 42.8868764 ], [ -1.9288189, 42.8868561 ], [ -1.9287626, 42.8868393 ], [ -1.9287435, 42.8868351 ], [ -1.9286816, 42.8868278 ], [ -1.9286245, 42.8868138 ], [ -1.9285822, 42.8867807 ], [ -1.9285515, 42.8867405 ], [ -1.9285208, 42.8866997 ], [ -1.9284809, 42.8866661 ], [ -1.9284566, 42.8866535 ], [ -1.9284018, 42.8866338 ], [ -1.92834, 42.8866237 ], [ -1.9280707, 42.8866634 ], [ -1.928025, 42.8866928 ], [ -1.9279808, 42.8867245 ], [ -1.9279397, 42.8867573 ], [ -1.9279366, 42.8867595 ], [ -1.927906, 42.8868031 ], [ -1.9278657, 42.8868337 ], [ -1.9278634, 42.8868337 ], [ -1.9278132, 42.8868129 ], [ -1.9277716, 42.8867827 ], [ -1.9277169, 42.8867614 ], [ -1.9276604, 42.8867512 ], [ -1.9276013, 42.886762 ], [ -1.9275451, 42.8867828 ], [ -1.9274967, 42.8867919 ], [ -1.9274363, 42.8867875 ], [ -1.9273768, 42.8867751 ], [ -1.9273181, 42.8867599 ], [ -1.9272891, 42.886754 ], [ -1.9272305, 42.8867388 ], [ -1.9271711, 42.8867225 ], [ -1.9271123, 42.8867146 ], [ -1.927087, 42.8867161 ], [ -1.9270338, 42.8867364 ], [ -1.9269873, 42.886768 ], [ -1.9269511, 42.8867863 ], [ -1.9268934, 42.8868026 ], [ -1.9268328, 42.8868099 ], [ -1.9267663, 42.8868048 ], [ -1.9267282, 42.8867926 ], [ -1.926704, 42.8873512 ], [ -1.9266849, 42.8873922 ], [ -1.9263539, 42.8922175 ], [ -1.9263485, 42.8922625 ], [ -1.9263431, 42.8923069 ], [ -1.9263378, 42.8923518 ], [ -1.9263324, 42.8923968 ], [ -1.926327, 42.8924418 ], [ -1.9263217, 42.8924862 ], [ -1.9263163, 42.8925312 ], [ -1.9263117, 42.8925762 ], [ -1.9263063, 42.8926211 ], [ -1.9263017, 42.8926661 ], [ -1.9262971, 42.8927111 ], [ -1.9262917, 42.8927555 ], [ -1.9262871, 42.8928005 ], [ -1.9262842, 42.8928337 ], [ -1.9262796, 42.8928787 ], [ -1.926275, 42.8929236 ], [ -1.9262704, 42.8929686 ], [ -1.9262658, 42.8930136 ], [ -1.926262, 42.8930586 ], [ -1.9262574, 42.893103 ], [ -1.9262527, 42.893148 ], [ -1.9262489, 42.893193 ], [ -1.926245, 42.893238 ], [ -1.9262405, 42.893283 ], [ -1.9262374, 42.893328 ], [ -1.9262335, 42.8933729 ], [ -1.9262304, 42.8934179 ], [ -1.9262274, 42.893463 ], [ -1.9262243, 42.8935079 ], [ -1.9262222, 42.8935372 ], [ -1.92622, 42.8935816 ], [ -1.9262176, 42.8936266 ], [ -1.9262161, 42.8936716 ], [ -1.9262146, 42.8937166 ], [ -1.926213, 42.8937617 ], [ -1.9262114, 42.8938067 ], [ -1.9262099, 42.8938517 ], [ -1.9262091, 42.8938967 ], [ -1.9262083, 42.8939417 ], [ -1.9262076, 42.8939868 ], [ -1.9262068, 42.8940317 ], [ -1.926206, 42.8940768 ], [ -1.9262052, 42.8941218 ], [ -1.9262044, 42.8941668 ], [ -1.9262044, 42.8942118 ], [ -1.9262036, 42.8942569 ], [ -1.9262035, 42.8942642 ], [ -1.9262027, 42.8943092 ], [ -1.9262027, 42.8943542 ], [ -1.9262019, 42.8943992 ], [ -1.9262019, 42.8944443 ], [ -1.9262019, 42.8944893 ], [ -1.9262011, 42.8945343 ], [ -1.9262011, 42.8945793 ], [ -1.9262011, 42.8946244 ], [ -1.9262011, 42.8946694 ], [ -1.9262018, 42.8947144 ], [ -1.9262018, 42.8947594 ], [ -1.9262018, 42.8948045 ], [ -1.9262017, 42.8948495 ], [ -1.9262017, 42.8948945 ], [ -1.9262017, 42.8949395 ], [ -1.9262025, 42.8949845 ], [ -1.9262024, 42.8950296 ], [ -1.9262025, 42.8950746 ], [ -1.9262027, 42.8951033 ], [ -1.9262027, 42.8951484 ], [ -1.9262026, 42.8951934 ], [ -1.9262019, 42.8952384 ], [ -1.9262019, 42.8952834 ], [ -1.9262019, 42.8953285 ], [ -1.9262018, 42.8953735 ], [ -1.9262018, 42.8954185 ], [ -1.9262018, 42.8954635 ], [ -1.9262018, 42.8955085 ], [ -1.9262025, 42.8955536 ], [ -1.9262025, 42.8955986 ], [ -1.9262033, 42.8956436 ], [ -1.926204, 42.8956887 ], [ -1.9262039, 42.895696 ], [ -1.9262046, 42.895741 ], [ -1.9262061, 42.8957861 ], [ -1.9262069, 42.8958311 ], [ -1.9262084, 42.8958761 ], [ -1.9262099, 42.8959212 ], [ -1.9262114, 42.8959662 ], [ -1.9262137, 42.8960107 ], [ -1.9262153, 42.8960557 ], [ -1.9262168, 42.8961008 ], [ -1.9262183, 42.8961458 ], [ -1.9262205, 42.8961908 ], [ -1.9262213, 42.8962359 ], [ -1.9262228, 42.8962809 ], [ -1.9262243, 42.896326 ], [ -1.9262245, 42.8963586 ], [ -1.9262253, 42.8964036 ], [ -1.9262268, 42.8964487 ], [ -1.9262268, 42.8964937 ], [ -1.9262275, 42.8965387 ], [ -1.9262283, 42.8965838 ], [ -1.926229, 42.8966288 ], [ -1.926229, 42.8966738 ], [ -1.926229, 42.8967189 ], [ -1.926229, 42.8967639 ], [ -1.926229, 42.8968089 ], [ -1.9262289, 42.8968539 ], [ -1.9262289, 42.896899 ], [ -1.9262289, 42.8969018 ], [ -1.9262281, 42.8969468 ], [ -1.9262265, 42.8969918 ], [ -1.9262258, 42.8970368 ], [ -1.9262242, 42.8970818 ], [ -1.9262219, 42.8971268 ], [ -1.9262203, 42.8971718 ], [ -1.9262188, 42.8972169 ], [ -1.9262172, 42.8972618 ], [ -1.9262164, 42.8973069 ], [ -1.9262157, 42.8973519 ], [ -1.9262151, 42.8973845 ], [ -1.9262151, 42.8974296 ], [ -1.9262158, 42.8974746 ], [ -1.9262174, 42.8975196 ], [ -1.9262189, 42.8975647 ], [ -1.9262204, 42.8976097 ], [ -1.9262219, 42.8976547 ], [ -1.9262227, 42.8976998 ], [ -1.9262234, 42.8977448 ], [ -1.9262242, 42.8977893 ], [ -1.9262234, 42.8978343 ], [ -1.926223, 42.897858 ], [ -1.9262206, 42.8979029 ], [ -1.9262183, 42.8979479 ], [ -1.926216, 42.897993 ], [ -1.9262122, 42.8980379 ], [ -1.9262083, 42.8980829 ], [ -1.9262045, 42.8981273 ], [ -1.9261991, 42.8981723 ], [ -1.9261937, 42.8982173 ], [ -1.9261928, 42.8982285 ], [ -1.9261859, 42.8982735 ], [ -1.9261775, 42.8983179 ], [ -1.9261682, 42.8983628 ], [ -1.9261598, 42.8984072 ], [ -1.9261537, 42.8984522 ], [ -1.926151, 42.8984741 ], [ -1.9261479, 42.8985191 ], [ -1.9261464, 42.8985641 ], [ -1.9261456, 42.8986091 ], [ -1.9261464, 42.8986541 ], [ -1.9261471, 42.8986992 ], [ -1.9261486, 42.8987442 ], [ -1.9261501, 42.8987893 ], [ -1.9261517, 42.8988343 ], [ -1.9261523, 42.8988416 ], [ -1.9261546, 42.8988867 ], [ -1.9261576, 42.8989318 ], [ -1.9261606, 42.8989762 ], [ -1.9261652, 42.8990213 ], [ -1.9261683, 42.8990663 ], [ -1.9261721, 42.8991114 ], [ -1.9261744, 42.8991565 ], [ -1.9261752, 42.8991976 ], [ -1.9261752, 42.8992426 ], [ -1.9261752, 42.8992876 ], [ -1.9261736, 42.8993326 ], [ -1.9261721, 42.8993776 ], [ -1.9261697, 42.8994226 ], [ -1.9261675, 42.8994676 ], [ -1.9261651, 42.8995126 ], [ -1.926162, 42.8995576 ], [ -1.926159, 42.8996026 ], [ -1.9261568, 42.8996381 ], [ -1.9261545, 42.8996825 ], [ -1.9261506, 42.8997275 ], [ -1.9261476, 42.8997725 ], [ -1.9261438, 42.8998175 ], [ -1.9261399, 42.8998625 ], [ -1.9261361, 42.8999074 ], [ -1.9261322, 42.8999524 ], [ -1.9261284, 42.8999974 ], [ -1.9261253, 42.9000424 ], [ -1.926125, 42.9000582 ], [ -1.9261219, 42.9001032 ], [ -1.9261204, 42.9001482 ], [ -1.9261181, 42.9001932 ], [ -1.9261165, 42.9002382 ], [ -1.926115, 42.9002832 ], [ -1.9261127, 42.9003282 ], [ -1.9261106, 42.9003597 ], [ -1.9261083, 42.9004047 ], [ -1.9261044, 42.9004497 ], [ -1.9261006, 42.9004947 ], [ -1.9260975, 42.9005397 ], [ -1.9260937, 42.9005841 ], [ -1.9260906, 42.9006291 ], [ -1.9260895, 42.9006466 ], [ -1.9260871, 42.9006978 ], [ -1.9260855, 42.9007456 ], [ -1.926084, 42.90079 ], [ -1.9260832, 42.9008317 ], [ -1.9260835, 42.9008609 ], [ -1.925955, 42.9016899 ], [ -1.9259418, 42.901876 ], [ -1.9259334, 42.901921 ], [ -1.925925, 42.9019654 ], [ -1.925915, 42.9020098 ], [ -1.9259092, 42.9020367 ], [ -1.9258969, 42.9020867 ], [ -1.9258854, 42.9021311 ], [ -1.9258739, 42.9021703 ], [ -1.9258731, 42.9021748 ], [ -1.9258057, 42.9024443 ], [ -1.9257941, 42.9024887 ], [ -1.9257819, 42.902533 ], [ -1.9257704, 42.9025768 ], [ -1.9257582, 42.9026212 ], [ -1.9257459, 42.9026655 ], [ -1.9257337, 42.9027093 ], [ -1.9257214, 42.9027537 ], [ -1.9257092, 42.9027975 ], [ -1.9256961, 42.9028418 ], [ -1.9256953, 42.9028446 ], [ -1.9256823, 42.9028889 ], [ -1.9256685, 42.9029327 ], [ -1.925654, 42.9029765 ], [ -1.9256395, 42.9030202 ], [ -1.9256257, 42.903064 ], [ -1.9256126, 42.9031083 ], [ -1.9256004, 42.9031521 ], [ -1.9255904, 42.9031965 ], [ -1.9255888, 42.9032055 ], [ -1.9255803, 42.9032499 ], [ -1.9255734, 42.9032948 ], [ -1.9255673, 42.9033392 ], [ -1.9255627, 42.9033842 ], [ -1.9255581, 42.9034292 ], [ -1.925555, 42.9034742 ], [ -1.9255527, 42.9035192 ], [ -1.9255504, 42.9035642 ], [ -1.9255492, 42.9035856 ], [ -1.9255477, 42.9036306 ], [ -1.9255477, 42.9036756 ], [ -1.9255484, 42.9037206 ], [ -1.9255499, 42.9037657 ], [ -1.9255514, 42.9038107 ], [ -1.9255537, 42.9038558 ], [ -1.925556, 42.9039008 ], [ -1.9255567, 42.9039025 ], [ -1.925559, 42.9039475 ], [ -1.9255613, 42.9039926 ], [ -1.9255636, 42.9040377 ], [ -1.9255666, 42.9040827 ], [ -1.9255697, 42.9041278 ], [ -1.9255734, 42.9041728 ], [ -1.9255788, 42.9042179 ], [ -1.9255849, 42.9042624 ], [ -1.9255926, 42.904307 ], [ -1.925594, 42.9043109 ], [ -1.9256032, 42.9043555 ], [ -1.9256155, 42.9043995 ], [ -1.9256285, 42.9044435 ], [ -1.925643, 42.9044875 ], [ -1.9256576, 42.904531 ], [ -1.9256721, 42.904575 ], [ -1.9256867, 42.9046185 ], [ -1.9256954, 42.9046456 ], [ -1.92571, 42.9046891 ], [ -1.9257253, 42.9047326 ], [ -1.9257406, 42.9047766 ], [ -1.9257544, 42.9048201 ], [ -1.9257623, 42.90485 ], [ -1.9257737, 42.9048945 ], [ -1.9257853, 42.9049391 ], [ -1.9257944, 42.9049837 ], [ -1.9258013, 42.9050282 ], [ -1.9258028, 42.9050732 ], [ -1.9258026, 42.9050856 ], [ -1.9257987, 42.9051306 ], [ -1.9257903, 42.905175 ], [ -1.9257796, 42.9052193 ], [ -1.9257666, 42.9052631 ], [ -1.9257521, 42.9053075 ], [ -1.9257367, 42.9053512 ], [ -1.9257206, 42.9053949 ], [ -1.9257174, 42.9054033 ], [ -1.9257014, 42.9054471 ], [ -1.9256838, 42.9054903 ], [ -1.9256662, 42.9055329 ], [ -1.9256471, 42.9055761 ], [ -1.9256272, 42.9056187 ], [ -1.9256065, 42.9056612 ], [ -1.9255867, 42.9057038 ], [ -1.925566, 42.9057464 ], [ -1.9255453, 42.9057901 ], [ -1.9255247, 42.9058321 ], [ -1.9255041, 42.9058747 ], [ -1.9254834, 42.9059173 ], [ -1.925462, 42.9059593 ], [ -1.9254406, 42.9060013 ], [ -1.9254184, 42.9060433 ], [ -1.9253955, 42.9060853 ], [ -1.9253726, 42.9061273 ], [ -1.925356, 42.9061575 ], [ -1.9253315, 42.906199 ], [ -1.9253063, 42.9062398 ], [ -1.9252804, 42.9062806 ], [ -1.9252536, 42.9063215 ], [ -1.9252269, 42.9063617 ], [ -1.9252001, 42.9064026 ], [ -1.9251734, 42.9064428 ], [ -1.9251474, 42.9064837 ], [ -1.9251222, 42.9065245 ], [ -1.9250978, 42.9065659 ], [ -1.9250764, 42.9066057 ], [ -1.9250542, 42.9066483 ], [ -1.9250336, 42.9066903 ], [ -1.9250137, 42.9067329 ], [ -1.9249946, 42.9067755 ], [ -1.9249754, 42.9068186 ], [ -1.9249571, 42.9068612 ], [ -1.9249395, 42.9069044 ], [ -1.9249219, 42.9069476 ], [ -1.9249043, 42.9069908 ], [ -1.9248867, 42.9070339 ], [ -1.9248699, 42.9070771 ], [ -1.9248683, 42.9070805 ], [ -1.9248515, 42.9071236 ], [ -1.9248362, 42.9071674 ], [ -1.9248216, 42.9072111 ], [ -1.9248071, 42.9072549 ], [ -1.9247925, 42.9072987 ], [ -1.9247765, 42.9073419 ], [ -1.9247581, 42.907385 ], [ -1.9247438, 42.907417 ], [ -1.9247223, 42.907459 ], [ -1.9246986, 42.9075004 ], [ -1.9246742, 42.9075418 ], [ -1.9246482, 42.9075827 ], [ -1.9246207, 42.9076229 ], [ -1.9245933, 42.9076632 ], [ -1.9245838, 42.9076766 ], [ -1.9245548, 42.9077157 ], [ -1.9245227, 42.9077543 ], [ -1.9244907, 42.9077928 ], [ -1.9244594, 42.9078313 ], [ -1.9244304, 42.907871 ], [ -1.9244249, 42.9078789 ], [ -1.9243997, 42.9079197 ], [ -1.924376, 42.9079611 ], [ -1.924353, 42.9080031 ], [ -1.9243316, 42.9080451 ], [ -1.924311, 42.9080877 ], [ -1.9242896, 42.9081297 ], [ -1.9242816, 42.9081449 ], [ -1.9242602, 42.9081874 ], [ -1.9242373, 42.9082294 ], [ -1.9242151, 42.9082714 ], [ -1.9241937, 42.9083134 ], [ -1.9241739, 42.908356 ], [ -1.9241547, 42.9083986 ], [ -1.9241403, 42.9084345 ], [ -1.9241266, 42.9084783 ], [ -1.9241143, 42.9085226 ], [ -1.9241035, 42.908567 ], [ -1.9240944, 42.9086113 ], [ -1.9240844, 42.9086557 ], [ -1.9240729, 42.9087001 ], [ -1.9240721, 42.9087035 ], [ -1.9240599, 42.9087472 ], [ -1.9240476, 42.9087916 ], [ -1.9240346, 42.9088354 ], [ -1.9240216, 42.9088797 ], [ -1.9240078, 42.9089235 ], [ -1.923998, 42.9089543 ], [ -1.9239835, 42.9089981 ], [ -1.923969, 42.9090419 ], [ -1.9239537, 42.9090856 ], [ -1.9239384, 42.9091294 ], [ -1.923923, 42.9091726 ], [ -1.9239077, 42.9092163 ], [ -1.9238917, 42.9092595 ], [ -1.9238764, 42.9093032 ], [ -1.9238603, 42.909347 ], [ -1.9238563, 42.9093593 ], [ -1.9238401, 42.9094031 ], [ -1.9238241, 42.9094463 ], [ -1.923808, 42.90949 ], [ -1.9237912, 42.9095332 ], [ -1.9237751, 42.909577 ], [ -1.9237583, 42.9096202 ], [ -1.9237422, 42.9096633 ], [ -1.9237262, 42.9097071 ], [ -1.9237101, 42.9097503 ], [ -1.9236948, 42.909794 ], [ -1.9236795, 42.9098378 ], [ -1.9236649, 42.9098815 ], [ -1.9236641, 42.9098832 ], [ -1.9236503, 42.909927 ], [ -1.9236373, 42.9099713 ], [ -1.9236251, 42.9100151 ], [ -1.9236128, 42.9100594 ], [ -1.9236006, 42.9101032 ], [ -1.9235891, 42.9101476 ], [ -1.9235776, 42.9101919 ], [ -1.9235653, 42.9102363 ], [ -1.9235531, 42.9102801 ], [ -1.9235408, 42.9103244 ], [ -1.9235294, 42.9103637 ], [ -1.9235156, 42.9104075 ], [ -1.9235011, 42.9104513 ], [ -1.9234865, 42.910495 ], [ -1.923472, 42.9105388 ], [ -1.9234575, 42.9105825 ], [ -1.9234429, 42.9106263 ], [ -1.9234299, 42.9106701 ], [ -1.9234201, 42.9107043 ], [ -1.9234062, 42.9107537 ], [ -1.9233955, 42.9107992 ], [ -1.9233871, 42.9108408 ], [ -1.9233829, 42.9108638 ], [ -1.9233699, 42.9109053 ], [ -1.9232633, 42.9112223 ], [ -1.9231285, 42.9117552 ], [ -1.9231116, 42.9117983 ], [ -1.9230948, 42.9118415 ], [ -1.9230787, 42.9118853 ], [ -1.9230619, 42.9119284 ], [ -1.9230458, 42.9119716 ], [ -1.923029, 42.9120154 ], [ -1.9230129, 42.9120585 ], [ -1.9229968, 42.9121017 ], [ -1.9229807, 42.9121455 ], [ -1.9229647, 42.9121887 ], [ -1.9229486, 42.9122324 ], [ -1.9229326, 42.9122756 ], [ -1.9229277, 42.9122885 ], [ -1.9229117, 42.9123317 ], [ -1.9228963, 42.9123754 ], [ -1.922881, 42.9124192 ], [ -1.922865, 42.9124624 ], [ -1.9228497, 42.9125062 ], [ -1.9228343, 42.9125499 ], [ -1.922819, 42.9125931 ], [ -1.9228037, 42.9126369 ], [ -1.9227884, 42.9126806 ], [ -1.9227723, 42.9127238 ], [ -1.922757, 42.9127675 ], [ -1.9227417, 42.9128113 ], [ -1.9227257, 42.9128545 ], [ -1.9227224, 42.912864 ], [ -1.9227064, 42.9129078 ], [ -1.9226911, 42.912951 ], [ -1.922675, 42.9129947 ], [ -1.9226589, 42.9130379 ], [ -1.9226428, 42.9130816 ], [ -1.9226267, 42.9131248 ], [ -1.9226107, 42.913168 ], [ -1.9225946, 42.9132118 ], [ -1.9225786, 42.9132555 ], [ -1.9225697, 42.9132791 ], [ -1.9225544, 42.9133223 ], [ -1.9225383, 42.913366 ], [ -1.9225215, 42.9134092 ], [ -1.9225054, 42.9134529 ], [ -1.9224894, 42.9134961 ], [ -1.9224733, 42.9135398 ], [ -1.922458, 42.913583 ], [ -1.9224427, 42.9136268 ], [ -1.9224281, 42.9136706 ], [ -1.9224143, 42.9137143 ], [ -1.9224111, 42.9137245 ], [ -1.9223964, 42.9137738 ], [ -1.9223842, 42.9138187 ], [ -1.9223743, 42.9138592 ], [ -1.9223718, 42.913871 ], [ -1.9218542, 42.9160616 ], [ -1.9223004, 42.9161199 ], [ -1.922784, 42.9161835 ], [ -1.9234563, 42.916272 ], [ -1.9242333, 42.9163739 ], [ -1.9248506, 42.9164551 ], [ -1.9253609, 42.9165218 ], [ -1.9254067, 42.9164029 ], [ -1.9254149, 42.9163698 ], [ -1.9254319, 42.9163193 ], [ -1.9254516, 42.9162829 ], [ -1.9255001, 42.9160953 ], [ -1.9255283, 42.9160551 ], [ -1.9255551, 42.9160148 ], [ -1.9255803, 42.9159734 ], [ -1.925604, 42.915932 ], [ -1.9256262, 42.91589 ], [ -1.9256468, 42.915848 ], [ -1.9256619, 42.9158144 ], [ -1.9256796, 42.9157712 ], [ -1.9256948, 42.9157274 ], [ -1.9257086, 42.9156836 ], [ -1.9257209, 42.9156393 ], [ -1.9257323, 42.9155955 ], [ -1.9257439, 42.9155512 ], [ -1.9257554, 42.9155068 ], [ -1.9257676, 42.9154625 ], [ -1.9257798, 42.9154187 ], [ -1.9257944, 42.9153749 ], [ -1.925796, 42.9153715 ], [ -1.9258105, 42.9153278 ], [ -1.9258251, 42.915284 ], [ -1.9258396, 42.9152403 ], [ -1.9258542, 42.9151965 ], [ -1.9258702, 42.9151527 ], [ -1.9258863, 42.915109 ], [ -1.9259039, 42.9150658 ], [ -1.9259238, 42.9150233 ], [ -1.925946, 42.9149812 ], [ -1.9259704, 42.9149404 ], [ -1.9259972, 42.9148995 ], [ -1.926027, 42.9148599 ], [ -1.9260583, 42.9148213 ], [ -1.9260918, 42.9147834 ], [ -1.9261277, 42.9147466 ], [ -1.9261643, 42.9147103 ], [ -1.9262032, 42.9146752 ], [ -1.9262234, 42.9146574 ], [ -1.9262646, 42.9146241 ], [ -1.9263088, 42.9145929 ], [ -1.9263545, 42.914563 ], [ -1.9264009, 42.9145336 ], [ -1.9264481, 42.9145048 ], [ -1.9264946, 42.9144754 ], [ -1.9265163, 42.9144609 ], [ -1.9265674, 42.9144265 ], [ -1.9266162, 42.9143932 ], [ -1.9266628, 42.9143621 ], [ -1.9267061, 42.9143333 ], [ -1.9267472, 42.9143055 ], [ -1.9267782, 42.9142844 ], [ -1.9269614, 42.9141837 ], [ -1.9277424, 42.9138314 ], [ -1.9277587, 42.9138209 ], [ -1.9278005, 42.9137959 ], [ -1.9278453, 42.9137699 ], [ -1.9278933, 42.9137427 ], [ -1.9279443, 42.9137151 ], [ -1.9279991, 42.9136869 ], [ -1.9280563, 42.9136576 ], [ -1.9280749, 42.9136488 ], [ -1.928128, 42.9136268 ], [ -1.9281828, 42.9136059 ], [ -1.928236, 42.9135827 ], [ -1.9282847, 42.9135556 ], [ -1.9283142, 42.913534 ], [ -1.9283546, 42.9135 ], [ -1.928389, 42.9134626 ], [ -1.9284195, 42.9134224 ], [ -1.9285171, 42.9133164 ], [ -1.9286283, 42.9133472 ], [ -1.9286453, 42.9133401 ], [ -1.9286908, 42.9133186 ], [ -1.9287387, 42.9132948 ], [ -1.9287897, 42.9132688 ], [ -1.9288431, 42.91324 ], [ -1.9288995, 42.9132096 ], [ -1.9289304, 42.9131919 ], [ -1.9289784, 42.9131642 ], [ -1.9290256, 42.9131354 ], [ -1.9290728, 42.9131066 ], [ -1.92912, 42.9130777 ], [ -1.9291664, 42.9130484 ], [ -1.9292137, 42.9130195 ], [ -1.929233, 42.9130079 ], [ -1.9292802, 42.9129791 ], [ -1.9293267, 42.9129496 ], [ -1.9293738, 42.9129208 ], [ -1.9294203, 42.912892 ], [ -1.9294667, 42.9128626 ], [ -1.9295139, 42.9128338 ], [ -1.9295612, 42.912805 ], [ -1.9296084, 42.9127761 ], [ -1.9296556, 42.9127479 ], [ -1.9296889, 42.9127262 ], [ -1.9297331, 42.9126934 ], [ -1.9297788, 42.9126618 ], [ -1.9298275, 42.9126352 ], [ -1.929883, 42.9126172 ], [ -1.929929, 42.9126109 ], [ -1.9299895, 42.9126114 ], [ -1.9300498, 42.912621 ], [ -1.9301115, 42.9126402 ], [ -1.9303472, 42.9126947 ], [ -1.9303891, 42.9127046 ], [ -1.9304438, 42.912731 ], [ -1.9304642, 42.9127436 ], [ -1.930498, 42.9127811 ], [ -1.9305023, 42.9128003 ], [ -1.9304969, 42.9128452 ], [ -1.9304862, 42.9128907 ], [ -1.9304853, 42.9128975 ], [ -1.9304777, 42.9129419 ], [ -1.9304692, 42.9129868 ], [ -1.9304608, 42.9130312 ], [ -1.9304524, 42.9130756 ], [ -1.9304462, 42.9131205 ], [ -1.9304454, 42.9131262 ], [ -1.9304392, 42.9131711 ], [ -1.9304338, 42.9132161 ], [ -1.9304285, 42.9132611 ], [ -1.9304254, 42.9133061 ], [ -1.9304239, 42.9133511 ], [ -1.9304261, 42.9133961 ], [ -1.9304307, 42.9134401 ], [ -1.9304384, 42.9134846 ], [ -1.9304476, 42.9135291 ], [ -1.9304598, 42.9135732 ], [ -1.9304743, 42.9136172 ], [ -1.9304904, 42.9136613 ], [ -1.9305439, 42.9137996 ], [ -1.9305296, 42.9138333 ], [ -1.9305128, 42.9138719 ], [ -1.930496, 42.913914 ], [ -1.9304776, 42.9139583 ], [ -1.9304593, 42.9140049 ], [ -1.9304392, 42.9140542 ], [ -1.9304384, 42.914057 ], [ -1.9304208, 42.9141002 ], [ -1.9304032, 42.9141433 ], [ -1.9303864, 42.9141865 ], [ -1.9303696, 42.9142297 ], [ -1.9303543, 42.9142735 ], [ -1.9303405, 42.9143172 ], [ -1.9303347, 42.9143391 ], [ -1.9303233, 42.9143829 ], [ -1.9303133, 42.9144278 ], [ -1.9303049, 42.9144722 ], [ -1.930298, 42.9145172 ], [ -1.9302918, 42.9145616 ], [ -1.9302589, 42.9147414 ], [ -1.9302932, 42.9147513 ], [ -1.9303504, 42.9147642 ], [ -1.9304168, 42.9147744 ], [ -1.9304611, 42.9147793 ], [ -1.9305216, 42.9147827 ], [ -1.9305828, 42.9147849 ], [ -1.9306448, 42.9147872 ], [ -1.9307052, 42.9147906 ], [ -1.9307549, 42.9147955 ], [ -1.9308153, 42.9148023 ], [ -1.9308764, 42.9148096 ], [ -1.9309368, 42.9148169 ], [ -1.9309971, 42.9148237 ], [ -1.9310576, 42.9148293 ], [ -1.9310957, 42.9148325 ], [ -1.9311569, 42.9148364 ], [ -1.9312182, 42.9148398 ], [ -1.9312794, 42.9148427 ], [ -1.9313406, 42.9148444 ], [ -1.9316519, 42.914863 ], [ -1.9316886, 42.9148684 ], [ -1.9317451, 42.9148763 ], [ -1.9318078, 42.9148831 ], [ -1.9318758, 42.9148893 ], [ -1.9319278, 42.9148926 ], [ -1.931989, 42.914896 ], [ -1.9320502, 42.9148983 ], [ -1.9321115, 42.9149005 ], [ -1.9321727, 42.9149028 ], [ -1.9322347, 42.914905 ], [ -1.9322959, 42.9149068 ], [ -1.9323571, 42.9149084 ], [ -1.9324184, 42.9149102 ], [ -1.9325417, 42.9149074 ], [ -1.932796, 42.914903 ], [ -1.9328335, 42.9149027 ], [ -1.9328932, 42.9149022 ], [ -1.9329614, 42.9149017 ], [ -1.9329668, 42.9149017 ], [ -1.933028, 42.9149006 ], [ -1.9330893, 42.9149001 ], [ -1.9331889, 42.9148993 ], [ -1.9331942, 42.9148994 ], [ -1.933251, 42.9148926 ], [ -1.9333126, 42.9148746 ], [ -1.9333543, 42.9148558 ], [ -1.9334015, 42.9148276 ], [ -1.9334479, 42.9147976 ], [ -1.933458, 42.9147915 ], [ -1.9335037, 42.9147621 ], [ -1.9335494, 42.9147316 ], [ -1.9335943, 42.9147016 ], [ -1.93364, 42.9146717 ], [ -1.9336493, 42.9146661 ], [ -1.933695, 42.9146361 ], [ -1.9337414, 42.9146067 ], [ -1.9337879, 42.9145774 ], [ -1.9338351, 42.9145485 ], [ -1.9338823, 42.9145197 ], [ -1.9339302, 42.914492 ], [ -1.9339349, 42.9144892 ], [ -1.9339828, 42.914461 ], [ -1.9340308, 42.9144322 ], [ -1.9340788, 42.9144033 ], [ -1.9341283, 42.9143768 ], [ -1.93418, 42.9143531 ], [ -1.9342347, 42.9143327 ], [ -1.9342917, 42.9143158 ], [ -1.9343493, 42.9143023 ], [ -1.9344092, 42.9142905 ], [ -1.9344691, 42.9142815 ], [ -1.9345297, 42.9142741 ], [ -1.9345911, 42.914268 ], [ -1.9346524, 42.9142635 ], [ -1.9347138, 42.9142596 ], [ -1.9347521, 42.9142571 ], [ -1.9348126, 42.9142554 ], [ -1.9348739, 42.9142548 ], [ -1.9349351, 42.914256 ], [ -1.9349963, 42.9142588 ], [ -1.9350575, 42.9142628 ], [ -1.9351187, 42.9142678 ], [ -1.9351806, 42.9142751 ], [ -1.935565, 42.9143147 ], [ -1.9359585, 42.9143629 ], [ -1.9359642, 42.9143899 ], [ -1.9359773, 42.9144311 ], [ -1.9359949, 42.9144758 ], [ -1.9360178, 42.9145238 ], [ -1.9360208, 42.9145289 ], [ -1.9360438, 42.9145708 ], [ -1.9360691, 42.9146115 ], [ -1.9360968, 42.9146517 ], [ -1.9361267, 42.9146914 ], [ -1.936159, 42.91473 ], [ -1.9362759, 42.9149247 ], [ -1.9363317, 42.9149269 ], [ -1.9363929, 42.9149314 ], [ -1.9364601, 42.9149394 ], [ -1.9364746, 42.9149412 ], [ -1.9365342, 42.9149519 ], [ -1.9365937, 42.9149642 ], [ -1.9366524, 42.914976 ], [ -1.936712, 42.9149861 ], [ -1.9367602, 42.9149928 ], [ -1.9368205, 42.9150001 ], [ -1.9368809, 42.9150063 ], [ -1.936942, 42.9150114 ], [ -1.9370032, 42.9150153 ], [ -1.9372018, 42.9150442 ], [ -1.9372383, 42.9150597 ], [ -1.9371429, 42.9161113 ], [ -1.9371372, 42.9161292 ], [ -1.9371297, 42.9161697 ], [ -1.937125, 42.9162141 ], [ -1.9371242, 42.9162614 ], [ -1.9371272, 42.9163121 ], [ -1.9371278, 42.91632 ], [ -1.9371362, 42.9163645 ], [ -1.9371524, 42.9164085 ], [ -1.9372489, 42.9166233 ], [ -1.9372521, 42.9166217 ], [ -1.9373007, 42.9166001 ], [ -1.9373615, 42.9165799 ], [ -1.93739, 42.9165711 ], [ -1.9374477, 42.9165559 ], [ -1.9375061, 42.9165424 ], [ -1.937566, 42.9165311 ], [ -1.9376259, 42.9165227 ], [ -1.9376865, 42.9165182 ], [ -1.9377477, 42.9165159 ], [ -1.937809, 42.9165171 ], [ -1.9378709, 42.9165216 ], [ -1.9381297, 42.9165707 ], [ -1.9381396, 42.9165713 ], [ -1.938194, 42.9165741 ], [ -1.9382528, 42.9165792 ], [ -1.938317, 42.916586 ], [ -1.938385, 42.9165945 ], [ -1.938408, 42.9165975 ], [ -1.9384675, 42.9166065 ], [ -1.9385279, 42.9166166 ], [ -1.9385874, 42.9166273 ], [ -1.9386462, 42.9166385 ], [ -1.9387065, 42.9166487 ], [ -1.9387202, 42.916651 ], [ -1.9387798, 42.9166612 ], [ -1.9388393, 42.9166718 ], [ -1.9388989, 42.916682 ], [ -1.9389585, 42.9166921 ], [ -1.9391119, 42.9167222 ], [ -1.9390836, 42.9171193 ], [ -1.9390812, 42.917211 ], [ -1.9390649, 42.9173611 ], [ -1.9390653, 42.9173808 ], [ -1.9390602, 42.9174118 ], [ -1.9390551, 42.9174427 ], [ -1.9390564, 42.9174995 ], [ -1.9389733, 42.9181021 ], [ -1.9388209, 42.9185464 ], [ -1.938803, 42.9186053 ], [ -1.9385886, 42.9192759 ], [ -1.9375061, 42.9194341 ], [ -1.9369191, 42.919503 ], [ -1.9367438, 42.9201227 ], [ -1.9373869, 42.9201743 ], [ -1.9371018, 42.9212089 ], [ -1.936327, 42.9210261 ], [ -1.936186, 42.9216033 ], [ -1.9361711, 42.9216234 ], [ -1.9361476, 42.921661 ], [ -1.9361269, 42.921703 ], [ -1.9361093, 42.9217484 ], [ -1.9360946, 42.9217983 ], [ -1.9360878, 42.9218366 ], [ -1.9360855, 42.9218815 ], [ -1.9360863, 42.9219271 ], [ -1.9360863, 42.9219722 ], [ -1.9360856, 42.922011 ], [ -1.9360863, 42.9220566 ], [ -1.9360879, 42.9221017 ], [ -1.9360878, 42.9221467 ], [ -1.9360863, 42.9221917 ], [ -1.9360802, 42.9222361 ], [ -1.9360702, 42.922281 ], [ -1.9360572, 42.9223254 ], [ -1.9360412, 42.9223685 ], [ -1.9360251, 42.9224123 ], [ -1.9360082, 42.9224555 ], [ -1.9359978, 42.9224829 ], [ -1.935981, 42.9225267 ], [ -1.9359634, 42.9225699 ], [ -1.9359458, 42.9226125 ], [ -1.9359275, 42.9226556 ], [ -1.9359084, 42.9226983 ], [ -1.9357934, 42.9229217 ], [ -1.9354626, 42.9235006 ], [ -1.9354457, 42.9235027 ], [ -1.9353882, 42.9235089 ], [ -1.9353221, 42.9235162 ], [ -1.9352938, 42.9235182 ], [ -1.9352302, 42.9235187 ], [ -1.9351681, 42.9235221 ], [ -1.9351127, 42.9235385 ], [ -1.9350825, 42.9235579 ], [ -1.9350497, 42.9235953 ], [ -1.9350336, 42.9236435 ], [ -1.9347703, 42.924075 ], [ -1.9341744, 42.9250572 ], [ -1.934069, 42.9251733 ], [ -1.9340479, 42.9251967 ], [ -1.9340257, 42.9252421 ], [ -1.9340207, 42.9252628 ], [ -1.9340215, 42.9253085 ], [ -1.9339726, 42.9267634 ], [ -1.9339307, 42.9274615 ], [ -1.9339289, 42.9275189 ], [ -1.9339144, 42.927516 ], [ -1.933861, 42.9275076 ], [ -1.9338021, 42.9274991 ], [ -1.9337387, 42.9274918 ], [ -1.9336699, 42.9274849 ], [ -1.933624, 42.9274806 ], [ -1.9335636, 42.9274755 ], [ -1.9335024, 42.927471 ], [ -1.9334412, 42.9274676 ], [ -1.9333799, 42.9274659 ], [ -1.9333187, 42.9274665 ], [ -1.9332987, 42.9274674 ], [ -1.9332381, 42.9274725 ], [ -1.9331775, 42.9274804 ], [ -1.9331176, 42.9274894 ], [ -1.9330569, 42.9274995 ], [ -1.9330377, 42.9275027 ], [ -1.9329786, 42.9275134 ], [ -1.9329194, 42.9275252 ], [ -1.9328609, 42.9275388 ], [ -1.9328653, 42.9275962 ], [ -1.9328659, 42.9276064 ], [ -1.9328866, 42.9276504 ], [ -1.9329211, 42.9276874 ], [ -1.9329612, 42.9277215 ], [ -1.9329838, 42.9277403 ], [ -1.9330277, 42.9277733 ], [ -1.9330576, 42.9278113 ], [ -1.9330612, 42.9278299 ], [ -1.9330527, 42.9278743 ], [ -1.9330343, 42.9279186 ], [ -1.9330288, 42.9279314 ], [ -1.9330081, 42.9279741 ], [ -1.9329821, 42.9280149 ], [ -1.9329516, 42.928054 ], [ -1.9328993, 42.9281126 ], [ -1.9328996, 42.9281408 ], [ -1.9329042, 42.9281847 ], [ -1.9329132, 42.9282343 ], [ -1.9329197, 42.9282592 ], [ -1.9329343, 42.9283032 ], [ -1.932948, 42.9283472 ], [ -1.9329531, 42.9283664 ], [ -1.9329653, 42.9284115 ], [ -1.9329638, 42.928456 ], [ -1.9329424, 42.9284935 ], [ -1.9329058, 42.9285303 ], [ -1.9328631, 42.9285637 ], [ -1.9328182, 42.9285925 ], [ -1.932768, 42.9286179 ], [ -1.9327155, 42.9286416 ], [ -1.932663, 42.9286653 ], [ -1.9326329, 42.9286786 ], [ -1.9325812, 42.9287023 ], [ -1.932528, 42.9287254 ], [ -1.9324755, 42.928748 ], [ -1.9324222, 42.9287701 ], [ -1.932369, 42.9287926 ], [ -1.9323158, 42.9288152 ], [ -1.9323104, 42.9288174 ], [ -1.9322571, 42.92884 ], [ -1.9322039, 42.928862 ], [ -1.9321499, 42.928884 ], [ -1.9320967, 42.9289066 ], [ -1.9320434, 42.9289286 ], [ -1.9319902, 42.9289506 ], [ -1.9319369, 42.9289732 ], [ -1.9319347, 42.9289749 ], [ -1.9318814, 42.9289974 ], [ -1.9318289, 42.9290205 ], [ -1.9317765, 42.9290437 ], [ -1.931724, 42.9290674 ], [ -1.9316715, 42.9290906 ], [ -1.931619, 42.9291137 ], [ -1.9315665, 42.9291363 ], [ -1.9315565, 42.9291407 ], [ -1.9315033, 42.9291627 ], [ -1.9314493, 42.9291836 ], [ -1.9313946, 42.9292051 ], [ -1.9313413, 42.9292265 ], [ -1.9312881, 42.9292497 ], [ -1.9312371, 42.9292739 ], [ -1.9312008, 42.9292933 ], [ -1.9311528, 42.929321 ], [ -1.9311056, 42.9293498 ], [ -1.9310598, 42.9293798 ], [ -1.9310141, 42.9294098 ], [ -1.9309692, 42.9294403 ], [ -1.9309297, 42.9294669 ], [ -1.9308847, 42.929498 ], [ -1.9308413, 42.9295297 ], [ -1.9307978, 42.9295614 ], [ -1.9307559, 42.9295942 ], [ -1.9307544, 42.9295953 ], [ -1.9307132, 42.9296281 ], [ -1.930672, 42.9296621 ], [ -1.9306331, 42.9296966 ], [ -1.930595, 42.9297317 ], [ -1.9305739, 42.9297518 ], [ -1.9305373, 42.929788 ], [ -1.9305015, 42.9298248 ], [ -1.9304671, 42.9298616 ], [ -1.9304335, 42.9298996 ], [ -1.9304, 42.929937 ], [ -1.9303781, 42.9299621 ], [ -1.9303468, 42.9300006 ], [ -1.930317, 42.9300398 ], [ -1.9302864, 42.9300789 ], [ -1.9302551, 42.930118 ], [ -1.9302216, 42.9301554 ], [ -1.9302114, 42.930166 ], [ -1.9301755, 42.9302022 ], [ -1.9301382, 42.9302379 ], [ -1.9301, 42.9302736 ], [ -1.9300611, 42.9303081 ], [ -1.9300222, 42.9303432 ], [ -1.9299833, 42.9303777 ], [ -1.9299444, 42.9304128 ], [ -1.9299063, 42.9304479 ], [ -1.929886, 42.9304663 ], [ -1.9298487, 42.930502 ], [ -1.9298105, 42.9305371 ], [ -1.9297732, 42.9305727 ], [ -1.929735, 42.9306084 ], [ -1.9296976, 42.9306441 ], [ -1.9296875, 42.930653 ], [ -1.9296501, 42.9306887 ], [ -1.9296135, 42.9307249 ], [ -1.9295768, 42.9307606 ], [ -1.9295395, 42.9307968 ], [ -1.9295021, 42.9308325 ], [ -1.929464, 42.9308676 ], [ -1.9294258, 42.9309027 ], [ -1.9294025, 42.9309238 ], [ -1.9293628, 42.9309583 ], [ -1.9293239, 42.9309929 ], [ -1.9292835, 42.9310268 ], [ -1.9292431, 42.9310608 ], [ -1.9292027, 42.9310942 ], [ -1.9291607, 42.931127 ], [ -1.9291181, 42.9311598 ], [ -1.9290893, 42.9311809 ], [ -1.9290451, 42.9312126 ], [ -1.929001, 42.9312437 ], [ -1.928956, 42.9312742 ], [ -1.9289095, 42.9313036 ], [ -1.9288631, 42.931333 ], [ -1.9288158, 42.9313619 ], [ -1.928595, 42.9315061 ], [ -1.9284668, 42.9315691 ], [ -1.928365, 42.9316103 ], [ -1.9283439, 42.9315899 ], [ -1.92831, 42.9315569 ], [ -1.9282739, 42.9315211 ], [ -1.9282347, 42.931483 ], [ -1.9281925, 42.9314421 ], [ -1.9281632, 42.9314131 ], [ -1.9281262, 42.9313773 ], [ -1.9280885, 42.9313415 ], [ -1.9280516, 42.9313057 ], [ -1.9280148, 42.9312694 ], [ -1.9279786, 42.9312335 ], [ -1.9279425, 42.9311972 ], [ -1.9279244, 42.931179 ], [ -1.927889, 42.9311427 ], [ -1.9278537, 42.9311057 ], [ -1.9278183, 42.9310688 ], [ -1.927783, 42.9310319 ], [ -1.9277484, 42.930995 ], [ -1.9277138, 42.9309581 ], [ -1.9276792, 42.9309206 ], [ -1.92745, 42.9307536 ], [ -1.9274206, 42.9307269 ], [ -1.9273836, 42.9306961 ], [ -1.9273428, 42.9306648 ], [ -1.9272982, 42.9306323 ], [ -1.9272497, 42.9305986 ], [ -1.9271975, 42.9305643 ], [ -1.9271937, 42.9305621 ], [ -1.9271467, 42.9305329 ], [ -1.927099, 42.9305055 ], [ -1.9270496, 42.9304785 ], [ -1.9269995, 42.9304528 ], [ -1.9269479, 42.9304281 ], [ -1.9266431, 42.9302479 ], [ -1.9266443, 42.9302665 ], [ -1.9266436, 42.9303065 ], [ -1.9266398, 42.9303486 ], [ -1.9266337, 42.9303931 ], [ -1.9266245, 42.9304391 ], [ -1.9266121, 42.9304874 ], [ -1.9265974, 42.9305379 ], [ -1.9265854, 42.930571 ], [ -1.9265655, 42.9306136 ], [ -1.9265433, 42.9306556 ], [ -1.9265212, 42.930697 ], [ -1.926499, 42.9307396 ], [ -1.9264982, 42.9307419 ], [ -1.9264783, 42.9307844 ], [ -1.9264591, 42.930827 ], [ -1.9264393, 42.9308696 ], [ -1.9264194, 42.9309122 ], [ -1.9263988, 42.9309548 ], [ -1.9263773, 42.9309968 ], [ -1.926371, 42.931008 ], [ -1.9263466, 42.9310488 ], [ -1.9263213, 42.9310903 ], [ -1.9262946, 42.9311305 ], [ -1.9262678, 42.9311714 ], [ -1.9262426, 42.9312122 ], [ -1.9262174, 42.9312531 ], [ -1.9262158, 42.9312553 ], [ -1.9261929, 42.9312973 ], [ -1.9261715, 42.9313393 ], [ -1.92615, 42.9313813 ], [ -1.9261286, 42.9314239 ], [ -1.9261057, 42.9314653 ], [ -1.9260812, 42.9315067 ], [ -1.9260702, 42.9315247 ], [ -1.9260442, 42.9315655 ], [ -1.9260167, 42.9316057 ], [ -1.9259892, 42.931646 ], [ -1.9259602, 42.9316857 ], [ -1.9259311, 42.9317254 ], [ -1.9259013, 42.9317645 ], [ -1.92587, 42.9318036 ], [ -1.9258372, 42.9318421 ], [ -1.9258036, 42.9318801 ], [ -1.9257685, 42.9319169 ], [ -1.9257334, 42.9319537 ], [ -1.9256998, 42.9319911 ], [ -1.925667, 42.9320296 ], [ -1.9256372, 42.9320659 ], [ -1.9256074, 42.932105 ], [ -1.9255784, 42.9321447 ], [ -1.9255494, 42.9321844 ], [ -1.9255203, 42.9322241 ], [ -1.9254913, 42.9322638 ], [ -1.9254615, 42.9323035 ], [ -1.9254333, 42.9323393 ], [ -1.9254012, 42.9323778 ], [ -1.9253699, 42.9324163 ], [ -1.9253379, 42.9324548 ], [ -1.9253066, 42.9324934 ], [ -1.9252752, 42.9325319 ], [ -1.9252455, 42.932571 ], [ -1.9252321, 42.9325884 ], [ -1.9252023, 42.9326281 ], [ -1.9251733, 42.9326672 ], [ -1.9251451, 42.9327074 ], [ -1.925116, 42.9327471 ], [ -1.9250885, 42.9327874 ], [ -1.925061, 42.9328276 ], [ -1.9250342, 42.9328679 ], [ -1.9250263, 42.9328802 ], [ -1.9250004, 42.9329211 ], [ -1.9249744, 42.9329619 ], [ -1.9249499, 42.9330028 ], [ -1.9249263, 42.9330442 ], [ -1.9249025, 42.9330862 ], [ -1.9248294, 42.9332369 ], [ -1.9248169, 42.9332542 ], [ -1.9247917, 42.9332934 ], [ -1.9247664, 42.9333399 ], [ -1.9247648, 42.9333426 ], [ -1.9247441, 42.9333847 ], [ -1.9247243, 42.9334272 ], [ -1.9247059, 42.9334704 ], [ -1.924689, 42.9335136 ], [ -1.9246737, 42.9335573 ], [ -1.9246689, 42.9335736 ], [ -1.9246574, 42.9336174 ], [ -1.9246481, 42.9336624 ], [ -1.9246389, 42.9337067 ], [ -1.9246275, 42.9337511 ], [ -1.9246161, 42.9337842 ], [ -1.9246008, 42.9338274 ], [ -1.924584, 42.9338711 ], [ -1.9245671, 42.9339143 ], [ -1.9245496, 42.9339575 ], [ -1.9245335, 42.9340007 ], [ -1.9245238, 42.9340265 ], [ -1.9245078, 42.9340702 ], [ -1.9244917, 42.9341134 ], [ -1.9244756, 42.9341571 ], [ -1.9244603, 42.9342009 ], [ -1.9244171, 42.9343052 ], [ -1.924414, 42.9343108 ], [ -1.924398, 42.9343483 ], [ -1.924382, 42.9343887 ], [ -1.9243651, 42.9344324 ], [ -1.9243482, 42.934479 ], [ -1.9243305, 42.9345289 ], [ -1.9243184, 42.9345642 ], [ -1.9243046, 42.934608 ], [ -1.9242908, 42.9346523 ], [ -1.9242778, 42.9346962 ], [ -1.924264, 42.9347399 ], [ -1.9242632, 42.9347433 ], [ -1.9242494, 42.9347871 ], [ -1.9242364, 42.9348308 ], [ -1.9242226, 42.9348751 ], [ -1.9242088, 42.9349189 ], [ -1.9241958, 42.9349627 ], [ -1.924182, 42.9350065 ], [ -1.9241682, 42.9350502 ], [ -1.9241585, 42.93508 ], [ -1.9241447, 42.9351238 ], [ -1.9241302, 42.9351675 ], [ -1.9241156, 42.9352113 ], [ -1.9241018, 42.935255 ], [ -1.9240873, 42.9352988 ], [ -1.9240727, 42.9353426 ], [ -1.9239834, 42.935501 ], [ -1.9239658, 42.9355008 ], [ -1.9239122, 42.9354998 ], [ -1.9238548, 42.9354987 ], [ -1.923795, 42.9354975 ], [ -1.9237315, 42.9354964 ], [ -1.9236649, 42.9354952 ], [ -1.9235944, 42.9354945 ], [ -1.9235392, 42.935494 ], [ -1.923478, 42.9354934 ], [ -1.9234167, 42.9354934 ], [ -1.9233554, 42.9354928 ], [ -1.9232942, 42.9354923 ], [ -1.9232329, 42.9354906 ], [ -1.9232115, 42.9354898 ], [ -1.923151, 42.9354875 ], [ -1.9230898, 42.9354847 ], [ -1.9230286, 42.9354813 ], [ -1.9229673, 42.9354779 ], [ -1.9229061, 42.9354745 ], [ -1.9228449, 42.9354717 ], [ -1.9227837, 42.9354689 ], [ -1.9227508, 42.935468 ], [ -1.9226895, 42.9354657 ], [ -1.9226282, 42.9354641 ], [ -1.922567, 42.9354623 ], [ -1.9225058, 42.9354607 ], [ -1.9224445, 42.9354589 ], [ -1.9223833, 42.9354578 ], [ -1.922322, 42.9354567 ], [ -1.9222692, 42.9354556 ], [ -1.9222079, 42.935455 ], [ -1.9221466, 42.935455 ], [ -1.9220853, 42.935455 ], [ -1.9220241, 42.9354544 ], [ -1.9219628, 42.9354544 ], [ -1.9219015, 42.9354538 ], [ -1.9218403, 42.9354527 ], [ -1.9218005, 42.9354518 ], [ -1.9217392, 42.9354512 ], [ -1.9216779, 42.93545 ], [ -1.9216167, 42.9354489 ], [ -1.9215554, 42.9354477 ], [ -1.9214942, 42.935446 ], [ -1.9214329, 42.9354443 ], [ -1.9213717, 42.9354415 ], [ -1.9213105, 42.9354375 ], [ -1.9212493, 42.9354331 ], [ -1.9212447, 42.9354324 ], [ -1.9211843, 42.9354257 ], [ -1.9211239, 42.9354172 ], [ -1.9210636, 42.9354077 ], [ -1.921004, 42.9353975 ], [ -1.9209444, 42.9353874 ], [ -1.9208841, 42.9353784 ], [ -1.9208237, 42.9353705 ], [ -1.9207633, 42.9353648 ], [ -1.9207258, 42.9353634 ], [ -1.9206645, 42.9353634 ], [ -1.9206032, 42.9353645 ], [ -1.920542, 42.9353639 ], [ -1.9205213, 42.9353632 ], [ -1.92046, 42.9353609 ], [ -1.9203988, 42.9353581 ], [ -1.9203384, 42.9353546 ], [ -1.9202771, 42.9353507 ], [ -1.920216, 42.9353467 ], [ -1.9201547, 42.9353428 ], [ -1.9201272, 42.9353408 ], [ -1.920066, 42.9353363 ], [ -1.9200048, 42.9353318 ], [ -1.9199444, 42.9353267 ], [ -1.9198832, 42.9353216 ], [ -1.919822, 42.9353166 ], [ -1.9197616, 42.9353109 ], [ -1.9197004, 42.9353059 ], [ -1.91964, 42.9353008 ], [ -1.9195788, 42.9352957 ], [ -1.9195176, 42.9352906 ], [ -1.9194572, 42.9352861 ], [ -1.9193959, 42.9352816 ], [ -1.9193348, 42.9352771 ], [ -1.9192904, 42.9352744 ], [ -1.9192299, 42.9352699 ], [ -1.9191687, 42.935266 ], [ -1.9191075, 42.935262 ], [ -1.9190463, 42.935258 ], [ -1.9189851, 42.9352541 ], [ -1.9189247, 42.9352507 ], [ -1.9188634, 42.9352473 ], [ -1.9188022, 42.9352445 ], [ -1.918741, 42.9352422 ], [ -1.9186797, 42.9352405 ], [ -1.9186185, 42.9352388 ], [ -1.9186123, 42.9352387 ], [ -1.9185511, 42.9352382 ], [ -1.9184898, 42.9352381 ], [ -1.9184285, 42.9352387 ], [ -1.9183672, 42.9352398 ], [ -1.9183059, 42.9352409 ], [ -1.9182446, 42.9352426 ], [ -1.9181833, 42.9352442 ], [ -1.918122, 42.9352459 ], [ -1.9180607, 42.9352476 ], [ -1.9179994, 42.9352493 ], [ -1.9179526, 42.9352505 ], [ -1.9178913, 42.9352522 ], [ -1.9178308, 42.9352539 ], [ -1.9177695, 42.9352555 ], [ -1.9177082, 42.9352578 ], [ -1.9176468, 42.9352594 ], [ -1.9175856, 42.9352617 ], [ -1.9175242, 42.9352639 ], [ -1.9174629, 42.9352661 ], [ -1.917145, 42.9353127 ], [ -1.9171277, 42.935335 ], [ -1.9171018, 42.9353708 ], [ -1.9170751, 42.9354094 ], [ -1.9170476, 42.9354507 ], [ -1.91702, 42.9354949 ], [ -1.9169916, 42.9355419 ], [ -1.9169687, 42.9355811 ], [ -1.9169457, 42.9356231 ], [ -1.9169243, 42.9356651 ], [ -1.9169037, 42.9357071 ], [ -1.9168822, 42.9357497 ], [ -1.9168616, 42.9357918 ], [ -1.9168496, 42.9358158 ], [ -1.9168298, 42.9358584 ], [ -1.9168098, 42.935901 ], [ -1.91679, 42.9359436 ], [ -1.9167693, 42.9359856 ], [ -1.9167464, 42.9360276 ], [ -1.9167346, 42.9360466 ], [ -1.9167078, 42.9360869 ], [ -1.9166787, 42.9361265 ], [ -1.9166497, 42.9361663 ], [ -1.9166207, 42.9362059 ], [ -1.9165939, 42.9362462 ], [ -1.9165892, 42.936254 ], [ -1.9165647, 42.9362954 ], [ -1.9165403, 42.9363369 ], [ -1.9165165, 42.9363783 ], [ -1.9164936, 42.9364197 ], [ -1.9164714, 42.9364623 ], [ -1.9164515, 42.9365049 ], [ -1.9164331, 42.9365475 ], [ -1.9164235, 42.936571 ], [ -1.9164075, 42.9366148 ], [ -1.9163936, 42.9366585 ], [ -1.9163806, 42.9367023 ], [ -1.9163684, 42.9367467 ], [ -1.9163576, 42.936791 ], [ -1.9163461, 42.9368354 ], [ -1.9163354, 42.9368797 ], [ -1.9163296, 42.9369061 ], [ -1.9163196, 42.9369511 ], [ -1.9163104, 42.9369954 ], [ -1.9163019, 42.9370398 ], [ -1.916295, 42.9370848 ], [ -1.9162281, 42.9374038 ], [ -1.9162174, 42.9374482 ], [ -1.9162074, 42.9374931 ], [ -1.9161997, 42.9375375 ], [ -1.9161938, 42.9375723 ], [ -1.9161883, 42.9376218 ], [ -1.9161852, 42.9376662 ], [ -1.9161854, 42.9376983 ], [ -1.9164033, 42.937724 ], [ -1.9164644, 42.9377297 ], [ -1.9165249, 42.9377342 ], [ -1.9165861, 42.9377387 ], [ -1.9166473, 42.9377427 ], [ -1.9167085, 42.9377461 ], [ -1.916769, 42.9377483 ], [ -1.9167897, 42.9377491 ], [ -1.9168509, 42.9377508 ], [ -1.9169122, 42.9377514 ], [ -1.9169735, 42.9377514 ], [ -1.9170347, 42.9377514 ], [ -1.9170961, 42.9377508 ], [ -1.9171573, 42.9377514 ], [ -1.9171856, 42.9377517 ], [ -1.9172554, 42.9377524 ], [ -1.9173228, 42.937753 ], [ -1.9173863, 42.9377542 ], [ -1.9174468, 42.9377553 ], [ -1.9175042, 42.9377564 ], [ -1.9175586, 42.9377575 ], [ -1.9175893, 42.9377583 ] ] ] } }
]
}
