{
"type": "FeatureCollection",
"name": "31143",
"features": [
{ "type": "Feature", "properties": { "CCAA": "15 - Comunidad Foral de Navarra", "PROVINCIA": "31 - Navarra", "MUNICIPIO": "31143 - Larraona", "COD_MUNICIPIO": "31143", "DISTRITO": "01", "SECCION": "3114301001", "V1_H": 81.72, "V1_M": 86.96, "V2_H": 81.44760383000001, "V2_M": 86.83587728000001, "V3_H": 82.03657934, "V3_M": 87.26058658 }, "geometry": { "type": "Polygon", "coordinates": [ [ [ -2.2360917, 42.7798576 ], [ -2.2362899, 42.7799029 ], [ -2.2365228, 42.779977 ], [ -2.2368954, 42.780118 ], [ -2.2372939, 42.7803283 ], [ -2.2376869, 42.7805651 ], [ -2.2378761, 42.7807059 ], [ -2.2380778, 42.7808958 ], [ -2.2382812, 42.7811347 ], [ -2.2384647, 42.7813717 ], [ -2.2386155, 42.781662 ], [ -2.2390826, 42.7818886 ], [ -2.2394734, 42.782051 ], [ -2.239922, 42.7822257 ], [ -2.2403751, 42.7824764 ], [ -2.2407669, 42.7826799 ], [ -2.2411609, 42.7828936 ], [ -2.2417102, 42.7831488 ], [ -2.242313, 42.7834691 ], [ -2.2429294, 42.7838019 ], [ -2.2433948, 42.7840442 ], [ -2.2436335, 42.7841482 ], [ -2.2438912, 42.7841961 ], [ -2.2441598, 42.7842215 ], [ -2.2446489, 42.7842247 ], [ -2.2451353, 42.7842437 ], [ -2.2455312, 42.784244 ], [ -2.2462061, 42.7842276 ], [ -2.2466126, 42.7842275 ], [ -2.2471173, 42.7841954 ], [ -2.2476032, 42.7841423 ], [ -2.248102, 42.7840921 ], [ -2.2484739, 42.7840473 ], [ -2.248966, 42.7839807 ], [ -2.2495451, 42.7838669 ], [ -2.2499645, 42.7837481 ], [ -2.2502361, 42.7836587 ], [ -2.2504926, 42.7835484 ], [ -2.250755, 42.7834662 ], [ -2.251321, 42.7836056 ], [ -2.2519221, 42.7837497 ], [ -2.2522375, 42.7838339 ], [ -2.2524453, 42.7838994 ], [ -2.2527617, 42.7840214 ], [ -2.2533924, 42.7842489 ], [ -2.2538411, 42.7844241 ], [ -2.2542708, 42.7845963 ], [ -2.2546559, 42.7847266 ], [ -2.255136, 42.7848901 ], [ -2.2556043, 42.7850316 ], [ -2.2560722, 42.7852013 ], [ -2.2567353, 42.7854088 ], [ -2.2575311, 42.7856982 ], [ -2.2578431, 42.7858077 ], [ -2.2582204, 42.785952 ], [ -2.2585346, 42.7860683 ], [ -2.2588653, 42.7862089 ], [ -2.259295, 42.7864391 ], [ -2.2595718, 42.7865591 ], [ -2.2598683, 42.7866871 ], [ -2.2602594, 42.7868894 ], [ -2.260627, 42.7870803 ], [ -2.2610623, 42.7873522 ], [ -2.2616507, 42.7877387 ], [ -2.2617207, 42.7877628 ], [ -2.2618929, 42.7878095 ], [ -2.262126, 42.787869 ], [ -2.2624656, 42.7879685 ], [ -2.2627345, 42.7880406 ], [ -2.2631408, 42.7881879 ], [ -2.263441, 42.7883283 ], [ -2.2637929, 42.7884921 ], [ -2.2641197, 42.7886484 ], [ -2.2644146, 42.7887775 ], [ -2.2647403, 42.7888989 ], [ -2.2651319, 42.7889938 ], [ -2.2654438, 42.7890531 ], [ -2.2657685, 42.7891205 ], [ -2.2661283, 42.7891943 ], [ -2.2663005, 42.7892354 ], [ -2.2664499, 42.7892662 ], [ -2.2666036, 42.7892593 ], [ -2.266827, 42.7893063 ], [ -2.2670321, 42.7894056 ], [ -2.2671876, 42.7895073 ], [ -2.2673053, 42.7895694 ], [ -2.2675153, 42.7896501 ], [ -2.2677603, 42.7897395 ], [ -2.2679653, 42.7897932 ], [ -2.268335, 42.7899244 ], [ -2.2685911, 42.7899863 ], [ -2.268838, 42.7900419 ], [ -2.2690645, 42.7900867 ], [ -2.2693563, 42.7901561 ], [ -2.2696985, 42.7902376 ], [ -2.2700323, 42.7903174 ], [ -2.2704481, 42.7904405 ], [ -2.2708319, 42.7905561 ], [ -2.2711075, 42.7906389 ], [ -2.2713919, 42.7907629 ], [ -2.2717177, 42.7908736 ], [ -2.2719973, 42.7910144 ], [ -2.272201, 42.7911052 ], [ -2.2724034, 42.7911819 ], [ -2.2725797, 42.7912652 ], [ -2.2727672, 42.7913052 ], [ -2.2730183, 42.7913332 ], [ -2.2732152, 42.7913548 ], [ -2.2733267, 42.7913588 ], [ -2.273446, 42.7913551 ], [ -2.2738757, 42.79114 ], [ -2.2744201, 42.7908576 ], [ -2.2749154, 42.7905832 ], [ -2.2754054, 42.7903094 ], [ -2.2758911, 42.7900812 ], [ -2.276266, 42.7898477 ], [ -2.2766436, 42.7896453 ], [ -2.2770233, 42.7894506 ], [ -2.2773763, 42.7892582 ], [ -2.2776522, 42.7891248 ], [ -2.2779155, 42.7890257 ], [ -2.278221, 42.7889112 ], [ -2.2784735, 42.7888109 ], [ -2.2786266, 42.7887314 ], [ -2.2787642, 42.7886534 ], [ -2.2788968, 42.7885625 ], [ -2.2790473, 42.7884329 ], [ -2.2791952, 42.7882666 ], [ -2.2792881, 42.7880888 ], [ -2.2794058, 42.7878278 ], [ -2.2794538, 42.7875738 ], [ -2.2794868, 42.7873753 ], [ -2.2795365, 42.7871066 ], [ -2.2795989, 42.7869296 ], [ -2.2797266, 42.7867267 ], [ -2.2798671, 42.7865329 ], [ -2.2800104, 42.7863705 ], [ -2.2801235, 42.7862384 ], [ -2.2804302, 42.7860191 ], [ -2.2807169, 42.7858701 ], [ -2.2809591, 42.7857445 ], [ -2.2810668, 42.7856765 ], [ -2.2811553, 42.7855639 ], [ -2.2813147, 42.7854523 ], [ -2.2814753, 42.7853802 ], [ -2.2819114, 42.7851994 ], [ -2.2816602, 42.7850515 ], [ -2.2816209, 42.7850282 ], [ -2.2813103, 42.7848439 ], [ -2.2809631, 42.7845479 ], [ -2.2806241, 42.7842598 ], [ -2.2803308, 42.7839856 ], [ -2.28005, 42.7836889 ], [ -2.2797468, 42.7833403 ], [ -2.2795, 42.7830106 ], [ -2.2792879, 42.7827233 ], [ -2.2791191, 42.7825179 ], [ -2.2788937, 42.7822588 ], [ -2.2786565, 42.7819567 ], [ -2.2784515, 42.7817173 ], [ -2.2782076, 42.7814653 ], [ -2.2779928, 42.7812079 ], [ -2.2777368, 42.7808838 ], [ -2.2775232, 42.7805886 ], [ -2.2774113, 42.7802964 ], [ -2.2773638, 42.7801762 ], [ -2.2772155, 42.7800525 ], [ -2.2770251, 42.7798656 ], [ -2.276781, 42.7796344 ], [ -2.276585, 42.7794097 ], [ -2.2763561, 42.7791809 ], [ -2.2761747, 42.7790103 ], [ -2.2759893, 42.7787885 ], [ -2.2758819, 42.7787 ], [ -2.2758254, 42.7785635 ], [ -2.2758272, 42.7784155 ], [ -2.2758381, 42.7780052 ], [ -2.2758537, 42.7777155 ], [ -2.2758445, 42.7775145 ], [ -2.2757842, 42.7772529 ], [ -2.2757278, 42.7769779 ], [ -2.2756898, 42.7767627 ], [ -2.2756241, 42.7765692 ], [ -2.2755868, 42.7764294 ], [ -2.2755686, 42.776362 ], [ -2.2755406, 42.7762586 ], [ -2.2755054, 42.7761297 ], [ -2.2755018, 42.7761165 ], [ -2.2754506, 42.7759844 ], [ -2.2754001, 42.7758575 ], [ -2.2752918, 42.7755832 ], [ -2.2751669, 42.7753534 ], [ -2.2750531, 42.7751562 ], [ -2.2749844, 42.7750196 ], [ -2.2749459, 42.7748454 ], [ -2.2748965, 42.7746976 ], [ -2.2747726, 42.7745066 ], [ -2.2746309, 42.7742761 ], [ -2.2745665, 42.7741051 ], [ -2.274495, 42.7739482 ], [ -2.2744251, 42.773784 ], [ -2.2743042, 42.7735361 ], [ -2.2742089, 42.7732586 ], [ -2.2741265, 42.7729891 ], [ -2.2740645, 42.7727393 ], [ -2.2740206, 42.772506 ], [ -2.2739888, 42.7722858 ], [ -2.2739677, 42.7719356 ], [ -2.2739543, 42.7717115 ], [ -2.273931, 42.771569 ], [ -2.2739272, 42.7715452 ], [ -2.2738874, 42.7713508 ], [ -2.273855, 42.7711823 ], [ -2.27383, 42.771038 ], [ -2.2737841, 42.7708486 ], [ -2.273773, 42.7707529 ], [ -2.2737064, 42.7706973 ], [ -2.2736684, 42.7706837 ], [ -2.2735398, 42.7706377 ], [ -2.2733159, 42.7705766 ], [ -2.2731122, 42.7704842 ], [ -2.2729306, 42.7704014 ], [ -2.2727732, 42.7703362 ], [ -2.2726554, 42.7702865 ], [ -2.2725804, 42.7702337 ], [ -2.2725079, 42.7701662 ], [ -2.2724491, 42.7700927 ], [ -2.2724296, 42.7700684 ], [ -2.2723777, 42.7699285 ], [ -2.2723291, 42.7697745 ], [ -2.2722835, 42.769629 ], [ -2.2722334, 42.7694632 ], [ -2.272135, 42.7692577 ], [ -2.2720597, 42.7690996 ], [ -2.2719941, 42.7689591 ], [ -2.2719098, 42.7687936 ], [ -2.2718474, 42.768639 ], [ -2.2717909, 42.7684996 ], [ -2.2717487, 42.7683243 ], [ -2.2717509, 42.7681358 ], [ -2.2717225, 42.767956 ], [ -2.2717177, 42.7675868 ], [ -2.2716876, 42.7673519 ], [ -2.2716096, 42.7671623 ], [ -2.2715852, 42.7669606 ], [ -2.2715455, 42.7667606 ], [ -2.2715137, 42.7665443 ], [ -2.2714915, 42.7663545 ], [ -2.2714509, 42.7662354 ], [ -2.2714074, 42.7661626 ], [ -2.2712278, 42.7659796 ], [ -2.2708733, 42.7656588 ], [ -2.2706473, 42.7654513 ], [ -2.270456, 42.7652824 ], [ -2.2702996, 42.7650765 ], [ -2.2702097, 42.7649887 ], [ -2.2701359, 42.7647715 ], [ -2.2701106, 42.7645783 ], [ -2.2701423, 42.7642853 ], [ -2.2701396, 42.7639954 ], [ -2.2701406, 42.7637883 ], [ -2.2700854, 42.7636056 ], [ -2.2700431, 42.7634314 ], [ -2.2699835, 42.7632419 ], [ -2.269944, 42.7630942 ], [ -2.2698069, 42.7628659 ], [ -2.2696938, 42.7626727 ], [ -2.2695159, 42.7622826 ], [ -2.2691465, 42.7614101 ], [ -2.2688657, 42.7608652 ], [ -2.2686615, 42.7605678 ], [ -2.2685956, 42.7603907 ], [ -2.2685758, 42.7601896 ], [ -2.268634, 42.7597887 ], [ -2.2686404, 42.7595659 ], [ -2.2686416, 42.7593998 ], [ -2.2686287, 42.7592658 ], [ -2.2684988, 42.7588794 ], [ -2.2683952, 42.7586001 ], [ -2.2682483, 42.7582244 ], [ -2.2681557, 42.7579221 ], [ -2.267955, 42.7573861 ], [ -2.2678327, 42.7570077 ], [ -2.267648, 42.756604 ], [ -2.267543, 42.7562437 ], [ -2.2673148, 42.7557132 ], [ -2.2671417, 42.7553727 ], [ -2.2669603, 42.7550822 ], [ -2.2667904, 42.7548481 ], [ -2.2665891, 42.7544354 ], [ -2.2664213, 42.7540887 ], [ -2.2662653, 42.753723 ], [ -2.2661868, 42.7535779 ], [ -2.2661001, 42.7534799 ], [ -2.2657884, 42.7532353 ], [ -2.2653749, 42.75294 ], [ -2.2649997, 42.7526286 ], [ -2.2645161, 42.7522574 ], [ -2.2643375, 42.7521172 ], [ -2.2642053, 42.7520578 ], [ -2.26406, 42.7519438 ], [ -2.2638189, 42.7517323 ], [ -2.262962, 42.7510902 ], [ -2.2627546, 42.7508721 ], [ -2.2625787, 42.7507016 ], [ -2.2624173, 42.7505294 ], [ -2.2622268, 42.7502986 ], [ -2.2620652, 42.7500803 ], [ -2.2619572, 42.7499181 ], [ -2.2618355, 42.74974 ], [ -2.2617649, 42.7495819 ], [ -2.2616828, 42.7494165 ], [ -2.2616075, 42.7492663 ], [ -2.2615461, 42.7491021 ], [ -2.2615028, 42.7489499 ], [ -2.2614556, 42.7488066 ], [ -2.2614142, 42.7486273 ], [ -2.2614122, 42.7484799 ], [ -2.2614322, 42.7483353 ], [ -2.2615168, 42.7480973 ], [ -2.2616623, 42.747613 ], [ -2.2609845, 42.7479733 ], [ -2.2603766, 42.7482897 ], [ -2.259993, 42.7484988 ], [ -2.2596579, 42.7486813 ], [ -2.2593827, 42.7488292 ], [ -2.2591038, 42.748972 ], [ -2.2587737, 42.7491146 ], [ -2.2581768, 42.749405 ], [ -2.2577475, 42.7496111 ], [ -2.2574956, 42.7497305 ], [ -2.2572309, 42.7498959 ], [ -2.2569937, 42.7500609 ], [ -2.2565507, 42.75038 ], [ -2.2562315, 42.7505698 ], [ -2.2559979, 42.7506882 ], [ -2.2557547, 42.75078 ], [ -2.2554473, 42.7508766 ], [ -2.2550863, 42.7509817 ], [ -2.2547716, 42.7510545 ], [ -2.2544411, 42.7511008 ], [ -2.2540489, 42.7511326 ], [ -2.2537261, 42.7511799 ], [ -2.2533899, 42.7512622 ], [ -2.2529587, 42.7513612 ], [ -2.2526078, 42.7514546 ], [ -2.2521861, 42.7514659 ], [ -2.2517608, 42.7514564 ], [ -2.2512499, 42.7513934 ], [ -2.250863, 42.7513002 ], [ -2.2504425, 42.751213 ], [ -2.2500899, 42.751191 ], [ -2.2496803, 42.7512109 ], [ -2.2490662, 42.7512136 ], [ -2.2486472, 42.7511996 ], [ -2.2482468, 42.7512161 ], [ -2.2479658, 42.751212 ], [ -2.2473143, 42.751219 ], [ -2.2469027, 42.7512106 ], [ -2.2465231, 42.7512149 ], [ -2.2461239, 42.7511953 ], [ -2.2452735, 42.7511627 ], [ -2.2449116, 42.7511541 ], [ -2.2445778, 42.7511581 ], [ -2.2443994, 42.7511401 ], [ -2.2442596, 42.7511346 ], [ -2.2440718, 42.7510732 ], [ -2.2438078, 42.7509893 ], [ -2.2435812, 42.7509005 ], [ -2.2433733, 42.7508536 ], [ -2.243238, 42.7508656 ], [ -2.2431109, 42.7508946 ], [ -2.243035, 42.7509127 ], [ -2.2429874, 42.7510615 ], [ -2.2428551, 42.751458 ], [ -2.2427165, 42.7519225 ], [ -2.2426563, 42.7524067 ], [ -2.2425718, 42.7527022 ], [ -2.2425164, 42.7529839 ], [ -2.2424303, 42.7532185 ], [ -2.2423336, 42.753505 ], [ -2.2422569, 42.7537853 ], [ -2.2422464, 42.7540773 ], [ -2.2421869, 42.754266 ], [ -2.2421094, 42.7544175 ], [ -2.2419985, 42.7546166 ], [ -2.2418451, 42.7547934 ], [ -2.2417112, 42.7549456 ], [ -2.2415948, 42.7550912 ], [ -2.241577, 42.7552346 ], [ -2.2415892, 42.7553602 ], [ -2.2417021, 42.7555602 ], [ -2.2418374, 42.7558678 ], [ -2.2419877, 42.7561891 ], [ -2.2422244, 42.7565092 ], [ -2.2424446, 42.7568095 ], [ -2.2426439, 42.7571857 ], [ -2.2428001, 42.7575245 ], [ -2.2430323, 42.7579656 ], [ -2.2431796, 42.7583464 ], [ -2.2434311, 42.7587747 ], [ -2.2436665, 42.7591337 ], [ -2.2439747, 42.7595415 ], [ -2.244124, 42.7597052 ], [ -2.2442548, 42.7598091 ], [ -2.2444196, 42.7598946 ], [ -2.2446573, 42.7599384 ], [ -2.2452257, 42.7601228 ], [ -2.2451574, 42.7602056 ], [ -2.2450304, 42.7602858 ], [ -2.2449454, 42.7603709 ], [ -2.2449165, 42.7604793 ], [ -2.2449294, 42.7606167 ], [ -2.2449997, 42.7607376 ], [ -2.2450889, 42.7609436 ], [ -2.2451279, 42.7611932 ], [ -2.2451223, 42.7613429 ], [ -2.2450951, 42.7614367 ], [ -2.2450702, 42.7614759 ], [ -2.2450112, 42.761493 ], [ -2.2448463, 42.7614795 ], [ -2.2445565, 42.7614438 ], [ -2.2443577, 42.7614566 ], [ -2.2441096, 42.7615073 ], [ -2.2438662, 42.7615535 ], [ -2.2436655, 42.7615972 ], [ -2.2434655, 42.7616516 ], [ -2.2432814, 42.7617151 ], [ -2.2431402, 42.7617654 ], [ -2.2430173, 42.7618198 ], [ -2.2429078, 42.7618461 ], [ -2.2426159, 42.7618571 ], [ -2.2424375, 42.7618244 ], [ -2.2422234, 42.7617796 ], [ -2.242047, 42.7617807 ], [ -2.2419055, 42.7617961 ], [ -2.2416921, 42.7618189 ], [ -2.2415684, 42.7619385 ], [ -2.2414936, 42.762059 ], [ -2.2413307, 42.7623275 ], [ -2.2412026, 42.7625603 ], [ -2.2410501, 42.7628491 ], [ -2.2409581, 42.7630668 ], [ -2.2408836, 42.7632189 ], [ -2.2408262, 42.7633547 ], [ -2.2407905, 42.763462 ], [ -2.2407743, 42.7635435 ], [ -2.2407833, 42.7636736 ], [ -2.2407823, 42.7638238 ], [ -2.240799, 42.7640829 ], [ -2.2408102, 42.7642304 ], [ -2.240832, 42.764378 ], [ -2.2408522, 42.7645397 ], [ -2.2408733, 42.7646839 ], [ -2.2408949, 42.7648546 ], [ -2.2409393, 42.7650361 ], [ -2.2409612, 42.7651826 ], [ -2.2410152, 42.7653935 ], [ -2.241073, 42.7655987 ], [ -2.241129, 42.7657674 ], [ -2.241188, 42.7659372 ], [ -2.2412303, 42.766166 ], [ -2.2412872, 42.7665103 ], [ -2.2413455, 42.7668663 ], [ -2.2413952, 42.7671104 ], [ -2.2414099, 42.7673429 ], [ -2.2414103, 42.7674392 ], [ -2.2414029, 42.767541 ], [ -2.2413805, 42.7676264 ], [ -2.2413459, 42.7677089 ], [ -2.2412571, 42.7679785 ], [ -2.2412041, 42.7681864 ], [ -2.2411459, 42.7683852 ], [ -2.2411126, 42.768542 ], [ -2.2410627, 42.7687534 ], [ -2.2409975, 42.7690186 ], [ -2.2409293, 42.7692905 ], [ -2.2408674, 42.7695445 ], [ -2.2408269, 42.76973 ], [ -2.2407826, 42.7699149 ], [ -2.2407239, 42.7701514 ], [ -2.2406838, 42.7703116 ], [ -2.2406379, 42.7705049 ], [ -2.2405855, 42.7707207 ], [ -2.2405493, 42.7708724 ], [ -2.2405087, 42.7710725 ], [ -2.2404475, 42.7713299 ], [ -2.2403941, 42.7716323 ], [ -2.2403506, 42.7718825 ], [ -2.2402773, 42.7721871 ], [ -2.2402532, 42.7722854 ], [ -2.2402148, 42.7724259 ], [ -2.2401883, 42.7725962 ], [ -2.2401566, 42.7727463 ], [ -2.2400725, 42.7731892 ], [ -2.2399927, 42.7736536 ], [ -2.2399489, 42.7739854 ], [ -2.2399129, 42.7741821 ], [ -2.2398592, 42.7743253 ], [ -2.2397853, 42.7744931 ], [ -2.2396355, 42.7748118 ], [ -2.2395419, 42.7750279 ], [ -2.2394488, 42.7752107 ], [ -2.2393685, 42.7754061 ], [ -2.2392941, 42.7755468 ], [ -2.2391759, 42.7757841 ], [ -2.2390724, 42.775999 ], [ -2.2390025, 42.7761533 ], [ -2.2389149, 42.7762563 ], [ -2.2387866, 42.7764367 ], [ -2.2386027, 42.7766713 ], [ -2.2384132, 42.7769194 ], [ -2.238206, 42.7771746 ], [ -2.2380483, 42.777388 ], [ -2.237962, 42.7775079 ], [ -2.237841, 42.7776636 ], [ -2.2376812, 42.7778527 ], [ -2.2375351, 42.7780583 ], [ -2.2373175, 42.7783501 ], [ -2.2371622, 42.7785522 ], [ -2.2370086, 42.7787443 ], [ -2.2368364, 42.7789564 ], [ -2.2366308, 42.7792061 ], [ -2.2364289, 42.7794698 ], [ -2.2362514, 42.7796786 ], [ -2.2360917, 42.7798576 ] ] ] } }
]
}
