{
"type": "FeatureCollection",
"name": "31189",
"features": [
{ "type": "Feature", "properties": { "CCAA": "15 - Comunidad Foral de Navarra", "PROVINCIA": "31 - Navarra", "MUNICIPIO": "31189 - Olazti/Olazagutía", "COD_MUNICIPIO": "31189", "DISTRITO": "01", "SECCION": "3118901001", "V1_H": 81.4, "V1_M": 86.8, "V2_H": 81.08162797, "V2_M": 86.57651574, "V3_H": 81.67802952, "V3_M": 87.10412253 }, "geometry": { "type": "Polygon", "coordinates": [ [ [ -2.1957138, 42.9033009 ], [ -2.1958584, 42.903361 ], [ -2.1959536, 42.9034011 ], [ -2.1959879, 42.9034131 ], [ -2.1960946, 42.9034516 ], [ -2.1961639, 42.9034768 ], [ -2.1963057, 42.9035279 ], [ -2.1963964, 42.9035606 ], [ -2.1966173, 42.9036427 ], [ -2.1966579, 42.9036435 ], [ -2.196781, 42.9036545 ], [ -2.1968604, 42.9036765 ], [ -2.1969114, 42.903692 ], [ -2.1969668, 42.9037324 ], [ -2.197035, 42.9037841 ], [ -2.1970929, 42.90387 ], [ -2.1971544, 42.9039678 ], [ -2.1972205, 42.9040606 ], [ -2.1972845, 42.9042063 ], [ -2.1973578, 42.9043357 ], [ -2.1973796, 42.904423 ], [ -2.1974121, 42.9045201 ], [ -2.1974608, 42.9046003 ], [ -2.1974689, 42.9046888 ], [ -2.1974714, 42.9047299 ], [ -2.197472, 42.9047423 ], [ -2.1974752, 42.9047873 ], [ -2.1974785, 42.9048329 ], [ -2.1974908, 42.9048853 ], [ -2.1975097, 42.9049654 ], [ -2.1975373, 42.905014 ], [ -2.1975804, 42.9050588 ], [ -2.1976751, 42.9050785 ], [ -2.1977781, 42.9051052 ], [ -2.1978612, 42.9051322 ], [ -2.1979557, 42.9051644 ], [ -2.1980318, 42.905197 ], [ -2.1981196, 42.9052764 ], [ -2.1982494, 42.905364 ], [ -2.198341, 42.9054446 ], [ -2.198371, 42.9054937 ], [ -2.1984166, 42.9055182 ], [ -2.1984874, 42.9055469 ], [ -2.1986026, 42.905582 ], [ -2.198717, 42.905616 ], [ -2.1988276, 42.9056472 ], [ -2.1988875, 42.9056954 ], [ -2.1989832, 42.9057507 ], [ -2.1990621, 42.9058065 ], [ -2.1991412, 42.9058442 ], [ -2.1992014, 42.9058665 ], [ -2.1992868, 42.9058964 ], [ -2.1993803, 42.9058869 ], [ -2.1994955, 42.9058646 ], [ -2.1996193, 42.9058182 ], [ -2.1997099, 42.9058003 ], [ -2.1998485, 42.9057979 ], [ -2.2000041, 42.9057883 ], [ -2.2001657, 42.9057765 ], [ -2.2002518, 42.9057529 ], [ -2.200365, 42.9057582 ], [ -2.2004584, 42.90576 ], [ -2.2005257, 42.9057683 ], [ -2.2006028, 42.905788 ], [ -2.200707, 42.9058343 ], [ -2.2008445, 42.9059197 ], [ -2.2009356, 42.905985 ], [ -2.2010235, 42.9060543 ], [ -2.2011214, 42.9061237 ], [ -2.2012199, 42.9061947 ], [ -2.2013574, 42.9062846 ], [ -2.2014949, 42.9063632 ], [ -2.2016348, 42.9064464 ], [ -2.2017579, 42.9065108 ], [ -2.201846, 42.9065677 ], [ -2.2019519, 42.9066079 ], [ -2.2020571, 42.9066463 ], [ -2.2021413, 42.9066491 ], [ -2.2022737, 42.9066461 ], [ -2.2024464, 42.9066198 ], [ -2.2025372, 42.9065804 ], [ -2.2026527, 42.9065261 ], [ -2.2027904, 42.9064809 ], [ -2.2029217, 42.9064486 ], [ -2.2031131, 42.906392 ], [ -2.203299, 42.9063437 ], [ -2.2034686, 42.906314 ], [ -2.203651, 42.9062966 ], [ -2.2038693, 42.9062931 ], [ -2.2040368, 42.9063033 ], [ -2.2042036, 42.906314 ], [ -2.2043587, 42.9063359 ], [ -2.2045374, 42.9063743 ], [ -2.2047297, 42.906428 ], [ -2.2049065, 42.9064849 ], [ -2.2050712, 42.9065407 ], [ -2.2052449, 42.9066055 ], [ -2.205406, 42.9067012 ], [ -2.2055167, 42.9067875 ], [ -2.2056128, 42.9068737 ], [ -2.2056738, 42.9069518 ], [ -2.2057758, 42.9070578 ], [ -2.2058982, 42.9071869 ], [ -2.2059095, 42.9071994 ], [ -2.2059648, 42.9073078 ], [ -2.2060237, 42.9074298 ], [ -2.2060738, 42.9075787 ], [ -2.206119, 42.9077012 ], [ -2.2061527, 42.9078145 ], [ -2.206178, 42.907929 ], [ -2.2062011, 42.90804 ], [ -2.2062111, 42.9081577 ], [ -2.2062099, 42.9082461 ], [ -2.2062062, 42.9083581 ], [ -2.2061833, 42.9084722 ], [ -2.2061273, 42.9086001 ], [ -2.2060845, 42.9087118 ], [ -2.2060439, 42.9088319 ], [ -2.2059834, 42.908948 ], [ -2.2058948, 42.9091123 ], [ -2.2058066, 42.909249 ], [ -2.2057415, 42.9093634 ], [ -2.2056719, 42.9094738 ], [ -2.2055884, 42.9095993 ], [ -2.2055251, 42.9097018 ], [ -2.2054429, 42.9098397 ], [ -2.2053842, 42.9099378 ], [ -2.2053053, 42.9100577 ], [ -2.2052012, 42.9101769 ], [ -2.2051162, 42.9102945 ], [ -2.2050623, 42.9103779 ], [ -2.2050116, 42.9104496 ], [ -2.2049561, 42.9105443 ], [ -2.204929, 42.910623 ], [ -2.2049221, 42.9106814 ], [ -2.2049277, 42.9107828 ], [ -2.204942, 42.9108611 ], [ -2.2049587, 42.9109378 ], [ -2.2049665, 42.9110442 ], [ -2.2049689, 42.9111517 ], [ -2.2049383, 42.9112658 ], [ -2.2048946, 42.9113949 ], [ -2.204833, 42.9115374 ], [ -2.2047738, 42.911671 ], [ -2.2046994, 42.9118067 ], [ -2.2046158, 42.9119344 ], [ -2.2045101, 42.9120552 ], [ -2.2044047, 42.9121519 ], [ -2.2042638, 42.912273 ], [ -2.2041424, 42.9123639 ], [ -2.2040472, 42.9124415 ], [ -2.2039198, 42.9125245 ], [ -2.2038103, 42.9125867 ], [ -2.2036764, 42.9126353 ], [ -2.2035373, 42.9126788 ], [ -2.2034157, 42.9127275 ], [ -2.2032686, 42.9127861 ], [ -2.2031789, 42.912857 ], [ -2.2031095, 42.9129511 ], [ -2.2030583, 42.9130644 ], [ -2.2030454, 42.9131741 ], [ -2.2030094, 42.9132959 ], [ -2.2030242, 42.9133923 ], [ -2.2030907, 42.9134648 ], [ -2.2031752, 42.9135554 ], [ -2.2032612, 42.9136635 ], [ -2.2033167, 42.9137539 ], [ -2.2034114, 42.9138852 ], [ -2.2034184, 42.9139973 ], [ -2.2034426, 42.9140841 ], [ -2.2034629, 42.9141687 ], [ -2.2034498, 42.9142384 ], [ -2.2034069, 42.9143574 ], [ -2.2033468, 42.9144442 ], [ -2.2032506, 42.9145381 ], [ -2.2031454, 42.9146257 ], [ -2.2030282, 42.9146857 ], [ -2.2028751, 42.9147375 ], [ -2.2027504, 42.9147884 ], [ -2.2026233, 42.9148461 ], [ -2.2024902, 42.9149554 ], [ -2.2023115, 42.9150938 ], [ -2.202245, 42.9152081 ], [ -2.2021771, 42.9153073 ], [ -2.2020606, 42.9154359 ], [ -2.2019687, 42.9155518 ], [ -2.2019573, 42.9156614 ], [ -2.2020186, 42.9157193 ], [ -2.2020961, 42.915762 ], [ -2.2022574, 42.9157857 ], [ -2.2023958, 42.915808 ], [ -2.2025534, 42.9158159 ], [ -2.2027224, 42.9158339 ], [ -2.2028766, 42.9158699 ], [ -2.2030146, 42.915912 ], [ -2.2031511, 42.9159641 ], [ -2.2032361, 42.9160204 ], [ -2.2033129, 42.9161172 ], [ -2.2033289, 42.9162417 ], [ -2.2033475, 42.9164067 ], [ -2.2033427, 42.9165412 ], [ -2.2033193, 42.9166913 ], [ -2.2032827, 42.9167986 ], [ -2.2032438, 42.9169069 ], [ -2.2032018, 42.9169545 ], [ -2.2031604, 42.9170127 ], [ -2.2030582, 42.9171049 ], [ -2.2029569, 42.9171779 ], [ -2.2029212, 42.9172778 ], [ -2.2028461, 42.9174563 ], [ -2.2028075, 42.9176069 ], [ -2.2027964, 42.9177475 ], [ -2.2028112, 42.917845 ], [ -2.202843, 42.917933 ], [ -2.2029074, 42.9180499 ], [ -2.2030398, 42.9181752 ], [ -2.203115, 42.918281 ], [ -2.2031825, 42.9183878 ], [ -2.2032331, 42.9184991 ], [ -2.2032769, 42.9186102 ], [ -2.2033684, 42.9188766 ], [ -2.203606, 42.9192817 ], [ -2.2037963, 42.9196669 ], [ -2.2039229, 42.9199436 ], [ -2.2040385, 42.9200626 ], [ -2.2042869, 42.9202759 ], [ -2.204553, 42.9205474 ], [ -2.2049518, 42.9209773 ], [ -2.2052727, 42.9213296 ], [ -2.2054937, 42.921594 ], [ -2.2056102, 42.9218194 ], [ -2.2056828, 42.9220709 ], [ -2.2058028, 42.9222688 ], [ -2.2059081, 42.9223618 ], [ -2.2059368, 42.9223879 ], [ -2.2059936, 42.9224378 ], [ -2.2062928, 42.9226351 ], [ -2.2064685, 42.9226724 ], [ -2.2066848, 42.9226441 ], [ -2.2069468, 42.9225766 ], [ -2.2073537, 42.9224979 ], [ -2.207792, 42.9224818 ], [ -2.208164, 42.9224911 ], [ -2.2083727, 42.9225269 ], [ -2.2084721, 42.9226013 ], [ -2.2084845, 42.9227055 ], [ -2.2084092, 42.9229611 ], [ -2.2083385, 42.9231632 ], [ -2.2082759, 42.9233862 ], [ -2.208261, 42.9235881 ], [ -2.2082717, 42.9237711 ], [ -2.2083174, 42.9239099 ], [ -2.2083914, 42.9239909 ], [ -2.2085308, 42.9240509 ], [ -2.2088777, 42.9241727 ], [ -2.2092445, 42.9243491 ], [ -2.2094907, 42.9245068 ], [ -2.2096179, 42.9246219 ], [ -2.2096524, 42.9247347 ], [ -2.2096671, 42.9247821 ], [ -2.2097972, 42.9249681 ], [ -2.2099787, 42.9250949 ], [ -2.210265, 42.9252185 ], [ -2.210574, 42.9253157 ], [ -2.2108602, 42.9253875 ], [ -2.2111002, 42.9254308 ], [ -2.2113806, 42.9254817 ], [ -2.211562, 42.9255516 ], [ -2.2117932, 42.9256736 ], [ -2.212063, 42.9258933 ], [ -2.2122798, 42.9260113 ], [ -2.2125838, 42.9261389 ], [ -2.2128887, 42.926248 ], [ -2.2132423, 42.9263286 ], [ -2.2135787, 42.9263799 ], [ -2.2139442, 42.9264201 ], [ -2.2141056, 42.9264393 ], [ -2.2141446, 42.9264429 ], [ -2.2142555, 42.9264532 ], [ -2.2144242, 42.9264369 ], [ -2.2145521, 42.9263748 ], [ -2.2145861, 42.9263536 ], [ -2.2146811, 42.9262929 ], [ -2.2147707, 42.9262328 ], [ -2.214868, 42.9262295 ], [ -2.2150078, 42.926253 ], [ -2.2153167, 42.9263542 ], [ -2.2156494, 42.9264566 ], [ -2.2156951, 42.9264716 ], [ -2.2158812, 42.9265319 ], [ -2.2159719, 42.9265084 ], [ -2.2161235, 42.9264503 ], [ -2.2161443, 42.9264403 ], [ -2.2162499, 42.9263893 ], [ -2.2163268, 42.9263611 ], [ -2.2161298, 42.9262579 ], [ -2.2160958, 42.9262216 ], [ -2.2164075, 42.926096 ], [ -2.2164815, 42.9260008 ], [ -2.2166329, 42.9257182 ], [ -2.2167167, 42.9255735 ], [ -2.2168177, 42.9253981 ], [ -2.2168237, 42.925352 ], [ -2.2168297, 42.9252957 ], [ -2.216878, 42.925112 ], [ -2.2168821, 42.9250957 ], [ -2.2168963, 42.9250632 ], [ -2.2169365, 42.92497 ], [ -2.2169698, 42.9248245 ], [ -2.2169898, 42.9246974 ], [ -2.2170474, 42.9246213 ], [ -2.2171995, 42.9245841 ], [ -2.2173427, 42.9245839 ], [ -2.2174765, 42.9246022 ], [ -2.2176346, 42.9246383 ], [ -2.2177296, 42.9246344 ], [ -2.2177956, 42.9246208 ], [ -2.2178883, 42.9245612 ], [ -2.2179697, 42.9244199 ], [ -2.2180123, 42.9242682 ], [ -2.2180744, 42.9240784 ], [ -2.2180875, 42.9238866 ], [ -2.2180933, 42.9238546 ], [ -2.2181302, 42.9238486 ], [ -2.2182326, 42.9238589 ], [ -2.2185015, 42.9239783 ], [ -2.2187595, 42.9241051 ], [ -2.2190869, 42.9242548 ], [ -2.2196811, 42.9245098 ], [ -2.220255, 42.9247265 ], [ -2.2203213, 42.9247512 ], [ -2.2208557, 42.9249445 ], [ -2.2212878, 42.9250538 ], [ -2.2217972, 42.9252272 ], [ -2.2219216, 42.9252692 ], [ -2.222029, 42.9253054 ], [ -2.2228222, 42.9255095 ], [ -2.2236634, 42.9257904 ], [ -2.2242588, 42.9260134 ], [ -2.2249058, 42.9262074 ], [ -2.2255462, 42.9263789 ], [ -2.2261816, 42.9265206 ], [ -2.2266927, 42.9266856 ], [ -2.2271337, 42.926881 ], [ -2.2277014, 42.9272332 ], [ -2.2283111, 42.9276533 ], [ -2.2285981, 42.927859 ], [ -2.2286527, 42.9278346 ], [ -2.22893, 42.9277115 ], [ -2.2289462, 42.927706 ], [ -2.2290015, 42.9276872 ], [ -2.2291931, 42.9276215 ], [ -2.2294123, 42.9275493 ], [ -2.2296327, 42.9275007 ], [ -2.2300291, 42.92746 ], [ -2.2305133, 42.9274515 ], [ -2.2309371, 42.9274926 ], [ -2.2313364, 42.9275966 ], [ -2.2319675, 42.9277714 ], [ -2.2325103, 42.9279174 ], [ -2.2329137, 42.9279933 ], [ -2.2335388, 42.9281089 ], [ -2.2340425, 42.9281939 ], [ -2.2345448, 42.9283228 ], [ -2.2352728, 42.9285404 ], [ -2.235493, 42.928256 ], [ -2.2357339, 42.9279188 ], [ -2.2358923, 42.9276193 ], [ -2.2360694, 42.9272361 ], [ -2.2361835, 42.9268654 ], [ -2.2358626, 42.9268019 ], [ -2.2355245, 42.9267743 ], [ -2.2350021, 42.9267764 ], [ -2.2345062, 42.9268035 ], [ -2.2339609, 42.9268009 ], [ -2.2336449, 42.9267825 ], [ -2.2330869, 42.9267579 ], [ -2.2327532, 42.9267332 ], [ -2.2323415, 42.9267124 ], [ -2.2319825, 42.9266982 ], [ -2.2314211, 42.9266961 ], [ -2.2313454, 42.9266837 ], [ -2.2310689, 42.9266262 ], [ -2.2306044, 42.9265285 ], [ -2.2300979, 42.9264283 ], [ -2.2295302, 42.9263209 ], [ -2.2290342, 42.926178 ], [ -2.2286902, 42.9260625 ], [ -2.2283419, 42.9259251 ], [ -2.2278563, 42.9256911 ], [ -2.227519, 42.9255272 ], [ -2.2271609, 42.9253166 ], [ -2.2268373, 42.925105 ], [ -2.2264744, 42.9248588 ], [ -2.2261047, 42.9246549 ], [ -2.2255421, 42.9243893 ], [ -2.2250373, 42.924149 ], [ -2.2245834, 42.9239478 ], [ -2.2240536, 42.9236971 ], [ -2.2237137, 42.9235029 ], [ -2.2234512, 42.9233649 ], [ -2.2226305, 42.9229799 ], [ -2.222023, 42.9226894 ], [ -2.22203, 42.922556 ], [ -2.2220314, 42.9225042 ], [ -2.2220265, 42.9221102 ], [ -2.2220274, 42.9220404 ], [ -2.2220127, 42.9216847 ], [ -2.2220032, 42.9215917 ], [ -2.2220564, 42.9214958 ], [ -2.2221703, 42.9212698 ], [ -2.2223618, 42.9209013 ], [ -2.2225552, 42.9205042 ], [ -2.2227489, 42.9200209 ], [ -2.2228806, 42.9196565 ], [ -2.2229375, 42.919398 ], [ -2.2229684, 42.9190684 ], [ -2.2229528, 42.9187959 ], [ -2.2229238, 42.9185413 ], [ -2.2229407, 42.9183551 ], [ -2.2230149, 42.918122 ], [ -2.2232062, 42.9177057 ], [ -2.223403, 42.9172152 ], [ -2.2235978, 42.9168912 ], [ -2.2236678, 42.916563 ], [ -2.2236096, 42.9162558 ], [ -2.2236141, 42.9159007 ], [ -2.2236533, 42.9155273 ], [ -2.2237124, 42.9153313 ], [ -2.2238522, 42.9150502 ], [ -2.2239324, 42.9148212 ], [ -2.2239762, 42.9145721 ], [ -2.2239916, 42.9142548 ], [ -2.2240519, 42.9139687 ], [ -2.2241469, 42.9137195 ], [ -2.224293, 42.9134903 ], [ -2.2244733, 42.9132743 ], [ -2.2247378, 42.913065 ], [ -2.2250582, 42.9127959 ], [ -2.2253526, 42.912521 ], [ -2.2255783, 42.9122889 ], [ -2.2258188, 42.9119788 ], [ -2.2260658, 42.9117018 ], [ -2.226246, 42.9114965 ], [ -2.2264013, 42.911331 ], [ -2.2265126, 42.9112479 ], [ -2.226776, 42.9110628 ], [ -2.2269739, 42.910911 ], [ -2.2270871, 42.910797 ], [ -2.22723, 42.9105756 ], [ -2.2273348, 42.9104024 ], [ -2.2274094, 42.9102521 ], [ -2.2274716, 42.9100538 ], [ -2.227576, 42.9098508 ], [ -2.2276522, 42.9097579 ], [ -2.2276626, 42.9097174 ], [ -2.2275847, 42.9095233 ], [ -2.227442, 42.9092359 ], [ -2.2272341, 42.9087775 ], [ -2.2270302, 42.9084367 ], [ -2.2268226, 42.9080148 ], [ -2.2266637, 42.9076823 ], [ -2.2266553, 42.9076192 ], [ -2.2267551, 42.9072867 ], [ -2.2268676, 42.9069289 ], [ -2.2269299, 42.906725 ], [ -2.2269658, 42.9065486 ], [ -2.2269653, 42.9064624 ], [ -2.2267883, 42.9063487 ], [ -2.2264644, 42.9061709 ], [ -2.2260101, 42.9058886 ], [ -2.2256869, 42.9056568 ], [ -2.2254958, 42.9055075 ], [ -2.2253601, 42.9053979 ], [ -2.2253367, 42.9053742 ], [ -2.225177, 42.9052245 ], [ -2.2251245, 42.9051408 ], [ -2.2251197, 42.9049112 ], [ -2.2251239, 42.9046405 ], [ -2.2251163, 42.9043337 ], [ -2.2251036, 42.9040635 ], [ -2.2250761, 42.9038117 ], [ -2.2250037, 42.903545 ], [ -2.2248815, 42.9032796 ], [ -2.2248449, 42.9030148 ], [ -2.2248439, 42.9026738 ], [ -2.2248536, 42.9023243 ], [ -2.2248245, 42.9020208 ], [ -2.2247116, 42.9017431 ], [ -2.2246615, 42.9015266 ], [ -2.2245874, 42.901211 ], [ -2.2244986, 42.9008422 ], [ -2.2243827, 42.9003833 ], [ -2.2242911, 42.9000574 ], [ -2.2241784, 42.8996475 ], [ -2.2241428, 42.8994896 ], [ -2.2239508, 42.8990516 ], [ -2.2238644, 42.8988 ], [ -2.2237796, 42.898545 ], [ -2.2237108, 42.8981067 ], [ -2.2236571, 42.8978147 ], [ -2.2235622, 42.897446 ], [ -2.2235037, 42.8971681 ], [ -2.2233384, 42.8965575 ], [ -2.2231922, 42.8961878 ], [ -2.2231697, 42.8960312 ], [ -2.2231951, 42.8958957 ], [ -2.2232616, 42.8957234 ], [ -2.2234425, 42.8954613 ], [ -2.2237209, 42.8951187 ], [ -2.2239369, 42.894863 ], [ -2.2240032, 42.8947672 ], [ -2.224066, 42.8946409 ], [ -2.2240625, 42.8944873 ], [ -2.2239866, 42.8943759 ], [ -2.2237776, 42.8942619 ], [ -2.2234015, 42.8940939 ], [ -2.2229791, 42.8938361 ], [ -2.222615, 42.8936326 ], [ -2.222147, 42.8933599 ], [ -2.2217455, 42.8931438 ], [ -2.2213439, 42.8929413 ], [ -2.2210364, 42.8928013 ], [ -2.2202224, 42.8923466 ], [ -2.2194431, 42.8918663 ], [ -2.2192931, 42.8918061 ], [ -2.219349, 42.8916231 ], [ -2.2194353, 42.8914514 ], [ -2.2195542, 42.8913098 ], [ -2.2196501, 42.8911715 ], [ -2.2198058, 42.8909069 ], [ -2.2200019, 42.8905953 ], [ -2.2201459, 42.8902828 ], [ -2.2202488, 42.8900122 ], [ -2.2202907, 42.8897823 ], [ -2.2202875, 42.8896793 ], [ -2.2201813, 42.8893606 ], [ -2.2200559, 42.8890456 ], [ -2.219838, 42.8882365 ], [ -2.219682, 42.8876174 ], [ -2.2195587, 42.8872018 ], [ -2.2194407, 42.8867311 ], [ -2.2194001, 42.8864302 ], [ -2.2192278, 42.8858324 ], [ -2.2190841, 42.8852658 ], [ -2.2189671, 42.8846605 ], [ -2.2187547, 42.8840834 ], [ -2.2184474, 42.8834492 ], [ -2.2182988, 42.8830913 ], [ -2.2181602, 42.8827972 ], [ -2.2181431, 42.8827588 ], [ -2.2179654, 42.8823416 ], [ -2.2177729, 42.8818349 ], [ -2.217658, 42.8815414 ], [ -2.2175884, 42.8812922 ], [ -2.2175835, 42.8811419 ], [ -2.2175845, 42.8811177 ], [ -2.2175771, 42.8810974 ], [ -2.2175241, 42.8809366 ], [ -2.2173154, 42.8806133 ], [ -2.2172126, 42.8803885 ], [ -2.2171047, 42.8801469 ], [ -2.2169963, 42.8798248 ], [ -2.2168825, 42.8794447 ], [ -2.2167885, 42.8790681 ], [ -2.2167886, 42.8787078 ], [ -2.2167544, 42.8783176 ], [ -2.2167534, 42.8782815 ], [ -2.216749, 42.8780238 ], [ -2.2167605, 42.877904 ], [ -2.2167452, 42.8776579 ], [ -2.2167441, 42.8776281 ], [ -2.2166581, 42.8774074 ], [ -2.2166024, 42.8772134 ], [ -2.2165309, 42.876999 ], [ -2.2164744, 42.8767426 ], [ -2.2164194, 42.8764957 ], [ -2.2163819, 42.8763136 ], [ -2.2163138, 42.8761314 ], [ -2.2162749, 42.8759994 ], [ -2.2162009, 42.8758621 ], [ -2.2161239, 42.8757226 ], [ -2.2160532, 42.875623 ], [ -2.215996, 42.8754853 ], [ -2.2159324, 42.8753166 ], [ -2.2158464, 42.8751579 ], [ -2.2157625, 42.8750143 ], [ -2.2156165, 42.874822 ], [ -2.2154975, 42.8746061 ], [ -2.2152705, 42.8742258 ], [ -2.2150742, 42.8738958 ], [ -2.2149121, 42.8736408 ], [ -2.2147694, 42.8733742 ], [ -2.2146355, 42.8731323 ], [ -2.214581, 42.8730256 ], [ -2.214519, 42.8728417 ], [ -2.2144849, 42.8727598 ], [ -2.2144233, 42.8726125 ], [ -2.2143754, 42.8724636 ], [ -2.2143229, 42.8723186 ], [ -2.2142908, 42.8721963 ], [ -2.2142827, 42.8721737 ], [ -2.2142575, 42.8721077 ], [ -2.2142464, 42.8720761 ], [ -2.2142345, 42.8720456 ], [ -2.2141975, 42.8719469 ], [ -2.2141934, 42.8719114 ], [ -2.2141922, 42.8718877 ], [ -2.2141886, 42.8718702 ], [ -2.2141879, 42.8718669 ], [ -2.214182, 42.8718438 ], [ -2.2141253, 42.8717347 ], [ -2.2140708, 42.8716263 ], [ -2.2140613, 42.8715306 ], [ -2.2140892, 42.8713833 ], [ -2.2141117, 42.8712343 ], [ -2.2141349, 42.8710375 ], [ -2.2141591, 42.8708237 ], [ -2.2142043, 42.8706304 ], [ -2.2143014, 42.8704611 ], [ -2.2144063, 42.8703302 ], [ -2.2145816, 42.8702053 ], [ -2.2147482, 42.8701051 ], [ -2.2148221, 42.8700105 ], [ -2.2148696, 42.869882 ], [ -2.2148726, 42.8697086 ], [ -2.2148969, 42.8695433 ], [ -2.214953, 42.8693979 ], [ -2.2150048, 42.8693032 ], [ -2.214803, 42.8691589 ], [ -2.2145807, 42.8689525 ], [ -2.2145184, 42.8688006 ], [ -2.2144753, 42.8686405 ], [ -2.2144254, 42.8685276 ], [ -2.2144197, 42.8684943 ], [ -2.2143764, 42.8683477 ], [ -2.2142779, 42.8682136 ], [ -2.2142554, 42.8681184 ], [ -2.2142575, 42.8679529 ], [ -2.2142937, 42.8677584 ], [ -2.2143276, 42.8676196 ], [ -2.2143208, 42.8674901 ], [ -2.2143034, 42.8674146 ], [ -2.214276, 42.8673446 ], [ -2.2142259, 42.8672525 ], [ -2.2140811, 42.8670878 ], [ -2.2139203, 42.8669133 ], [ -2.2137523, 42.8667669 ], [ -2.2136297, 42.8666029 ], [ -2.2135212, 42.8664068 ], [ -2.2134238, 42.8662441 ], [ -2.2134331, 42.8661141 ], [ -2.2134591, 42.8660591 ], [ -2.2134528, 42.8660135 ], [ -2.2134394, 42.8659768 ], [ -2.2133781, 42.8659285 ], [ -2.2133075, 42.8658808 ], [ -2.2132512, 42.8658624 ], [ -2.2132126, 42.8658244 ], [ -2.2131886, 42.8657922 ], [ -2.2131685, 42.8657437 ], [ -2.2131292, 42.8656477 ], [ -2.2129632, 42.8654631 ], [ -2.2127078, 42.865275 ], [ -2.2125383, 42.8651838 ], [ -2.2124207, 42.8651064 ], [ -2.2123156, 42.8649498 ], [ -2.212207, 42.8647667 ], [ -2.2121006, 42.8645926 ], [ -2.2120014, 42.8643837 ], [ -2.2119458, 42.8643068 ], [ -2.2117834, 42.8642021 ], [ -2.2115812, 42.8641022 ], [ -2.2114854, 42.864048 ], [ -2.2114076, 42.8639715 ], [ -2.2113113, 42.8638442 ], [ -2.2112246, 42.8636866 ], [ -2.2111232, 42.8635964 ], [ -2.2111103, 42.863589 ], [ -2.2110989, 42.8635805 ], [ -2.2109387, 42.8634843 ], [ -2.210758, 42.8633761 ], [ -2.2105672, 42.8632183 ], [ -2.2104386, 42.8631049 ], [ -2.2103119, 42.8629554 ], [ -2.2101967, 42.8627604 ], [ -2.2100492, 42.8625084 ], [ -2.2098764, 42.8622567 ], [ -2.209765, 42.8620505 ], [ -2.2096603, 42.8618596 ], [ -2.2095573, 42.8615983 ], [ -2.2095364, 42.8615632 ], [ -2.2094528, 42.8613966 ], [ -2.2092236, 42.8610731 ], [ -2.2090612, 42.8607877 ], [ -2.2088864, 42.8604016 ], [ -2.2087082, 42.859981 ], [ -2.2085118, 42.8595457 ], [ -2.2084022, 42.8592602 ], [ -2.2082856, 42.8589869 ], [ -2.2082312, 42.8588155 ], [ -2.2081623, 42.85864 ], [ -2.2080814, 42.8584435 ], [ -2.2079696, 42.858275 ], [ -2.2079142, 42.8581795 ], [ -2.2077159, 42.8580093 ], [ -2.2074647, 42.8577914 ], [ -2.2073002, 42.8576136 ], [ -2.2071277, 42.8574008 ], [ -2.2069051, 42.8572208 ], [ -2.2066513, 42.857093 ], [ -2.2062024, 42.857199 ], [ -2.2057849, 42.8573025 ], [ -2.2056341, 42.8573093 ], [ -2.2054433, 42.8573288 ], [ -2.2052118, 42.8573649 ], [ -2.2049042, 42.857432 ], [ -2.2045808, 42.8574736 ], [ -2.2042713, 42.8575131 ], [ -2.2038729, 42.8575554 ], [ -2.2033735, 42.8576009 ], [ -2.2028855, 42.8576538 ], [ -2.2025884, 42.8576787 ], [ -2.2021108, 42.8577502 ], [ -2.2015917, 42.8578423 ], [ -2.201288, 42.8579009 ], [ -2.2010536, 42.8579843 ], [ -2.2002758, 42.8580847 ], [ -2.1995182, 42.858161 ], [ -2.1989153, 42.8582209 ], [ -2.1981221, 42.8582688 ], [ -2.1971139, 42.8583214 ], [ -2.1966033, 42.8584039 ], [ -2.1961623, 42.8584357 ], [ -2.1957093, 42.858441 ], [ -2.1952846, 42.8584498 ], [ -2.1948135, 42.858433 ], [ -2.1944216, 42.8584527 ], [ -2.1937245, 42.8584597 ], [ -2.1931823, 42.8584502 ], [ -2.192731, 42.8584391 ], [ -2.1924014, 42.8584267 ], [ -2.1918623, 42.8584741 ], [ -2.1915825, 42.8584513 ], [ -2.191127, 42.8584778 ], [ -2.1906434, 42.8585431 ], [ -2.1901481, 42.8585734 ], [ -2.1896039, 42.8585864 ], [ -2.1890805, 42.8585371 ], [ -2.188408, 42.8584271 ], [ -2.1879289, 42.8583223 ], [ -2.1875622, 42.8582274 ], [ -2.1871307, 42.8581709 ], [ -2.1865619, 42.8580808 ], [ -2.1861843, 42.8579998 ], [ -2.185473, 42.8578721 ], [ -2.1848388, 42.8577561 ], [ -2.1843269, 42.8577029 ], [ -2.1840658, 42.8577174 ], [ -2.1838257, 42.8577691 ], [ -2.1834642, 42.8578572 ], [ -2.1831378, 42.8580096 ], [ -2.1827659, 42.8582461 ], [ -2.1824972, 42.8584913 ], [ -2.1820655, 42.8587404 ], [ -2.181548, 42.8590581 ], [ -2.1812603, 42.8592918 ], [ -2.1811684, 42.8594105 ], [ -2.1811743, 42.8595416 ], [ -2.1812283, 42.8596822 ], [ -2.1813045, 42.859766 ], [ -2.1813217, 42.8597931 ], [ -2.1813387, 42.8598389 ], [ -2.1813884, 42.8599597 ], [ -2.181422, 42.8601389 ], [ -2.1815009, 42.8603612 ], [ -2.181691, 42.8606811 ], [ -2.1819053, 42.8609584 ], [ -2.182078, 42.8612113 ], [ -2.1822057, 42.8614446 ], [ -2.182263, 42.8616263 ], [ -2.1822762, 42.8617845 ], [ -2.1822166, 42.8620081 ], [ -2.1821352, 42.862209 ], [ -2.1820339, 42.8623997 ], [ -2.1819059, 42.8625366 ], [ -2.1818208, 42.8627234 ], [ -2.181741, 42.8628585 ], [ -2.1815589, 42.8629726 ], [ -2.1813902, 42.8630597 ], [ -2.1811802, 42.8631471 ], [ -2.1809514, 42.8633177 ], [ -2.1805899, 42.863578 ], [ -2.1803639, 42.8637159 ], [ -2.1802576, 42.863767 ], [ -2.1802171, 42.8637684 ], [ -2.1800715, 42.8637268 ], [ -2.1799241, 42.8637077 ], [ -2.1797911, 42.8637563 ], [ -2.1795648, 42.8638577 ], [ -2.1793675, 42.863908 ], [ -2.1791378, 42.8639779 ], [ -2.1788786, 42.8640824 ], [ -2.178553, 42.8642832 ], [ -2.1782192, 42.8645347 ], [ -2.1780374, 42.8646831 ], [ -2.1779207, 42.8648285 ], [ -2.177836, 42.8649259 ], [ -2.1777221, 42.8649785 ], [ -2.1775401, 42.8650836 ], [ -2.1772881, 42.865281 ], [ -2.1769311, 42.8655993 ], [ -2.1767631, 42.8656898 ], [ -2.1765731, 42.8657667 ], [ -2.1763525, 42.8657887 ], [ -2.1761784, 42.8658133 ], [ -2.1760045, 42.8658892 ], [ -2.1758682, 42.8660131 ], [ -2.1756606, 42.8662036 ], [ -2.1755647, 42.8663397 ], [ -2.1755497, 42.8664864 ], [ -2.1755027, 42.8665694 ], [ -2.1754103, 42.8666143 ], [ -2.1752864, 42.8666635 ], [ -2.1750908, 42.8667584 ], [ -2.1748672, 42.8668316 ], [ -2.1746054, 42.8669535 ], [ -2.1743445, 42.867071 ], [ -2.174053, 42.8671825 ], [ -2.1736913, 42.8673336 ], [ -2.1733466, 42.8674841 ], [ -2.1730289, 42.8676068 ], [ -2.172778, 42.867717 ], [ -2.1724843, 42.8678196 ], [ -2.1721778, 42.8679097 ], [ -2.1718819, 42.8680082 ], [ -2.1714298, 42.8681732 ], [ -2.1710594, 42.8682927 ], [ -2.1706963, 42.8684375 ], [ -2.1703115, 42.8685467 ], [ -2.1698932, 42.8686411 ], [ -2.1694557, 42.8687454 ], [ -2.1689247, 42.8688575 ], [ -2.1685035, 42.8689405 ], [ -2.168248, 42.8689938 ], [ -2.1679946, 42.8690572 ], [ -2.1678486, 42.8691024 ], [ -2.1674653, 42.8692155 ], [ -2.1671354, 42.8692795 ], [ -2.1670258, 42.8692945 ], [ -2.1663928, 42.869363 ], [ -2.1670381, 42.8700808 ], [ -2.1729393, 42.876474 ], [ -2.1731815, 42.8767364 ], [ -2.1747858, 42.8784331 ], [ -2.1756208, 42.8795152 ], [ -2.175675, 42.8795854 ], [ -2.1757886, 42.879732 ], [ -2.1758216, 42.8797739 ], [ -2.1763032, 42.8803351 ], [ -2.1763854, 42.8804285 ], [ -2.1768852, 42.8809972 ], [ -2.1769033, 42.8810176 ], [ -2.1770156, 42.8811456 ], [ -2.1771724, 42.8813263 ], [ -2.1772915, 42.8814639 ], [ -2.1775266, 42.8817357 ], [ -2.1780709, 42.8823576 ], [ -2.1780943, 42.8823843 ], [ -2.1783613, 42.8826789 ], [ -2.1788199, 42.8831848 ], [ -2.1788622, 42.8832301 ], [ -2.178994, 42.8833875 ], [ -2.1792232, 42.8836503 ], [ -2.1793949, 42.8838609 ], [ -2.1794494, 42.8839063 ], [ -2.1795308, 42.8839998 ], [ -2.1795398, 42.88401 ], [ -2.1796951, 42.8841906 ], [ -2.1797757, 42.8842891 ], [ -2.1797938, 42.8843118 ], [ -2.1798052, 42.8843203 ], [ -2.1799286, 42.884418 ], [ -2.1799595, 42.8844486 ], [ -2.1799845, 42.8844724 ], [ -2.1800004, 42.8844877 ], [ -2.1800418, 42.8845944 ], [ -2.1800589, 42.8846379 ], [ -2.1800737, 42.8846751 ], [ -2.1800961, 42.8847153 ], [ -2.180141, 42.8847927 ], [ -2.1801657, 42.8848362 ], [ -2.1802045, 42.8849045 ], [ -2.1803195, 42.885121 ], [ -2.1804384, 42.8852788 ], [ -2.1805759, 42.8854143 ], [ -2.180732, 42.8855905 ], [ -2.1808874, 42.8857582 ], [ -2.1810264, 42.8858988 ], [ -2.1811491, 42.8860561 ], [ -2.181247, 42.8861694 ], [ -2.1814249, 42.8862669 ], [ -2.1815312, 42.8863268 ], [ -2.1816352, 42.8863967 ], [ -2.1817568, 42.8864589 ], [ -2.1817861, 42.8864946 ], [ -2.1818406, 42.886544 ], [ -2.1819548, 42.886645 ], [ -2.1820731, 42.8867899 ], [ -2.1821729, 42.8869398 ], [ -2.182286, 42.8870667 ], [ -2.1824041, 42.8871648 ], [ -2.1825742, 42.8872719 ], [ -2.1826983, 42.8873156 ], [ -2.1827177, 42.8873601 ], [ -2.1827001, 42.8874709 ], [ -2.1827049, 42.8876842 ], [ -2.1826972, 42.8878114 ], [ -2.1826958, 42.8879712 ], [ -2.1826869, 42.8880032 ], [ -2.1826918, 42.8880399 ], [ -2.1827555, 42.8882035 ], [ -2.1828635, 42.8884823 ], [ -2.1829427, 42.8887491 ], [ -2.182989, 42.8888952 ], [ -2.1830024, 42.8889184 ], [ -2.1830038, 42.8889308 ], [ -2.183068, 42.8891108 ], [ -2.1832517, 42.8894605 ], [ -2.1834414, 42.8899324 ], [ -2.1837171, 42.890442 ], [ -2.1839246, 42.8908431 ], [ -2.184115, 42.8912063 ], [ -2.1842587, 42.8915073 ], [ -2.184373, 42.8917772 ], [ -2.1844702, 42.8919546 ], [ -2.1845441, 42.8920981 ], [ -2.184635, 42.8922862 ], [ -2.1847012, 42.892429 ], [ -2.1847675, 42.8926282 ], [ -2.1848106, 42.8927866 ], [ -2.1848954, 42.8930281 ], [ -2.1849803, 42.8932595 ], [ -2.1850744, 42.8934403 ], [ -2.1851738, 42.8936211 ], [ -2.1853342, 42.8939442 ], [ -2.1854864, 42.894239 ], [ -2.185643, 42.8944985 ], [ -2.1857658, 42.8947054 ], [ -2.1859549, 42.8949313 ], [ -2.1861163, 42.8951215 ], [ -2.1862471, 42.8952992 ], [ -2.1864231, 42.8954817 ], [ -2.1866171, 42.8956851 ], [ -2.1867824, 42.8958608 ], [ -2.1869347, 42.8960391 ], [ -2.1871253, 42.8962195 ], [ -2.1875094, 42.8965807 ], [ -2.1877206, 42.8967584 ], [ -2.1878765, 42.8968962 ], [ -2.1880481, 42.897059 ], [ -2.1882214, 42.8972161 ], [ -2.1883484, 42.8973381 ], [ -2.1884851, 42.897478 ], [ -2.188614, 42.8976247 ], [ -2.1887361, 42.8977781 ], [ -2.188935, 42.8979568 ], [ -2.1891077, 42.8981004 ], [ -2.1892934, 42.8982391 ], [ -2.1894596, 42.8983472 ], [ -2.1896168, 42.8984496 ], [ -2.1897426, 42.8985484 ], [ -2.1899077, 42.8986217 ], [ -2.1899808, 42.8986543 ], [ -2.1900784, 42.8986865 ], [ -2.1901851, 42.8987181 ], [ -2.1903079, 42.8987523 ], [ -2.1904026, 42.8987698 ], [ -2.1904614, 42.8987804 ], [ -2.1905514, 42.8988654 ], [ -2.1906215, 42.8989503 ], [ -2.19071, 42.8990286 ], [ -2.190807, 42.8991058 ], [ -2.1909152, 42.8992012 ], [ -2.1910332, 42.8993117 ], [ -2.1911522, 42.8994004 ], [ -2.1912369, 42.8994787 ], [ -2.1913734, 42.8995809 ], [ -2.191481, 42.8996616 ], [ -2.1916105, 42.8997712 ], [ -2.1917112, 42.8998574 ], [ -2.1918267, 42.8999241 ], [ -2.1919233, 42.8999726 ], [ -2.1921027, 42.9000639 ], [ -2.1922637, 42.9001703 ], [ -2.1923967, 42.9002472 ], [ -2.1924925, 42.9002935 ], [ -2.192602, 42.9003494 ], [ -2.1927582, 42.900462 ], [ -2.1928712, 42.9005416 ], [ -2.1929887, 42.9006336 ], [ -2.1931054, 42.9007211 ], [ -2.1932373, 42.9008228 ], [ -2.1934254, 42.9009609 ], [ -2.1935643, 42.9010508 ], [ -2.1937344, 42.9011589 ], [ -2.1938275, 42.9012406 ], [ -2.1939337, 42.9013111 ], [ -2.1940097, 42.9013584 ], [ -2.1940947, 42.9014124 ], [ -2.1941981, 42.9014695 ], [ -2.1943393, 42.9015594 ], [ -2.1944965, 42.9016607 ], [ -2.194671, 42.9017807 ], [ -2.1948569, 42.9019052 ], [ -2.1949707, 42.9019832 ], [ -2.1950201, 42.9020741 ], [ -2.195076, 42.9021921 ], [ -2.195145, 42.9023592 ], [ -2.1951903, 42.9024637 ], [ -2.1952234, 42.9025647 ], [ -2.1952449, 42.9026205 ], [ -2.1952847, 42.9026816 ], [ -2.1953565, 42.9028087 ], [ -2.195399, 42.9029007 ], [ -2.1954895, 42.9030016 ], [ -2.1955775, 42.9031232 ], [ -2.1956725, 42.9032392 ], [ -2.1957138, 42.9033009 ] ] ] } }
]
}
