{
"type": "FeatureCollection",
"name": "31194",
"features": [
{ "type": "Feature", "properties": { "CCAA": "15 - Comunidad Foral de Navarra", "PROVINCIA": "31 - Navarra", "MUNICIPIO": "31194 - Valle de Ollo/Ollaran", "COD_MUNICIPIO": "31194", "DISTRITO": "01", "SECCION": "3119401001", "V1_H": 82.11, "V1_M": 87.17, "V2_H": 81.68538902, "V2_M": 87.16795144, "V3_H": 82.5577829, "V3_M": 87.30202001000001 }, "geometry": { "type": "Polygon", "coordinates": [ [ [ -1.8252061, 42.8831296 ], [ -1.8254444, 42.8832345 ], [ -1.8257784, 42.8833831 ], [ -1.8259552, 42.8834615 ], [ -1.8263083, 42.8836081 ], [ -1.8267194, 42.8838053 ], [ -1.8271461, 42.8839831 ], [ -1.8278527, 42.8842959 ], [ -1.8284529, 42.8845711 ], [ -1.8288172, 42.8847335 ], [ -1.8292406, 42.8849264 ], [ -1.8299027, 42.885205 ], [ -1.8302815, 42.8853687 ], [ -1.8304781, 42.8854569 ], [ -1.8311714, 42.8857059 ], [ -1.831927, 42.8859754 ], [ -1.8324435, 42.8861872 ], [ -1.8328728, 42.8863148 ], [ -1.8335002, 42.8864878 ], [ -1.8344536, 42.8867469 ], [ -1.8355461, 42.8870501 ], [ -1.8367757, 42.8873986 ], [ -1.837891, 42.8877156 ], [ -1.8380075, 42.8877488 ], [ -1.838159, 42.887792 ], [ -1.8383826, 42.8878269 ], [ -1.8385879, 42.8878611 ], [ -1.8387543, 42.8878842 ], [ -1.838863, 42.8879202 ], [ -1.8389901, 42.8880031 ], [ -1.8391649, 42.8881056 ], [ -1.8393558, 42.8881734 ], [ -1.8395487, 42.8882108 ], [ -1.8397927, 42.8881784 ], [ -1.8400283, 42.8880637 ], [ -1.8402692, 42.8878731 ], [ -1.8405532, 42.8877448 ], [ -1.8408243, 42.8876969 ], [ -1.8411151, 42.8876622 ], [ -1.841492, 42.8876041 ], [ -1.841927, 42.8874655 ], [ -1.8423443, 42.8873352 ], [ -1.8426776, 42.887275 ], [ -1.8429784, 42.8872325 ], [ -1.8434677, 42.8872211 ], [ -1.8439828, 42.8872195 ], [ -1.8447824, 42.8872332 ], [ -1.8452708, 42.8872258 ], [ -1.845711, 42.8872207 ], [ -1.8468152, 42.8866634 ], [ -1.8475659, 42.8862606 ], [ -1.8483354, 42.8858755 ], [ -1.8491592, 42.885487 ], [ -1.8495521, 42.8852698 ], [ -1.8498799, 42.8850936 ], [ -1.85018, 42.8848793 ], [ -1.8504611, 42.8847065 ], [ -1.8508434, 42.8844374 ], [ -1.8512047, 42.8841456 ], [ -1.8515847, 42.8837959 ], [ -1.8520151, 42.8834119 ], [ -1.8523093, 42.8831025 ], [ -1.8526249, 42.8827984 ], [ -1.853766, 42.8816442 ], [ -1.8541823, 42.8812358 ], [ -1.8550139, 42.8813725 ], [ -1.8554715, 42.8814603 ], [ -1.8565096, 42.8817702 ], [ -1.8570618, 42.8819152 ], [ -1.8575116, 42.8820104 ], [ -1.8585713, 42.8822742 ], [ -1.861208, 42.8828892 ], [ -1.8627308, 42.8833141 ], [ -1.8633832, 42.8835873 ], [ -1.8646152, 42.8840144 ], [ -1.8651128, 42.8841729 ], [ -1.8655355, 42.8842863 ], [ -1.8657355, 42.8843598 ], [ -1.8683038, 42.8854135 ], [ -1.8707158, 42.8861504 ], [ -1.8723633, 42.8835231 ], [ -1.8733548, 42.8837968 ], [ -1.875561, 42.8844433 ], [ -1.8785515, 42.885354 ], [ -1.8818673, 42.8855553 ], [ -1.8860136, 42.8857505 ], [ -1.8870382, 42.885716 ], [ -1.888198, 42.8856614 ], [ -1.888856, 42.8855879 ], [ -1.8893414, 42.8855386 ], [ -1.89134, 42.8853087 ], [ -1.8930208, 42.885133 ], [ -1.8944562, 42.8849859 ], [ -1.8953539, 42.8849017 ], [ -1.8958497, 42.8848238 ], [ -1.8968767, 42.884662 ], [ -1.8981147, 42.8844213 ], [ -1.9010019, 42.8837579 ], [ -1.9021279, 42.8834935 ], [ -1.9038081, 42.8832164 ], [ -1.9056238, 42.88294 ], [ -1.9067974, 42.8827908 ], [ -1.9081546, 42.8824689 ], [ -1.9089851, 42.8824183 ], [ -1.9095519, 42.8822228 ], [ -1.9099176, 42.8816612 ], [ -1.910152, 42.8813009 ], [ -1.9101091, 42.8810461 ], [ -1.9100434, 42.8807326 ], [ -1.909978, 42.8803639 ], [ -1.9099203, 42.880078 ], [ -1.9098605, 42.8797802 ], [ -1.9098503, 42.8797075 ], [ -1.909646, 42.8795311 ], [ -1.909404, 42.8793273 ], [ -1.9091022, 42.8790785 ], [ -1.9087216, 42.8788351 ], [ -1.9084619, 42.8786733 ], [ -1.9081744, 42.8784871 ], [ -1.9078141, 42.8782631 ], [ -1.9074404, 42.8780197 ], [ -1.9070057, 42.8777606 ], [ -1.9066075, 42.8775171 ], [ -1.9062183, 42.8772826 ], [ -1.9058571, 42.8770675 ], [ -1.9056438, 42.8769214 ], [ -1.9054543, 42.8767338 ], [ -1.905208, 42.8765097 ], [ -1.9049704, 42.8762745 ], [ -1.9047634, 42.8760777 ], [ -1.9045368, 42.8758673 ], [ -1.9043229, 42.8756745 ], [ -1.9040905, 42.8754449 ], [ -1.9038031, 42.875168 ], [ -1.9035458, 42.8748774 ], [ -1.9034213, 42.8747338 ], [ -1.9031804, 42.8745508 ], [ -1.9029505, 42.8743544 ], [ -1.9026508, 42.8741248 ], [ -1.9022886, 42.8738343 ], [ -1.901944, 42.8735518 ], [ -1.9016143, 42.8732869 ], [ -1.9012626, 42.87301 ], [ -1.9009682, 42.8727821 ], [ -1.9008087, 42.872628 ], [ -1.9006588, 42.8724116 ], [ -1.9004572, 42.8721304 ], [ -1.9001999, 42.8717953 ], [ -1.9000279, 42.871568 ], [ -1.8999068, 42.8714081 ], [ -1.9001944, 42.8714593 ], [ -1.9004883, 42.8715015 ], [ -1.9007737, 42.8715414 ], [ -1.9011106, 42.8715745 ], [ -1.9013809, 42.8716058 ], [ -1.9016809, 42.8716447 ], [ -1.902087, 42.8717003 ], [ -1.9023361, 42.8717236 ], [ -1.9027141, 42.871676 ], [ -1.9031504, 42.8715862 ], [ -1.9036805, 42.8715057 ], [ -1.9041963, 42.8714189 ], [ -1.9046735, 42.8713498 ], [ -1.905091, 42.8712766 ], [ -1.9053971, 42.8712334 ], [ -1.9056351, 42.8711901 ], [ -1.9059097, 42.8711511 ], [ -1.9062104, 42.8711067 ], [ -1.9063892, 42.8710386 ], [ -1.906625, 42.8709407 ], [ -1.9069487, 42.8708087 ], [ -1.9072148, 42.8706953 ], [ -1.9074413, 42.8706046 ], [ -1.9076051, 42.8705606 ], [ -1.9078118, 42.870594 ], [ -1.9079918, 42.8706307 ], [ -1.9080718, 42.8706467 ], [ -1.9083949, 42.870634 ], [ -1.9088857, 42.8706161 ], [ -1.90929, 42.870602 ], [ -1.9095986, 42.8705903 ], [ -1.9097534, 42.8705777 ], [ -1.9099636, 42.870547 ], [ -1.9103722, 42.8705037 ], [ -1.9107404, 42.8704526 ], [ -1.9112112, 42.8703985 ], [ -1.9115445, 42.8703679 ], [ -1.9119756, 42.8703084 ], [ -1.9122982, 42.8702789 ], [ -1.912762, 42.8701926 ], [ -1.913063, 42.8701291 ], [ -1.9132133, 42.8701125 ], [ -1.9135187, 42.8700603 ], [ -1.9137865, 42.8700178 ], [ -1.9140284, 42.8699711 ], [ -1.9144151, 42.8699078 ], [ -1.9146789, 42.8697915 ], [ -1.9149688, 42.8696677 ], [ -1.9152538, 42.8695567 ], [ -1.915549, 42.8694334 ], [ -1.9157993, 42.8693401 ], [ -1.9160181, 42.8692527 ], [ -1.9163384, 42.8691448 ], [ -1.9166309, 42.8690435 ], [ -1.9169495, 42.8689379 ], [ -1.9172028, 42.8688519 ], [ -1.9174282, 42.8687837 ], [ -1.9174933, 42.8686881 ], [ -1.9175615, 42.8685508 ], [ -1.917666, 42.8683531 ], [ -1.9177907, 42.8681365 ], [ -1.9179523, 42.8678628 ], [ -1.91801, 42.8677553 ], [ -1.918128, 42.8674851 ], [ -1.9182725, 42.8671899 ], [ -1.9183885, 42.8669417 ], [ -1.918493, 42.8666933 ], [ -1.9186121, 42.8664057 ], [ -1.9186397, 42.8663142 ], [ -1.9184179, 42.8662677 ], [ -1.9178818, 42.8661635 ], [ -1.9172074, 42.8660953 ], [ -1.9166147, 42.8660762 ], [ -1.9160761, 42.8660367 ], [ -1.915172, 42.8659741 ], [ -1.9144502, 42.8659915 ], [ -1.9138343, 42.8659935 ], [ -1.9131826, 42.8659789 ], [ -1.913029, 42.8659667 ], [ -1.9125567, 42.8659391 ], [ -1.9119787, 42.8658706 ], [ -1.911494, 42.8658075 ], [ -1.9108334, 42.865737 ], [ -1.9103867, 42.8657271 ], [ -1.9100334, 42.8657176 ], [ -1.9097278, 42.8657377 ], [ -1.9093012, 42.8657584 ], [ -1.9087551, 42.8657499 ], [ -1.9084595, 42.8657206 ], [ -1.9080652, 42.8656893 ], [ -1.9077238, 42.865659 ], [ -1.9075618, 42.8656462 ], [ -1.9072764, 42.8656018 ], [ -1.9069805, 42.8655495 ], [ -1.9064962, 42.8655065 ], [ -1.9060443, 42.8654893 ], [ -1.9058568, 42.865488 ], [ -1.905617, 42.8655088 ], [ -1.9052619, 42.8655156 ], [ -1.9049098, 42.865524 ], [ -1.9046139, 42.8655538 ], [ -1.9043058, 42.8655847 ], [ -1.9038273, 42.865642 ], [ -1.9034691, 42.8656492 ], [ -1.9032173, 42.8656552 ], [ -1.9028692, 42.8656525 ], [ -1.9024153, 42.8656222 ], [ -1.9020049, 42.8655952 ], [ -1.9013795, 42.865569 ], [ -1.9009604, 42.8655576 ], [ -1.9007938, 42.8655869 ], [ -1.9006373, 42.8656142 ], [ -1.9003438, 42.8656851 ], [ -1.9000048, 42.8657719 ], [ -1.8996078, 42.8658497 ], [ -1.8990656, 42.8659666 ], [ -1.8984442, 42.8661446 ], [ -1.8980292, 42.8662465 ], [ -1.8977945, 42.8662769 ], [ -1.897528, 42.8662951 ], [ -1.8973614, 42.8662805 ], [ -1.8969936, 42.8661864 ], [ -1.8965356, 42.8659968 ], [ -1.8956954, 42.8655694 ], [ -1.8951214, 42.8652779 ], [ -1.8949244, 42.8652586 ], [ -1.8946985, 42.8651427 ], [ -1.8942219, 42.8648381 ], [ -1.8936442, 42.8644549 ], [ -1.8932019, 42.8641174 ], [ -1.8928109, 42.8638226 ], [ -1.8923892, 42.8635715 ], [ -1.8919742, 42.8633344 ], [ -1.8911337, 42.8628884 ], [ -1.8906033, 42.8625552 ], [ -1.8904416, 42.8624461 ], [ -1.8902297, 42.8622279 ], [ -1.8898682, 42.8617821 ], [ -1.889571, 42.86146 ], [ -1.889288, 42.8611573 ], [ -1.8889709, 42.8609195 ], [ -1.8885255, 42.8606749 ], [ -1.8880109, 42.860402 ], [ -1.8874425, 42.8601021 ], [ -1.8868935, 42.8597895 ], [ -1.8863929, 42.859506 ], [ -1.8859118, 42.8591619 ], [ -1.885727, 42.8589722 ], [ -1.8855746, 42.8588069 ], [ -1.8854824, 42.858622 ], [ -1.8854615, 42.8583792 ], [ -1.8854466, 42.8580588 ], [ -1.8854548, 42.8577285 ], [ -1.8854703, 42.8572063 ], [ -1.8854096, 42.8568855 ], [ -1.8853449, 42.8566986 ], [ -1.8851699, 42.8564318 ], [ -1.8850172, 42.8562046 ], [ -1.8847915, 42.8558653 ], [ -1.8844783, 42.8553737 ], [ -1.8841724, 42.8549396 ], [ -1.8839343, 42.8545709 ], [ -1.8838673, 42.8544666 ], [ -1.8838182, 42.8543908 ], [ -1.8836495, 42.8541195 ], [ -1.8835786, 42.8538914 ], [ -1.8834433, 42.8535468 ], [ -1.8832835, 42.8531237 ], [ -1.8830938, 42.8526958 ], [ -1.8830209, 42.8524558 ], [ -1.8829894, 42.8523779 ], [ -1.882884, 42.8521596 ], [ -1.8827642, 42.8518821 ], [ -1.8826366, 42.851622 ], [ -1.8825336, 42.8513519 ], [ -1.8824316, 42.8511134 ], [ -1.8822931, 42.8508622 ], [ -1.8821392, 42.8507008 ], [ -1.8818844, 42.8504085 ], [ -1.8817087, 42.8502266 ], [ -1.8815827, 42.8501303 ], [ -1.8814658, 42.850083 ], [ -1.8811668, 42.8499489 ], [ -1.8807966, 42.8497382 ], [ -1.8805021, 42.8495276 ], [ -1.8804084, 42.8494609 ], [ -1.8803031, 42.8493653 ], [ -1.8801657, 42.8492632 ], [ -1.8798294, 42.849037 ], [ -1.8795186, 42.8488415 ], [ -1.8793184, 42.8486611 ], [ -1.8790503, 42.8483878 ], [ -1.8786821, 42.8480628 ], [ -1.8784428, 42.8478016 ], [ -1.8784027, 42.8477359 ], [ -1.8783326, 42.8476356 ], [ -1.8782799, 42.8475067 ], [ -1.8781767, 42.847038 ], [ -1.8781013, 42.8468532 ], [ -1.8779649, 42.8466544 ], [ -1.8776705, 42.8463976 ], [ -1.8772682, 42.8460194 ], [ -1.8770252, 42.8457913 ], [ -1.8766521, 42.8454077 ], [ -1.876117, 42.8448425 ], [ -1.875622, 42.8443013 ], [ -1.8750561, 42.8435798 ], [ -1.8749674, 42.8431574 ], [ -1.874834, 42.8427137 ], [ -1.8747248, 42.8422376 ], [ -1.8747047, 42.8418715 ], [ -1.8746916, 42.8414167 ], [ -1.8747111, 42.8408467 ], [ -1.8746779, 42.8403629 ], [ -1.8746502, 42.8398218 ], [ -1.8744084, 42.8397023 ], [ -1.8733782, 42.8392408 ], [ -1.8721056, 42.8386975 ], [ -1.8719634, 42.8386128 ], [ -1.8717627, 42.8385022 ], [ -1.871463, 42.8383698 ], [ -1.8709971, 42.838211 ], [ -1.870547, 42.8380647 ], [ -1.8702205, 42.8379388 ], [ -1.869814, 42.8378307 ], [ -1.8692992, 42.8377102 ], [ -1.8689381, 42.8376351 ], [ -1.8685303, 42.8375197 ], [ -1.8681874, 42.8373717 ], [ -1.8678538, 42.8372085 ], [ -1.8675625, 42.8370413 ], [ -1.867361, 42.8368952 ], [ -1.8671418, 42.8366651 ], [ -1.8668547, 42.8363116 ], [ -1.8666118, 42.8359169 ], [ -1.866397, 42.8355338 ], [ -1.866154, 42.8351053 ], [ -1.8661063, 42.8349979 ], [ -1.8661085, 42.8349619 ], [ -1.8665525, 42.8348092 ], [ -1.8664525, 42.8345105 ], [ -1.8663525, 42.8342472 ], [ -1.8662911, 42.8340958 ], [ -1.866092, 42.8339002 ], [ -1.865833, 42.833636 ], [ -1.8656561, 42.8334794 ], [ -1.8655108, 42.833357 ], [ -1.8653357, 42.8332736 ], [ -1.8652641, 42.8333843 ], [ -1.8652404, 42.8335063 ], [ -1.8652032, 42.8336162 ], [ -1.8651642, 42.8338257 ], [ -1.8650853, 42.8340833 ], [ -1.8649976, 42.8343211 ], [ -1.8649315, 42.8344662 ], [ -1.8648844, 42.8345299 ], [ -1.8647578, 42.8346395 ], [ -1.8646978, 42.8347008 ], [ -1.8645966, 42.8347961 ], [ -1.8645102, 42.8348751 ], [ -1.8643921, 42.8349809 ], [ -1.8643223, 42.8350359 ], [ -1.8642037, 42.8351619 ], [ -1.8641835, 42.8351792 ], [ -1.8641358, 42.8352344 ], [ -1.8640806, 42.8352868 ], [ -1.8640271, 42.8353251 ], [ -1.8639739, 42.8353499 ], [ -1.8638345, 42.835402 ], [ -1.8637327, 42.8354476 ], [ -1.8634964, 42.8355331 ], [ -1.8632707, 42.8356232 ], [ -1.8631947, 42.8356359 ], [ -1.863106, 42.8356379 ], [ -1.8627948, 42.835637 ], [ -1.8622242, 42.8355942 ], [ -1.8617113, 42.8355424 ], [ -1.8615299, 42.8355079 ], [ -1.8613443, 42.8354537 ], [ -1.8610021, 42.8353091 ], [ -1.8606112, 42.8351498 ], [ -1.8602617, 42.8350276 ], [ -1.8598277, 42.834882 ], [ -1.8594524, 42.8347437 ], [ -1.859093, 42.8346214 ], [ -1.8586242, 42.8344569 ], [ -1.8582898, 42.8343432 ], [ -1.8578763, 42.8342018 ], [ -1.8574742, 42.8340728 ], [ -1.8571549, 42.8339706 ], [ -1.8568954, 42.8339421 ], [ -1.8566364, 42.8338922 ], [ -1.856308, 42.8338225 ], [ -1.8561074, 42.8337969 ], [ -1.8559551, 42.8338016 ], [ -1.8557569, 42.8338097 ], [ -1.8555173, 42.8338225 ], [ -1.8552976, 42.8338332 ], [ -1.8551249, 42.8338309 ], [ -1.8549088, 42.8338108 ], [ -1.8547055, 42.8338059 ], [ -1.8545326, 42.8338082 ], [ -1.8543625, 42.833825 ], [ -1.8542476, 42.8338385 ], [ -1.8540131, 42.8338626 ], [ -1.8526012, 42.8339149 ], [ -1.8522891, 42.8341661 ], [ -1.8518369, 42.8345967 ], [ -1.8514949, 42.8348921 ], [ -1.8511174, 42.8352085 ], [ -1.8507781, 42.8354831 ], [ -1.8505548, 42.8356869 ], [ -1.8505187, 42.8356984 ], [ -1.8501133, 42.8357399 ], [ -1.8491786, 42.8358346 ], [ -1.84823, 42.8359765 ], [ -1.8472352, 42.8361314 ], [ -1.8468216, 42.8362077 ], [ -1.8466518, 42.8362476 ], [ -1.8463126, 42.8363567 ], [ -1.8458559, 42.8365238 ], [ -1.8454747, 42.8366652 ], [ -1.8452088, 42.8367761 ], [ -1.8447988, 42.8369854 ], [ -1.8443823, 42.8372592 ], [ -1.8437219, 42.8376487 ], [ -1.8431771, 42.838031 ], [ -1.8426809, 42.8384723 ], [ -1.8424193, 42.8388479 ], [ -1.8422093, 42.8392369 ], [ -1.8418946, 42.839953 ], [ -1.8417668, 42.8403659 ], [ -1.8414943, 42.8401341 ], [ -1.8409215, 42.839642 ], [ -1.8402575, 42.8390792 ], [ -1.8396955, 42.8385405 ], [ -1.83896, 42.8377941 ], [ -1.8383632, 42.8371971 ], [ -1.8378165, 42.8366191 ], [ -1.8370115, 42.8357121 ], [ -1.8360978, 42.8345614 ], [ -1.8355858, 42.8339298 ], [ -1.8354413, 42.8338084 ], [ -1.8351288, 42.8335098 ], [ -1.8349623, 42.8333381 ], [ -1.8347292, 42.8331246 ], [ -1.83426, 42.8326589 ], [ -1.8338922, 42.832255 ], [ -1.8336059, 42.8319853 ], [ -1.8332575, 42.8316874 ], [ -1.8328841, 42.831373 ], [ -1.8324383, 42.8310493 ], [ -1.8319733, 42.8307276 ], [ -1.8315581, 42.8304426 ], [ -1.8311439, 42.8301839 ], [ -1.8307402, 42.8299817 ], [ -1.8302321, 42.8297975 ], [ -1.8298607, 42.8296626 ], [ -1.8292091, 42.8294679 ], [ -1.8285332, 42.8292618 ], [ -1.8278413, 42.8290898 ], [ -1.827242, 42.8290037 ], [ -1.8268218, 42.8289853 ], [ -1.8263254, 42.8289926 ], [ -1.8258635, 42.8290723 ], [ -1.825296, 42.8291599 ], [ -1.8246543, 42.8293284 ], [ -1.8243799, 42.8294027 ], [ -1.8239606, 42.8294546 ], [ -1.8234378, 42.8295235 ], [ -1.8230142, 42.8295642 ], [ -1.8227204, 42.8296124 ], [ -1.8219841, 42.8298491 ], [ -1.8212839, 42.8300822 ], [ -1.8208561, 42.8302202 ], [ -1.820426, 42.8303565 ], [ -1.8199845, 42.8304887 ], [ -1.819625, 42.8306166 ], [ -1.8194459, 42.8307082 ], [ -1.8192044, 42.83086 ], [ -1.8190585, 42.8309722 ], [ -1.8189017, 42.8310921 ], [ -1.8186713, 42.8312642 ], [ -1.8184869, 42.8313884 ], [ -1.8184358, 42.8314227 ], [ -1.818139, 42.8315913 ], [ -1.8178452, 42.831716 ], [ -1.8175825, 42.8318208 ], [ -1.8173336, 42.8318802 ], [ -1.816986, 42.8319796 ], [ -1.8167191, 42.8320601 ], [ -1.8164415, 42.8321417 ], [ -1.8161234, 42.8322639 ], [ -1.8158451, 42.8323815 ], [ -1.8155281, 42.8325222 ], [ -1.8151743, 42.8327071 ], [ -1.8149003, 42.8328793 ], [ -1.8144938, 42.8331841 ], [ -1.8143645, 42.8334254 ], [ -1.813935, 42.8338897 ], [ -1.8136468, 42.8342048 ], [ -1.8135287, 42.8343437 ], [ -1.8133092, 42.834584 ], [ -1.8129836, 42.8349712 ], [ -1.8127528, 42.8352457 ], [ -1.8125176, 42.8354678 ], [ -1.8124173, 42.8354718 ], [ -1.8121629, 42.8355784 ], [ -1.8119523, 42.8356336 ], [ -1.8117125, 42.8356975 ], [ -1.8114065, 42.8357377 ], [ -1.8108646, 42.8358441 ], [ -1.8104758, 42.835938 ], [ -1.8099585, 42.8361571 ], [ -1.8088674, 42.8366608 ], [ -1.8071353, 42.8374144 ], [ -1.8047004, 42.8384786 ], [ -1.8037166, 42.8388892 ], [ -1.802038, 42.8395944 ], [ -1.8009409, 42.8398885 ], [ -1.8007044, 42.8399367 ], [ -1.8001255, 42.8400544 ], [ -1.7997969, 42.8401207 ], [ -1.7992333, 42.8402359 ], [ -1.7987764, 42.8398145 ], [ -1.7983813, 42.8394497 ], [ -1.7982828, 42.8394767 ], [ -1.7982575, 42.8394833 ], [ -1.7978653, 42.83959 ], [ -1.7976685, 42.8396436 ], [ -1.7975517, 42.8396756 ], [ -1.7972487, 42.839758 ], [ -1.7972172, 42.8397667 ], [ -1.7970465, 42.8398132 ], [ -1.7968343, 42.8398724 ], [ -1.7968158, 42.8398778 ], [ -1.7954155, 42.8402689 ], [ -1.7953986, 42.8402738 ], [ -1.7952994, 42.8403014 ], [ -1.7952886, 42.8403047 ], [ -1.7952579, 42.8403128 ], [ -1.7952187, 42.8403237 ], [ -1.7949149, 42.8404088 ], [ -1.7949049, 42.8404115 ], [ -1.7944297, 42.8405444 ], [ -1.7952671, 42.8413693 ], [ -1.7959927, 42.8418576 ], [ -1.7969258, 42.8423278 ], [ -1.7972739, 42.8424407 ], [ -1.7975276, 42.8424878 ], [ -1.7996694, 42.8427112 ], [ -1.8010376, 42.8430295 ], [ -1.8009355, 42.843249 ], [ -1.8009203, 42.8432815 ], [ -1.8009171, 42.8432899 ], [ -1.8009123, 42.8432994 ], [ -1.8007919, 42.8435565 ], [ -1.8005733, 42.843942 ], [ -1.8005701, 42.8439482 ], [ -1.8005464, 42.843989 ], [ -1.8005142, 42.8440298 ], [ -1.8005103, 42.8440342 ], [ -1.8004491, 42.8441124 ], [ -1.800446, 42.8441169 ], [ -1.8003728, 42.8442224 ], [ -1.8002949, 42.8443353 ], [ -1.8000906, 42.8445763 ], [ -1.8000437, 42.8446304 ], [ -1.7998598, 42.8448446 ], [ -1.7996697, 42.8450993 ], [ -1.7994535, 42.8454409 ], [ -1.7991787, 42.8458472 ], [ -1.7989184, 42.8461354 ], [ -1.7986468, 42.8464568 ], [ -1.7986398, 42.846464 ], [ -1.7983635, 42.8467453 ], [ -1.7981186, 42.8469904 ], [ -1.7980874, 42.847021 ], [ -1.7980702, 42.8470422 ], [ -1.7979825, 42.8471471 ], [ -1.7978955, 42.8472509 ], [ -1.7978415, 42.847315 ], [ -1.7978055, 42.8473586 ], [ -1.7977797, 42.8473898 ], [ -1.7976817, 42.8475103 ], [ -1.7974451, 42.8478 ], [ -1.7973587, 42.8479161 ], [ -1.7972621, 42.8480463 ], [ -1.7971265, 42.8482508 ], [ -1.7969907, 42.8485871 ], [ -1.7971734, 42.8490241 ], [ -1.7972085, 42.8491089 ], [ -1.7972312, 42.8491625 ], [ -1.7972517, 42.8492112 ], [ -1.797682, 42.8508811 ], [ -1.7976841, 42.850889 ], [ -1.7978097, 42.8513164 ], [ -1.7978689, 42.8514594 ], [ -1.7978754, 42.8514758 ], [ -1.7980062, 42.8516786 ], [ -1.798106, 42.8520106 ], [ -1.7981816, 42.8521747 ], [ -1.7983279, 42.8523236 ], [ -1.7983692, 42.8523624 ], [ -1.7985885, 42.8525695 ], [ -1.7987024, 42.8528144 ], [ -1.7990044, 42.8528981 ], [ -1.7992061, 42.8529537 ], [ -1.7995348, 42.853082 ], [ -1.7999298, 42.8532635 ], [ -1.7999806, 42.8532871 ], [ -1.8011461, 42.8539741 ], [ -1.8017024, 42.8542051 ], [ -1.802294, 42.8544634 ], [ -1.8025807, 42.8545925 ], [ -1.8028749, 42.8546885 ], [ -1.8031063, 42.8547883 ], [ -1.8033129, 42.8549401 ], [ -1.8033265, 42.8549526 ], [ -1.8034737, 42.8550915 ], [ -1.8036695, 42.8553294 ], [ -1.8039067, 42.8555682 ], [ -1.8039089, 42.8555716 ], [ -1.8040601, 42.8558214 ], [ -1.8042027, 42.8561218 ], [ -1.8042961, 42.8563169 ], [ -1.8047236, 42.8562465 ], [ -1.8050789, 42.8561883 ], [ -1.8057796, 42.8560735 ], [ -1.8062137, 42.856015 ], [ -1.8068058, 42.8559356 ], [ -1.8068802, 42.8559257 ], [ -1.8068508, 42.8553063 ], [ -1.8069205, 42.8553003 ], [ -1.8069788, 42.8552953 ], [ -1.8077045, 42.8552319 ], [ -1.807906, 42.8552143 ], [ -1.8080301, 42.8552038 ], [ -1.8080063, 42.8556054 ], [ -1.8079823, 42.8559355 ], [ -1.8080222, 42.8562483 ], [ -1.8079928, 42.8564253 ], [ -1.8079386, 42.8565806 ], [ -1.8078826, 42.8567855 ], [ -1.8077625, 42.8569829 ], [ -1.807621, 42.8572167 ], [ -1.807471, 42.8574611 ], [ -1.8073177, 42.8576756 ], [ -1.8071535, 42.8578979 ], [ -1.8070075, 42.8581316 ], [ -1.8068889, 42.8583685 ], [ -1.8068203, 42.8585945 ], [ -1.8067666, 42.8587634 ], [ -1.8072688, 42.8588609 ], [ -1.8076133, 42.8589281 ], [ -1.8085828, 42.8591166 ], [ -1.8097672, 42.8593502 ], [ -1.8102548, 42.8594521 ], [ -1.8103074, 42.8594633 ], [ -1.8100901, 42.8598629 ], [ -1.8099383, 42.8601562 ], [ -1.8098429, 42.8604254 ], [ -1.8098219, 42.8604826 ], [ -1.8097293, 42.8608007 ], [ -1.8103658, 42.8611602 ], [ -1.8103826, 42.8630729 ], [ -1.8125084, 42.8627736 ], [ -1.8134117, 42.8625843 ], [ -1.8136379, 42.8625608 ], [ -1.8138464, 42.8625393 ], [ -1.8138886, 42.8627338 ], [ -1.8139272, 42.8628744 ], [ -1.8139976, 42.862995 ], [ -1.814039, 42.8631108 ], [ -1.814086, 42.8632093 ], [ -1.8140989, 42.8633338 ], [ -1.8141004, 42.8634599 ], [ -1.8140757, 42.8635508 ], [ -1.8140311, 42.8636409 ], [ -1.8139417, 42.8637132 ], [ -1.8138355, 42.8637858 ], [ -1.8136692, 42.8638831 ], [ -1.813419, 42.8640415 ], [ -1.8125549, 42.8644969 ], [ -1.8122844, 42.8646759 ], [ -1.8124212, 42.864805 ], [ -1.8124903, 42.8648699 ], [ -1.8125302, 42.8649074 ], [ -1.8126514, 42.8650089 ], [ -1.812906, 42.8652164 ], [ -1.813107, 42.8653885 ], [ -1.8131527, 42.8654413 ], [ -1.8131756, 42.8654815 ], [ -1.8131847, 42.8655249 ], [ -1.8131829, 42.8655384 ], [ -1.8131801, 42.8655671 ], [ -1.8131773, 42.8655924 ], [ -1.8131561, 42.8656642 ], [ -1.8131458, 42.8656787 ], [ -1.8131088, 42.8657324 ], [ -1.8130427, 42.8658291 ], [ -1.8130387, 42.8658358 ], [ -1.8128915, 42.8660521 ], [ -1.8128742, 42.8660778 ], [ -1.8126135, 42.8664617 ], [ -1.8126782, 42.866481 ], [ -1.8128357, 42.866527 ], [ -1.8134155, 42.8666197 ], [ -1.8140326, 42.8667956 ], [ -1.8144917, 42.8669911 ], [ -1.8147427, 42.8670286 ], [ -1.8149539, 42.8670319 ], [ -1.8150518, 42.8670301 ], [ -1.8153395, 42.867032 ], [ -1.815469, 42.8670237 ], [ -1.8155823, 42.8670164 ], [ -1.8157415, 42.8669754 ], [ -1.8159993, 42.8668992 ], [ -1.8162749, 42.8668481 ], [ -1.8162811, 42.8668453 ], [ -1.8163112, 42.8668332 ], [ -1.8164228, 42.86684 ], [ -1.8165037, 42.8668515 ], [ -1.8165105, 42.8668527 ], [ -1.8167643, 42.866906 ], [ -1.8169892, 42.8669089 ], [ -1.8171943, 42.8669443 ], [ -1.8174006, 42.8669627 ], [ -1.8175791, 42.8669493 ], [ -1.8178357, 42.866934 ], [ -1.818051, 42.8669182 ], [ -1.8182734, 42.8668912 ], [ -1.8185261, 42.8668403 ], [ -1.8188088, 42.8667814 ], [ -1.8191125, 42.8667423 ], [ -1.819394, 42.8667075 ], [ -1.8196363, 42.8666796 ], [ -1.8198324, 42.866667 ], [ -1.8200949, 42.8666641 ], [ -1.8203366, 42.8666716 ], [ -1.8205356, 42.8666681 ], [ -1.8208304, 42.8666919 ], [ -1.821312, 42.8667965 ], [ -1.8218084, 42.8669254 ], [ -1.8222278, 42.8670418 ], [ -1.8225955, 42.8672189 ], [ -1.8227156, 42.8672618 ], [ -1.8227962, 42.8672907 ], [ -1.8229985, 42.8673919 ], [ -1.8230733, 42.8674388 ], [ -1.8229157, 42.867525 ], [ -1.822762, 42.8676348 ], [ -1.8226278, 42.8677331 ], [ -1.8224124, 42.8679154 ], [ -1.8222458, 42.8680668 ], [ -1.8221578, 42.8681425 ], [ -1.8220369, 42.8681896 ], [ -1.8218807, 42.8682297 ], [ -1.8217448, 42.8682986 ], [ -1.8216114, 42.8683929 ], [ -1.8215049, 42.8684791 ], [ -1.8213606, 42.8685862 ], [ -1.8210586, 42.8688127 ], [ -1.820808, 42.8689942 ], [ -1.8205505, 42.8691739 ], [ -1.8204178, 42.8692693 ], [ -1.8203252, 42.8693511 ], [ -1.8202367, 42.8694588 ], [ -1.8201669, 42.8695898 ], [ -1.8201399, 42.8697234 ], [ -1.8201437, 42.8698434 ], [ -1.8201659, 42.8700035 ], [ -1.8201879, 42.8701348 ], [ -1.8202324, 42.870285 ], [ -1.8202587, 42.8704327 ], [ -1.8203061, 42.8705964 ], [ -1.8203866, 42.8707464 ], [ -1.8204488, 42.8708573 ], [ -1.8204786, 42.8709798 ], [ -1.8204759, 42.8710771 ], [ -1.8204684, 42.8711502 ], [ -1.8204188, 42.8713067 ], [ -1.8204361, 42.8713992 ], [ -1.8204742, 42.8714519 ], [ -1.820563, 42.8715311 ], [ -1.8206411, 42.8716473 ], [ -1.8206999, 42.8717711 ], [ -1.8207678, 42.8719041 ], [ -1.8208241, 42.8720426 ], [ -1.8208798, 42.8721721 ], [ -1.8209986, 42.8723179 ], [ -1.8211187, 42.8724002 ], [ -1.8212183, 42.872435 ], [ -1.8212893, 42.8724459 ], [ -1.8214291, 42.8724591 ], [ -1.8216474, 42.8724844 ], [ -1.8220805, 42.872526 ], [ -1.8224495, 42.8725563 ], [ -1.822834, 42.872576 ], [ -1.8231116, 42.8725856 ], [ -1.823301, 42.8726061 ], [ -1.8234326, 42.8726503 ], [ -1.8236271, 42.8727226 ], [ -1.8238791, 42.8728293 ], [ -1.8240708, 42.8729253 ], [ -1.8242353, 42.8730064 ], [ -1.8243773, 42.8731046 ], [ -1.8246683, 42.8732995 ], [ -1.8248178, 42.8734035 ], [ -1.824933, 42.8734593 ], [ -1.8251127, 42.8735084 ], [ -1.8253782, 42.8736321 ], [ -1.8255065, 42.8737246 ], [ -1.8255764, 42.8737923 ], [ -1.8256581, 42.8738809 ], [ -1.8256973, 42.8739551 ], [ -1.8257306, 42.8740128 ], [ -1.8257841, 42.8740978 ], [ -1.8259456, 42.8745762 ], [ -1.8260348, 42.8747932 ], [ -1.8261104, 42.8750467 ], [ -1.8261284, 42.8751437 ], [ -1.8261919, 42.875267 ], [ -1.8262395, 42.8754245 ], [ -1.8263039, 42.8756982 ], [ -1.8263464, 42.8760363 ], [ -1.8263969, 42.8763227 ], [ -1.8264532, 42.8766588 ], [ -1.8265051, 42.8768681 ], [ -1.826567, 42.8770359 ], [ -1.8266314, 42.8771913 ], [ -1.8268125, 42.8774875 ], [ -1.8268924, 42.877673 ], [ -1.8269138, 42.8778324 ], [ -1.8269101, 42.8779889 ], [ -1.8268169, 42.8781832 ], [ -1.8266452, 42.8784375 ], [ -1.8265284, 42.8785872 ], [ -1.8264287, 42.8787195 ], [ -1.826257, 42.8788517 ], [ -1.8259839, 42.8790076 ], [ -1.8257656, 42.8791377 ], [ -1.8256136, 42.8792436 ], [ -1.8254221, 42.8792951 ], [ -1.825163, 42.879356 ], [ -1.8247497, 42.8794013 ], [ -1.8242464, 42.8794676 ], [ -1.8238756, 42.8794869 ], [ -1.8234854, 42.8795251 ], [ -1.8232929, 42.8795451 ], [ -1.8231996, 42.8795807 ], [ -1.8230599, 42.8796468 ], [ -1.8228606, 42.8798209 ], [ -1.8225977, 42.8800855 ], [ -1.8224588, 42.8802659 ], [ -1.8223095, 42.8803887 ], [ -1.8222722, 42.8804199 ], [ -1.8222349, 42.8804516 ], [ -1.8221555, 42.8805189 ], [ -1.822059, 42.8806445 ], [ -1.8220229, 42.8807713 ], [ -1.8220108, 42.8809642 ], [ -1.8220431, 42.8811964 ], [ -1.8220771, 42.8812604 ], [ -1.8221888, 42.8813403 ], [ -1.8223449, 42.8815429 ], [ -1.8225304, 42.8818504 ], [ -1.8227964, 42.8821492 ], [ -1.8229926, 42.8823752 ], [ -1.8232331, 42.8825251 ], [ -1.8234621, 42.8826367 ], [ -1.8237243, 42.8827362 ], [ -1.824005, 42.8827847 ], [ -1.824057, 42.8827885 ], [ -1.8241288, 42.8827944 ], [ -1.8242167, 42.8828009 ], [ -1.8242472, 42.8828063 ], [ -1.8244043, 42.8828344 ], [ -1.8246769, 42.8829058 ], [ -1.8250634, 42.8830662 ], [ -1.8252061, 42.8831296 ] ] ] } }
]
}
