{
"type": "FeatureCollection",
"name": "31195",
"features": [
{ "type": "Feature", "properties": { "CCAA": "15 - Comunidad Foral de Navarra", "PROVINCIA": "31 - Navarra", "MUNICIPIO": "31195 - Orbaizeta", "COD_MUNICIPIO": "31195", "DISTRITO": "01", "SECCION": "3119501001", "V1_H": 82.08, "V1_M": 87.23, "V2_H": 81.77226367, "V2_M": 87.02227373, "V3_H": 82.52263661000001, "V3_M": 87.52638345 }, "geometry": { "type": "Polygon", "coordinates": [ [ [ -1.1418544, 43.0076187 ], [ -1.1419092, 43.0076348 ], [ -1.1419354, 43.007656 ], [ -1.141946, 43.0076866 ], [ -1.1419554, 43.0077312 ], [ -1.1419663, 43.0077995 ], [ -1.1419784, 43.0078835 ], [ -1.1419724, 43.0080039 ], [ -1.1419794, 43.0081802 ], [ -1.1419812, 43.0082989 ], [ -1.1419654, 43.0084135 ], [ -1.1419605, 43.0085535 ], [ -1.1419664, 43.0086606 ], [ -1.141965, 43.0087855 ], [ -1.1419778, 43.0088673 ], [ -1.1419884, 43.008975 ], [ -1.1420018, 43.0090399 ], [ -1.1420202, 43.0091145 ], [ -1.1420487, 43.0091633 ], [ -1.1420633, 43.0092109 ], [ -1.1420916, 43.0092642 ], [ -1.1421108, 43.009313 ], [ -1.1421587, 43.0093773 ], [ -1.1422054, 43.0094586 ], [ -1.1422572, 43.0095455 ], [ -1.1422862, 43.0096 ], [ -1.1423008, 43.0096532 ], [ -1.1423041, 43.0096943 ], [ -1.1423066, 43.009763 ], [ -1.1423218, 43.0098437 ], [ -1.1423613, 43.0099597 ], [ -1.1423849, 43.0100423 ], [ -1.1424191, 43.0102032 ], [ -1.1424689, 43.0103599 ], [ -1.1424827, 43.0104609 ], [ -1.1425006, 43.010527 ], [ -1.1425423, 43.0105711 ], [ -1.1425769, 43.0106166 ], [ -1.1426475, 43.0106904 ], [ -1.1427187, 43.0107473 ], [ -1.1427705, 43.0108072 ], [ -1.1428198, 43.0108766 ], [ -1.1428503, 43.010934 ], [ -1.1428512, 43.0109818 ], [ -1.1428707, 43.0110722 ], [ -1.1428786, 43.011191 ], [ -1.1429098, 43.0113244 ], [ -1.1429342, 43.0114329 ], [ -1.1429566, 43.0115531 ], [ -1.1429947, 43.0116635 ], [ -1.1430401, 43.0117616 ], [ -1.1430972, 43.0118767 ], [ -1.1431203, 43.011952 ], [ -1.1431662, 43.0120067 ], [ -1.1432279, 43.0120956 ], [ -1.1432837, 43.0121775 ], [ -1.1433421, 43.0122752 ], [ -1.1434037, 43.0123438 ], [ -1.1434548, 43.0124037 ], [ -1.1435116, 43.0124547 ], [ -1.1435662, 43.0125001 ], [ -1.143662, 43.0125534 ], [ -1.1437049, 43.0126059 ], [ -1.1437366, 43.0126728 ], [ -1.1437768, 43.0127652 ], [ -1.1438215, 43.0128323 ], [ -1.1439347, 43.0129439 ], [ -1.144023, 43.0130162 ], [ -1.1441367, 43.013138 ], [ -1.1442723, 43.0132685 ], [ -1.1443571, 43.0133329 ], [ -1.1444122, 43.0133856 ], [ -1.1444416, 43.0134547 ], [ -1.1444501, 43.0135038 ], [ -1.1444523, 43.0135567 ], [ -1.1444448, 43.0136033 ], [ -1.1444116, 43.013685 ], [ -1.1443719, 43.0137575 ], [ -1.1443091, 43.0138308 ], [ -1.1442349, 43.013901 ], [ -1.1442186, 43.0139587 ], [ -1.1441843, 43.0140775 ], [ -1.1441614, 43.0142262 ], [ -1.1441226, 43.0143708 ], [ -1.1440947, 43.014609 ], [ -1.1440726, 43.0147049 ], [ -1.1440842, 43.0148024 ], [ -1.1441122, 43.0149931 ], [ -1.1441384, 43.0151151 ], [ -1.1441784, 43.0151895 ], [ -1.1442351, 43.0153694 ], [ -1.1442836, 43.0155182 ], [ -1.1443047, 43.0156058 ], [ -1.1442866, 43.0157467 ], [ -1.1442719, 43.0159558 ], [ -1.1442796, 43.0160815 ], [ -1.1442203, 43.016193 ], [ -1.1441707, 43.016311 ], [ -1.1441055, 43.01644 ], [ -1.1440427, 43.0165616 ], [ -1.1439973, 43.0166442 ], [ -1.1439563, 43.0167313 ], [ -1.1439569, 43.016787 ], [ -1.1439545, 43.0168663 ], [ -1.1439532, 43.0169609 ], [ -1.1439552, 43.0170239 ], [ -1.144003, 43.0171153 ], [ -1.1440316, 43.0171597 ], [ -1.1440872, 43.0172253 ], [ -1.1441917, 43.0173446 ], [ -1.1443199, 43.0175189 ], [ -1.1444421, 43.0176886 ], [ -1.1445248, 43.0178194 ], [ -1.1445737, 43.0179024 ], [ -1.1445871, 43.0179656 ], [ -1.1445801, 43.0179953 ], [ -1.1445399, 43.0180583 ], [ -1.144485, 43.0181491 ], [ -1.1444718, 43.0182294 ], [ -1.1444744, 43.0182694 ], [ -1.144481, 43.0183055 ], [ -1.1445044, 43.0183436 ], [ -1.1445521, 43.01839 ], [ -1.1445099, 43.0184934 ], [ -1.1444648, 43.0186159 ], [ -1.1443759, 43.0188919 ], [ -1.1442712, 43.0191103 ], [ -1.1442995, 43.0192379 ], [ -1.1443197, 43.0193818 ], [ -1.1443386, 43.0195189 ], [ -1.1443526, 43.0196125 ], [ -1.1443849, 43.0197397 ], [ -1.144427, 43.0199441 ], [ -1.1444604, 43.0201596 ], [ -1.1444833, 43.0203665 ], [ -1.1445365, 43.0206122 ], [ -1.1445532, 43.0208477 ], [ -1.1445362, 43.0209791 ], [ -1.1445301, 43.0210556 ], [ -1.1445364, 43.0211496 ], [ -1.1445322, 43.0212408 ], [ -1.1445402, 43.0213039 ], [ -1.1445364, 43.021354 ], [ -1.1445117, 43.0214098 ], [ -1.1444882, 43.0214511 ], [ -1.144451, 43.0214921 ], [ -1.1444079, 43.0215202 ], [ -1.1443615, 43.0215588 ], [ -1.1443111, 43.0216289 ], [ -1.144272, 43.0216783 ], [ -1.1442487, 43.0217145 ], [ -1.1442214, 43.0217794 ], [ -1.144215, 43.0218136 ], [ -1.144223, 43.0218785 ], [ -1.1442218, 43.0219184 ], [ -1.144222, 43.0219623 ], [ -1.1442462, 43.0220257 ], [ -1.1442681, 43.0221133 ], [ -1.1442783, 43.0221546 ], [ -1.1442787, 43.0221957 ], [ -1.1442724, 43.0222496 ], [ -1.1442766, 43.0223144 ], [ -1.1442725, 43.0223751 ], [ -1.1442714, 43.0224623 ], [ -1.1442691, 43.0226136 ], [ -1.144271, 43.0227026 ], [ -1.1442619, 43.0228527 ], [ -1.1442845, 43.0229426 ], [ -1.1443033, 43.0230053 ], [ -1.1443059, 43.0230735 ], [ -1.1443021, 43.023146 ], [ -1.144301, 43.0232845 ], [ -1.1442841, 43.0233635 ], [ -1.14427, 43.0234511 ], [ -1.1442575, 43.0235337 ], [ -1.1442505, 43.0236376 ], [ -1.1442422, 43.023709 ], [ -1.1442364, 43.0237742 ], [ -1.1442504, 43.0238194 ], [ -1.1442608, 43.0238556 ], [ -1.1442728, 43.0238918 ], [ -1.144294, 43.0239265 ], [ -1.144307, 43.0239504 ], [ -1.1443336, 43.0239851 ], [ -1.1443673, 43.0240132 ], [ -1.1444167, 43.0240546 ], [ -1.1444693, 43.0240886 ], [ -1.1445693, 43.0241313 ], [ -1.1446292, 43.0241796 ], [ -1.144696, 43.0242296 ], [ -1.1447644, 43.0242994 ], [ -1.1448455, 43.0243834 ], [ -1.1448892, 43.0244365 ], [ -1.1449514, 43.0245107 ], [ -1.1450064, 43.0245678 ], [ -1.1451034, 43.0246578 ], [ -1.1451978, 43.0247325 ], [ -1.1452796, 43.0247946 ], [ -1.1453594, 43.0248426 ], [ -1.145429, 43.0248752 ], [ -1.1454719, 43.0249018 ], [ -1.1454932, 43.0249337 ], [ -1.1454993, 43.0249619 ], [ -1.1454973, 43.0250002 ], [ -1.1454971, 43.0250356 ], [ -1.1454819, 43.0250804 ], [ -1.145448, 43.0251338 ], [ -1.1454079, 43.025194 ], [ -1.1453638, 43.0252585 ], [ -1.145319, 43.025318 ], [ -1.1452778, 43.0253866 ], [ -1.145249, 43.0254531 ], [ -1.1452354, 43.0254945 ], [ -1.145232, 43.0255316 ], [ -1.1452337, 43.0255783 ], [ -1.1452431, 43.0256218 ], [ -1.1452795, 43.025686 ], [ -1.1453294, 43.0257628 ], [ -1.145386, 43.0258189 ], [ -1.1454252, 43.0258674 ], [ -1.1454797, 43.0259155 ], [ -1.1455243, 43.0259399 ], [ -1.1455735, 43.0259604 ], [ -1.145617, 43.0259679 ], [ -1.1456731, 43.0259665 ], [ -1.1457039, 43.0259603 ], [ -1.1457581, 43.0259443 ], [ -1.1457992, 43.025928 ], [ -1.1458273, 43.0259133 ], [ -1.1458936, 43.0258778 ], [ -1.1459328, 43.025848 ], [ -1.1459623, 43.0258108 ], [ -1.1460004, 43.0257692 ], [ -1.1460357, 43.0257163 ], [ -1.1460652, 43.0256566 ], [ -1.1461212, 43.0255545 ], [ -1.1461556, 43.0254808 ], [ -1.1462283, 43.0253598 ], [ -1.1463016, 43.0252935 ], [ -1.1463572, 43.0252567 ], [ -1.1464014, 43.0252399 ], [ -1.146473, 43.0252298 ], [ -1.1465483, 43.0252266 ], [ -1.1465993, 43.0252398 ], [ -1.1466187, 43.0252581 ], [ -1.1466424, 43.0252861 ], [ -1.1466601, 43.0253347 ], [ -1.1466857, 43.0254263 ], [ -1.1467132, 43.0255066 ], [ -1.1467433, 43.0255803 ], [ -1.1467784, 43.0256597 ], [ -1.1468097, 43.0257187 ], [ -1.1468469, 43.0257824 ], [ -1.1469394, 43.0258694 ], [ -1.1469816, 43.0258909 ], [ -1.1470424, 43.0259127 ], [ -1.1471521, 43.0259348 ], [ -1.1473614, 43.0259669 ], [ -1.1476278, 43.0260072 ], [ -1.1477653, 43.0260297 ], [ -1.1479169, 43.0260648 ], [ -1.1479504, 43.0260732 ], [ -1.1479722, 43.0260871 ], [ -1.1479822, 43.0261092 ], [ -1.1479846, 43.0261323 ], [ -1.1479711, 43.0261743 ], [ -1.1479542, 43.0262252 ], [ -1.147939, 43.026297 ], [ -1.1479246, 43.0263677 ], [ -1.1479174, 43.0264548 ], [ -1.1478851, 43.0265837 ], [ -1.1478662, 43.0266504 ], [ -1.147876, 43.0266827 ], [ -1.1479019, 43.026714 ], [ -1.1479315, 43.0267252 ], [ -1.1479742, 43.0267349 ], [ -1.1480413, 43.0267461 ], [ -1.1481016, 43.0267583 ], [ -1.1481544, 43.0267614 ], [ -1.1482093, 43.0267454 ], [ -1.1482761, 43.0267178 ], [ -1.1483378, 43.0266845 ], [ -1.148442, 43.0266378 ], [ -1.148547, 43.0265877 ], [ -1.1486344, 43.0265655 ], [ -1.1487093, 43.0265476 ], [ -1.1487879, 43.0265336 ], [ -1.1488332, 43.0265344 ], [ -1.1488884, 43.0265606 ], [ -1.1489379, 43.0265968 ], [ -1.1490456, 43.0266633 ], [ -1.1491205, 43.0267231 ], [ -1.1491989, 43.0267964 ], [ -1.1492665, 43.0268453 ], [ -1.1493079, 43.0268691 ], [ -1.1493589, 43.0268811 ], [ -1.1493965, 43.0268817 ], [ -1.1494737, 43.0268908 ], [ -1.1495732, 43.0268998 ], [ -1.1497974, 43.0269181 ], [ -1.1498838, 43.0269285 ], [ -1.1499539, 43.026942 ], [ -1.1499941, 43.0269589 ], [ -1.1500544, 43.0270179 ], [ -1.1500907, 43.0270618 ], [ -1.1501597, 43.0271389 ], [ -1.1502865, 43.0272344 ], [ -1.1504193, 43.0273328 ], [ -1.1505185, 43.0274019 ], [ -1.1506131, 43.0274693 ], [ -1.1507518, 43.0275278 ], [ -1.1508343, 43.0275623 ], [ -1.1509134, 43.0275873 ], [ -1.1510277, 43.02761 ], [ -1.1510828, 43.0276142 ], [ -1.151139, 43.0276095 ], [ -1.1512005, 43.0275795 ], [ -1.1512572, 43.0275551 ], [ -1.1513255, 43.0275039 ], [ -1.1514306, 43.0274285 ], [ -1.151546, 43.0273381 ], [ -1.1516443, 43.0272845 ], [ -1.1516945, 43.0272707 ], [ -1.151822, 43.0272677 ], [ -1.1519339, 43.0272959 ], [ -1.1520762, 43.0273359 ], [ -1.1521374, 43.0273645 ], [ -1.1521657, 43.0273931 ], [ -1.1521572, 43.0274228 ], [ -1.1521167, 43.0274683 ], [ -1.1520725, 43.0275086 ], [ -1.1520383, 43.0275481 ], [ -1.1520437, 43.0275724 ], [ -1.1520626, 43.0276092 ], [ -1.152094, 43.0276609 ], [ -1.1521964, 43.027778 ], [ -1.1522552, 43.0278628 ], [ -1.1523338, 43.0279772 ], [ -1.1523784, 43.0280522 ], [ -1.1523981, 43.0280846 ], [ -1.1524288, 43.028134 ], [ -1.1524276, 43.0281762 ], [ -1.1524343, 43.0282326 ], [ -1.1524422, 43.0282783 ], [ -1.152488, 43.0283595 ], [ -1.1525751, 43.0284763 ], [ -1.1526241, 43.0285537 ], [ -1.1526654, 43.0286365 ], [ -1.1527021, 43.028717 ], [ -1.1527366, 43.0287935 ], [ -1.1527581, 43.0288704 ], [ -1.1527736, 43.0289641 ], [ -1.1527916, 43.029006 ], [ -1.1528152, 43.029038 ], [ -1.1528639, 43.0290753 ], [ -1.1529162, 43.0290981 ], [ -1.1529874, 43.0291279 ], [ -1.1530771, 43.0291553 ], [ -1.15317, 43.0291765 ], [ -1.153226, 43.0291785 ], [ -1.1532934, 43.0291543 ], [ -1.1533625, 43.0291267 ], [ -1.1534493, 43.0290994 ], [ -1.1535592, 43.0290669 ], [ -1.1536335, 43.0290444 ], [ -1.1537336, 43.029032 ], [ -1.1537881, 43.0290306 ], [ -1.1538176, 43.0290423 ], [ -1.1538444, 43.0290737 ], [ -1.1538776, 43.0291165 ], [ -1.1538906, 43.0291431 ], [ -1.1539366, 43.0291692 ], [ -1.1539859, 43.029188 ], [ -1.1540444, 43.0292064 ], [ -1.1541084, 43.0292209 ], [ -1.1541793, 43.0292356 ], [ -1.1543079, 43.029272 ], [ -1.1543932, 43.0292919 ], [ -1.1544564, 43.0293065 ], [ -1.1545091, 43.0293152 ], [ -1.1545773, 43.0293174 ], [ -1.1546834, 43.0293101 ], [ -1.1547853, 43.029314 ], [ -1.1548958, 43.0293135 ], [ -1.1549819, 43.0293065 ], [ -1.1550484, 43.0293149 ], [ -1.1551069, 43.0293316 ], [ -1.1551608, 43.0293544 ], [ -1.1552639, 43.0293927 ], [ -1.1553707, 43.0294366 ], [ -1.1555082, 43.0295075 ], [ -1.1556164, 43.0295593 ], [ -1.1556947, 43.0295831 ], [ -1.1557817, 43.0295997 ], [ -1.1558503, 43.0296143 ], [ -1.1558877, 43.0296436 ], [ -1.1559106, 43.0296738 ], [ -1.1559171, 43.0297116 ], [ -1.1559232, 43.0297663 ], [ -1.1559369, 43.0298217 ], [ -1.1559521, 43.0299018 ], [ -1.1559831, 43.0300188 ], [ -1.1560397, 43.0301036 ], [ -1.1560917, 43.0301331 ], [ -1.1561543, 43.0301685 ], [ -1.1562364, 43.0301935 ], [ -1.156309, 43.0302025 ], [ -1.15641, 43.030212 ], [ -1.1564651, 43.0302151 ], [ -1.1565346, 43.0302281 ], [ -1.1565604, 43.0302606 ], [ -1.1565947, 43.0302966 ], [ -1.1566331, 43.0303704 ], [ -1.156682, 43.0304522 ], [ -1.1567148, 43.0305625 ], [ -1.156829, 43.0305908 ], [ -1.1569007, 43.0306032 ], [ -1.1569952, 43.0306266 ], [ -1.1571015, 43.0306633 ], [ -1.1571626, 43.0306975 ], [ -1.1572211, 43.0307181 ], [ -1.1572932, 43.030717 ], [ -1.1573734, 43.0307042 ], [ -1.1574255, 43.0306792 ], [ -1.1574916, 43.0306493 ], [ -1.1575441, 43.0306135 ], [ -1.1576182, 43.0305709 ], [ -1.1577136, 43.0305105 ], [ -1.1577775, 43.0304794 ], [ -1.1579007, 43.0305146 ], [ -1.1580085, 43.0305507 ], [ -1.1580973, 43.0305578 ], [ -1.1581801, 43.0305872 ], [ -1.1582178, 43.0306092 ], [ -1.1582637, 43.0306381 ], [ -1.1583395, 43.0306956 ], [ -1.1584189, 43.0307588 ], [ -1.1585027, 43.0308271 ], [ -1.1585796, 43.0308993 ], [ -1.158619, 43.0309415 ], [ -1.1586211, 43.0309719 ], [ -1.1585941, 43.0310047 ], [ -1.1585639, 43.0310639 ], [ -1.1585466, 43.0311323 ], [ -1.1585325, 43.0311917 ], [ -1.1585454, 43.0312206 ], [ -1.1585691, 43.0312492 ], [ -1.1586023, 43.0312925 ], [ -1.1586715, 43.0313414 ], [ -1.1587442, 43.031396 ], [ -1.1588454, 43.0314528 ], [ -1.1589438, 43.0314977 ], [ -1.159021, 43.03153 ], [ -1.1591127, 43.0315427 ], [ -1.1592118, 43.031564 ], [ -1.1592832, 43.0315612 ], [ -1.1593569, 43.0315601 ], [ -1.1594693, 43.031545 ], [ -1.1595349, 43.0315343 ], [ -1.1595877, 43.0315362 ], [ -1.1596246, 43.0315611 ], [ -1.1596648, 43.0315775 ], [ -1.1597197, 43.0316138 ], [ -1.1598014, 43.0316506 ], [ -1.1599235, 43.0316734 ], [ -1.1600908, 43.0317239 ], [ -1.1601939, 43.0317632 ], [ -1.160264, 43.0318044 ], [ -1.1603424, 43.0318535 ], [ -1.1603925, 43.0318931 ], [ -1.1604469, 43.0319491 ], [ -1.1604886, 43.0320184 ], [ -1.1604965, 43.0320619 ], [ -1.1605103, 43.0321364 ], [ -1.1605097, 43.0322084 ], [ -1.1605014, 43.0322804 ], [ -1.1604949, 43.0323433 ], [ -1.1605202, 43.0324225 ], [ -1.1605263, 43.0324744 ], [ -1.1605669, 43.0325274 ], [ -1.160612, 43.0325855 ], [ -1.1606599, 43.0326515 ], [ -1.1607207, 43.03272 ], [ -1.1607779, 43.0327823 ], [ -1.1608024, 43.0328379 ], [ -1.1608396, 43.0328992 ], [ -1.1608663, 43.0329565 ], [ -1.160892, 43.0330211 ], [ -1.1609127, 43.0330749 ], [ -1.1609323, 43.0331371 ], [ -1.1609515, 43.0331869 ], [ -1.1609689, 43.0332227 ], [ -1.1610038, 43.0332598 ], [ -1.1610434, 43.0332948 ], [ -1.1611259, 43.0333338 ], [ -1.1612199, 43.0333702 ], [ -1.1613109, 43.033406 ], [ -1.1614092, 43.0334549 ], [ -1.1614472, 43.0334921 ], [ -1.161558, 43.0335828 ], [ -1.1616006, 43.0336211 ], [ -1.1616236, 43.033648 ], [ -1.1617408, 43.0336279 ], [ -1.1618102, 43.0336167 ], [ -1.1619248, 43.033632 ], [ -1.1620408, 43.0336536 ], [ -1.1621789, 43.0336783 ], [ -1.1623136, 43.0337137 ], [ -1.1624405, 43.0337568 ], [ -1.1625739, 43.033809 ], [ -1.1626709, 43.0338506 ], [ -1.1627357, 43.0338882 ], [ -1.1628215, 43.0339436 ], [ -1.1628973, 43.0340017 ], [ -1.1629504, 43.0340475 ], [ -1.1629853, 43.034137 ], [ -1.1629981, 43.0342745 ], [ -1.1630207, 43.0344167 ], [ -1.1630355, 43.0345357 ], [ -1.1631113, 43.0345679 ], [ -1.1632204, 43.0346152 ], [ -1.1633395, 43.0346599 ], [ -1.1635458, 43.0347375 ], [ -1.1636694, 43.0347885 ], [ -1.1638074, 43.0348408 ], [ -1.1639221, 43.0348792 ], [ -1.1640595, 43.0349304 ], [ -1.1641811, 43.0349666 ], [ -1.1643295, 43.035009 ], [ -1.1644534, 43.0350476 ], [ -1.1645956, 43.0350898 ], [ -1.1647765, 43.0351203 ], [ -1.1648889, 43.0351333 ], [ -1.1650475, 43.0351381 ], [ -1.1651549, 43.0351398 ], [ -1.1652863, 43.035133 ], [ -1.16548, 43.0351198 ], [ -1.1657431, 43.035124 ], [ -1.1658814, 43.0351385 ], [ -1.1660359, 43.035132 ], [ -1.1661355, 43.0351359 ], [ -1.1661924, 43.0351582 ], [ -1.1662544, 43.0351879 ], [ -1.1663772, 43.0352366 ], [ -1.1665083, 43.0352916 ], [ -1.1666176, 43.035331 ], [ -1.1667006, 43.0353791 ], [ -1.1667973, 43.0354262 ], [ -1.1668882, 43.0354654 ], [ -1.1669875, 43.0354811 ], [ -1.1670697, 43.0355049 ], [ -1.1671312, 43.0355267 ], [ -1.1672505, 43.0355888 ], [ -1.1674216, 43.0356647 ], [ -1.1676036, 43.0357374 ], [ -1.1678236, 43.0358209 ], [ -1.1680463, 43.035892 ], [ -1.1682315, 43.0359591 ], [ -1.1683959, 43.0359786 ], [ -1.168518, 43.0359986 ], [ -1.168615, 43.0360418 ], [ -1.1687059, 43.036081 ], [ -1.1688767, 43.0361152 ], [ -1.1690844, 43.0361473 ], [ -1.1693423, 43.0361694 ], [ -1.169453, 43.0361346 ], [ -1.1696038, 43.0362501 ], [ -1.1701559, 43.0363366 ], [ -1.1706507, 43.0364166 ], [ -1.1707516, 43.0365336 ], [ -1.1709086, 43.0365682 ], [ -1.171578, 43.0366847 ], [ -1.1718067, 43.0367581 ], [ -1.1725636, 43.037055 ], [ -1.1734152, 43.0373894 ], [ -1.1738724, 43.0375993 ], [ -1.1738904, 43.0373559 ], [ -1.1739367, 43.036907 ], [ -1.1740057, 43.0362867 ], [ -1.1740658, 43.0356849 ], [ -1.1741263, 43.0350669 ], [ -1.1741941, 43.0345682 ], [ -1.1741905, 43.0345304 ], [ -1.1745444, 43.0344201 ], [ -1.1750711, 43.0342524 ], [ -1.1755762, 43.0340877 ], [ -1.1761526, 43.0338976 ], [ -1.1766592, 43.0337335 ], [ -1.176993, 43.0336291 ], [ -1.17744, 43.0334814 ], [ -1.1780062, 43.0332991 ], [ -1.1787064, 43.0330733 ], [ -1.1793168, 43.0328748 ], [ -1.1796428, 43.0327703 ], [ -1.1798419, 43.0327341 ], [ -1.1801908, 43.0326856 ], [ -1.180432, 43.0326506 ], [ -1.1809633, 43.0325836 ], [ -1.1810086, 43.032608 ], [ -1.1811626, 43.0326915 ], [ -1.1818283, 43.0330634 ], [ -1.1825231, 43.0334594 ], [ -1.1832511, 43.0338762 ], [ -1.183889, 43.0342308 ], [ -1.1844414, 43.0345395 ], [ -1.184914, 43.0347986 ], [ -1.1855749, 43.0351799 ], [ -1.1861581, 43.0355134 ], [ -1.1868058, 43.0358703 ], [ -1.1869885, 43.0359728 ], [ -1.1875228, 43.0362734 ], [ -1.1879207, 43.0365161 ], [ -1.1885012, 43.0368387 ], [ -1.1890528, 43.0371542 ], [ -1.1894118, 43.0373648 ], [ -1.1900321, 43.0377168 ], [ -1.1912472, 43.0384243 ], [ -1.1917098, 43.0386888 ], [ -1.192287, 43.039021 ], [ -1.1929063, 43.039382 ], [ -1.1936157, 43.0397832 ], [ -1.1939121, 43.0399562 ], [ -1.1942674, 43.0401638 ], [ -1.1949686, 43.0405604 ], [ -1.1957202, 43.0409905 ], [ -1.1960658, 43.0411884 ], [ -1.1965862, 43.0414949 ], [ -1.1968967, 43.0416878 ], [ -1.1972604, 43.0419496 ], [ -1.1977156, 43.0422556 ], [ -1.1981174, 43.0425517 ], [ -1.1987844, 43.0430176 ], [ -1.1992487, 43.0433288 ], [ -1.1996477, 43.0436159 ], [ -1.1997176, 43.043666 ], [ -1.1999556, 43.0437671 ], [ -1.2005203, 43.0440315 ], [ -1.2011079, 43.0442957 ], [ -1.2016867, 43.0445524 ], [ -1.2023316, 43.0448271 ], [ -1.2026422, 43.0449637 ], [ -1.2028293, 43.0450465 ], [ -1.2034171, 43.0453107 ], [ -1.2039548, 43.0455539 ], [ -1.2039616, 43.0455568 ], [ -1.204585, 43.0458328 ], [ -1.2051371, 43.0460823 ], [ -1.2053029, 43.0461626 ], [ -1.2056584, 43.0463359 ], [ -1.206254, 43.0466475 ], [ -1.2069082, 43.0470021 ], [ -1.2074373, 43.0472766 ], [ -1.2077463, 43.0474441 ], [ -1.208219, 43.0477048 ], [ -1.2084895, 43.0478503 ], [ -1.2086467, 43.047935 ], [ -1.2090163, 43.0481287 ], [ -1.2094613, 43.0483687 ], [ -1.2098172, 43.0485572 ], [ -1.2101435, 43.0487339 ], [ -1.2106241, 43.0489913 ], [ -1.2110252, 43.0492115 ], [ -1.2113935, 43.0493968 ], [ -1.2115324, 43.0494738 ], [ -1.21158, 43.0495004 ], [ -1.2116698, 43.0495519 ], [ -1.2117521, 43.0495994 ], [ -1.212064, 43.0505649 ], [ -1.2123962, 43.0515713 ], [ -1.2145896, 43.0520131 ], [ -1.2155151, 43.0521975 ], [ -1.2155632, 43.0522067 ], [ -1.2165658, 43.0524064 ], [ -1.2182528, 43.0527428 ], [ -1.2188101, 43.0528702 ], [ -1.2200244, 43.0532584 ], [ -1.2220602, 43.0539012 ], [ -1.2238813, 43.0544862 ], [ -1.225085, 43.054874 ], [ -1.2268096, 43.055082 ], [ -1.228144, 43.0552462 ], [ -1.2291732, 43.0553787 ], [ -1.2293436, 43.0554016 ], [ -1.229563, 43.0554309 ], [ -1.2297233, 43.0554626 ], [ -1.229914, 43.0552618 ], [ -1.2302583, 43.0549284 ], [ -1.2308545, 43.0543703 ], [ -1.2313229, 43.0539335 ], [ -1.2318351, 43.0534411 ], [ -1.2325444, 43.0527671 ], [ -1.233051, 43.0522842 ], [ -1.2336146, 43.051765 ], [ -1.2341793, 43.0512082 ], [ -1.2348742, 43.0505762 ], [ -1.2356632, 43.0500109 ], [ -1.2368806, 43.0491445 ], [ -1.2382117, 43.0482167 ], [ -1.2393354, 43.0474298 ], [ -1.2401303, 43.0468674 ], [ -1.2413145, 43.0461917 ], [ -1.2427807, 43.0453639 ], [ -1.2444149, 43.0444305 ], [ -1.2460659, 43.0434969 ], [ -1.2472264, 43.0428376 ], [ -1.2475607, 43.0426317 ], [ -1.2478491, 43.0425804 ], [ -1.2482078, 43.0425409 ], [ -1.2485111, 43.0425067 ], [ -1.2488096, 43.0425034 ], [ -1.2490684, 43.0424978 ], [ -1.2492247, 43.0424788 ], [ -1.2493791, 43.0424705 ], [ -1.2496126, 43.0424921 ], [ -1.2497512, 43.0425004 ], [ -1.249825, 43.0424976 ], [ -1.2502926, 43.0424856 ], [ -1.2508313, 43.042482 ], [ -1.2513538, 43.0424821 ], [ -1.2517274, 43.0424839 ], [ -1.2521776, 43.0425201 ], [ -1.2525878, 43.0425584 ], [ -1.2529593, 43.0426057 ], [ -1.253129, 43.042628 ], [ -1.2532784, 43.0426641 ], [ -1.2534294, 43.0426945 ], [ -1.2536479, 43.0427305 ], [ -1.2541173, 43.0428457 ], [ -1.2544672, 43.0429254 ], [ -1.2546851, 43.042981 ], [ -1.2549242, 43.0430725 ], [ -1.2551711, 43.0432119 ], [ -1.2554644, 43.0433677 ], [ -1.2557654, 43.0434956 ], [ -1.2561029, 43.0436083 ], [ -1.2563827, 43.0436699 ], [ -1.2567267, 43.0437157 ], [ -1.257077, 43.0437553 ], [ -1.2572457, 43.0437591 ], [ -1.2573265, 43.0437518 ], [ -1.2574643, 43.0437348 ], [ -1.2575561, 43.0437171 ], [ -1.257737, 43.0436731 ], [ -1.2579001, 43.0436283 ], [ -1.258084, 43.0435833 ], [ -1.2582417, 43.0435711 ], [ -1.258433, 43.0435881 ], [ -1.2586481, 43.0436037 ], [ -1.258793, 43.0436104 ], [ -1.2589352, 43.0436013 ], [ -1.2590391, 43.0435905 ], [ -1.2591266, 43.0435874 ], [ -1.2592108, 43.043596 ], [ -1.2594564, 43.043647 ], [ -1.2597274, 43.0436973 ], [ -1.2601308, 43.0437608 ], [ -1.2606177, 43.043851 ], [ -1.2610987, 43.0439388 ], [ -1.2613014, 43.0439604 ], [ -1.2613882, 43.0439561 ], [ -1.2614901, 43.0439346 ], [ -1.2616525, 43.0438887 ], [ -1.2618728, 43.0438323 ], [ -1.2621149, 43.0437921 ], [ -1.2623436, 43.0437905 ], [ -1.2625807, 43.0437907 ], [ -1.262788, 43.0438119 ], [ -1.2629919, 43.0438471 ], [ -1.2634269, 43.0439561 ], [ -1.2636428, 43.0440303 ], [ -1.2639753, 43.0441547 ], [ -1.2643119, 43.0442481 ], [ -1.2643275, 43.0441831 ], [ -1.2641793, 43.044079 ], [ -1.2639623, 43.0439102 ], [ -1.2639518, 43.0439022 ], [ -1.2636106, 43.0436454 ], [ -1.2632686, 43.0433954 ], [ -1.2636528, 43.0431857 ], [ -1.2639647, 43.0430087 ], [ -1.2643405, 43.0427954 ], [ -1.2650582, 43.0423814 ], [ -1.2653502, 43.0422305 ], [ -1.265464, 43.0421647 ], [ -1.2655085, 43.0421373 ], [ -1.2656022, 43.042052 ], [ -1.2657193, 43.041926 ], [ -1.2658108, 43.0418132 ], [ -1.2658814, 43.0417293 ], [ -1.2663117, 43.0412473 ], [ -1.2666417, 43.0408606 ], [ -1.2669067, 43.0405506 ], [ -1.2670956, 43.040326 ], [ -1.2673867, 43.0402641 ], [ -1.2677466, 43.0401772 ], [ -1.26806, 43.0401116 ], [ -1.2683381, 43.0400449 ], [ -1.2685595, 43.0400016 ], [ -1.2686434, 43.0399938 ], [ -1.2693296, 43.0399294 ], [ -1.269998, 43.0398708 ], [ -1.2704594, 43.0398328 ], [ -1.2708346, 43.0398041 ], [ -1.2716659, 43.0397379 ], [ -1.2728412, 43.0396341 ], [ -1.2741342, 43.0395186 ], [ -1.2754424, 43.0394055 ], [ -1.276581, 43.0392972 ], [ -1.2776837, 43.039208 ], [ -1.2786917, 43.039132 ], [ -1.2795277, 43.0390579 ], [ -1.2802872, 43.0390091 ], [ -1.2809168, 43.0389904 ], [ -1.2814855, 43.0390142 ], [ -1.2819821, 43.0390341 ], [ -1.2821423, 43.0390392 ], [ -1.2821921, 43.0390406 ], [ -1.2822587, 43.0389921 ], [ -1.2823532, 43.0389068 ], [ -1.282466, 43.0388201 ], [ -1.2825932, 43.0387444 ], [ -1.2827389, 43.0386672 ], [ -1.282941, 43.0385701 ], [ -1.2831644, 43.0384867 ], [ -1.2833316, 43.0384324 ], [ -1.2835381, 43.038372 ], [ -1.2837899, 43.0383127 ], [ -1.2840285, 43.0382566 ], [ -1.2843514, 43.0382046 ], [ -1.2846011, 43.0381662 ], [ -1.2849652, 43.0380957 ], [ -1.2852965, 43.0380471 ], [ -1.2856162, 43.0380007 ], [ -1.2859038, 43.0379499 ], [ -1.2862078, 43.0378864 ], [ -1.2865049, 43.0378238 ], [ -1.2868, 43.0377539 ], [ -1.2871576, 43.0376693 ], [ -1.2874669, 43.0376092 ], [ -1.2876052, 43.0375758 ], [ -1.2877597, 43.0375089 ], [ -1.2879209, 43.03745 ], [ -1.2880995, 43.0374026 ], [ -1.2883026, 43.0373538 ], [ -1.2885291, 43.0372942 ], [ -1.2886511, 43.0372386 ], [ -1.2887548, 43.0371777 ], [ -1.2889487, 43.0370731 ], [ -1.2890433, 43.0370104 ], [ -1.2891466, 43.0369646 ], [ -1.2892592, 43.0369179 ], [ -1.2893822, 43.0368809 ], [ -1.2895339, 43.0368325 ], [ -1.2896769, 43.0367958 ], [ -1.2898299, 43.0367554 ], [ -1.2899467, 43.0367222 ], [ -1.2900443, 43.036686 ], [ -1.2901883, 43.0366431 ], [ -1.2903752, 43.0365682 ], [ -1.2904528, 43.036539 ], [ -1.2905471, 43.0364841 ], [ -1.2907019, 43.0364093 ], [ -1.2908696, 43.0363347 ], [ -1.2910108, 43.0362817 ], [ -1.291139, 43.0362211 ], [ -1.2912704, 43.0361601 ], [ -1.2913589, 43.036122 ], [ -1.2914435, 43.0360867 ], [ -1.2915183, 43.0360456 ], [ -1.2915579, 43.0360017 ], [ -1.2916252, 43.0359268 ], [ -1.2916978, 43.0358006 ], [ -1.291762, 43.0356693 ], [ -1.2918113, 43.0355536 ], [ -1.2918429, 43.0354651 ], [ -1.2918418, 43.0354207 ], [ -1.2918148, 43.035369 ], [ -1.291723, 43.0353046 ], [ -1.2915005, 43.0351662 ], [ -1.291277, 43.0350391 ], [ -1.2911039, 43.0349436 ], [ -1.2910034, 43.0348909 ], [ -1.29097, 43.0348499 ], [ -1.2909478, 43.034822 ], [ -1.2909486, 43.034791 ], [ -1.2909603, 43.0347563 ], [ -1.2909878, 43.034732 ], [ -1.2910686, 43.0346949 ], [ -1.291344, 43.0345859 ], [ -1.2914973, 43.034537 ], [ -1.2915919, 43.0345007 ], [ -1.2916308, 43.034481 ], [ -1.2916687, 43.0344439 ], [ -1.2917234, 43.0343771 ], [ -1.2917691, 43.0342805 ], [ -1.291802, 43.0341442 ], [ -1.2918142, 43.0340386 ], [ -1.2918192, 43.0338844 ], [ -1.2918021, 43.033784 ], [ -1.2917988, 43.0336821 ], [ -1.2917653, 43.03356 ], [ -1.2917045, 43.0334015 ], [ -1.2916714, 43.033293 ], [ -1.2916415, 43.0331828 ], [ -1.2916355, 43.0330955 ], [ -1.291637, 43.0330133 ], [ -1.2916491, 43.0329651 ], [ -1.2916748, 43.032925 ], [ -1.2917246, 43.0328441 ], [ -1.2918327, 43.0327073 ], [ -1.2919802, 43.0325637 ], [ -1.2921151, 43.0324549 ], [ -1.2923477, 43.0322298 ], [ -1.2924614, 43.0321404 ], [ -1.2927611, 43.0318758 ], [ -1.293062, 43.0316175 ], [ -1.2931582, 43.0315238 ], [ -1.2932824, 43.0314165 ], [ -1.2934254, 43.0312948 ], [ -1.2935314, 43.0312069 ], [ -1.2936078, 43.0311343 ], [ -1.2937289, 43.0310297 ], [ -1.2937778, 43.0309793 ], [ -1.2938304, 43.0309373 ], [ -1.2939074, 43.030899 ], [ -1.2939928, 43.0308626 ], [ -1.2941296, 43.0308281 ], [ -1.294266, 43.0308025 ], [ -1.2944278, 43.0307774 ], [ -1.2945704, 43.0307564 ], [ -1.2946854, 43.03073 ], [ -1.2947834, 43.0307095 ], [ -1.2948767, 43.0306906 ], [ -1.2949664, 43.0306644 ], [ -1.2950391, 43.0306441 ], [ -1.295092, 43.0306184 ], [ -1.2951595, 43.0305643 ], [ -1.2952959, 43.0304588 ], [ -1.2954038, 43.0303822 ], [ -1.2955066, 43.0302999 ], [ -1.2955856, 43.0302442 ], [ -1.2956668, 43.0301931 ], [ -1.2957597, 43.0301382 ], [ -1.2958255, 43.0300885 ], [ -1.2958998, 43.030035 ], [ -1.2959548, 43.0299863 ], [ -1.2960086, 43.0299303 ], [ -1.2960479, 43.0298965 ], [ -1.2960889, 43.0298262 ], [ -1.296126, 43.0297334 ], [ -1.2961792, 43.0295591 ], [ -1.2961999, 43.0294204 ], [ -1.2962081, 43.0293203 ], [ -1.2961977, 43.0291958 ], [ -1.2961599, 43.0290636 ], [ -1.2961058, 43.0288573 ], [ -1.2960514, 43.0286612 ], [ -1.2959642, 43.0284855 ], [ -1.2958451, 43.0282169 ], [ -1.2957511, 43.0280084 ], [ -1.2956802, 43.0278548 ], [ -1.2955946, 43.0276774 ], [ -1.2955381, 43.0275015 ], [ -1.2954902, 43.0273725 ], [ -1.2954191, 43.0273951 ], [ -1.2952202, 43.0274568 ], [ -1.294882, 43.0275632 ], [ -1.2942784, 43.0277281 ], [ -1.2937558, 43.0278739 ], [ -1.2931864, 43.027991 ], [ -1.292833, 43.028065 ], [ -1.2920435, 43.0282373 ], [ -1.2917265, 43.0282973 ], [ -1.2915168, 43.0283369 ], [ -1.2915068, 43.0283384 ], [ -1.2911515, 43.0283962 ], [ -1.2906417, 43.0284662 ], [ -1.2902954, 43.0285359 ], [ -1.2900288, 43.0286327 ], [ -1.2898072, 43.0287126 ], [ -1.2896418, 43.0288103 ], [ -1.2894168, 43.0290135 ], [ -1.2891547, 43.0292251 ], [ -1.2889556, 43.0293786 ], [ -1.2888928, 43.0294278 ], [ -1.2887974, 43.029576 ], [ -1.2886611, 43.0298723 ], [ -1.2885796, 43.0299859 ], [ -1.2885129, 43.0300704 ], [ -1.2883943, 43.0301947 ], [ -1.2882473, 43.0303529 ], [ -1.2881345, 43.0304615 ], [ -1.2879989, 43.0305377 ], [ -1.2877022, 43.0306959 ], [ -1.287239, 43.0309394 ], [ -1.2870582, 43.031042 ], [ -1.2869161, 43.0311575 ], [ -1.2867831, 43.0313063 ], [ -1.2866336, 43.0314684 ], [ -1.2864847, 43.0316344 ], [ -1.286399, 43.031712 ], [ -1.2863165, 43.0317822 ], [ -1.2862056, 43.0318492 ], [ -1.2860337, 43.0319372 ], [ -1.2858312, 43.0320451 ], [ -1.2856501, 43.032156 ], [ -1.2854905, 43.0322679 ], [ -1.2853349, 43.0324006 ], [ -1.2851345, 43.0326008 ], [ -1.2849988, 43.0327068 ], [ -1.2848851, 43.0327664 ], [ -1.2847015, 43.0326956 ], [ -1.2845732, 43.0326464 ], [ -1.2843477, 43.0325327 ], [ -1.2841525, 43.0323519 ], [ -1.2837811, 43.0320272 ], [ -1.2830864, 43.0313544 ], [ -1.2822961, 43.03059 ], [ -1.2815502, 43.0298545 ], [ -1.2809477, 43.0292618 ], [ -1.2803599, 43.0286907 ], [ -1.2800588, 43.0284605 ], [ -1.2793979, 43.0284467 ], [ -1.2785933, 43.0284419 ], [ -1.2780091, 43.0284303 ], [ -1.2771629, 43.0284062 ], [ -1.2767107, 43.028391 ], [ -1.2762993, 43.0283746 ], [ -1.275951, 43.0283722 ], [ -1.2753152, 43.0283964 ], [ -1.2742672, 43.0284301 ], [ -1.2731592, 43.0284938 ], [ -1.2723888, 43.0285278 ], [ -1.2716492, 43.0285847 ], [ -1.2708345, 43.0286129 ], [ -1.2698463, 43.0286722 ], [ -1.2683349, 43.0288452 ], [ -1.2663408, 43.029048 ], [ -1.2651588, 43.029178 ], [ -1.2638619, 43.0293306 ], [ -1.2620136, 43.0291517 ], [ -1.2629187, 43.0257301 ], [ -1.2641054, 43.0212131 ], [ -1.2645831, 43.0206744 ], [ -1.2648731, 43.0203462 ], [ -1.2660107, 43.0190623 ], [ -1.267031, 43.0179088 ], [ -1.2681604, 43.0178944 ], [ -1.2708126, 43.0178715 ], [ -1.2724486, 43.0177314 ], [ -1.2727883, 43.0175457 ], [ -1.2728777, 43.0175003 ], [ -1.2730247, 43.0174272 ], [ -1.273662, 43.0174869 ], [ -1.2738817, 43.017583 ], [ -1.2741742, 43.017709 ], [ -1.2743629, 43.0177907 ], [ -1.2745052, 43.0179392 ], [ -1.2745296, 43.0180543 ], [ -1.274546, 43.0182341 ], [ -1.2746215, 43.0182251 ], [ -1.2759507, 43.0180578 ], [ -1.2759584, 43.0180568 ], [ -1.2764433, 43.0179954 ], [ -1.2771038, 43.0179091 ], [ -1.2771157, 43.0179245 ], [ -1.2771231, 43.0179342 ], [ -1.277477, 43.0176767 ], [ -1.2777085, 43.0175147 ], [ -1.278633, 43.0168471 ], [ -1.28041, 43.0170117 ], [ -1.2834655, 43.0155623 ], [ -1.2835741, 43.0150467 ], [ -1.2839, 43.0136446 ], [ -1.2864616, 43.0124893 ], [ -1.2888974, 43.0111053 ], [ -1.2907352, 43.0067266 ], [ -1.291032, 43.0060332 ], [ -1.2920877, 43.0035546 ], [ -1.296642, 43.0011885 ], [ -1.296775, 43.0011195 ], [ -1.2972356, 43.0008799 ], [ -1.2981733, 43.0004104 ], [ -1.2989483, 43.0000291 ], [ -1.299401, 42.9998513 ], [ -1.3001098, 42.9995331 ], [ -1.3004605, 42.9993819 ], [ -1.300499, 42.9992648 ], [ -1.3005099, 42.9992329 ], [ -1.3005509, 42.9991091 ], [ -1.3007048, 42.9986713 ], [ -1.3007972, 42.9985168 ], [ -1.3009161, 42.9982923 ], [ -1.3010242, 42.9981003 ], [ -1.3010765, 42.9978715 ], [ -1.3011452, 42.9976029 ], [ -1.3012132, 42.9973084 ], [ -1.3012762, 42.9970511 ], [ -1.3013126, 42.9968749 ], [ -1.3013364, 42.9967604 ], [ -1.301577, 42.9964871 ], [ -1.301744, 42.9962965 ], [ -1.3019491, 42.9960621 ], [ -1.3021301, 42.9958656 ], [ -1.302343, 42.9956228 ], [ -1.3025477, 42.9954012 ], [ -1.3027775, 42.9951598 ], [ -1.3029913, 42.994912 ], [ -1.3032464, 42.99464 ], [ -1.3034978, 42.9943646 ], [ -1.3037481, 42.9940762 ], [ -1.3038921, 42.9939107 ], [ -1.3030263, 42.9940317 ], [ -1.3026451, 42.9940919 ], [ -1.3017609, 42.9942364 ], [ -1.3009166, 42.9943825 ], [ -1.3001216, 42.9945199 ], [ -1.2996847, 42.9946006 ], [ -1.2995564, 42.9946117 ], [ -1.2995271, 42.994614 ], [ -1.2993693, 42.9945818 ], [ -1.2992835, 42.9945513 ], [ -1.2991666, 42.9945102 ], [ -1.2989132, 42.994413 ], [ -1.2986247, 42.9943378 ], [ -1.2983232, 42.9942601 ], [ -1.2979266, 42.9941591 ], [ -1.2977506, 42.9941199 ], [ -1.2975501, 42.9940482 ], [ -1.2972845, 42.9939216 ], [ -1.2970105, 42.9937931 ], [ -1.2967903, 42.9936902 ], [ -1.2966588, 42.9936213 ], [ -1.2965192, 42.9935404 ], [ -1.2963774, 42.993455 ], [ -1.2962187, 42.9933429 ], [ -1.29609, 42.9932279 ], [ -1.2959863, 42.9931273 ], [ -1.2958769, 42.9930328 ], [ -1.2957075, 42.992894 ], [ -1.2955505, 42.9927482 ], [ -1.2954217, 42.9926377 ], [ -1.2951724, 42.9924229 ], [ -1.2950017, 42.992301 ], [ -1.2947396, 42.992103 ], [ -1.2944482, 42.9918859 ], [ -1.2941648, 42.9916835 ], [ -1.2939652, 42.9915263 ], [ -1.2937928, 42.9913842 ], [ -1.2936019, 42.9912164 ], [ -1.2934388, 42.9910733 ], [ -1.2932422, 42.990892 ], [ -1.2930162, 42.9907181 ], [ -1.292833, 42.9906337 ], [ -1.2927649, 42.9906023 ], [ -1.2927119, 42.9905773 ], [ -1.2923517, 42.9904087 ], [ -1.2919736, 42.9902202 ], [ -1.291621, 42.9900534 ], [ -1.2916119, 42.9900493 ], [ -1.2915544, 42.9900473 ], [ -1.2914112, 42.9900424 ], [ -1.290988, 42.9900152 ], [ -1.2907592, 42.9899983 ], [ -1.2905209, 42.9899942 ], [ -1.2902562, 42.990002 ], [ -1.289994, 42.9900308 ], [ -1.289828, 42.9900457 ], [ -1.2896865, 42.98998 ], [ -1.2895275, 42.9899079 ], [ -1.2894427, 42.98987 ], [ -1.2893192, 42.9898147 ], [ -1.2891221, 42.9897357 ], [ -1.2889373, 42.989653 ], [ -1.2887458, 42.9895669 ], [ -1.2885313, 42.9894776 ], [ -1.2883732, 42.9894009 ], [ -1.2881943, 42.9893279 ], [ -1.2879905, 42.9892404 ], [ -1.2877208, 42.9891221 ], [ -1.2876701, 42.9891005 ], [ -1.287539, 42.9890445 ], [ -1.287394, 42.988967 ], [ -1.287224, 42.9889042 ], [ -1.2869531, 42.988832 ], [ -1.286627, 42.9887315 ], [ -1.2863636, 42.9886656 ], [ -1.2861566, 42.9886136 ], [ -1.285935, 42.9885568 ], [ -1.2856982, 42.9885009 ], [ -1.2854952, 42.988441 ], [ -1.285209, 42.9883641 ], [ -1.2849723, 42.9883026 ], [ -1.2847154, 42.9882239 ], [ -1.2844102, 42.9881444 ], [ -1.2841515, 42.9880747 ], [ -1.2837527, 42.9879691 ], [ -1.2834704, 42.9878939 ], [ -1.2832222, 42.9878328 ], [ -1.2831674, 42.9878191 ], [ -1.2831628, 42.9878178 ], [ -1.2828685, 42.9877329 ], [ -1.2825125, 42.9876314 ], [ -1.2824662, 42.9876155 ], [ -1.2822285, 42.9875348 ], [ -1.2818413, 42.9874277 ], [ -1.2815444, 42.9873529 ], [ -1.281368, 42.9873035 ], [ -1.2811631, 42.9872554 ], [ -1.2809815, 42.9872245 ], [ -1.2808202, 42.9872097 ], [ -1.2805793, 42.987187 ], [ -1.2803601, 42.9871567 ], [ -1.2801593, 42.9871542 ], [ -1.2800175, 42.987156 ], [ -1.2798104, 42.9871624 ], [ -1.2796426, 42.9871853 ], [ -1.2794148, 42.9872167 ], [ -1.2792491, 42.9872486 ], [ -1.2790874, 42.9873002 ], [ -1.2789657, 42.9873478 ], [ -1.2788338, 42.9874033 ], [ -1.2787137, 42.9874763 ], [ -1.2785302, 42.9875985 ], [ -1.2783627, 42.9876928 ], [ -1.2780676, 42.9878588 ], [ -1.277908, 42.9879465 ], [ -1.2777528, 42.9880381 ], [ -1.277578, 42.9881227 ], [ -1.2774, 42.9882107 ], [ -1.2772122, 42.9882906 ], [ -1.2770607, 42.9883631 ], [ -1.2769003, 42.9884249 ], [ -1.2767694, 42.9885011 ], [ -1.2766376, 42.9886083 ], [ -1.2765048, 42.988697 ], [ -1.2763742, 42.9887867 ], [ -1.2762715, 42.988869 ], [ -1.2761185, 42.9889962 ], [ -1.2759465, 42.9891669 ], [ -1.2758607, 42.9893007 ], [ -1.2757561, 42.989424 ], [ -1.2756923, 42.9895407 ], [ -1.2756403, 42.9895906 ], [ -1.2755786, 42.9896319 ], [ -1.2754078, 42.9897075 ], [ -1.2753136, 42.989759 ], [ -1.2751686, 42.9898716 ], [ -1.2750436, 42.9899559 ], [ -1.2749376, 42.9900195 ], [ -1.2747945, 42.9900922 ], [ -1.2746311, 42.9901494 ], [ -1.2744532, 42.9902075 ], [ -1.2742937, 42.9902332 ], [ -1.2741467, 42.9902541 ], [ -1.2739187, 42.9902912 ], [ -1.273674, 42.9903533 ], [ -1.2734166, 42.9904288 ], [ -1.2731637, 42.9905066 ], [ -1.2729175, 42.9905918 ], [ -1.2725891, 42.9906836 ], [ -1.2723975, 42.9907387 ], [ -1.2722521, 42.9907809 ], [ -1.271918, 42.9908598 ], [ -1.2715345, 42.9909485 ], [ -1.2713511, 42.9909818 ], [ -1.271148, 42.9910074 ], [ -1.2708488, 42.9910665 ], [ -1.2706098, 42.9910876 ], [ -1.2703752, 42.9910891 ], [ -1.2699839, 42.9911012 ], [ -1.2695245, 42.9911066 ], [ -1.2691674, 42.9911001 ], [ -1.2690471, 42.9910955 ], [ -1.2687347, 42.9910829 ], [ -1.2684375, 42.9910739 ], [ -1.2681084, 42.9910537 ], [ -1.2677223, 42.9910175 ], [ -1.2672121, 42.9909748 ], [ -1.2668298, 42.9909673 ], [ -1.2667166, 42.9910388 ], [ -1.2664002, 42.9912225 ], [ -1.2661239, 42.9913692 ], [ -1.2658922, 42.9914838 ], [ -1.2657453, 42.9915536 ], [ -1.2655216, 42.9916307 ], [ -1.2652264, 42.9917416 ], [ -1.2648981, 42.9918565 ], [ -1.2646046, 42.9919596 ], [ -1.2642377, 42.9920587 ], [ -1.2639254, 42.9921496 ], [ -1.2635354, 42.9922512 ], [ -1.2634596, 42.9922737 ], [ -1.2633575, 42.9923042 ], [ -1.2632009, 42.992339 ], [ -1.2627608, 42.9924499 ], [ -1.2624877, 42.9925093 ], [ -1.2621459, 42.9925869 ], [ -1.2619369, 42.992631 ], [ -1.2617501, 42.9926473 ], [ -1.2615238, 42.992654 ], [ -1.2610909, 42.9926147 ], [ -1.260632, 42.992552 ], [ -1.2600386, 42.9924969 ], [ -1.2592247, 42.9924315 ], [ -1.257005, 42.9927923 ], [ -1.256732, 42.9928207 ], [ -1.2538062, 42.9930963 ], [ -1.2531875, 42.9930959 ], [ -1.2523767, 42.9931668 ], [ -1.2518244, 42.9932287 ], [ -1.2511233, 42.993295 ], [ -1.2504636, 42.9933885 ], [ -1.2496868, 42.9934763 ], [ -1.2483227, 42.9936433 ], [ -1.2482918, 42.9935461 ], [ -1.2482695, 42.9934405 ], [ -1.2482993, 42.9931719 ], [ -1.2484286, 42.9926161 ], [ -1.2485251, 42.9922406 ], [ -1.2484101, 42.9920249 ], [ -1.2482904, 42.9916517 ], [ -1.2480962, 42.9911759 ], [ -1.2480506, 42.9910531 ], [ -1.2478688, 42.9907346 ], [ -1.2478258, 42.9906551 ], [ -1.2477986, 42.9905624 ], [ -1.2477922, 42.9904334 ], [ -1.2478186, 42.9902616 ], [ -1.2478362, 42.9899371 ], [ -1.247894, 42.9895756 ], [ -1.2479107, 42.9892612 ], [ -1.2479368, 42.9888553 ], [ -1.2479763, 42.9884619 ], [ -1.2480022, 42.9880639 ], [ -1.2480643, 42.9875257 ], [ -1.2476744, 42.9860288 ], [ -1.2466784, 42.9851227 ], [ -1.2454601, 42.9851828 ], [ -1.2438273, 42.984054 ], [ -1.242262, 42.9817411 ], [ -1.2416435, 42.9812278 ], [ -1.2414535, 42.9810342 ], [ -1.2413051, 42.9808641 ], [ -1.2411772, 42.9806714 ], [ -1.2411152, 42.9805083 ], [ -1.2410499, 42.9802704 ], [ -1.2409743, 42.9799665 ], [ -1.240909, 42.9797572 ], [ -1.2408799, 42.9795142 ], [ -1.2408838, 42.9792137 ], [ -1.2408641, 42.9790738 ], [ -1.2408527, 42.9789617 ], [ -1.2408616, 42.9788133 ], [ -1.2408878, 42.9786189 ], [ -1.240909, 42.9784943 ], [ -1.2409114, 42.9783547 ], [ -1.2409047, 42.9782162 ], [ -1.2408653, 42.9780642 ], [ -1.2407889, 42.9778396 ], [ -1.2406577, 42.977577 ], [ -1.2405327, 42.9773899 ], [ -1.2404295, 42.9772195 ], [ -1.2403486, 42.977019 ], [ -1.2402473, 42.9768092 ], [ -1.2401167, 42.9765776 ], [ -1.2400336, 42.9764013 ], [ -1.2399196, 42.9762087 ], [ -1.2397996, 42.9759818 ], [ -1.2396658, 42.9756989 ], [ -1.23944, 42.9753138 ], [ -1.2392458, 42.9749731 ], [ -1.2391721, 42.9748172 ], [ -1.2391292, 42.9747383 ], [ -1.2391124, 42.974679 ], [ -1.2391659, 42.9745532 ], [ -1.2393047, 42.9743364 ], [ -1.2390924, 42.9741193 ], [ -1.2386875, 42.9737258 ], [ -1.2382107, 42.9732457 ], [ -1.2374913, 42.9725109 ], [ -1.237001, 42.972021 ], [ -1.2367759, 42.9716939 ], [ -1.2366001, 42.971434 ], [ -1.2362178, 42.9711107 ], [ -1.2358135, 42.9707763 ], [ -1.235289, 42.9703552 ], [ -1.2351629, 42.970262 ], [ -1.2350935, 42.9701985 ], [ -1.2349774, 42.9701055 ], [ -1.2348318, 42.9699699 ], [ -1.2345981, 42.9697541 ], [ -1.2343693, 42.9695018 ], [ -1.2341437, 42.9692687 ], [ -1.2339785, 42.9690979 ], [ -1.2338881, 42.9689884 ], [ -1.233774, 42.9688499 ], [ -1.2336487, 42.9687044 ], [ -1.2336228, 42.9686742 ], [ -1.233553, 42.9687013 ], [ -1.2334404, 42.9687547 ], [ -1.2333955, 42.9687703 ], [ -1.2332794, 42.9688102 ], [ -1.2331628, 42.9688393 ], [ -1.2330069, 42.9688516 ], [ -1.2328477, 42.9688429 ], [ -1.2326881, 42.9687976 ], [ -1.2324455, 42.9687602 ], [ -1.2321587, 42.9687135 ], [ -1.2317727, 42.9686743 ], [ -1.2313728, 42.968645 ], [ -1.2311632, 42.9686036 ], [ -1.2309982, 42.9685594 ], [ -1.2308342, 42.968451 ], [ -1.2306685, 42.9682424 ], [ -1.2304539, 42.968005 ], [ -1.2301946, 42.9677213 ], [ -1.2299766, 42.9674652 ], [ -1.2297614, 42.9672474 ], [ -1.2294711, 42.9669464 ], [ -1.229181, 42.9666149 ], [ -1.2291728, 42.9666057 ], [ -1.2286455, 42.9661012 ], [ -1.2282117, 42.9656752 ], [ -1.2281181, 42.9655763 ], [ -1.2280738, 42.965516 ], [ -1.22805, 42.9654639 ], [ -1.2280298, 42.9653915 ], [ -1.2278893, 42.9653483 ], [ -1.2277659, 42.9653238 ], [ -1.2276484, 42.9652775 ], [ -1.2275634, 42.9652233 ], [ -1.2274468, 42.9650927 ], [ -1.2273332, 42.9649676 ], [ -1.2271517, 42.9648016 ], [ -1.2269911, 42.9646578 ], [ -1.2268632, 42.9645236 ], [ -1.2267806, 42.9644385 ], [ -1.226612, 42.9642772 ], [ -1.2264655, 42.9641477 ], [ -1.2262815, 42.9640187 ], [ -1.2261401, 42.9639248 ], [ -1.2259628, 42.9638286 ], [ -1.2257543, 42.9636988 ], [ -1.2254748, 42.9634536 ], [ -1.2250672, 42.9631017 ], [ -1.2246177, 42.9627182 ], [ -1.2242366, 42.9623813 ], [ -1.2240678, 42.9622031 ], [ -1.2224262, 42.9645774 ], [ -1.221951, 42.9652178 ], [ -1.2211656, 42.9663047 ], [ -1.2206556, 42.9672462 ], [ -1.2205648, 42.9676067 ], [ -1.2204325, 42.9682322 ], [ -1.2201327, 42.9695917 ], [ -1.2200482, 42.9696529 ], [ -1.2198973, 42.9697546 ], [ -1.2197326, 42.9698843 ], [ -1.2194266, 42.9701047 ], [ -1.2190923, 42.9703488 ], [ -1.2186212, 42.970687 ], [ -1.2183883, 42.9708697 ], [ -1.2181874, 42.9710061 ], [ -1.2179434, 42.9712033 ], [ -1.2176391, 42.9714157 ], [ -1.2173791, 42.9715811 ], [ -1.2170964, 42.9717607 ], [ -1.2166493, 42.9720098 ], [ -1.2161176, 42.9723223 ], [ -1.2157214, 42.9725047 ], [ -1.2152481, 42.9727072 ], [ -1.2150275, 42.972809 ], [ -1.2149724, 42.9728312 ], [ -1.2147489, 42.9729285 ], [ -1.214307, 42.9731264 ], [ -1.2138418, 42.9733375 ], [ -1.2131527, 42.9736065 ], [ -1.2125793, 42.9738193 ], [ -1.2117036, 42.9742316 ], [ -1.2113925, 42.9743899 ], [ -1.2111576, 42.9745331 ], [ -1.2102157, 42.9751392 ], [ -1.2096401, 42.9754819 ], [ -1.2087707, 42.9759652 ], [ -1.2076999, 42.9765732 ], [ -1.2070686, 42.9769347 ], [ -1.2056823, 42.9777138 ], [ -1.2039404, 42.9787035 ], [ -1.2031654, 42.9792045 ], [ -1.2020689, 42.9798233 ], [ -1.2023538, 42.9791738 ], [ -1.2026478, 42.978346 ], [ -1.2029174, 42.9774841 ], [ -1.2029291, 42.9774505 ], [ -1.2031914, 42.9767101 ], [ -1.2032543, 42.9764995 ], [ -1.2033808, 42.9759178 ], [ -1.2034529, 42.9754682 ], [ -1.2034916, 42.9751147 ], [ -1.2035138, 42.9746153 ], [ -1.2033421, 42.9745896 ], [ -1.202864, 42.9745055 ], [ -1.2022378, 42.9743764 ], [ -1.2016564, 42.9742305 ], [ -1.2011555, 42.9740875 ], [ -1.2009784, 42.9740357 ], [ -1.2007771, 42.9739769 ], [ -1.2006662, 42.973943 ], [ -1.2005119, 42.9738961 ], [ -1.1997578, 42.9736327 ], [ -1.1993134, 42.9734687 ], [ -1.1989688, 42.973331 ], [ -1.1986043, 42.9731885 ], [ -1.1982068, 42.9730184 ], [ -1.1977767, 42.9728406 ], [ -1.1972151, 42.9726004 ], [ -1.1966201, 42.972322 ], [ -1.1963559, 42.9722064 ], [ -1.1960495, 42.9720721 ], [ -1.1960407, 42.9717439 ], [ -1.1960408, 42.9717394 ], [ -1.1960409, 42.9717107 ], [ -1.1960398, 42.9712745 ], [ -1.1960502, 42.9710265 ], [ -1.1960757, 42.9708338 ], [ -1.1961101, 42.9705755 ], [ -1.1961648, 42.9700423 ], [ -1.196185, 42.969876 ], [ -1.1961874, 42.9698192 ], [ -1.1961909, 42.9697528 ], [ -1.1961404, 42.9694903 ], [ -1.1960644, 42.9691256 ], [ -1.1959843, 42.9687737 ], [ -1.1959497, 42.9685936 ], [ -1.1959578, 42.9685009 ], [ -1.1959772, 42.9684139 ], [ -1.1960719, 42.9680834 ], [ -1.1961586, 42.9678163 ], [ -1.1962557, 42.9675111 ], [ -1.1963941, 42.967179 ], [ -1.1965519, 42.9668168 ], [ -1.1966219, 42.9666761 ], [ -1.1966483, 42.9666123 ], [ -1.1966575, 42.9665607 ], [ -1.1966448, 42.9664941 ], [ -1.1966022, 42.9664326 ], [ -1.1965523, 42.9663834 ], [ -1.1964165, 42.9662839 ], [ -1.19601, 42.9660879 ], [ -1.1957396, 42.9659795 ], [ -1.1955328, 42.9658963 ], [ -1.1945996, 42.9655213 ], [ -1.1938012, 42.9652319 ], [ -1.1912361, 42.9643499 ], [ -1.1895956, 42.9637414 ], [ -1.1885974, 42.9633148 ], [ -1.1874894, 42.9628419 ], [ -1.1868471, 42.9625627 ], [ -1.1866071, 42.9621487 ], [ -1.1864376, 42.9618674 ], [ -1.1862165, 42.96157 ], [ -1.1860299, 42.9613218 ], [ -1.1857323, 42.9609923 ], [ -1.1854627, 42.9607291 ], [ -1.1853992, 42.9606735 ], [ -1.1852882, 42.9605372 ], [ -1.1852443, 42.9604954 ], [ -1.1850326, 42.9602923 ], [ -1.1846374, 42.9599208 ], [ -1.1840956, 42.9594817 ], [ -1.183653, 42.9590294 ], [ -1.1835613, 42.9589177 ], [ -1.1834976, 42.9587883 ], [ -1.1834738, 42.9586073 ], [ -1.1834477, 42.9583778 ], [ -1.1833892, 42.9578119 ], [ -1.1833522, 42.9575878 ], [ -1.1832373, 42.957066 ], [ -1.183161, 42.9567147 ], [ -1.1830875, 42.9565053 ], [ -1.1830382, 42.9563306 ], [ -1.1830048, 42.9562445 ], [ -1.1829884, 42.9562009 ], [ -1.1829202, 42.9560192 ], [ -1.1828877, 42.9559539 ], [ -1.182848, 42.9558441 ], [ -1.1828285, 42.9557516 ], [ -1.1828048, 42.9555666 ], [ -1.1828001, 42.9553352 ], [ -1.1827934, 42.9550942 ], [ -1.1827888, 42.9548369 ], [ -1.1827905, 42.9548313 ], [ -1.1827922, 42.954824 ], [ -1.182857, 42.9546022 ], [ -1.1830145, 42.954092 ], [ -1.183231, 42.9534792 ], [ -1.1833621, 42.9529308 ], [ -1.1824775, 42.9530997 ], [ -1.1794126, 42.9527689 ], [ -1.1776217, 42.9523155 ], [ -1.1767931, 42.9521993 ], [ -1.1764179, 42.9521927 ], [ -1.1762136, 42.9521822 ], [ -1.1759912, 42.9521899 ], [ -1.1757828, 42.9522164 ], [ -1.1756714, 42.9522259 ], [ -1.1756091, 42.9522339 ], [ -1.1755186, 42.9522392 ], [ -1.1753805, 42.952219 ], [ -1.1750433, 42.9521179 ], [ -1.1745829, 42.951908 ], [ -1.1741861, 42.9517497 ], [ -1.1740298, 42.9516999 ], [ -1.1739072, 42.9516732 ], [ -1.1737401, 42.9516519 ], [ -1.1734762, 42.9516612 ], [ -1.1730516, 42.9517181 ], [ -1.1687291, 42.9504513 ], [ -1.1688374, 42.9506708 ], [ -1.1690069, 42.9509498 ], [ -1.1691319, 42.9512034 ], [ -1.1692621, 42.9514374 ], [ -1.1693681, 42.9517131 ], [ -1.169488, 42.951983 ], [ -1.1695898, 42.9522474 ], [ -1.1696851, 42.9524938 ], [ -1.169746, 42.9526619 ], [ -1.1697711, 42.9528238 ], [ -1.1697855, 42.9530351 ], [ -1.1697704, 42.9532346 ], [ -1.1697448, 42.9533755 ], [ -1.169732, 42.9534186 ], [ -1.1697226, 42.9534528 ], [ -1.169662, 42.9536601 ], [ -1.1695044, 42.9541162 ], [ -1.1692556, 42.9546801 ], [ -1.1691072, 42.9549546 ], [ -1.1689732, 42.9552626 ], [ -1.1688474, 42.9555769 ], [ -1.1686831, 42.9560025 ], [ -1.1685357, 42.9565269 ], [ -1.1684447, 42.9569864 ], [ -1.1683315, 42.957441 ], [ -1.168196, 42.9578266 ], [ -1.1681801, 42.9578708 ], [ -1.1680681, 42.9580553 ], [ -1.1679822, 42.9582149 ], [ -1.167864, 42.958374 ], [ -1.1677811, 42.95851 ], [ -1.1676706, 42.9587969 ], [ -1.1675259, 42.9591047 ], [ -1.1673745, 42.9593781 ], [ -1.1671941, 42.9597213 ], [ -1.1669986, 42.9600615 ], [ -1.1668331, 42.9604229 ], [ -1.1667048, 42.9607957 ], [ -1.1665695, 42.9611447 ], [ -1.1665371, 42.9612303 ], [ -1.166558, 42.9613764 ], [ -1.1665428, 42.9615253 ], [ -1.1663258, 42.9620233 ], [ -1.1661266, 42.9625097 ], [ -1.1661359, 42.9626376 ], [ -1.1661486, 42.9628522 ], [ -1.1661684, 42.9630377 ], [ -1.1662556, 42.963325 ], [ -1.1663686, 42.9636223 ], [ -1.1664461, 42.963879 ], [ -1.1665744, 42.9641512 ], [ -1.1666676, 42.9643666 ], [ -1.1667057, 42.9645017 ], [ -1.1666646, 42.9646491 ], [ -1.1666149, 42.9646944 ], [ -1.1665106, 42.9647524 ], [ -1.1664522, 42.9648067 ], [ -1.1663893, 42.9649891 ], [ -1.1663567, 42.9652109 ], [ -1.1662594, 42.9655447 ], [ -1.1662783, 42.9656818 ], [ -1.1662452, 42.9658428 ], [ -1.1661666, 42.9662152 ], [ -1.1661071, 42.9665154 ], [ -1.1659722, 42.9668515 ], [ -1.1660134, 42.966936 ], [ -1.1661058, 42.9670759 ], [ -1.1663321, 42.9673778 ], [ -1.166377, 42.9674658 ], [ -1.1663112, 42.9675644 ], [ -1.1661762, 42.9676731 ], [ -1.1660001, 42.9678745 ], [ -1.165842, 42.9680363 ], [ -1.1656664, 42.9681691 ], [ -1.1654259, 42.9683172 ], [ -1.1654031, 42.9683641 ], [ -1.1653853, 42.9684218 ], [ -1.1651474, 42.9686623 ], [ -1.1648536, 42.9689806 ], [ -1.1648232, 42.9690493 ], [ -1.1648234, 42.9691478 ], [ -1.1648576, 42.9692592 ], [ -1.1649702, 42.9694929 ], [ -1.1651172, 42.9697547 ], [ -1.1652579, 42.9700237 ], [ -1.1654417, 42.9703126 ], [ -1.1656472, 42.9706412 ], [ -1.1658229, 42.9709198 ], [ -1.1659999, 42.9712034 ], [ -1.166124, 42.9713867 ], [ -1.1663002, 42.9715167 ], [ -1.1665059, 42.9716095 ], [ -1.1669506, 42.9717854 ], [ -1.1671888, 42.9718934 ], [ -1.1672663, 42.9719661 ], [ -1.1673833, 42.9721036 ], [ -1.1675331, 42.9722203 ], [ -1.1676603, 42.9722988 ], [ -1.167812, 42.9723514 ], [ -1.1680046, 42.9723978 ], [ -1.1682953, 42.9724666 ], [ -1.1684977, 42.9725666 ], [ -1.1686066, 42.9726697 ], [ -1.1686198, 42.9727397 ], [ -1.1685238, 42.9728513 ], [ -1.1683993, 42.9729916 ], [ -1.1681815, 42.9732015 ], [ -1.1680261, 42.9733239 ], [ -1.167916, 42.9734713 ], [ -1.1678238, 42.9736319 ], [ -1.1678169, 42.97371 ], [ -1.1678377, 42.9738094 ], [ -1.1679219, 42.9739436 ], [ -1.1680438, 42.9741977 ], [ -1.1681441, 42.9744092 ], [ -1.1682601, 42.9746829 ], [ -1.1683491, 42.9748081 ], [ -1.1684309, 42.9748933 ], [ -1.1685307, 42.9749641 ], [ -1.1685891, 42.9750118 ], [ -1.1686359, 42.9751397 ], [ -1.1685778, 42.9753149 ], [ -1.1684764, 42.9755306 ], [ -1.1684334, 42.9756593 ], [ -1.1684399, 42.975754 ], [ -1.168498, 42.9758106 ], [ -1.1686191, 42.9759127 ], [ -1.168644, 42.9761821 ], [ -1.1687049, 42.9766108 ], [ -1.1686875, 42.976731 ], [ -1.1686269, 42.9769129 ], [ -1.1686514, 42.9771221 ], [ -1.16875, 42.9773353 ], [ -1.1688109, 42.9774809 ], [ -1.1688681, 42.9775162 ], [ -1.1689019, 42.9775899 ], [ -1.1690118, 42.9777869 ], [ -1.1691357, 42.9780264 ], [ -1.1691621, 42.9783246 ], [ -1.1692222, 42.9784944 ], [ -1.1693147, 42.9786596 ], [ -1.1694056, 42.9787731 ], [ -1.1694953, 42.9788488 ], [ -1.1696022, 42.9789417 ], [ -1.1696203, 42.9791834 ], [ -1.1697532, 42.9794078 ], [ -1.1698613, 42.9796364 ], [ -1.1699036, 42.9798121 ], [ -1.1699166, 42.9800453 ], [ -1.1699102, 42.9803665 ], [ -1.1699107, 42.9806057 ], [ -1.1699508, 42.9808833 ], [ -1.1699255, 42.9810112 ], [ -1.1698404, 42.9812175 ], [ -1.1696574, 42.9814442 ], [ -1.1694941, 42.9816768 ], [ -1.1693665, 42.9818458 ], [ -1.169281, 42.981988 ], [ -1.1691916, 42.9821312 ], [ -1.1692082, 42.9822446 ], [ -1.1692614, 42.9823895 ], [ -1.1693705, 42.9826153 ], [ -1.1695374, 42.9829314 ], [ -1.1696849, 42.983231 ], [ -1.169855, 42.9834886 ], [ -1.1698772, 42.9836212 ], [ -1.1698279, 42.983706 ], [ -1.1696253, 42.9838434 ], [ -1.169387, 42.9839955 ], [ -1.1692608, 42.9841651 ], [ -1.1691629, 42.9843628 ], [ -1.1690182, 42.9844877 ], [ -1.1689581, 42.984574 ], [ -1.1688822, 42.9848074 ], [ -1.1688132, 42.9849375 ], [ -1.1687626, 42.9849901 ], [ -1.1687193, 42.9850029 ], [ -1.1685861, 42.9849192 ], [ -1.1683777, 42.9848117 ], [ -1.168058, 42.984734 ], [ -1.1675073, 42.9846408 ], [ -1.1670505, 42.9845637 ], [ -1.1666845, 42.9845493 ], [ -1.1664329, 42.9845813 ], [ -1.1660844, 42.9846219 ], [ -1.1657908, 42.9846752 ], [ -1.1655983, 42.9847036 ], [ -1.1654782, 42.9847202 ], [ -1.1651619, 42.9846853 ], [ -1.1650422, 42.9846626 ], [ -1.164469, 42.9845526 ], [ -1.1640565, 42.9845055 ], [ -1.1638415, 42.9844908 ], [ -1.1634714, 42.9843818 ], [ -1.163143, 42.9842392 ], [ -1.1629464, 42.9841477 ], [ -1.1625071, 42.9839966 ], [ -1.1619215, 42.9838144 ], [ -1.1616099, 42.9837497 ], [ -1.1613713, 42.9837318 ], [ -1.1611726, 42.9837624 ], [ -1.1609424, 42.9838206 ], [ -1.1607177, 42.9839019 ], [ -1.1604179, 42.9840074 ], [ -1.1601515, 42.9840983 ], [ -1.1596501, 42.9842793 ], [ -1.1594511, 42.9843453 ], [ -1.1591609, 42.9843879 ], [ -1.1589118, 42.9844363 ], [ -1.158643, 42.9845062 ], [ -1.1584604, 42.9845618 ], [ -1.1582537, 42.984657 ], [ -1.1579302, 42.9848369 ], [ -1.1576532, 42.9850232 ], [ -1.1576195, 42.985048 ], [ -1.1575592, 42.9850926 ], [ -1.1572, 42.9853874 ], [ -1.1568681, 42.9856437 ], [ -1.1564799, 42.9859605 ], [ -1.1562718, 42.9861789 ], [ -1.1561833, 42.9863688 ], [ -1.1561551, 42.9865164 ], [ -1.1561832, 42.9866536 ], [ -1.1563168, 42.9868004 ], [ -1.1567098, 42.9870673 ], [ -1.1569431, 42.9872376 ], [ -1.1570768, 42.9873799 ], [ -1.1571651, 42.9874787 ], [ -1.1572129, 42.9875723 ], [ -1.1572384, 42.9876696 ], [ -1.1572489, 42.987753 ], [ -1.1572433, 42.9878891 ], [ -1.1571676, 42.9880883 ], [ -1.1570675, 42.9882043 ], [ -1.156882, 42.9883313 ], [ -1.1566944, 42.988429 ], [ -1.156535, 42.9885035 ], [ -1.1563402, 42.9885556 ], [ -1.156188, 42.9885711 ], [ -1.1560492, 42.9885711 ], [ -1.1558173, 42.988533 ], [ -1.1555669, 42.9884452 ], [ -1.1552899, 42.9882994 ], [ -1.1551413, 42.988171 ], [ -1.1549164, 42.987896 ], [ -1.154618, 42.9874691 ], [ -1.1543783, 42.9871546 ], [ -1.1543022, 42.9870313 ], [ -1.1540754, 42.986901 ], [ -1.1537832, 42.9867747 ], [ -1.1536353, 42.9867481 ], [ -1.1534596, 42.9867543 ], [ -1.1532376, 42.9868469 ], [ -1.1530003, 42.9869387 ], [ -1.1529011, 42.986972 ], [ -1.1528386, 42.9869885 ], [ -1.152714, 42.986973 ], [ -1.152363, 42.9868936 ], [ -1.1521804, 42.9868743 ], [ -1.1519428, 42.9868992 ], [ -1.1516814, 42.9869501 ], [ -1.1513666, 42.9870418 ], [ -1.1510316, 42.9871956 ], [ -1.1506523, 42.9874203 ], [ -1.1501818, 42.9877199 ], [ -1.1497585, 42.9879798 ], [ -1.1495759, 42.988063 ], [ -1.1494402, 42.9880861 ], [ -1.1493037, 42.9880895 ], [ -1.1490848, 42.9880263 ], [ -1.1487153, 42.9879005 ], [ -1.148129, 42.9876895 ], [ -1.1478624, 42.9876334 ], [ -1.1476258, 42.9876234 ], [ -1.1472274, 42.98764 ], [ -1.1469928, 42.9876942 ], [ -1.1465501, 42.9879605 ], [ -1.1463371, 42.9881844 ], [ -1.1462014, 42.9883381 ], [ -1.1460934, 42.9886166 ], [ -1.1460013, 42.9889016 ], [ -1.1459395, 42.9892991 ], [ -1.1458796, 42.9896583 ], [ -1.1458474, 42.9897861 ], [ -1.1459062, 42.9899727 ], [ -1.1459757, 42.990262 ], [ -1.1460552, 42.9905729 ], [ -1.1461444, 42.9908703 ], [ -1.1462855, 42.9911771 ], [ -1.1464448, 42.9915111 ], [ -1.1466049, 42.9918728 ], [ -1.146741, 42.9922684 ], [ -1.1468174, 42.9926568 ], [ -1.146891, 42.993245 ], [ -1.1470016, 42.9937224 ], [ -1.1470533, 42.994169 ], [ -1.1470775, 42.9945886 ], [ -1.147118, 42.9948729 ], [ -1.1471176, 42.9951931 ], [ -1.1471313, 42.9957055 ], [ -1.1470716, 42.9960344 ], [ -1.1470042, 42.9962105 ], [ -1.1468792, 42.9964415 ], [ -1.1466545, 42.9966968 ], [ -1.1463427, 42.9969962 ], [ -1.1460804, 42.9972277 ], [ -1.1458149, 42.9974131 ], [ -1.1457214, 42.9975404 ], [ -1.145637, 42.9977951 ], [ -1.1456099, 42.9979579 ], [ -1.145575, 42.9981504 ], [ -1.1455685, 42.9983917 ], [ -1.1455909, 42.9986628 ], [ -1.1456155, 42.9988664 ], [ -1.1456822, 42.9990464 ], [ -1.1457446, 42.9992151 ], [ -1.1458476, 42.9993586 ], [ -1.145964, 42.9995406 ], [ -1.1460038, 42.9998491 ], [ -1.1460323, 43.0000224 ], [ -1.1460603, 43.0001129 ], [ -1.1460476, 43.0001791 ], [ -1.1459886, 43.0002788 ], [ -1.1458884, 43.000347 ], [ -1.1458392, 43.0003783 ], [ -1.1456544, 43.0004293 ], [ -1.1454607, 43.0005202 ], [ -1.1452757, 43.0006545 ], [ -1.1450851, 43.0007955 ], [ -1.1449664, 43.000919 ], [ -1.1448889, 43.00105 ], [ -1.1448438, 43.0012969 ], [ -1.1448379, 43.0015946 ], [ -1.1448509, 43.0017743 ], [ -1.144884, 43.0018987 ], [ -1.1450217, 43.002112 ], [ -1.1451347, 43.0022567 ], [ -1.1451888, 43.0023702 ], [ -1.1451908, 43.00248 ], [ -1.1450697, 43.0027104 ], [ -1.1448172, 43.0029945 ], [ -1.1444867, 43.0033262 ], [ -1.1439845, 43.00381 ], [ -1.1438092, 43.0039512 ], [ -1.1437026, 43.0040789 ], [ -1.1436175, 43.0042323 ], [ -1.1435403, 43.0044781 ], [ -1.1434475, 43.0045796 ], [ -1.1432491, 43.0047013 ], [ -1.1429397, 43.0048409 ], [ -1.1427527, 43.0049139 ], [ -1.1426653, 43.0049648 ], [ -1.1425979, 43.0050622 ], [ -1.1424783, 43.0055442 ], [ -1.1423969, 43.0059296 ], [ -1.1422246, 43.0062515 ], [ -1.1420783, 43.0065519 ], [ -1.1419852, 43.0067406 ], [ -1.1419555, 43.0068375 ], [ -1.1419767, 43.007252 ], [ -1.1419363, 43.0074472 ], [ -1.1418544, 43.0076187 ] ] ] } }
]
}
