{
"type": "FeatureCollection",
"name": "31908",
"features": [
{ "type": "Feature", "properties": { "CCAA": "15 - Comunidad Foral de Navarra", "PROVINCIA": "31 - Navarra", "MUNICIPIO": "31908 - Lekunberri", "COD_MUNICIPIO": "31908", "DISTRITO": "01", "SECCION": "3190801001", "V1_H": 81.58, "V1_M": 86.83, "V2_H": 80.91860297, "V2_M": 86.63659936000001, "V3_H": 82.21677219, "V3_M": 87.10560157 }, "geometry": { "type": "Polygon", "coordinates": [ [ [ -1.8935896, 43.0147916 ], [ -1.8935163, 43.0149029 ], [ -1.8934443, 43.0149854 ], [ -1.8933793, 43.0150563 ], [ -1.8933129, 43.0151266 ], [ -1.8932275, 43.0151826 ], [ -1.8931451, 43.0152426 ], [ -1.8930505, 43.0153013 ], [ -1.8929765, 43.0153648 ], [ -1.8928503, 43.0154722 ], [ -1.8926429, 43.0156598 ], [ -1.8925204, 43.0157757 ], [ -1.8924399, 43.0158605 ], [ -1.8923723, 43.0159527 ], [ -1.892321, 43.0160344 ], [ -1.892266, 43.0161464 ], [ -1.8921651, 43.0162985 ], [ -1.892093, 43.0164272 ], [ -1.8920223, 43.0165605 ], [ -1.891926, 43.0167127 ], [ -1.8918426, 43.01683 ], [ -1.8917449, 43.0169309 ], [ -1.8916726, 43.0170271 ], [ -1.8916218, 43.0170806 ], [ -1.8915193, 43.0171494 ], [ -1.8913693, 43.0172588 ], [ -1.8911599, 43.0173896 ], [ -1.8910649, 43.0174664 ], [ -1.8909876, 43.017545 ], [ -1.8909187, 43.0176186 ], [ -1.8908602, 43.0176743 ], [ -1.8908104, 43.0177593 ], [ -1.8907702, 43.017862 ], [ -1.8907383, 43.0179714 ], [ -1.8907192, 43.0180928 ], [ -1.8907069, 43.0181827 ], [ -1.8906997, 43.0183256 ], [ -1.8907047, 43.0184748 ], [ -1.8907098, 43.0186139 ], [ -1.8907266, 43.0187479 ], [ -1.8907646, 43.0188969 ], [ -1.8908389, 43.0190704 ], [ -1.8908829, 43.0193089 ], [ -1.8909268, 43.0195142 ], [ -1.8909626, 43.019653 ], [ -1.890995, 43.0197709 ], [ -1.8909857, 43.0198626 ], [ -1.8909509, 43.0200108 ], [ -1.8909158, 43.0201258 ], [ -1.8908574, 43.0202615 ], [ -1.8908051, 43.0203949 ], [ -1.8907405, 43.0205293 ], [ -1.8905899, 43.0208459 ], [ -1.8904943, 43.0210403 ], [ -1.8904399, 43.0211202 ], [ -1.8903606, 43.0212224 ], [ -1.8902895, 43.0212966 ], [ -1.8901754, 43.0213715 ], [ -1.8900076, 43.0214458 ], [ -1.8898134, 43.0215368 ], [ -1.8897266, 43.0215872 ], [ -1.8896688, 43.0216457 ], [ -1.8896264, 43.0216976 ], [ -1.8896256, 43.0217443 ], [ -1.8896403, 43.0217811 ], [ -1.8896837, 43.0218395 ], [ -1.8897562, 43.0219043 ], [ -1.8899057, 43.0220346 ], [ -1.8901176, 43.0221937 ], [ -1.8902885, 43.022331 ], [ -1.8905227, 43.0225314 ], [ -1.8906347, 43.0226546 ], [ -1.8907485, 43.0227671 ], [ -1.8908413, 43.0228542 ], [ -1.8909194, 43.0229483 ], [ -1.8910116, 43.0230674 ], [ -1.8911032, 43.0231764 ], [ -1.8911942, 43.0232786 ], [ -1.8912737, 43.0233812 ], [ -1.891374, 43.0235156 ], [ -1.8914569, 43.0236396 ], [ -1.8915202, 43.0237488 ], [ -1.891578, 43.0238631 ], [ -1.8916384, 43.0239993 ], [ -1.8917085, 43.0241525 ], [ -1.8917944, 43.0243666 ], [ -1.8918788, 43.0245369 ], [ -1.8910047, 43.0276266 ], [ -1.8926632, 43.0295889 ], [ -1.894789, 43.0288204 ], [ -1.8958362, 43.0282604 ], [ -1.8977524, 43.0272354 ], [ -1.8997675, 43.0255715 ], [ -1.9019742, 43.0234349 ], [ -1.903623, 43.021993 ], [ -1.904836, 43.021587 ], [ -1.9060495, 43.021158 ], [ -1.906423, 43.0210321 ], [ -1.9069075, 43.0208696 ], [ -1.9081171, 43.0204393 ], [ -1.9136723, 43.0194634 ], [ -1.9141156, 43.0189898 ], [ -1.9151632, 43.0178685 ], [ -1.9158401, 43.0171028 ], [ -1.9168461, 43.0159856 ], [ -1.9174301, 43.0154446 ], [ -1.9178632, 43.0150615 ], [ -1.9205625, 43.0150054 ], [ -1.9231184, 43.0150706 ], [ -1.9248742, 43.0148822 ], [ -1.924882, 43.0146127 ], [ -1.9248536, 43.0142579 ], [ -1.9248015, 43.013909 ], [ -1.9247582, 43.0134888 ], [ -1.9247272, 43.0133697 ], [ -1.9246823, 43.0133113 ], [ -1.9246695, 43.0132955 ], [ -1.9246083, 43.0131548 ], [ -1.9245508, 43.0129758 ], [ -1.9245217, 43.0128877 ], [ -1.9245112, 43.0127869 ], [ -1.9245056, 43.012667 ], [ -1.9245074, 43.0125651 ], [ -1.9245183, 43.0124712 ], [ -1.9245393, 43.0123639 ], [ -1.924563, 43.0122319 ], [ -1.9246197, 43.0121097 ], [ -1.9246431, 43.0120368 ], [ -1.9246833, 43.0119747 ], [ -1.9247371, 43.0119279 ], [ -1.924793, 43.0118913 ], [ -1.924874, 43.0118594 ], [ -1.9249595, 43.0118377 ], [ -1.9250578, 43.0118302 ], [ -1.9251657, 43.0118419 ], [ -1.9252881, 43.0118639 ], [ -1.925421, 43.0118938 ], [ -1.9255605, 43.0119464 ], [ -1.9257103, 43.0120153 ], [ -1.9258143, 43.0120349 ], [ -1.9258937, 43.012057 ], [ -1.9260337, 43.0120785 ], [ -1.9261057, 43.0120798 ], [ -1.9262004, 43.0120604 ], [ -1.9264777, 43.0119927 ], [ -1.9267322, 43.0119107 ], [ -1.9270243, 43.0117828 ], [ -1.9271459, 43.0117153 ], [ -1.9272158, 43.0116631 ], [ -1.9272536, 43.0116043 ], [ -1.9273039, 43.0115383 ], [ -1.9273413, 43.0114593 ], [ -1.9273525, 43.0113886 ], [ -1.9273497, 43.0112855 ], [ -1.9273546, 43.0111792 ], [ -1.9273863, 43.0110782 ], [ -1.9274286, 43.0109846 ], [ -1.927468, 43.0108803 ], [ -1.9275011, 43.0107821 ], [ -1.9275139, 43.0107068 ], [ -1.9275105, 43.0106393 ], [ -1.9274737, 43.0105533 ], [ -1.9274509, 43.010449 ], [ -1.9274277, 43.0103711 ], [ -1.9274182, 43.0103024 ], [ -1.9274308, 43.0102372 ], [ -1.9274363, 43.0101427 ], [ -1.9274131, 43.0100693 ], [ -1.9273961, 43.0099881 ], [ -1.9273839, 43.009894 ], [ -1.9273968, 43.0098142 ], [ -1.9274155, 43.0097514 ], [ -1.9274311, 43.009693 ], [ -1.9274331, 43.0096232 ], [ -1.9274165, 43.0095623 ], [ -1.9273869, 43.009504 ], [ -1.9273574, 43.0094351 ], [ -1.9273179, 43.0091905 ], [ -1.9273071, 43.0090632 ], [ -1.9272939, 43.0089876 ], [ -1.9272457, 43.0088915 ], [ -1.9271872, 43.0088139 ], [ -1.9271325, 43.0087402 ], [ -1.9270911, 43.0086498 ], [ -1.9270644, 43.0085594 ], [ -1.9270653, 43.0084576 ], [ -1.9270668, 43.0083721 ], [ -1.9270768, 43.0082849 ], [ -1.9270768, 43.0081965 ], [ -1.9270706, 43.0081121 ], [ -1.9270604, 43.0080366 ], [ -1.9270434, 43.0079576 ], [ -1.9270003, 43.0078784 ], [ -1.9269581, 43.0077925 ], [ -1.9269428, 43.0077478 ], [ -1.9268453, 43.0076209 ], [ -1.9267695, 43.0075211 ], [ -1.9266588, 43.0074053 ], [ -1.9265581, 43.0072884 ], [ -1.9265058, 43.0072085 ], [ -1.9264556, 43.0071445 ], [ -1.9264112, 43.0070951 ], [ -1.9263613, 43.0070524 ], [ -1.9263081, 43.0070226 ], [ -1.926251, 43.0070018 ], [ -1.9261998, 43.006994 ], [ -1.9261064, 43.0069403 ], [ -1.9260473, 43.0068952 ], [ -1.926013, 43.0068437 ], [ -1.9259834, 43.0067765 ], [ -1.9259623, 43.0067155 ], [ -1.9259402, 43.0066618 ], [ -1.9259095, 43.0066216 ], [ -1.9258429, 43.006568 ], [ -1.9256454, 43.0064153 ], [ -1.9256007, 43.0063418 ], [ -1.9255817, 43.0062848 ], [ -1.9255778, 43.0062436 ], [ -1.9255918, 43.0061931 ], [ -1.9256087, 43.0061443 ], [ -1.9256217, 43.0061016 ], [ -1.9256205, 43.0060448 ], [ -1.925603, 43.0059872 ], [ -1.9255461, 43.0059118 ], [ -1.9254837, 43.0058409 ], [ -1.9254268, 43.0057627 ], [ -1.9253661, 43.0056805 ], [ -1.925331, 43.0055806 ], [ -1.9252796, 43.0054478 ], [ -1.9252274, 43.0053207 ], [ -1.9251806, 43.0051891 ], [ -1.9251424, 43.0050509 ], [ -1.9251256, 43.0049601 ], [ -1.9251073, 43.0048676 ], [ -1.9251122, 43.0048024 ], [ -1.9251153, 43.0047602 ], [ -1.9251044, 43.0047246 ], [ -1.9250689, 43.0046934 ], [ -1.9250133, 43.0046703 ], [ -1.9249508, 43.0046478 ], [ -1.9248683, 43.004629 ], [ -1.9246227, 43.0045519 ], [ -1.9244964, 43.0044994 ], [ -1.9243984, 43.0044456 ], [ -1.9243022, 43.0043755 ], [ -1.9241797, 43.0042792 ], [ -1.924052, 43.00417 ], [ -1.9239265, 43.0040669 ], [ -1.9237863, 43.0039682 ], [ -1.9237093, 43.0039022 ], [ -1.9236422, 43.0038357 ], [ -1.92358, 43.0037519 ], [ -1.923507, 43.0036718 ], [ -1.9233986, 43.0036027 ], [ -1.9232821, 43.0035571 ], [ -1.9231853, 43.0035236 ], [ -1.9230905, 43.0035052 ], [ -1.9228807, 43.0034464 ], [ -1.9228373, 43.0034235 ], [ -1.9228156, 43.0033957 ], [ -1.9228169, 43.0033653 ], [ -1.9228357, 43.0033436 ], [ -1.9228407, 43.0033149 ], [ -1.9228217, 43.0032658 ], [ -1.9227598, 43.0032106 ], [ -1.9226871, 43.0031598 ], [ -1.9225704, 43.0030777 ], [ -1.922497, 43.0030224 ], [ -1.9224211, 43.0029744 ], [ -1.9223528, 43.0029378 ], [ -1.9222619, 43.0029178 ], [ -1.9222603, 43.0029633 ], [ -1.9222355, 43.0030205 ], [ -1.9221823, 43.0030836 ], [ -1.9220981, 43.0031199 ], [ -1.9220076, 43.0031191 ], [ -1.9219424, 43.0030785 ], [ -1.9218991, 43.0029667 ], [ -1.921863, 43.0028797 ], [ -1.9218094, 43.0028347 ], [ -1.9217355, 43.0028469 ], [ -1.9216785, 43.0028183 ], [ -1.9216101, 43.0027417 ], [ -1.9214885, 43.0026364 ], [ -1.9212677, 43.0025454 ], [ -1.9210528, 43.0024662 ], [ -1.9208933, 43.002427 ], [ -1.9207698, 43.0023403 ], [ -1.9206523, 43.0022655 ], [ -1.9206021, 43.0021913 ], [ -1.9206668, 43.0020895 ], [ -1.9207104, 43.0020116 ], [ -1.9206889, 43.0019259 ], [ -1.9205789, 43.0018522 ], [ -1.9205052, 43.0018167 ], [ -1.9204447, 43.001811 ], [ -1.9203901, 43.0018657 ], [ -1.920368, 43.0019448 ], [ -1.9203181, 43.0020349 ], [ -1.9202339, 43.0020679 ], [ -1.9201356, 43.0020327 ], [ -1.9201018, 43.0019502 ], [ -1.9200351, 43.0018618 ], [ -1.9199339, 43.001818 ], [ -1.9198705, 43.0017634 ], [ -1.9198158, 43.0016875 ], [ -1.9197334, 43.0016648 ], [ -1.9196676, 43.001699 ], [ -1.9195902, 43.0017388 ], [ -1.9195401, 43.0017524 ], [ -1.9194868, 43.001735 ], [ -1.9194487, 43.0016311 ], [ -1.9194426, 43.0015449 ], [ -1.9193854, 43.0014808 ], [ -1.9192664, 43.0014864 ], [ -1.9191947, 43.0015116 ], [ -1.9191343, 43.0015026 ], [ -1.9190999, 43.0014933 ], [ -1.9190486, 43.0014506 ], [ -1.919049, 43.0014258 ], [ -1.9189868, 43.0012975 ], [ -1.918958, 43.0011953 ], [ -1.9189684, 43.0011662 ], [ -1.9187875, 43.0012528 ], [ -1.9186903, 43.0012885 ], [ -1.9185623, 43.0012811 ], [ -1.9184565, 43.0012812 ], [ -1.9183505, 43.0012903 ], [ -1.9182021, 43.0013565 ], [ -1.9180735, 43.0014797 ], [ -1.9179369, 43.00161 ], [ -1.9177773, 43.0017076 ], [ -1.9176093, 43.0018422 ], [ -1.917465, 43.0018965 ], [ -1.9173202, 43.0019717 ], [ -1.9172085, 43.0020033 ], [ -1.9171209, 43.0020126 ], [ -1.9169925, 43.0019894 ], [ -1.916869, 43.0019905 ], [ -1.9167848, 43.0020252 ], [ -1.9167508, 43.0020868 ], [ -1.9167942, 43.0021491 ], [ -1.9168481, 43.0021794 ], [ -1.9168957, 43.0022187 ], [ -1.9169059, 43.0022475 ], [ -1.9168961, 43.0022818 ], [ -1.9168703, 43.0023136 ], [ -1.9168247, 43.0023289 ], [ -1.9167655, 43.0023362 ], [ -1.9166921, 43.002331 ], [ -1.9166273, 43.0023074 ], [ -1.9165651, 43.0023124 ], [ -1.916502, 43.0023253 ], [ -1.9164638, 43.0023615 ], [ -1.9164554, 43.0024014 ], [ -1.9165014, 43.002448 ], [ -1.9165784, 43.0024679 ], [ -1.9166573, 43.0025181 ], [ -1.9166994, 43.0025669 ], [ -1.9167166, 43.0026357 ], [ -1.9166771, 43.0027451 ], [ -1.9166366, 43.0028235 ], [ -1.9166029, 43.0028688 ], [ -1.9165348, 43.002898 ], [ -1.9164273, 43.0029082 ], [ -1.9163346, 43.0028612 ], [ -1.9162567, 43.0027974 ], [ -1.916215, 43.0027695 ], [ -1.9161274, 43.0027399 ], [ -1.9160539, 43.0027313 ], [ -1.9159603, 43.0027338 ], [ -1.915904, 43.0027513 ], [ -1.9158899, 43.0027669 ], [ -1.9158893, 43.0028052 ], [ -1.9159191, 43.0028544 ], [ -1.9159198, 43.0028989 ], [ -1.9159044, 43.0029494 ], [ -1.9158769, 43.0029868 ], [ -1.9158428, 43.0030068 ], [ -1.9157814, 43.0030096 ], [ -1.9157571, 43.002997 ], [ -1.9157317, 43.0029568 ], [ -1.9156107, 43.0027744 ], [ -1.9155451, 43.002713 ], [ -1.9154125, 43.0026679 ], [ -1.9153432, 43.0026773 ], [ -1.9152204, 43.0027302 ], [ -1.9149695, 43.002828 ], [ -1.914883, 43.0028604 ], [ -1.9148177, 43.0028688 ], [ -1.9147639, 43.0028728 ], [ -1.9146992, 43.0028491 ], [ -1.914656, 43.0027766 ], [ -1.9146649, 43.0027058 ], [ -1.9146653, 43.002636 ], [ -1.9146379, 43.0025839 ], [ -1.9145797, 43.0025339 ], [ -1.9145057, 43.0025174 ], [ -1.9144605, 43.0025086 ], [ -1.9144187, 43.0024913 ], [ -1.9143819, 43.002492 ], [ -1.9143684, 43.0025122 ], [ -1.9143506, 43.0025694 ], [ -1.9143305, 43.0026193 ], [ -1.9143001, 43.00265 ], [ -1.9142695, 43.0026874 ], [ -1.9142286, 43.0027039 ], [ -1.9141557, 43.0027099 ], [ -1.9138738, 43.0026476 ], [ -1.9137045, 43.0025965 ], [ -1.9136294, 43.0025474 ], [ -1.9135454, 43.0024858 ], [ -1.9134585, 43.002454 ], [ -1.913347, 43.002431 ], [ -1.913229, 43.0024209 ], [ -1.9130971, 43.0023836 ], [ -1.9130432, 43.0023499 ], [ -1.9129927, 43.0023027 ], [ -1.9129494, 43.0022342 ], [ -1.9129005, 43.0021814 ], [ -1.9128573, 43.0021534 ], [ -1.9127611, 43.0021283 ], [ -1.9127126, 43.002138 ], [ -1.9126671, 43.0021533 ], [ -1.9126157, 43.002155 ], [ -1.9125552, 43.0021488 ], [ -1.9125143, 43.002122 ], [ -1.9124866, 43.002084 ], [ -1.9124307, 43.0019518 ], [ -1.9124191, 43.0019095 ], [ -1.9124215, 43.0018633 ], [ -1.9124415, 43.0018157 ], [ -1.9124905, 43.0017773 ], [ -1.9125548, 43.0017425 ], [ -1.9126473, 43.0017124 ], [ -1.9126884, 43.001688 ], [ -1.9127097, 43.0016561 ], [ -1.9126903, 43.0016205 ], [ -1.912622, 43.0015805 ], [ -1.9125493, 43.0015753 ], [ -1.9124741, 43.0015746 ], [ -1.9124011, 43.001584 ], [ -1.9123255, 43.0016108 ], [ -1.9122672, 43.001657 ], [ -1.9122197, 43.0017432 ], [ -1.9121792, 43.001816 ], [ -1.9121513, 43.0018765 ], [ -1.912122, 43.0019308 ], [ -1.912083, 43.0019698 ], [ -1.9120481, 43.0019921 ], [ -1.9119848, 43.0020157 ], [ -1.9119133, 43.0020273 ], [ -1.9118152, 43.0020213 ], [ -1.9115705, 43.0019408 ], [ -1.9114861, 43.0019023 ], [ -1.9114401, 43.0018563 ], [ -1.9114163, 43.0018121 ], [ -1.911434, 43.0017723 ], [ -1.9114972, 43.0017482 ], [ -1.9115688, 43.0017325 ], [ -1.9116292, 43.0016999 ], [ -1.9116675, 43.0016614 ], [ -1.9116727, 43.0016215 ], [ -1.9116506, 43.0015746 ], [ -1.9116182, 43.0015411 ], [ -1.9115765, 43.001512 ], [ -1.9115148, 43.0014906 ], [ -1.9114466, 43.0014877 ], [ -1.9113758, 43.0014994 ], [ -1.911304, 43.0015274 ], [ -1.9112393, 43.001547 ], [ -1.9111674, 43.0015796 ], [ -1.9110783, 43.0015877 ], [ -1.9109832, 43.0015879 ], [ -1.9109227, 43.0015868 ], [ -1.910873, 43.0015751 ], [ -1.9108345, 43.0015449 ], [ -1.9107996, 43.0015203 ], [ -1.9107577, 43.0015064 ], [ -1.91069, 43.0015193 ], [ -1.9106459, 43.001538 ], [ -1.9105844, 43.0015915 ], [ -1.9104821, 43.001698 ], [ -1.9104146, 43.0017407 ], [ -1.910339, 43.0017658 ], [ -1.9102614, 43.0017786 ], [ -1.9101724, 43.0017778 ], [ -1.9101106, 43.0017637 ], [ -1.9100496, 43.0017411 ], [ -1.9100119, 43.0017042 ], [ -1.909999, 43.0016579 ], [ -1.9099889, 43.0016167 ], [ -1.9099943, 43.0015735 ], [ -1.9100265, 43.0015287 ], [ -1.9100569, 43.0014998 ], [ -1.9100531, 43.0014581 ], [ -1.910019, 43.001433 ], [ -1.9099542, 43.0014149 ], [ -1.9098754, 43.0014035 ], [ -1.9094139, 43.0013963 ], [ -1.9092693, 43.0013763 ], [ -1.9090974, 43.0013426 ], [ -1.9089708, 43.0013031 ], [ -1.9088102, 43.0012374 ], [ -1.9086756, 43.001172 ], [ -1.9085717, 43.0011063 ], [ -1.9084758, 43.0010676 ], [ -1.9083842, 43.0010437 ], [ -1.9082651, 43.0010172 ], [ -1.907919, 43.0009436 ], [ -1.9077099, 43.0008909 ], [ -1.9075685, 43.0008631 ], [ -1.9074209, 43.0008409 ], [ -1.9072215, 43.0008396 ], [ -1.907094, 43.0008541 ], [ -1.9067851, 43.0009356 ], [ -1.9065972, 43.0009816 ], [ -1.9064452, 43.0010314 ], [ -1.9063299, 43.0010894 ], [ -1.9060724, 43.001254 ], [ -1.9059976, 43.0013203 ], [ -1.9059254, 43.0013737 ], [ -1.9058494, 43.0014197 ], [ -1.9057618, 43.0014312 ], [ -1.9056762, 43.0014141 ], [ -1.9056115, 43.0013847 ], [ -1.9055739, 43.0013421 ], [ -1.9055199, 43.0013186 ], [ -1.9054293, 43.0013278 ], [ -1.9053404, 43.0013225 ], [ -1.905265, 43.0012964 ], [ -1.9052266, 43.0012544 ], [ -1.9052104, 43.0012165 ], [ -1.9052397, 43.0011645 ], [ -1.9052525, 43.0011348 ], [ -1.9052134, 43.0010911 ], [ -1.905141, 43.0010234 ], [ -1.9051099, 43.0009606 ], [ -1.9051156, 43.0008588 ], [ -1.9051876, 43.0007756 ], [ -1.9052779, 43.0007022 ], [ -1.9053621, 43.0006208 ], [ -1.9053817, 43.0005124 ], [ -1.9053818, 43.0005034 ], [ -1.9052006, 43.0005619 ], [ -1.9050353, 43.0005845 ], [ -1.9048374, 43.0005911 ], [ -1.9046513, 43.0006225 ], [ -1.9045313, 43.000641 ], [ -1.9044345, 43.0006542 ], [ -1.9042929, 43.0006376 ], [ -1.9042113, 43.0005671 ], [ -1.9041367, 43.000366 ], [ -1.9041069, 43.0002723 ], [ -1.9040613, 43.000206 ], [ -1.9039801, 43.000158 ], [ -1.903888, 43.0001222 ], [ -1.903796, 43.0001236 ], [ -1.9037088, 43.0001503 ], [ -1.9036547, 43.0002212 ], [ -1.9036335, 43.0002914 ], [ -1.9035962, 43.0003614 ], [ -1.9035634, 43.0003954 ], [ -1.9035199, 43.0004265 ], [ -1.9034859, 43.0004391 ], [ -1.9034299, 43.0004397 ], [ -1.9033643, 43.0004216 ], [ -1.9032969, 43.0003771 ], [ -1.9032535, 43.0003131 ], [ -1.9031805, 43.0001936 ], [ -1.9031179, 43.0000951 ], [ -1.9030428, 43.0000049 ], [ -1.9029902, 42.9999869 ], [ -1.902876, 42.9999836 ], [ -1.9026313, 42.9999886 ], [ -1.9024101, 42.9999651 ], [ -1.9021087, 42.9998856 ], [ -1.9018659, 42.9998253 ], [ -1.9016132, 42.9997632 ], [ -1.9014055, 42.9997128 ], [ -1.9011881, 42.9996505 ], [ -1.9009159, 42.9995663 ], [ -1.9006515, 42.999472 ], [ -1.9004174, 42.9993988 ], [ -1.9001984, 42.9993354 ], [ -1.9000235, 42.9993022 ], [ -1.8999661, 42.9992943 ], [ -1.899877, 42.9993031 ], [ -1.8997685, 42.9993245 ], [ -1.8996748, 42.9993298 ], [ -1.8995553, 42.9993281 ], [ -1.8994442, 42.9993186 ], [ -1.8992974, 42.9992969 ], [ -1.8991554, 42.9992623 ], [ -1.8990098, 42.9992153 ], [ -1.8989159, 42.9991885 ], [ -1.8988126, 42.9991386 ], [ -1.8987167, 42.9990544 ], [ -1.8986696, 42.9989886 ], [ -1.8986062, 42.9988884 ], [ -1.8985583, 42.9988198 ], [ -1.8985269, 42.9987801 ], [ -1.8984951, 42.9987562 ], [ -1.8984545, 42.9987508 ], [ -1.8983845, 42.9987613 ], [ -1.8982168, 42.9987969 ], [ -1.8980674, 42.9988286 ], [ -1.8979714, 42.9988395 ], [ -1.8979093, 42.9988378 ], [ -1.8978749, 42.9988324 ], [ -1.8978451, 42.9988259 ], [ -1.8978246, 42.9988179 ], [ -1.8978042, 42.9987985 ], [ -1.8977834, 42.9987612 ], [ -1.897775, 42.9987138 ], [ -1.8977697, 42.9986293 ], [ -1.8977573, 42.9985482 ], [ -1.8977492, 42.9984862 ], [ -1.897705, 42.9984306 ], [ -1.8976512, 42.9983946 ], [ -1.8976013, 42.9983548 ], [ -1.8975734, 42.9982853 ], [ -1.8975638, 42.9982199 ], [ -1.8975317, 42.9981706 ], [ -1.8974928, 42.9981607 ], [ -1.8974583, 42.9981586 ], [ -1.897424, 42.998151 ], [ -1.8973862, 42.9981191 ], [ -1.897361, 42.9980733 ], [ -1.8973399, 42.9980072 ], [ -1.8973398, 42.9979684 ], [ -1.8973158, 42.9979389 ], [ -1.8972844, 42.9979369 ], [ -1.897246, 42.9979416 ], [ -1.8972054, 42.9979407 ], [ -1.8971642, 42.9979273 ], [ -1.8971377, 42.9979079 ], [ -1.8970217, 42.9978342 ], [ -1.8969121, 42.9977938 ], [ -1.8968417, 42.9977829 ], [ -1.8967899, 42.9977616 ], [ -1.8967435, 42.9977437 ], [ -1.8967169, 42.99773 ], [ -1.8966897, 42.9977049 ], [ -1.8966773, 42.9976705 ], [ -1.8966795, 42.9976328 ], [ -1.8966979, 42.9975913 ], [ -1.8967211, 42.9975409 ], [ -1.8967136, 42.9974851 ], [ -1.8966658, 42.997412 ], [ -1.8966048, 42.9973518 ], [ -1.8965592, 42.9973294 ], [ -1.8965236, 42.9973077 ], [ -1.8965011, 42.9972782 ], [ -1.8964867, 42.9972246 ], [ -1.8965016, 42.9971634 ], [ -1.8965133, 42.9971117 ], [ -1.8965214, 42.9970443 ], [ -1.896504, 42.9969873 ], [ -1.8964586, 42.9969553 ], [ -1.8964063, 42.9969193 ], [ -1.8962692, 42.9968707 ], [ -1.896108, 42.9968332 ], [ -1.8959769, 42.996833 ], [ -1.8959118, 42.9968301 ], [ -1.8958432, 42.9968098 ], [ -1.8957489, 42.9967672 ], [ -1.8956836, 42.9967312 ], [ -1.8956402, 42.9967105 ], [ -1.8955969, 42.9966875 ], [ -1.8955553, 42.9966595 ], [ -1.8955272, 42.9966401 ], [ -1.8954976, 42.9966263 ], [ -1.8954731, 42.9966261 ], [ -1.8954415, 42.9966309 ], [ -1.8954137, 42.9966464 ], [ -1.8953786, 42.9966747 ], [ -1.8953385, 42.9966929 ], [ -1.8953022, 42.9967055 ], [ -1.8952699, 42.9967108 ], [ -1.8952354, 42.9967077 ], [ -1.8952211, 42.9966957 ], [ -1.8952156, 42.9966619 ], [ -1.8952234, 42.9966136 ], [ -1.8952273, 42.9965646 ], [ -1.8952243, 42.9965185 ], [ -1.8952111, 42.9964829 ], [ -1.8951802, 42.9964533 ], [ -1.8951384, 42.996436 ], [ -1.8950835, 42.9964135 ], [ -1.8950009, 42.9964032 ], [ -1.8949114, 42.9963944 ], [ -1.8948348, 42.9963898 ], [ -1.8947728, 42.9963847 ], [ -1.8947163, 42.9963684 ], [ -1.8946652, 42.9963572 ], [ -1.8945625, 42.9963517 ], [ -1.8943149, 42.9963059 ], [ -1.8941736, 42.9963147 ], [ -1.8940531, 42.9963254 ], [ -1.8939578, 42.9963796 ], [ -1.8939237, 42.9964023 ], [ -1.8938854, 42.9964436 ], [ -1.893834, 42.996487 ], [ -1.8937899, 42.9965463 ], [ -1.8937765, 42.9966137 ], [ -1.8937931, 42.9966718 ], [ -1.8938319, 42.9966857 ], [ -1.8938836, 42.9966727 ], [ -1.8939615, 42.9966419 ], [ -1.8940256, 42.9966161 ], [ -1.894066, 42.9966322 ], [ -1.8940939, 42.9966561 ], [ -1.894106, 42.9967103 ], [ -1.8940929, 42.9967535 ], [ -1.894072, 42.9968073 ], [ -1.8940425, 42.9968757 ], [ -1.8940322, 42.9969341 ], [ -1.8940394, 42.997004 ], [ -1.8940685, 42.9970909 ], [ -1.8940989, 42.9971464 ], [ -1.8941454, 42.9972082 ], [ -1.8941695, 42.9972754 ], [ -1.8941724, 42.9973261 ], [ -1.894162, 42.9973924 ], [ -1.8941472, 42.9974896 ], [ -1.8941303, 42.9976177 ], [ -1.8940911, 42.9977975 ], [ -1.8940874, 42.9978729 ], [ -1.8929098, 42.9982515 ], [ -1.8928958, 42.998302 ], [ -1.8928745, 42.9983783 ], [ -1.8928425, 42.9984517 ], [ -1.8928148, 42.9985455 ], [ -1.8927626, 42.9986744 ], [ -1.8926903, 42.9987744 ], [ -1.8925661, 42.9988566 ], [ -1.8924269, 42.9988766 ], [ -1.8922666, 42.9988835 ], [ -1.8920098, 42.9988827 ], [ -1.8917591, 42.9988746 ], [ -1.8915202, 42.9989016 ], [ -1.891348, 42.9989292 ], [ -1.8912754, 42.9989121 ], [ -1.89062, 42.9994562 ], [ -1.8905128, 42.9994873 ], [ -1.8904851, 42.9994954 ], [ -1.8904427, 42.9995085 ], [ -1.8902745, 42.9995632 ], [ -1.8900633, 42.9996287 ], [ -1.8898773, 42.9996938 ], [ -1.8897043, 42.9997631 ], [ -1.8894944, 42.9998376 ], [ -1.8894851, 42.9998409 ], [ -1.8894195, 42.9998633 ], [ -1.8893389, 42.9998698 ], [ -1.8890897, 42.9999136 ], [ -1.8887102, 42.9999926 ], [ -1.8885359, 43.0000055 ], [ -1.8884294, 43.0000028 ], [ -1.8883008, 42.9999937 ], [ -1.8881026, 42.9999721 ], [ -1.8877251, 42.9998992 ], [ -1.8876488, 42.9998776 ], [ -1.8875636, 42.9998807 ], [ -1.8874617, 42.9999169 ], [ -1.8873647, 42.9999413 ], [ -1.8872458, 42.9999851 ], [ -1.8871758, 42.9999974 ], [ -1.8871024, 42.9999843 ], [ -1.8870286, 42.9999566 ], [ -1.8869026, 42.9999261 ], [ -1.8867746, 42.9999197 ], [ -1.8866594, 42.9999305 ], [ -1.8865639, 42.9999549 ], [ -1.8864666, 42.9999944 ], [ -1.8863967, 43.0000433 ], [ -1.886228, 43.0001711 ], [ -1.8861677, 43.0002403 ], [ -1.8861472, 43.0003166 ], [ -1.886159, 43.0003831 ], [ -1.8861795, 43.0004351 ], [ -1.8861785, 43.0004886 ], [ -1.8861519, 43.0005215 ], [ -1.8860987, 43.0005373 ], [ -1.8860488, 43.000538 ], [ -1.8860054, 43.0005212 ], [ -1.8859851, 43.0004985 ], [ -1.8859567, 43.0004605 ], [ -1.8859226, 43.0004383 ], [ -1.8858895, 43.0004469 ], [ -1.8858597, 43.000481 ], [ -1.8858366, 43.0005258 ], [ -1.8858278, 43.0005921 ], [ -1.8857791, 43.0006991 ], [ -1.8856608, 43.0007953 ], [ -1.8855741, 43.0008423 ], [ -1.8854912, 43.0008871 ], [ -1.8854151, 43.0009393 ], [ -1.8853369, 43.000983 ], [ -1.8852612, 43.0010109 ], [ -1.8851882, 43.0010181 ], [ -1.8851222, 43.0010225 ], [ -1.8850693, 43.0010209 ], [ -1.8850274, 43.0010087 ], [ -1.8849811, 43.0009801 ], [ -1.8849227, 43.0009429 ], [ -1.8849473, 43.0014942 ], [ -1.8858713, 43.0022134 ], [ -1.8859479, 43.002477 ], [ -1.8860221, 43.0028255 ], [ -1.8860512, 43.0030363 ], [ -1.8860899, 43.0032286 ], [ -1.8861036, 43.0034454 ], [ -1.8861023, 43.0036862 ], [ -1.8860736, 43.0039207 ], [ -1.8860536, 43.0042171 ], [ -1.8860466, 43.0044776 ], [ -1.8860328, 43.005706 ], [ -1.8873959, 43.0074713 ], [ -1.8887599, 43.0080789 ], [ -1.890317, 43.0086608 ], [ -1.8905623, 43.0087521 ], [ -1.8917872, 43.0092074 ], [ -1.892014, 43.009262 ], [ -1.893422, 43.0099043 ], [ -1.8937105, 43.0101142 ], [ -1.8937056, 43.0102171 ], [ -1.8936888, 43.0103379 ], [ -1.893697, 43.0105221 ], [ -1.8937246, 43.0106039 ], [ -1.8937369, 43.0107352 ], [ -1.8937614, 43.0108215 ], [ -1.8938087, 43.0108811 ], [ -1.8938503, 43.0109125 ], [ -1.8938921, 43.0109337 ], [ -1.8939461, 43.0109533 ], [ -1.8940132, 43.0109804 ], [ -1.8940608, 43.0110175 ], [ -1.8940951, 43.0110741 ], [ -1.8941081, 43.0111598 ], [ -1.8941218, 43.0112505 ], [ -1.8941611, 43.0114141 ], [ -1.894162, 43.0115357 ], [ -1.8941633, 43.0116302 ], [ -1.8941611, 43.0117518 ], [ -1.8941502, 43.011849 ], [ -1.8941388, 43.0119711 ], [ -1.8941304, 43.012097 ], [ -1.8941458, 43.0122205 ], [ -1.8941454, 43.0123313 ], [ -1.8941507, 43.0124631 ], [ -1.8941347, 43.0125817 ], [ -1.8941142, 43.0127441 ], [ -1.8940676, 43.0129429 ], [ -1.8940427, 43.0130958 ], [ -1.8940019, 43.0133149 ], [ -1.894015, 43.0136127 ], [ -1.8940182, 43.0136881 ], [ -1.8940121, 43.0137747 ], [ -1.8940043, 43.0138698 ], [ -1.893989, 43.0139484 ], [ -1.8939614, 43.0140331 ], [ -1.8939393, 43.0141117 ], [ -1.893901, 43.0141975 ], [ -1.8938495, 43.014287 ], [ -1.8937918, 43.0143805 ], [ -1.8937559, 43.01446 ], [ -1.8936965, 43.0145669 ], [ -1.8936586, 43.0146651 ], [ -1.8935896, 43.0147916 ] ] ] } }
]
}
