{
"type": "FeatureCollection",
"name": "32019",
"features": [
{ "type": "Feature", "properties": { "CCAA": "12 - Galicia", "PROVINCIA": "32 - Ourense", "MUNICIPIO": "32019 - Carballiño, O", "COD_MUNICIPIO": "32019", "DISTRITO": "01", "SECCION": "3201901001", "V1_H": 79.85, "V1_M": 85.78, "V2_H": 79.86035794, "V2_M": 85.76242541000001, "V3_H": 79.99500792000001, "V3_M": 85.93655133 }, "geometry": { "type": "Polygon", "coordinates": [ [ [ -8.0805749, 42.437604 ], [ -8.080577, 42.4376052 ], [ -8.0808067, 42.4372841 ], [ -8.0810261, 42.4370552 ], [ -8.0812426, 42.4368693 ], [ -8.081543, 42.4368464 ], [ -8.0819245, 42.4367914 ], [ -8.082258, 42.4367003 ], [ -8.0825715, 42.4366006 ], [ -8.0828034, 42.4364474 ], [ -8.083093, 42.4362106 ], [ -8.0835195, 42.4353627 ], [ -8.0837054, 42.434959 ], [ -8.0838622, 42.434671 ], [ -8.0840834, 42.4343848 ], [ -8.0841864, 42.4342278 ], [ -8.0842548, 42.43412 ], [ -8.0843303, 42.4340644 ], [ -8.0843301, 42.4340643 ], [ -8.0844477, 42.4339661 ], [ -8.0852128, 42.433408 ], [ -8.085547, 42.4330883 ], [ -8.086297, 42.4325023 ], [ -8.0862844, 42.4324899 ], [ -8.0861852, 42.4323929 ], [ -8.0858568, 42.4321503 ], [ -8.0855134, 42.4318797 ], [ -8.0851935, 42.4317415 ], [ -8.0847618, 42.4314939 ], [ -8.0844299, 42.4313657 ], [ -8.0840708, 42.4312197 ], [ -8.0838315, 42.4311628 ], [ -8.0838332, 42.4311592 ], [ -8.0822759, 42.4305563 ], [ -8.0818592, 42.4303967 ], [ -8.0817816, 42.4305352 ], [ -8.0814544, 42.4310614 ], [ -8.0812947, 42.4312614 ], [ -8.0810582, 42.4314828 ], [ -8.0807041, 42.4318262 ], [ -8.0805332, 42.4320357 ], [ -8.0804581, 42.4322321 ], [ -8.0803995, 42.4324815 ], [ -8.0803213, 42.4328666 ], [ -8.0802325, 42.4331937 ], [ -8.0777459, 42.4327018 ], [ -8.077753, 42.4318846 ], [ -8.0776979, 42.4312652 ], [ -8.0774902, 42.4311515 ], [ -8.0772988, 42.4310776 ], [ -8.0771425, 42.43127 ], [ -8.0750721, 42.4337002 ], [ -8.0746397, 42.4342607 ], [ -8.0751221, 42.4345482 ], [ -8.0770245, 42.4356138 ], [ -8.078533, 42.4364669 ], [ -8.0794733, 42.4370001 ], [ -8.080203, 42.4373948 ], [ -8.0805749, 42.437604 ] ] ] } },
{ "type": "Feature", "properties": { "CCAA": "12 - Galicia", "PROVINCIA": "32 - Ourense", "MUNICIPIO": "32019 - Carballiño, O", "COD_MUNICIPIO": "32019", "DISTRITO": "03", "SECCION": "3201903001", "V1_H": 79.86, "V1_M": 85.62, "V2_H": 79.74592797, "V2_M": 85.80311169, "V3_H": 80.14073418, "V3_M": 85.57864485 }, "geometry": { "type": "Polygon", "coordinates": [ [ [ -8.0791465, 42.4221148 ], [ -8.0790455, 42.4223887 ], [ -8.0788327, 42.4239969 ], [ -8.0794847, 42.423743 ], [ -8.0804639, 42.4234246 ], [ -8.0812834, 42.4232913 ], [ -8.0823575, 42.4230658 ], [ -8.0832666, 42.4229609 ], [ -8.084853, 42.4228584 ], [ -8.0857942, 42.4228816 ], [ -8.0862301, 42.4229758 ], [ -8.086722, 42.423116 ], [ -8.0871574, 42.4230968 ], [ -8.0876053, 42.4229636 ], [ -8.0879841, 42.422785 ], [ -8.0882489, 42.422873 ], [ -8.089249, 42.4215709 ], [ -8.0905786, 42.4204446 ], [ -8.0907687, 42.4207267 ], [ -8.091018, 42.4208681 ], [ -8.091444, 42.4208872 ], [ -8.0918431, 42.4208933 ], [ -8.092223, 42.4209002 ], [ -8.0924215, 42.4210486 ], [ -8.092863, 42.4213385 ], [ -8.0930954, 42.4216664 ], [ -8.0931806, 42.4216865 ], [ -8.0935115, 42.4214859 ], [ -8.0936978, 42.4213252 ], [ -8.0939157, 42.4211583 ], [ -8.094029, 42.4210484 ], [ -8.0943377, 42.4210489 ], [ -8.094551, 42.4210633 ], [ -8.0946672, 42.4211486 ], [ -8.0947805, 42.4212769 ], [ -8.0949914, 42.4215772 ], [ -8.0951803, 42.4218451 ], [ -8.0953846, 42.4220647 ], [ -8.0956037, 42.4221502 ], [ -8.0959355, 42.4221973 ], [ -8.0963927, 42.4222055 ], [ -8.0968227, 42.4221959 ], [ -8.0969388, 42.4222002 ], [ -8.0967824, 42.4224121 ], [ -8.0963722, 42.422983 ], [ -8.0961543, 42.4231499 ], [ -8.0958251, 42.423309 ], [ -8.0958578, 42.4237161 ], [ -8.0960427, 42.4241128 ], [ -8.096571, 42.4247047 ], [ -8.097682, 42.4259542 ], [ -8.0982748, 42.4258387 ], [ -8.0996411, 42.4257135 ], [ -8.1007152, 42.4254878 ], [ -8.101619, 42.4253182 ], [ -8.1024474, 42.4252978 ], [ -8.103485, 42.4254299 ], [ -8.1044005, 42.4254055 ], [ -8.1054375, 42.4252624 ], [ -8.1063249, 42.4251582 ], [ -8.106879, 42.425254 ], [ -8.1067349, 42.4250488 ], [ -8.1065674, 42.4245704 ], [ -8.1066055, 42.4244067 ], [ -8.1068191, 42.4241875 ], [ -8.1070308, 42.4241019 ], [ -8.1074475, 42.424007 ], [ -8.1077267, 42.423804 ], [ -8.1078499, 42.4235793 ], [ -8.1079183, 42.4234715 ], [ -8.1077995, 42.4232767 ], [ -8.107529, 42.4229553 ], [ -8.1072958, 42.4227752 ], [ -8.1068741, 42.4226511 ], [ -8.1066478, 42.4225564 ], [ -8.1064961, 42.4224298 ], [ -8.1064852, 42.4222969 ], [ -8.106551, 42.4219986 ], [ -8.1067251, 42.4216097 ], [ -8.1066589, 42.4212696 ], [ -8.1066485, 42.4209842 ], [ -8.1066354, 42.4208228 ], [ -8.10654, 42.4205984 ], [ -8.1065657, 42.4202829 ], [ -8.1068357, 42.4199659 ], [ -8.1077449, 42.4192869 ], [ -8.1084575, 42.4198268 ], [ -8.108652, 42.4198467 ], [ -8.1090239, 42.419992 ], [ -8.1093597, 42.4201676 ], [ -8.1095845, 42.4202433 ], [ -8.1098197, 42.4202899 ], [ -8.1100647, 42.420298 ], [ -8.1102782, 42.4203933 ], [ -8.1106346, 42.4206632 ], [ -8.1111575, 42.4209257 ], [ -8.1114781, 42.4210733 ], [ -8.1118431, 42.4211332 ], [ -8.1120973, 42.4212552 ], [ -8.1122076, 42.4213456 ], [ -8.1122433, 42.4214679 ], [ -8.1123263, 42.4215404 ], [ -8.1124032, 42.4215369 ], [ -8.1124211, 42.4214409 ], [ -8.1126517, 42.4214305 ], [ -8.1128175, 42.4214136 ], [ -8.1131266, 42.4214188 ], [ -8.1133091, 42.4214488 ], [ -8.1133836, 42.4214169 ], [ -8.1135848, 42.4213602 ], [ -8.1137549, 42.4212383 ], [ -8.1139359, 42.4209348 ], [ -8.1140373, 42.4207588 ], [ -8.1142947, 42.4206043 ], [ -8.1145091, 42.4203947 ], [ -8.1148008, 42.4200291 ], [ -8.114969, 42.4197262 ], [ -8.115074, 42.4194357 ], [ -8.1151978, 42.4195349 ], [ -8.1154061, 42.4200401 ], [ -8.1154992, 42.420236 ], [ -8.1155345, 42.4205108 ], [ -8.115536, 42.4208442 ], [ -8.115749, 42.4210919 ], [ -8.1157735, 42.4212337 ], [ -8.1158387, 42.4213642 ], [ -8.1161166, 42.4214208 ], [ -8.1158719, 42.4216442 ], [ -8.1156859, 42.421814 ], [ -8.1168972, 42.4214142 ], [ -8.1183879, 42.4210683 ], [ -8.1194474, 42.4209489 ], [ -8.1217213, 42.4205229 ], [ -8.1225262, 42.4202617 ], [ -8.1231588, 42.4199723 ], [ -8.1234776, 42.4195619 ], [ -8.1235235, 42.4190827 ], [ -8.1232804, 42.4186344 ], [ -8.1228711, 42.4183827 ], [ -8.1216102, 42.4182681 ], [ -8.121265, 42.4180586 ], [ -8.1210773, 42.4178419 ], [ -8.1212659, 42.4174733 ], [ -8.1223299, 42.4168134 ], [ -8.1224557, 42.4167178 ], [ -8.1227287, 42.4164895 ], [ -8.1228718, 42.416159 ], [ -8.1230294, 42.4146664 ], [ -8.1236899, 42.4135295 ], [ -8.1238324, 42.4128929 ], [ -8.1238192, 42.4124343 ], [ -8.1235721, 42.4120853 ], [ -8.1231316, 42.411898 ], [ -8.1207382, 42.4116001 ], [ -8.1203865, 42.4113098 ], [ -8.1199167, 42.4110607 ], [ -8.1195557, 42.4111039 ], [ -8.1182754, 42.4120886 ], [ -8.117652, 42.4123415 ], [ -8.1168656, 42.4125298 ], [ -8.1161564, 42.4126246 ], [ -8.1156642, 42.4125476 ], [ -8.1153598, 42.4123901 ], [ -8.1152264, 42.411946 ], [ -8.115286, 42.4114841 ], [ -8.1162451, 42.4093886 ], [ -8.1165188, 42.4091692 ], [ -8.1173078, 42.4088638 ], [ -8.1174503, 42.4085243 ], [ -8.1174614, 42.4080647 ], [ -8.1169857, 42.4066996 ], [ -8.1170691, 42.4060837 ], [ -8.1173293, 42.4055498 ], [ -8.1176482, 42.4051394 ], [ -8.1180443, 42.4049326 ], [ -8.1184786, 42.4048952 ], [ -8.1190086, 42.4049885 ], [ -8.1194784, 42.4052375 ], [ -8.1197684, 42.4056657 ], [ -8.1198338, 42.406617 ], [ -8.1200112, 42.4070052 ], [ -8.1202844, 42.4072271 ], [ -8.1206086, 42.4073296 ], [ -8.1210051, 42.4072758 ], [ -8.1215891, 42.4069885 ], [ -8.1222659, 42.4064991 ], [ -8.1226742, 42.4062917 ], [ -8.1232607, 42.4061844 ], [ -8.1245631, 42.4062161 ], [ -8.1250527, 42.4061131 ], [ -8.1253756, 42.4059006 ], [ -8.125822, 42.4052683 ], [ -8.1266785, 42.4045997 ], [ -8.1273387, 42.404354 ], [ -8.1281023, 42.4041847 ], [ -8.1293127, 42.4041304 ], [ -8.1298775, 42.4042041 ], [ -8.130231, 42.4043683 ], [ -8.132156, 42.4060734 ], [ -8.1325903, 42.406333 ], [ -8.1329666, 42.4064781 ], [ -8.1334515, 42.4064654 ], [ -8.1340123, 42.4063411 ], [ -8.1343776, 42.4060547 ], [ -8.134824, 42.4054224 ], [ -8.1354042, 42.4053874 ], [ -8.13704, 42.4054849 ], [ -8.1383402, 42.4051924 ], [ -8.1393066, 42.4046808 ], [ -8.1395941, 42.4043348 ], [ -8.1396443, 42.4039093 ], [ -8.1383325, 42.3952987 ], [ -8.1397903, 42.3920371 ], [ -8.140161, 42.3910751 ], [ -8.1400235, 42.3901361 ], [ -8.1400087, 42.3896596 ], [ -8.1382608, 42.3907104 ], [ -8.1377233, 42.3909687 ], [ -8.1368568, 42.3912147 ], [ -8.1362903, 42.3912671 ], [ -8.134968, 42.3911375 ], [ -8.1341254, 42.3909323 ], [ -8.1326426, 42.3903237 ], [ -8.1319055, 42.3899246 ], [ -8.1314348, 42.3895136 ], [ -8.1310579, 42.3890624 ], [ -8.1307034, 42.388142 ], [ -8.1305006, 42.38789 ], [ -8.1299906, 42.3877419 ], [ -8.1282571, 42.3876306 ], [ -8.1275534, 42.3874911 ], [ -8.126819, 42.387272 ], [ -8.1264157, 42.387092 ], [ -8.1260682, 42.3867025 ], [ -8.124573, 42.3845998 ], [ -8.1234702, 42.3828397 ], [ -8.1232734, 42.3823623 ], [ -8.1228379, 42.3820848 ], [ -8.1228376, 42.3820847 ], [ -8.1222275, 42.3818961 ], [ -8.1217853, 42.3818349 ], [ -8.1211819, 42.3818799 ], [ -8.1204195, 42.3822111 ], [ -8.1198808, 42.3826044 ], [ -8.1195053, 42.3830624 ], [ -8.119087, 42.3838913 ], [ -8.1188597, 42.3840816 ], [ -8.1179736, 42.3848325 ], [ -8.1177564, 42.3851483 ], [ -8.1177186, 42.3854291 ], [ -8.1181665, 42.3858591 ], [ -8.117975, 42.3861918 ], [ -8.117609, 42.3864693 ], [ -8.1157823, 42.3874514 ], [ -8.1154713, 42.3878074 ], [ -8.1154941, 42.3885356 ], [ -8.1150301, 42.3889525 ], [ -8.112085, 42.3878328 ], [ -8.1115541, 42.3878746 ], [ -8.1101676, 42.3879996 ], [ -8.1090415, 42.3880409 ], [ -8.1067568, 42.3878729 ], [ -8.1043737, 42.3875383 ], [ -8.1041505, 42.3907712 ], [ -8.1041776, 42.3915533 ], [ -8.1042118, 42.3927221 ], [ -8.1037995, 42.3930286 ], [ -8.0992751, 42.3953462 ], [ -8.0981619, 42.395846 ], [ -8.0970197, 42.3961401 ], [ -8.0914541, 42.3973064 ], [ -8.0881758, 42.3979205 ], [ -8.0853171, 42.3983178 ], [ -8.0841574, 42.3983964 ], [ -8.08359, 42.3984397 ], [ -8.0802091, 42.398689 ], [ -8.0768266, 42.3987673 ], [ -8.0740699, 42.3989257 ], [ -8.0721891, 42.3990992 ], [ -8.0690533, 42.3995264 ], [ -8.0666853, 42.3996854 ], [ -8.0641815, 42.3999674 ], [ -8.0601689, 42.4002171 ], [ -8.0606701, 42.4043273 ], [ -8.061002, 42.4061852 ], [ -8.0611207, 42.4072063 ], [ -8.0614925, 42.410764 ], [ -8.0619967, 42.4113678 ], [ -8.0625146, 42.4119881 ], [ -8.0635077, 42.4128534 ], [ -8.0639615, 42.4135085 ], [ -8.0651838, 42.4164613 ], [ -8.0652774, 42.4167183 ], [ -8.0653443, 42.416948 ], [ -8.0660919, 42.4165573 ], [ -8.0672088, 42.4156246 ], [ -8.067959, 42.4145756 ], [ -8.0683041, 42.413677 ], [ -8.0687807, 42.4114474 ], [ -8.0747312, 42.4106111 ], [ -8.0763588, 42.414559 ], [ -8.077759, 42.4104776 ], [ -8.0796104, 42.4104263 ], [ -8.0801703, 42.4107947 ], [ -8.0804224, 42.4112945 ], [ -8.0809607, 42.4120569 ], [ -8.0813502, 42.4129437 ], [ -8.081783, 42.4137108 ], [ -8.0824774, 42.4150952 ], [ -8.0831277, 42.4159312 ], [ -8.0842027, 42.4168193 ], [ -8.0833678, 42.4174991 ], [ -8.0821706, 42.4183763 ], [ -8.0814973, 42.4191314 ], [ -8.0811093, 42.4195607 ], [ -8.0806738, 42.4196789 ], [ -8.0801472, 42.4197681 ], [ -8.0798221, 42.4204254 ], [ -8.0794656, 42.4212489 ], [ -8.0791465, 42.4221148 ] ] ] } },
{ "type": "Feature", "properties": { "CCAA": "12 - Galicia", "PROVINCIA": "32 - Ourense", "MUNICIPIO": "32019 - Carballiño, O", "COD_MUNICIPIO": "32019", "DISTRITO": "01", "SECCION": "3201901002", "V1_H": 80.0, "V1_M": 86.03, "V2_H": 79.84963877, "V2_M": 86.04281727, "V3_H": 80.29290896000001, "V3_M": 86.20578322 }, "geometry": { "type": "Polygon", "coordinates": [ [ [ -8.0818592, 42.4303967 ], [ -8.0822759, 42.4305563 ], [ -8.0838332, 42.4311592 ], [ -8.0838315, 42.4311628 ], [ -8.0840708, 42.4312197 ], [ -8.0844299, 42.4313657 ], [ -8.0847618, 42.4314939 ], [ -8.0851935, 42.4317415 ], [ -8.0855134, 42.4318797 ], [ -8.0858568, 42.4321503 ], [ -8.0861852, 42.4323929 ], [ -8.0862844, 42.4324899 ], [ -8.0865515, 42.4323075 ], [ -8.0869362, 42.431976 ], [ -8.0874053, 42.431574 ], [ -8.0877896, 42.4312377 ], [ -8.08845, 42.4308177 ], [ -8.0886847, 42.4306977 ], [ -8.0890244, 42.4305253 ], [ -8.089366, 42.4303767 ], [ -8.0904716, 42.429894 ], [ -8.092172, 42.429056 ], [ -8.0927881, 42.4287237 ], [ -8.0934475, 42.4283704 ], [ -8.0938451, 42.4281192 ], [ -8.0943361, 42.4278305 ], [ -8.0948128, 42.4275235 ], [ -8.0953387, 42.4271904 ], [ -8.095716, 42.4269258 ], [ -8.0963771, 42.4265407 ], [ -8.0963447, 42.4265337 ], [ -8.0965724, 42.4263998 ], [ -8.0970918, 42.4260693 ], [ -8.097682, 42.4259542 ], [ -8.096571, 42.4247047 ], [ -8.0960427, 42.4241128 ], [ -8.0958578, 42.4237161 ], [ -8.0958251, 42.423309 ], [ -8.0961543, 42.4231499 ], [ -8.0963722, 42.422983 ], [ -8.0967824, 42.4224121 ], [ -8.0969388, 42.4222002 ], [ -8.0968227, 42.4221959 ], [ -8.0963927, 42.4222055 ], [ -8.0959355, 42.4221973 ], [ -8.0956037, 42.4221502 ], [ -8.0953846, 42.4220647 ], [ -8.0951803, 42.4218451 ], [ -8.0949914, 42.4215772 ], [ -8.0947805, 42.4212769 ], [ -8.0946672, 42.4211486 ], [ -8.094551, 42.4210633 ], [ -8.0943377, 42.4210489 ], [ -8.094029, 42.4210484 ], [ -8.0939157, 42.4211583 ], [ -8.0936978, 42.4213252 ], [ -8.0935115, 42.4214859 ], [ -8.0931806, 42.4216865 ], [ -8.0930954, 42.4216664 ], [ -8.092863, 42.4213385 ], [ -8.0924215, 42.4210486 ], [ -8.092223, 42.4209002 ], [ -8.0918431, 42.4208933 ], [ -8.091444, 42.4208872 ], [ -8.091018, 42.4208681 ], [ -8.0907687, 42.4207267 ], [ -8.0905786, 42.4204446 ], [ -8.089249, 42.4215709 ], [ -8.0882489, 42.422873 ], [ -8.0879841, 42.422785 ], [ -8.0876053, 42.4229636 ], [ -8.0871574, 42.4230968 ], [ -8.086722, 42.423116 ], [ -8.0862301, 42.4229758 ], [ -8.0857942, 42.4228816 ], [ -8.084853, 42.4228584 ], [ -8.0832666, 42.4229609 ], [ -8.0823575, 42.4230658 ], [ -8.0812834, 42.4232913 ], [ -8.0804639, 42.4234246 ], [ -8.0794847, 42.423743 ], [ -8.0788327, 42.4239969 ], [ -8.0790455, 42.4223887 ], [ -8.0791465, 42.4221148 ], [ -8.078297, 42.4221096 ], [ -8.0781802, 42.4220957 ], [ -8.0782266, 42.4216363 ], [ -8.0782164, 42.4213509 ], [ -8.0781642, 42.4212627 ], [ -8.0775693, 42.4213797 ], [ -8.0770557, 42.4214692 ], [ -8.0772905, 42.4217493 ], [ -8.0776648, 42.4222425 ], [ -8.0778783, 42.4228952 ], [ -8.0784738, 42.4246124 ], [ -8.0785356, 42.4246557 ], [ -8.0785324, 42.4246613 ], [ -8.0792854, 42.4268453 ], [ -8.0796804, 42.4280988 ], [ -8.0808859, 42.4287364 ], [ -8.0804726, 42.4291951 ], [ -8.0800567, 42.4296865 ], [ -8.0818592, 42.4303967 ] ] ] } },
{ "type": "Feature", "properties": { "CCAA": "12 - Galicia", "PROVINCIA": "32 - Ourense", "MUNICIPIO": "32019 - Carballiño, O", "COD_MUNICIPIO": "32019", "DISTRITO": "01", "SECCION": "3201901007", "V1_H": 79.92, "V1_M": 85.8, "V2_H": 79.90391364, "V2_M": 85.68196434, "V3_H": 80.09820982, "V3_M": 86.14356104 }, "geometry": { "type": "Polygon", "coordinates": [ [ [ -8.0707486, 42.4325791 ], [ -8.0734739, 42.4337339 ], [ -8.0744939, 42.4341736 ], [ -8.0746397, 42.4342607 ], [ -8.0750721, 42.4337002 ], [ -8.0771425, 42.43127 ], [ -8.0772988, 42.4310776 ], [ -8.0764693, 42.4308837 ], [ -8.0748129, 42.430499 ], [ -8.0738787, 42.4303132 ], [ -8.0729522, 42.4308678 ], [ -8.0718814, 42.4315205 ], [ -8.0713715, 42.4318283 ], [ -8.0710118, 42.4322372 ], [ -8.0707486, 42.4325791 ] ] ] } },
{ "type": "Feature", "properties": { "CCAA": "12 - Galicia", "PROVINCIA": "32 - Ourense", "MUNICIPIO": "32019 - Carballiño, O", "COD_MUNICIPIO": "32019", "DISTRITO": "01", "SECCION": "3201901003", "V1_H": 80.06, "V1_M": 86.12, "V2_H": 80.10460866, "V2_M": 86.20761786, "V3_H": 80.17898723, "V3_M": 86.18020212 }, "geometry": { "type": "Polygon", "coordinates": [ [ [ -8.0639769, 42.4294928 ], [ -8.0667155, 42.4307873 ], [ -8.0684095, 42.4315879 ], [ -8.0707486, 42.4325791 ], [ -8.0710118, 42.4322372 ], [ -8.0713715, 42.4318283 ], [ -8.0718814, 42.4315205 ], [ -8.0729522, 42.4308678 ], [ -8.0738787, 42.4303132 ], [ -8.0739956, 42.4299453 ], [ -8.0730073, 42.4297686 ], [ -8.0726467, 42.4296061 ], [ -8.0719709, 42.4292779 ], [ -8.0710533, 42.4288981 ], [ -8.0702595, 42.4286925 ], [ -8.0704537, 42.4284907 ], [ -8.070871, 42.4281062 ], [ -8.0711608, 42.4279003 ], [ -8.0713422, 42.427767 ], [ -8.0714718, 42.4277307 ], [ -8.0717421, 42.4277358 ], [ -8.0718836, 42.4277905 ], [ -8.0719017, 42.427844 ], [ -8.0719186, 42.4279416 ], [ -8.0719942, 42.4281992 ], [ -8.072037, 42.4282211 ], [ -8.0723329, 42.4282045 ], [ -8.0725812, 42.4281631 ], [ -8.0726638, 42.428112 ], [ -8.0727903, 42.4279777 ], [ -8.0728522, 42.4279512 ], [ -8.0729983, 42.4279158 ], [ -8.0730966, 42.4278301 ], [ -8.073159, 42.4277528 ], [ -8.0732059, 42.4275949 ], [ -8.0732179, 42.4274621 ], [ -8.0732763, 42.4273342 ], [ -8.0733442, 42.4272668 ], [ -8.0735001, 42.4272158 ], [ -8.0736592, 42.4271479 ], [ -8.0737856, 42.4270711 ], [ -8.0738167, 42.427002 ], [ -8.0738916, 42.4269105 ], [ -8.0739896, 42.4268216 ], [ -8.074068, 42.4267164 ], [ -8.0741626, 42.426641 ], [ -8.0742157, 42.4266183 ], [ -8.0743586, 42.4266325 ], [ -8.0744792, 42.4266542 ], [ -8.0746073, 42.4266553 ], [ -8.074692, 42.4266278 ], [ -8.0748645, 42.4267421 ], [ -8.0748832, 42.4268057 ], [ -8.0749209, 42.4268752 ], [ -8.0749587, 42.4268905 ], [ -8.0750297, 42.4268636 ], [ -8.0751355, 42.426815 ], [ -8.0752971, 42.4267197 ], [ -8.0754712, 42.4266103 ], [ -8.0755696, 42.4265823 ], [ -8.0756481, 42.4265348 ], [ -8.0757299, 42.4265277 ], [ -8.07584, 42.4265332 ], [ -8.0760418, 42.4265987 ], [ -8.076155, 42.4266412 ], [ -8.0762478, 42.4267108 ], [ -8.0763013, 42.4267716 ], [ -8.0763349, 42.426812 ], [ -8.0763394, 42.4268258 ], [ -8.0763403, 42.4268731 ], [ -8.0763397, 42.4269223 ], [ -8.0763361, 42.4269631 ], [ -8.076336, 42.4270168 ], [ -8.0763318, 42.4270432 ], [ -8.0763314, 42.4270607 ], [ -8.0763475, 42.4271517 ], [ -8.0763497, 42.42718 ], [ -8.0763538, 42.4272035 ], [ -8.0763527, 42.4272167 ], [ -8.0763549, 42.4272302 ], [ -8.0763737, 42.4272667 ], [ -8.0763927, 42.4272743 ], [ -8.0763984, 42.4272736 ], [ -8.0764397, 42.4272688 ], [ -8.0764664, 42.4272583 ], [ -8.0765121, 42.4272386 ], [ -8.0765319, 42.4272343 ], [ -8.0765918, 42.4272287 ], [ -8.0767539, 42.4272814 ], [ -8.0768138, 42.4272853 ], [ -8.0769732, 42.4272165 ], [ -8.0770712, 42.4271626 ], [ -8.0771034, 42.4271252 ], [ -8.0772661, 42.4270808 ], [ -8.0773041, 42.4270647 ], [ -8.077375, 42.4270585 ], [ -8.0775165, 42.4270072 ], [ -8.0776673, 42.4269429 ], [ -8.0777735, 42.4268703 ], [ -8.0780087, 42.4267384 ], [ -8.078098, 42.4266664 ], [ -8.0781493, 42.4266107 ], [ -8.0781661, 42.4265346 ], [ -8.0782104, 42.4264331 ], [ -8.0782144, 42.4263599 ], [ -8.0782347, 42.4262862 ], [ -8.0782116, 42.4262436 ], [ -8.0781806, 42.4262254 ], [ -8.0781416, 42.4262296 ], [ -8.0781008, 42.426212 ], [ -8.0780463, 42.4261439 ], [ -8.0779761, 42.4260863 ], [ -8.0778841, 42.4260442 ], [ -8.077841, 42.4259975 ], [ -8.0777912, 42.4258971 ], [ -8.0777496, 42.4256773 ], [ -8.077738, 42.4255733 ], [ -8.0777254, 42.4254986 ], [ -8.0777081, 42.4254457 ], [ -8.0777371, 42.4253984 ], [ -8.0777484, 42.4253347 ], [ -8.077794, 42.42525 ], [ -8.0778501, 42.4251723 ], [ -8.0778671, 42.4250987 ], [ -8.0778501, 42.4250508 ], [ -8.0778221, 42.4249889 ], [ -8.0778241, 42.4249305 ], [ -8.0778607, 42.4248973 ], [ -8.077921, 42.4248728 ], [ -8.0781646, 42.4248038 ], [ -8.0785324, 42.4246613 ], [ -8.0785356, 42.4246557 ], [ -8.0784738, 42.4246124 ], [ -8.0778783, 42.4228952 ], [ -8.0776648, 42.4222425 ], [ -8.0772905, 42.4217493 ], [ -8.0770557, 42.4214692 ], [ -8.0775693, 42.4213797 ], [ -8.0781642, 42.4212627 ], [ -8.0782164, 42.4213509 ], [ -8.0782266, 42.4216363 ], [ -8.0781802, 42.4220957 ], [ -8.078297, 42.4221096 ], [ -8.0791465, 42.4221148 ], [ -8.0794656, 42.4212489 ], [ -8.0798221, 42.4204254 ], [ -8.0801472, 42.4197681 ], [ -8.0806738, 42.4196789 ], [ -8.0811093, 42.4195607 ], [ -8.0814973, 42.4191314 ], [ -8.0821706, 42.4183763 ], [ -8.0833678, 42.4174991 ], [ -8.0842027, 42.4168193 ], [ -8.0831277, 42.4159312 ], [ -8.0824774, 42.4150952 ], [ -8.081783, 42.4137108 ], [ -8.0813502, 42.4129437 ], [ -8.0809607, 42.4120569 ], [ -8.0804224, 42.4112945 ], [ -8.0801703, 42.4107947 ], [ -8.0796104, 42.4104263 ], [ -8.077759, 42.4104776 ], [ -8.0763588, 42.414559 ], [ -8.0747312, 42.4106111 ], [ -8.0687807, 42.4114474 ], [ -8.0683041, 42.413677 ], [ -8.067959, 42.4145756 ], [ -8.0672088, 42.4156246 ], [ -8.0660919, 42.4165573 ], [ -8.0653443, 42.416948 ], [ -8.0654119, 42.4171804 ], [ -8.0665848, 42.4192171 ], [ -8.0669984, 42.4201261 ], [ -8.0678548, 42.4214026 ], [ -8.0694713, 42.4232125 ], [ -8.0673054, 42.4243799 ], [ -8.0662047, 42.4280568 ], [ -8.0660593, 42.4285134 ], [ -8.0651694, 42.428931 ], [ -8.0645373, 42.4292291 ], [ -8.0639769, 42.4294928 ] ] ] } },
{ "type": "Feature", "properties": { "CCAA": "12 - Galicia", "PROVINCIA": "32 - Ourense", "MUNICIPIO": "32019 - Carballiño, O", "COD_MUNICIPIO": "32019", "DISTRITO": "01", "SECCION": "3201901005", "V1_H": 79.83, "V1_M": 85.66, "V2_H": 79.86201885, "V2_M": 85.75249, "V3_H": 79.86616026, "V3_M": 85.80070523000001 }, "geometry": { "type": "Polygon", "coordinates": [ [ [ -8.0776979, 42.4312652 ], [ -8.0779201, 42.431375 ], [ -8.0781605, 42.4314273 ], [ -8.0783895, 42.4314127 ], [ -8.0786302, 42.4313168 ], [ -8.0788777, 42.4310814 ], [ -8.0790927, 42.430816 ], [ -8.0800567, 42.4296865 ], [ -8.0804726, 42.4291951 ], [ -8.0808859, 42.4287364 ], [ -8.0796804, 42.4280988 ], [ -8.0792854, 42.4268453 ], [ -8.0785324, 42.4246613 ], [ -8.0781646, 42.4248038 ], [ -8.077921, 42.4248728 ], [ -8.0778607, 42.4248973 ], [ -8.0778241, 42.4249305 ], [ -8.0778221, 42.4249889 ], [ -8.0778501, 42.4250508 ], [ -8.0778671, 42.4250987 ], [ -8.0778501, 42.4251723 ], [ -8.077794, 42.42525 ], [ -8.0777484, 42.4253347 ], [ -8.0777371, 42.4253984 ], [ -8.0777081, 42.4254457 ], [ -8.0777254, 42.4254986 ], [ -8.077738, 42.4255733 ], [ -8.0777496, 42.4256773 ], [ -8.0777912, 42.4258971 ], [ -8.077841, 42.4259975 ], [ -8.0778841, 42.4260442 ], [ -8.0779761, 42.4260863 ], [ -8.0780463, 42.4261439 ], [ -8.0781008, 42.426212 ], [ -8.0781416, 42.4262296 ], [ -8.0781806, 42.4262254 ], [ -8.0782116, 42.4262436 ], [ -8.0782347, 42.4262862 ], [ -8.0782144, 42.4263599 ], [ -8.0782104, 42.4264331 ], [ -8.0781661, 42.4265346 ], [ -8.0781493, 42.4266107 ], [ -8.078098, 42.4266664 ], [ -8.0780087, 42.4267384 ], [ -8.0777735, 42.4268703 ], [ -8.0776673, 42.4269429 ], [ -8.0775165, 42.4270072 ], [ -8.077375, 42.4270585 ], [ -8.0773041, 42.4270647 ], [ -8.0772661, 42.4270808 ], [ -8.0771034, 42.4271252 ], [ -8.0770712, 42.4271626 ], [ -8.0769732, 42.4272165 ], [ -8.0768138, 42.4272853 ], [ -8.0767539, 42.4272814 ], [ -8.0765918, 42.4272287 ], [ -8.0765319, 42.4272343 ], [ -8.0765121, 42.4272386 ], [ -8.0764664, 42.4272583 ], [ -8.0764397, 42.4272688 ], [ -8.0763984, 42.4272736 ], [ -8.0763927, 42.4272743 ], [ -8.0763737, 42.4272667 ], [ -8.0763549, 42.4272302 ], [ -8.0763527, 42.4272167 ], [ -8.0763538, 42.4272035 ], [ -8.0763497, 42.42718 ], [ -8.0763475, 42.4271517 ], [ -8.0763314, 42.4270607 ], [ -8.0763318, 42.4270432 ], [ -8.076336, 42.4270168 ], [ -8.0763361, 42.4269631 ], [ -8.0763397, 42.4269223 ], [ -8.0763403, 42.4268731 ], [ -8.0763394, 42.4268258 ], [ -8.0763349, 42.426812 ], [ -8.0763013, 42.4267716 ], [ -8.0762478, 42.4267108 ], [ -8.076155, 42.4266412 ], [ -8.0760418, 42.4265987 ], [ -8.07584, 42.4265332 ], [ -8.0757299, 42.4265277 ], [ -8.0756481, 42.4265348 ], [ -8.0755696, 42.4265823 ], [ -8.0754712, 42.4266103 ], [ -8.0752971, 42.4267197 ], [ -8.0751355, 42.426815 ], [ -8.0750297, 42.4268636 ], [ -8.0749587, 42.4268905 ], [ -8.0749209, 42.4268752 ], [ -8.0748832, 42.4268057 ], [ -8.0748645, 42.4267421 ], [ -8.074692, 42.4266278 ], [ -8.0746073, 42.4266553 ], [ -8.0744792, 42.4266542 ], [ -8.0743586, 42.4266325 ], [ -8.0742157, 42.4266183 ], [ -8.0741626, 42.426641 ], [ -8.074068, 42.4267164 ], [ -8.0739896, 42.4268216 ], [ -8.0738916, 42.4269105 ], [ -8.0738167, 42.427002 ], [ -8.0737856, 42.4270711 ], [ -8.0736592, 42.4271479 ], [ -8.0735001, 42.4272158 ], [ -8.0733442, 42.4272668 ], [ -8.0732763, 42.4273342 ], [ -8.0732179, 42.4274621 ], [ -8.0732059, 42.4275949 ], [ -8.073159, 42.4277528 ], [ -8.0730966, 42.4278301 ], [ -8.0729983, 42.4279158 ], [ -8.0728522, 42.4279512 ], [ -8.0727903, 42.4279777 ], [ -8.0726638, 42.428112 ], [ -8.0725812, 42.4281631 ], [ -8.0723329, 42.4282045 ], [ -8.072037, 42.4282211 ], [ -8.0719942, 42.4281992 ], [ -8.0719186, 42.4279416 ], [ -8.0719017, 42.427844 ], [ -8.0718836, 42.4277905 ], [ -8.0717421, 42.4277358 ], [ -8.0714718, 42.4277307 ], [ -8.0713422, 42.427767 ], [ -8.0711608, 42.4279003 ], [ -8.070871, 42.4281062 ], [ -8.0704537, 42.4284907 ], [ -8.0702595, 42.4286925 ], [ -8.0710533, 42.4288981 ], [ -8.0719709, 42.4292779 ], [ -8.0726467, 42.4296061 ], [ -8.0730073, 42.4297686 ], [ -8.0739956, 42.4299453 ], [ -8.0738787, 42.4303132 ], [ -8.0748129, 42.430499 ], [ -8.0764693, 42.4308837 ], [ -8.0772988, 42.4310776 ], [ -8.0774902, 42.4311515 ], [ -8.0776979, 42.4312652 ] ] ] } },
{ "type": "Feature", "properties": { "CCAA": "12 - Galicia", "PROVINCIA": "32 - Ourense", "MUNICIPIO": "32019 - Carballiño, O", "COD_MUNICIPIO": "32019", "DISTRITO": "01", "SECCION": "3201901006", "V1_H": 80.06, "V1_M": 86.12, "V2_H": 80.10460866, "V2_M": 86.20761786, "V3_H": 80.17898723, "V3_M": 86.18020212 }, "geometry": { "type": "Polygon", "coordinates": [ [ [ -8.0776979, 42.4312652 ], [ -8.077753, 42.4318846 ], [ -8.0777459, 42.4327018 ], [ -8.0802325, 42.4331937 ], [ -8.0803213, 42.4328666 ], [ -8.0803995, 42.4324815 ], [ -8.0804581, 42.4322321 ], [ -8.0805332, 42.4320357 ], [ -8.0807041, 42.4318262 ], [ -8.0810582, 42.4314828 ], [ -8.0812947, 42.4312614 ], [ -8.0814544, 42.4310614 ], [ -8.0817816, 42.4305352 ], [ -8.0818592, 42.4303967 ], [ -8.0800567, 42.4296865 ], [ -8.0790927, 42.430816 ], [ -8.0788777, 42.4310814 ], [ -8.0786302, 42.4313168 ], [ -8.0783895, 42.4314127 ], [ -8.0781605, 42.4314273 ], [ -8.0779201, 42.431375 ], [ -8.0776979, 42.4312652 ] ] ] } },
{ "type": "Feature", "properties": { "CCAA": "12 - Galicia", "PROVINCIA": "32 - Ourense", "MUNICIPIO": "32019 - Carballiño, O", "COD_MUNICIPIO": "32019", "DISTRITO": "02", "SECCION": "3201902001", "V1_H": 79.86, "V1_M": 85.62, "V2_H": 79.74592797, "V2_M": 85.80311169, "V3_H": 80.14073418, "V3_M": 85.57864485 }, "geometry": { "type": "Polygon", "coordinates": [ [ [ -8.032235, 42.483746 ], [ -8.0324074, 42.4843776 ], [ -8.0324211, 42.4853043 ], [ -8.0328048, 42.4870519 ], [ -8.0343056, 42.4877151 ], [ -8.0347288, 42.4881376 ], [ -8.0351636, 42.4887036 ], [ -8.035293, 42.489103 ], [ -8.0352806, 42.4895537 ], [ -8.0357004, 42.4900844 ], [ -8.0357257, 42.4905514 ], [ -8.0356341, 42.4909246 ], [ -8.0354075, 42.4911326 ], [ -8.034261, 42.4912461 ], [ -8.0335737, 42.4913214 ], [ -8.0330576, 42.4915602 ], [ -8.0327228, 42.4919351 ], [ -8.0324763, 42.4929543 ], [ -8.0324867, 42.493386 ], [ -8.0327707, 42.4935895 ], [ -8.0333905, 42.4937333 ], [ -8.0336757, 42.4938017 ], [ -8.0347636, 42.4941679 ], [ -8.0358666, 42.4947225 ], [ -8.0362483, 42.4949308 ], [ -8.03709, 42.4951097 ], [ -8.0374181, 42.4952573 ], [ -8.0377667, 42.4958092 ], [ -8.038109, 42.4965863 ], [ -8.0378006, 42.496987 ], [ -8.0380437, 42.4975885 ], [ -8.0382751, 42.4986496 ], [ -8.0382691, 42.499028 ], [ -8.0380098, 42.5000388 ], [ -8.0379699, 42.5001486 ], [ -8.0379447, 42.5005908 ], [ -8.0377917, 42.5009577 ], [ -8.0377116, 42.5014744 ], [ -8.0377897, 42.5039557 ], [ -8.0378913, 42.5043114 ], [ -8.038197, 42.504784 ], [ -8.0388639, 42.5055109 ], [ -8.0488547, 42.5108047 ], [ -8.0506118, 42.5116183 ], [ -8.0507502, 42.5104688 ], [ -8.0522185, 42.5084593 ], [ -8.0546871, 42.5067837 ], [ -8.0560037, 42.5056091 ], [ -8.0569869, 42.5048273 ], [ -8.0576059, 42.5042057 ], [ -8.0608183, 42.5001473 ], [ -8.0609195, 42.5000438 ], [ -8.0663256, 42.4943845 ], [ -8.067036, 42.4935427 ], [ -8.0657268, 42.4914941 ], [ -8.065169, 42.4903125 ], [ -8.0669261, 42.4894783 ], [ -8.0678372, 42.4888617 ], [ -8.0694543, 42.4873496 ], [ -8.0699888, 42.4867407 ], [ -8.0703338, 42.4861942 ], [ -8.0696088, 42.4862534 ], [ -8.0710314, 42.4830933 ], [ -8.0721484, 42.4800638 ], [ -8.0723009, 42.4790937 ], [ -8.0725094, 42.4788144 ], [ -8.0740143, 42.4778742 ], [ -8.0746622, 42.4773144 ], [ -8.0757727, 42.4758606 ], [ -8.0762248, 42.4749852 ], [ -8.077518, 42.4718848 ], [ -8.0782443, 42.4682424 ], [ -8.0786594, 42.4666125 ], [ -8.0777689, 42.4659768 ], [ -8.0760332, 42.4649646 ], [ -8.0766477, 42.4636949 ], [ -8.0765978, 42.463229 ], [ -8.0769008, 42.4623667 ], [ -8.074936, 42.4618403 ], [ -8.0727901, 42.4576116 ], [ -8.0714581, 42.4570871 ], [ -8.0714226, 42.4561367 ], [ -8.0716275, 42.4547922 ], [ -8.071743, 42.4542073 ], [ -8.0714759, 42.4535596 ], [ -8.0709306, 42.4531917 ], [ -8.0699197, 42.4529176 ], [ -8.0690981, 42.4523262 ], [ -8.0684519, 42.4512395 ], [ -8.0672535, 42.4496993 ], [ -8.0670613, 42.4489112 ], [ -8.06696, 42.448183 ], [ -8.0670729, 42.4474453 ], [ -8.0675629, 42.4466185 ], [ -8.0678082, 42.4467556 ], [ -8.0685282, 42.446889 ], [ -8.0694539, 42.4471638 ], [ -8.0699789, 42.4471407 ], [ -8.0704576, 42.4470446 ], [ -8.0709197, 42.4469942 ], [ -8.0712785, 42.4469183 ], [ -8.0715026, 42.4466832 ], [ -8.0715523, 42.4462906 ], [ -8.0716994, 42.4461039 ], [ -8.0720319, 42.445954 ], [ -8.0729573, 42.4458683 ], [ -8.0742913, 42.4455753 ], [ -8.074682, 42.4453929 ], [ -8.074696, 42.4450619 ], [ -8.0744773, 42.4448614 ], [ -8.0735873, 42.4446302 ], [ -8.0730608, 42.4443831 ], [ -8.0727789, 42.4439 ], [ -8.0728427, 42.4434316 ], [ -8.0731179, 42.4430741 ], [ -8.0745545, 42.4422901 ], [ -8.0759023, 42.4416601 ], [ -8.0769796, 42.4414475 ], [ -8.0774701, 42.4415009 ], [ -8.0780939, 42.4416986 ], [ -8.0785882, 42.441797 ], [ -8.0789088, 42.4417529 ], [ -8.0789637, 42.4415955 ], [ -8.0764286, 42.4398626 ], [ -8.0751058, 42.4398205 ], [ -8.0744178, 42.4396754 ], [ -8.073678, 42.4393069 ], [ -8.073037, 42.4389091 ], [ -8.0721067, 42.4382731 ], [ -8.0710104, 42.4385219 ], [ -8.0706348, 42.4384409 ], [ -8.070766, 42.4381062 ], [ -8.070831, 42.4379557 ], [ -8.0709219, 42.4377277 ], [ -8.0710008, 42.4375098 ], [ -8.0711018, 42.4372481 ], [ -8.0710859, 42.4372107 ], [ -8.0708111, 42.4372324 ], [ -8.0705406, 42.4373063 ], [ -8.0703366, 42.4373297 ], [ -8.0701013, 42.4372829 ], [ -8.0697834, 42.4371684 ], [ -8.0693784, 42.4370911 ], [ -8.0688795, 42.4370465 ], [ -8.068707, 42.4369017 ], [ -8.0686126, 42.4367677 ], [ -8.0679451, 42.436864 ], [ -8.0664503, 42.4371494 ], [ -8.0661888, 42.4372563 ], [ -8.0648385, 42.4378973 ], [ -8.0636307, 42.4385511 ], [ -8.0645146, 42.4392563 ], [ -8.063568, 42.4397768 ], [ -8.0630249, 42.4401767 ], [ -8.0623571, 42.4407074 ], [ -8.0619232, 42.4412028 ], [ -8.0615588, 42.4417201 ], [ -8.0612537, 42.4421345 ], [ -8.0604032, 42.4424977 ], [ -8.0595192, 42.4428624 ], [ -8.0582088, 42.4433963 ], [ -8.0569368, 42.4418728 ], [ -8.0551257, 42.4403732 ], [ -8.0549409, 42.4397546 ], [ -8.0540286, 42.4359595 ], [ -8.0529081, 42.4347133 ], [ -8.0466614, 42.437661 ], [ -8.0396339, 42.4409765 ], [ -8.0337298, 42.4437614 ], [ -8.0335074, 42.4437171 ], [ -8.0290612, 42.4428415 ], [ -8.0273979, 42.4424105 ], [ -8.0237636, 42.441805 ], [ -8.0253085, 42.4451582 ], [ -8.0258622, 42.4461512 ], [ -8.0262692, 42.4472857 ], [ -8.0264157, 42.4479005 ], [ -8.0267646, 42.4495236 ], [ -8.0266302, 42.45088 ], [ -8.0266447, 42.4521218 ], [ -8.0261848, 42.4547258 ], [ -8.0261858, 42.4550409 ], [ -8.0261654, 42.4564552 ], [ -8.0265163, 42.4615894 ], [ -8.0271941, 42.4624599 ], [ -8.0273163, 42.4629227 ], [ -8.0276799, 42.4630597 ], [ -8.0283485, 42.4630573 ], [ -8.0298151, 42.4626957 ], [ -8.0314688, 42.462848 ], [ -8.0325233, 42.4625045 ], [ -8.0331334, 42.4625316 ], [ -8.0338598, 42.4626437 ], [ -8.0345647, 42.4626396 ], [ -8.0360478, 42.4624842 ], [ -8.0367236, 42.4625715 ], [ -8.0373069, 42.4636262 ], [ -8.0376251, 42.4639542 ], [ -8.0380357, 42.4640712 ], [ -8.038759, 42.4638412 ], [ -8.0394414, 42.463406 ], [ -8.0399944, 42.4633276 ], [ -8.0403853, 42.4636525 ], [ -8.0406964, 42.4640439 ], [ -8.04093, 42.4645287 ], [ -8.0415962, 42.4643463 ], [ -8.0435056, 42.464199 ], [ -8.0442566, 42.4640128 ], [ -8.044962, 42.4637116 ], [ -8.0455047, 42.4633545 ], [ -8.0463015, 42.4626801 ], [ -8.0466499, 42.4624757 ], [ -8.0472685, 42.4624574 ], [ -8.0476126, 42.4629554 ], [ -8.0478098, 42.4634418 ], [ -8.0477147, 42.4637701 ], [ -8.0480663, 42.4640607 ], [ -8.0480895, 42.4643477 ], [ -8.0475496, 42.4653439 ], [ -8.0472835, 42.466418 ], [ -8.046989, 42.4669892 ], [ -8.0457891, 42.4680955 ], [ -8.0436795, 42.4704393 ], [ -8.0419738, 42.4726663 ], [ -8.0414724, 42.4730846 ], [ -8.0410744, 42.4735792 ], [ -8.0409941, 42.4737899 ], [ -8.0413764, 42.4747633 ], [ -8.0421858, 42.4757539 ], [ -8.040763, 42.4772661 ], [ -8.040465, 42.4773423 ], [ -8.0399959, 42.477255 ], [ -8.0390002, 42.4768217 ], [ -8.0385068, 42.4767355 ], [ -8.0382496, 42.4768638 ], [ -8.0368223, 42.4783222 ], [ -8.0367146, 42.4791012 ], [ -8.0364133, 42.4792855 ], [ -8.0360857, 42.4797501 ], [ -8.0351064, 42.4816388 ], [ -8.0348245, 42.4820654 ], [ -8.0344861, 42.4823954 ], [ -8.0340592, 42.4825313 ], [ -8.0336355, 42.4824059 ], [ -8.0331062, 42.4820241 ], [ -8.0327446, 42.4819139 ], [ -8.0325322, 42.4819953 ], [ -8.0323512, 42.4821653 ], [ -8.0321976, 42.4825232 ], [ -8.0321203, 42.4830758 ], [ -8.032235, 42.483746 ] ] ] } },
{ "type": "Feature", "properties": { "CCAA": "12 - Galicia", "PROVINCIA": "32 - Ourense", "MUNICIPIO": "32019 - Carballiño, O", "COD_MUNICIPIO": "32019", "DISTRITO": "01", "SECCION": "3201901004", "V1_H": 79.81, "V1_M": 85.63, "V2_H": 79.83092799000001, "V2_M": 85.85143097, "V3_H": 80.00184088, "V3_M": 85.62912109 }, "geometry": { "type": "Polygon", "coordinates": [ [ [ -8.0529081, 42.4347133 ], [ -8.0540286, 42.4359595 ], [ -8.0549409, 42.4397546 ], [ -8.0551257, 42.4403732 ], [ -8.0569368, 42.4418728 ], [ -8.0582088, 42.4433963 ], [ -8.0595192, 42.4428624 ], [ -8.0604032, 42.4424977 ], [ -8.0612537, 42.4421345 ], [ -8.0615588, 42.4417201 ], [ -8.0619232, 42.4412028 ], [ -8.0623571, 42.4407074 ], [ -8.0630249, 42.4401767 ], [ -8.063568, 42.4397768 ], [ -8.0645146, 42.4392563 ], [ -8.0636307, 42.4385511 ], [ -8.0648385, 42.4378973 ], [ -8.0661888, 42.4372563 ], [ -8.0664503, 42.4371494 ], [ -8.0679451, 42.436864 ], [ -8.0686126, 42.4367677 ], [ -8.068707, 42.4369017 ], [ -8.0688795, 42.4370465 ], [ -8.0693784, 42.4370911 ], [ -8.0697834, 42.4371684 ], [ -8.0701013, 42.4372829 ], [ -8.0703366, 42.4373297 ], [ -8.0705406, 42.4373063 ], [ -8.0708111, 42.4372324 ], [ -8.0710859, 42.4372107 ], [ -8.0711018, 42.4372481 ], [ -8.0710008, 42.4375098 ], [ -8.0709219, 42.4377277 ], [ -8.070831, 42.4379557 ], [ -8.070766, 42.4381062 ], [ -8.0706348, 42.4384409 ], [ -8.0710104, 42.4385219 ], [ -8.0721067, 42.4382731 ], [ -8.073037, 42.4389091 ], [ -8.073678, 42.4393069 ], [ -8.0744178, 42.4396754 ], [ -8.0751058, 42.4398205 ], [ -8.0764286, 42.4398626 ], [ -8.0789637, 42.4415955 ], [ -8.0790736, 42.4412799 ], [ -8.0789029, 42.4404166 ], [ -8.0789166, 42.4404071 ], [ -8.0787714, 42.439909 ], [ -8.0785773, 42.4394174 ], [ -8.0784499, 42.4391944 ], [ -8.078344, 42.438999 ], [ -8.078178, 42.4386967 ], [ -8.0780547, 42.4384449 ], [ -8.0780296, 42.4382936 ], [ -8.0780527, 42.438102 ], [ -8.078179, 42.4378344 ], [ -8.0781833, 42.4377294 ], [ -8.0783964, 42.4375008 ], [ -8.0786515, 42.4374751 ], [ -8.0789185, 42.4375157 ], [ -8.0791363, 42.4376632 ], [ -8.0793111, 42.4378365 ], [ -8.0797837, 42.4379536 ], [ -8.0800435, 42.437985 ], [ -8.0803527, 42.4378331 ], [ -8.0805195, 42.4376685 ], [ -8.0805749, 42.437604 ], [ -8.080203, 42.4373948 ], [ -8.0794733, 42.4370001 ], [ -8.078533, 42.4364669 ], [ -8.0770245, 42.4356138 ], [ -8.0751221, 42.4345482 ], [ -8.0746397, 42.4342607 ], [ -8.0744939, 42.4341736 ], [ -8.0734739, 42.4337339 ], [ -8.0707486, 42.4325791 ], [ -8.0684095, 42.4315879 ], [ -8.0667155, 42.4307873 ], [ -8.0639769, 42.4294928 ], [ -8.0610951, 42.430849 ], [ -8.0529081, 42.4347133 ] ] ] } },
{ "type": "Feature", "properties": { "CCAA": "12 - Galicia", "PROVINCIA": "32 - Ourense", "MUNICIPIO": "32019 - Carballiño, O", "COD_MUNICIPIO": "32019", "DISTRITO": "02", "SECCION": "3201902002", "V1_H": 79.94, "V1_M": 85.93, "V2_H": 80.18978947, "V2_M": 86.02067046000001, "V3_H": 79.89390484, "V3_M": 85.97042077 }, "geometry": { "type": "Polygon", "coordinates": [ [ [ -8.1158719, 42.4216442 ], [ -8.1161166, 42.4214208 ], [ -8.1158387, 42.4213642 ], [ -8.1157735, 42.4212337 ], [ -8.115749, 42.4210919 ], [ -8.115536, 42.4208442 ], [ -8.1155345, 42.4205108 ], [ -8.1154992, 42.420236 ], [ -8.1154061, 42.4200401 ], [ -8.1151978, 42.4195349 ], [ -8.115074, 42.4194357 ], [ -8.114969, 42.4197262 ], [ -8.1148008, 42.4200291 ], [ -8.1145091, 42.4203947 ], [ -8.1142947, 42.4206043 ], [ -8.1140373, 42.4207588 ], [ -8.1139359, 42.4209348 ], [ -8.1137549, 42.4212383 ], [ -8.1135848, 42.4213602 ], [ -8.1133836, 42.4214169 ], [ -8.1133091, 42.4214488 ], [ -8.1131266, 42.4214188 ], [ -8.1128175, 42.4214136 ], [ -8.1126517, 42.4214305 ], [ -8.1124211, 42.4214409 ], [ -8.1124032, 42.4215369 ], [ -8.1123263, 42.4215404 ], [ -8.1122433, 42.4214679 ], [ -8.1122076, 42.4213456 ], [ -8.1120973, 42.4212552 ], [ -8.1118431, 42.4211332 ], [ -8.1114781, 42.4210733 ], [ -8.1111575, 42.4209257 ], [ -8.1106346, 42.4206632 ], [ -8.1102782, 42.4203933 ], [ -8.1100647, 42.420298 ], [ -8.1098197, 42.4202899 ], [ -8.1095845, 42.4202433 ], [ -8.1093597, 42.4201676 ], [ -8.1090239, 42.419992 ], [ -8.108652, 42.4198467 ], [ -8.1084575, 42.4198268 ], [ -8.1077449, 42.4192869 ], [ -8.1068357, 42.4199659 ], [ -8.1065657, 42.4202829 ], [ -8.10654, 42.4205984 ], [ -8.1066354, 42.4208228 ], [ -8.1066485, 42.4209842 ], [ -8.1066589, 42.4212696 ], [ -8.1067251, 42.4216097 ], [ -8.106551, 42.4219986 ], [ -8.1064852, 42.4222969 ], [ -8.1064961, 42.4224298 ], [ -8.1066478, 42.4225564 ], [ -8.1068741, 42.4226511 ], [ -8.1072958, 42.4227752 ], [ -8.107529, 42.4229553 ], [ -8.1077995, 42.4232767 ], [ -8.1079183, 42.4234715 ], [ -8.1078499, 42.4235793 ], [ -8.1077267, 42.423804 ], [ -8.1074475, 42.424007 ], [ -8.1070308, 42.4241019 ], [ -8.1068191, 42.4241875 ], [ -8.1066055, 42.4244067 ], [ -8.1065674, 42.4245704 ], [ -8.1067349, 42.4250488 ], [ -8.106879, 42.425254 ], [ -8.1063249, 42.4251582 ], [ -8.1054375, 42.4252624 ], [ -8.1044005, 42.4254055 ], [ -8.103485, 42.4254299 ], [ -8.1024474, 42.4252978 ], [ -8.101619, 42.4253182 ], [ -8.1007152, 42.4254878 ], [ -8.0996411, 42.4257135 ], [ -8.0982748, 42.4258387 ], [ -8.097682, 42.4259542 ], [ -8.0970918, 42.4260693 ], [ -8.0965724, 42.4263998 ], [ -8.0963447, 42.4265337 ], [ -8.0963771, 42.4265407 ], [ -8.095716, 42.4269258 ], [ -8.0953387, 42.4271904 ], [ -8.0948128, 42.4275235 ], [ -8.0943361, 42.4278305 ], [ -8.0938451, 42.4281192 ], [ -8.0934475, 42.4283704 ], [ -8.0927881, 42.4287237 ], [ -8.092172, 42.429056 ], [ -8.0904716, 42.429894 ], [ -8.089366, 42.4303767 ], [ -8.0890244, 42.4305253 ], [ -8.0886847, 42.4306977 ], [ -8.08845, 42.4308177 ], [ -8.0877896, 42.4312377 ], [ -8.0874053, 42.431574 ], [ -8.0869362, 42.431976 ], [ -8.0865515, 42.4323075 ], [ -8.0862844, 42.4324899 ], [ -8.086297, 42.4325023 ], [ -8.085547, 42.4330883 ], [ -8.0852128, 42.433408 ], [ -8.0844477, 42.4339661 ], [ -8.0843301, 42.4340643 ], [ -8.0843303, 42.4340644 ], [ -8.0842548, 42.43412 ], [ -8.0841864, 42.4342278 ], [ -8.0840834, 42.4343848 ], [ -8.0838622, 42.434671 ], [ -8.0837054, 42.434959 ], [ -8.0835195, 42.4353627 ], [ -8.083093, 42.4362106 ], [ -8.0828034, 42.4364474 ], [ -8.0825715, 42.4366006 ], [ -8.082258, 42.4367003 ], [ -8.0819245, 42.4367914 ], [ -8.081543, 42.4368464 ], [ -8.0812426, 42.4368693 ], [ -8.0810261, 42.4370552 ], [ -8.0808067, 42.4372841 ], [ -8.080577, 42.4376052 ], [ -8.0805749, 42.437604 ], [ -8.0805195, 42.4376685 ], [ -8.0803527, 42.4378331 ], [ -8.0800435, 42.437985 ], [ -8.0797837, 42.4379536 ], [ -8.0793111, 42.4378365 ], [ -8.0791363, 42.4376632 ], [ -8.0789185, 42.4375157 ], [ -8.0786515, 42.4374751 ], [ -8.0783964, 42.4375008 ], [ -8.0781833, 42.4377294 ], [ -8.078179, 42.4378344 ], [ -8.0780527, 42.438102 ], [ -8.0780296, 42.4382936 ], [ -8.0780547, 42.4384449 ], [ -8.078178, 42.4386967 ], [ -8.078344, 42.438999 ], [ -8.0784499, 42.4391944 ], [ -8.0785773, 42.4394174 ], [ -8.0787714, 42.439909 ], [ -8.0789166, 42.4404071 ], [ -8.0789029, 42.4404166 ], [ -8.0790736, 42.4412799 ], [ -8.0789637, 42.4415955 ], [ -8.0789088, 42.4417529 ], [ -8.0785882, 42.441797 ], [ -8.0780939, 42.4416986 ], [ -8.0774701, 42.4415009 ], [ -8.0769796, 42.4414475 ], [ -8.0759023, 42.4416601 ], [ -8.0745545, 42.4422901 ], [ -8.0731179, 42.4430741 ], [ -8.0728427, 42.4434316 ], [ -8.0727789, 42.4439 ], [ -8.0730608, 42.4443831 ], [ -8.0735873, 42.4446302 ], [ -8.0744773, 42.4448614 ], [ -8.074696, 42.4450619 ], [ -8.074682, 42.4453929 ], [ -8.0742913, 42.4455753 ], [ -8.0729573, 42.4458683 ], [ -8.0720319, 42.445954 ], [ -8.0716994, 42.4461039 ], [ -8.0715523, 42.4462906 ], [ -8.0715026, 42.4466832 ], [ -8.0712785, 42.4469183 ], [ -8.0709197, 42.4469942 ], [ -8.0704576, 42.4470446 ], [ -8.0699789, 42.4471407 ], [ -8.0694539, 42.4471638 ], [ -8.0685282, 42.446889 ], [ -8.0678082, 42.4467556 ], [ -8.0675629, 42.4466185 ], [ -8.0670729, 42.4474453 ], [ -8.06696, 42.448183 ], [ -8.0670613, 42.4489112 ], [ -8.0672535, 42.4496993 ], [ -8.0684519, 42.4512395 ], [ -8.0690981, 42.4523262 ], [ -8.0699197, 42.4529176 ], [ -8.0709306, 42.4531917 ], [ -8.0714759, 42.4535596 ], [ -8.071743, 42.4542073 ], [ -8.0716275, 42.4547922 ], [ -8.0714226, 42.4561367 ], [ -8.0714581, 42.4570871 ], [ -8.0727901, 42.4576116 ], [ -8.074936, 42.4618403 ], [ -8.0769008, 42.4623667 ], [ -8.0773883, 42.4609791 ], [ -8.0782931, 42.4607409 ], [ -8.0792809, 42.4603279 ], [ -8.079921, 42.4599753 ], [ -8.0795561, 42.4590732 ], [ -8.0794568, 42.4584474 ], [ -8.0798677, 42.4564666 ], [ -8.0798832, 42.4554576 ], [ -8.0797541, 42.4549141 ], [ -8.079786, 42.4544086 ], [ -8.0799762, 42.4539049 ], [ -8.0808566, 42.4527675 ], [ -8.0828627, 42.4536686 ], [ -8.0833848, 42.4544106 ], [ -8.0843189, 42.4551343 ], [ -8.08492, 42.4553506 ], [ -8.0861554, 42.4555927 ], [ -8.0877129, 42.4583053 ], [ -8.0885472, 42.4594475 ], [ -8.0898068, 42.4599856 ], [ -8.0900726, 42.4604149 ], [ -8.0903264, 42.4608447 ], [ -8.0911593, 42.4615188 ], [ -8.0926587, 42.4626134 ], [ -8.0933441, 42.4632671 ], [ -8.0936207, 42.4636779 ], [ -8.094534, 42.4650416 ], [ -8.0948216, 42.465587 ], [ -8.0950602, 42.4667287 ], [ -8.0964434, 42.4672882 ], [ -8.0975093, 42.4678348 ], [ -8.0987286, 42.4684736 ], [ -8.1001645, 42.4693819 ], [ -8.1007253, 42.4682045 ], [ -8.101326, 42.4673674 ], [ -8.1021201, 42.4656215 ], [ -8.102806, 42.4646365 ], [ -8.1038237, 42.4635468 ], [ -8.1070555, 42.4605305 ], [ -8.1075013, 42.4600334 ], [ -8.1098787, 42.4541474 ], [ -8.1093532, 42.4536667 ], [ -8.1078872, 42.4525349 ], [ -8.1049457, 42.4507487 ], [ -8.1041538, 42.4502799 ], [ -8.1040527, 42.4499333 ], [ -8.1039964, 42.4484954 ], [ -8.1045776, 42.4472721 ], [ -8.1053378, 42.4461577 ], [ -8.10457, 42.4452377 ], [ -8.1021441, 42.445004 ], [ -8.1015949, 42.4439301 ], [ -8.1004987, 42.4422595 ], [ -8.1010213, 42.4409128 ], [ -8.1023806, 42.4401409 ], [ -8.1028424, 42.4390939 ], [ -8.1036753, 42.4376793 ], [ -8.1043356, 42.4365334 ], [ -8.1060178, 42.435549 ], [ -8.1063771, 42.4353349 ], [ -8.1075129, 42.4343569 ], [ -8.1105409, 42.4313946 ], [ -8.1111233, 42.4309364 ], [ -8.1116144, 42.4306984 ], [ -8.1128058, 42.4305551 ], [ -8.1129138, 42.4303882 ], [ -8.1144046, 42.4279538 ], [ -8.1151723, 42.4261909 ], [ -8.1158219, 42.4252263 ], [ -8.1157949, 42.4251142 ], [ -8.1157819, 42.4247575 ], [ -8.1159819, 42.4244508 ], [ -8.1159198, 42.4239653 ], [ -8.1157515, 42.4230438 ], [ -8.1157085, 42.4227528 ], [ -8.1155961, 42.4225577 ], [ -8.1152147, 42.4218626 ], [ -8.1158719, 42.4216442 ] ] ] } }
]
}
