{
"type": "FeatureCollection",
"name": "32055",
"features": [
{ "type": "Feature", "properties": { "CCAA": "12 - Galicia", "PROVINCIA": "32 - Ourense", "MUNICIPIO": "32055 - Paderne de Allariz", "COD_MUNICIPIO": "32055", "DISTRITO": "01", "SECCION": "3205501001", "V1_H": 80.31, "V1_M": 86.3, "V2_H": 80.10187432, "V2_M": 86.1135989, "V3_H": 80.75259804, "V3_M": 86.72412179 }, "geometry": { "type": "Polygon", "coordinates": [ [ [ -7.7071861, 42.3004453 ], [ -7.7079294, 42.3021164 ], [ -7.711312, 42.3048582 ], [ -7.7193536, 42.3046979 ], [ -7.7236462, 42.305007 ], [ -7.7351196, 42.3067746 ], [ -7.7396765, 42.3075312 ], [ -7.7419597, 42.3086971 ], [ -7.7428944, 42.3091895 ], [ -7.7428938, 42.307731 ], [ -7.7441247, 42.3068426 ], [ -7.7441609, 42.306517 ], [ -7.744282, 42.3053866 ], [ -7.7456568, 42.3047984 ], [ -7.7459057, 42.3055263 ], [ -7.7463204, 42.3060403 ], [ -7.7467888, 42.306462 ], [ -7.7475781, 42.3064743 ], [ -7.7490629, 42.3054133 ], [ -7.7496394, 42.3058215 ], [ -7.7503615, 42.3057466 ], [ -7.7522011, 42.305211 ], [ -7.7522012, 42.305211 ], [ -7.7519243, 42.301216 ], [ -7.7491471, 42.2976759 ], [ -7.7491471, 42.2976759 ], [ -7.7501181, 42.2973656 ], [ -7.7517072, 42.2972095 ], [ -7.7532909, 42.2971437 ], [ -7.753291, 42.2971437 ], [ -7.7545549, 42.2968572 ], [ -7.7549643, 42.2952105 ], [ -7.7557083, 42.2949455 ], [ -7.7573294, 42.294572 ], [ -7.757966, 42.2933661 ], [ -7.7579749, 42.2925194 ], [ -7.7581964, 42.2922401 ], [ -7.7586261, 42.2919881 ], [ -7.7589032, 42.2916435 ], [ -7.7589883, 42.2913248 ], [ -7.7597203, 42.2912223 ], [ -7.7604633, 42.2906242 ], [ -7.7608412, 42.2903294 ], [ -7.762725, 42.2892606 ], [ -7.7646957, 42.2906281 ], [ -7.7675643, 42.2918411 ], [ -7.7684232, 42.2918143 ], [ -7.76954, 42.2916687 ], [ -7.7700395, 42.2915399 ], [ -7.7745772, 42.2934934 ], [ -7.7779507, 42.2949642 ], [ -7.7794569, 42.2961167 ], [ -7.7833255, 42.2961171 ], [ -7.7905301, 42.2961308 ], [ -7.7938782, 42.2961436 ], [ -7.7942721, 42.2952628 ], [ -7.7942301, 42.2943912 ], [ -7.7946367, 42.2924024 ], [ -7.794007, 42.2909793 ], [ -7.793707, 42.2883089 ], [ -7.7939064, 42.2871031 ], [ -7.7941136, 42.2845645 ], [ -7.7957689, 42.2817761 ], [ -7.7987598, 42.2818848 ], [ -7.7963733, 42.2779244 ], [ -7.7905345, 42.2779889 ], [ -7.7920665, 42.2711813 ], [ -7.7921569, 42.2707626 ], [ -7.7922548, 42.2703091 ], [ -7.7921407, 42.2673698 ], [ -7.7920836, 42.2661387 ], [ -7.7920836, 42.2661387 ], [ -7.7920823, 42.2661075 ], [ -7.7920168, 42.2646199 ], [ -7.7855453, 42.2623969 ], [ -7.7823897, 42.260422 ], [ -7.7819756, 42.2597551 ], [ -7.7818331, 42.2588337 ], [ -7.7814051, 42.2584644 ], [ -7.7800923, 42.257772 ], [ -7.77918, 42.2569278 ], [ -7.7779524, 42.2531976 ], [ -7.7776933, 42.2500933 ], [ -7.7776933, 42.2500933 ], [ -7.7775666, 42.2487391 ], [ -7.7754203, 42.2455155 ], [ -7.7741249, 42.2410408 ], [ -7.7712437, 42.2386671 ], [ -7.7712436, 42.2386671 ], [ -7.7674026, 42.2396284 ], [ -7.763709, 42.2423842 ], [ -7.7592856, 42.2500951 ], [ -7.7582464, 42.2519029 ], [ -7.757999, 42.2523184 ], [ -7.7579989, 42.2523184 ], [ -7.7526928, 42.25009 ], [ -7.7519048, 42.2497626 ], [ -7.7480892, 42.2481743 ], [ -7.7467879, 42.2482733 ], [ -7.7422108, 42.2486431 ], [ -7.7400052, 42.250094 ], [ -7.7392903, 42.2505644 ], [ -7.7382383, 42.2512566 ], [ -7.7323508, 42.2566231 ], [ -7.7250177, 42.2619591 ], [ -7.7197144, 42.262358 ], [ -7.7049375, 42.2647762 ], [ -7.7051506, 42.2690981 ], [ -7.7049564, 42.2695833 ], [ -7.7029921, 42.2710416 ], [ -7.7019751, 42.272848 ], [ -7.7018644, 42.2746172 ], [ -7.7061939, 42.2747994 ], [ -7.7055355, 42.2765371 ], [ -7.7055355, 42.2765372 ], [ -7.7054239, 42.2768298 ], [ -7.6973117, 42.2810436 ], [ -7.6973117, 42.2810436 ], [ -7.69541, 42.2825352 ], [ -7.69541, 42.2825352 ], [ -7.69541, 42.2825352 ], [ -7.6917395, 42.2917072 ], [ -7.6967829, 42.2929949 ], [ -7.6999267, 42.2984029 ], [ -7.7071861, 42.3004453 ] ] ] } }
]
}
