{
"type": "FeatureCollection",
"name": "32061",
"features": [
{ "type": "Feature", "properties": { "CCAA": "12 - Galicia", "PROVINCIA": "32 - Ourense", "MUNICIPIO": "32061 - Piñor", "COD_MUNICIPIO": "32061", "DISTRITO": "01", "SECCION": "3206101001", "V1_H": 80.01, "V1_M": 85.88, "V2_H": 79.90171161000001, "V2_M": 85.93881404, "V3_H": 80.29104055000001, "V3_M": 85.88520273 }, "geometry": { "type": "Polygon", "coordinates": [ [ [ -7.9896532, 42.5722482 ], [ -7.9900245, 42.572322 ], [ -7.9925137, 42.5725283 ], [ -7.9928514, 42.5724866 ], [ -7.9950992, 42.5708938 ], [ -7.9988728, 42.5679739 ], [ -8.0010241, 42.5665473 ], [ -8.0015919, 42.5643618 ], [ -8.0027225, 42.5625117 ], [ -8.0031596, 42.5614302 ], [ -8.0032108, 42.5610048 ], [ -8.0031712, 42.5603583 ], [ -8.0029495, 42.5597198 ], [ -8.0028147, 42.5586454 ], [ -8.0081715, 42.5549806 ], [ -8.0086054, 42.5547725 ], [ -8.0092948, 42.5545623 ], [ -8.0100955, 42.554221 ], [ -8.0122147, 42.5519494 ], [ -8.0127066, 42.5498842 ], [ -8.012954, 42.5484148 ], [ -8.0131823, 42.5462531 ], [ -8.0136676, 42.5460788 ], [ -8.0138323, 42.5458555 ], [ -8.0139155, 42.5455277 ], [ -8.013773, 42.5448138 ], [ -8.0139392, 42.5446084 ], [ -8.0142973, 42.5443676 ], [ -8.0150636, 42.5440549 ], [ -8.0155394, 42.543764 ], [ -8.0167691, 42.5427017 ], [ -8.0189939, 42.5422078 ], [ -8.0199789, 42.5423446 ], [ -8.0214, 42.5426062 ], [ -8.0226741, 42.5428564 ], [ -8.0279649, 42.5440011 ], [ -8.0317931, 42.5455791 ], [ -8.0321367, 42.5459151 ], [ -8.0347047, 42.5502854 ], [ -8.0351627, 42.5506793 ], [ -8.0381207, 42.5515753 ], [ -8.0390202, 42.5517067 ], [ -8.0417087, 42.5509218 ], [ -8.0458078, 42.5532797 ], [ -8.0487998, 42.5548941 ], [ -8.0506422, 42.5532821 ], [ -8.0530632, 42.5509964 ], [ -8.0536183, 42.5509358 ], [ -8.0559188, 42.5509241 ], [ -8.0565793, 42.5506608 ], [ -8.0597426, 42.5486751 ], [ -8.0618727, 42.5444575 ], [ -8.0645698, 42.5397286 ], [ -8.0658861, 42.5380947 ], [ -8.0660846, 42.5376898 ], [ -8.0683449, 42.5286317 ], [ -8.067997, 42.5259913 ], [ -8.0668514, 42.5199127 ], [ -8.0666307, 42.5187416 ], [ -8.0654123, 42.5182735 ], [ -8.0634918, 42.5177014 ], [ -8.0597332, 42.5165232 ], [ -8.056949, 42.5156504 ], [ -8.0506118, 42.5116183 ], [ -8.0488547, 42.5108047 ], [ -8.0388639, 42.5055109 ], [ -8.038197, 42.504784 ], [ -8.0378913, 42.5043114 ], [ -8.0377897, 42.5039557 ], [ -8.0377116, 42.5014744 ], [ -8.0377917, 42.5009577 ], [ -8.0379447, 42.5005908 ], [ -8.0379699, 42.5001486 ], [ -8.0380098, 42.5000388 ], [ -8.0382691, 42.499028 ], [ -8.0382751, 42.4986496 ], [ -8.0380437, 42.4975885 ], [ -8.0378006, 42.496987 ], [ -8.038109, 42.4965863 ], [ -8.0377667, 42.4958092 ], [ -8.0374181, 42.4952573 ], [ -8.03709, 42.4951097 ], [ -8.0362483, 42.4949308 ], [ -8.0358666, 42.4947225 ], [ -8.0347636, 42.4941679 ], [ -8.0336757, 42.4938017 ], [ -8.0333905, 42.4937333 ], [ -8.0327707, 42.4935895 ], [ -8.0324867, 42.493386 ], [ -8.0324763, 42.4929543 ], [ -8.0327228, 42.4919351 ], [ -8.0330576, 42.4915602 ], [ -8.0335737, 42.4913214 ], [ -8.034261, 42.4912461 ], [ -8.0354075, 42.4911326 ], [ -8.0356341, 42.4909246 ], [ -8.0357257, 42.4905514 ], [ -8.0357004, 42.4900844 ], [ -8.0352806, 42.4895537 ], [ -8.035293, 42.489103 ], [ -8.0351636, 42.4887036 ], [ -8.0347288, 42.4881376 ], [ -8.0343056, 42.4877151 ], [ -8.0328048, 42.4870519 ], [ -8.0324211, 42.4853043 ], [ -8.0324074, 42.4843776 ], [ -8.032235, 42.483746 ], [ -8.0320943, 42.4842653 ], [ -8.0315298, 42.4861718 ], [ -8.0311433, 42.486963 ], [ -8.028625, 42.4871099 ], [ -8.0265587, 42.4853102 ], [ -8.0247266, 42.4838513 ], [ -8.0245197, 42.4836983 ], [ -8.0240148, 42.4836215 ], [ -8.0237939, 42.4837482 ], [ -8.0236672, 42.4839879 ], [ -8.0233703, 42.4845321 ], [ -8.0228271, 42.484736 ], [ -8.022739, 42.4842447 ], [ -8.0226517, 42.4837624 ], [ -8.0221872, 42.4832787 ], [ -8.0214109, 42.4825475 ], [ -8.0192443, 42.4805541 ], [ -8.0188642, 42.4803637 ], [ -8.0172091, 42.4798962 ], [ -8.0157488, 42.4795821 ], [ -8.0129624, 42.4780478 ], [ -8.0104485, 42.4765736 ], [ -8.0065056, 42.4739554 ], [ -8.0062715, 42.4739199 ], [ -8.0056316, 42.4738227 ], [ -8.005135, 42.4740665 ], [ -8.0051284, 42.4740698 ], [ -8.0046792, 42.4740804 ], [ -8.0042202, 42.4742716 ], [ -8.0040609, 42.4751698 ], [ -8.0037474, 42.4756607 ], [ -8.0032136, 42.4762873 ], [ -8.0028238, 42.4765834 ], [ -8.0026635, 42.4767075 ], [ -8.0011458, 42.4771971 ], [ -8.0006254, 42.4772288 ], [ -8.0000229, 42.4771472 ], [ -7.9992721, 42.4768829 ], [ -7.9986077, 42.4767859 ], [ -7.9978194, 42.4774236 ], [ -7.996294, 42.4785796 ], [ -7.9944908, 42.4782353 ], [ -7.9937315, 42.4781694 ], [ -7.9901419, 42.4784523 ], [ -7.9907583, 42.480388 ], [ -7.9893025, 42.4810457 ], [ -7.9882288, 42.4816148 ], [ -7.9879508, 42.4817889 ], [ -7.9871059, 42.48233 ], [ -7.9825545, 42.4859676 ], [ -7.9791012, 42.4890441 ], [ -7.9768921, 42.4918592 ], [ -7.9754808, 42.4933881 ], [ -7.9732943, 42.495572 ], [ -7.9719413, 42.4966121 ], [ -7.9705412, 42.4978255 ], [ -7.970385, 42.4987686 ], [ -7.9703335, 42.4995 ], [ -7.9700246, 42.5000536 ], [ -7.9699712, 42.500146 ], [ -7.9689519, 42.5012527 ], [ -7.9683277, 42.501973 ], [ -7.9687919, 42.502457 ], [ -7.9692854, 42.5031558 ], [ -7.9696491, 42.5039052 ], [ -7.969956, 42.5043076 ], [ -7.972447, 42.5075738 ], [ -7.9788112, 42.5101777 ], [ -7.9790202, 42.5102046 ], [ -7.9796123, 42.5103048 ], [ -7.9799526, 42.510452 ], [ -7.9808179, 42.5113866 ], [ -7.9808329, 42.511422 ], [ -7.9820977, 42.5123302 ], [ -7.9838746, 42.5114154 ], [ -7.9859223, 42.5102367 ], [ -7.9863931, 42.5098831 ], [ -7.9869473, 42.5096608 ], [ -7.9872653, 42.5093769 ], [ -7.9877359, 42.5084111 ], [ -7.9881388, 42.5079703 ], [ -7.9884884, 42.5080811 ], [ -7.988783, 42.5082663 ], [ -7.9895645, 42.5102848 ], [ -7.9897522, 42.5106548 ], [ -7.9897858, 42.5109234 ], [ -7.9895798, 42.5115446 ], [ -7.9894101, 42.5117051 ], [ -7.9886105, 42.511902 ], [ -7.988144, 42.5121565 ], [ -7.9848739, 42.5157113 ], [ -7.9829335, 42.5206845 ], [ -7.982749, 42.5226462 ], [ -7.982219, 42.5240917 ], [ -7.981473, 42.5257268 ], [ -7.9786737, 42.5321508 ], [ -7.9780401, 42.5333945 ], [ -7.9777683, 42.5339278 ], [ -7.9735524, 42.5361731 ], [ -7.9730308, 42.5365019 ], [ -7.9719575, 42.537701 ], [ -7.9707578, 42.5386894 ], [ -7.9678344, 42.5420396 ], [ -7.9697728, 42.5417663 ], [ -7.9716855, 42.5430065 ], [ -7.9738745, 42.5446578 ], [ -7.9744641, 42.5451813 ], [ -7.9756296, 42.5466701 ], [ -7.9747069, 42.5493031 ], [ -7.9680358, 42.5533026 ], [ -7.9677651, 42.5566365 ], [ -7.967104, 42.5582767 ], [ -7.9661272, 42.560696 ], [ -7.9627102, 42.562447 ], [ -7.961173, 42.5633329 ], [ -7.9583477, 42.564716 ], [ -7.9576079, 42.5650632 ], [ -7.9558129, 42.5654652 ], [ -7.9499824, 42.5664291 ], [ -7.9494503, 42.5666323 ], [ -7.9495492, 42.5677263 ], [ -7.9496146, 42.5708565 ], [ -7.9519561, 42.570431 ], [ -7.9541475, 42.5699579 ], [ -7.957852, 42.5693651 ], [ -7.9582169, 42.5692052 ], [ -7.9615908, 42.5672131 ], [ -7.9637828, 42.5669018 ], [ -7.9652572, 42.5666037 ], [ -7.9673713, 42.5663858 ], [ -7.9689885, 42.5663515 ], [ -7.9724412, 42.5664263 ], [ -7.9736071, 42.5663846 ], [ -7.9786088, 42.5684715 ], [ -7.9835257, 42.5702558 ], [ -7.9867019, 42.5712877 ], [ -7.9856792, 42.570531 ], [ -7.9843731, 42.5697327 ], [ -7.9841074, 42.5693032 ], [ -7.9840038, 42.5689206 ], [ -7.9838822, 42.5681606 ], [ -7.9839003, 42.5659451 ], [ -7.9835978, 42.5639866 ], [ -7.9836735, 42.5637132 ], [ -7.9839104, 42.5633248 ], [ -7.9839046, 42.5631 ], [ -7.9830114, 42.5624367 ], [ -7.9825514, 42.5615564 ], [ -7.9826406, 42.5609944 ], [ -7.9821378, 42.5603411 ], [ -7.9818008, 42.5600857 ], [ -7.9817366, 42.5600435 ], [ -7.9809398, 42.5596731 ], [ -7.9820314, 42.5596165 ], [ -7.9822134, 42.5596086 ], [ -7.982581, 42.5594845 ], [ -7.9832006, 42.5591604 ], [ -7.9840144, 42.5591339 ], [ -7.9843292, 42.5589581 ], [ -7.985093, 42.5589158 ], [ -7.9878144, 42.5591391 ], [ -7.9883641, 42.5593132 ], [ -7.9905015, 42.5592379 ], [ -7.9963816, 42.559215 ], [ -7.9954157, 42.5608417 ], [ -7.9950292, 42.5617949 ], [ -7.9950463, 42.5620102 ], [ -7.9956023, 42.5633274 ], [ -7.9957899, 42.5646066 ], [ -7.995619, 42.5655143 ], [ -7.9948735, 42.5671585 ], [ -7.9941349, 42.5681271 ], [ -7.9934541, 42.568751 ], [ -7.9923847, 42.5692389 ], [ -7.9918044, 42.5695974 ], [ -7.9908272, 42.5703243 ], [ -7.9903653, 42.5707946 ], [ -7.9900406, 42.571304 ], [ -7.9896532, 42.5722482 ] ] ] } }
]
}
