{
"type": "FeatureCollection",
"name": "34015",
"features": [
{ "type": "Feature", "properties": { "CCAA": "07 - Castilla y León", "PROVINCIA": "34 - Palencia", "MUNICIPIO": "34015 - Arconada", "COD_MUNICIPIO": "34015", "DISTRITO": "01", "SECCION": "3401501001", "V1_H": 75.48, "V1_M": 82.31, "V2_H": 75.36985678000001, "V2_M": 82.56533706, "V3_H": 75.8600571, "V3_M": 82.01450712 }, "geometry": { "type": "Polygon", "coordinates": [ [ [ -4.4480472, 42.3412242 ], [ -4.4496102, 42.34215 ], [ -4.450291, 42.3427178 ], [ -4.4521712, 42.3447654 ], [ -4.4531244, 42.3455638 ], [ -4.4541203, 42.3461095 ], [ -4.4575045, 42.3480839 ], [ -4.459765, 42.3497572 ], [ -4.4615104, 42.3512029 ], [ -4.4626414, 42.3528546 ], [ -4.4641676, 42.3537447 ], [ -4.4656349, 42.3547076 ], [ -4.4705095, 42.3544291 ], [ -4.4734165, 42.3551662 ], [ -4.4751074, 42.3552976 ], [ -4.4805166, 42.3576235 ], [ -4.4817514, 42.3579767 ], [ -4.484285, 42.3583132 ], [ -4.4850387, 42.3583485 ], [ -4.4862967, 42.3581431 ], [ -4.4882466, 42.358442 ], [ -4.4906562, 42.3591852 ], [ -4.4933933, 42.3588794 ], [ -4.4954943, 42.3588881 ], [ -4.4982324, 42.3591405 ], [ -4.4991918, 42.359146 ], [ -4.5001076, 42.3593592 ], [ -4.5006713, 42.359577 ], [ -4.5018729, 42.3605699 ], [ -4.5027529, 42.3618282 ], [ -4.5033379, 42.3629372 ], [ -4.5052617, 42.3626418 ], [ -4.5077594, 42.3619696 ], [ -4.5120549, 42.3613277 ], [ -4.5135829, 42.3612445 ], [ -4.5143631, 42.3613693 ], [ -4.5144192, 42.3606661 ], [ -4.5142499, 42.358678 ], [ -4.5157487, 42.3558575 ], [ -4.516066, 42.3544124 ], [ -4.5173138, 42.3497489 ], [ -4.5155191, 42.348827 ], [ -4.5149134, 42.3468628 ], [ -4.5130261, 42.3425829 ], [ -4.5127335, 42.3410108 ], [ -4.5117844, 42.3388889 ], [ -4.5126102, 42.3358611 ], [ -4.5128804, 42.333462 ], [ -4.5108574, 42.3290668 ], [ -4.5100109, 42.3276731 ], [ -4.5100508, 42.3247727 ], [ -4.5080292, 42.3224488 ], [ -4.5056218, 42.3197156 ], [ -4.5046916, 42.3188723 ], [ -4.5040903, 42.3175743 ], [ -4.5022454, 42.3160315 ], [ -4.5023958, 42.3146966 ], [ -4.5015721, 42.3152658 ], [ -4.4972111, 42.3150706 ], [ -4.4919957, 42.3156879 ], [ -4.4884988, 42.3161116 ], [ -4.4868796, 42.3164028 ], [ -4.4831693, 42.3165228 ], [ -4.4750803, 42.3234896 ], [ -4.4693604, 42.3274985 ], [ -4.4647237, 42.3290528 ], [ -4.4621174, 42.3286627 ], [ -4.4578407, 42.328474 ], [ -4.4549907, 42.3322566 ], [ -4.4540112, 42.3334668 ], [ -4.4539639, 42.3335215 ], [ -4.4488843, 42.3401419 ], [ -4.4480472, 42.3412242 ] ] ] } }
]
}
