{
"type": "FeatureCollection",
"name": "34056",
"features": [
{ "type": "Feature", "properties": { "CCAA": "07 - Castilla y León", "PROVINCIA": "34 - Palencia", "MUNICIPIO": "34056 - Cervera de Pisuerga", "COD_MUNICIPIO": "34056", "DISTRITO": "01", "SECCION": "3405601002", "V1_H": 80.25, "V1_M": 86.11, "V2_H": 80.02266353, "V2_M": 86.02270939, "V3_H": 80.50879823, "V3_M": 86.37032083 }, "geometry": { "type": "Polygon", "coordinates": [ [ [ -4.4956702, 42.864162 ], [ -4.496295, 42.8655687 ], [ -4.4961406, 42.8672926 ], [ -4.4959744, 42.8676849 ], [ -4.4963916, 42.868533 ], [ -4.4964964, 42.8697502 ], [ -4.4968649, 42.8710149 ], [ -4.497429, 42.8730527 ], [ -4.498854, 42.8736205 ], [ -4.5005068, 42.8736097 ], [ -4.5012842, 42.8735563 ], [ -4.5017671, 42.8728693 ], [ -4.503561, 42.87301 ], [ -4.5065311, 42.8733923 ], [ -4.5062558, 42.872645 ], [ -4.5049418, 42.8696603 ], [ -4.5047363, 42.8684583 ], [ -4.5053546, 42.8672856 ], [ -4.5057499, 42.8663188 ], [ -4.5037482, 42.866235 ], [ -4.5024129, 42.8659986 ], [ -4.5015804, 42.8654639 ], [ -4.5008789, 42.8656016 ], [ -4.4998636, 42.8658079 ], [ -4.49955, 42.8658311 ], [ -4.4991819, 42.8658764 ], [ -4.4990502, 42.8657876 ], [ -4.4989851, 42.8656407 ], [ -4.4991163, 42.8655747 ], [ -4.4989039, 42.8653127 ], [ -4.4985107, 42.8653727 ], [ -4.4983568, 42.8653771 ], [ -4.4972129, 42.8655133 ], [ -4.4970025, 42.8654883 ], [ -4.4968893, 42.8653982 ], [ -4.496798, 42.8652411 ], [ -4.4965463, 42.8648534 ], [ -4.496434, 42.8646593 ], [ -4.4961746, 42.8642629 ], [ -4.496105, 42.8641673 ], [ -4.49602, 42.8641288 ], [ -4.4959123, 42.8641302 ], [ -4.4956702, 42.864162 ] ] ] } },
{ "type": "Feature", "properties": { "CCAA": "07 - Castilla y León", "PROVINCIA": "34 - Palencia", "MUNICIPIO": "34056 - Cervera de Pisuerga", "COD_MUNICIPIO": "34056", "DISTRITO": "01", "SECCION": "3405601001", "V1_H": 80.38, "V1_M": 86.41, "V2_H": 80.21151379, "V2_M": 86.36716419, "V3_H": 80.6951312, "V3_M": 86.59024448 }, "geometry": { "type": "Polygon", "coordinates": [ [ [ -4.4956702, 42.864162 ], [ -4.4959123, 42.8641302 ], [ -4.49602, 42.8641288 ], [ -4.496105, 42.8641673 ], [ -4.4961746, 42.8642629 ], [ -4.496434, 42.8646593 ], [ -4.4965463, 42.8648534 ], [ -4.496798, 42.8652411 ], [ -4.4968893, 42.8653982 ], [ -4.4970025, 42.8654883 ], [ -4.4972129, 42.8655133 ], [ -4.4983568, 42.8653771 ], [ -4.4985107, 42.8653727 ], [ -4.4989039, 42.8653127 ], [ -4.4991163, 42.8655747 ], [ -4.4989851, 42.8656407 ], [ -4.4990502, 42.8657876 ], [ -4.4991819, 42.8658764 ], [ -4.49955, 42.8658311 ], [ -4.4998636, 42.8658079 ], [ -4.5008789, 42.8656016 ], [ -4.5015804, 42.8654639 ], [ -4.5013085, 42.8652892 ], [ -4.5012679, 42.8648252 ], [ -4.5006995, 42.8640828 ], [ -4.5009697, 42.8631069 ], [ -4.5020168, 42.8626664 ], [ -4.5031072, 42.86204 ], [ -4.5034567, 42.8621206 ], [ -4.5038428, 42.8621236 ], [ -4.5043159, 42.8620728 ], [ -4.5046308, 42.862093 ], [ -4.5049505, 42.8620847 ], [ -4.5053694, 42.861993 ], [ -4.5056364, 42.8618638 ], [ -4.5059146, 42.8617343 ], [ -4.5064995, 42.8615198 ], [ -4.5068026, 42.8615077 ], [ -4.5071014, 42.8615443 ], [ -4.5072717, 42.8615178 ], [ -4.5075671, 42.8614165 ], [ -4.5072646, 42.8607714 ], [ -4.5069527, 42.8608736 ], [ -4.5066699, 42.8609023 ], [ -4.5064202, 42.860889 ], [ -4.5061312, 42.8608177 ], [ -4.5057387, 42.8606867 ], [ -4.5053156, 42.8605366 ], [ -4.5051273, 42.8603014 ], [ -4.5048408, 42.8600217 ], [ -4.5045235, 42.8598729 ], [ -4.5041848, 42.8597773 ], [ -4.504045, 42.8597764 ], [ -4.503797, 42.8596823 ], [ -4.5032128, 42.859405 ], [ -4.502799, 42.8590157 ], [ -4.502477, 42.8586752 ], [ -4.5013454, 42.8584102 ], [ -4.5007889, 42.8580589 ], [ -4.5001135, 42.8576341 ], [ -4.4998221, 42.8574629 ], [ -4.4990114, 42.8571687 ], [ -4.4982441, 42.8569044 ], [ -4.4970717, 42.8565466 ], [ -4.4961864, 42.8563387 ], [ -4.4938669, 42.8558592 ], [ -4.492151, 42.8552341 ], [ -4.4900803, 42.8547453 ], [ -4.4893825, 42.8545679 ], [ -4.4886896, 42.855451 ], [ -4.4878633, 42.8563049 ], [ -4.4873041, 42.8568828 ], [ -4.4847862, 42.8565193 ], [ -4.4839088, 42.8565524 ], [ -4.4862484, 42.8584216 ], [ -4.4880222, 42.8598149 ], [ -4.4892813, 42.8608173 ], [ -4.489535, 42.8610144 ], [ -4.4899232, 42.8613434 ], [ -4.4904203, 42.8617304 ], [ -4.4910992, 42.8622827 ], [ -4.4915843, 42.8625882 ], [ -4.4921774, 42.8629046 ], [ -4.4930517, 42.8633724 ], [ -4.4933717, 42.8635266 ], [ -4.49375, 42.8637245 ], [ -4.4942403, 42.8639656 ], [ -4.494598, 42.8641465 ], [ -4.4948396, 42.8642597 ], [ -4.495034, 42.8642605 ], [ -4.4952215, 42.8642258 ], [ -4.4956407, 42.8641659 ], [ -4.4956702, 42.864162 ] ] ] } },
{ "type": "Feature", "properties": { "CCAA": "07 - Castilla y León", "PROVINCIA": "34 - Palencia", "MUNICIPIO": "34056 - Cervera de Pisuerga", "COD_MUNICIPIO": "34056", "DISTRITO": "01", "SECCION": "3405601003", "V1_H": 80.16, "V1_M": 86.09, "V2_H": 80.12695049, "V2_M": 86.02539962, "V3_H": 80.31827198000001, "V3_M": 86.38244546 }, "geometry": { "type": "GeometryCollection", "geometries": [ { "type": "Polygon", "coordinates": [ [ [ -4.4914989, 42.9473235 ], [ -4.491695, 42.9477844 ], [ -4.4934278, 42.9484403 ], [ -4.4937867, 42.9485798 ], [ -4.4941427, 42.9486021 ], [ -4.497446, 42.9478295 ], [ -4.4978709, 42.9476619 ], [ -4.4986084, 42.947238 ], [ -4.4994866, 42.9465511 ], [ -4.5002897, 42.9458022 ], [ -4.5015018, 42.9462455 ], [ -4.5020602, 42.9465264 ], [ -4.503342, 42.94732 ], [ -4.5038488, 42.9474935 ], [ -4.5061922, 42.9485883 ], [ -4.5083287, 42.9492355 ], [ -4.5091824, 42.9495575 ], [ -4.5100361, 42.9498794 ], [ -4.5116245, 42.9501646 ], [ -4.512225, 42.9496614 ], [ -4.5127558, 42.9488079 ], [ -4.5136397, 42.9478597 ], [ -4.5161743, 42.9487446 ], [ -4.5167665, 42.9488989 ], [ -4.5171343, 42.948903 ], [ -4.5184289, 42.9487057 ], [ -4.5200213, 42.9481624 ], [ -4.5200213, 42.9481623 ], [ -4.5200214, 42.9481623 ], [ -4.5200213, 42.9481622 ], [ -4.5181642, 42.946413 ], [ -4.516507, 42.9443187 ], [ -4.5143224, 42.9407006 ], [ -4.5143224, 42.9407005 ], [ -4.5132169, 42.9370952 ], [ -4.5132169, 42.9370951 ], [ -4.5131809, 42.9366273 ], [ -4.51512, 42.9357372 ], [ -4.5164428, 42.9337025 ], [ -4.5169793, 42.9330921 ], [ -4.5169793, 42.933092 ], [ -4.5163885, 42.9324875 ], [ -4.5155043, 42.9314096 ], [ -4.5151593, 42.9308379 ], [ -4.5151342, 42.9308112 ], [ -4.5136961, 42.9276334 ], [ -4.5140678, 42.9276148 ], [ -4.5144305, 42.9275967 ], [ -4.5152013, 42.9274831 ], [ -4.5160422, 42.9273592 ], [ -4.5200392, 42.9264507 ], [ -4.520931, 42.9263398 ], [ -4.5220442, 42.9262619 ], [ -4.5236168, 42.9264301 ], [ -4.5271432, 42.9268154 ], [ -4.5294395, 42.9260193 ], [ -4.5304286, 42.92588 ], [ -4.5320375, 42.9245437 ], [ -4.5366398, 42.9243379 ], [ -4.5383658, 42.9242697 ], [ -4.540741, 42.9261559 ], [ -4.5426851, 42.9259856 ], [ -4.5457074, 42.9258098 ], [ -4.5489248, 42.9262013 ], [ -4.5493701, 42.9262555 ], [ -4.5493702, 42.9262555 ], [ -4.5497158, 42.9262314 ], [ -4.552734, 42.9260208 ], [ -4.5561056, 42.9256058 ], [ -4.559048, 42.9256648 ], [ -4.5590481, 42.9256648 ], [ -4.5622025, 42.9249014 ], [ -4.5615277, 42.9311782 ], [ -4.568838, 42.9372287 ], [ -4.5705939, 42.9388076 ], [ -4.5717627, 42.9399442 ], [ -4.5784945, 42.9487036 ], [ -4.581375, 42.9491771 ], [ -4.5843491, 42.9528191 ], [ -4.582902, 42.9551894 ], [ -4.5823776, 42.9561029 ], [ -4.5817871, 42.9571319 ], [ -4.5810816, 42.9587895 ], [ -4.5804055, 42.9606359 ], [ -4.5791711, 42.9636696 ], [ -4.5791711, 42.9636697 ], [ -4.5846407, 42.9651429 ], [ -4.584669, 42.967682 ], [ -4.5850073, 42.9708291 ], [ -4.5848859, 42.9742256 ], [ -4.5848013, 42.9747491 ], [ -4.584184, 42.9758907 ], [ -4.583408, 42.9773258 ], [ -4.5810217, 42.9808798 ], [ -4.591431, 42.9907401 ], [ -4.5914311, 42.99074 ], [ -4.5914311, 42.9907401 ], [ -4.5963059, 42.9880878 ], [ -4.5969433, 42.9880699 ], [ -4.5972402, 42.9885079 ], [ -4.5987032, 42.9906658 ], [ -4.5988633, 42.9909118 ], [ -4.5988949, 42.9909603 ], [ -4.5994424, 42.9912587 ], [ -4.6004688, 42.9915776 ], [ -4.6014431, 42.9917801 ], [ -4.602906, 42.9919037 ], [ -4.6029061, 42.9919037 ], [ -4.6071639, 42.991952 ], [ -4.6084607, 42.9918167 ], [ -4.6106654, 42.9916867 ], [ -4.6110677, 42.991591 ], [ -4.61147, 42.9914953 ], [ -4.6127463, 42.991045 ], [ -4.6138925, 42.9907857 ], [ -4.6148133, 42.9908178 ], [ -4.6160103, 42.991089 ], [ -4.618983, 42.9921817 ], [ -4.6192425, 42.9950596 ], [ -4.6247871, 42.9955123 ], [ -4.6266543, 42.9965394 ], [ -4.6276113, 42.9965438 ], [ -4.6281638, 42.9984179 ], [ -4.6293387, 42.9983112 ], [ -4.6297454, 42.9988457 ], [ -4.6320725, 43.0000912 ], [ -4.6322096, 43.0001703 ], [ -4.6366881, 43.0038885 ], [ -4.6381594, 43.0047769 ], [ -4.639485, 43.0054197 ], [ -4.6396386, 43.0054941 ], [ -4.6462604, 43.0076503 ], [ -4.6460681, 43.0089854 ], [ -4.6459498, 43.0098069 ], [ -4.6444075, 43.0117862 ], [ -4.6413223, 43.0157446 ], [ -4.6405678, 43.0169009 ], [ -4.6403791, 43.0171899 ], [ -4.6431117, 43.0179612 ], [ -4.6494389, 43.0200584 ], [ -4.651436, 43.020849 ], [ -4.6589061, 43.0211552 ], [ -4.6630434, 43.0209339 ], [ -4.6667615, 43.0207349 ], [ -4.6719604, 43.0212505 ], [ -4.6731728, 43.0213707 ], [ -4.6742346, 43.0225078 ], [ -4.67552, 43.0232904 ], [ -4.67552, 43.0232905 ], [ -4.6768099, 43.0237848 ], [ -4.6780833, 43.0240927 ], [ -4.6788113, 43.0242688 ], [ -4.6824212, 43.0256746 ], [ -4.6843077, 43.025989 ], [ -4.6860548, 43.0261433 ], [ -4.6860549, 43.0261433 ], [ -4.687597, 43.0259856 ], [ -4.6880745, 43.0259425 ], [ -4.6903571, 43.0263771 ], [ -4.6916955, 43.025952 ], [ -4.6937537, 43.0258136 ], [ -4.6957567, 43.025901 ], [ -4.6995087, 43.0266557 ], [ -4.7016015, 43.0264356 ], [ -4.7073426, 43.0254405 ], [ -4.7088161, 43.0250223 ], [ -4.7105097, 43.0241326 ], [ -4.7119657, 43.022643 ], [ -4.7133448, 43.0205962 ], [ -4.7144844, 43.0196517 ], [ -4.7161412, 43.0187713 ], [ -4.7197068, 43.01725 ], [ -4.7228236, 43.0172392 ], [ -4.7287073, 43.0187444 ], [ -4.7299056, 43.0194646 ], [ -4.7307375, 43.0211179 ], [ -4.7310883, 43.0222473 ], [ -4.7327873, 43.0215642 ], [ -4.7347531, 43.0212012 ], [ -4.7370052, 43.020987 ], [ -4.7375847, 43.0154221 ], [ -4.7339118, 43.0122361 ], [ -4.7316232, 43.0115774 ], [ -4.7287176, 43.0077312 ], [ -4.727047, 43.0063516 ], [ -4.7232474, 43.0043017 ], [ -4.7218431, 43.0032243 ], [ -4.7175479, 43.0009835 ], [ -4.7166791, 43.0001861 ], [ -4.7166148, 43.000079 ], [ -4.7150859, 42.9980398 ], [ -4.7157769, 42.9964176 ], [ -4.7146935, 42.9936332 ], [ -4.7149618, 42.9922515 ], [ -4.7150454, 42.9908455 ], [ -4.714834, 42.9880931 ], [ -4.7145362, 42.9875302 ], [ -4.7129486, 42.9860142 ], [ -4.7140451, 42.9839806 ], [ -4.7156332, 42.9815435 ], [ -4.7156314, 42.9797155 ], [ -4.7148206, 42.9787822 ], [ -4.7120545, 42.9785444 ], [ -4.7063214, 42.9774504 ], [ -4.7060144, 42.9773443 ], [ -4.7049222, 42.9769669 ], [ -4.6989213, 42.9781638 ], [ -4.6989212, 42.9781638 ], [ -4.6963022, 42.9783647 ], [ -4.6952949, 42.9778574 ], [ -4.6920416, 42.9777344 ], [ -4.6918049, 42.9776028 ], [ -4.6917076, 42.977427 ], [ -4.6915082, 42.9770669 ], [ -4.6909452, 42.9771112 ], [ -4.6905632, 42.9770449 ], [ -4.6891658, 42.9757238 ], [ -4.6875935, 42.9756299 ], [ -4.6865375, 42.9755824 ], [ -4.6828989, 42.975717 ], [ -4.6740162, 42.9764866 ], [ -4.6687963, 42.9734741 ], [ -4.6679049, 42.973163 ], [ -4.6671318, 42.9726879 ], [ -4.6638152, 42.9720248 ], [ -4.6597882, 42.9718491 ], [ -4.6596747, 42.9712745 ], [ -4.6597525, 42.9709762 ], [ -4.6596486, 42.9707616 ], [ -4.6590366, 42.9703472 ], [ -4.6585417, 42.9701833 ], [ -4.658291, 42.9699798 ], [ -4.6580941, 42.9694964 ], [ -4.658094, 42.9694964 ], [ -4.657773, 42.9691451 ], [ -4.6574118, 42.9687498 ], [ -4.6564937, 42.9683489 ], [ -4.6557091, 42.967901 ], [ -4.6535264, 42.9683558 ], [ -4.6511422, 42.9690746 ], [ -4.650488, 42.9679944 ], [ -4.6468752, 42.9677042 ], [ -4.6465331, 42.965449 ], [ -4.6465331, 42.9654489 ], [ -4.6440945, 42.9641242 ], [ -4.6418194, 42.9634095 ], [ -4.6385855, 42.9626003 ], [ -4.6372587, 42.9615747 ], [ -4.6368227, 42.9613198 ], [ -4.6362971, 42.9611496 ], [ -4.6345596, 42.9605867 ], [ -4.6273017, 42.9484973 ], [ -4.6266507, 42.9442562 ], [ -4.6266507, 42.9442561 ], [ -4.6264333, 42.9411165 ], [ -4.6253104, 42.9361706 ], [ -4.6261593, 42.9344296 ], [ -4.627612, 42.9346791 ], [ -4.6294794, 42.9362464 ], [ -4.6296018, 42.9363198 ], [ -4.6298904, 42.9364927 ], [ -4.6301677, 42.936564 ], [ -4.6303222, 42.9366037 ], [ -4.6303223, 42.9366037 ], [ -4.6312298, 42.9366267 ], [ -4.6322042, 42.9363967 ], [ -4.6324202, 42.9362225 ], [ -4.6323987, 42.9358717 ], [ -4.6323611, 42.9353769 ], [ -4.632701, 42.9329317 ], [ -4.632701, 42.9329316 ], [ -4.632537, 42.9308989 ], [ -4.6330041, 42.9295594 ], [ -4.6328686, 42.9276793 ], [ -4.6339654, 42.92652 ], [ -4.6342391, 42.9252824 ], [ -4.6345909, 42.9242238 ], [ -4.6351808, 42.9233599 ], [ -4.6358157, 42.9228105 ], [ -4.6358776, 42.9226684 ], [ -4.6361392, 42.9220675 ], [ -4.6362306, 42.9213547 ], [ -4.637769, 42.9202251 ], [ -4.6378522, 42.9196656 ], [ -4.63853, 42.9193497 ], [ -4.6399328, 42.9177267 ], [ -4.6408344, 42.9170744 ], [ -4.6413652, 42.9167606 ], [ -4.6417751, 42.9165117 ], [ -4.6417751, 42.9165116 ], [ -4.6438135, 42.9143752 ], [ -4.6453812, 42.9129749 ], [ -4.6498783, 42.9139277 ], [ -4.6504049, 42.9139201 ], [ -4.6516009, 42.9132906 ], [ -4.651601, 42.9132905 ], [ -4.6517186, 42.9131087 ], [ -4.6517772, 42.9130088 ], [ -4.6519693, 42.9124027 ], [ -4.6523555, 42.9117652 ], [ -4.6527672, 42.9110855 ], [ -4.6532428, 42.9096288 ], [ -4.6535151, 42.9092736 ], [ -4.6536781, 42.9089561 ], [ -4.6537595, 42.9087928 ], [ -4.654578, 42.9077904 ], [ -4.6549501, 42.9075059 ], [ -4.6587417, 42.9059112 ], [ -4.659284, 42.9055791 ], [ -4.65986, 42.9058184 ], [ -4.660436, 42.9060577 ], [ -4.662148, 42.9059428 ], [ -4.6634248, 42.9046816 ], [ -4.6658421, 42.903926 ], [ -4.6680381, 42.9035969 ], [ -4.6694022, 42.903757 ], [ -4.6740291, 42.9068053 ], [ -4.6787254, 42.9083304 ], [ -4.6808179, 42.908696 ], [ -4.6812215, 42.908672 ], [ -4.6826768, 42.9099293 ], [ -4.6828661, 42.9100951 ], [ -4.6830407, 42.9102481 ], [ -4.6830408, 42.9102481 ], [ -4.683068, 42.9099011 ], [ -4.6830954, 42.909554 ], [ -4.6834412, 42.9051544 ], [ -4.6777055, 42.9000786 ], [ -4.6732797, 42.8967575 ], [ -4.6708564, 42.8954601 ], [ -4.6698678, 42.8946821 ], [ -4.6684071, 42.8913805 ], [ -4.6676168, 42.8901155 ], [ -4.6652461, 42.8863206 ], [ -4.6628167, 42.8829519 ], [ -4.6611549, 42.8803466 ], [ -4.6601045, 42.8789592 ], [ -4.6569536, 42.8747972 ], [ -4.6541166, 42.872641 ], [ -4.653085, 42.8720615 ], [ -4.6524731, 42.8716111 ], [ -4.6520036, 42.8714536 ], [ -4.6518554, 42.8714039 ], [ -4.6500839, 42.8710872 ], [ -4.6491458, 42.8703353 ], [ -4.6489628, 42.870084 ], [ -4.6488408, 42.8699165 ], [ -4.6488408, 42.8699164 ], [ -4.6486885, 42.8692522 ], [ -4.6487206, 42.8686214 ], [ -4.6463923, 42.8685378 ], [ -4.6462162, 42.8685102 ], [ -4.6447081, 42.8682739 ], [ -4.6397478, 42.8672644 ], [ -4.6354575, 42.8679832 ], [ -4.6337101, 42.8671796 ], [ -4.6326106, 42.8667991 ], [ -4.6232282, 42.8624029 ], [ -4.6200634, 42.8598092 ], [ -4.6184319, 42.8554557 ], [ -4.6144983, 42.8529267 ], [ -4.6133185, 42.8517997 ], [ -4.6126371, 42.8514851 ], [ -4.6119716, 42.8513098 ], [ -4.6113062, 42.8511346 ], [ -4.6091089, 42.8513546 ], [ -4.6071087, 42.8516258 ], [ -4.5989382, 42.8532531 ], [ -4.5976536, 42.8537483 ], [ -4.5963427, 42.8546491 ], [ -4.5956197, 42.8541369 ], [ -4.5942663, 42.8533903 ], [ -4.5922367, 42.8520407 ], [ -4.5911829, 42.8510396 ], [ -4.5904804, 42.8503721 ], [ -4.5904803, 42.8503721 ], [ -4.5739718, 42.8446478 ], [ -4.5720883, 42.857245 ], [ -4.5689773, 42.8581342 ], [ -4.5663207, 42.8576302 ], [ -4.5657785, 42.8574846 ], [ -4.564173, 42.8564349 ], [ -4.5641729, 42.8564349 ], [ -4.5640151, 42.8564243 ], [ -4.5630573, 42.85636 ], [ -4.5622096, 42.8562366 ], [ -4.5607486, 42.8555721 ], [ -4.5597624, 42.8552974 ], [ -4.5591994, 42.8548097 ], [ -4.5588847, 42.8539765 ], [ -4.5603951, 42.8531995 ], [ -4.5643893, 42.851425 ], [ -4.5660361, 42.8497545 ], [ -4.5632871, 42.8484863 ], [ -4.5598047, 42.8467597 ], [ -4.5504463, 42.8425013 ], [ -4.5498855, 42.8430762 ], [ -4.5498854, 42.8430762 ], [ -4.5491854, 42.8434639 ], [ -4.5480953, 42.8434246 ], [ -4.5429471, 42.8425936 ], [ -4.5421631, 42.8425591 ], [ -4.5409426, 42.8421973 ], [ -4.5389333, 42.8411167 ], [ -4.5345703, 42.8433185 ], [ -4.5342709, 42.8435836 ], [ -4.5338821, 42.8441922 ], [ -4.5334188, 42.8447567 ], [ -4.533128, 42.8448777 ], [ -4.5322488, 42.8454478 ], [ -4.5288617, 42.847051 ], [ -4.5279465, 42.8451721 ], [ -4.5272065, 42.8419581 ], [ -4.5240401, 42.8425766 ], [ -4.5227142, 42.8424051 ], [ -4.5209188, 42.8415465 ], [ -4.5205316, 42.8412274 ], [ -4.5198558, 42.840615 ], [ -4.5190609, 42.839635 ], [ -4.5175818, 42.8381957 ], [ -4.5175817, 42.8381957 ], [ -4.5168606, 42.837728 ], [ -4.5162309, 42.8379975 ], [ -4.5155248, 42.8376466 ], [ -4.5152319, 42.8376775 ], [ -4.5143825, 42.8379679 ], [ -4.5140533, 42.8380173 ], [ -4.513459, 42.8382323 ], [ -4.5121217, 42.8380878 ], [ -4.5110548, 42.8374896 ], [ -4.5098741, 42.8368405 ], [ -4.5083511, 42.8360033 ], [ -4.5070602, 42.837263 ], [ -4.5061874, 42.8370944 ], [ -4.5044797, 42.8383236 ], [ -4.5037387, 42.8390537 ], [ -4.501234, 42.8427518 ], [ -4.5011514, 42.8428789 ], [ -4.5006329, 42.8438313 ], [ -4.5004601, 42.8441487 ], [ -4.5002353, 42.8444669 ], [ -4.498991, 42.8461492 ], [ -4.4974534, 42.8476778 ], [ -4.494796, 42.8503194 ], [ -4.4938698, 42.8509999 ], [ -4.4934731, 42.8512913 ], [ -4.4912809, 42.8527607 ], [ -4.490763, 42.8531096 ], [ -4.4899247, 42.853877 ], [ -4.4893825, 42.8545679 ], [ -4.4900803, 42.8547453 ], [ -4.492151, 42.8552341 ], [ -4.4938669, 42.8558592 ], [ -4.4961864, 42.8563387 ], [ -4.4970717, 42.8565466 ], [ -4.4982441, 42.8569044 ], [ -4.4990114, 42.8571687 ], [ -4.4998221, 42.8574629 ], [ -4.5001135, 42.8576341 ], [ -4.5007889, 42.8580589 ], [ -4.5013454, 42.8584102 ], [ -4.502477, 42.8586752 ], [ -4.502799, 42.8590157 ], [ -4.5032128, 42.859405 ], [ -4.503797, 42.8596823 ], [ -4.504045, 42.8597764 ], [ -4.5041848, 42.8597773 ], [ -4.5045235, 42.8598729 ], [ -4.5048408, 42.8600217 ], [ -4.5051273, 42.8603014 ], [ -4.5053156, 42.8605366 ], [ -4.5057387, 42.8606867 ], [ -4.5061312, 42.8608177 ], [ -4.5064202, 42.860889 ], [ -4.5066699, 42.8609023 ], [ -4.5069527, 42.8608736 ], [ -4.5072646, 42.8607714 ], [ -4.5075671, 42.8614165 ], [ -4.5072717, 42.8615178 ], [ -4.5071014, 42.8615443 ], [ -4.5068026, 42.8615077 ], [ -4.5064995, 42.8615198 ], [ -4.5059146, 42.8617343 ], [ -4.5056364, 42.8618638 ], [ -4.5053694, 42.861993 ], [ -4.5049505, 42.8620847 ], [ -4.5046308, 42.862093 ], [ -4.5043159, 42.8620728 ], [ -4.5038428, 42.8621236 ], [ -4.5034567, 42.8621206 ], [ -4.5031072, 42.86204 ], [ -4.5020168, 42.8626664 ], [ -4.5009697, 42.8631069 ], [ -4.5006995, 42.8640828 ], [ -4.5012679, 42.8648252 ], [ -4.5013085, 42.8652892 ], [ -4.5015804, 42.8654639 ], [ -4.5024129, 42.8659986 ], [ -4.5037482, 42.866235 ], [ -4.5057499, 42.8663188 ], [ -4.5053546, 42.8672856 ], [ -4.5047363, 42.8684583 ], [ -4.5049418, 42.8696603 ], [ -4.5062558, 42.872645 ], [ -4.5065311, 42.8733923 ], [ -4.503561, 42.87301 ], [ -4.5017671, 42.8728693 ], [ -4.5012842, 42.8735563 ], [ -4.5005068, 42.8736097 ], [ -4.498854, 42.8736205 ], [ -4.497429, 42.8730527 ], [ -4.4968649, 42.8710149 ], [ -4.4964964, 42.8697502 ], [ -4.4963916, 42.868533 ], [ -4.4959744, 42.8676849 ], [ -4.4961406, 42.8672926 ], [ -4.496295, 42.8655687 ], [ -4.4956702, 42.864162 ], [ -4.4956407, 42.8641659 ], [ -4.4952215, 42.8642258 ], [ -4.495034, 42.8642605 ], [ -4.4948396, 42.8642597 ], [ -4.494598, 42.8641465 ], [ -4.4942403, 42.8639656 ], [ -4.49375, 42.8637245 ], [ -4.4933717, 42.8635266 ], [ -4.4930517, 42.8633724 ], [ -4.4921774, 42.8629046 ], [ -4.4915843, 42.8625882 ], [ -4.4910992, 42.8622827 ], [ -4.4904203, 42.8617304 ], [ -4.4899232, 42.8613434 ], [ -4.489535, 42.8610144 ], [ -4.4892813, 42.8608173 ], [ -4.4880222, 42.8598149 ], [ -4.4862484, 42.8584216 ], [ -4.4839088, 42.8565524 ], [ -4.4836978, 42.8565604 ], [ -4.4832977, 42.8564665 ], [ -4.4828977, 42.8563726 ], [ -4.4822927, 42.8561553 ], [ -4.4815341, 42.8561652 ], [ -4.4799516, 42.8565278 ], [ -4.4792652, 42.8564917 ], [ -4.4783009, 42.8566032 ], [ -4.4772514, 42.8567338 ], [ -4.4766379, 42.8566697 ], [ -4.476057, 42.856434 ], [ -4.4746977, 42.8558931 ], [ -4.4742418, 42.855764 ], [ -4.4737635, 42.8557251 ], [ -4.4723709, 42.8558421 ], [ -4.4719568, 42.8559284 ], [ -4.4717827, 42.8560171 ], [ -4.4716665, 42.8560763 ], [ -4.4715017, 42.8563485 ], [ -4.4709285, 42.8579859 ], [ -4.4708935, 42.8580583 ], [ -4.4701931, 42.8589769 ], [ -4.4701455, 42.8590315 ], [ -4.4701454, 42.8590316 ], [ -4.4695196, 42.8594808 ], [ -4.4686715, 42.8598519 ], [ -4.4687557, 42.8541054 ], [ -4.4687661, 42.8535109 ], [ -4.4689167, 42.8531488 ], [ -4.4693697, 42.8526387 ], [ -4.4695612, 42.8524561 ], [ -4.467962, 42.8495319 ], [ -4.4675572, 42.8488504 ], [ -4.4654512, 42.8453045 ], [ -4.4650184, 42.8445986 ], [ -4.4635304, 42.8416999 ], [ -4.4647045, 42.840118 ], [ -4.4651396, 42.8393649 ], [ -4.4663814, 42.837548 ], [ -4.4665902, 42.837059 ], [ -4.4665247, 42.8368798 ], [ -4.4652744, 42.8362654 ], [ -4.4628515, 42.8352247 ], [ -4.4599244, 42.8340643 ], [ -4.4589319, 42.8334826 ], [ -4.4588082, 42.8334302 ], [ -4.4562698, 42.8324575 ], [ -4.4524623, 42.8309983 ], [ -4.4557833, 42.8296594 ], [ -4.4573873, 42.8298046 ], [ -4.4611903, 42.8301488 ], [ -4.4654702, 42.8290135 ], [ -4.466329, 42.8285973 ], [ -4.4671451, 42.8284427 ], [ -4.4664421, 42.8276863 ], [ -4.4659905, 42.8272148 ], [ -4.4657994, 42.8248218 ], [ -4.46604, 42.823612 ], [ -4.4657308, 42.8214006 ], [ -4.4657938, 42.8209585 ], [ -4.4676432, 42.817945 ], [ -4.4682822, 42.8160007 ], [ -4.4690265, 42.8154058 ], [ -4.469884, 42.8149446 ], [ -4.4719664, 42.8140353 ], [ -4.4733524, 42.8136842 ], [ -4.4733525, 42.8136842 ], [ -4.4747407, 42.8134232 ], [ -4.4770335, 42.8131415 ], [ -4.4779179, 42.7999372 ], [ -4.4682995, 42.7924153 ], [ -4.4636526, 42.7872065 ], [ -4.462419, 42.7857004 ], [ -4.4602266, 42.7886551 ], [ -4.4555169, 42.7880306 ], [ -4.4504585, 42.7865998 ], [ -4.4493264, 42.78629 ], [ -4.4481183, 42.785864 ], [ -4.4460037, 42.7853594 ], [ -4.4454092, 42.7850337 ], [ -4.4428569, 42.7829449 ], [ -4.4414213, 42.7817699 ], [ -4.4391007, 42.7797548 ], [ -4.4359483, 42.7771738 ], [ -4.4315312, 42.7732847 ], [ -4.4287544, 42.7710679 ], [ -4.4225239, 42.7599877 ], [ -4.4224859, 42.7599341 ], [ -4.4225111, 42.7594295 ], [ -4.4225111, 42.7594294 ], [ -4.4226339, 42.7589237 ], [ -4.4229138, 42.7583348 ], [ -4.423227, 42.7570702 ], [ -4.4244338, 42.7537321 ], [ -4.4249754, 42.7523025 ], [ -4.4250868, 42.7513016 ], [ -4.4244578, 42.7515795 ], [ -4.4229652, 42.753102 ], [ -4.4206841, 42.7554177 ], [ -4.4177196, 42.7561748 ], [ -4.4166472, 42.7573768 ], [ -4.4153068, 42.7591585 ], [ -4.4142123, 42.7604688 ], [ -4.4114293, 42.7633128 ], [ -4.4096333, 42.7649559 ], [ -4.4060202, 42.7662431 ], [ -4.4041218, 42.7682296 ], [ -4.4012162, 42.7705525 ], [ -4.4001868, 42.7715197 ], [ -4.3982015, 42.7729218 ], [ -4.3972416, 42.7753559 ], [ -4.3960722, 42.7788013 ], [ -4.3936282, 42.7832078 ], [ -4.3807591, 42.7894604 ], [ -4.3692056, 42.7889416 ], [ -4.3680311, 42.7900183 ], [ -4.3712842, 42.7917175 ], [ -4.3777837, 42.7947825 ], [ -4.3827438, 42.7973343 ], [ -4.3851399, 42.7989444 ], [ -4.3906964, 42.8024342 ], [ -4.3930072, 42.8040451 ], [ -4.39747, 42.8067194 ], [ -4.4074764, 42.8122073 ], [ -4.4160448, 42.8167845 ], [ -4.4255619, 42.8221328 ], [ -4.4218972, 42.8218271 ], [ -4.4198273, 42.8217177 ], [ -4.4140872, 42.8215996 ], [ -4.4083123, 42.8215627 ], [ -4.403761, 42.8258602 ], [ -4.3962537, 42.83258 ], [ -4.3935319, 42.8334237 ], [ -4.3932161, 42.8335265 ], [ -4.391697, 42.8339863 ], [ -4.3906295, 42.8343955 ], [ -4.3902688, 42.8352284 ], [ -4.3901368, 42.8364367 ], [ -4.3892651, 42.8384915 ], [ -4.3897739, 42.8388095 ], [ -4.3914809, 42.8401757 ], [ -4.3918528, 42.8403872 ], [ -4.3966668, 42.8422378 ], [ -4.3987475, 42.8427977 ], [ -4.3973724, 42.843679 ], [ -4.3973723, 42.8436791 ], [ -4.3972737, 42.8437763 ], [ -4.3971688, 42.8438796 ], [ -4.3968813, 42.8441533 ], [ -4.3960677, 42.8444334 ], [ -4.3956922, 42.8446091 ], [ -4.3947406, 42.8447377 ], [ -4.394591, 42.8451628 ], [ -4.3944728, 42.8453891 ], [ -4.3943446, 42.8456341 ], [ -4.3942627, 42.8457972 ], [ -4.3914247, 42.8469394 ], [ -4.391518, 42.8472805 ], [ -4.3923317, 42.8486394 ], [ -4.3923768, 42.8486938 ], [ -4.3925833, 42.8489426 ], [ -4.3927275, 42.849132 ], [ -4.3927598, 42.8491745 ], [ -4.3937613, 42.8496306 ], [ -4.3952103, 42.8503875 ], [ -4.3956313, 42.8506074 ], [ -4.3967589, 42.8512151 ], [ -4.3972753, 42.8513258 ], [ -4.3972754, 42.8513259 ], [ -4.3973781, 42.8513283 ], [ -4.3987938, 42.8513613 ], [ -4.4007485, 42.8512024 ], [ -4.4008992, 42.8512373 ], [ -4.4012283, 42.8513136 ], [ -4.4012175, 42.8513344 ], [ -4.4012048, 42.8513589 ], [ -4.4010382, 42.851568 ], [ -4.3991784, 42.8532208 ], [ -4.3990122, 42.8534479 ], [ -4.399255, 42.8544446 ], [ -4.3989758, 42.8550874 ], [ -4.3987615, 42.8559004 ], [ -4.3987785, 42.857197 ], [ -4.3987389, 42.8581521 ], [ -4.398651, 42.8602244 ], [ -4.3987771, 42.860385 ], [ -4.4003955, 42.8615899 ], [ -4.4005007, 42.8619128 ], [ -4.4009949, 42.8626542 ], [ -4.4032746, 42.8622391 ], [ -4.4046421, 42.8620872 ], [ -4.405612, 42.86167 ], [ -4.4058583, 42.8615211 ], [ -4.4060226, 42.8614219 ], [ -4.4069526, 42.8614104 ], [ -4.4071562, 42.8617501 ], [ -4.4072202, 42.8618744 ], [ -4.4072714, 42.8619739 ], [ -4.407311, 42.8620994 ], [ -4.4073798, 42.8624318 ], [ -4.4074073, 42.8625665 ], [ -4.4076435, 42.863266 ], [ -4.4075362, 42.8633934 ], [ -4.4066037, 42.8638372 ], [ -4.4058426, 42.8642788 ], [ -4.4058425, 42.8642788 ], [ -4.4050138, 42.8649824 ], [ -4.4050675, 42.8651888 ], [ -4.405485, 42.8657871 ], [ -4.4055268, 42.8660117 ], [ -4.4053985, 42.8662924 ], [ -4.4053561, 42.8671215 ], [ -4.4054779, 42.8676333 ], [ -4.4066843, 42.8690053 ], [ -4.4070657, 42.869631 ], [ -4.4072045, 42.8703497 ], [ -4.4072047, 42.8711364 ], [ -4.407205, 42.8719886 ], [ -4.4074892, 42.8731829 ], [ -4.4079603, 42.8739786 ], [ -4.4084501, 42.8745219 ], [ -4.4087113, 42.8746988 ], [ -4.408774, 42.8746839 ], [ -4.4093933, 42.8745373 ], [ -4.4111539, 42.8738942 ], [ -4.4124858, 42.8748504 ], [ -4.4136342, 42.8758178 ], [ -4.4149538, 42.8773054 ], [ -4.4155112, 42.8775866 ], [ -4.4171122, 42.8779901 ], [ -4.4176786, 42.8791988 ], [ -4.418533, 42.8801518 ], [ -4.4188328, 42.8804092 ], [ -4.4193256, 42.8805382 ], [ -4.4207306, 42.8809351 ], [ -4.4211878, 42.8811185 ], [ -4.4211879, 42.8811185 ], [ -4.4230288, 42.8813027 ], [ -4.4231572, 42.881348 ], [ -4.4233498, 42.8814158 ], [ -4.4254351, 42.8826416 ], [ -4.4256638, 42.8824676 ], [ -4.4277897, 42.8827924 ], [ -4.4299214, 42.8833691 ], [ -4.4302829, 42.885769 ], [ -4.4305338, 42.8865584 ], [ -4.4320033, 42.8860267 ], [ -4.4326725, 42.8858382 ], [ -4.4329038, 42.8857813 ], [ -4.4329039, 42.8857813 ], [ -4.4339162, 42.8856065 ], [ -4.4367715, 42.8852324 ], [ -4.4387706, 42.8857231 ], [ -4.4413153, 42.8859198 ], [ -4.457304, 42.8944161 ], [ -4.4572927, 42.8944246 ], [ -4.4585617, 42.8978665 ], [ -4.4585617, 42.8978666 ], [ -4.4589535, 42.8994194 ], [ -4.4589141, 42.9003474 ], [ -4.4587183, 42.9013946 ], [ -4.4578789, 42.9084023 ], [ -4.4564132, 42.9091053 ], [ -4.4555374, 42.9096838 ], [ -4.4549535, 42.9100695 ], [ -4.4546091, 42.9102458 ], [ -4.4540335, 42.9105404 ], [ -4.4536923, 42.9106168 ], [ -4.4529091, 42.9106538 ], [ -4.4524642, 42.9104883 ], [ -4.4498012, 42.9097657 ], [ -4.4485532, 42.9098355 ], [ -4.4451088, 42.9102753 ], [ -4.4429054, 42.9103481 ], [ -4.4394109, 42.9107433 ], [ -4.4386837, 42.9105543 ], [ -4.4364088, 42.9106921 ], [ -4.4353073, 42.9107588 ], [ -4.4314717, 42.9091228 ], [ -4.4306806, 42.9109338 ], [ -4.4288038, 42.9124251 ], [ -4.4284771, 42.9126002 ], [ -4.4260984, 42.9130441 ], [ -4.4260983, 42.9130441 ], [ -4.4248636, 42.9131585 ], [ -4.423643, 42.9133538 ], [ -4.4223346, 42.9145318 ], [ -4.4212647, 42.9148873 ], [ -4.4198193, 42.9154365 ], [ -4.4179496, 42.9167115 ], [ -4.4178895, 42.9167662 ], [ -4.4170722, 42.9174517 ], [ -4.4169456, 42.9178135 ], [ -4.4163904, 42.9187119 ], [ -4.4158575, 42.9184483 ], [ -4.4154269, 42.9182993 ], [ -4.4144002, 42.917944 ], [ -4.4083632, 42.9175502 ], [ -4.4048639, 42.917224 ], [ -4.4035855, 42.9170415 ], [ -4.4033312, 42.9171708 ], [ -4.4025736, 42.9178014 ], [ -4.4020784, 42.9181136 ], [ -4.4020783, 42.9181137 ], [ -4.3985131, 42.9221366 ], [ -4.3924117, 42.9290199 ], [ -4.3904829, 42.9309795 ], [ -4.3892316, 42.9309227 ], [ -4.3872511, 42.9311358 ], [ -4.3854814, 42.9314544 ], [ -4.3854813, 42.9314544 ], [ -4.3852278, 42.9315662 ], [ -4.3849352, 42.9316951 ], [ -4.3841912, 42.9318527 ], [ -4.3834472, 42.9320103 ], [ -4.3827131, 42.9320642 ], [ -4.3809007, 42.9321221 ], [ -4.3800687, 42.9321862 ], [ -4.3765908, 42.9328494 ], [ -4.3759301, 42.9328934 ], [ -4.37593, 42.9328934 ], [ -4.3754211, 42.9331516 ], [ -4.3748092, 42.9337444 ], [ -4.3745921, 42.9344494 ], [ -4.3748095, 42.936509 ], [ -4.3747951, 42.9369684 ], [ -4.3745926, 42.9377813 ], [ -4.3727114, 42.9402713 ], [ -4.3724663, 42.9408236 ], [ -4.3724401, 42.9413011 ], [ -4.3726736, 42.9429823 ], [ -4.3724098, 42.9443543 ], [ -4.372486, 42.945578 ], [ -4.3723113, 42.9465437 ], [ -4.3715191, 42.9484082 ], [ -4.3714463, 42.9489944 ], [ -4.3714094, 42.9500935 ], [ -4.3715556, 42.950605 ], [ -4.3717733, 42.9510257 ], [ -4.3723524, 42.9517121 ], [ -4.372915, 42.9522007 ], [ -4.3746627, 42.9541698 ], [ -4.3771383, 42.9574359 ], [ -4.3773467, 42.9579827 ], [ -4.3774572, 42.9585397 ], [ -4.3769271, 42.960059 ], [ -4.3765472, 42.9611711 ], [ -4.3762108, 42.9614814 ], [ -4.3694948, 42.9660375 ], [ -4.3690378, 42.9664392 ], [ -4.3685653, 42.966697 ], [ -4.367044, 42.9672104 ], [ -4.3669317, 42.9687876 ], [ -4.3666488, 42.970412 ], [ -4.3663191, 42.9715865 ], [ -4.3655212, 42.9765398 ], [ -4.3653999, 42.9777119 ], [ -4.3654, 42.9777119 ], [ -4.3654, 42.977712 ], [ -4.3654001, 42.9777119 ], [ -4.3666707, 42.9763911 ], [ -4.3681462, 42.9760132 ], [ -4.3699556, 42.9757575 ], [ -4.3706748, 42.9755597 ], [ -4.371282, 42.9752913 ], [ -4.3723953, 42.9746206 ], [ -4.3731541, 42.9739991 ], [ -4.3757527, 42.972293 ], [ -4.3794432, 42.9700694 ], [ -4.3818966, 42.9684639 ], [ -4.3831365, 42.9674313 ], [ -4.3856673, 42.9649153 ], [ -4.3864737, 42.9642391 ], [ -4.3889252, 42.965299 ], [ -4.3896908, 42.9655329 ], [ -4.3904542, 42.9656767 ], [ -4.3909604, 42.9658326 ], [ -4.3909605, 42.9658326 ], [ -4.3927512, 42.9669455 ], [ -4.394177, 42.9676396 ], [ -4.3950991, 42.9682947 ], [ -4.3952427, 42.9686801 ], [ -4.3956107, 42.969225 ], [ -4.3958408, 42.9693 ], [ -4.3959566, 42.9693378 ], [ -4.397761, 42.9694239 ], [ -4.3977611, 42.9694239 ], [ -4.4004766, 42.9696698 ], [ -4.4006993, 42.9697572 ], [ -4.4011611, 42.9701117 ], [ -4.4015435, 42.9702151 ], [ -4.4024804, 42.9703124 ], [ -4.4025514, 42.9703198 ], [ -4.4048725, 42.9699311 ], [ -4.4057102, 42.9695606 ], [ -4.4065057, 42.9689565 ], [ -4.4076073, 42.9683306 ], [ -4.4078911, 42.9678679 ], [ -4.4083011, 42.9675657 ], [ -4.4101106, 42.966796 ], [ -4.4133166, 42.9686565 ], [ -4.4133167, 42.9686565 ], [ -4.415696, 42.9697437 ], [ -4.417093, 42.9702397 ], [ -4.4175983, 42.9703505 ], [ -4.4192913, 42.9703836 ], [ -4.421971, 42.9706655 ], [ -4.4231566, 42.971029 ], [ -4.4235412, 42.9712223 ], [ -4.4238783, 42.9714793 ], [ -4.4246155, 42.9726047 ], [ -4.4239895, 42.9736481 ], [ -4.4244009, 42.9739401 ], [ -4.424401, 42.9739402 ], [ -4.4245907, 42.9740342 ], [ -4.4248972, 42.9741861 ], [ -4.4252475, 42.9744879 ], [ -4.425501, 42.974845 ], [ -4.4260527, 42.9759007 ], [ -4.4309534, 42.9756954 ], [ -4.4329286, 42.9757247 ], [ -4.4358118, 42.97631 ], [ -4.4367574, 42.9763612 ], [ -4.4403472, 42.9751634 ], [ -4.4413114, 42.9749621 ], [ -4.4421063, 42.9748711 ], [ -4.4421064, 42.9748711 ], [ -4.4429153, 42.9748519 ], [ -4.4445384, 42.9734626 ], [ -4.4463137, 42.9722966 ], [ -4.4463138, 42.9722966 ], [ -4.4480331, 42.9713563 ], [ -4.4497358, 42.971803 ], [ -4.4511481, 42.9708486 ], [ -4.4516642, 42.9703738 ], [ -4.4562976, 42.9671721 ], [ -4.4574826, 42.9664636 ], [ -4.4583328, 42.9661196 ], [ -4.4599157, 42.9656492 ], [ -4.4637125, 42.9649523 ], [ -4.4639773, 42.9645142 ], [ -4.4651166, 42.9626291 ], [ -4.4689322, 42.9575733 ], [ -4.4698909, 42.9561292 ], [ -4.4708525, 42.9537755 ], [ -4.4711339, 42.9532406 ], [ -4.4739622, 42.9530872 ], [ -4.4753858, 42.9531499 ], [ -4.4796075, 42.9553917 ], [ -4.4806237, 42.9558468 ], [ -4.4806238, 42.9558468 ], [ -4.4818723, 42.9552543 ], [ -4.4826256, 42.9549744 ], [ -4.4855559, 42.9554947 ], [ -4.4869983, 42.9558272 ], [ -4.487693, 42.9546385 ], [ -4.4880599, 42.9535801 ], [ -4.4881077, 42.9530212 ], [ -4.488259, 42.9526861 ], [ -4.4887551, 42.9519051 ], [ -4.4892629, 42.9511061 ], [ -4.490391, 42.9490833 ], [ -4.490391, 42.9490832 ], [ -4.490559, 42.9484237 ], [ -4.4909137, 42.9476013 ], [ -4.4909461, 42.9472664 ], [ -4.4914989, 42.9473235 ] ] ] }, { "type": "LineString", "coordinates": [ [ -4.4715017, 42.8563485 ], [ -4.4716666, 42.8560763 ] ] } ] } }
]
}
