{
"type": "FeatureCollection",
"name": "34052",
"features": [
{ "type": "Feature", "properties": { "CCAA": "07 - Castilla y León", "PROVINCIA": "34 - Palencia", "MUNICIPIO": "34052 - Castrillo de Villavega", "COD_MUNICIPIO": "34052", "DISTRITO": "01", "SECCION": "3405201001", "V1_H": 80.21, "V1_M": 86.17, "V2_H": 80.05188782, "V2_M": 86.17746221, "V3_H": 80.45086201, "V3_M": 86.3559927 }, "geometry": { "type": "Polygon", "coordinates": [ [ [ -4.4343721, 42.4684839 ], [ -4.4351587, 42.469906 ], [ -4.4355938, 42.4703148 ], [ -4.4377755, 42.471035 ], [ -4.439063, 42.4714781 ], [ -4.4408973, 42.4734903 ], [ -4.4415685, 42.4741123 ], [ -4.4450277, 42.4758879 ], [ -4.4456409, 42.477159 ], [ -4.4459721, 42.4783345 ], [ -4.4458792, 42.4801098 ], [ -4.4459211, 42.4808747 ], [ -4.4462796, 42.4827073 ], [ -4.4467556, 42.483827 ], [ -4.447661, 42.4851034 ], [ -4.4482016, 42.4863844 ], [ -4.4496033, 42.4854391 ], [ -4.4498695, 42.4853727 ], [ -4.4521978, 42.4855594 ], [ -4.4531644, 42.4857903 ], [ -4.4558368, 42.4861256 ], [ -4.4572929, 42.4864764 ], [ -4.4579149, 42.4865405 ], [ -4.4609106, 42.4866465 ], [ -4.4620009, 42.4864435 ], [ -4.4644828, 42.4853852 ], [ -4.4649792, 42.4852798 ], [ -4.4670076, 42.4851278 ], [ -4.4678074, 42.4849915 ], [ -4.4687438, 42.4849705 ], [ -4.469657, 42.4855171 ], [ -4.4710765, 42.4863815 ], [ -4.4727994, 42.4866925 ], [ -4.4731068, 42.4863104 ], [ -4.4737395, 42.485789 ], [ -4.4746185, 42.4848771 ], [ -4.4751202, 42.4844834 ], [ -4.4774106, 42.4820224 ], [ -4.4779246, 42.4816375 ], [ -4.4806682, 42.4798281 ], [ -4.4854258, 42.4772811 ], [ -4.4875008, 42.4760294 ], [ -4.4902876, 42.4750386 ], [ -4.4908616, 42.4746169 ], [ -4.4938986, 42.472389 ], [ -4.494879, 42.4716738 ], [ -4.4952517, 42.4709756 ], [ -4.4961072, 42.4706312 ], [ -4.4969005, 42.4702336 ], [ -4.4992358, 42.4686901 ], [ -4.503703, 42.4672899 ], [ -4.5054433, 42.4668168 ], [ -4.5063446, 42.4663636 ], [ -4.5092095, 42.4651102 ], [ -4.5100184, 42.4648564 ], [ -4.5131263, 42.464104 ], [ -4.515412, 42.4625519 ], [ -4.5187228, 42.4606439 ], [ -4.5197372, 42.4603423 ], [ -4.5209238, 42.4601195 ], [ -4.5208575, 42.4598952 ], [ -4.5207895, 42.4590946 ], [ -4.520891, 42.4577604 ], [ -4.5207348, 42.4563307 ], [ -4.5202909, 42.4550757 ], [ -4.5201904, 42.4544376 ], [ -4.5193228, 42.4532604 ], [ -4.5186212, 42.4524052 ], [ -4.5179162, 42.4514149 ], [ -4.5181647, 42.4511325 ], [ -4.5209296, 42.4467911 ], [ -4.5212839, 42.4438416 ], [ -4.5218439, 42.4408533 ], [ -4.522383, 42.4395133 ], [ -4.5232082, 42.4374401 ], [ -4.5245003, 42.4350725 ], [ -4.5266922, 42.4327108 ], [ -4.5292538, 42.4310647 ], [ -4.5288266, 42.430494 ], [ -4.5286638, 42.4302981 ], [ -4.5283121, 42.4303298 ], [ -4.5253902, 42.4306569 ], [ -4.520917, 42.4301759 ], [ -4.5197784, 42.4298398 ], [ -4.5179591, 42.4295127 ], [ -4.5134023, 42.4290866 ], [ -4.5129774, 42.4291102 ], [ -4.511938, 42.4293581 ], [ -4.5117324, 42.4294058 ], [ -4.5081361, 42.4305068 ], [ -4.5063599, 42.4309534 ], [ -4.5053746, 42.4309303 ], [ -4.4990916, 42.429995 ], [ -4.4950335, 42.4295796 ], [ -4.4943776, 42.4296062 ], [ -4.4923047, 42.4298493 ], [ -4.4917593, 42.4299194 ], [ -4.489826, 42.4298995 ], [ -4.4881444, 42.4297323 ], [ -4.485386, 42.4277237 ], [ -4.4849426, 42.4274773 ], [ -4.4811504, 42.4274993 ], [ -4.4798024, 42.4285884 ], [ -4.4792557, 42.4291177 ], [ -4.4785006, 42.4295778 ], [ -4.4776183, 42.4297963 ], [ -4.4770578, 42.4297405 ], [ -4.4758912, 42.4292422 ], [ -4.474721, 42.4291041 ], [ -4.4731889, 42.4290878 ], [ -4.4711536, 42.4293841 ], [ -4.4692935, 42.4299032 ], [ -4.4670147, 42.4301846 ], [ -4.4619262, 42.4309339 ], [ -4.4598225, 42.431429 ], [ -4.4579181, 42.4321377 ], [ -4.4550981, 42.4337315 ], [ -4.4544192, 42.4343434 ], [ -4.4531054, 42.4353598 ], [ -4.4520147, 42.4360399 ], [ -4.4513416, 42.4363727 ], [ -4.4509669, 42.4364675 ], [ -4.4494083, 42.4368924 ], [ -4.4480233, 42.4369369 ], [ -4.4472702, 42.4369644 ], [ -4.443286, 42.4371227 ], [ -4.4428342, 42.4370383 ], [ -4.4398401, 42.4358332 ], [ -4.4397634, 42.4367347 ], [ -4.4390178, 42.4381579 ], [ -4.4427463, 42.4401013 ], [ -4.4441871, 42.4403624 ], [ -4.4456552, 42.4407581 ], [ -4.4450392, 42.4430533 ], [ -4.4425573, 42.4456421 ], [ -4.4423027, 42.4477978 ], [ -4.4422097, 42.4485103 ], [ -4.4412865, 42.453331 ], [ -4.439937, 42.4549419 ], [ -4.4398695, 42.4557082 ], [ -4.43759, 42.4602666 ], [ -4.4362948, 42.463732 ], [ -4.4352117, 42.4658348 ], [ -4.4342131, 42.4668469 ], [ -4.4332907, 42.4669395 ], [ -4.4323836, 42.467167 ], [ -4.4343721, 42.4684839 ] ] ] } }
]
}
