{
"type": "FeatureCollection",
"name": "34157",
"features": [
{ "type": "Feature", "properties": { "CCAA": "07 - Castilla y León", "PROVINCIA": "34 - Palencia", "MUNICIPIO": "34157 - Saldaña", "COD_MUNICIPIO": "34157", "DISTRITO": "01", "SECCION": "3415701001", "V1_H": 79.89, "V1_M": 85.97, "V2_H": 79.67266264, "V2_M": 85.8368825, "V3_H": 80.33686579, "V3_M": 86.2809331 }, "geometry": { "type": "Polygon", "coordinates": [ [ [ -4.7361029, 42.5222232 ], [ -4.7361184, 42.522239 ], [ -4.7367847, 42.5221277 ], [ -4.7373214, 42.5220185 ], [ -4.7389359, 42.5215841 ], [ -4.7405456, 42.5207212 ], [ -4.7424308, 42.5196704 ], [ -4.7454074, 42.5180201 ], [ -4.7456542, 42.5178326 ], [ -4.7454391, 42.517607 ], [ -4.7458488, 42.5173292 ], [ -4.7463385, 42.5168528 ], [ -4.7463538, 42.5168379 ], [ -4.7463682, 42.5168239 ], [ -4.746407, 42.5167862 ], [ -4.7465214, 42.5166748 ], [ -4.7464766, 42.5166755 ], [ -4.7463147, 42.516678 ], [ -4.7455516, 42.5167349 ], [ -4.7451578, 42.5160275 ], [ -4.7444159, 42.5162624 ], [ -4.7447903, 42.516789 ], [ -4.7445043, 42.5168573 ], [ -4.7434414, 42.5164156 ], [ -4.7436965, 42.5162733 ], [ -4.7434137, 42.5159369 ], [ -4.742801, 42.5161592 ], [ -4.7422821, 42.5156134 ], [ -4.7414723, 42.5149549 ], [ -4.7407849, 42.5145608 ], [ -4.7400401, 42.5141728 ], [ -4.7414711, 42.5138743 ], [ -4.7411512, 42.5132403 ], [ -4.7408098, 42.5133839 ], [ -4.7402543, 42.513073 ], [ -4.7402349, 42.5128923 ], [ -4.7390115, 42.5128895 ], [ -4.7385709, 42.5130878 ], [ -4.738021, 42.5135008 ], [ -4.7373396, 42.5138412 ], [ -4.7380603, 42.515438 ], [ -4.7368045, 42.5173841 ], [ -4.7364987, 42.5177774 ], [ -4.735922, 42.5177435 ], [ -4.7334956, 42.5169178 ], [ -4.7333767, 42.5167812 ], [ -4.7334563, 42.5165351 ], [ -4.7330802, 42.5159446 ], [ -4.732862, 42.5158627 ], [ -4.7326756, 42.5158868 ], [ -4.7323279, 42.5152852 ], [ -4.7313711, 42.5155552 ], [ -4.7319113, 42.5163562 ], [ -4.7321644, 42.5166611 ], [ -4.7323285, 42.5168716 ], [ -4.7314054, 42.5173221 ], [ -4.731677, 42.5177758 ], [ -4.7320957, 42.5178227 ], [ -4.7324677, 42.5182643 ], [ -4.7325006, 42.5189345 ], [ -4.7327891, 42.5189568 ], [ -4.7330866, 42.518782 ], [ -4.7336649, 42.5188797 ], [ -4.7341982, 42.5194253 ], [ -4.7340901, 42.5196824 ], [ -4.7336862, 42.5201676 ], [ -4.7332986, 42.5202054 ], [ -4.7327912, 42.5200747 ], [ -4.7324213, 42.5202294 ], [ -4.732327, 42.520465 ], [ -4.7325689, 42.5210502 ], [ -4.7330799, 42.5211457 ], [ -4.7332693, 42.521228 ], [ -4.7335225, 42.5212774 ], [ -4.7337323, 42.5213168 ], [ -4.7341314, 42.5214332 ], [ -4.7345175, 42.5216031 ], [ -4.7348234, 42.5217315 ], [ -4.7348174, 42.5217795 ], [ -4.7351408, 42.5220195 ], [ -4.735281, 42.5218843 ], [ -4.7357518, 42.5219943 ], [ -4.7357483, 42.5220453 ], [ -4.7360112, 42.5221116 ], [ -4.7360182, 42.5221133 ], [ -4.7360359, 42.5221178 ], [ -4.7360412, 42.5221297 ], [ -4.7360666, 42.5221865 ], [ -4.7361029, 42.5222232 ] ] ] } },
{ "type": "Feature", "properties": { "CCAA": "07 - Castilla y León", "PROVINCIA": "34 - Palencia", "MUNICIPIO": "34157 - Saldaña", "COD_MUNICIPIO": "34157", "DISTRITO": "01", "SECCION": "3415701002", "V1_H": 80.54, "V1_M": 86.2, "V2_H": 80.39552864, "V2_M": 86.0597654, "V3_H": 80.75568151, "V3_M": 86.47868922000001 }, "geometry": { "type": "Polygon", "coordinates": [ [ [ -4.7280298, 42.5296503 ], [ -4.7284518, 42.529675 ], [ -4.7298181, 42.5297442 ], [ -4.7310602, 42.529703 ], [ -4.7318796, 42.5297354 ], [ -4.7329404, 42.5297193 ], [ -4.7343042, 42.5296987 ], [ -4.7346668, 42.5296484 ], [ -4.7348632, 42.5296343 ], [ -4.7347692, 42.5294519 ], [ -4.7347024, 42.5289929 ], [ -4.7372356, 42.5290417 ], [ -4.7394024, 42.5294241 ], [ -4.7396836, 42.5288765 ], [ -4.7378538, 42.5279291 ], [ -4.7378348, 42.5278656 ], [ -4.7369583, 42.5274589 ], [ -4.7369208, 42.5272793 ], [ -4.7369201, 42.5272758 ], [ -4.7368336, 42.5268608 ], [ -4.7364656, 42.5262664 ], [ -4.7368318, 42.5258209 ], [ -4.7381593, 42.5249408 ], [ -4.738633, 42.5244736 ], [ -4.738868, 42.5241701 ], [ -4.7391393, 42.524206 ], [ -4.739445, 42.5245013 ], [ -4.7400462, 42.5247322 ], [ -4.7407483, 42.5247015 ], [ -4.7428804, 42.5235892 ], [ -4.7437399, 42.524356 ], [ -4.7440157, 42.5245518 ], [ -4.7450246, 42.5248565 ], [ -4.7465002, 42.525414 ], [ -4.7472215, 42.525103 ], [ -4.7473539, 42.525001 ], [ -4.7468789, 42.5244482 ], [ -4.7465902, 42.5237927 ], [ -4.746274, 42.5231175 ], [ -4.746359, 42.5232562 ], [ -4.7461453, 42.5223795 ], [ -4.7471102, 42.5211049 ], [ -4.7503248, 42.5219758 ], [ -4.7518523, 42.5214925 ], [ -4.7537616, 42.5211233 ], [ -4.754752, 42.5207681 ], [ -4.7547657, 42.5208445 ], [ -4.7552651, 42.5199813 ], [ -4.7557758, 42.5193907 ], [ -4.7557818, 42.5193837 ], [ -4.7563146, 42.5187675 ], [ -4.7562694, 42.5183855 ], [ -4.7562668, 42.518363 ], [ -4.7562701, 42.5183474 ], [ -4.7562731, 42.5183338 ], [ -4.7562883, 42.5182636 ], [ -4.7563739, 42.5174068 ], [ -4.7568288, 42.5164158 ], [ -4.7566847, 42.5164097 ], [ -4.7566773, 42.5161456 ], [ -4.754596, 42.5122909 ], [ -4.7538029, 42.5119631 ], [ -4.7527305, 42.5122795 ], [ -4.7520564, 42.5133097 ], [ -4.7520347, 42.51447 ], [ -4.7520114, 42.5155703 ], [ -4.7515361, 42.5159776 ], [ -4.7470791, 42.5161056 ], [ -4.7464766, 42.5166755 ], [ -4.7465214, 42.5166748 ], [ -4.746407, 42.5167862 ], [ -4.7463682, 42.5168239 ], [ -4.7463538, 42.5168379 ], [ -4.7463385, 42.5168528 ], [ -4.7458488, 42.5173292 ], [ -4.7454391, 42.517607 ], [ -4.7456542, 42.5178326 ], [ -4.7454074, 42.5180201 ], [ -4.7424308, 42.5196704 ], [ -4.7405456, 42.5207212 ], [ -4.7389359, 42.5215841 ], [ -4.7373214, 42.5220185 ], [ -4.7367847, 42.5221277 ], [ -4.7361184, 42.522239 ], [ -4.7361029, 42.5222232 ], [ -4.7358629, 42.5224407 ], [ -4.7356443, 42.522604 ], [ -4.7355724, 42.5226901 ], [ -4.7355629, 42.5228352 ], [ -4.735266, 42.5230997 ], [ -4.7350855, 42.5231724 ], [ -4.7348928, 42.5232903 ], [ -4.734807, 42.5233666 ], [ -4.7346888, 42.5234934 ], [ -4.7346711, 42.5235837 ], [ -4.7345998, 42.5236948 ], [ -4.7345415, 42.5237856 ], [ -4.7344261, 42.5239424 ], [ -4.7343202, 42.524094 ], [ -4.7341966, 42.5242708 ], [ -4.734079, 42.5244176 ], [ -4.733899, 42.5247503 ], [ -4.7338285, 42.5251364 ], [ -4.7339162, 42.525375 ], [ -4.7339631, 42.5256043 ], [ -4.7338303, 42.5258066 ], [ -4.7337575, 42.5258674 ], [ -4.7330837, 42.5259476 ], [ -4.7325319, 42.5260359 ], [ -4.7318038, 42.5261069 ], [ -4.7316256, 42.5260196 ], [ -4.731504, 42.5260215 ], [ -4.7310443, 42.5265084 ], [ -4.7307533, 42.5267428 ], [ -4.7301538, 42.5270618 ], [ -4.7296584, 42.5272393 ], [ -4.7290649, 42.5277782 ], [ -4.7287433, 42.528034 ], [ -4.7285729, 42.5280756 ], [ -4.7283534, 42.5284489 ], [ -4.7282168, 42.5288909 ], [ -4.7276721, 42.5292391 ], [ -4.7274042, 42.5294394 ], [ -4.7279623, 42.5295702 ], [ -4.7280298, 42.5296503 ] ] ] } },
{ "type": "Feature", "properties": { "CCAA": "07 - Castilla y León", "PROVINCIA": "34 - Palencia", "MUNICIPIO": "34157 - Saldaña", "COD_MUNICIPIO": "34157", "DISTRITO": "01", "SECCION": "3415701003", "V1_H": 80.53, "V1_M": 86.43, "V2_H": 80.43347749, "V2_M": 86.30479166000001, "V3_H": 80.8868878, "V3_M": 86.74881461 }, "geometry": { "type": "Polygon", "coordinates": [ [ [ -4.76387, 42.6366588 ], [ -4.7661015, 42.6366424 ], [ -4.7661016, 42.6366424 ], [ -4.7679511, 42.6369201 ], [ -4.7687331, 42.6371852 ], [ -4.7711777, 42.6380139 ], [ -4.7731127, 42.6374539 ], [ -4.7746617, 42.6370055 ], [ -4.7764256, 42.6364108 ], [ -4.7782555, 42.6359952 ], [ -4.7784571, 42.6357939 ], [ -4.7796785, 42.6345682 ], [ -4.7802084, 42.6339049 ], [ -4.7803851, 42.6336837 ], [ -4.780421, 42.633449 ], [ -4.780529, 42.6327449 ], [ -4.7798963, 42.631512 ], [ -4.7778269, 42.6299322 ], [ -4.7768141, 42.6269131 ], [ -4.7768141, 42.626913 ], [ -4.77613, 42.6234386 ], [ -4.7756096, 42.6227172 ], [ -4.7728475, 42.6212111 ], [ -4.7719686, 42.6207473 ], [ -4.7718207, 42.6193988 ], [ -4.7710731, 42.6175462 ], [ -4.7697398, 42.6152435 ], [ -4.7691893, 42.6138831 ], [ -4.7693598, 42.613016 ], [ -4.7700163, 42.611655 ], [ -4.7707889, 42.6105264 ], [ -4.771655, 42.60882 ], [ -4.7716134, 42.6073528 ], [ -4.7716134, 42.6073528 ], [ -4.7710332, 42.6066683 ], [ -4.7680509, 42.6051024 ], [ -4.7670167, 42.6043079 ], [ -4.7664917, 42.6034155 ], [ -4.7664916, 42.6034154 ], [ -4.766156, 42.602322 ], [ -4.7653022, 42.6005791 ], [ -4.7650317, 42.5987641 ], [ -4.7649683, 42.596955 ], [ -4.7638439, 42.5959817 ], [ -4.7636799, 42.5957861 ], [ -4.7627621, 42.5947917 ], [ -4.7635583, 42.5949325 ], [ -4.7635584, 42.5949325 ], [ -4.7670631, 42.5955989 ], [ -4.7675337, 42.5898192 ], [ -4.7678087, 42.5883381 ], [ -4.768521, 42.587016 ], [ -4.7691288, 42.5858881 ], [ -4.7691983, 42.5857591 ], [ -4.7691984, 42.5857592 ], [ -4.7691519, 42.585225 ], [ -4.7690898, 42.584509 ], [ -4.7690908, 42.5845051 ], [ -4.7693526, 42.5834603 ], [ -4.7693849, 42.5833067 ], [ -4.7695325, 42.5820617 ], [ -4.7700295, 42.5811275 ], [ -4.77003, 42.5811265 ], [ -4.7712433, 42.5796488 ], [ -4.7722633, 42.5782282 ], [ -4.7732531, 42.5761777 ], [ -4.7732541, 42.5761717 ], [ -4.7735419, 42.5743271 ], [ -4.7736782, 42.5737879 ], [ -4.774024, 42.5724195 ], [ -4.7741818, 42.5711113 ], [ -4.7742201, 42.5707415 ], [ -4.7747362, 42.5691755 ], [ -4.7760036, 42.5653196 ], [ -4.7775637, 42.5644849 ], [ -4.7799156, 42.5632236 ], [ -4.7799156, 42.5632236 ], [ -4.7783028, 42.5626273 ], [ -4.7770423, 42.5615662 ], [ -4.7753005, 42.5602874 ], [ -4.7744028, 42.5591306 ], [ -4.7743776, 42.5576241 ], [ -4.7742969, 42.5528104 ], [ -4.7745706, 42.5512932 ], [ -4.7734642, 42.5504999 ], [ -4.7729045, 42.549662 ], [ -4.7711747, 42.5475004 ], [ -4.7695722, 42.5459583 ], [ -4.7685701, 42.5441096 ], [ -4.7685701, 42.5441096 ], [ -4.7672972, 42.542157 ], [ -4.7661737, 42.5407515 ], [ -4.7637067, 42.5387722 ], [ -4.7628554, 42.5379478 ], [ -4.7634542, 42.5371552 ], [ -4.7634542, 42.5371551 ], [ -4.7631446, 42.5361062 ], [ -4.761845, 42.5327582 ], [ -4.7614924, 42.5314759 ], [ -4.7610372, 42.5308795 ], [ -4.7583053, 42.5281117 ], [ -4.7582143, 42.5274737 ], [ -4.7578384, 42.52666 ], [ -4.7570312, 42.5256638 ], [ -4.7570312, 42.5256637 ], [ -4.7569079, 42.5252705 ], [ -4.7562158, 42.5230647 ], [ -4.7561359, 42.5228227 ], [ -4.7554056, 42.5223926 ], [ -4.7547657, 42.5208445 ], [ -4.754752, 42.5207681 ], [ -4.7537616, 42.5211233 ], [ -4.7518523, 42.5214925 ], [ -4.7503248, 42.5219758 ], [ -4.7471102, 42.5211049 ], [ -4.7461453, 42.5223795 ], [ -4.746359, 42.5232562 ], [ -4.746274, 42.5231175 ], [ -4.7465902, 42.5237927 ], [ -4.7468789, 42.5244482 ], [ -4.7473539, 42.525001 ], [ -4.7472215, 42.525103 ], [ -4.7465002, 42.525414 ], [ -4.7450246, 42.5248565 ], [ -4.7440157, 42.5245518 ], [ -4.7437399, 42.524356 ], [ -4.7428804, 42.5235892 ], [ -4.7407483, 42.5247015 ], [ -4.7400462, 42.5247322 ], [ -4.739445, 42.5245013 ], [ -4.7391393, 42.524206 ], [ -4.738868, 42.5241701 ], [ -4.738633, 42.5244736 ], [ -4.7381593, 42.5249408 ], [ -4.7368318, 42.5258209 ], [ -4.7364656, 42.5262664 ], [ -4.7368336, 42.5268608 ], [ -4.7369201, 42.5272758 ], [ -4.7369208, 42.5272793 ], [ -4.7369583, 42.5274589 ], [ -4.7378348, 42.5278656 ], [ -4.7378538, 42.5279291 ], [ -4.7396836, 42.5288765 ], [ -4.7394024, 42.5294241 ], [ -4.7372356, 42.5290417 ], [ -4.7347024, 42.5289929 ], [ -4.7347692, 42.5294519 ], [ -4.7348632, 42.5296343 ], [ -4.7346668, 42.5296484 ], [ -4.7343042, 42.5296987 ], [ -4.7329404, 42.5297193 ], [ -4.7318796, 42.5297354 ], [ -4.7310602, 42.529703 ], [ -4.7298181, 42.5297442 ], [ -4.7284518, 42.529675 ], [ -4.7280298, 42.5296503 ], [ -4.7279623, 42.5295702 ], [ -4.7274042, 42.5294394 ], [ -4.7276721, 42.5292391 ], [ -4.7282168, 42.5288909 ], [ -4.7283534, 42.5284489 ], [ -4.7285729, 42.5280756 ], [ -4.7287433, 42.528034 ], [ -4.7290649, 42.5277782 ], [ -4.7296584, 42.5272393 ], [ -4.7301538, 42.5270618 ], [ -4.7307533, 42.5267428 ], [ -4.7310443, 42.5265084 ], [ -4.731504, 42.5260215 ], [ -4.7316256, 42.5260196 ], [ -4.7318038, 42.5261069 ], [ -4.7325319, 42.5260359 ], [ -4.7330837, 42.5259476 ], [ -4.7337575, 42.5258674 ], [ -4.7338303, 42.5258066 ], [ -4.7339631, 42.5256043 ], [ -4.7339162, 42.525375 ], [ -4.7338285, 42.5251364 ], [ -4.733899, 42.5247503 ], [ -4.734079, 42.5244176 ], [ -4.7341966, 42.5242708 ], [ -4.7343202, 42.524094 ], [ -4.7344261, 42.5239424 ], [ -4.7345415, 42.5237856 ], [ -4.7345998, 42.5236948 ], [ -4.7346711, 42.5235837 ], [ -4.7346888, 42.5234934 ], [ -4.734807, 42.5233666 ], [ -4.7348928, 42.5232903 ], [ -4.7350855, 42.5231724 ], [ -4.735266, 42.5230997 ], [ -4.7355629, 42.5228352 ], [ -4.7355724, 42.5226901 ], [ -4.7356443, 42.522604 ], [ -4.7358629, 42.5224407 ], [ -4.7361029, 42.5222232 ], [ -4.7360666, 42.5221865 ], [ -4.7360412, 42.5221297 ], [ -4.7360359, 42.5221178 ], [ -4.7360182, 42.5221133 ], [ -4.7360112, 42.5221116 ], [ -4.7357483, 42.5220453 ], [ -4.7357518, 42.5219943 ], [ -4.735281, 42.5218843 ], [ -4.7351408, 42.5220195 ], [ -4.7348174, 42.5217795 ], [ -4.7348234, 42.5217315 ], [ -4.7345175, 42.5216031 ], [ -4.7341314, 42.5214332 ], [ -4.7337323, 42.5213168 ], [ -4.7335225, 42.5212774 ], [ -4.7332693, 42.521228 ], [ -4.7330799, 42.5211457 ], [ -4.7325689, 42.5210502 ], [ -4.732327, 42.520465 ], [ -4.7324213, 42.5202294 ], [ -4.7327912, 42.5200747 ], [ -4.7332986, 42.5202054 ], [ -4.7336862, 42.5201676 ], [ -4.7340901, 42.5196824 ], [ -4.7341982, 42.5194253 ], [ -4.7336649, 42.5188797 ], [ -4.7330866, 42.518782 ], [ -4.7327891, 42.5189568 ], [ -4.7325006, 42.5189345 ], [ -4.7324677, 42.5182643 ], [ -4.7320957, 42.5178227 ], [ -4.731677, 42.5177758 ], [ -4.7314054, 42.5173221 ], [ -4.7323285, 42.5168716 ], [ -4.7321644, 42.5166611 ], [ -4.7319113, 42.5163562 ], [ -4.7313711, 42.5155552 ], [ -4.7323279, 42.5152852 ], [ -4.7326756, 42.5158868 ], [ -4.732862, 42.5158627 ], [ -4.7330802, 42.5159446 ], [ -4.7334563, 42.5165351 ], [ -4.7333767, 42.5167812 ], [ -4.7334956, 42.5169178 ], [ -4.735922, 42.5177435 ], [ -4.7364987, 42.5177774 ], [ -4.7368045, 42.5173841 ], [ -4.7380603, 42.515438 ], [ -4.7373396, 42.5138412 ], [ -4.738021, 42.5135008 ], [ -4.7385709, 42.5130878 ], [ -4.7390115, 42.5128895 ], [ -4.7402349, 42.5128923 ], [ -4.7402543, 42.513073 ], [ -4.7408098, 42.5133839 ], [ -4.7411512, 42.5132403 ], [ -4.7414711, 42.5138743 ], [ -4.7400401, 42.5141728 ], [ -4.7407849, 42.5145608 ], [ -4.7414723, 42.5149549 ], [ -4.7422821, 42.5156134 ], [ -4.742801, 42.5161592 ], [ -4.7434137, 42.5159369 ], [ -4.7436965, 42.5162733 ], [ -4.7434414, 42.5164156 ], [ -4.7445043, 42.5168573 ], [ -4.7447903, 42.516789 ], [ -4.7444159, 42.5162624 ], [ -4.7451578, 42.5160275 ], [ -4.7455516, 42.5167349 ], [ -4.7463147, 42.516678 ], [ -4.7464766, 42.5166755 ], [ -4.7470791, 42.5161056 ], [ -4.7515361, 42.5159776 ], [ -4.7520114, 42.5155703 ], [ -4.7520347, 42.51447 ], [ -4.7520564, 42.5133097 ], [ -4.7527305, 42.5122795 ], [ -4.7538029, 42.5119631 ], [ -4.754596, 42.5122909 ], [ -4.7566773, 42.5161456 ], [ -4.7566847, 42.5164097 ], [ -4.7568288, 42.5164158 ], [ -4.7568443, 42.516382 ], [ -4.7613081, 42.5119098 ], [ -4.7619827, 42.5112239 ], [ -4.7624867, 42.5108378 ], [ -4.7638654, 42.5097811 ], [ -4.7655642, 42.5091862 ], [ -4.7664207, 42.5088863 ], [ -4.7675243, 42.5078787 ], [ -4.7650289, 42.5065753 ], [ -4.7633227, 42.5060612 ], [ -4.760478, 42.5070505 ], [ -4.7597797, 42.5073224 ], [ -4.7593692, 42.5074886 ], [ -4.7589011, 42.5076781 ], [ -4.7589011, 42.5076781 ], [ -4.7563134, 42.5065471 ], [ -4.7544869, 42.5069533 ], [ -4.7523546, 42.5073101 ], [ -4.7507575, 42.5072174 ], [ -4.7470881, 42.5070123 ], [ -4.7472396, 42.5089551 ], [ -4.7472396, 42.5089552 ], [ -4.7470525, 42.510543 ], [ -4.7465337, 42.5120188 ], [ -4.7450152, 42.512132 ], [ -4.7444651, 42.5116822 ], [ -4.7436203, 42.5109915 ], [ -4.7425054, 42.510297 ], [ -4.7415878, 42.5092483 ], [ -4.7411479, 42.5087507 ], [ -4.7410489, 42.5086891 ], [ -4.7410488, 42.5086891 ], [ -4.7400597, 42.5081368 ], [ -4.7380492, 42.507618 ], [ -4.7337022, 42.507999 ], [ -4.7336392, 42.5080071 ], [ -4.7335446, 42.5080194 ], [ -4.7286364, 42.5083547 ], [ -4.7248217, 42.5086192 ], [ -4.7236798, 42.5086995 ], [ -4.7228053, 42.5087667 ], [ -4.7228052, 42.5087667 ], [ -4.7228052, 42.5087666 ], [ -4.7221888, 42.5082251 ], [ -4.7218074, 42.5078901 ], [ -4.7216488, 42.5074332 ], [ -4.7222601, 42.5070908 ], [ -4.7222601, 42.5070908 ], [ -4.7222602, 42.5070908 ], [ -4.7215106, 42.5068319 ], [ -4.7213954, 42.5061852 ], [ -4.7209253, 42.5054629 ], [ -4.720112, 42.5050968 ], [ -4.7192922, 42.504938 ], [ -4.7163466, 42.5053784 ], [ -4.7151894, 42.505792 ], [ -4.7127076, 42.5062794 ], [ -4.7105603, 42.5065365 ], [ -4.7099836, 42.5068153 ], [ -4.7088741, 42.5071921 ], [ -4.7031674, 42.5077093 ], [ -4.7016901, 42.5070918 ], [ -4.6983209, 42.5080783 ], [ -4.6959164, 42.5091856 ], [ -4.6953709, 42.509716 ], [ -4.694623, 42.5104205 ], [ -4.693835, 42.5114408 ], [ -4.6927794, 42.5120147 ], [ -4.6922593, 42.5125897 ], [ -4.6917099, 42.5134353 ], [ -4.6912066, 42.5146315 ], [ -4.6896615, 42.5164734 ], [ -4.6883552, 42.5178732 ], [ -4.6875908, 42.5186922 ], [ -4.6874845, 42.5188109 ], [ -4.6874844, 42.5188109 ], [ -4.6860105, 42.5201384 ], [ -4.6806644, 42.523711 ], [ -4.679352, 42.5247118 ], [ -4.677834, 42.5225817 ], [ -4.6767014, 42.5212024 ], [ -4.675741, 42.5197479 ], [ -4.6751408, 42.5188388 ], [ -4.6737414, 42.5170311 ], [ -4.6725804, 42.5164087 ], [ -4.6718276, 42.5146546 ], [ -4.6698844, 42.5125396 ], [ -4.6676833, 42.5103292 ], [ -4.6659944, 42.509066 ], [ -4.6653958, 42.5085254 ], [ -4.6653957, 42.5085253 ], [ -4.6644517, 42.5073503 ], [ -4.6625746, 42.5063329 ], [ -4.6608942, 42.5053327 ], [ -4.6588524, 42.5041175 ], [ -4.6528606, 42.5012052 ], [ -4.6528606, 42.5012051 ], [ -4.6518376, 42.5007156 ], [ -4.6519691, 42.5015512 ], [ -4.6519018, 42.5031552 ], [ -4.6521543, 42.5062764 ], [ -4.6519826, 42.5076117 ], [ -4.6513314, 42.5083055 ], [ -4.6505634, 42.5087218 ], [ -4.6496737, 42.5086806 ], [ -4.6489314, 42.508223 ], [ -4.6478132, 42.5065974 ], [ -4.6467294, 42.5050217 ], [ -4.6450237, 42.5017051 ], [ -4.6437352, 42.5017059 ], [ -4.6437093, 42.5017059 ], [ -4.6411621, 42.501103 ], [ -4.6395423, 42.5010632 ], [ -4.6366522, 42.5008433 ], [ -4.6352619, 42.5016647 ], [ -4.6337809, 42.5022801 ], [ -4.6329166, 42.5022744 ], [ -4.6312173, 42.5015151 ], [ -4.6295263, 42.5006026 ], [ -4.6290411, 42.5006635 ], [ -4.6274877, 42.5022435 ], [ -4.6262939, 42.503143 ], [ -4.6241166, 42.5055424 ], [ -4.6238103, 42.5061681 ], [ -4.623504, 42.5067938 ], [ -4.6232377, 42.5077972 ], [ -4.623149, 42.5081316 ], [ -4.6220763, 42.5090113 ], [ -4.6206869, 42.5089409 ], [ -4.6192435, 42.5086642 ], [ -4.6185101, 42.5076028 ], [ -4.6185101, 42.5076028 ], [ -4.6176541, 42.5060299 ], [ -4.6168194, 42.5052852 ], [ -4.6156034, 42.5043838 ], [ -4.6151002, 42.5037515 ], [ -4.6145475, 42.5026066 ], [ -4.6145392, 42.5013369 ], [ -4.6130235, 42.5015564 ], [ -4.6119863, 42.5016123 ], [ -4.6118932, 42.5016173 ], [ -4.6118932, 42.5016173 ], [ -4.6105076, 42.5012135 ], [ -4.608883, 42.5009842 ], [ -4.6045053, 42.5011265 ], [ -4.6036926, 42.5021826 ], [ -4.6027916, 42.5036 ], [ -4.6032842, 42.506682 ], [ -4.6032842, 42.5066821 ], [ -4.6039327, 42.5077716 ], [ -4.6046718, 42.5081125 ], [ -4.6059723, 42.5085176 ], [ -4.6060036, 42.5097419 ], [ -4.6030711, 42.5112058 ], [ -4.6006719, 42.5125902 ], [ -4.600032, 42.5137518 ], [ -4.5995533, 42.5150283 ], [ -4.5989424, 42.5158923 ], [ -4.5980585, 42.5189485 ], [ -4.5966766, 42.5206157 ], [ -4.5957036, 42.5220882 ], [ -4.5952863, 42.5238681 ], [ -4.5972571, 42.5252455 ], [ -4.6005194, 42.5280818 ], [ -4.5999003, 42.5295853 ], [ -4.5990193, 42.5308494 ], [ -4.5979277, 42.5329269 ], [ -4.6006452, 42.5382562 ], [ -4.6015659, 42.5394951 ], [ -4.6046818, 42.5394336 ], [ -4.6068242, 42.5384489 ], [ -4.6095984, 42.5374105 ], [ -4.6095985, 42.5374104 ], [ -4.6100039, 42.5380261 ], [ -4.6103647, 42.5392728 ], [ -4.6111412, 42.5401084 ], [ -4.6126104, 42.540412 ], [ -4.6155682, 42.539884 ], [ -4.6159508, 42.5397559 ], [ -4.6177294, 42.5391601 ], [ -4.6192596, 42.5385262 ], [ -4.6208157, 42.5384231 ], [ -4.6216155, 42.538745 ], [ -4.6222658, 42.5394022 ], [ -4.6241608, 42.5401589 ], [ -4.6245353, 42.540231 ], [ -4.6260334, 42.5405196 ], [ -4.626503, 42.5407831 ], [ -4.6272272, 42.5424118 ], [ -4.6284507, 42.5445017 ], [ -4.6295271, 42.5460894 ], [ -4.6308914, 42.5475019 ], [ -4.6295979, 42.5492763 ], [ -4.6298228, 42.5509031 ], [ -4.6298228, 42.5509031 ], [ -4.6307834, 42.551401 ], [ -4.6318354, 42.5519461 ], [ -4.6335371, 42.5532097 ], [ -4.6347314, 42.5546336 ], [ -4.6355184, 42.5549195 ], [ -4.6355708, 42.5549224 ], [ -4.6366895, 42.5549838 ], [ -4.6378221, 42.5587049 ], [ -4.6384013, 42.5589578 ], [ -4.642148, 42.5606153 ], [ -4.6485646, 42.5641884 ], [ -4.656844, 42.564006 ], [ -4.6582567, 42.5639856 ], [ -4.6595989, 42.5640652 ], [ -4.6609005, 42.5639924 ], [ -4.6610755, 42.5673759 ], [ -4.6599952, 42.5684452 ], [ -4.6598266, 42.5685196 ], [ -4.6570225, 42.56983 ], [ -4.6536449, 42.5688071 ], [ -4.6517626, 42.5690413 ], [ -4.6499352, 42.5695089 ], [ -4.6487848, 42.5702369 ], [ -4.6477972, 42.5706744 ], [ -4.6468853, 42.5712098 ], [ -4.6458294, 42.5718283 ], [ -4.6457941, 42.5719051 ], [ -4.6456796, 42.5721547 ], [ -4.6454487, 42.5726443 ], [ -4.6467618, 42.5725354 ], [ -4.6482909, 42.5727656 ], [ -4.6491064, 42.5731308 ], [ -4.650239, 42.5736381 ], [ -4.6510865, 42.573896 ], [ -4.6510866, 42.573896 ], [ -4.6517873, 42.5736698 ], [ -4.6535089, 42.5765718 ], [ -4.6546543, 42.5770325 ], [ -4.6561054, 42.5779932 ], [ -4.6569768, 42.5791513 ], [ -4.6569768, 42.5791513 ], [ -4.6581175, 42.5798913 ], [ -4.6588329, 42.5802902 ], [ -4.659676, 42.5807602 ], [ -4.6611172, 42.5822613 ], [ -4.6619165, 42.5834474 ], [ -4.6620691, 42.5836884 ], [ -4.6638253, 42.5855721 ], [ -4.6646134, 42.5872537 ], [ -4.6655807, 42.587879 ], [ -4.6658416, 42.5878242 ], [ -4.667241, 42.5875307 ], [ -4.667241, 42.5875307 ], [ -4.6682752, 42.5883801 ], [ -4.6709133, 42.5917818 ], [ -4.67168, 42.5926531 ], [ -4.6726487, 42.5937827 ], [ -4.6737358, 42.590678 ], [ -4.6744137, 42.5877773 ], [ -4.6749104, 42.5849334 ], [ -4.6753364, 42.5835493 ], [ -4.6753365, 42.5835493 ], [ -4.6760612, 42.5837638 ], [ -4.6758191, 42.5842807 ], [ -4.6756373, 42.5852289 ], [ -4.6756374, 42.5852289 ], [ -4.6762743, 42.5867145 ], [ -4.6794674, 42.5917108 ], [ -4.6806761, 42.593152 ], [ -4.6838182, 42.5953212 ], [ -4.6869085, 42.5978243 ], [ -4.6875979, 42.5985256 ], [ -4.690069, 42.6011098 ], [ -4.6946169, 42.6074455 ], [ -4.6978203, 42.6113784 ], [ -4.6998019, 42.6143119 ], [ -4.701509, 42.6165559 ], [ -4.7027692, 42.6176089 ], [ -4.7039216, 42.6183383 ], [ -4.7039217, 42.6183383 ], [ -4.7039217, 42.6183383 ], [ -4.703923, 42.6183391 ], [ -4.7068487, 42.6200967 ], [ -4.7079517, 42.6194841 ], [ -4.7083981, 42.6192361 ], [ -4.7083995, 42.6192343 ], [ -4.7097518, 42.6174599 ], [ -4.7103406, 42.6162533 ], [ -4.7121305, 42.615272 ], [ -4.7125633, 42.614856 ], [ -4.7157168, 42.6118245 ], [ -4.7157179, 42.6118234 ], [ -4.7157233, 42.6118244 ], [ -4.7180158, 42.6122608 ], [ -4.7204979, 42.6127333 ], [ -4.7207506, 42.6148278 ], [ -4.7208039, 42.6167632 ], [ -4.7213409, 42.6189974 ], [ -4.7204804, 42.6209555 ], [ -4.7212697, 42.6230509 ], [ -4.7233798, 42.6257208 ], [ -4.7238031, 42.6263822 ], [ -4.7256865, 42.6293243 ], [ -4.7273291, 42.6310177 ], [ -4.727331, 42.6310196 ], [ -4.7325465, 42.6357047 ], [ -4.7325466, 42.6357047 ], [ -4.7345163, 42.6354858 ], [ -4.7360156, 42.6354541 ], [ -4.7361224, 42.6354396 ], [ -4.7374372, 42.6352615 ], [ -4.7406315, 42.633466 ], [ -4.7406316, 42.633466 ], [ -4.7423418, 42.6326925 ], [ -4.7444743, 42.6313183 ], [ -4.7464959, 42.6329625 ], [ -4.7473315, 42.6340574 ], [ -4.7473315, 42.6340575 ], [ -4.7486395, 42.6354693 ], [ -4.7489931, 42.6358008 ], [ -4.7501425, 42.6368782 ], [ -4.7501426, 42.6368782 ], [ -4.7505016, 42.6368119 ], [ -4.7512589, 42.6366721 ], [ -4.7519675, 42.6367153 ], [ -4.7520655, 42.6367317 ], [ -4.7528381, 42.636882 ], [ -4.7528382, 42.636882 ], [ -4.7592001, 42.6367125 ], [ -4.7608183, 42.6365706 ], [ -4.76387, 42.6366588 ] ] ] } }
]
}
