{
"type": "FeatureCollection",
"name": "34186",
"features": [
{ "type": "Feature", "properties": { "CCAA": "07 - Castilla y León", "PROVINCIA": "34 - Palencia", "MUNICIPIO": "34186 - Valbuena de Pisuerga", "COD_MUNICIPIO": "34186", "DISTRITO": "01", "SECCION": "3418601001", "V1_H": 75.48, "V1_M": 82.31, "V2_H": 75.36985678000001, "V2_M": 82.56533706, "V3_H": 75.8600571, "V3_M": 82.01450712 }, "geometry": { "type": "Polygon", "coordinates": [ [ [ -4.2005539, 42.1320336 ], [ -4.2030674, 42.1325026 ], [ -4.2039987, 42.1331233 ], [ -4.2050122, 42.1336079 ], [ -4.2054185, 42.1346124 ], [ -4.2046661, 42.1357731 ], [ -4.204295, 42.1366236 ], [ -4.2040164, 42.1378874 ], [ -4.2035436, 42.1391172 ], [ -4.2032666, 42.1411015 ], [ -4.2036413, 42.141719 ], [ -4.204349, 42.1420268 ], [ -4.2044816, 42.1426378 ], [ -4.204309, 42.1437474 ], [ -4.2036044, 42.1442411 ], [ -4.2029781, 42.1450402 ], [ -4.2034591, 42.146152 ], [ -4.2034345, 42.1467737 ], [ -4.2018866, 42.1481138 ], [ -4.2007772, 42.1502509 ], [ -4.2011, 42.1506798 ], [ -4.2023853, 42.1514409 ], [ -4.2032508, 42.1524045 ], [ -4.2046231, 42.1532907 ], [ -4.206101, 42.1539867 ], [ -4.2029737, 42.1556676 ], [ -4.2002634, 42.1570019 ], [ -4.1972056, 42.15725 ], [ -4.1944997, 42.1601152 ], [ -4.1921787, 42.1622197 ], [ -4.1914795, 42.1630195 ], [ -4.1909637, 42.1639165 ], [ -4.1906872, 42.1646669 ], [ -4.1905784, 42.1653165 ], [ -4.1906182, 42.1667931 ], [ -4.190637, 42.1678016 ], [ -4.1904365, 42.1693707 ], [ -4.1898036, 42.1698366 ], [ -4.1890987, 42.1722756 ], [ -4.1888029, 42.1739358 ], [ -4.1886428, 42.1763781 ], [ -4.1913407, 42.1794843 ], [ -4.1909577, 42.1810103 ], [ -4.1994957, 42.1887568 ], [ -4.2003912, 42.1893598 ], [ -4.2045151, 42.1916042 ], [ -4.2058391, 42.1924459 ], [ -4.2066891, 42.1919236 ], [ -4.2069029, 42.1917052 ], [ -4.2076624, 42.1902472 ], [ -4.2115126, 42.1889278 ], [ -4.2129978, 42.1867956 ], [ -4.2137488, 42.1861753 ], [ -4.2148119, 42.1847771 ], [ -4.2164878, 42.1837597 ], [ -4.2183753, 42.1830462 ], [ -4.2189914, 42.1823372 ], [ -4.2199762, 42.1819124 ], [ -4.2213307, 42.1805651 ], [ -4.2221468, 42.1801871 ], [ -4.2233075, 42.1800938 ], [ -4.2250968, 42.180579 ], [ -4.2271361, 42.1795846 ], [ -4.2281978, 42.1800055 ], [ -4.2302481, 42.1802087 ], [ -4.2349719, 42.1765465 ], [ -4.2375005, 42.174583 ], [ -4.2383054, 42.1742591 ], [ -4.2418331, 42.1738607 ], [ -4.2468269, 42.1747522 ], [ -4.2499293, 42.1736648 ], [ -4.2508553, 42.1733485 ], [ -4.2502252, 42.1727069 ], [ -4.2473181, 42.1707932 ], [ -4.2465165, 42.1700454 ], [ -4.2460302, 42.1693302 ], [ -4.2452312, 42.1668621 ], [ -4.2448409, 42.1654794 ], [ -4.2444146, 42.1641151 ], [ -4.2442975, 42.1624592 ], [ -4.2445214, 42.1603043 ], [ -4.2451551, 42.1586673 ], [ -4.2459707, 42.1570463 ], [ -4.2474338, 42.1557335 ], [ -4.250733, 42.1542386 ], [ -4.2528288, 42.1537204 ], [ -4.2546379, 42.1533945 ], [ -4.2559248, 42.1529751 ], [ -4.2561085, 42.1524777 ], [ -4.2563605, 42.1517545 ], [ -4.2562548, 42.1513053 ], [ -4.2558887, 42.1499314 ], [ -4.2552063, 42.1484708 ], [ -4.25447, 42.1473441 ], [ -4.2517176, 42.1458611 ], [ -4.2496309, 42.1449832 ], [ -4.2460019, 42.1438338 ], [ -4.2452107, 42.1429868 ], [ -4.2464378, 42.1413794 ], [ -4.2491006, 42.1383243 ], [ -4.2499468, 42.1370542 ], [ -4.2500658, 42.13572 ], [ -4.2496754, 42.1343283 ], [ -4.248933, 42.1328774 ], [ -4.2485502, 42.1318728 ], [ -4.2498698, 42.1306786 ], [ -4.2510747, 42.1298099 ], [ -4.2531214, 42.1280674 ], [ -4.2538129, 42.126934 ], [ -4.2541649, 42.1257684 ], [ -4.2539336, 42.124465 ], [ -4.2535203, 42.1231366 ], [ -4.2524897, 42.1217969 ], [ -4.250938, 42.1204088 ], [ -4.2492079, 42.1191668 ], [ -4.2484998, 42.1176074 ], [ -4.2484683, 42.116617 ], [ -4.2486381, 42.1154084 ], [ -4.2472071, 42.1152258 ], [ -4.245049, 42.11497 ], [ -4.2434867, 42.1148788 ], [ -4.240208, 42.1142298 ], [ -4.2383042, 42.1152321 ], [ -4.2371451, 42.1159651 ], [ -4.2281427, 42.1189618 ], [ -4.2271063, 42.119171 ], [ -4.2258221, 42.1196981 ], [ -4.2243741, 42.1205151 ], [ -4.2210989, 42.121946 ], [ -4.2197623, 42.1222754 ], [ -4.2174883, 42.1222905 ], [ -4.2168567, 42.1221621 ], [ -4.2158229, 42.1231368 ], [ -4.2145446, 42.1246183 ], [ -4.2141856, 42.1248292 ], [ -4.213504, 42.1252417 ], [ -4.2123724, 42.1255419 ], [ -4.2111987, 42.1255363 ], [ -4.2103656, 42.1256261 ], [ -4.2062877, 42.1274973 ], [ -4.2048764, 42.1283587 ], [ -4.2029457, 42.1299101 ], [ -4.2005539, 42.1320336 ] ] ] } }
]
}
