{
"type": "FeatureCollection",
"name": "35018",
"features": [
{ "type": "Feature", "properties": { "CCAA": "05 - Canarias", "PROVINCIA": "35 - Palmas, Las", "MUNICIPIO": "35018 - San Bartolomé", "COD_MUNICIPIO": "35018", "DISTRITO": "01", "SECCION": "3501801002", "V1_H": 80.54, "V1_M": 86.2, "V2_H": 80.39552864, "V2_M": 86.0597654, "V3_H": 80.75568151, "V3_M": 86.47868922000001 }, "geometry": { "type": "Polygon", "coordinates": [ [ [ -13.5852088, 29.0033766 ], [ -13.5854969, 29.004458 ], [ -13.5858534, 29.0060727 ], [ -13.5862179, 29.007482 ], [ -13.5867476, 29.0084487 ], [ -13.5873498, 29.0094117 ], [ -13.5874194, 29.0094846 ], [ -13.58755, 29.0094589 ], [ -13.5877172, 29.0094291 ], [ -13.5878664, 29.0094036 ], [ -13.5880479, 29.0093694 ], [ -13.58821, 29.0093395 ], [ -13.5884331, 29.0092989 ], [ -13.5885824, 29.0092735 ], [ -13.5887438, 29.0092435 ], [ -13.5888647, 29.0092223 ], [ -13.5890134, 29.0091923 ], [ -13.5891844, 29.0091647 ], [ -13.5893298, 29.0091392 ], [ -13.5895781, 29.0090944 ], [ -13.5897028, 29.0090732 ], [ -13.5898765, 29.0090389 ], [ -13.5900785, 29.0090049 ], [ -13.5902457, 29.0089751 ], [ -13.5903737, 29.0089516 ], [ -13.5905062, 29.0089281 ], [ -13.5906587, 29.0088982 ], [ -13.5908201, 29.0088683 ], [ -13.5910497, 29.0088278 ], [ -13.5911906, 29.0088 ], [ -13.5913231, 29.0087765 ], [ -13.5915193, 29.0087447 ], [ -13.5916608, 29.0087169 ], [ -13.5917888, 29.0086934 ], [ -13.5919599, 29.0086636 ], [ -13.5921085, 29.0086358 ], [ -13.5922319, 29.0086168 ], [ -13.5923484, 29.0085933 ], [ -13.5924777, 29.008572 ], [ -13.5925799, 29.0085528 ], [ -13.5927002, 29.0085315 ], [ -13.592798, 29.0085122 ], [ -13.5929022, 29.008493 ], [ -13.5930302, 29.0084718 ], [ -13.5931279, 29.0084548 ], [ -13.5932379, 29.0084356 ], [ -13.593308, 29.0084228 ], [ -13.5933897, 29.0084101 ], [ -13.5934167, 29.0084037 ], [ -13.5936026, 29.0083695 ], [ -13.5937473, 29.0083439 ], [ -13.5938946, 29.0083161 ], [ -13.5940721, 29.0082864 ], [ -13.5942355, 29.0082565 ], [ -13.5943513, 29.0082352 ], [ -13.5945371, 29.0082055 ], [ -13.5947089, 29.0081713 ], [ -13.5949166, 29.0081351 ], [ -13.5950144, 29.0081158 ], [ -13.5951843, 29.0080837 ], [ -13.5952891, 29.0080645 ], [ -13.5954287, 29.0080389 ], [ -13.5956132, 29.008007 ], [ -13.5957747, 29.0079748 ], [ -13.5958963, 29.0079535 ], [ -13.5960391, 29.007928 ], [ -13.5961928, 29.0079002 ], [ -13.5963414, 29.0078702 ], [ -13.5964643, 29.0078466 ], [ -13.5966123, 29.0078166 ], [ -13.5967622, 29.0077866 ], [ -13.5968793, 29.0077653 ], [ -13.5970034, 29.007744 ], [ -13.597143, 29.0077161 ], [ -13.5973515, 29.0076687 ], [ -13.5975318, 29.0076209 ], [ -13.5976954, 29.0075775 ], [ -13.597848, 29.007534 ], [ -13.5980188, 29.0074771 ], [ -13.5981341, 29.0074422 ], [ -13.598294, 29.0073897 ], [ -13.5984332, 29.007346 ], [ -13.5985511, 29.0073089 ], [ -13.5987425, 29.0072455 ], [ -13.5989081, 29.0071908 ], [ -13.5990628, 29.0071405 ], [ -13.5991768, 29.0071056 ], [ -13.5993115, 29.0070619 ], [ -13.5994726, 29.0070094 ], [ -13.5996396, 29.0069503 ], [ -13.5997634, 29.0069087 ], [ -13.6000025, 29.00683 ], [ -13.600181, 29.0067709 ], [ -13.6003254, 29.0067228 ], [ -13.6004311, 29.0066878 ], [ -13.6005845, 29.0066375 ], [ -13.6007656, 29.0065784 ], [ -13.6009215, 29.0065282 ], [ -13.6010517, 29.0064867 ], [ -13.6011845, 29.0064407 ], [ -13.6013411, 29.0063882 ], [ -13.6014635, 29.0063488 ], [ -13.6016105, 29.0062984 ], [ -13.6018025, 29.006235 ], [ -13.6019759, 29.0061759 ], [ -13.6022266, 29.006095 ], [ -13.6024309, 29.0060272 ], [ -13.6025585, 29.0059857 ], [ -13.6028234, 29.0058959 ], [ -13.6030174, 29.0058303 ], [ -13.6031754, 29.0057755 ], [ -13.6033719, 29.0057121 ], [ -13.6036007, 29.0056378 ], [ -13.6037896, 29.0055721 ], [ -13.6038894, 29.0055415 ], [ -13.6040589, 29.0054846 ], [ -13.6042221, 29.0054277 ], [ -13.6043831, 29.0053775 ], [ -13.6045455, 29.0053227 ], [ -13.6046847, 29.0052791 ], [ -13.6048439, 29.0052288 ], [ -13.605005, 29.0051763 ], [ -13.605188, 29.0051151 ], [ -13.6053001, 29.0050801 ], [ -13.6054084, 29.0050451 ], [ -13.6056095, 29.004975 ], [ -13.6057668, 29.0049203 ], [ -13.6059576, 29.0048523 ], [ -13.606153, 29.0047799 ], [ -13.6062801, 29.0047316 ], [ -13.6065021, 29.0046324 ], [ -13.6066874, 29.0045485 ], [ -13.6068777, 29.004467 ], [ -13.6070727, 29.0043766 ], [ -13.6073361, 29.0042597 ], [ -13.6075259, 29.0041714 ], [ -13.6077208, 29.0040832 ], [ -13.6080367, 29.0038744 ], [ -13.6087388, 29.0034778 ], [ -13.6092612, 29.0031809 ], [ -13.609902, 29.0028085 ], [ -13.6104106, 29.0024889 ], [ -13.6108072, 29.0021478 ], [ -13.611002, 29.0019784 ], [ -13.611611, 29.0015357 ], [ -13.6116647, 29.0014956 ], [ -13.6119912, 29.0011696 ], [ -13.6125934, 29.0006073 ], [ -13.6128498, 29.0002489 ], [ -13.6131282, 28.9998637 ], [ -13.613399, 28.9995236 ], [ -13.6136626, 28.9990931 ], [ -13.6138287, 28.9987181 ], [ -13.6138945, 28.9984931 ], [ -13.6141125, 28.998175 ], [ -13.6142446, 28.9979801 ], [ -13.6144109, 28.9978284 ], [ -13.6146115, 28.9977537 ], [ -13.6148751, 28.9977114 ], [ -13.6152051, 28.9976403 ], [ -13.6154532, 28.9975594 ], [ -13.615851, 28.9974168 ], [ -13.6160547, 28.9972903 ], [ -13.6164789, 28.9969924 ], [ -13.6168954, 28.996744 ], [ -13.617087, 28.9965699 ], [ -13.6173348, 28.9963175 ], [ -13.6176211, 28.9960655 ], [ -13.617752, 28.9959631 ], [ -13.6179264, 28.9957303 ], [ -13.6181303, 28.9953985 ], [ -13.6184446, 28.9949257 ], [ -13.6186415, 28.9945915 ], [ -13.6188462, 28.9942981 ], [ -13.61893, 28.9941658 ], [ -13.6190223, 28.9940291 ], [ -13.619114, 28.9938924 ], [ -13.6192159, 28.9937559 ], [ -13.6192773, 28.993673 ], [ -13.6193829, 28.9935478 ], [ -13.6195222, 28.9933958 ], [ -13.6196367, 28.9932774 ], [ -13.6198369, 28.9930809 ], [ -13.6199571, 28.9929603 ], [ -13.6201619, 28.9927639 ], [ -13.6202619, 28.9926679 ], [ -13.6204251, 28.9925094 ], [ -13.6205992, 28.9923397 ], [ -13.6207526, 28.9921901 ], [ -13.6209008, 28.9920472 ], [ -13.6209814, 28.9919691 ], [ -13.6211704, 28.9917905 ], [ -13.6213005, 28.9916587 ], [ -13.6214844, 28.9914801 ], [ -13.6216073, 28.9913595 ], [ -13.6217476, 28.9912234 ], [ -13.6218211, 28.9911519 ], [ -13.6218726, 28.9910893 ], [ -13.6219455, 28.9910088 ], [ -13.6220284, 28.9909014 ], [ -13.6221519, 28.9907334 ], [ -13.6222489, 28.9905787 ], [ -13.6223615, 28.9904084 ], [ -13.6224535, 28.9902469 ], [ -13.6225538, 28.9900832 ], [ -13.6226581, 28.9899084 ], [ -13.6227146, 28.9898096 ], [ -13.622778, 28.9897178 ], [ -13.6228839, 28.98957 ], [ -13.6229839, 28.9894311 ], [ -13.6230936, 28.9892879 ], [ -13.6231855, 28.9891715 ], [ -13.6233519, 28.9889656 ], [ -13.6234556, 28.9888358 ], [ -13.6236016, 28.9886636 ], [ -13.6236675, 28.9885785 ], [ -13.6237294, 28.9885047 ], [ -13.6238246, 28.9883906 ], [ -13.6239524, 28.988234 ], [ -13.6240561, 28.9881087 ], [ -13.624238, 28.9878872 ], [ -13.6243488, 28.987753 ], [ -13.6244825, 28.9875896 ], [ -13.6245887, 28.9874621 ], [ -13.624734, 28.9872944 ], [ -13.6248312, 28.9871736 ], [ -13.624931, 28.9870505 ], [ -13.6250437, 28.9869163 ], [ -13.6251624, 28.9867731 ], [ -13.6252426, 28.9866747 ], [ -13.625371, 28.986518 ], [ -13.6254936, 28.9863659 ], [ -13.6256456, 28.9861779 ], [ -13.6257688, 28.9860303 ], [ -13.6258477, 28.9859341 ], [ -13.6259429, 28.9858154 ], [ -13.6257188, 28.9856868 ], [ -13.6245349, 28.9850859 ], [ -13.6236581, 28.9845851 ], [ -13.6225164, 28.9839935 ], [ -13.6215692, 28.9835394 ], [ -13.6208291, 28.9832859 ], [ -13.6188555, 28.9825459 ], [ -13.6173741, 28.9821719 ], [ -13.6162274, 28.9819639 ], [ -13.6151634, 28.9818536 ], [ -13.6143649, 28.9817958 ], [ -13.612946, 28.981648 ], [ -13.6124335, 28.9815931 ], [ -13.6124417, 28.9809818 ], [ -13.6124631, 28.9803909 ], [ -13.6115817, 28.9803457 ], [ -13.6115773, 28.9794229 ], [ -13.6115645, 28.9776449 ], [ -13.6115615, 28.9775298 ], [ -13.6113368, 28.9774485 ], [ -13.6112715, 28.9777276 ], [ -13.6109692, 28.9778824 ], [ -13.6107742, 28.9780316 ], [ -13.6106564, 28.9782063 ], [ -13.6105539, 28.9785301 ], [ -13.6105201, 28.9787125 ], [ -13.610481, 28.9790415 ], [ -13.6104575, 28.9794113 ], [ -13.6105823, 28.9802 ], [ -13.6105304, 28.9809147 ], [ -13.6105114, 28.9814695 ], [ -13.6082733, 28.9813764 ], [ -13.6066891, 28.98136 ], [ -13.6044746, 28.9813257 ], [ -13.6027505, 28.9813078 ], [ -13.6015448, 28.9812953 ], [ -13.600242, 28.9812434 ], [ -13.5971938, 28.981189 ], [ -13.5953162, 28.9811446 ], [ -13.5937594, 28.981099 ], [ -13.59247, 28.9810562 ], [ -13.5907114, 28.9809814 ], [ -13.5878365, 28.9808835 ], [ -13.5868991, 28.9808985 ], [ -13.5871141, 28.98292 ], [ -13.5875492, 28.9866381 ], [ -13.587796, 28.9884885 ], [ -13.5882342, 28.9932513 ], [ -13.5885743, 28.9962668 ], [ -13.588858, 28.9989049 ], [ -13.5891151, 29.001518 ], [ -13.5891157, 29.0017504 ], [ -13.5891174, 29.001958 ], [ -13.5891381, 29.0023259 ], [ -13.5891338, 29.0031584 ], [ -13.5889355, 29.003594 ], [ -13.5874347, 29.0035015 ], [ -13.5852088, 29.0033766 ] ] ] } },
{ "type": "Feature", "properties": { "CCAA": "05 - Canarias", "PROVINCIA": "35 - Palmas, Las", "MUNICIPIO": "35018 - San Bartolomé", "COD_MUNICIPIO": "35018", "DISTRITO": "01", "SECCION": "3501801003", "V1_H": 80.54, "V1_M": 86.2, "V2_H": 80.39552864, "V2_M": 86.0597654, "V3_H": 80.75568151, "V3_M": 86.47868922000001 }, "geometry": { "type": "Polygon", "coordinates": [ [ [ -13.6066161, 29.0203768 ], [ -13.6080797, 29.0209109 ], [ -13.6084681, 29.0206171 ], [ -13.6087296, 29.0205905 ], [ -13.6098496, 29.0201937 ], [ -13.6120828, 29.0201378 ], [ -13.613493, 29.0201615 ], [ -13.6145655, 29.0201477 ], [ -13.6155006, 29.0200829 ], [ -13.6166231, 29.0199275 ], [ -13.618212, 29.0208463 ], [ -13.6216925, 29.0208076 ], [ -13.6242267, 29.0207546 ], [ -13.6259504, 29.0207497 ], [ -13.6277512, 29.0209802 ], [ -13.6294935, 29.0212213 ], [ -13.6309876, 29.0214509 ], [ -13.6321089, 29.0218752 ], [ -13.6331052, 29.0223794 ], [ -13.6348689, 29.0235864 ], [ -13.6366593, 29.0248025 ], [ -13.6371727, 29.0251507 ], [ -13.6397044, 29.0268617 ], [ -13.6411487, 29.02786 ], [ -13.6422672, 29.0286564 ], [ -13.6426658, 29.0285025 ], [ -13.6435622, 29.028119 ], [ -13.6444672, 29.027819 ], [ -13.6449899, 29.0276461 ], [ -13.6470312, 29.027159 ], [ -13.6490264, 29.0265745 ], [ -13.6498054, 29.0263319 ], [ -13.6498785, 29.0262424 ], [ -13.6501545, 29.0258435 ], [ -13.6504246, 29.0254514 ], [ -13.6508342, 29.0250946 ], [ -13.6510331, 29.0249476 ], [ -13.6511899, 29.0248319 ], [ -13.6517687, 29.0244429 ], [ -13.6525553, 29.0239116 ], [ -13.6529115, 29.0235654 ], [ -13.6532218, 29.0231918 ], [ -13.6534258, 29.0227516 ], [ -13.6535564, 29.0221347 ], [ -13.6538467, 29.0209261 ], [ -13.6540247, 29.0202149 ], [ -13.6541562, 29.0195755 ], [ -13.6544467, 29.0187504 ], [ -13.6550054, 29.0175805 ], [ -13.6555339, 29.01646 ], [ -13.6560466, 29.0154183 ], [ -13.6567451, 29.0142047 ], [ -13.6573036, 29.0131453 ], [ -13.6575426, 29.0124754 ], [ -13.6579803, 29.0115254 ], [ -13.6585321, 29.0104818 ], [ -13.6591122, 29.0092399 ], [ -13.6596974, 29.0076416 ], [ -13.6600967, 29.0065898 ], [ -13.6604405, 29.0057471 ], [ -13.6592978, 29.0057944 ], [ -13.6573122, 29.0059257 ], [ -13.6546153, 29.0060883 ], [ -13.6525841, 29.0062191 ], [ -13.6518294, 29.0062363 ], [ -13.6489872, 29.0023656 ], [ -13.6487521, 29.0020451 ], [ -13.6483369, 29.0015107 ], [ -13.6479646, 29.0010286 ], [ -13.6474379, 29.000333 ], [ -13.647399, 29.0002175 ], [ -13.6473912, 29.0001791 ], [ -13.6472898, 28.9996885 ], [ -13.6473905, 28.9989968 ], [ -13.6469056, 28.9992379 ], [ -13.6462075, 28.9995828 ], [ -13.6455241, 28.9999324 ], [ -13.6448279, 29.0001893 ], [ -13.6426795, 29.0009483 ], [ -13.6416634, 29.0012291 ], [ -13.6401667, 29.0015163 ], [ -13.6394277, 29.0017502 ], [ -13.6387454, 29.0022622 ], [ -13.6379551, 29.0030326 ], [ -13.6368976, 29.0040191 ], [ -13.6362794, 29.0047776 ], [ -13.6358867, 29.0053151 ], [ -13.6350992, 29.0061667 ], [ -13.6345649, 29.0068336 ], [ -13.634275, 29.0071646 ], [ -13.6340249, 29.0075479 ], [ -13.633869, 29.0077448 ], [ -13.633618, 29.0078957 ], [ -13.6333473, 29.0079899 ], [ -13.6330696, 29.0080322 ], [ -13.6326483, 29.0081047 ], [ -13.6324203, 29.0081226 ], [ -13.6323307, 29.0081059 ], [ -13.6320801, 29.0079364 ], [ -13.6319995, 29.0079695 ], [ -13.631785, 29.0080372 ], [ -13.6315726, 29.0080305 ], [ -13.6311498, 29.0078864 ], [ -13.6302398, 29.007656 ], [ -13.6287817, 29.0072892 ], [ -13.626424, 29.0067845 ], [ -13.6252573, 29.0065086 ], [ -13.6245865, 29.0063844 ], [ -13.6229666, 29.0061783 ], [ -13.621598, 29.0058371 ], [ -13.6203645, 29.0055221 ], [ -13.6193006, 29.0052405 ], [ -13.6188526, 29.0051569 ], [ -13.618659, 29.0049947 ], [ -13.61846, 29.0049047 ], [ -13.6182089, 29.0047329 ], [ -13.6180132, 29.0045933 ], [ -13.6179191, 29.0045269 ], [ -13.6177356, 29.0043806 ], [ -13.6174269, 29.004048 ], [ -13.6172825, 29.003954 ], [ -13.6172013, 29.0038878 ], [ -13.6166099, 29.0034395 ], [ -13.6164054, 29.0033291 ], [ -13.61627, 29.0032397 ], [ -13.6161218, 29.0031412 ], [ -13.6158779, 29.0030507 ], [ -13.6158273, 29.0030457 ], [ -13.6155796, 29.0029506 ], [ -13.6155612, 29.0028872 ], [ -13.6154168, 29.0028429 ], [ -13.6153066, 29.0028304 ], [ -13.6149479, 29.0028335 ], [ -13.6143939, 29.0028075 ], [ -13.6142126, 29.0027425 ], [ -13.6140275, 29.0026706 ], [ -13.6138377, 29.0026123 ], [ -13.6137573, 29.0025776 ], [ -13.6136716, 29.002509 ], [ -13.6132249, 29.0022765 ], [ -13.6128909, 29.0021106 ], [ -13.6126461, 29.0019953 ], [ -13.6123757, 29.0018707 ], [ -13.6123292, 29.0018476 ], [ -13.6122969, 29.0019105 ], [ -13.6120026, 29.0017518 ], [ -13.6118619, 29.0016759 ], [ -13.6117687, 29.0016366 ], [ -13.611611, 29.0015357 ], [ -13.611002, 29.0019784 ], [ -13.6108072, 29.0021478 ], [ -13.6104106, 29.0024889 ], [ -13.609902, 29.0028085 ], [ -13.6092612, 29.0031809 ], [ -13.6087388, 29.0034778 ], [ -13.6080367, 29.0038744 ], [ -13.6077208, 29.0040832 ], [ -13.6075259, 29.0041714 ], [ -13.6073361, 29.0042597 ], [ -13.6070727, 29.0043766 ], [ -13.6068777, 29.004467 ], [ -13.6066874, 29.0045485 ], [ -13.6065021, 29.0046324 ], [ -13.6062801, 29.0047316 ], [ -13.606153, 29.0047799 ], [ -13.6059576, 29.0048523 ], [ -13.6057668, 29.0049203 ], [ -13.6056095, 29.004975 ], [ -13.6054084, 29.0050451 ], [ -13.6053001, 29.0050801 ], [ -13.605188, 29.0051151 ], [ -13.605005, 29.0051763 ], [ -13.6048439, 29.0052288 ], [ -13.6046847, 29.0052791 ], [ -13.6045455, 29.0053227 ], [ -13.6043831, 29.0053775 ], [ -13.6042221, 29.0054277 ], [ -13.6040589, 29.0054846 ], [ -13.6038894, 29.0055415 ], [ -13.6037896, 29.0055721 ], [ -13.6036007, 29.0056378 ], [ -13.6033719, 29.0057121 ], [ -13.6031754, 29.0057755 ], [ -13.6030174, 29.0058303 ], [ -13.6028234, 29.0058959 ], [ -13.6025585, 29.0059857 ], [ -13.6024309, 29.0060272 ], [ -13.6022266, 29.006095 ], [ -13.6019759, 29.0061759 ], [ -13.6018025, 29.006235 ], [ -13.6016105, 29.0062984 ], [ -13.6014635, 29.0063488 ], [ -13.6013411, 29.0063882 ], [ -13.6011845, 29.0064407 ], [ -13.6010517, 29.0064867 ], [ -13.6009215, 29.0065282 ], [ -13.6007656, 29.0065784 ], [ -13.6005845, 29.0066375 ], [ -13.6004311, 29.0066878 ], [ -13.6003254, 29.0067228 ], [ -13.600181, 29.0067709 ], [ -13.6000025, 29.00683 ], [ -13.5997634, 29.0069087 ], [ -13.5996396, 29.0069503 ], [ -13.5994726, 29.0070094 ], [ -13.5993115, 29.0070619 ], [ -13.5991768, 29.0071056 ], [ -13.5990628, 29.0071405 ], [ -13.5989081, 29.0071908 ], [ -13.5987425, 29.0072455 ], [ -13.5985511, 29.0073089 ], [ -13.5984332, 29.007346 ], [ -13.598294, 29.0073897 ], [ -13.5981341, 29.0074422 ], [ -13.5980188, 29.0074771 ], [ -13.597848, 29.007534 ], [ -13.5976954, 29.0075775 ], [ -13.5975318, 29.0076209 ], [ -13.5973515, 29.0076687 ], [ -13.597143, 29.0077161 ], [ -13.5970034, 29.007744 ], [ -13.5968793, 29.0077653 ], [ -13.5967622, 29.0077866 ], [ -13.5966123, 29.0078166 ], [ -13.5964643, 29.0078466 ], [ -13.5963414, 29.0078702 ], [ -13.5961928, 29.0079002 ], [ -13.5960391, 29.007928 ], [ -13.5958963, 29.0079535 ], [ -13.5957747, 29.0079748 ], [ -13.5956132, 29.008007 ], [ -13.5954287, 29.0080389 ], [ -13.5952891, 29.0080645 ], [ -13.5951843, 29.0080837 ], [ -13.5950144, 29.0081158 ], [ -13.5949166, 29.0081351 ], [ -13.5947089, 29.0081713 ], [ -13.5945371, 29.0082055 ], [ -13.5943513, 29.0082352 ], [ -13.5942355, 29.0082565 ], [ -13.5940721, 29.0082864 ], [ -13.5938946, 29.0083161 ], [ -13.5937473, 29.0083439 ], [ -13.5936026, 29.0083695 ], [ -13.5934167, 29.0084037 ], [ -13.5933897, 29.0084101 ], [ -13.593308, 29.0084228 ], [ -13.5932379, 29.0084356 ], [ -13.5931279, 29.0084548 ], [ -13.5930302, 29.0084718 ], [ -13.5929022, 29.008493 ], [ -13.592798, 29.0085122 ], [ -13.5927002, 29.0085315 ], [ -13.5925799, 29.0085528 ], [ -13.5924777, 29.008572 ], [ -13.5923484, 29.0085933 ], [ -13.5922319, 29.0086168 ], [ -13.5921085, 29.0086358 ], [ -13.5919599, 29.0086636 ], [ -13.5917888, 29.0086934 ], [ -13.5916608, 29.0087169 ], [ -13.5915193, 29.0087447 ], [ -13.5913231, 29.0087765 ], [ -13.5911906, 29.0088 ], [ -13.5910497, 29.0088278 ], [ -13.5908201, 29.0088683 ], [ -13.5906587, 29.0088982 ], [ -13.5905062, 29.0089281 ], [ -13.5903737, 29.0089516 ], [ -13.5902457, 29.0089751 ], [ -13.5900785, 29.0090049 ], [ -13.5898765, 29.0090389 ], [ -13.5897028, 29.0090732 ], [ -13.5895781, 29.0090944 ], [ -13.5893298, 29.0091392 ], [ -13.5891844, 29.0091647 ], [ -13.5890134, 29.0091923 ], [ -13.5888647, 29.0092223 ], [ -13.5887438, 29.0092435 ], [ -13.5885824, 29.0092735 ], [ -13.5884331, 29.0092989 ], [ -13.58821, 29.0093395 ], [ -13.5880479, 29.0093694 ], [ -13.5878664, 29.0094036 ], [ -13.5877172, 29.0094291 ], [ -13.58755, 29.0094589 ], [ -13.5874194, 29.0094846 ], [ -13.5892713, 29.0114127 ], [ -13.5912443, 29.0136377 ], [ -13.5932876, 29.0159468 ], [ -13.5934184, 29.0160925 ], [ -13.5948977, 29.0177821 ], [ -13.596826, 29.0199162 ], [ -13.5990354, 29.0193436 ], [ -13.6006042, 29.019069 ], [ -13.6028879, 29.0193657 ], [ -13.6042453, 29.0196415 ], [ -13.6062464, 29.0202399 ], [ -13.6066161, 29.0203768 ] ] ] } },
{ "type": "Feature", "properties": { "CCAA": "05 - Canarias", "PROVINCIA": "35 - Palmas, Las", "MUNICIPIO": "35018 - San Bartolomé", "COD_MUNICIPIO": "35018", "DISTRITO": "02", "SECCION": "3501802001", "V1_H": 80.91, "V1_M": 86.7, "V2_H": 80.91796575, "V2_M": 86.73459974, "V3_H": 81.00259482, "V3_M": 86.81948346 }, "geometry": { "type": "Polygon", "coordinates": [ [ [ -13.5843403, 28.9576176 ], [ -13.5879122, 28.9573528 ], [ -13.5875141, 28.9548398 ], [ -13.5872614, 28.9538941 ], [ -13.5868788, 28.9524597 ], [ -13.5866619, 28.9517151 ], [ -13.58655, 28.9516914 ], [ -13.5864893, 28.9516727 ], [ -13.5864154, 28.9516381 ], [ -13.5863205, 28.9515897 ], [ -13.586246, 28.9515461 ], [ -13.5861553, 28.9514774 ], [ -13.5860647, 28.951393 ], [ -13.5860126, 28.9513564 ], [ -13.5859173, 28.9512922 ], [ -13.5858286, 28.9512168 ], [ -13.5857418, 28.9511346 ], [ -13.5856709, 28.9510685 ], [ -13.585636, 28.9510411 ], [ -13.5855952, 28.9510226 ], [ -13.5855473, 28.9510108 ], [ -13.5854654, 28.9509986 ], [ -13.5853525, 28.9509997 ], [ -13.5852715, 28.9510124 ], [ -13.5851942, 28.9510409 ], [ -13.5851321, 28.9510764 ], [ -13.585103, 28.9510986 ], [ -13.585072, 28.9511141 ], [ -13.5850027, 28.9511675 ], [ -13.584944, 28.9512323 ], [ -13.5848828, 28.9513039 ], [ -13.5848242, 28.9513709 ], [ -13.5847513, 28.9514514 ], [ -13.5847117, 28.9514848 ], [ -13.584632, 28.9515404 ], [ -13.5845957, 28.9515693 ], [ -13.5844872, 28.9516246 ], [ -13.584382, 28.9516754 ], [ -13.5842892, 28.951715 ], [ -13.5841776, 28.9517612 ], [ -13.5840622, 28.9518051 ], [ -13.5839564, 28.9518491 ], [ -13.5839002, 28.9518824 ], [ -13.5838231, 28.951938 ], [ -13.5837432, 28.9520139 ], [ -13.5836467, 28.9520828 ], [ -13.5836111, 28.9521072 ], [ -13.5836929, 28.9526924 ], [ -13.5842544, 28.9565766 ], [ -13.5842591, 28.9566105 ], [ -13.5843403, 28.9576176 ] ] ] } },
{ "type": "Feature", "properties": { "CCAA": "05 - Canarias", "PROVINCIA": "35 - Palmas, Las", "MUNICIPIO": "35018 - San Bartolomé", "COD_MUNICIPIO": "35018", "DISTRITO": "02", "SECCION": "3501802002", "V1_H": 80.53, "V1_M": 86.43, "V2_H": 80.43347749, "V2_M": 86.30479166000001, "V3_H": 80.8868878, "V3_M": 86.74881461 }, "geometry": { "type": "Polygon", "coordinates": [ [ [ -13.5843403, 28.9576176 ], [ -13.5843699, 28.9579879 ], [ -13.5846639, 28.9610346 ], [ -13.5850601, 28.9646779 ], [ -13.5857036, 28.970131 ], [ -13.5859032, 28.9719583 ], [ -13.5863182, 28.9716738 ], [ -13.5873482, 28.9711161 ], [ -13.5886172, 28.970527 ], [ -13.5894351, 28.9701408 ], [ -13.5901542, 28.9697535 ], [ -13.5909987, 28.969248 ], [ -13.5920018, 28.9686425 ], [ -13.5933302, 28.9677811 ], [ -13.5939465, 28.9672596 ], [ -13.5948089, 28.9666166 ], [ -13.596037, 28.9657202 ], [ -13.5970783, 28.9651219 ], [ -13.5980366, 28.96464 ], [ -13.5994877, 28.9641407 ], [ -13.6004187, 28.9637308 ], [ -13.6011954, 28.963344 ], [ -13.6019575, 28.9629571 ], [ -13.6024243, 28.9626777 ], [ -13.6028781, 28.9623124 ], [ -13.603299, 28.9619648 ], [ -13.6040233, 28.961282 ], [ -13.604972, 28.9605992 ], [ -13.6059058, 28.9599794 ], [ -13.6071483, 28.9591936 ], [ -13.6081491, 28.9588339 ], [ -13.6086139, 28.9586515 ], [ -13.6092747, 28.9585365 ], [ -13.6097613, 28.9585031 ], [ -13.6101394, 28.9585206 ], [ -13.6106987, 28.9586618 ], [ -13.6114947, 28.9588933 ], [ -13.6122494, 28.9590974 ], [ -13.6130747, 28.9592548 ], [ -13.6136485, 28.9593104 ], [ -13.6141673, 28.9593157 ], [ -13.6154304, 28.9592407 ], [ -13.6161336, 28.9590765 ], [ -13.6173214, 28.9587864 ], [ -13.6181721, 28.9585673 ], [ -13.6186948, 28.9583267 ], [ -13.617241, 28.9569197 ], [ -13.6161836, 28.9558958 ], [ -13.6161637, 28.9558979 ], [ -13.6160198, 28.955919 ], [ -13.6159394, 28.9559362 ], [ -13.6158262, 28.9559598 ], [ -13.6157316, 28.9559814 ], [ -13.6156299, 28.9560075 ], [ -13.6155379, 28.9560313 ], [ -13.615442, 28.9560619 ], [ -13.6153428, 28.9560902 ], [ -13.6152526, 28.9561231 ], [ -13.6151579, 28.956156 ], [ -13.6150805, 28.9561868 ], [ -13.6149741, 28.9562308 ], [ -13.6148593, 28.9562815 ], [ -13.6147399, 28.956339 ], [ -13.6146521, 28.956381 ], [ -13.6145791, 28.9564163 ], [ -13.6144661, 28.956476 ], [ -13.6143576, 28.9565336 ], [ -13.6142427, 28.9565933 ], [ -13.6141148, 28.9566619 ], [ -13.613998, 28.9567171 ], [ -13.6138929, 28.9567589 ], [ -13.6137519, 28.9568003 ], [ -13.613654, 28.9568264 ], [ -13.613566, 28.9568413 ], [ -13.6134402, 28.9568513 ], [ -13.6133305, 28.9568546 ], [ -13.6132625, 28.9568517 ], [ -13.6131356, 28.9568459 ], [ -13.613019, 28.9568379 ], [ -13.6127768, 28.9568174 ], [ -13.6125969, 28.9568019 ], [ -13.6123759, 28.9567816 ], [ -13.6121914, 28.9567639 ], [ -13.6119992, 28.9567462 ], [ -13.6116482, 28.9567177 ], [ -13.6114855, 28.9567025 ], [ -13.6113093, 28.9566872 ], [ -13.6111339, 28.9566696 ], [ -13.6109705, 28.9566566 ], [ -13.610704, 28.9566313 ], [ -13.6105708, 28.9566186 ], [ -13.6103773, 28.9566031 ], [ -13.6102691, 28.9565907 ], [ -13.6101442, 28.9565803 ], [ -13.6099648, 28.9565672 ], [ -13.6097822, 28.9565541 ], [ -13.6095659, 28.9565203 ], [ -13.6093719, 28.9564979 ], [ -13.6090631, 28.9564699 ], [ -13.6088518, 28.9564474 ], [ -13.6086359, 28.9564294 ], [ -13.608388, 28.956411 ], [ -13.608163, 28.9563997 ], [ -13.6079431, 28.9563952 ], [ -13.607711, 28.9563905 ], [ -13.6074489, 28.956381 ], [ -13.6071645, 28.9563984 ], [ -13.6066172, 28.9564243 ], [ -13.6060671, 28.9564547 ], [ -13.6055563, 28.956481 ], [ -13.6052431, 28.9564981 ], [ -13.6045827, 28.9565341 ], [ -13.6041867, 28.9565593 ], [ -13.6038369, 28.956576 ], [ -13.603448, 28.9565968 ], [ -13.6030687, 28.9566199 ], [ -13.6026599, 28.9566382 ], [ -13.602305, 28.9566571 ], [ -13.6018641, 28.9566818 ], [ -13.6014245, 28.9567088 ], [ -13.6006704, 28.9567484 ], [ -13.5999029, 28.9567855 ], [ -13.5994382, 28.9568123 ], [ -13.5989119, 28.9568406 ], [ -13.5984877, 28.956861 ], [ -13.5984345, 28.956865 ], [ -13.5981187, 28.956882 ], [ -13.5977889, 28.9568966 ], [ -13.5973877, 28.9569218 ], [ -13.5970842, 28.9569344 ], [ -13.5968371, 28.9569476 ], [ -13.5964527, 28.9569684 ], [ -13.5961132, 28.9569874 ], [ -13.595809, 28.9570023 ], [ -13.5954913, 28.9570216 ], [ -13.5951883, 28.9570387 ], [ -13.5949721, 28.9570477 ], [ -13.5946967, 28.9570651 ], [ -13.594467, 28.9570785 ], [ -13.5941339, 28.9570954 ], [ -13.5940838, 28.9570993 ], [ -13.5939227, 28.9571089 ], [ -13.5935775, 28.9571234 ], [ -13.5932502, 28.9571403 ], [ -13.5930563, 28.9571563 ], [ -13.5928324, 28.957163 ], [ -13.5926026, 28.9571764 ], [ -13.5923786, 28.9571921 ], [ -13.5919352, 28.95721 ], [ -13.5918344, 28.9562658 ], [ -13.5917397, 28.9544592 ], [ -13.591731, 28.9542929 ], [ -13.5916812, 28.9533719 ], [ -13.5872614, 28.9538941 ], [ -13.5875141, 28.9548398 ], [ -13.5879122, 28.9573528 ], [ -13.5843403, 28.9576176 ] ] ] } },
{ "type": "Feature", "properties": { "CCAA": "05 - Canarias", "PROVINCIA": "35 - Palmas, Las", "MUNICIPIO": "35018 - San Bartolomé", "COD_MUNICIPIO": "35018", "DISTRITO": "02", "SECCION": "3501802006", "V1_H": 80.06, "V1_M": 86.09, "V2_H": 79.80248703, "V2_M": 86.14116428, "V3_H": 80.46064959, "V3_M": 86.17412372 }, "geometry": { "type": "Polygon", "coordinates": [ [ [ -13.5917397, 28.9544592 ], [ -13.5922763, 28.9544738 ], [ -13.5929871, 28.954488 ], [ -13.5934458, 28.9544861 ], [ -13.5939883, 28.9545119 ], [ -13.5947916, 28.9544732 ], [ -13.5968026, 28.9544472 ], [ -13.5974756, 28.954434 ], [ -13.5977814, 28.9544305 ], [ -13.597775, 28.9542158 ], [ -13.5975969, 28.9530297 ], [ -13.5975662, 28.9529881 ], [ -13.5938659, 28.9531037 ], [ -13.5933326, 28.9531771 ], [ -13.5916812, 28.9533719 ], [ -13.591731, 28.9542929 ], [ -13.5917397, 28.9544592 ] ] ] } },
{ "type": "Feature", "properties": { "CCAA": "05 - Canarias", "PROVINCIA": "35 - Palmas, Las", "MUNICIPIO": "35018 - San Bartolomé", "COD_MUNICIPIO": "35018", "DISTRITO": "01", "SECCION": "3501801004", "V1_H": 80.91, "V1_M": 86.7, "V2_H": 80.91796575, "V2_M": 86.73459974, "V3_H": 81.00259482, "V3_M": 86.81948346 }, "geometry": { "type": "Polygon", "coordinates": [ [ [ -13.6302398, 29.007656 ], [ -13.6311498, 29.0078864 ], [ -13.6315726, 29.0080305 ], [ -13.631785, 29.0080372 ], [ -13.6319995, 29.0079695 ], [ -13.6320801, 29.0079364 ], [ -13.6323307, 29.0081059 ], [ -13.6324203, 29.0081226 ], [ -13.6326483, 29.0081047 ], [ -13.6330696, 29.0080322 ], [ -13.6333473, 29.0079899 ], [ -13.633618, 29.0078957 ], [ -13.633869, 29.0077448 ], [ -13.6340249, 29.0075479 ], [ -13.634275, 29.0071646 ], [ -13.6345649, 29.0068336 ], [ -13.6350992, 29.0061667 ], [ -13.6358867, 29.0053151 ], [ -13.6362794, 29.0047776 ], [ -13.6368976, 29.0040191 ], [ -13.6379551, 29.0030326 ], [ -13.6387454, 29.0022622 ], [ -13.6394277, 29.0017502 ], [ -13.6401667, 29.0015163 ], [ -13.6416634, 29.0012291 ], [ -13.6426795, 29.0009483 ], [ -13.6448279, 29.0001893 ], [ -13.6455241, 28.9999324 ], [ -13.6462075, 28.9995828 ], [ -13.6469056, 28.9992379 ], [ -13.6473905, 28.9989968 ], [ -13.6474377, 28.9986724 ], [ -13.6476095, 28.9979499 ], [ -13.6476066, 28.9970813 ], [ -13.6472489, 28.996473 ], [ -13.6467487, 28.9958115 ], [ -13.6465548, 28.9951326 ], [ -13.6464788, 28.9945182 ], [ -13.6463715, 28.9937929 ], [ -13.6460773, 28.993077 ], [ -13.6455351, 28.9922007 ], [ -13.6455112, 28.9921621 ], [ -13.6453488, 28.9914385 ], [ -13.6452052, 28.9908842 ], [ -13.644958, 28.9902094 ], [ -13.6448564, 28.9899309 ], [ -13.6443839, 28.9886807 ], [ -13.6439789, 28.9877674 ], [ -13.6437319, 28.9871738 ], [ -13.643075, 28.9861451 ], [ -13.642376, 28.9854364 ], [ -13.6415835, 28.9849208 ], [ -13.6409192, 28.9844493 ], [ -13.6401835, 28.9840042 ], [ -13.6394925, 28.9835256 ], [ -13.6388875, 28.9830886 ], [ -13.6381715, 28.982506 ], [ -13.6373976, 28.9816499 ], [ -13.6369362, 28.9810225 ], [ -13.636476, 28.9801199 ], [ -13.6362297, 28.9796752 ], [ -13.6359509, 28.9791715 ], [ -13.6354133, 28.9779522 ], [ -13.634967, 28.9769121 ], [ -13.6346751, 28.9762842 ], [ -13.6344618, 28.9758195 ], [ -13.6337883, 28.9751336 ], [ -13.6334148, 28.974762 ], [ -13.6324929, 28.9738457 ], [ -13.6321312, 28.9734517 ], [ -13.631769, 28.9728027 ], [ -13.6315078, 28.9726692 ], [ -13.6266419, 28.9684953 ], [ -13.6250869, 28.9670107 ], [ -13.6240607, 28.9658473 ], [ -13.6224554, 28.9638116 ], [ -13.6197113, 28.9602142 ], [ -13.6186948, 28.9583267 ], [ -13.6181721, 28.9585673 ], [ -13.6173214, 28.9587864 ], [ -13.6161336, 28.9590765 ], [ -13.6154304, 28.9592407 ], [ -13.6141673, 28.9593157 ], [ -13.6136485, 28.9593104 ], [ -13.6130747, 28.9592548 ], [ -13.6122494, 28.9590974 ], [ -13.6114947, 28.9588933 ], [ -13.6106987, 28.9586618 ], [ -13.6101394, 28.9585206 ], [ -13.6097613, 28.9585031 ], [ -13.6092747, 28.9585365 ], [ -13.6086139, 28.9586515 ], [ -13.6081491, 28.9588339 ], [ -13.6071483, 28.9591936 ], [ -13.6059058, 28.9599794 ], [ -13.604972, 28.9605992 ], [ -13.6040233, 28.961282 ], [ -13.603299, 28.9619648 ], [ -13.6028781, 28.9623124 ], [ -13.6024243, 28.9626777 ], [ -13.6019575, 28.9629571 ], [ -13.6011954, 28.963344 ], [ -13.6004187, 28.9637308 ], [ -13.5994877, 28.9641407 ], [ -13.5980366, 28.96464 ], [ -13.5970783, 28.9651219 ], [ -13.596037, 28.9657202 ], [ -13.5948089, 28.9666166 ], [ -13.5939465, 28.9672596 ], [ -13.5933302, 28.9677811 ], [ -13.5920018, 28.9686425 ], [ -13.5909987, 28.969248 ], [ -13.5901542, 28.9697535 ], [ -13.5894351, 28.9701408 ], [ -13.5886172, 28.970527 ], [ -13.5873482, 28.9711161 ], [ -13.5863182, 28.9716738 ], [ -13.5859032, 28.9719583 ], [ -13.586144, 28.9741583 ], [ -13.5866301, 28.9783643 ], [ -13.5867148, 28.9791638 ], [ -13.5868991, 28.9808985 ], [ -13.5878365, 28.9808835 ], [ -13.5907114, 28.9809814 ], [ -13.59247, 28.9810562 ], [ -13.5937594, 28.981099 ], [ -13.5953162, 28.9811446 ], [ -13.5971938, 28.981189 ], [ -13.600242, 28.9812434 ], [ -13.6015448, 28.9812953 ], [ -13.6027505, 28.9813078 ], [ -13.6044746, 28.9813257 ], [ -13.6066891, 28.98136 ], [ -13.6082733, 28.9813764 ], [ -13.6105114, 28.9814695 ], [ -13.6105304, 28.9809147 ], [ -13.6105823, 28.9802 ], [ -13.6104575, 28.9794113 ], [ -13.610481, 28.9790415 ], [ -13.6105201, 28.9787125 ], [ -13.6105539, 28.9785301 ], [ -13.6106564, 28.9782063 ], [ -13.6107742, 28.9780316 ], [ -13.6109692, 28.9778824 ], [ -13.6112715, 28.9777276 ], [ -13.6113368, 28.9774485 ], [ -13.6115615, 28.9775298 ], [ -13.6115645, 28.9776449 ], [ -13.6115773, 28.9794229 ], [ -13.6115817, 28.9803457 ], [ -13.6124631, 28.9803909 ], [ -13.6124417, 28.9809818 ], [ -13.6124335, 28.9815931 ], [ -13.612946, 28.981648 ], [ -13.6143649, 28.9817958 ], [ -13.6151634, 28.9818536 ], [ -13.6162274, 28.9819639 ], [ -13.6173741, 28.9821719 ], [ -13.6188555, 28.9825459 ], [ -13.6208291, 28.9832859 ], [ -13.6215692, 28.9835394 ], [ -13.6225164, 28.9839935 ], [ -13.6236581, 28.9845851 ], [ -13.6245349, 28.9850859 ], [ -13.6257188, 28.9856868 ], [ -13.6259429, 28.9858154 ], [ -13.626527, 28.9859816 ], [ -13.6271624, 28.9861551 ], [ -13.6280061, 28.9864344 ], [ -13.628802, 28.9866524 ], [ -13.6294722, 28.986851 ], [ -13.6301421, 28.987036 ], [ -13.6308394, 28.9872823 ], [ -13.6313407, 28.987504 ], [ -13.6318116, 28.9877479 ], [ -13.6324228, 28.988149 ], [ -13.6328937, 28.9885351 ], [ -13.6334067, 28.9889396 ], [ -13.6337295, 28.9892723 ], [ -13.6341432, 28.9897683 ], [ -13.6346194, 28.9903417 ], [ -13.6349599, 28.9908912 ], [ -13.6351439, 28.9911886 ], [ -13.6352191, 28.9914262 ], [ -13.6353659, 28.9919692 ], [ -13.6354587, 28.9923785 ], [ -13.635577, 28.9940177 ], [ -13.6355328, 28.9963117 ], [ -13.6355525, 28.9976453 ], [ -13.6356804, 28.9983077 ], [ -13.6347351, 29.0004279 ], [ -13.6339231, 29.0022133 ], [ -13.6338538, 29.0023637 ], [ -13.6332571, 29.004316 ], [ -13.6330613, 29.0047134 ], [ -13.6328318, 29.0051306 ], [ -13.6326429, 29.0053972 ], [ -13.6318955, 29.0062672 ], [ -13.6312357, 29.0069193 ], [ -13.6304428, 29.0075407 ], [ -13.6302398, 29.007656 ] ] ] } },
{ "type": "Feature", "properties": { "CCAA": "05 - Canarias", "PROVINCIA": "35 - Palmas, Las", "MUNICIPIO": "35018 - San Bartolomé", "COD_MUNICIPIO": "35018", "DISTRITO": "02", "SECCION": "3501802003", "V1_H": 80.78, "V1_M": 86.64, "V2_H": 80.55514168000001, "V2_M": 86.45889906, "V3_H": 81.06237696, "V3_M": 86.87120108000001 }, "geometry": { "type": "Polygon", "coordinates": [ [ [ -13.5866619, 28.9517151 ], [ -13.5868788, 28.9524597 ], [ -13.5872614, 28.9538941 ], [ -13.5916812, 28.9533719 ], [ -13.5916335, 28.9524915 ], [ -13.5915695, 28.9512499 ], [ -13.5910161, 28.9513434 ], [ -13.5907787, 28.9500775 ], [ -13.5906643, 28.9500966 ], [ -13.5905458, 28.9501269 ], [ -13.5904429, 28.9501529 ], [ -13.5903977, 28.9501728 ], [ -13.5903149, 28.9502238 ], [ -13.5902495, 28.950275 ], [ -13.5902273, 28.9503041 ], [ -13.5901742, 28.9503893 ], [ -13.5901661, 28.9504185 ], [ -13.5901267, 28.9504903 ], [ -13.590085, 28.9505779 ], [ -13.5900483, 28.9506406 ], [ -13.5900013, 28.9506988 ], [ -13.5899403, 28.9507523 ], [ -13.5898457, 28.950828 ], [ -13.5897609, 28.9508858 ], [ -13.5897079, 28.9509146 ], [ -13.5895867, 28.9509607 ], [ -13.5894733, 28.9510046 ], [ -13.5893741, 28.9510329 ], [ -13.5892931, 28.9510501 ], [ -13.5892431, 28.9510496 ], [ -13.589188, 28.9510422 ], [ -13.5891038, 28.951012 ], [ -13.5890011, 28.9509726 ], [ -13.5889474, 28.9509585 ], [ -13.5888878, 28.9509534 ], [ -13.5888339, 28.9509596 ], [ -13.5888107, 28.9509683 ], [ -13.5887713, 28.9509883 ], [ -13.5887363, 28.9510195 ], [ -13.5886564, 28.9510931 ], [ -13.5885759, 28.9511644 ], [ -13.5884941, 28.951238 ], [ -13.5884319, 28.951287 ], [ -13.5883349, 28.9513446 ], [ -13.5882443, 28.9514023 ], [ -13.5881391, 28.9514554 ], [ -13.5880926, 28.9514775 ], [ -13.5880165, 28.9515083 ], [ -13.5879113, 28.9515613 ], [ -13.5878455, 28.9515854 ], [ -13.5877226, 28.951618 ], [ -13.587596, 28.9516392 ], [ -13.5874893, 28.9516561 ], [ -13.5873627, 28.9516774 ], [ -13.5872303, 28.9516963 ], [ -13.5871045, 28.9517085 ], [ -13.5869703, 28.9517206 ], [ -13.5869042, 28.9517222 ], [ -13.5868568, 28.9517217 ], [ -13.5867522, 28.9517206 ], [ -13.5866619, 28.9517151 ] ] ] } },
{ "type": "Feature", "properties": { "CCAA": "05 - Canarias", "PROVINCIA": "35 - Palmas, Las", "MUNICIPIO": "35018 - San Bartolomé", "COD_MUNICIPIO": "35018", "DISTRITO": "02", "SECCION": "3501802005", "V1_H": 80.53, "V1_M": 86.43, "V2_H": 80.43347749, "V2_M": 86.30479166000001, "V3_H": 80.8868878, "V3_M": 86.74881461 }, "geometry": { "type": "Polygon", "coordinates": [ [ [ -13.5975662, 28.9529881 ], [ -13.5976017, 28.952987 ], [ -13.5974981, 28.9501071 ], [ -13.5978433, 28.9495263 ], [ -13.5973692, 28.9484948 ], [ -13.597317, 28.9485146 ], [ -13.597199, 28.9485562 ], [ -13.5970863, 28.9485957 ], [ -13.5969459, 28.9486439 ], [ -13.5968254, 28.9486809 ], [ -13.5967083, 28.9487136 ], [ -13.5965758, 28.9487415 ], [ -13.5964453, 28.948765 ], [ -13.5963174, 28.9487862 ], [ -13.5961915, 28.9488052 ], [ -13.5960668, 28.948822 ], [ -13.5959332, 28.9488409 ], [ -13.5955109, 28.9488681 ], [ -13.5954004, 28.9488782 ], [ -13.5952862, 28.9488883 ], [ -13.5951745, 28.9488939 ], [ -13.5950564, 28.9489016 ], [ -13.5949401, 28.9489185 ], [ -13.5947237, 28.9489411 ], [ -13.5946043, 28.9489511 ], [ -13.5944958, 28.948959 ], [ -13.5943732, 28.9489667 ], [ -13.5942604, 28.9489678 ], [ -13.5941937, 28.9489648 ], [ -13.5941553, 28.9489599 ], [ -13.5940739, 28.9489546 ], [ -13.5939094, 28.9489777 ], [ -13.5937674, 28.9490033 ], [ -13.5936935, 28.9490138 ], [ -13.5936338, 28.9490154 ], [ -13.593589, 28.9490127 ], [ -13.5934972, 28.9490207 ], [ -13.5934645, 28.9490204 ], [ -13.5933484, 28.9490192 ], [ -13.5932963, 28.9490299 ], [ -13.5932557, 28.9490498 ], [ -13.5932258, 28.9490765 ], [ -13.5931969, 28.9491236 ], [ -13.5931439, 28.949202 ], [ -13.5931029, 28.9492513 ], [ -13.5930705, 28.9492757 ], [ -13.5929873, 28.9493132 ], [ -13.5928796, 28.9493527 ], [ -13.5927668, 28.9493944 ], [ -13.5926674, 28.949443 ], [ -13.5925521, 28.9494869 ], [ -13.5924689, 28.9495221 ], [ -13.5923559, 28.9495728 ], [ -13.5922488, 28.9496236 ], [ -13.5921731, 28.9496702 ], [ -13.5921641, 28.9496746 ], [ -13.5920965, 28.949692 ], [ -13.591987, 28.9497314 ], [ -13.5918763, 28.9497641 ], [ -13.5917727, 28.9497878 ], [ -13.5916691, 28.9498116 ], [ -13.591577, 28.9498422 ], [ -13.5914604, 28.9498816 ], [ -13.591347, 28.949921 ], [ -13.5912528, 28.9499629 ], [ -13.5911781, 28.9499892 ], [ -13.5910975, 28.9500177 ], [ -13.5909824, 28.9500413 ], [ -13.5908789, 28.9500582 ], [ -13.5907787, 28.9500775 ], [ -13.5910161, 28.9513434 ], [ -13.5915695, 28.9512499 ], [ -13.5916335, 28.9524915 ], [ -13.5916812, 28.9533719 ], [ -13.5933326, 28.9531771 ], [ -13.5938659, 28.9531037 ], [ -13.5975662, 28.9529881 ] ] ] } },
{ "type": "Feature", "properties": { "CCAA": "05 - Canarias", "PROVINCIA": "35 - Palmas, Las", "MUNICIPIO": "35018 - San Bartolomé", "COD_MUNICIPIO": "35018", "DISTRITO": "01", "SECCION": "3501801001", "V1_H": 80.24, "V1_M": 86.29, "V2_H": 79.84273941, "V2_M": 86.47368807, "V3_H": 80.7355329, "V3_M": 86.23078999000001 }, "geometry": { "type": "Polygon", "coordinates": [ [ [ -13.611611, 29.0015357 ], [ -13.6117687, 29.0016366 ], [ -13.6118619, 29.0016759 ], [ -13.6120026, 29.0017518 ], [ -13.6122969, 29.0019105 ], [ -13.6123292, 29.0018476 ], [ -13.6123757, 29.0018707 ], [ -13.6126461, 29.0019953 ], [ -13.6128909, 29.0021106 ], [ -13.6132249, 29.0022765 ], [ -13.6136716, 29.002509 ], [ -13.6137573, 29.0025776 ], [ -13.6138377, 29.0026123 ], [ -13.6140275, 29.0026706 ], [ -13.6142126, 29.0027425 ], [ -13.6143939, 29.0028075 ], [ -13.6149479, 29.0028335 ], [ -13.6153066, 29.0028304 ], [ -13.6154168, 29.0028429 ], [ -13.6155612, 29.0028872 ], [ -13.6155796, 29.0029506 ], [ -13.6158273, 29.0030457 ], [ -13.6158779, 29.0030507 ], [ -13.6161218, 29.0031412 ], [ -13.61627, 29.0032397 ], [ -13.6164054, 29.0033291 ], [ -13.6166099, 29.0034395 ], [ -13.6172013, 29.0038878 ], [ -13.6172825, 29.003954 ], [ -13.6174269, 29.004048 ], [ -13.6177356, 29.0043806 ], [ -13.6179191, 29.0045269 ], [ -13.6180132, 29.0045933 ], [ -13.6182089, 29.0047329 ], [ -13.61846, 29.0049047 ], [ -13.618659, 29.0049947 ], [ -13.6188526, 29.0051569 ], [ -13.6193006, 29.0052405 ], [ -13.6203645, 29.0055221 ], [ -13.621598, 29.0058371 ], [ -13.6229666, 29.0061783 ], [ -13.6245865, 29.0063844 ], [ -13.6252573, 29.0065086 ], [ -13.626424, 29.0067845 ], [ -13.6287817, 29.0072892 ], [ -13.6302398, 29.007656 ], [ -13.6304428, 29.0075407 ], [ -13.6312357, 29.0069193 ], [ -13.6318955, 29.0062672 ], [ -13.6326429, 29.0053972 ], [ -13.6328318, 29.0051306 ], [ -13.6330613, 29.0047134 ], [ -13.6332571, 29.004316 ], [ -13.6338538, 29.0023637 ], [ -13.6339231, 29.0022133 ], [ -13.6347351, 29.0004279 ], [ -13.6356804, 28.9983077 ], [ -13.6355525, 28.9976453 ], [ -13.6355328, 28.9963117 ], [ -13.635577, 28.9940177 ], [ -13.6354587, 28.9923785 ], [ -13.6353659, 28.9919692 ], [ -13.6352191, 28.9914262 ], [ -13.6351439, 28.9911886 ], [ -13.6349599, 28.9908912 ], [ -13.6346194, 28.9903417 ], [ -13.6341432, 28.9897683 ], [ -13.6337295, 28.9892723 ], [ -13.6334067, 28.9889396 ], [ -13.6328937, 28.9885351 ], [ -13.6324228, 28.988149 ], [ -13.6318116, 28.9877479 ], [ -13.6313407, 28.987504 ], [ -13.6308394, 28.9872823 ], [ -13.6301421, 28.987036 ], [ -13.6294722, 28.986851 ], [ -13.628802, 28.9866524 ], [ -13.6280061, 28.9864344 ], [ -13.6271624, 28.9861551 ], [ -13.626527, 28.9859816 ], [ -13.6259429, 28.9858154 ], [ -13.6258477, 28.9859341 ], [ -13.6257688, 28.9860303 ], [ -13.6256456, 28.9861779 ], [ -13.6254936, 28.9863659 ], [ -13.625371, 28.986518 ], [ -13.6252426, 28.9866747 ], [ -13.6251624, 28.9867731 ], [ -13.6250437, 28.9869163 ], [ -13.624931, 28.9870505 ], [ -13.6248312, 28.9871736 ], [ -13.624734, 28.9872944 ], [ -13.6245887, 28.9874621 ], [ -13.6244825, 28.9875896 ], [ -13.6243488, 28.987753 ], [ -13.624238, 28.9878872 ], [ -13.6240561, 28.9881087 ], [ -13.6239524, 28.988234 ], [ -13.6238246, 28.9883906 ], [ -13.6237294, 28.9885047 ], [ -13.6236675, 28.9885785 ], [ -13.6236016, 28.9886636 ], [ -13.6234556, 28.9888358 ], [ -13.6233519, 28.9889656 ], [ -13.6231855, 28.9891715 ], [ -13.6230936, 28.9892879 ], [ -13.6229839, 28.9894311 ], [ -13.6228839, 28.98957 ], [ -13.622778, 28.9897178 ], [ -13.6227146, 28.9898096 ], [ -13.6226581, 28.9899084 ], [ -13.6225538, 28.9900832 ], [ -13.6224535, 28.9902469 ], [ -13.6223615, 28.9904084 ], [ -13.6222489, 28.9905787 ], [ -13.6221519, 28.9907334 ], [ -13.6220284, 28.9909014 ], [ -13.6219455, 28.9910088 ], [ -13.6218726, 28.9910893 ], [ -13.6218211, 28.9911519 ], [ -13.6217476, 28.9912234 ], [ -13.6216073, 28.9913595 ], [ -13.6214844, 28.9914801 ], [ -13.6213005, 28.9916587 ], [ -13.6211704, 28.9917905 ], [ -13.6209814, 28.9919691 ], [ -13.6209008, 28.9920472 ], [ -13.6207526, 28.9921901 ], [ -13.6205992, 28.9923397 ], [ -13.6204251, 28.9925094 ], [ -13.6202619, 28.9926679 ], [ -13.6201619, 28.9927639 ], [ -13.6199571, 28.9929603 ], [ -13.6198369, 28.9930809 ], [ -13.6196367, 28.9932774 ], [ -13.6195222, 28.9933958 ], [ -13.6193829, 28.9935478 ], [ -13.6192773, 28.993673 ], [ -13.6192159, 28.9937559 ], [ -13.619114, 28.9938924 ], [ -13.6190223, 28.9940291 ], [ -13.61893, 28.9941658 ], [ -13.6188462, 28.9942981 ], [ -13.6186415, 28.9945915 ], [ -13.6184446, 28.9949257 ], [ -13.6181303, 28.9953985 ], [ -13.6179264, 28.9957303 ], [ -13.617752, 28.9959631 ], [ -13.6176211, 28.9960655 ], [ -13.6173348, 28.9963175 ], [ -13.617087, 28.9965699 ], [ -13.6168954, 28.996744 ], [ -13.6164789, 28.9969924 ], [ -13.6160547, 28.9972903 ], [ -13.615851, 28.9974168 ], [ -13.6154532, 28.9975594 ], [ -13.6152051, 28.9976403 ], [ -13.6148751, 28.9977114 ], [ -13.6146115, 28.9977537 ], [ -13.6144109, 28.9978284 ], [ -13.6142446, 28.9979801 ], [ -13.6141125, 28.998175 ], [ -13.6138945, 28.9984931 ], [ -13.6138287, 28.9987181 ], [ -13.6136626, 28.9990931 ], [ -13.613399, 28.9995236 ], [ -13.6131282, 28.9998637 ], [ -13.6128498, 29.0002489 ], [ -13.6125934, 29.0006073 ], [ -13.6119912, 29.0011696 ], [ -13.6116647, 29.0014956 ], [ -13.611611, 29.0015357 ] ] ] } },
{ "type": "Feature", "properties": { "CCAA": "05 - Canarias", "PROVINCIA": "35 - Palmas, Las", "MUNICIPIO": "35018 - San Bartolomé", "COD_MUNICIPIO": "35018", "DISTRITO": "02", "SECCION": "3501802004", "V1_H": 80.31, "V1_M": 86.3, "V2_H": 80.10187432, "V2_M": 86.1135989, "V3_H": 80.75259804, "V3_M": 86.72412179 }, "geometry": { "type": "Polygon", "coordinates": [ [ [ -13.5917397, 28.9544592 ], [ -13.5918344, 28.9562658 ], [ -13.5919352, 28.95721 ], [ -13.5923786, 28.9571921 ], [ -13.5926026, 28.9571764 ], [ -13.5928324, 28.957163 ], [ -13.5930563, 28.9571563 ], [ -13.5932502, 28.9571403 ], [ -13.5935775, 28.9571234 ], [ -13.5939227, 28.9571089 ], [ -13.5940838, 28.9570993 ], [ -13.5941339, 28.9570954 ], [ -13.594467, 28.9570785 ], [ -13.5946967, 28.9570651 ], [ -13.5949721, 28.9570477 ], [ -13.5951883, 28.9570387 ], [ -13.5954913, 28.9570216 ], [ -13.595809, 28.9570023 ], [ -13.5961132, 28.9569874 ], [ -13.5964527, 28.9569684 ], [ -13.5968371, 28.9569476 ], [ -13.5970842, 28.9569344 ], [ -13.5973877, 28.9569218 ], [ -13.5977889, 28.9568966 ], [ -13.5981187, 28.956882 ], [ -13.5984345, 28.956865 ], [ -13.5984877, 28.956861 ], [ -13.5989119, 28.9568406 ], [ -13.5994382, 28.9568123 ], [ -13.5999029, 28.9567855 ], [ -13.6006704, 28.9567484 ], [ -13.6014245, 28.9567088 ], [ -13.6018641, 28.9566818 ], [ -13.602305, 28.9566571 ], [ -13.6026599, 28.9566382 ], [ -13.6030687, 28.9566199 ], [ -13.603448, 28.9565968 ], [ -13.6038369, 28.956576 ], [ -13.6041867, 28.9565593 ], [ -13.6045827, 28.9565341 ], [ -13.6052431, 28.9564981 ], [ -13.6055563, 28.956481 ], [ -13.6060671, 28.9564547 ], [ -13.6066172, 28.9564243 ], [ -13.6071645, 28.9563984 ], [ -13.6074489, 28.956381 ], [ -13.607711, 28.9563905 ], [ -13.6079431, 28.9563952 ], [ -13.608163, 28.9563997 ], [ -13.608388, 28.956411 ], [ -13.6086359, 28.9564294 ], [ -13.6088518, 28.9564474 ], [ -13.6090631, 28.9564699 ], [ -13.6093719, 28.9564979 ], [ -13.6095659, 28.9565203 ], [ -13.6097822, 28.9565541 ], [ -13.6099648, 28.9565672 ], [ -13.6101442, 28.9565803 ], [ -13.6102691, 28.9565907 ], [ -13.6103773, 28.9566031 ], [ -13.6105708, 28.9566186 ], [ -13.610704, 28.9566313 ], [ -13.6109705, 28.9566566 ], [ -13.6111339, 28.9566696 ], [ -13.6113093, 28.9566872 ], [ -13.6114855, 28.9567025 ], [ -13.6116482, 28.9567177 ], [ -13.6119992, 28.9567462 ], [ -13.6121914, 28.9567639 ], [ -13.6123759, 28.9567816 ], [ -13.6125969, 28.9568019 ], [ -13.6127768, 28.9568174 ], [ -13.613019, 28.9568379 ], [ -13.6131356, 28.9568459 ], [ -13.6132625, 28.9568517 ], [ -13.6133305, 28.9568546 ], [ -13.6134402, 28.9568513 ], [ -13.613566, 28.9568413 ], [ -13.613654, 28.9568264 ], [ -13.6137519, 28.9568003 ], [ -13.6138929, 28.9567589 ], [ -13.613998, 28.9567171 ], [ -13.6141148, 28.9566619 ], [ -13.6142427, 28.9565933 ], [ -13.6143576, 28.9565336 ], [ -13.6144661, 28.956476 ], [ -13.6145791, 28.9564163 ], [ -13.6146521, 28.956381 ], [ -13.6147399, 28.956339 ], [ -13.6148593, 28.9562815 ], [ -13.6149741, 28.9562308 ], [ -13.6150805, 28.9561868 ], [ -13.6151579, 28.956156 ], [ -13.6152526, 28.9561231 ], [ -13.6153428, 28.9560902 ], [ -13.615442, 28.9560619 ], [ -13.6155379, 28.9560313 ], [ -13.6156299, 28.9560075 ], [ -13.6157316, 28.9559814 ], [ -13.6158262, 28.9559598 ], [ -13.6159394, 28.9559362 ], [ -13.6160198, 28.955919 ], [ -13.6161637, 28.9558979 ], [ -13.6161836, 28.9558958 ], [ -13.6161722, 28.9558844 ], [ -13.6152832, 28.9550247 ], [ -13.6148586, 28.9544992 ], [ -13.6127886, 28.9519397 ], [ -13.6105738, 28.9491891 ], [ -13.6088139, 28.9470028 ], [ -13.6070793, 28.9448911 ], [ -13.6057543, 28.9432282 ], [ -13.6049972, 28.9422592 ], [ -13.6049783, 28.9422387 ], [ -13.6049312, 28.9423059 ], [ -13.6048801, 28.9423843 ], [ -13.6048252, 28.9424627 ], [ -13.6047677, 28.9425388 ], [ -13.6046704, 28.9426732 ], [ -13.604604, 28.9427447 ], [ -13.6045327, 28.9428026 ], [ -13.6044506, 28.9428559 ], [ -13.6043641, 28.9428956 ], [ -13.6042746, 28.9429263 ], [ -13.6041895, 28.9429592 ], [ -13.6040887, 28.9430169 ], [ -13.6039984, 28.9430565 ], [ -13.6039087, 28.9431007 ], [ -13.6038173, 28.9431674 ], [ -13.6037235, 28.9432274 ], [ -13.6036444, 28.9432965 ], [ -13.6035746, 28.9433815 ], [ -13.6035107, 28.9434621 ], [ -13.6034538, 28.9435472 ], [ -13.6033883, 28.9436503 ], [ -13.6033352, 28.9437378 ], [ -13.6032744, 28.9438251 ], [ -13.6032098, 28.9439102 ], [ -13.6031439, 28.943993 ], [ -13.6030743, 28.9440667 ], [ -13.6030034, 28.9441405 ], [ -13.6029356, 28.9442232 ], [ -13.6028528, 28.9443262 ], [ -13.6027856, 28.9444112 ], [ -13.6027113, 28.9445029 ], [ -13.6026382, 28.9445969 ], [ -13.6025682, 28.9446977 ], [ -13.6024976, 28.9447962 ], [ -13.6024258, 28.9448902 ], [ -13.6023527, 28.9449888 ], [ -13.6022698, 28.9450985 ], [ -13.6022013, 28.9451812 ], [ -13.6021291, 28.9452572 ], [ -13.6020538, 28.9453263 ], [ -13.6019747, 28.9453932 ], [ -13.6018912, 28.9454532 ], [ -13.6018103, 28.9455066 ], [ -13.6017295, 28.9455554 ], [ -13.6015799, 28.945617 ], [ -13.6014832, 28.9456498 ], [ -13.6012903, 28.9456952 ], [ -13.6011796, 28.9457211 ], [ -13.601069, 28.9457448 ], [ -13.6009706, 28.9457708 ], [ -13.6008662, 28.9458081 ], [ -13.6007296, 28.9458563 ], [ -13.6006258, 28.9459004 ], [ -13.6005231, 28.9459534 ], [ -13.6004287, 28.9460111 ], [ -13.6003386, 28.9460801 ], [ -13.6002511, 28.9461514 ], [ -13.6001692, 28.9462295 ], [ -13.600088, 28.9463121 ], [ -13.5999975, 28.946415 ], [ -13.5999265, 28.9464932 ], [ -13.5998632, 28.946576 ], [ -13.5997592, 28.9467261 ], [ -13.5997031, 28.9467977 ], [ -13.5996468, 28.9468806 ], [ -13.5995919, 28.9469613 ], [ -13.5995169, 28.9470553 ], [ -13.599446, 28.947129 ], [ -13.5993764, 28.9472004 ], [ -13.5993036, 28.9472741 ], [ -13.5992237, 28.94735 ], [ -13.5991342, 28.9474281 ], [ -13.599044, 28.9475016 ], [ -13.5989559, 28.9475728 ], [ -13.5988322, 28.947664 ], [ -13.5987274, 28.9477284 ], [ -13.5986232, 28.9478017 ], [ -13.5985311, 28.9478775 ], [ -13.5984296, 28.9479396 ], [ -13.5983152, 28.9480061 ], [ -13.5982041, 28.9480681 ], [ -13.5980929, 28.9481369 ], [ -13.5979041, 28.94825 ], [ -13.597793, 28.9483098 ], [ -13.5976788, 28.9483627 ], [ -13.5975696, 28.948418 ], [ -13.5974407, 28.9484685 ], [ -13.5973692, 28.9484948 ], [ -13.5978433, 28.9495263 ], [ -13.5974981, 28.9501071 ], [ -13.5976017, 28.952987 ], [ -13.5975662, 28.9529881 ], [ -13.5975969, 28.9530297 ], [ -13.597775, 28.9542158 ], [ -13.5977814, 28.9544305 ], [ -13.5974756, 28.954434 ], [ -13.5968026, 28.9544472 ], [ -13.5947916, 28.9544732 ], [ -13.5939883, 28.9545119 ], [ -13.5934458, 28.9544861 ], [ -13.5929871, 28.954488 ], [ -13.5922763, 28.9544738 ], [ -13.5917397, 28.9544592 ] ] ] } }
]
}
