{
"type": "FeatureCollection",
"name": "36002",
"features": [
{ "type": "Feature", "properties": { "CCAA": "12 - Galicia", "PROVINCIA": "36 - Pontevedra", "MUNICIPIO": "36002 - Barro", "COD_MUNICIPIO": "36002", "DISTRITO": "01", "SECCION": "3600201002", "V1_H": 80.02, "V1_M": 86.02, "V2_H": 79.96138623, "V2_M": 86.18252023, "V3_H": 80.18726569, "V3_M": 86.15258899 }, "geometry": { "type": "Polygon", "coordinates": [ [ [ -8.6095117, 42.545598 ], [ -8.6265881, 42.5454769 ], [ -8.6278674, 42.5446748 ], [ -8.631648, 42.539266 ], [ -8.6316514, 42.539266 ], [ -8.6316494, 42.5392606 ], [ -8.6341873, 42.5391163 ], [ -8.6366114, 42.5389967 ], [ -8.6394383, 42.5389144 ], [ -8.644227, 42.5389152 ], [ -8.6438674, 42.5387511 ], [ -8.645141, 42.5360038 ], [ -8.6447932, 42.532629 ], [ -8.6416812, 42.5315142 ], [ -8.6425908, 42.5282677 ], [ -8.6443079, 42.5254662 ], [ -8.6436375, 42.5230509 ], [ -8.6445835, 42.5211132 ], [ -8.6355358, 42.5213261 ], [ -8.6302042, 42.516719 ], [ -8.6232651, 42.5152181 ], [ -8.6221763, 42.5116606 ], [ -8.6135333, 42.5130396 ], [ -8.6040574, 42.5129378 ], [ -8.6032105, 42.5105487 ], [ -8.5974688, 42.5126037 ], [ -8.598611, 42.513673 ], [ -8.6037022, 42.5192928 ], [ -8.6055585, 42.520588 ], [ -8.6058165, 42.5236001 ], [ -8.6076009, 42.5274825 ], [ -8.6100956, 42.5361552 ], [ -8.6095117, 42.545598 ] ] ] } },
{ "type": "Feature", "properties": { "CCAA": "12 - Galicia", "PROVINCIA": "36 - Pontevedra", "MUNICIPIO": "36002 - Barro", "COD_MUNICIPIO": "36002", "DISTRITO": "02", "SECCION": "3600202001", "V1_H": 80.23, "V1_M": 86.04, "V2_H": 80.01377171, "V2_M": 86.1814847, "V3_H": 80.55154758, "V3_M": 86.06989916000001 }, "geometry": { "type": "Polygon", "coordinates": [ [ [ -8.6629322, 42.4929563 ], [ -8.6606126, 42.4942334 ], [ -8.6595899, 42.4948962 ], [ -8.6590192, 42.4951765 ], [ -8.6583822, 42.4952621 ], [ -8.6577493, 42.4952575 ], [ -8.6567158, 42.4951286 ], [ -8.655881, 42.495179 ], [ -8.655022, 42.4953655 ], [ -8.6532499, 42.4955432 ], [ -8.651615, 42.4956241 ], [ -8.6501779, 42.4957403 ], [ -8.6491154, 42.4958288 ], [ -8.6478962, 42.4959341 ], [ -8.6478002, 42.4959478 ], [ -8.6467155, 42.4961299 ], [ -8.6395916, 42.4973256 ], [ -8.6371217, 42.4985368 ], [ -8.6341044, 42.500018 ], [ -8.630973, 42.5015857 ], [ -8.6277822, 42.5053348 ], [ -8.6269179, 42.505975 ], [ -8.626402, 42.5063571 ], [ -8.6256851, 42.5111005 ], [ -8.6221763, 42.5116606 ], [ -8.6232651, 42.5152181 ], [ -8.6302042, 42.516719 ], [ -8.6355358, 42.5213261 ], [ -8.6445835, 42.5211132 ], [ -8.6436375, 42.5230509 ], [ -8.6443079, 42.5254662 ], [ -8.6425908, 42.5282677 ], [ -8.6416812, 42.5315142 ], [ -8.6447932, 42.532629 ], [ -8.645141, 42.5360038 ], [ -8.6438674, 42.5387511 ], [ -8.644227, 42.5389152 ], [ -8.644338, 42.5389658 ], [ -8.6446751, 42.5395872 ], [ -8.6447305, 42.5404223 ], [ -8.6447312, 42.5404319 ], [ -8.6447368, 42.5404307 ], [ -8.6449461, 42.5407106 ], [ -8.6452831, 42.5410179 ], [ -8.6458971, 42.5412543 ], [ -8.64596, 42.5414128 ], [ -8.6475259, 42.5425613 ], [ -8.6591792, 42.5393966 ], [ -8.6592036, 42.5393344 ], [ -8.6599854, 42.5388986 ], [ -8.660775, 42.5379448 ], [ -8.6617938, 42.5372465 ], [ -8.6639685, 42.5362241 ], [ -8.6670768, 42.5352696 ], [ -8.6718945, 42.5346928 ], [ -8.6709015, 42.5300287 ], [ -8.6706582, 42.5284204 ], [ -8.6709091, 42.5252842 ], [ -8.6700913, 42.5240395 ], [ -8.6652622, 42.5208305 ], [ -8.6621118, 42.5195946 ], [ -8.6664911, 42.5123645 ], [ -8.6589933, 42.5124974 ], [ -8.660434, 42.5087634 ], [ -8.6595608, 42.5074443 ], [ -8.6582277, 42.5054301 ], [ -8.6581208, 42.5052585 ], [ -8.6595396, 42.5073959 ], [ -8.659219, 42.5064845 ], [ -8.6599773, 42.5045483 ], [ -8.6592107, 42.5039027 ], [ -8.6587948, 42.5032118 ], [ -8.6588007, 42.5032014 ], [ -8.6595045, 42.5019731 ], [ -8.6629322, 42.4929563 ] ] ] } },
{ "type": "Feature", "properties": { "CCAA": "12 - Galicia", "PROVINCIA": "36 - Pontevedra", "MUNICIPIO": "36002 - Barro", "COD_MUNICIPIO": "36002", "DISTRITO": "02", "SECCION": "3600202002", "V1_H": 80.01, "V1_M": 85.88, "V2_H": 79.90171161000001, "V2_M": 85.93881404, "V3_H": 80.29104055000001, "V3_M": 85.88520273 }, "geometry": { "type": "Polygon", "coordinates": [ [ [ -8.6629322, 42.4929563 ], [ -8.6595045, 42.5019731 ], [ -8.6588007, 42.5032014 ], [ -8.6587948, 42.5032118 ], [ -8.6592107, 42.5039027 ], [ -8.6599773, 42.5045483 ], [ -8.659219, 42.5064845 ], [ -8.6595396, 42.5073959 ], [ -8.6581208, 42.5052585 ], [ -8.6582277, 42.5054301 ], [ -8.6595608, 42.5074443 ], [ -8.660434, 42.5087634 ], [ -8.6589933, 42.5124974 ], [ -8.6664911, 42.5123645 ], [ -8.6621118, 42.5195946 ], [ -8.6652622, 42.5208305 ], [ -8.6700913, 42.5240395 ], [ -8.6700901, 42.5240376 ], [ -8.6711556, 42.5229044 ], [ -8.6731829, 42.5215074 ], [ -8.6777122, 42.5189868 ], [ -8.6860745, 42.5139258 ], [ -8.6871697, 42.5132591 ], [ -8.6868611, 42.5130764 ], [ -8.6862832, 42.512475 ], [ -8.6860813, 42.5123951 ], [ -8.6858559, 42.5123253 ], [ -8.6853493, 42.5119724 ], [ -8.6836383, 42.5102841 ], [ -8.6835485, 42.5100996 ], [ -8.6835856, 42.5099717 ], [ -8.683839, 42.509815 ], [ -8.6840585, 42.509552 ], [ -8.6841688, 42.5092945 ], [ -8.6840944, 42.5090101 ], [ -8.6838438, 42.5087976 ], [ -8.6833825, 42.5085415 ], [ -8.6834089, 42.508162 ], [ -8.6842316, 42.5048984 ], [ -8.6847722, 42.5044213 ], [ -8.6848955, 42.5041722 ], [ -8.6848752, 42.5039481 ], [ -8.6847127, 42.5037671 ], [ -8.6847045, 42.5035425 ], [ -8.6849264, 42.5033064 ], [ -8.6860799, 42.5028799 ], [ -8.6862509, 42.5027543 ], [ -8.6862709, 42.5024383 ], [ -8.6860185, 42.5019377 ], [ -8.6860455, 42.5012972 ], [ -8.6859733, 42.5009048 ], [ -8.6860264, 42.500686 ], [ -8.6862055, 42.5005151 ], [ -8.6873629, 42.4999984 ], [ -8.6877551, 42.4997628 ], [ -8.6880656, 42.4994322 ], [ -8.6884342, 42.4989368 ], [ -8.6887786, 42.4984425 ], [ -8.6890626, 42.4982213 ], [ -8.6893117, 42.4978848 ], [ -8.6896363, 42.4969055 ], [ -8.6903672, 42.4962479 ], [ -8.6906676, 42.4954048 ], [ -8.6906948, 42.4942331 ], [ -8.6904477, 42.4932552 ], [ -8.6899694, 42.4928109 ], [ -8.6891915, 42.4922825 ], [ -8.6886192, 42.4913388 ], [ -8.6884945, 42.4909039 ], [ -8.6882268, 42.4903681 ], [ -8.6880579, 42.4891792 ], [ -8.6877484, 42.4888525 ], [ -8.6875591, 42.4882408 ], [ -8.6871945, 42.4875748 ], [ -8.6868158, 42.4864864 ], [ -8.6871009, 42.485608 ], [ -8.6872782, 42.4852841 ], [ -8.6880584, 42.4849032 ], [ -8.6887039, 42.484511 ], [ -8.6910165, 42.4826583 ], [ -8.6938283, 42.4804118 ], [ -8.6936074, 42.4797206 ], [ -8.6894037, 42.4805692 ], [ -8.6885249, 42.480802 ], [ -8.6883264, 42.4808929 ], [ -8.6880577, 42.4810143 ], [ -8.6866392, 42.481598 ], [ -8.6841967, 42.4837631 ], [ -8.6822775, 42.4852629 ], [ -8.6797696, 42.4865759 ], [ -8.6782886, 42.4871446 ], [ -8.6764824, 42.4877475 ], [ -8.6735695, 42.4886214 ], [ -8.6690198, 42.4902246 ], [ -8.6667112, 42.4911649 ], [ -8.6646911, 42.4919877 ], [ -8.6629322, 42.4929563 ] ] ] } },
{ "type": "Feature", "properties": { "CCAA": "12 - Galicia", "PROVINCIA": "36 - Pontevedra", "MUNICIPIO": "36002 - Barro", "COD_MUNICIPIO": "36002", "DISTRITO": "01", "SECCION": "3600201001", "V1_H": 79.96, "V1_M": 85.86, "V2_H": 79.90630759, "V2_M": 85.80766239, "V3_H": 80.18166072, "V3_M": 86.22029934 }, "geometry": { "type": "Polygon", "coordinates": [ [ [ -8.6176342, 42.56414 ], [ -8.6181457, 42.5642029 ], [ -8.6181492, 42.5642035 ], [ -8.6181476, 42.5642014 ], [ -8.6185055, 42.56402 ], [ -8.6185053, 42.5640176 ], [ -8.6185059, 42.5640177 ], [ -8.6204912, 42.5625337 ], [ -8.6214814, 42.5621699 ], [ -8.6233776, 42.5619955 ], [ -8.6253772, 42.5625632 ], [ -8.6268103, 42.5626547 ], [ -8.6272758, 42.5620106 ], [ -8.6279233, 42.5617626 ], [ -8.6285375, 42.5611472 ], [ -8.6289732, 42.5608467 ], [ -8.6297289, 42.5604493 ], [ -8.630398, 42.5599032 ], [ -8.6312079, 42.5597013 ], [ -8.6314269, 42.5595644 ], [ -8.6318019, 42.5591318 ], [ -8.6321696, 42.5589674 ], [ -8.6322733, 42.558626 ], [ -8.6323844, 42.5577154 ], [ -8.6326059, 42.5574568 ], [ -8.6330934, 42.5568611 ], [ -8.6333346, 42.5566777 ], [ -8.6336588, 42.556414 ], [ -8.6337383, 42.5560099 ], [ -8.6339023, 42.5554108 ], [ -8.6338965, 42.5553557 ], [ -8.6340411, 42.5552045 ], [ -8.6343992, 42.5551238 ], [ -8.6346255, 42.5552027 ], [ -8.6348025, 42.5551399 ], [ -8.6349835, 42.554987 ], [ -8.6352873, 42.554981 ], [ -8.6356801, 42.5551506 ], [ -8.6357957, 42.555352 ], [ -8.6357214, 42.5556077 ], [ -8.6358184, 42.555738 ], [ -8.6360495, 42.5557355 ], [ -8.6363114, 42.5560737 ], [ -8.6372125, 42.5562092 ], [ -8.6374227, 42.5563789 ], [ -8.6375051, 42.556753 ], [ -8.6382488, 42.5573014 ], [ -8.6382617, 42.5575798 ], [ -8.6384638, 42.5576599 ], [ -8.6387814, 42.5576712 ], [ -8.639348, 42.5581474 ], [ -8.6397101, 42.5582465 ], [ -8.6399824, 42.558026 ], [ -8.6409264, 42.5582314 ], [ -8.6413314, 42.5584005 ], [ -8.6431668, 42.5584989 ], [ -8.6467673, 42.5587155 ], [ -8.6468986, 42.5586585 ], [ -8.6515378, 42.558229 ], [ -8.6520116, 42.5580531 ], [ -8.6533715, 42.5579858 ], [ -8.6551275, 42.5580227 ], [ -8.6588089, 42.5565542 ], [ -8.658818, 42.5565568 ], [ -8.658844, 42.5565439 ], [ -8.6636756, 42.5558453 ], [ -8.6636754, 42.5558447 ], [ -8.6636301, 42.5554785 ], [ -8.6637027, 42.5552048 ], [ -8.6642559, 42.5545922 ], [ -8.6644358, 42.5541602 ], [ -8.6646077, 42.5540034 ], [ -8.6655941, 42.5531035 ], [ -8.6660207, 42.5501567 ], [ -8.6683625, 42.5461786 ], [ -8.6695883, 42.5441 ], [ -8.6696858, 42.5432377 ], [ -8.669698, 42.5422367 ], [ -8.6695675, 42.5413667 ], [ -8.6695582, 42.5402715 ], [ -8.6688386, 42.5380207 ], [ -8.6689478, 42.5375199 ], [ -8.6728178, 42.5360296 ], [ -8.6730316, 42.5359274 ], [ -8.6720262, 42.5353111 ], [ -8.6718945, 42.5346928 ], [ -8.6670768, 42.5352696 ], [ -8.6639685, 42.5362241 ], [ -8.6617938, 42.5372465 ], [ -8.660775, 42.5379448 ], [ -8.6599854, 42.5388986 ], [ -8.6592036, 42.5393344 ], [ -8.6591792, 42.5393966 ], [ -8.6475259, 42.5425613 ], [ -8.64596, 42.5414128 ], [ -8.6458971, 42.5412543 ], [ -8.6452831, 42.5410179 ], [ -8.6449461, 42.5407106 ], [ -8.6447368, 42.5404307 ], [ -8.6447312, 42.5404319 ], [ -8.6447305, 42.5404223 ], [ -8.6446751, 42.5395872 ], [ -8.644338, 42.5389658 ], [ -8.644227, 42.5389152 ], [ -8.6394383, 42.5389144 ], [ -8.6366114, 42.5389967 ], [ -8.6341873, 42.5391163 ], [ -8.6316494, 42.5392606 ], [ -8.6316514, 42.539266 ], [ -8.631648, 42.539266 ], [ -8.6278674, 42.5446748 ], [ -8.6265881, 42.5454769 ], [ -8.6095117, 42.545598 ], [ -8.6093311, 42.5485168 ], [ -8.6095036, 42.5497596 ], [ -8.6112298, 42.5521684 ], [ -8.6117597, 42.5529166 ], [ -8.6131487, 42.5533119 ], [ -8.6140849, 42.5556297 ], [ -8.6137269, 42.5557331 ], [ -8.6134861, 42.5558497 ], [ -8.6132684, 42.5559366 ], [ -8.6131183, 42.5560583 ], [ -8.613102, 42.5561639 ], [ -8.6133063, 42.5564302 ], [ -8.6133123, 42.5564966 ], [ -8.6132143, 42.5568396 ], [ -8.6134576, 42.5571087 ], [ -8.6134181, 42.5573869 ], [ -8.6133689, 42.5576275 ], [ -8.6132316, 42.5577486 ], [ -8.6130575, 42.5578906 ], [ -8.6130591, 42.5581239 ], [ -8.6130218, 42.5583839 ], [ -8.6129818, 42.5583839 ], [ -8.6127409, 42.5585488 ], [ -8.6122034, 42.5586652 ], [ -8.6121015, 42.5588863 ], [ -8.6119221, 42.5590571 ], [ -8.6117224, 42.5591389 ], [ -8.6114614, 42.5590797 ], [ -8.6112561, 42.5589638 ], [ -8.6110411, 42.5590104 ], [ -8.6107938, 42.5592386 ], [ -8.6103053, 42.5601718 ], [ -8.6102906, 42.5604156 ], [ -8.6103868, 42.5605369 ], [ -8.6106867, 42.5606212 ], [ -8.6107981, 42.5607778 ], [ -8.6107892, 42.5609492 ], [ -8.6105903, 42.56104 ], [ -8.6102105, 42.5610137 ], [ -8.609989, 42.5611236 ], [ -8.6099808, 42.561304 ], [ -8.6102095, 42.5615448 ], [ -8.6101214, 42.5616482 ], [ -8.6097698, 42.5616655 ], [ -8.6096469, 42.5617885 ], [ -8.6097469, 42.5622247 ], [ -8.6098657, 42.5622568 ], [ -8.6115816, 42.5627197 ], [ -8.6122063, 42.5628961 ], [ -8.6158028, 42.5634873 ], [ -8.6176342, 42.56414 ] ] ] } }
]
}
