{
"type": "FeatureCollection",
"name": "36015",
"features": [
{ "type": "Feature", "properties": { "CCAA": "12 - Galicia", "PROVINCIA": "36 - Pontevedra", "MUNICIPIO": "36015 - Cuntis", "COD_MUNICIPIO": "36015", "DISTRITO": "01", "SECCION": "3601501001", "V1_H": 80.16, "V1_M": 86.09, "V2_H": 80.12695049, "V2_M": 86.02539962, "V3_H": 80.31827198000001, "V3_M": 86.38244546 }, "geometry": { "type": "Polygon", "coordinates": [ [ [ -8.5596425, 42.6479541 ], [ -8.5596541, 42.647955 ], [ -8.5596858, 42.6479315 ], [ -8.5607203, 42.6479961 ], [ -8.5613985, 42.6480824 ], [ -8.5611996, 42.6475587 ], [ -8.5615362, 42.6467039 ], [ -8.5624828, 42.6457432 ], [ -8.5638113, 42.6467455 ], [ -8.5648946, 42.6461592 ], [ -8.5668341, 42.6459122 ], [ -8.5718159, 42.6462028 ], [ -8.57775, 42.6467515 ], [ -8.5781703, 42.6475111 ], [ -8.5786423, 42.647486 ], [ -8.579306, 42.6473203 ], [ -8.5802697, 42.647218 ], [ -8.5808543, 42.6471441 ], [ -8.5813598, 42.6471448 ], [ -8.5824418, 42.6471633 ], [ -8.5831527, 42.647078 ], [ -8.5840372, 42.6471423 ], [ -8.5849535, 42.6470859 ], [ -8.5857196, 42.6471846 ], [ -8.5860592, 42.6471275 ], [ -8.586541, 42.6471051 ], [ -8.587173, 42.6469852 ], [ -8.5879708, 42.6469977 ], [ -8.588342, 42.6469464 ], [ -8.5887054, 42.6469124 ], [ -8.5896294, 42.6469364 ], [ -8.5900401, 42.6469829 ], [ -8.590506, 42.6470581 ], [ -8.5907195, 42.646863 ], [ -8.5911939, 42.6464614 ], [ -8.5914233, 42.646186 ], [ -8.5915106, 42.6458357 ], [ -8.5914794, 42.645445 ], [ -8.5914639, 42.6452037 ], [ -8.5916775, 42.6449857 ], [ -8.5920731, 42.6443542 ], [ -8.5918448, 42.6437278 ], [ -8.5913794, 42.6432734 ], [ -8.5910957, 42.6427963 ], [ -8.5909539, 42.6425031 ], [ -8.5910018, 42.6420322 ], [ -8.5909313, 42.6415897 ], [ -8.5908922, 42.6412967 ], [ -8.5905688, 42.6409919 ], [ -8.5902139, 42.6405894 ], [ -8.5901039, 42.6401641 ], [ -8.5896226, 42.6397499 ], [ -8.5893148, 42.6395887 ], [ -8.5888967, 42.6392608 ], [ -8.5882888, 42.6391222 ], [ -8.5877279, 42.6392996 ], [ -8.5868593, 42.6392239 ], [ -8.5862434, 42.6391313 ], [ -8.5855089, 42.6391879 ], [ -8.5847903, 42.6391353 ], [ -8.5840875, 42.6390942 ], [ -8.5836611, 42.6390822 ], [ -8.5834003, 42.6392197 ], [ -8.5833949, 42.6391961 ], [ -8.5833061, 42.638806 ], [ -8.5834488, 42.6383983 ], [ -8.5834258, 42.6379387 ], [ -8.5834501, 42.637416 ], [ -8.5834663, 42.6371058 ], [ -8.5835304, 42.6364855 ], [ -8.5836499, 42.6356584 ], [ -8.5837056, 42.635377 ], [ -8.5837109, 42.635071 ], [ -8.5805783, 42.6338182 ], [ -8.5781881, 42.6324868 ], [ -8.580947, 42.6252637 ], [ -8.5826191, 42.6243436 ], [ -8.5839313, 42.6241281 ], [ -8.5838981, 42.6240525 ], [ -8.578258, 42.6236897 ], [ -8.5783595, 42.623094 ], [ -8.5784892, 42.6213728 ], [ -8.5794643, 42.6178572 ], [ -8.5799483, 42.6167315 ], [ -8.579642, 42.6162769 ], [ -8.5792486, 42.6153056 ], [ -8.5791465, 42.6149321 ], [ -8.5791391, 42.6145759 ], [ -8.5787999, 42.6144319 ], [ -8.5784372, 42.6141787 ], [ -8.5780668, 42.6136841 ], [ -8.5778228, 42.6131955 ], [ -8.5774133, 42.6125344 ], [ -8.5774376, 42.6121151 ], [ -8.5770197, 42.6117699 ], [ -8.5767201, 42.6114995 ], [ -8.5765941, 42.6112925 ], [ -8.5743356, 42.611439 ], [ -8.5737527, 42.6117438 ], [ -8.5723707, 42.6120994 ], [ -8.5719071, 42.612095 ], [ -8.5710798, 42.6118383 ], [ -8.5699408, 42.6117768 ], [ -8.5689076, 42.6119442 ], [ -8.5680279, 42.6124642 ], [ -8.5674881, 42.6126976 ], [ -8.5667955, 42.6128574 ], [ -8.5663749, 42.6127879 ], [ -8.5659672, 42.6127267 ], [ -8.5658921, 42.6125683 ], [ -8.5663367, 42.6120876 ], [ -8.5664378, 42.6119263 ], [ -8.5649629, 42.6127054 ], [ -8.5638463, 42.6129123 ], [ -8.5636364, 42.6174956 ], [ -8.5635122, 42.6184163 ], [ -8.5640492, 42.6192285 ], [ -8.5636704, 42.621343 ], [ -8.5639669, 42.6229291 ], [ -8.5645169, 42.6244648 ], [ -8.5646491, 42.6259446 ], [ -8.5643025, 42.6266856 ], [ -8.564682, 42.6274674 ], [ -8.5646814, 42.6280391 ], [ -8.5657362, 42.6282926 ], [ -8.5664308, 42.6291352 ], [ -8.5664134, 42.6295172 ], [ -8.5658947, 42.6301159 ], [ -8.5658631, 42.6300982 ], [ -8.5657451, 42.6303405 ], [ -8.5653792, 42.6305775 ], [ -8.5654181, 42.6311567 ], [ -8.5649974, 42.6313582 ], [ -8.5646267, 42.6312525 ], [ -8.5642939, 42.6308495 ], [ -8.5639298, 42.6309625 ], [ -8.5635349, 42.6311627 ], [ -8.5630639, 42.6310904 ], [ -8.5627713, 42.6308474 ], [ -8.5628486, 42.6305578 ], [ -8.5624515, 42.6303009 ], [ -8.5619916, 42.6303519 ], [ -8.5616667, 42.6306154 ], [ -8.5610045, 42.6308573 ], [ -8.5605512, 42.631127 ], [ -8.5596954, 42.6313688 ], [ -8.5590133, 42.6318212 ], [ -8.558369, 42.6321193 ], [ -8.5579535, 42.6322348 ], [ -8.5574907, 42.6325431 ], [ -8.5580569, 42.6332492 ], [ -8.5600955, 42.6346934 ], [ -8.5600361, 42.6376402 ], [ -8.5602369, 42.6381545 ], [ -8.5608547, 42.6378481 ], [ -8.5618748, 42.6387226 ], [ -8.5627309, 42.6419487 ], [ -8.5622595, 42.6431721 ], [ -8.5596425, 42.6479541 ] ] ] } },
{ "type": "Feature", "properties": { "CCAA": "12 - Galicia", "PROVINCIA": "36 - Pontevedra", "MUNICIPIO": "36015 - Cuntis", "COD_MUNICIPIO": "36015", "DISTRITO": "03", "SECCION": "3601503002", "V1_H": 79.85, "V1_M": 85.78, "V2_H": 79.86035794, "V2_M": 85.76242541000001, "V3_H": 79.99500792000001, "V3_M": 85.93655133 }, "geometry": { "type": "Polygon", "coordinates": [ [ [ -8.5837109, 42.635071 ], [ -8.5837141, 42.634883 ], [ -8.5838415, 42.634165 ], [ -8.5838657, 42.6337802 ], [ -8.5838899, 42.6333379 ], [ -8.5839502, 42.6330223 ], [ -8.5840139, 42.6324726 ], [ -8.5841811, 42.6324117 ], [ -8.5844629, 42.6323197 ], [ -8.5846775, 42.6322275 ], [ -8.5848154, 42.6321671 ], [ -8.584926, 42.6320983 ], [ -8.5851866, 42.6320757 ], [ -8.5857317, 42.6319212 ], [ -8.5863161, 42.6318587 ], [ -8.5867663, 42.6317961 ], [ -8.5873665, 42.6316762 ], [ -8.5880378, 42.631608 ], [ -8.5884484, 42.6315568 ], [ -8.5890409, 42.6314139 ], [ -8.5895066, 42.6314949 ], [ -8.5900123, 42.6312025 ], [ -8.5902335, 42.6310936 ], [ -8.5908024, 42.6308472 ], [ -8.5914105, 42.6307445 ], [ -8.5915614, 42.6307194 ], [ -8.5915668, 42.630426 ], [ -8.5920345, 42.6301744 ], [ -8.5927764, 42.6295284 ], [ -8.5935153, 42.6279869 ], [ -8.5949252, 42.6270222 ], [ -8.5955827, 42.6274473 ], [ -8.596086, 42.62788 ], [ -8.5971197, 42.6296204 ], [ -8.5971372, 42.6297019 ], [ -8.5971727, 42.6296932 ], [ -8.5974946, 42.6300594 ], [ -8.5978982, 42.6316783 ], [ -8.5989102, 42.6323146 ], [ -8.5995078, 42.6329332 ], [ -8.5999408, 42.6337313 ], [ -8.5998516, 42.6341739 ], [ -8.5996886, 42.6349441 ], [ -8.5998254, 42.6356043 ], [ -8.6006101, 42.6351466 ], [ -8.6020388, 42.6347806 ], [ -8.6020473, 42.6347713 ], [ -8.6028969, 42.6344628 ], [ -8.6039554, 42.634468 ], [ -8.6053377, 42.634343 ], [ -8.6064048, 42.6341573 ], [ -8.6080493, 42.6335049 ], [ -8.6092534, 42.6331218 ], [ -8.6097319, 42.6330566 ], [ -8.6116749, 42.6322482 ], [ -8.6113279, 42.6316441 ], [ -8.6114032, 42.6312623 ], [ -8.6109802, 42.6303559 ], [ -8.6111163, 42.629566 ], [ -8.611605, 42.6291729 ], [ -8.611877, 42.6289435 ], [ -8.6120505, 42.6268104 ], [ -8.6117189, 42.6255664 ], [ -8.6143401, 42.6212425 ], [ -8.6141388, 42.6204295 ], [ -8.6129794, 42.6157461 ], [ -8.6118994, 42.6114691 ], [ -8.6119108, 42.6111894 ], [ -8.6119448, 42.6111607 ], [ -8.6124464, 42.610776 ], [ -8.6124553, 42.6106046 ], [ -8.6121311, 42.6099813 ], [ -8.611459, 42.6094202 ], [ -8.6114072, 42.6092517 ], [ -8.6114704, 42.6090055 ], [ -8.6121598, 42.6075943 ], [ -8.6119253, 42.6074258 ], [ -8.6115079, 42.6072573 ], [ -8.6107128, 42.6073594 ], [ -8.6101741, 42.6073318 ], [ -8.6095149, 42.6071842 ], [ -8.608906, 42.606917 ], [ -8.6081206, 42.6064514 ], [ -8.607798, 42.6061162 ], [ -8.6076582, 42.6053759 ], [ -8.6084084, 42.6039617 ], [ -8.6085331, 42.6035865 ], [ -8.6084694, 42.6027434 ], [ -8.6079301, 42.6018967 ], [ -8.6058817, 42.601205 ], [ -8.6054256, 42.6011464 ], [ -8.6045755, 42.6011791 ], [ -8.6037741, 42.6010744 ], [ -8.6021995, 42.6006385 ], [ -8.6015185, 42.600654 ], [ -8.6003629, 42.6004046 ], [ -8.5990173, 42.5998044 ], [ -8.5983737, 42.5994218 ], [ -8.597811, 42.5989903 ], [ -8.597026, 42.5981195 ], [ -8.596587, 42.597979 ], [ -8.596168, 42.5980626 ], [ -8.5946602, 42.5988558 ], [ -8.5940736, 42.5991644 ], [ -8.5925797, 42.5993546 ], [ -8.5914361, 42.5992395 ], [ -8.5910366, 42.5992681 ], [ -8.5907081, 42.5994103 ], [ -8.5903902, 42.5996688 ], [ -8.5898987, 42.6005751 ], [ -8.5889589, 42.6020525 ], [ -8.587978, 42.6032077 ], [ -8.5877122, 42.6039139 ], [ -8.5868161, 42.6052001 ], [ -8.5865585, 42.6058608 ], [ -8.5860055, 42.6081205 ], [ -8.5862325, 42.6084784 ], [ -8.5867894, 42.6091173 ], [ -8.5877209, 42.609855 ], [ -8.587851, 42.6100827 ], [ -8.5875344, 42.6106293 ], [ -8.5870164, 42.6111047 ], [ -8.5864742, 42.6114464 ], [ -8.5859969, 42.6115597 ], [ -8.5854168, 42.6116151 ], [ -8.5848854, 42.611533 ], [ -8.583767, 42.6110206 ], [ -8.5831209, 42.6106111 ], [ -8.5801485, 42.6089919 ], [ -8.5797823, 42.6085777 ], [ -8.5791803, 42.6077069 ], [ -8.5787398, 42.6072783 ], [ -8.5783026, 42.6066155 ], [ -8.5780779, 42.6064194 ], [ -8.5771882, 42.6064179 ], [ -8.5768338, 42.6065432 ], [ -8.5766848, 42.6067845 ], [ -8.5760565, 42.6086157 ], [ -8.5759855, 42.6094563 ], [ -8.575611, 42.6104469 ], [ -8.5749868, 42.6110985 ], [ -8.5743356, 42.611439 ], [ -8.5765941, 42.6112925 ], [ -8.5767201, 42.6114995 ], [ -8.5770197, 42.6117699 ], [ -8.5774376, 42.6121151 ], [ -8.5774133, 42.6125344 ], [ -8.5778228, 42.6131955 ], [ -8.5780668, 42.6136841 ], [ -8.5784372, 42.6141787 ], [ -8.5787999, 42.6144319 ], [ -8.5791391, 42.6145759 ], [ -8.5791465, 42.6149321 ], [ -8.5792486, 42.6153056 ], [ -8.579642, 42.6162769 ], [ -8.5799483, 42.6167315 ], [ -8.5794643, 42.6178572 ], [ -8.5784892, 42.6213728 ], [ -8.5783595, 42.623094 ], [ -8.578258, 42.6236897 ], [ -8.5838981, 42.6240525 ], [ -8.5839313, 42.6241281 ], [ -8.5826191, 42.6243436 ], [ -8.580947, 42.6252637 ], [ -8.5781881, 42.6324868 ], [ -8.5805783, 42.6338182 ], [ -8.5837109, 42.635071 ] ] ] } },
{ "type": "Feature", "properties": { "CCAA": "12 - Galicia", "PROVINCIA": "36 - Pontevedra", "MUNICIPIO": "36015 - Cuntis", "COD_MUNICIPIO": "36015", "DISTRITO": "03", "SECCION": "3601503001", "V1_H": 79.96, "V1_M": 85.86, "V2_H": 79.90630759, "V2_M": 85.80766239, "V3_H": 80.18166072, "V3_M": 86.22029934 }, "geometry": { "type": "Polygon", "coordinates": [ [ [ -8.5838165, 42.6770554 ], [ -8.5838741, 42.6767768 ], [ -8.5866708, 42.6757218 ], [ -8.5928318, 42.6749071 ], [ -8.5953255, 42.6760452 ], [ -8.5978721, 42.6764155 ], [ -8.6019545, 42.6781238 ], [ -8.6061982, 42.675935 ], [ -8.6089151, 42.6745412 ], [ -8.6091372, 42.6742795 ], [ -8.6107567, 42.6723712 ], [ -8.6113162, 42.6720827 ], [ -8.6119859, 42.6703123 ], [ -8.6133584, 42.6697047 ], [ -8.6136483, 42.6692674 ], [ -8.613981, 42.6687649 ], [ -8.6148685, 42.6672449 ], [ -8.6148677, 42.6666958 ], [ -8.6149131, 42.6662525 ], [ -8.6157519, 42.6645998 ], [ -8.6158887, 42.6639539 ], [ -8.6163446, 42.6634634 ], [ -8.6160653, 42.663072 ], [ -8.6148729, 42.6614833 ], [ -8.6144269, 42.6600559 ], [ -8.6141662, 42.6596005 ], [ -8.6115536, 42.6551108 ], [ -8.6104894, 42.6530476 ], [ -8.6096439, 42.6508386 ], [ -8.6105733, 42.6496497 ], [ -8.6104718, 42.6462248 ], [ -8.6100659, 42.6437511 ], [ -8.6111272, 42.6417275 ], [ -8.6122952, 42.6404818 ], [ -8.6120858, 42.6391058 ], [ -8.6125561, 42.6387765 ], [ -8.612073, 42.6381521 ], [ -8.6117923, 42.6376078 ], [ -8.6113647, 42.6362691 ], [ -8.6111298, 42.6355338 ], [ -8.6105959, 42.6347499 ], [ -8.6099154, 42.6342341 ], [ -8.6098929, 42.6337131 ], [ -8.6096777, 42.6333546 ], [ -8.6094422, 42.6331771 ], [ -8.6097319, 42.6330566 ], [ -8.6092534, 42.6331218 ], [ -8.6080493, 42.6335049 ], [ -8.6064048, 42.6341573 ], [ -8.6053377, 42.634343 ], [ -8.6039554, 42.634468 ], [ -8.6028969, 42.6344628 ], [ -8.6020473, 42.6347713 ], [ -8.6020388, 42.6347806 ], [ -8.6006101, 42.6351466 ], [ -8.5998254, 42.6356043 ], [ -8.5996886, 42.6349441 ], [ -8.5998516, 42.6341739 ], [ -8.5999408, 42.6337313 ], [ -8.5995078, 42.6329332 ], [ -8.5989102, 42.6323146 ], [ -8.5978982, 42.6316783 ], [ -8.5974946, 42.6300594 ], [ -8.5971727, 42.6296932 ], [ -8.5971372, 42.6297019 ], [ -8.5971197, 42.6296204 ], [ -8.596086, 42.62788 ], [ -8.5955827, 42.6274473 ], [ -8.5949252, 42.6270222 ], [ -8.5935153, 42.6279869 ], [ -8.5927764, 42.6295284 ], [ -8.5920345, 42.6301744 ], [ -8.5915668, 42.630426 ], [ -8.5915614, 42.6307194 ], [ -8.5914105, 42.6307445 ], [ -8.5908024, 42.6308472 ], [ -8.5902335, 42.6310936 ], [ -8.5900123, 42.6312025 ], [ -8.5895066, 42.6314949 ], [ -8.5890409, 42.6314139 ], [ -8.5884484, 42.6315568 ], [ -8.5880378, 42.631608 ], [ -8.5873665, 42.6316762 ], [ -8.5867663, 42.6317961 ], [ -8.5863161, 42.6318587 ], [ -8.5857317, 42.6319212 ], [ -8.5851866, 42.6320757 ], [ -8.584926, 42.6320983 ], [ -8.5848154, 42.6321671 ], [ -8.5846775, 42.6322275 ], [ -8.5844629, 42.6323197 ], [ -8.5841811, 42.6324117 ], [ -8.5840139, 42.6324726 ], [ -8.5839502, 42.6330223 ], [ -8.5838899, 42.6333379 ], [ -8.5838657, 42.6337802 ], [ -8.5838415, 42.634165 ], [ -8.5837141, 42.634883 ], [ -8.5837109, 42.635071 ], [ -8.5837056, 42.635377 ], [ -8.5836499, 42.6356584 ], [ -8.5835304, 42.6364855 ], [ -8.5834663, 42.6371058 ], [ -8.5834501, 42.637416 ], [ -8.5834258, 42.6379387 ], [ -8.5834488, 42.6383983 ], [ -8.5833061, 42.638806 ], [ -8.5833949, 42.6391961 ], [ -8.5834003, 42.6392197 ], [ -8.5836611, 42.6390822 ], [ -8.5840875, 42.6390942 ], [ -8.5847903, 42.6391353 ], [ -8.5855089, 42.6391879 ], [ -8.5862434, 42.6391313 ], [ -8.5868593, 42.6392239 ], [ -8.5877279, 42.6392996 ], [ -8.5882888, 42.6391222 ], [ -8.5888967, 42.6392608 ], [ -8.5893148, 42.6395887 ], [ -8.5896226, 42.6397499 ], [ -8.5901039, 42.6401641 ], [ -8.5902139, 42.6405894 ], [ -8.5905688, 42.6409919 ], [ -8.5908922, 42.6412967 ], [ -8.5909313, 42.6415897 ], [ -8.5910018, 42.6420322 ], [ -8.5909539, 42.6425031 ], [ -8.5910957, 42.6427963 ], [ -8.5913794, 42.6432734 ], [ -8.5918448, 42.6437278 ], [ -8.5920731, 42.6443542 ], [ -8.5916775, 42.6449857 ], [ -8.5914639, 42.6452037 ], [ -8.5914794, 42.645445 ], [ -8.5915106, 42.6458357 ], [ -8.5914233, 42.646186 ], [ -8.5911939, 42.6464614 ], [ -8.5907195, 42.646863 ], [ -8.590506, 42.6470581 ], [ -8.5900401, 42.6469829 ], [ -8.5896294, 42.6469364 ], [ -8.5887054, 42.6469124 ], [ -8.588342, 42.6469464 ], [ -8.5879708, 42.6469977 ], [ -8.587173, 42.6469852 ], [ -8.586541, 42.6471051 ], [ -8.5860592, 42.6471275 ], [ -8.5857196, 42.6471846 ], [ -8.5849535, 42.6470859 ], [ -8.5840372, 42.6471423 ], [ -8.5831527, 42.647078 ], [ -8.5824418, 42.6471633 ], [ -8.5813598, 42.6471448 ], [ -8.5808543, 42.6471441 ], [ -8.5802697, 42.647218 ], [ -8.579306, 42.6473203 ], [ -8.5786423, 42.647486 ], [ -8.5781703, 42.6475111 ], [ -8.57775, 42.6467515 ], [ -8.5718159, 42.6462028 ], [ -8.5668341, 42.6459122 ], [ -8.5648946, 42.6461592 ], [ -8.5638113, 42.6467455 ], [ -8.5624828, 42.6457432 ], [ -8.5615362, 42.6467039 ], [ -8.5611996, 42.6475587 ], [ -8.5613985, 42.6480824 ], [ -8.5607203, 42.6479961 ], [ -8.5596858, 42.6479315 ], [ -8.5596541, 42.647955 ], [ -8.5596425, 42.6479541 ], [ -8.5590065, 42.6479075 ], [ -8.5587493, 42.6479613 ], [ -8.5584969, 42.6495221 ], [ -8.5584153, 42.6506313 ], [ -8.5588166, 42.6519455 ], [ -8.5588169, 42.6533937 ], [ -8.5581792, 42.6555017 ], [ -8.5574284, 42.6575009 ], [ -8.5561747, 42.6619635 ], [ -8.5568566, 42.6620777 ], [ -8.5568242, 42.6626104 ], [ -8.5568625, 42.6632768 ], [ -8.5565534, 42.6638049 ], [ -8.5573592, 42.6638578 ], [ -8.5584414, 42.663911 ], [ -8.5592315, 42.6638777 ], [ -8.5599505, 42.6638213 ], [ -8.5605666, 42.6639198 ], [ -8.5608585, 42.6641386 ], [ -8.5615063, 42.6641682 ], [ -8.5622491, 42.6641003 ], [ -8.5624702, 42.6641696 ], [ -8.5629598, 42.6642851 ], [ -8.5636626, 42.6644699 ], [ -8.5640337, 42.6646313 ], [ -8.5646261, 42.6647068 ], [ -8.5651714, 42.6645812 ], [ -8.5659848, 42.6647776 ], [ -8.5666009, 42.6648704 ], [ -8.5669246, 42.6650144 ], [ -8.5670822, 42.6652559 ], [ -8.5675947, 42.6658483 ], [ -8.5679968, 42.6664463 ], [ -8.5681381, 42.6669405 ], [ -8.5682403, 42.6673256 ], [ -8.5687372, 42.6678432 ], [ -8.5689186, 42.6680158 ], [ -8.5690685, 42.6681826 ], [ -8.5694713, 42.6683038 ], [ -8.5697159, 42.668442 ], [ -8.5699998, 42.6688445 ], [ -8.5700706, 42.6690456 ], [ -8.5700623, 42.6692754 ], [ -8.5702987, 42.6696491 ], [ -8.5704402, 42.6701031 ], [ -8.5710945, 42.6711323 ], [ -8.5714963, 42.6718279 ], [ -8.5718587, 42.6725235 ], [ -8.5722529, 42.673087 ], [ -8.5723311, 42.6736156 ], [ -8.5724965, 42.6739719 ], [ -8.5728757, 42.6740241 ], [ -8.5733736, 42.6739903 ], [ -8.5737685, 42.6741115 ], [ -8.5740053, 42.6742611 ], [ -8.5746214, 42.6743999 ], [ -8.5750951, 42.6746704 ], [ -8.5758374, 42.6749874 ], [ -8.5765641, 42.6751721 ], [ -8.5770858, 42.6750694 ], [ -8.5778676, 42.6753461 ], [ -8.5785786, 42.6754447 ], [ -8.57925, 42.6756638 ], [ -8.5796052, 42.675917 ], [ -8.5804108, 42.6762168 ], [ -8.5810348, 42.6763727 ], [ -8.5814061, 42.6764306 ], [ -8.5818645, 42.6763966 ], [ -8.5823781, 42.676426 ], [ -8.5828046, 42.6765357 ], [ -8.5832311, 42.6766798 ], [ -8.5838165, 42.6770554 ] ] ] } },
{ "type": "Feature", "properties": { "CCAA": "12 - Galicia", "PROVINCIA": "36 - Pontevedra", "MUNICIPIO": "36015 - Cuntis", "COD_MUNICIPIO": "36015", "DISTRITO": "01", "SECCION": "3601501002", "V1_H": 80.11, "V1_M": 85.95, "V2_H": 80.1609953, "V2_M": 86.03869322, "V3_H": 80.32004483, "V3_M": 85.9872989 }, "geometry": { "type": "Polygon", "coordinates": [ [ [ -8.5596425, 42.6479541 ], [ -8.5622595, 42.6431721 ], [ -8.5627309, 42.6419487 ], [ -8.5618748, 42.6387226 ], [ -8.5608547, 42.6378481 ], [ -8.5602369, 42.6381545 ], [ -8.5600361, 42.6376402 ], [ -8.5600955, 42.6346934 ], [ -8.5580569, 42.6332492 ], [ -8.5574907, 42.6325431 ], [ -8.5579535, 42.6322348 ], [ -8.558369, 42.6321193 ], [ -8.5590133, 42.6318212 ], [ -8.5596954, 42.6313688 ], [ -8.5605512, 42.631127 ], [ -8.5610045, 42.6308573 ], [ -8.5616667, 42.6306154 ], [ -8.5619916, 42.6303519 ], [ -8.5624515, 42.6303009 ], [ -8.5628486, 42.6305578 ], [ -8.5627713, 42.6308474 ], [ -8.5630639, 42.6310904 ], [ -8.5635349, 42.6311627 ], [ -8.5639298, 42.6309625 ], [ -8.5642939, 42.6308495 ], [ -8.5646267, 42.6312525 ], [ -8.5649974, 42.6313582 ], [ -8.5654181, 42.6311567 ], [ -8.5653792, 42.6305775 ], [ -8.5657451, 42.6303405 ], [ -8.5658631, 42.6300982 ], [ -8.5658947, 42.6301159 ], [ -8.5664134, 42.6295172 ], [ -8.5664308, 42.6291352 ], [ -8.5657362, 42.6282926 ], [ -8.5646814, 42.6280391 ], [ -8.564682, 42.6274674 ], [ -8.5643025, 42.6266856 ], [ -8.5646491, 42.6259446 ], [ -8.5645169, 42.6244648 ], [ -8.5639669, 42.6229291 ], [ -8.5636704, 42.621343 ], [ -8.5640492, 42.6192285 ], [ -8.5635122, 42.6184163 ], [ -8.5636364, 42.6174956 ], [ -8.5638463, 42.6129123 ], [ -8.5649629, 42.6127054 ], [ -8.5664378, 42.6119263 ], [ -8.5665927, 42.611679 ], [ -8.5666644, 42.6111174 ], [ -8.5665513, 42.6109428 ], [ -8.5663831, 42.610834 ], [ -8.5659003, 42.6107495 ], [ -8.564879, 42.6103672 ], [ -8.5640689, 42.6090743 ], [ -8.5637416, 42.6086851 ], [ -8.5635476, 42.6085595 ], [ -8.5624527, 42.6081718 ], [ -8.5617176, 42.6079915 ], [ -8.5610406, 42.6079165 ], [ -8.5605894, 42.6077764 ], [ -8.5598424, 42.6073266 ], [ -8.5594868, 42.6070289 ], [ -8.5592437, 42.6066266 ], [ -8.5587173, 42.6049598 ], [ -8.5587313, 42.604707 ], [ -8.5589308, 42.6042112 ], [ -8.5589319, 42.6039501 ], [ -8.558814, 42.6037218 ], [ -8.5585343, 42.6035913 ], [ -8.5582375, 42.6035427 ], [ -8.5578638, 42.603588 ], [ -8.5568943, 42.6040582 ], [ -8.5564299, 42.6041799 ], [ -8.5559171, 42.6041688 ], [ -8.5551376, 42.6039006 ], [ -8.5542707, 42.6037448 ], [ -8.5537658, 42.6031391 ], [ -8.5535315, 42.6029705 ], [ -8.55314, 42.6029535 ], [ -8.552241, 42.6032583 ], [ -8.5519366, 42.6035341 ], [ -8.5514894, 42.604123 ], [ -8.5513159, 42.6045006 ], [ -8.5517889, 42.6052968 ], [ -8.5517904, 42.6054498 ], [ -8.5515702, 42.6055775 ], [ -8.5508801, 42.605629 ], [ -8.5500959, 42.6053071 ], [ -8.5498758, 42.6051689 ], [ -8.549244, 42.6047723 ], [ -8.5478955, 42.6029024 ], [ -8.5479238, 42.6022618 ], [ -8.5477939, 42.602034 ], [ -8.5475862, 42.6018911 ], [ -8.5472811, 42.6018442 ], [ -8.5471008, 42.6017822 ], [ -8.5468239, 42.6017861 ], [ -8.5462051, 42.6018614 ], [ -8.545444, 42.6019674 ], [ -8.5449067, 42.6020888 ], [ -8.5448979, 42.6020926 ], [ -8.5448457, 42.6020422 ], [ -8.5448653, 42.6018522 ], [ -8.5450347, 42.6015649 ], [ -8.5451658, 42.6008473 ], [ -8.5450141, 42.6006477 ], [ -8.5447571, 42.6004981 ], [ -8.5443317, 42.6003747 ], [ -8.544247, 42.6002438 ], [ -8.5442917, 42.6000616 ], [ -8.5447477, 42.5995713 ], [ -8.5447391, 42.5993377 ], [ -8.5444662, 42.5990089 ], [ -8.5441169, 42.5989178 ], [ -8.5431696, 42.5990898 ], [ -8.543033, 42.5989254 ], [ -8.5430908, 42.5987515 ], [ -8.5435322, 42.598235 ], [ -8.5436258, 42.5977803 ], [ -8.543516, 42.5976416 ], [ -8.5433131, 42.5975525 ], [ -8.5429248, 42.5975713 ], [ -8.5423624, 42.5978236 ], [ -8.542153, 42.5977978 ], [ -8.5420529, 42.5976316 ], [ -8.541948, 42.5968625 ], [ -8.5421679, 42.5963207 ], [ -8.5419329, 42.5954588 ], [ -8.5424477, 42.5945337 ], [ -8.5425509, 42.5941866 ], [ -8.5424832, 42.5939738 ], [ -8.5417817, 42.5936207 ], [ -8.5415951, 42.5934407 ], [ -8.5415639, 42.5932262 ], [ -8.5415931, 42.5931438 ], [ -8.5416273, 42.5929801 ], [ -8.5418184, 42.5927997 ], [ -8.5428322, 42.5924174 ], [ -8.5429838, 42.5922031 ], [ -8.5429921, 42.5920226 ], [ -8.5427018, 42.5913615 ], [ -8.5429941, 42.5910862 ], [ -8.5436786, 42.590837 ], [ -8.5438017, 42.590714 ], [ -8.5438148, 42.5905873 ], [ -8.5435842, 42.5900494 ], [ -8.5436814, 42.5893605 ], [ -8.5437292, 42.588665 ], [ -8.5430979, 42.5891007 ], [ -8.5405404, 42.5886997 ], [ -8.5390188, 42.5883288 ], [ -8.5374964, 42.5882223 ], [ -8.5363025, 42.588035 ], [ -8.5348681, 42.5879334 ], [ -8.5331166, 42.5878293 ], [ -8.5263819, 42.5859318 ], [ -8.5247203, 42.5862912 ], [ -8.522736, 42.5867202 ], [ -8.5213971, 42.58701 ], [ -8.5167124, 42.5880376 ], [ -8.5132675, 42.5893112 ], [ -8.5102555, 42.5865218 ], [ -8.5018683, 42.5883935 ], [ -8.5000176, 42.589788 ], [ -8.503315, 42.5945715 ], [ -8.5039762, 42.5951607 ], [ -8.5042342, 42.5955984 ], [ -8.5042205, 42.5964093 ], [ -8.5041332, 42.5968006 ], [ -8.5034975, 42.5976054 ], [ -8.5034152, 42.5979155 ], [ -8.5033756, 42.5987096 ], [ -8.5031614, 42.599044 ], [ -8.5017916, 42.6005053 ], [ -8.5014843, 42.6013034 ], [ -8.5014621, 42.6018806 ], [ -8.5016349, 42.6028715 ], [ -8.5018994, 42.6032459 ], [ -8.5026591, 42.6039834 ], [ -8.5030472, 42.6045139 ], [ -8.5035711, 42.6050648 ], [ -8.5044306, 42.6056896 ], [ -8.5047181, 42.6059098 ], [ -8.5051693, 42.60605 ], [ -8.5066848, 42.605824 ], [ -8.5071596, 42.6058191 ], [ -8.5077614, 42.6058711 ], [ -8.5083145, 42.6059254 ], [ -8.5093691, 42.6069638 ], [ -8.5105062, 42.6101768 ], [ -8.5100332, 42.6122702 ], [ -8.5084154, 42.615616 ], [ -8.5088755, 42.6166831 ], [ -8.5104641, 42.6204505 ], [ -8.5104323, 42.6214693 ], [ -8.5084097, 42.6275444 ], [ -8.507101, 42.6299419 ], [ -8.5066786, 42.6307157 ], [ -8.5073416, 42.6310438 ], [ -8.5049167, 42.6329882 ], [ -8.5037226, 42.6357554 ], [ -8.5036012, 42.6361754 ], [ -8.5036337, 42.6365429 ], [ -8.503861, 42.6370451 ], [ -8.5039035, 42.6376642 ], [ -8.5037262, 42.6381409 ], [ -8.5036729, 42.6389176 ], [ -8.5037398, 42.6395356 ], [ -8.5038639, 42.6398357 ], [ -8.5039394, 42.6405522 ], [ -8.5037491, 42.6414346 ], [ -8.5050954, 42.6426224 ], [ -8.5051907, 42.6427065 ], [ -8.5073546, 42.6442856 ], [ -8.5079153, 42.6444206 ], [ -8.510209, 42.6449851 ], [ -8.5098345, 42.6453003 ], [ -8.5095606, 42.6459256 ], [ -8.5092185, 42.6475716 ], [ -8.5091885, 42.6480591 ], [ -8.5092617, 42.6483347 ], [ -8.5096684, 42.6490712 ], [ -8.509684, 42.6491545 ], [ -8.5101766, 42.6489988 ], [ -8.51088, 42.6488565 ], [ -8.5114253, 42.6487368 ], [ -8.5122468, 42.6486637 ], [ -8.5129734, 42.6486823 ], [ -8.5137239, 42.6486434 ], [ -8.5143558, 42.6486446 ], [ -8.5150193, 42.6486228 ], [ -8.5155959, 42.6486067 ], [ -8.5161573, 42.6483779 ], [ -8.5173742, 42.6480871 ], [ -8.5196186, 42.6475856 ], [ -8.5204479, 42.6475986 ], [ -8.5215137, 42.6477958 ], [ -8.5231014, 42.6477411 ], [ -8.5244833, 42.6478584 ], [ -8.5261422, 42.6477464 ], [ -8.5280932, 42.647698 ], [ -8.5297047, 42.6475342 ], [ -8.5303208, 42.6475582 ], [ -8.5313632, 42.6476002 ], [ -8.5328876, 42.6475913 ], [ -8.5341593, 42.6475761 ], [ -8.5350515, 42.6476983 ], [ -8.5363545, 42.6477751 ], [ -8.5375786, 42.6478575 ], [ -8.5394666, 42.6477169 ], [ -8.5409753, 42.6476561 ], [ -8.5419549, 42.6475198 ], [ -8.5426421, 42.6474864 ], [ -8.5438031, 42.6475342 ], [ -8.5470173, 42.6477346 ], [ -8.548644, 42.6479324 ], [ -8.5499395, 42.6478194 ], [ -8.5516215, 42.6479886 ], [ -8.5531379, 42.6480426 ], [ -8.5545359, 42.6480044 ], [ -8.5551682, 42.6477813 ], [ -8.5556654, 42.6479946 ], [ -8.5571187, 42.647968 ], [ -8.5587063, 42.6479703 ], [ -8.5587493, 42.6479613 ], [ -8.5590065, 42.6479075 ], [ -8.5596425, 42.6479541 ] ] ] } },
{ "type": "Feature", "properties": { "CCAA": "12 - Galicia", "PROVINCIA": "36 - Pontevedra", "MUNICIPIO": "36015 - Cuntis", "COD_MUNICIPIO": "36015", "DISTRITO": "02", "SECCION": "3601502001", "V1_H": 80.0, "V1_M": 86.03, "V2_H": 79.84963877, "V2_M": 86.04281727, "V3_H": 80.29290896000001, "V3_M": 86.20578322 }, "geometry": { "type": "Polygon", "coordinates": [ [ [ -8.5604363, 42.6921802 ], [ -8.559971, 42.6933911 ], [ -8.5596527, 42.6942223 ], [ -8.5595951, 42.6943727 ], [ -8.5643387, 42.6928682 ], [ -8.5671067, 42.6919902 ], [ -8.5665315, 42.691154 ], [ -8.5728, 42.6911093 ], [ -8.5780767, 42.6889882 ], [ -8.5775373, 42.6874661 ], [ -8.5783291, 42.6854109 ], [ -8.5811115, 42.6847348 ], [ -8.58097, 42.6828873 ], [ -8.5833894, 42.6791231 ], [ -8.5838165, 42.6770554 ], [ -8.5832311, 42.6766798 ], [ -8.5828046, 42.6765357 ], [ -8.5823781, 42.676426 ], [ -8.5818645, 42.6763966 ], [ -8.5814061, 42.6764306 ], [ -8.5810348, 42.6763727 ], [ -8.5804108, 42.6762168 ], [ -8.5796052, 42.675917 ], [ -8.57925, 42.6756638 ], [ -8.5785786, 42.6754447 ], [ -8.5778676, 42.6753461 ], [ -8.5770858, 42.6750694 ], [ -8.5765641, 42.6751721 ], [ -8.5758374, 42.6749874 ], [ -8.5750951, 42.6746704 ], [ -8.5746214, 42.6743999 ], [ -8.5740053, 42.6742611 ], [ -8.5737685, 42.6741115 ], [ -8.5733736, 42.6739903 ], [ -8.5728757, 42.6740241 ], [ -8.5724965, 42.6739719 ], [ -8.5723311, 42.6736156 ], [ -8.5722529, 42.673087 ], [ -8.5718587, 42.6725235 ], [ -8.5714963, 42.6718279 ], [ -8.5710945, 42.6711323 ], [ -8.5704402, 42.6701031 ], [ -8.5702987, 42.6696491 ], [ -8.5700623, 42.6692754 ], [ -8.5700706, 42.6690456 ], [ -8.5699998, 42.6688445 ], [ -8.5697159, 42.668442 ], [ -8.5694713, 42.6683038 ], [ -8.5690685, 42.6681826 ], [ -8.5689186, 42.6680158 ], [ -8.5687372, 42.6678432 ], [ -8.5682403, 42.6673256 ], [ -8.5681381, 42.6669405 ], [ -8.5679968, 42.6664463 ], [ -8.5675947, 42.6658483 ], [ -8.5670822, 42.6652559 ], [ -8.5669246, 42.6650144 ], [ -8.5666009, 42.6648704 ], [ -8.5659848, 42.6647776 ], [ -8.5651714, 42.6645812 ], [ -8.5646261, 42.6647068 ], [ -8.5640337, 42.6646313 ], [ -8.5636626, 42.6644699 ], [ -8.5629598, 42.6642851 ], [ -8.5624702, 42.6641696 ], [ -8.5622491, 42.6641003 ], [ -8.5615063, 42.6641682 ], [ -8.5608585, 42.6641386 ], [ -8.5605666, 42.6639198 ], [ -8.5599505, 42.6638213 ], [ -8.5592315, 42.6638777 ], [ -8.5584414, 42.663911 ], [ -8.5573592, 42.6638578 ], [ -8.5565534, 42.6638049 ], [ -8.5568625, 42.6632768 ], [ -8.5568242, 42.6626104 ], [ -8.5568566, 42.6620777 ], [ -8.5561747, 42.6619635 ], [ -8.5574284, 42.6575009 ], [ -8.5581792, 42.6555017 ], [ -8.5588169, 42.6533937 ], [ -8.5588166, 42.6519455 ], [ -8.5584153, 42.6506313 ], [ -8.5584969, 42.6495221 ], [ -8.5587493, 42.6479613 ], [ -8.5587063, 42.6479703 ], [ -8.5571187, 42.647968 ], [ -8.5556654, 42.6479946 ], [ -8.5551682, 42.6477813 ], [ -8.5545359, 42.6480044 ], [ -8.5531379, 42.6480426 ], [ -8.5516215, 42.6479886 ], [ -8.5499395, 42.6478194 ], [ -8.548644, 42.6479324 ], [ -8.5470173, 42.6477346 ], [ -8.5438031, 42.6475342 ], [ -8.5426421, 42.6474864 ], [ -8.5419549, 42.6475198 ], [ -8.5409753, 42.6476561 ], [ -8.5394666, 42.6477169 ], [ -8.5375786, 42.6478575 ], [ -8.5363545, 42.6477751 ], [ -8.5350515, 42.6476983 ], [ -8.5341593, 42.6475761 ], [ -8.5328876, 42.6475913 ], [ -8.5313632, 42.6476002 ], [ -8.5303208, 42.6475582 ], [ -8.5297047, 42.6475342 ], [ -8.5280932, 42.647698 ], [ -8.5261422, 42.6477464 ], [ -8.5244833, 42.6478584 ], [ -8.5231014, 42.6477411 ], [ -8.5215137, 42.6477958 ], [ -8.5204479, 42.6475986 ], [ -8.5196186, 42.6475856 ], [ -8.5173742, 42.6480871 ], [ -8.5161573, 42.6483779 ], [ -8.5155959, 42.6486067 ], [ -8.5150193, 42.6486228 ], [ -8.5143558, 42.6486446 ], [ -8.5137239, 42.6486434 ], [ -8.5129734, 42.6486823 ], [ -8.5122468, 42.6486637 ], [ -8.5114253, 42.6487368 ], [ -8.51088, 42.6488565 ], [ -8.5101766, 42.6489988 ], [ -8.509684, 42.6491545 ], [ -8.509876, 42.6501775 ], [ -8.5102412, 42.650583 ], [ -8.5114974, 42.6511345 ], [ -8.5124352, 42.6513954 ], [ -8.512507, 42.6515179 ], [ -8.5124888, 42.6517258 ], [ -8.5128221, 42.6523219 ], [ -8.5128082, 42.6524396 ], [ -8.5123903, 42.6525408 ], [ -8.5121934, 42.6526584 ], [ -8.5117463, 42.6532561 ], [ -8.5117055, 42.6534831 ], [ -8.5122958, 42.654778 ], [ -8.5123471, 42.6550816 ], [ -8.5122585, 42.655734 ], [ -8.5117897, 42.6562247 ], [ -8.5094588, 42.6661104 ], [ -8.5093248, 42.6666783 ], [ -8.5092943, 42.6670219 ], [ -8.5093773, 42.6672396 ], [ -8.5096942, 42.6691078 ], [ -8.5110667, 42.6723572 ], [ -8.5120725, 42.6735091 ], [ -8.5131467, 42.6748482 ], [ -8.5144557, 42.6762141 ], [ -8.5152527, 42.677338 ], [ -8.5159153, 42.6776311 ], [ -8.5159206, 42.6776399 ], [ -8.5166632, 42.6778587 ], [ -8.5189651, 42.6785371 ], [ -8.5213962, 42.6791217 ], [ -8.5216373, 42.6792271 ], [ -8.5218397, 42.6798564 ], [ -8.5224191, 42.6796484 ], [ -8.5245312, 42.6805665 ], [ -8.5259682, 42.6822215 ], [ -8.5270251, 42.6827801 ], [ -8.5275649, 42.6829683 ], [ -8.5290077, 42.6830747 ], [ -8.5303816, 42.6830784 ], [ -8.5325412, 42.6846679 ], [ -8.5335679, 42.6854852 ], [ -8.5347476, 42.6864244 ], [ -8.5349287, 42.6866767 ], [ -8.535198, 42.6876449 ], [ -8.5355244, 42.6882953 ], [ -8.5361773, 42.6889118 ], [ -8.5370295, 42.6894376 ], [ -8.5373782, 42.6897898 ], [ -8.5376392, 42.6902543 ], [ -8.5393888, 42.6889361 ], [ -8.5395357, 42.6886679 ], [ -8.5398137, 42.6865839 ], [ -8.5426753, 42.6892537 ], [ -8.5451857, 42.6899169 ], [ -8.5452373, 42.6899305 ], [ -8.5455369, 42.690006 ], [ -8.5477751, 42.6906085 ], [ -8.5483304, 42.6894472 ], [ -8.5486409, 42.689099 ], [ -8.5489383, 42.6890125 ], [ -8.5492582, 42.689042 ], [ -8.5495764, 42.6891886 ], [ -8.550066, 42.6896149 ], [ -8.5502482, 42.689606 ], [ -8.5510303, 42.689208 ], [ -8.5514159, 42.6891532 ], [ -8.5518573, 42.6891768 ], [ -8.5528282, 42.6893906 ], [ -8.5529876, 42.6895359 ], [ -8.5535512, 42.6896975 ], [ -8.5538121, 42.6896128 ], [ -8.5543274, 42.6895067 ], [ -8.5552489, 42.689714 ], [ -8.5572276, 42.6897347 ], [ -8.5582383, 42.6899826 ], [ -8.5586471, 42.6901878 ], [ -8.5605794, 42.6906428 ], [ -8.5604363, 42.6921802 ] ] ] } }
]
}
