{
"type": "FeatureCollection",
"name": "36034",
"features": [
{ "type": "Feature", "properties": { "CCAA": "12 - Galicia", "PROVINCIA": "36 - Pontevedra", "MUNICIPIO": "36034 - Neves, As", "COD_MUNICIPIO": "36034", "DISTRITO": "01", "SECCION": "3603401001", "V1_H": 80.31, "V1_M": 85.98, "V2_H": 80.51251293, "V2_M": 86.22129475, "V3_H": 80.221823, "V3_M": 85.87405604 }, "geometry": { "type": "Polygon", "coordinates": [ [ [ -8.3850536, 42.0772683 ], [ -8.3858517, 42.0785952 ], [ -8.3874914, 42.0814907 ], [ -8.3888638, 42.0819882 ], [ -8.3898584, 42.0830084 ], [ -8.3910314, 42.0855256 ], [ -8.3916699, 42.0877727 ], [ -8.3922029, 42.0894936 ], [ -8.3921879, 42.0895159 ], [ -8.3922354, 42.0902137 ], [ -8.3923962, 42.0909016 ], [ -8.3920118, 42.0915724 ], [ -8.3921173, 42.0922867 ], [ -8.3926964, 42.0936076 ], [ -8.3930148, 42.0949455 ], [ -8.3930632, 42.0951386 ], [ -8.3919115, 42.0960536 ], [ -8.3965078, 42.0955989 ], [ -8.3979229, 42.0955703 ], [ -8.4017308, 42.0957072 ], [ -8.4052806, 42.0963021 ], [ -8.4061144, 42.0963604 ], [ -8.4084025, 42.0960841 ], [ -8.410559, 42.0956628 ], [ -8.4116261, 42.0953441 ], [ -8.4122761, 42.0956626 ], [ -8.4132881, 42.0973971 ], [ -8.4134884, 42.0979745 ], [ -8.4140782, 42.0969508 ], [ -8.4145558, 42.0963047 ], [ -8.4168152, 42.0938845 ], [ -8.4188019, 42.0921743 ], [ -8.4188395, 42.0921446 ], [ -8.4216432, 42.091949 ], [ -8.4226449, 42.0913965 ], [ -8.4226799, 42.0903087 ], [ -8.4225018, 42.0892565 ], [ -8.422507, 42.0892524 ], [ -8.4223333, 42.0880481 ], [ -8.422581, 42.0864547 ], [ -8.4246018, 42.0843581 ], [ -8.4262828, 42.0839736 ], [ -8.4279339, 42.0838381 ], [ -8.4287439, 42.0834376 ], [ -8.4299765, 42.0834934 ], [ -8.4307359, 42.0834002 ], [ -8.4309863, 42.0836361 ], [ -8.4309868, 42.083642 ], [ -8.4332785, 42.0850135 ], [ -8.4381808, 42.0794108 ], [ -8.4381458, 42.0793845 ], [ -8.4377083, 42.079055 ], [ -8.4347754, 42.0774029 ], [ -8.4332882, 42.075556 ], [ -8.4328853, 42.0743778 ], [ -8.432465, 42.0735605 ], [ -8.4313769, 42.072847 ], [ -8.4305527, 42.072535 ], [ -8.4293427, 42.0722323 ], [ -8.4286529, 42.07222 ], [ -8.4273053, 42.072428 ], [ -8.4246301, 42.0726539 ], [ -8.4211449, 42.0730172 ], [ -8.4194826, 42.073078 ], [ -8.4186609, 42.0739271 ], [ -8.417404, 42.0744908 ], [ -8.4166441, 42.0749319 ], [ -8.4156237, 42.0757184 ], [ -8.4144143, 42.0764148 ], [ -8.4124957, 42.0772978 ], [ -8.4117805, 42.0774127 ], [ -8.4107175, 42.077418 ], [ -8.4101037, 42.0780141 ], [ -8.409645, 42.0781619 ], [ -8.4077415, 42.0785129 ], [ -8.4074958, 42.0787496 ], [ -8.4072945, 42.0796504 ], [ -8.4068826, 42.0799219 ], [ -8.4057493, 42.0802366 ], [ -8.4047626, 42.0804272 ], [ -8.4013277, 42.0805354 ], [ -8.4000666, 42.0803429 ], [ -8.3994076, 42.08041 ], [ -8.399023, 42.0804905 ], [ -8.3981847, 42.0806658 ], [ -8.3973332, 42.0807419 ], [ -8.3965077, 42.0805558 ], [ -8.3943253, 42.0806138 ], [ -8.3938301, 42.080475 ], [ -8.3932693, 42.0801324 ], [ -8.3928153, 42.0797667 ], [ -8.3924485, 42.0792888 ], [ -8.3921418, 42.078097 ], [ -8.3918018, 42.0773657 ], [ -8.390733, 42.0760207 ], [ -8.3905714, 42.0753982 ], [ -8.3892462, 42.0757306 ], [ -8.3880588, 42.0761197 ], [ -8.3873828, 42.0764126 ], [ -8.386141, 42.0765881 ], [ -8.3855612, 42.0768765 ], [ -8.3850536, 42.0772683 ] ] ] } },
{ "type": "Feature", "properties": { "CCAA": "12 - Galicia", "PROVINCIA": "36 - Pontevedra", "MUNICIPIO": "36034 - Neves, As", "COD_MUNICIPIO": "36034", "DISTRITO": "02", "SECCION": "3603402001", "V1_H": 79.47, "V1_M": 85.31, "V2_H": 79.34656828, "V2_M": 85.44731594, "V3_H": 79.76976452, "V3_M": 85.31663719 }, "geometry": { "type": "Polygon", "coordinates": [ [ [ -8.3534129, 42.1510093 ], [ -8.3534176, 42.1513512 ], [ -8.3538629, 42.1530409 ], [ -8.3541118, 42.1536954 ], [ -8.3547327, 42.1543145 ], [ -8.3566531, 42.1562772 ], [ -8.3565113, 42.1571751 ], [ -8.3564029, 42.1597549 ], [ -8.3568728, 42.1607322 ], [ -8.3591202, 42.1614102 ], [ -8.3629241, 42.1639372 ], [ -8.3660063, 42.1603351 ], [ -8.371494, 42.1562403 ], [ -8.3767148, 42.1546116 ], [ -8.3785341, 42.1542342 ], [ -8.3815825, 42.1531699 ], [ -8.3868193, 42.1510814 ], [ -8.3937023, 42.1489384 ], [ -8.3945306, 42.1483844 ], [ -8.3955144, 42.1467504 ], [ -8.3990139, 42.1439858 ], [ -8.4007286, 42.1431031 ], [ -8.4014081, 42.1429085 ], [ -8.402796, 42.1420241 ], [ -8.4078224, 42.137673 ], [ -8.4123863, 42.1348414 ], [ -8.4119946, 42.1327049 ], [ -8.4107426, 42.1280961 ], [ -8.4103275, 42.1258874 ], [ -8.4098831, 42.124228 ], [ -8.4097627, 42.1215614 ], [ -8.4089879, 42.1177027 ], [ -8.408737, 42.1173681 ], [ -8.4083035, 42.1171498 ], [ -8.4072778, 42.1168743 ], [ -8.4059971, 42.1167145 ], [ -8.4058213, 42.1161102 ], [ -8.405936, 42.1154893 ], [ -8.407393, 42.1122996 ], [ -8.4077432, 42.1110585 ], [ -8.4080691, 42.1098353 ], [ -8.4083191, 42.108963 ], [ -8.4107769, 42.1047875 ], [ -8.4113294, 42.1038897 ], [ -8.4124665, 42.1025536 ], [ -8.4134861, 42.1008476 ], [ -8.4136029, 42.0999745 ], [ -8.4135591, 42.098173 ], [ -8.4134884, 42.0979745 ], [ -8.4132881, 42.0973971 ], [ -8.4122761, 42.0956626 ], [ -8.4116261, 42.0953441 ], [ -8.410559, 42.0956628 ], [ -8.4084025, 42.0960841 ], [ -8.4061144, 42.0963604 ], [ -8.4052806, 42.0963021 ], [ -8.4017308, 42.0957072 ], [ -8.3979229, 42.0955703 ], [ -8.3965078, 42.0955989 ], [ -8.3919115, 42.0960536 ], [ -8.3930632, 42.0951386 ], [ -8.3930148, 42.0949455 ], [ -8.3926964, 42.0936076 ], [ -8.3921173, 42.0922867 ], [ -8.3920118, 42.0915724 ], [ -8.3923962, 42.0909016 ], [ -8.3922354, 42.0902137 ], [ -8.3921879, 42.0895159 ], [ -8.3922029, 42.0894936 ], [ -8.3916699, 42.0877727 ], [ -8.3910314, 42.0855256 ], [ -8.3898584, 42.0830084 ], [ -8.3888638, 42.0819882 ], [ -8.3874914, 42.0814907 ], [ -8.3858517, 42.0785952 ], [ -8.3850536, 42.0772683 ], [ -8.3850395, 42.0772791 ], [ -8.3845575, 42.0774369 ], [ -8.3840865, 42.077441 ], [ -8.382007, 42.0771428 ], [ -8.3814008, 42.0772613 ], [ -8.3806782, 42.0777184 ], [ -8.3775449, 42.0805305 ], [ -8.3766948, 42.0814797 ], [ -8.3760432, 42.0823476 ], [ -8.3757905, 42.0833587 ], [ -8.3757267, 42.0836048 ], [ -8.374521, 42.0850658 ], [ -8.3741962, 42.0853692 ], [ -8.3727289, 42.0861673 ], [ -8.3724298, 42.0866315 ], [ -8.3722782, 42.0872688 ], [ -8.3719272, 42.0876904 ], [ -8.371102, 42.0879362 ], [ -8.3709314, 42.0882053 ], [ -8.3709665, 42.0889059 ], [ -8.3703691, 42.0889879 ], [ -8.3700369, 42.0894896 ], [ -8.3699167, 42.0897833 ], [ -8.3697552, 42.09016 ], [ -8.3695225, 42.0909812 ], [ -8.3696251, 42.0913365 ], [ -8.3703342, 42.0938599 ], [ -8.3708894, 42.0958505 ], [ -8.3709718, 42.0963957 ], [ -8.3711828, 42.09689 ], [ -8.3716753, 42.097281 ], [ -8.3722199, 42.0980026 ], [ -8.3701216, 42.0987763 ], [ -8.3684406, 42.1011959 ], [ -8.3678138, 42.1013604 ], [ -8.3674106, 42.1015954 ], [ -8.3670654, 42.1019446 ], [ -8.3669476, 42.1024093 ], [ -8.367018, 42.1030992 ], [ -8.3672187, 42.1039 ], [ -8.3669022, 42.104302 ], [ -8.364136, 42.1086179 ], [ -8.3631319, 42.1097543 ], [ -8.3589802, 42.113991 ], [ -8.3585747, 42.1141991 ], [ -8.3571438, 42.1142931 ], [ -8.3574813, 42.1148535 ], [ -8.3562368, 42.1160101 ], [ -8.3575841, 42.1170723 ], [ -8.3576792, 42.117482 ], [ -8.3575328, 42.1196134 ], [ -8.3564937, 42.1206254 ], [ -8.3547272, 42.1227607 ], [ -8.3541125, 42.1235007 ], [ -8.3547267, 42.1246152 ], [ -8.3585681, 42.1317185 ], [ -8.3593776, 42.1344263 ], [ -8.3547325, 42.1428632 ], [ -8.3529795, 42.1460242 ], [ -8.3537774, 42.1495969 ], [ -8.3534129, 42.1510093 ] ] ] } },
{ "type": "Feature", "properties": { "CCAA": "12 - Galicia", "PROVINCIA": "36 - Pontevedra", "MUNICIPIO": "36034 - Neves, As", "COD_MUNICIPIO": "36034", "DISTRITO": "01", "SECCION": "3603401002", "V1_H": 79.66, "V1_M": 85.68, "V2_H": 79.65353369, "V2_M": 85.83118741, "V3_H": 79.80284041, "V3_M": 85.7603318 }, "geometry": { "type": "Polygon", "coordinates": [ [ [ -8.4528221, 42.0829171 ], [ -8.4523082, 42.0828793 ], [ -8.4492115, 42.0831259 ], [ -8.4450857, 42.0826472 ], [ -8.4437193, 42.0829193 ], [ -8.4433264, 42.0828479 ], [ -8.4410168, 42.0819855 ], [ -8.4398478, 42.0811769 ], [ -8.4390506, 42.0804766 ], [ -8.4386726, 42.0798734 ], [ -8.4383155, 42.0795123 ], [ -8.4381808, 42.0794108 ], [ -8.4332785, 42.0850135 ], [ -8.4309868, 42.083642 ], [ -8.4309863, 42.0836361 ], [ -8.4307359, 42.0834002 ], [ -8.4299765, 42.0834934 ], [ -8.4287439, 42.0834376 ], [ -8.4279339, 42.0838381 ], [ -8.4262828, 42.0839736 ], [ -8.4246018, 42.0843581 ], [ -8.422581, 42.0864547 ], [ -8.4223333, 42.0880481 ], [ -8.422507, 42.0892524 ], [ -8.4225018, 42.0892565 ], [ -8.4226799, 42.0903087 ], [ -8.4226449, 42.0913965 ], [ -8.4216432, 42.091949 ], [ -8.4188395, 42.0921446 ], [ -8.4188019, 42.0921743 ], [ -8.4168152, 42.0938845 ], [ -8.4145558, 42.0963047 ], [ -8.4140782, 42.0969508 ], [ -8.4134884, 42.0979745 ], [ -8.4135591, 42.098173 ], [ -8.4136029, 42.0999745 ], [ -8.4134861, 42.1008476 ], [ -8.4124665, 42.1025536 ], [ -8.4113294, 42.1038897 ], [ -8.4107769, 42.1047875 ], [ -8.4083191, 42.108963 ], [ -8.4080691, 42.1098353 ], [ -8.4077432, 42.1110585 ], [ -8.407393, 42.1122996 ], [ -8.405936, 42.1154893 ], [ -8.4058213, 42.1161102 ], [ -8.4059971, 42.1167145 ], [ -8.4072778, 42.1168743 ], [ -8.4083035, 42.1171498 ], [ -8.408737, 42.1173681 ], [ -8.4089879, 42.1177027 ], [ -8.4097627, 42.1215614 ], [ -8.4098831, 42.124228 ], [ -8.4103275, 42.1258874 ], [ -8.4116095, 42.1259391 ], [ -8.4169099, 42.125804 ], [ -8.4192234, 42.1255095 ], [ -8.4217699, 42.1248738 ], [ -8.4231179, 42.1243132 ], [ -8.4242124, 42.1236883 ], [ -8.4273421, 42.1214073 ], [ -8.4294591, 42.1200758 ], [ -8.4308073, 42.1194701 ], [ -8.4323262, 42.1190032 ], [ -8.4323246, 42.1190004 ], [ -8.433351, 42.1179846 ], [ -8.4338287, 42.11669 ], [ -8.434366, 42.1160166 ], [ -8.434454, 42.1157742 ], [ -8.4345861, 42.1156727 ], [ -8.4347261, 42.1155898 ], [ -8.4351652, 42.1151879 ], [ -8.4355475, 42.1149458 ], [ -8.436473, 42.1136589 ], [ -8.4366441, 42.113045 ], [ -8.4369064, 42.1124197 ], [ -8.437297, 42.1091938 ], [ -8.4383942, 42.1067692 ], [ -8.439271, 42.1055795 ], [ -8.4413648, 42.1048559 ], [ -8.4416755, 42.1044504 ], [ -8.4419592, 42.1043274 ], [ -8.4420927, 42.1041686 ], [ -8.4438939, 42.1033159 ], [ -8.4449303, 42.102795 ], [ -8.4456377, 42.1025041 ], [ -8.4459879, 42.102335 ], [ -8.4463252, 42.1019426 ], [ -8.4467465, 42.1017082 ], [ -8.447099, 42.1015675 ], [ -8.4473306, 42.1012849 ], [ -8.447572, 42.1011162 ], [ -8.4480627, 42.1009452 ], [ -8.4499532, 42.0992736 ], [ -8.4516718, 42.0974625 ], [ -8.4537473, 42.0953389 ], [ -8.4538766, 42.0946849 ], [ -8.4536753, 42.0945754 ], [ -8.4540711, 42.0912171 ], [ -8.4539135, 42.091096 ], [ -8.4542204, 42.0898285 ], [ -8.4540675, 42.0894642 ], [ -8.4543149, 42.0879518 ], [ -8.4528221, 42.0829171 ] ] ] } },
{ "type": "Feature", "properties": { "CCAA": "12 - Galicia", "PROVINCIA": "36 - Pontevedra", "MUNICIPIO": "36034 - Neves, As", "COD_MUNICIPIO": "36034", "DISTRITO": "03", "SECCION": "3603403001", "V1_H": 79.78, "V1_M": 85.67, "V2_H": 79.78305357000001, "V2_M": 85.83721796, "V3_H": 80.07461692, "V3_M": 85.64972132 }, "geometry": { "type": "Polygon", "coordinates": [ [ [ -8.3722728, 42.1738108 ], [ -8.3726083, 42.1740562 ], [ -8.3731756, 42.1740385 ], [ -8.3739711, 42.1731459 ], [ -8.3750087, 42.172395 ], [ -8.375884, 42.1721557 ], [ -8.3775384, 42.172114 ], [ -8.3782901, 42.1726998 ], [ -8.3800493, 42.1726081 ], [ -8.3815856, 42.1727429 ], [ -8.3852892, 42.1704709 ], [ -8.3859959, 42.1705276 ], [ -8.387578, 42.1704891 ], [ -8.3882546, 42.1699081 ], [ -8.3889139, 42.1699761 ], [ -8.3892964, 42.169778 ], [ -8.3901688, 42.1697909 ], [ -8.391018, 42.1692468 ], [ -8.3920094, 42.169236 ], [ -8.3932473, 42.1687095 ], [ -8.3949447, 42.1681793 ], [ -8.3959173, 42.1675213 ], [ -8.399631, 42.1667968 ], [ -8.4003978, 42.1667066 ], [ -8.4017159, 42.1665543 ], [ -8.4022845, 42.1664104 ], [ -8.4035463, 42.1664499 ], [ -8.4048207, 42.1662096 ], [ -8.4054422, 42.1662612 ], [ -8.4060722, 42.1664115 ], [ -8.4066304, 42.1664301 ], [ -8.4068977, 42.1663005 ], [ -8.4076062, 42.1655288 ], [ -8.4080322, 42.1652746 ], [ -8.4083887, 42.1653387 ], [ -8.4088252, 42.1656332 ], [ -8.4092585, 42.1657477 ], [ -8.409684, 42.1656285 ], [ -8.4099367, 42.1653285 ], [ -8.4100166, 42.1648476 ], [ -8.4102666, 42.1642326 ], [ -8.4106474, 42.1640166 ], [ -8.4115554, 42.1631724 ], [ -8.4120344, 42.1631137 ], [ -8.4129597, 42.1633219 ], [ -8.41341, 42.1632106 ], [ -8.4136852, 42.1630194 ], [ -8.4149603, 42.1632422 ], [ -8.4154488, 42.1631143 ], [ -8.4163166, 42.1631542 ], [ -8.4170651, 42.1633713 ], [ -8.4180759, 42.1635854 ], [ -8.4183517, 42.1635152 ], [ -8.4191691, 42.1630736 ], [ -8.4193502, 42.1630553 ], [ -8.4196189, 42.1629436 ], [ -8.4204364, 42.1625988 ], [ -8.4210503, 42.1625607 ], [ -8.4215505, 42.162609 ], [ -8.4218522, 42.1628827 ], [ -8.4223242, 42.1635896 ], [ -8.4229737, 42.1632617 ], [ -8.4231961, 42.162891 ], [ -8.4234631, 42.1626173 ], [ -8.4236816, 42.1617787 ], [ -8.4239981, 42.1613766 ], [ -8.4243484, 42.1605228 ], [ -8.4246895, 42.1599844 ], [ -8.4241582, 42.1598566 ], [ -8.4236275, 42.1595937 ], [ -8.4229526, 42.1586354 ], [ -8.4238598, 42.1579262 ], [ -8.4249031, 42.1566884 ], [ -8.4250232, 42.1562958 ], [ -8.4250259, 42.1562947 ], [ -8.426165, 42.1546448 ], [ -8.4261486, 42.1546318 ], [ -8.4258423, 42.1539521 ], [ -8.4243794, 42.1519869 ], [ -8.4225709, 42.1505062 ], [ -8.421671, 42.1496036 ], [ -8.4200078, 42.1475579 ], [ -8.4195714, 42.1468404 ], [ -8.4183121, 42.1428669 ], [ -8.424373, 42.1454154 ], [ -8.4269256, 42.1465456 ], [ -8.4292493, 42.1476867 ], [ -8.4310106, 42.1484763 ], [ -8.4341438, 42.1490387 ], [ -8.4347585, 42.1491535 ], [ -8.4364171, 42.1493087 ], [ -8.4373761, 42.1494882 ], [ -8.4422949, 42.1504156 ], [ -8.4467876, 42.1506068 ], [ -8.4487969, 42.1506191 ], [ -8.4502116, 42.1507498 ], [ -8.4538781, 42.1513222 ], [ -8.4533162, 42.1498546 ], [ -8.4530997, 42.1493068 ], [ -8.4527973, 42.148745 ], [ -8.4535968, 42.1472125 ], [ -8.4529615, 42.1451722 ], [ -8.4525506, 42.144314 ], [ -8.4523715, 42.14394 ], [ -8.4513097, 42.145377 ], [ -8.4467893, 42.1454213 ], [ -8.4457991, 42.1454415 ], [ -8.4457964, 42.1454257 ], [ -8.4446352, 42.1454068 ], [ -8.443384, 42.1332282 ], [ -8.4422905, 42.1292881 ], [ -8.4425354, 42.1234467 ], [ -8.4419424, 42.1232179 ], [ -8.4415285, 42.1229045 ], [ -8.4401352, 42.1213233 ], [ -8.4400737, 42.121303 ], [ -8.437974, 42.1204851 ], [ -8.4373689, 42.1202947 ], [ -8.436094, 42.1196788 ], [ -8.4355933, 42.1194359 ], [ -8.434028, 42.119091 ], [ -8.4334182, 42.1190676 ], [ -8.4333778, 42.1190737 ], [ -8.4333654, 42.1190884 ], [ -8.4337658, 42.1192206 ], [ -8.4323358, 42.1190003 ], [ -8.4308073, 42.1194701 ], [ -8.4294591, 42.1200758 ], [ -8.4273421, 42.1214073 ], [ -8.4242124, 42.1236883 ], [ -8.4231179, 42.1243132 ], [ -8.4217699, 42.1248738 ], [ -8.4192234, 42.1255095 ], [ -8.4169099, 42.125804 ], [ -8.4116095, 42.1259391 ], [ -8.4103275, 42.1258874 ], [ -8.4107426, 42.1280961 ], [ -8.4119946, 42.1327049 ], [ -8.4123863, 42.1348414 ], [ -8.4078224, 42.137673 ], [ -8.402796, 42.1420241 ], [ -8.4014081, 42.1429085 ], [ -8.4007286, 42.1431031 ], [ -8.3990139, 42.1439858 ], [ -8.3955144, 42.1467504 ], [ -8.3945306, 42.1483844 ], [ -8.3937023, 42.1489384 ], [ -8.3868193, 42.1510814 ], [ -8.3815825, 42.1531699 ], [ -8.3785341, 42.1542342 ], [ -8.3767148, 42.1546116 ], [ -8.371494, 42.1562403 ], [ -8.3660063, 42.1603351 ], [ -8.3629241, 42.1639372 ], [ -8.36707, 42.166691 ], [ -8.3672373, 42.1668092 ], [ -8.369344, 42.1681057 ], [ -8.3722728, 42.1738108 ] ] ] } }
]
}
