{
"type": "FeatureCollection",
"name": "37138",
"features": [
{ "type": "Feature", "properties": { "CCAA": "07 - Castilla y León", "PROVINCIA": "37 - Salamanca", "MUNICIPIO": "37138 - Fuenterroble de Salvatierra", "COD_MUNICIPIO": "37138", "DISTRITO": "01", "SECCION": "3713801001", "V1_H": 79.47, "V1_M": 85.31, "V2_H": 79.34656828, "V2_M": 85.44731594, "V3_H": 79.76976452, "V3_M": 85.31663719 }, "geometry": { "type": "Polygon", "coordinates": [ [ [ -5.7052837, 40.5527333 ], [ -5.7051746, 40.5527962 ], [ -5.7047819, 40.5530126 ], [ -5.7045047, 40.5534604 ], [ -5.7043798, 40.5538777 ], [ -5.7043554, 40.5544458 ], [ -5.7045476, 40.5568732 ], [ -5.7049767, 40.5601959 ], [ -5.7060996, 40.5654929 ], [ -5.706642, 40.5669935 ], [ -5.7070036, 40.5679938 ], [ -5.7073162, 40.5684801 ], [ -5.707785, 40.5692095 ], [ -5.7099856, 40.5713466 ], [ -5.7124161, 40.5727397 ], [ -5.7136594, 40.5731068 ], [ -5.7150077, 40.5731471 ], [ -5.7157849, 40.5727956 ], [ -5.7164195, 40.5721321 ], [ -5.7169783, 40.5719298 ], [ -5.7175871, 40.5720866 ], [ -5.7179814, 40.5722591 ], [ -5.7180561, 40.5722918 ], [ -5.7182923, 40.5727189 ], [ -5.7184002, 40.5729142 ], [ -5.7184003, 40.5729143 ], [ -5.7177762, 40.5734404 ], [ -5.7175322, 40.5736462 ], [ -5.7184904, 40.5748486 ], [ -5.7208014, 40.5761993 ], [ -5.7224325, 40.5765122 ], [ -5.7224679, 40.5765113 ], [ -5.7234035, 40.5765703 ], [ -5.7243646, 40.5763855 ], [ -5.7259993, 40.5759146 ], [ -5.7288014, 40.5748125 ], [ -5.730613, 40.5752657 ], [ -5.7325846, 40.5757589 ], [ -5.7341022, 40.5758941 ], [ -5.7368691, 40.5762518 ], [ -5.7368692, 40.5762518 ], [ -5.7383633, 40.5763921 ], [ -5.7388614, 40.5764388 ], [ -5.7395802, 40.5763947 ], [ -5.7406597, 40.5762159 ], [ -5.7407773, 40.5762041 ], [ -5.7422835, 40.575772 ], [ -5.7442864, 40.5750669 ], [ -5.745922, 40.5743344 ], [ -5.7466036, 40.573958 ], [ -5.7472781, 40.5736987 ], [ -5.7482989, 40.5735303 ], [ -5.7527688, 40.573649 ], [ -5.754015, 40.5737904 ], [ -5.7568598, 40.5746052 ], [ -5.758072, 40.5747834 ], [ -5.7589091, 40.5747454 ], [ -5.7624051, 40.5718605 ], [ -5.7633059, 40.5716498 ], [ -5.7653648, 40.5720238 ], [ -5.7687682, 40.5723476 ], [ -5.7684269, 40.5700859 ], [ -5.7677035, 40.5674371 ], [ -5.7676855, 40.5664287 ], [ -5.7681789, 40.5637868 ], [ -5.7684279, 40.5629522 ], [ -5.7685184, 40.5619952 ], [ -5.7684555, 40.561042 ], [ -5.7679446, 40.5586762 ], [ -5.7679053, 40.5577224 ], [ -5.7678455, 40.5562737 ], [ -5.7680339, 40.5545398 ], [ -5.7680581, 40.554269 ], [ -5.7677804, 40.5535461 ], [ -5.7691453, 40.5497032 ], [ -5.7691686, 40.548838 ], [ -5.769173, 40.5486577 ], [ -5.769085, 40.5476691 ], [ -5.7688569, 40.5467197 ], [ -5.7685125, 40.5446653 ], [ -5.7685186, 40.5442418 ], [ -5.7692061, 40.5425861 ], [ -5.7695019, 40.5420295 ], [ -5.7696632, 40.5413591 ], [ -5.769677, 40.5405481 ], [ -5.7707667, 40.5383422 ], [ -5.7707145, 40.5376499 ], [ -5.7689365, 40.5349003 ], [ -5.7679605, 40.5326989 ], [ -5.767, 40.5308754 ], [ -5.768638, 40.5288005 ], [ -5.7699708, 40.5267689 ], [ -5.7706055, 40.5255557 ], [ -5.7709171, 40.5248096 ], [ -5.7711681, 40.5237408 ], [ -5.7702446, 40.5239611 ], [ -5.766492, 40.522835 ], [ -5.7638557, 40.5221596 ], [ -5.7608284, 40.5217366 ], [ -5.758137, 40.5214406 ], [ -5.757135, 40.5214736 ], [ -5.7562676, 40.5216204 ], [ -5.7537316, 40.5222393 ], [ -5.7530245, 40.5222652 ], [ -5.7507189, 40.5218788 ], [ -5.750046, 40.5218768 ], [ -5.747322, 40.5225181 ], [ -5.7464884, 40.522628 ], [ -5.7438644, 40.5225373 ], [ -5.7426413, 40.5226474 ], [ -5.740945, 40.5230209 ], [ -5.7359768, 40.5247871 ], [ -5.7340376, 40.5252835 ], [ -5.7321706, 40.5255257 ], [ -5.7288505, 40.5257394 ], [ -5.7237028, 40.5262933 ], [ -5.7220072, 40.5261081 ], [ -5.7187164, 40.5258794 ], [ -5.7172844, 40.525787 ], [ -5.7160266, 40.5259157 ], [ -5.7132482, 40.5272691 ], [ -5.712756, 40.5276499 ], [ -5.7123275, 40.5281464 ], [ -5.7116556, 40.5293421 ], [ -5.7099761, 40.5295527 ], [ -5.7104581, 40.5324328 ], [ -5.7121822, 40.5330318 ], [ -5.7141673, 40.5342462 ], [ -5.715958, 40.5373656 ], [ -5.7158707, 40.5381243 ], [ -5.7175322, 40.5383374 ], [ -5.7186868, 40.5385715 ], [ -5.7192079, 40.5389015 ], [ -5.719689, 40.5394126 ], [ -5.7203406, 40.540343 ], [ -5.7218914, 40.5451073 ], [ -5.7205762, 40.5464534 ], [ -5.719969, 40.5466209 ], [ -5.7131272, 40.5485383 ], [ -5.7131271, 40.5485383 ], [ -5.7115544, 40.5511153 ], [ -5.7099082, 40.5512891 ], [ -5.7079801, 40.5517937 ], [ -5.7072314, 40.5520372 ], [ -5.7055325, 40.5525897 ], [ -5.7053428, 40.5526991 ], [ -5.7052837, 40.5527333 ] ] ] } }
]
}
