{
"type": "FeatureCollection",
"name": "37141",
"features": [
{ "type": "Feature", "properties": { "CCAA": "07 - Castilla y León", "PROVINCIA": "37 - Salamanca", "MUNICIPIO": "37141 - Gajates", "COD_MUNICIPIO": "37141", "DISTRITO": "01", "SECCION": "3714101001", "V1_H": 80.65, "V1_M": 86.42, "V2_H": 80.32339709, "V2_M": 86.16224497, "V3_H": 80.9318118, "V3_M": 86.73476557 }, "geometry": { "type": "Polygon", "coordinates": [ [ [ -5.3602847, 40.824149 ], [ -5.3607571, 40.8240943 ], [ -5.3616002, 40.8241311 ], [ -5.3624588, 40.8242666 ], [ -5.3638867, 40.8247418 ], [ -5.3650063, 40.8235479 ], [ -5.3655853, 40.8231577 ], [ -5.3675692, 40.8209281 ], [ -5.368509, 40.8210169 ], [ -5.3701193, 40.8206235 ], [ -5.3702815, 40.8215119 ], [ -5.3718397, 40.8219843 ], [ -5.3727065, 40.8210207 ], [ -5.3732671, 40.820784 ], [ -5.3738893, 40.8206091 ], [ -5.3744957, 40.8203263 ], [ -5.3760318, 40.8198443 ], [ -5.3771739, 40.8192894 ], [ -5.3784794, 40.8189922 ], [ -5.380426, 40.8180603 ], [ -5.381402, 40.817833 ], [ -5.3820218, 40.817595 ], [ -5.3835751, 40.8172656 ], [ -5.3836577, 40.817255 ], [ -5.3856343, 40.8161692 ], [ -5.385247, 40.8156188 ], [ -5.3871704, 40.814372 ], [ -5.3873739, 40.8140975 ], [ -5.3875324, 40.8138871 ], [ -5.3894346, 40.8127127 ], [ -5.3924447, 40.8140015 ], [ -5.3943841, 40.812547 ], [ -5.395058, 40.8115062 ], [ -5.3958515, 40.8111564 ], [ -5.3976319, 40.8102277 ], [ -5.3959956, 40.8089016 ], [ -5.39675, 40.8084535 ], [ -5.3975669, 40.8080943 ], [ -5.399544, 40.8070353 ], [ -5.3989944, 40.8065874 ], [ -5.3990074, 40.8056323 ], [ -5.3981891, 40.8049648 ], [ -5.3984287, 40.8037167 ], [ -5.3979059, 40.8036826 ], [ -5.3981546, 40.8030199 ], [ -5.3985309, 40.8019492 ], [ -5.3973919, 40.8019188 ], [ -5.3969695, 40.8017114 ], [ -5.3955956, 40.8004248 ], [ -5.393743, 40.8016433 ], [ -5.3931042, 40.8013503 ], [ -5.3939074, 40.800613 ], [ -5.3935632, 40.8002689 ], [ -5.3914238, 40.8020877 ], [ -5.3917405, 40.8023244 ], [ -5.3902978, 40.8037415 ], [ -5.3899085, 40.8041189 ], [ -5.3895875, 40.8037651 ], [ -5.3892058, 40.8033677 ], [ -5.3935453, 40.7994405 ], [ -5.3931533, 40.7990884 ], [ -5.3907346, 40.7974181 ], [ -5.3902267, 40.7968071 ], [ -5.3899358, 40.7962997 ], [ -5.3898801, 40.7954091 ], [ -5.3894708, 40.7945709 ], [ -5.3891474, 40.7941453 ], [ -5.3885605, 40.793644 ], [ -5.3879334, 40.7933417 ], [ -5.3866491, 40.7928909 ], [ -5.3874159, 40.7924607 ], [ -5.3855535, 40.7907608 ], [ -5.3873079, 40.7897787 ], [ -5.3876913, 40.7895636 ], [ -5.388424, 40.7898367 ], [ -5.393356, 40.7925267 ], [ -5.3938035, 40.7927787 ], [ -5.393904, 40.7926055 ], [ -5.3941823, 40.7921043 ], [ -5.3947745, 40.7914344 ], [ -5.3951213, 40.791193 ], [ -5.3953721, 40.7909176 ], [ -5.3955155, 40.7899598 ], [ -5.3958838, 40.7889974 ], [ -5.3959033, 40.7882223 ], [ -5.395597, 40.7872829 ], [ -5.3955304, 40.7867529 ], [ -5.3941348, 40.7878177 ], [ -5.3931713, 40.7873873 ], [ -5.3921933, 40.7868852 ], [ -5.3911519, 40.7869248 ], [ -5.3908466, 40.7870032 ], [ -5.3897309, 40.7869542 ], [ -5.3898328, 40.7864927 ], [ -5.3887048, 40.7861017 ], [ -5.3889732, 40.7856548 ], [ -5.3879992, 40.7852607 ], [ -5.3890654, 40.7826084 ], [ -5.3892653, 40.7819017 ], [ -5.3901769, 40.778577 ], [ -5.3877842, 40.777942 ], [ -5.387827, 40.7761577 ], [ -5.3881039, 40.7756205 ], [ -5.3885623, 40.7751876 ], [ -5.3893745, 40.7740448 ], [ -5.3893394, 40.7733971 ], [ -5.3878018, 40.7731406 ], [ -5.3855686, 40.7716556 ], [ -5.3860192, 40.7696826 ], [ -5.3863979, 40.7690082 ], [ -5.3873691, 40.7680063 ], [ -5.3880126, 40.7674526 ], [ -5.3875112, 40.7673458 ], [ -5.3870623, 40.7670489 ], [ -5.3870231, 40.7666173 ], [ -5.3858871, 40.7673164 ], [ -5.3855893, 40.7676017 ], [ -5.3853687, 40.7680567 ], [ -5.3853086, 40.7683642 ], [ -5.3851608, 40.7685384 ], [ -5.3848578, 40.7686798 ], [ -5.3837951, 40.7684495 ], [ -5.3828928, 40.7680629 ], [ -5.3823808, 40.7676591 ], [ -5.3792235, 40.7688231 ], [ -5.3787003, 40.7684376 ], [ -5.3783665, 40.7680482 ], [ -5.3778039, 40.7675554 ], [ -5.3756991, 40.7660044 ], [ -5.3754601, 40.7659463 ], [ -5.3749021, 40.7655794 ], [ -5.3740024, 40.7659312 ], [ -5.373695, 40.7672796 ], [ -5.3727037, 40.7673901 ], [ -5.3717364, 40.7675091 ], [ -5.3711131, 40.7669724 ], [ -5.3709429, 40.7661833 ], [ -5.3693953, 40.7656386 ], [ -5.3673156, 40.7651229 ], [ -5.3656106, 40.7648155 ], [ -5.3647333, 40.7647975 ], [ -5.3636815, 40.7662062 ], [ -5.3627388, 40.7670182 ], [ -5.361284, 40.7667507 ], [ -5.3611051, 40.7667183 ], [ -5.362725, 40.7646225 ], [ -5.3622471, 40.7641729 ], [ -5.3613979, 40.7636137 ], [ -5.36092, 40.7631642 ], [ -5.3607172, 40.7624567 ], [ -5.3615031, 40.7619002 ], [ -5.3603669, 40.7602571 ], [ -5.3603263, 40.7597805 ], [ -5.3605388, 40.7594248 ], [ -5.3611116, 40.7588727 ], [ -5.3610556, 40.7586306 ], [ -5.360688, 40.7582868 ], [ -5.3605227, 40.7579659 ], [ -5.3607801, 40.7572041 ], [ -5.3604791, 40.7563995 ], [ -5.3595764, 40.7559947 ], [ -5.3576927, 40.75833 ], [ -5.3569518, 40.7594892 ], [ -5.3556021, 40.7605166 ], [ -5.3543366, 40.761245 ], [ -5.354, 40.761441 ], [ -5.352378, 40.7624739 ], [ -5.3504612, 40.7635489 ], [ -5.3491837, 40.7642775 ], [ -5.3482524, 40.7650801 ], [ -5.3478548, 40.7655656 ], [ -5.3472448, 40.7660734 ], [ -5.346829, 40.7660368 ], [ -5.3454566, 40.7660918 ], [ -5.3444867, 40.7671474 ], [ -5.3444524, 40.7671841 ], [ -5.3452152, 40.7679883 ], [ -5.3450497, 40.7683339 ], [ -5.3440142, 40.769544 ], [ -5.3414335, 40.7726409 ], [ -5.3376522, 40.7766449 ], [ -5.3371855, 40.7775281 ], [ -5.3363988, 40.7784088 ], [ -5.3350464, 40.7797153 ], [ -5.3335142, 40.7819801 ], [ -5.3332379, 40.7822109 ], [ -5.3324016, 40.7826962 ], [ -5.3322975, 40.7834459 ], [ -5.3307263, 40.7846036 ], [ -5.3287035, 40.786401 ], [ -5.3285101, 40.7876479 ], [ -5.3284746, 40.7886665 ], [ -5.3282288, 40.7897704 ], [ -5.3281157, 40.7909437 ], [ -5.3282049, 40.7921398 ], [ -5.3286222, 40.7928881 ], [ -5.3291699, 40.7933004 ], [ -5.3307239, 40.7946922 ], [ -5.3310584, 40.7951088 ], [ -5.3314305, 40.7955786 ], [ -5.3316666, 40.7975825 ], [ -5.3318984, 40.7981093 ], [ -5.3322263, 40.7983368 ], [ -5.3355203, 40.7993151 ], [ -5.3372702, 40.8002074 ], [ -5.3375446, 40.8009314 ], [ -5.3366248, 40.8017428 ], [ -5.3377966, 40.8027098 ], [ -5.3377819, 40.8029623 ], [ -5.3376601, 40.803208 ], [ -5.3359651, 40.8048997 ], [ -5.3366676, 40.8053269 ], [ -5.3405686, 40.8070403 ], [ -5.3418695, 40.8076264 ], [ -5.3428004, 40.8081389 ], [ -5.3433827, 40.8088567 ], [ -5.3444821, 40.8101134 ], [ -5.3449701, 40.8108421 ], [ -5.3452656, 40.8121602 ], [ -5.3455486, 40.8141361 ], [ -5.3457728, 40.8151133 ], [ -5.3459731, 40.8160911 ], [ -5.3447772, 40.8171423 ], [ -5.3466178, 40.8178975 ], [ -5.3481428, 40.8184429 ], [ -5.3500036, 40.8194319 ], [ -5.352849, 40.8214366 ], [ -5.3533014, 40.8218237 ], [ -5.3543436, 40.82246 ], [ -5.3548771, 40.8227913 ], [ -5.3556001, 40.8231189 ], [ -5.3567753, 40.8234912 ], [ -5.3593118, 40.8241329 ], [ -5.3602847, 40.824149 ] ] ] } }
]
}
