{
"type": "FeatureCollection",
"name": "37200",
"features": [
{ "type": "Feature", "properties": { "CCAA": "07 - Castilla y León", "PROVINCIA": "37 - Salamanca", "MUNICIPIO": "37200 - Montejo", "COD_MUNICIPIO": "37200", "DISTRITO": "01", "SECCION": "3720001001", "V1_H": 80.06, "V1_M": 86.09, "V2_H": 79.80248703, "V2_M": 86.14116428, "V3_H": 80.46064959, "V3_M": 86.17412372 }, "geometry": { "type": "Polygon", "coordinates": [ [ [ -5.5931767, 40.6856139 ], [ -5.5940175, 40.685631 ], [ -5.5944737, 40.6858009 ], [ -5.5948705, 40.6859631 ], [ -5.5948101, 40.686541 ], [ -5.59512, 40.6869032 ], [ -5.6018014, 40.6871041 ], [ -5.6023701, 40.6865147 ], [ -5.6028393, 40.6858016 ], [ -5.603076, 40.6851928 ], [ -5.6041059, 40.6852056 ], [ -5.605208, 40.6828207 ], [ -5.6051793, 40.682389 ], [ -5.6051573, 40.6821283 ], [ -5.6080292, 40.6817392 ], [ -5.6067198, 40.6791116 ], [ -5.6058805, 40.6779146 ], [ -5.6059115, 40.6777968 ], [ -5.6060003, 40.6773444 ], [ -5.606511, 40.6773959 ], [ -5.6068678, 40.6774419 ], [ -5.6075604, 40.6776064 ], [ -5.60771, 40.6778012 ], [ -5.6081969, 40.6784567 ], [ -5.6087794, 40.6788308 ], [ -5.6095325, 40.6787237 ], [ -5.6100387, 40.6786583 ], [ -5.6113416, 40.6783945 ], [ -5.6123466, 40.6780745 ], [ -5.6131933, 40.6776411 ], [ -5.6148172, 40.6780186 ], [ -5.6174896, 40.6764718 ], [ -5.6177558, 40.6763216 ], [ -5.6191277, 40.6772183 ], [ -5.6197087, 40.6778536 ], [ -5.6203453, 40.6783976 ], [ -5.6219926, 40.6790718 ], [ -5.6230661, 40.6786871 ], [ -5.6235292, 40.6784334 ], [ -5.6244447, 40.6779442 ], [ -5.624395, 40.6778822 ], [ -5.6239267, 40.6774064 ], [ -5.6238283, 40.6767061 ], [ -5.6240748, 40.676052 ], [ -5.6247273, 40.6754967 ], [ -5.6251455, 40.6750008 ], [ -5.6251868, 40.6742433 ], [ -5.6256172, 40.6731526 ], [ -5.6265361, 40.6727533 ], [ -5.6271897, 40.6722251 ], [ -5.6277222, 40.6716274 ], [ -5.6283055, 40.6705152 ], [ -5.628941, 40.6701314 ], [ -5.6294249, 40.669499 ], [ -5.629915, 40.6669206 ], [ -5.6299708, 40.6668383 ], [ -5.630283, 40.6663538 ], [ -5.6306676, 40.6656064 ], [ -5.6306662, 40.6649669 ], [ -5.6302227, 40.663617 ], [ -5.6312379, 40.6599548 ], [ -5.6312029, 40.6590639 ], [ -5.6307693, 40.6573624 ], [ -5.6339626, 40.6540559 ], [ -5.6351928, 40.6525596 ], [ -5.6419283, 40.6524146 ], [ -5.6427744, 40.6510801 ], [ -5.6456336, 40.6474207 ], [ -5.6487871, 40.6509062 ], [ -5.649318, 40.6517678 ], [ -5.6497098, 40.6527045 ], [ -5.6507496, 40.6523834 ], [ -5.6515428, 40.6518067 ], [ -5.6520789, 40.6516053 ], [ -5.6525615, 40.6515491 ], [ -5.6530012, 40.651602 ], [ -5.6537603, 40.6513594 ], [ -5.6542218, 40.6513668 ], [ -5.6548312, 40.6512267 ], [ -5.6568731, 40.6520174 ], [ -5.6582619, 40.652742 ], [ -5.6591763, 40.6534325 ], [ -5.6599454, 40.6543335 ], [ -5.6612599, 40.6534835 ], [ -5.6628256, 40.6533033 ], [ -5.6640237, 40.6530955 ], [ -5.6645031, 40.6532556 ], [ -5.6648447, 40.6535179 ], [ -5.6654063, 40.6542525 ], [ -5.6661825, 40.654739 ], [ -5.6669141, 40.6549923 ], [ -5.6678415, 40.655115 ], [ -5.6687828, 40.6549941 ], [ -5.6697298, 40.65472 ], [ -5.6701498, 40.6548724 ], [ -5.6711429, 40.655453 ], [ -5.6716309, 40.6555317 ], [ -5.6718965, 40.6553724 ], [ -5.6722061, 40.6542393 ], [ -5.6725319, 40.6535112 ], [ -5.6730534, 40.6529497 ], [ -5.6736889, 40.6525747 ], [ -5.6748625, 40.6520521 ], [ -5.675388, 40.6515895 ], [ -5.6760119, 40.6506293 ], [ -5.6761289, 40.6500051 ], [ -5.6760295, 40.6492958 ], [ -5.6749784, 40.645483 ], [ -5.6740801, 40.643126 ], [ -5.6738011, 40.6417633 ], [ -5.6735887, 40.6411827 ], [ -5.6732048, 40.640453 ], [ -5.67319, 40.6397868 ], [ -5.6731817, 40.6395799 ], [ -5.6730288, 40.6393041 ], [ -5.6712378, 40.6382738 ], [ -5.6722973, 40.6375647 ], [ -5.6728352, 40.6371199 ], [ -5.6730296, 40.6369532 ], [ -5.6748832, 40.635406 ], [ -5.6747138, 40.6347164 ], [ -5.6744792, 40.6338752 ], [ -5.6741029, 40.6336317 ], [ -5.6734429, 40.6333857 ], [ -5.6723031, 40.633268 ], [ -5.6716495, 40.6328869 ], [ -5.6701424, 40.6321561 ], [ -5.6669438, 40.6302124 ], [ -5.6660905, 40.6310518 ], [ -5.6648417, 40.6311617 ], [ -5.663009, 40.6320507 ], [ -5.6604415, 40.6331908 ], [ -5.6593301, 40.6334867 ], [ -5.6556928, 40.6338948 ], [ -5.6549397, 40.6339841 ], [ -5.6542431, 40.6343064 ], [ -5.653821, 40.6349916 ], [ -5.6534325, 40.6353339 ], [ -5.6529345, 40.6355975 ], [ -5.6519712, 40.6357548 ], [ -5.6515285, 40.6356208 ], [ -5.6509533, 40.6351296 ], [ -5.6490529, 40.6370018 ], [ -5.6471183, 40.635623 ], [ -5.6457874, 40.6345546 ], [ -5.6436407, 40.6334869 ], [ -5.6417572, 40.632197 ], [ -5.6404138, 40.6311108 ], [ -5.6398599, 40.630556 ], [ -5.6350137, 40.6266765 ], [ -5.634524, 40.6259491 ], [ -5.633927, 40.6251971 ], [ -5.6330581, 40.624145 ], [ -5.632604, 40.6234168 ], [ -5.632387, 40.6227101 ], [ -5.6327019, 40.6220004 ], [ -5.6316866, 40.6220325 ], [ -5.6311641, 40.6219724 ], [ -5.6305949, 40.621625 ], [ -5.6297401, 40.6212302 ], [ -5.6296338, 40.6212327 ], [ -5.6270716, 40.621309 ], [ -5.6255184, 40.6223982 ], [ -5.6213168, 40.6195483 ], [ -5.6209852, 40.6180246 ], [ -5.6186379, 40.6175464 ], [ -5.61754, 40.6169768 ], [ -5.6166395, 40.6160154 ], [ -5.6155438, 40.6154999 ], [ -5.6150914, 40.6151138 ], [ -5.6147774, 40.6143373 ], [ -5.6143521, 40.6146441 ], [ -5.6134929, 40.6150419 ], [ -5.6129556, 40.6152072 ], [ -5.6118147, 40.6153501 ], [ -5.6110551, 40.6155745 ], [ -5.6103508, 40.6160047 ], [ -5.609688, 40.6165872 ], [ -5.6088783, 40.6176504 ], [ -5.6084528, 40.617651 ], [ -5.6081397, 40.6175049 ], [ -5.608104, 40.6174967 ], [ -5.6077975, 40.6172154 ], [ -5.6068857, 40.617173 ], [ -5.6065964, 40.6173326 ], [ -5.6061214, 40.6178838 ], [ -5.6055921, 40.618256 ], [ -5.6046258, 40.6186382 ], [ -5.6027582, 40.6192478 ], [ -5.601993, 40.6193281 ], [ -5.601044, 40.6192414 ], [ -5.6004232, 40.6190842 ], [ -5.59999, 40.6188868 ], [ -5.5987392, 40.617726 ], [ -5.5977575, 40.6170995 ], [ -5.5947054, 40.6155109 ], [ -5.5920481, 40.6143456 ], [ -5.5916917, 40.6142995 ], [ -5.5902145, 40.6143056 ], [ -5.5895538, 40.6152573 ], [ -5.5883218, 40.6167171 ], [ -5.5890697, 40.6167994 ], [ -5.5893758, 40.6170718 ], [ -5.5892104, 40.6173817 ], [ -5.5889141, 40.6176676 ], [ -5.5880569, 40.6181192 ], [ -5.5876324, 40.6187592 ], [ -5.5875091, 40.6189331 ], [ -5.5876779, 40.6190194 ], [ -5.5884379, 40.6194167 ], [ -5.5887346, 40.6197523 ], [ -5.5889153, 40.6204508 ], [ -5.5890295, 40.6206555 ], [ -5.5894732, 40.621123 ], [ -5.5903497, 40.6217788 ], [ -5.5913908, 40.622413 ], [ -5.5923921, 40.622931 ], [ -5.5945151, 40.6243334 ], [ -5.5966381, 40.6266457 ], [ -5.5993884, 40.6292769 ], [ -5.5984875, 40.6298287 ], [ -5.5979856, 40.6302994 ], [ -5.5974139, 40.6311049 ], [ -5.5961923, 40.6328347 ], [ -5.5929097, 40.6356919 ], [ -5.5923594, 40.6361366 ], [ -5.5918833, 40.6363634 ], [ -5.5888115, 40.6370359 ], [ -5.5880867, 40.6372503 ], [ -5.587364, 40.6372125 ], [ -5.586383, 40.6369192 ], [ -5.5845655, 40.6360862 ], [ -5.5841774, 40.637365 ], [ -5.5835039, 40.6413613 ], [ -5.5834956, 40.6420641 ], [ -5.5836474, 40.6426281 ], [ -5.5839229, 40.6430273 ], [ -5.5845019, 40.6436268 ], [ -5.586525, 40.6448786 ], [ -5.5904857, 40.6463841 ], [ -5.5934056, 40.6478858 ], [ -5.5943346, 40.6486665 ], [ -5.5959856, 40.6503768 ], [ -5.5964702, 40.6509784 ], [ -5.5968877, 40.6516806 ], [ -5.5970648, 40.6522802 ], [ -5.5971389, 40.652972 ], [ -5.5965702, 40.6559933 ], [ -5.5965416, 40.6570839 ], [ -5.5966244, 40.6580008 ], [ -5.5969667, 40.6592 ], [ -5.5975428, 40.660331 ], [ -5.5985942, 40.6618206 ], [ -5.5999741, 40.6632397 ], [ -5.6006647, 40.6642689 ], [ -5.6008975, 40.6647772 ], [ -5.6011632, 40.665834 ], [ -5.6010012, 40.6668375 ], [ -5.6009918, 40.6669007 ], [ -5.6009576, 40.668757 ], [ -5.6010329, 40.6697822 ], [ -5.6010529, 40.6702952 ], [ -5.6010298, 40.6715297 ], [ -5.6004875, 40.6755322 ], [ -5.6005665, 40.6769536 ], [ -5.6003617, 40.6780751 ], [ -5.6000591, 40.6791178 ], [ -5.599494, 40.6804095 ], [ -5.5987548, 40.6814801 ], [ -5.5981381, 40.6820524 ], [ -5.5969137, 40.6828186 ], [ -5.5955661, 40.6834614 ], [ -5.5938177, 40.6847528 ], [ -5.5933759, 40.6852581 ], [ -5.5931767, 40.6856139 ] ] ] } }
]
}
