{
"type": "FeatureCollection",
"name": "37211",
"features": [
{ "type": "Feature", "properties": { "CCAA": "07 - Castilla y León", "PROVINCIA": "37 - Salamanca", "MUNICIPIO": "37211 - Narros de Matalayegua", "COD_MUNICIPIO": "37211", "DISTRITO": "01", "SECCION": "3721101001", "V1_H": 80.24, "V1_M": 86.29, "V2_H": 79.84273941, "V2_M": 86.47368807, "V3_H": 80.7355329, "V3_M": 86.23078999000001 }, "geometry": { "type": "MultiPolygon", "coordinates": [ [ [ [ -5.9063767, 40.731856 ], [ -5.9124012, 40.7434671 ], [ -5.9166838, 40.7466193 ], [ -5.9174905, 40.7474635 ], [ -5.9196983, 40.7486596 ], [ -5.9200646, 40.7489115 ], [ -5.9218845, 40.7501714 ], [ -5.9241082, 40.7517272 ], [ -5.9255137, 40.7524481 ], [ -5.9266348, 40.7512758 ], [ -5.9279364, 40.750171 ], [ -5.9284502, 40.7497346 ], [ -5.9296084, 40.7496781 ], [ -5.9305058, 40.7493491 ], [ -5.9313544, 40.7487151 ], [ -5.9320821, 40.7472194 ], [ -5.9324432, 40.7462735 ], [ -5.931902, 40.7455487 ], [ -5.9318618, 40.7449012 ], [ -5.9328273, 40.743967 ], [ -5.933997, 40.7430996 ], [ -5.9357557, 40.7416227 ], [ -5.9358637, 40.7411155 ], [ -5.9366332, 40.7405736 ], [ -5.9376536, 40.7403494 ], [ -5.9381924, 40.7399484 ], [ -5.9394102, 40.7380259 ], [ -5.940024, 40.737713 ], [ -5.9431322, 40.7383813 ], [ -5.9443459, 40.7385125 ], [ -5.9449381, 40.7385153 ], [ -5.9453244, 40.7384154 ], [ -5.9466925, 40.7382903 ], [ -5.9473339, 40.738337 ], [ -5.948192, 40.7387294 ], [ -5.9502814, 40.7399189 ], [ -5.9509148, 40.7405872 ], [ -5.9531352, 40.7409897 ], [ -5.9539902, 40.74131 ], [ -5.9547953, 40.7405058 ], [ -5.9573576, 40.7387378 ], [ -5.9581887, 40.737987 ], [ -5.9585011, 40.7375556 ], [ -5.9587212, 40.7369104 ], [ -5.9591044, 40.7362071 ], [ -5.9594735, 40.7357202 ], [ -5.9595515, 40.7356102 ], [ -5.9601136, 40.7351994 ], [ -5.9609956, 40.7347985 ], [ -5.9615347, 40.7344064 ], [ -5.9617478, 40.7341397 ], [ -5.9619829, 40.7335662 ], [ -5.9627393, 40.7327362 ], [ -5.963071, 40.7322053 ], [ -5.9633342, 40.731469 ], [ -5.9733202, 40.7281225 ], [ -5.9742341, 40.7279097 ], [ -5.9750914, 40.7277525 ], [ -5.9769947, 40.7274242 ], [ -5.9795308, 40.7248278 ], [ -5.979841, 40.7243514 ], [ -5.9786676, 40.7229947 ], [ -5.9772096, 40.7210959 ], [ -5.9759916, 40.7195332 ], [ -5.9732677, 40.7163159 ], [ -5.9720255, 40.7150059 ], [ -5.9658299, 40.7103647 ], [ -5.9634453, 40.7083725 ], [ -5.9615237, 40.7090794 ], [ -5.9593965, 40.707819 ], [ -5.9559301, 40.7059804 ], [ -5.9546467, 40.7061304 ], [ -5.9533679, 40.7063883 ], [ -5.952182, 40.706869 ], [ -5.9512558, 40.7076043 ], [ -5.9503942, 40.7081938 ], [ -5.9489923, 40.7088782 ], [ -5.9454534, 40.7064647 ], [ -5.9448573, 40.7058314 ], [ -5.9421869, 40.7037829 ], [ -5.9411807, 40.7032412 ], [ -5.9407405, 40.7029192 ], [ -5.9404074, 40.7023422 ], [ -5.9401542, 40.70143 ], [ -5.9402707, 40.7005803 ], [ -5.9406133, 40.6994908 ], [ -5.9412765, 40.6981589 ], [ -5.9397059, 40.6963525 ], [ -5.9398569, 40.6962856 ], [ -5.9427797, 40.6949411 ], [ -5.9411356, 40.6917315 ], [ -5.9406654, 40.6912661 ], [ -5.93991, 40.690772 ], [ -5.9390254, 40.6902992 ], [ -5.9386677, 40.689966 ], [ -5.9386406, 40.6888138 ], [ -5.9390481, 40.6870471 ], [ -5.9381322, 40.6853231 ], [ -5.9375772, 40.6856165 ], [ -5.9368225, 40.6864823 ], [ -5.9358386, 40.6853635 ], [ -5.9355079, 40.6848405 ], [ -5.935418, 40.6841403 ], [ -5.9343694, 40.684239 ], [ -5.933219, 40.683908 ], [ -5.9322191, 40.6832309 ], [ -5.9318303, 40.6827274 ], [ -5.931482, 40.6817995 ], [ -5.9309567, 40.6811553 ], [ -5.9281043, 40.6786968 ], [ -5.9246196, 40.6796319 ], [ -5.9240461, 40.6784215 ], [ -5.9237814, 40.6780499 ], [ -5.9231267, 40.6776882 ], [ -5.9219241, 40.6772413 ], [ -5.9216662, 40.6770227 ], [ -5.9208446, 40.6763589 ], [ -5.9219338, 40.6752956 ], [ -5.9218302, 40.6748208 ], [ -5.9218649, 40.6745317 ], [ -5.9221611, 40.674272 ], [ -5.9231329, 40.6743105 ], [ -5.9239963, 40.6737662 ], [ -5.9249984, 40.6734165 ], [ -5.9260307, 40.6732192 ], [ -5.9272376, 40.6705225 ], [ -5.9275267, 40.6695604 ], [ -5.9273861, 40.666889 ], [ -5.9273365, 40.6668362 ], [ -5.9271522, 40.6666787 ], [ -5.9264535, 40.6658498 ], [ -5.9263381, 40.6651051 ], [ -5.9265004, 40.6636779 ], [ -5.9262886, 40.6631609 ], [ -5.9257455, 40.6626433 ], [ -5.9239336, 40.6612391 ], [ -5.9234874, 40.660773 ], [ -5.9229467, 40.6597689 ], [ -5.9226613, 40.659461 ], [ -5.9210365, 40.6585474 ], [ -5.920848, 40.6577505 ], [ -5.9185456, 40.651603 ], [ -5.9174852, 40.6514226 ], [ -5.9163689, 40.6513158 ], [ -5.9157306, 40.6513229 ], [ -5.9143851, 40.6516542 ], [ -5.9136326, 40.6517543 ], [ -5.9130487, 40.6516518 ], [ -5.9124333, 40.6513702 ], [ -5.9119967, 40.6508498 ], [ -5.9103712, 40.6496389 ], [ -5.9098172, 40.6494096 ], [ -5.909053, 40.6492397 ], [ -5.9077702, 40.64911 ], [ -5.9068942, 40.649087 ], [ -5.9049072, 40.6493532 ], [ -5.902668, 40.6492565 ], [ -5.9013841, 40.6490997 ], [ -5.9013368, 40.6491008 ], [ -5.9006927, 40.6489729 ], [ -5.8999475, 40.6486945 ], [ -5.8986448, 40.6481057 ], [ -5.8975896, 40.6480421 ], [ -5.8955971, 40.6476327 ], [ -5.8947924, 40.6473467 ], [ -5.8941759, 40.647038 ], [ -5.8935765, 40.6465757 ], [ -5.8930578, 40.6460663 ], [ -5.8915323, 40.6449696 ], [ -5.8904, 40.645034 ], [ -5.8897835, 40.6449954 ], [ -5.8891989, 40.6446047 ], [ -5.8867166, 40.6451713 ], [ -5.8863906, 40.6450173 ], [ -5.885789, 40.6455998 ], [ -5.8872284, 40.6477165 ], [ -5.8874525, 40.6482513 ], [ -5.8874086, 40.6491531 ], [ -5.8871589, 40.6499429 ], [ -5.8876509, 40.6528489 ], [ -5.8876064, 40.6534625 ], [ -5.8874, 40.6541612 ], [ -5.8870575, 40.6547192 ], [ -5.8865122, 40.6557866 ], [ -5.8864023, 40.6570774 ], [ -5.8861781, 40.6573622 ], [ -5.8853188, 40.6580052 ], [ -5.8848197, 40.6582248 ], [ -5.8848149, 40.659486 ], [ -5.882789, 40.6596807 ], [ -5.8809109, 40.6602861 ], [ -5.8803267, 40.6599043 ], [ -5.8798464, 40.6597362 ], [ -5.8790229, 40.6598378 ], [ -5.8748795, 40.6608508 ], [ -5.8739482, 40.6611983 ], [ -5.8712361, 40.66277 ], [ -5.8701866, 40.6631204 ], [ -5.8695148, 40.6631731 ], [ -5.8688606, 40.6630904 ], [ -5.8677273, 40.6634158 ], [ -5.8665816, 40.6634532 ], [ -5.8657369, 40.6633391 ], [ -5.8647914, 40.6636328 ], [ -5.8644766, 40.6637397 ], [ -5.8638433, 40.6641428 ], [ -5.8644797, 40.6662977 ], [ -5.8647033, 40.6668235 ], [ -5.8650276, 40.667491 ], [ -5.8654778, 40.6683355 ], [ -5.8652125, 40.6690446 ], [ -5.864828, 40.6694595 ], [ -5.8625867, 40.6712625 ], [ -5.8605077, 40.6721607 ], [ -5.8595335, 40.6737251 ], [ -5.8584756, 40.6774802 ], [ -5.8585246, 40.6780735 ], [ -5.8590813, 40.6791945 ], [ -5.8604088, 40.6811882 ], [ -5.8605107, 40.6813568 ], [ -5.86101, 40.6819659 ], [ -5.8630991, 40.6840578 ], [ -5.8632766, 40.6851612 ], [ -5.8640645, 40.6880869 ], [ -5.8634422, 40.6887509 ], [ -5.8622964, 40.6887974 ], [ -5.8616836, 40.6885783 ], [ -5.8582744, 40.6866093 ], [ -5.8576712, 40.6866153 ], [ -5.8543656, 40.6870664 ], [ -5.8537224, 40.6869653 ], [ -5.8521159, 40.6864736 ], [ -5.8495953, 40.6867431 ], [ -5.8484121, 40.6867453 ], [ -5.8458975, 40.6866002 ], [ -5.845337, 40.6864969 ], [ -5.8449317, 40.6864258 ], [ -5.8439613, 40.6861435 ], [ -5.8430949, 40.6858046 ], [ -5.8404471, 40.6841945 ], [ -5.8396128, 40.6834945 ], [ -5.8385893, 40.6822407 ], [ -5.8376952, 40.6809657 ], [ -5.8371102, 40.6800073 ], [ -5.836644, 40.679055 ], [ -5.8343446, 40.6789584 ], [ -5.8335829, 40.678851 ], [ -5.8333416, 40.6784607 ], [ -5.8328285, 40.6783561 ], [ -5.8310347, 40.6781841 ], [ -5.8305757, 40.6779611 ], [ -5.8301235, 40.677621 ], [ -5.8295064, 40.6770146 ], [ -5.8287332, 40.6766373 ], [ -5.8272286, 40.6757464 ], [ -5.826328, 40.6771105 ], [ -5.825621, 40.6788572 ], [ -5.8252121, 40.6809389 ], [ -5.8251254, 40.6822471 ], [ -5.8224079, 40.6837367 ], [ -5.8221988, 40.6841111 ], [ -5.8218911, 40.6849473 ], [ -5.8215732, 40.6863872 ], [ -5.8216478, 40.6873131 ], [ -5.8216604, 40.68761 ], [ -5.821844, 40.688317 ], [ -5.8226891, 40.6906742 ], [ -5.8228785, 40.6909578 ], [ -5.8232704, 40.6912725 ], [ -5.8250976, 40.6919483 ], [ -5.8262934, 40.6922433 ], [ -5.8264071, 40.6926909 ], [ -5.8264516, 40.6937436 ], [ -5.8263875, 40.6947449 ], [ -5.8261868, 40.6953173 ], [ -5.8256109, 40.6965293 ], [ -5.8273834, 40.6975848 ], [ -5.8270909, 40.701582 ], [ -5.8298639, 40.7019464 ], [ -5.8315145, 40.702077 ], [ -5.8338219, 40.7023446 ], [ -5.8348214, 40.7021939 ], [ -5.836075, 40.7018929 ], [ -5.8376455, 40.70153 ], [ -5.8386977, 40.7015041 ], [ -5.8396607, 40.7016065 ], [ -5.8432339, 40.7024192 ], [ -5.8493325, 40.7038899 ], [ -5.8501637, 40.7045089 ], [ -5.8510705, 40.7055133 ], [ -5.8515379, 40.7059251 ], [ -5.8522814, 40.7061498 ], [ -5.8529167, 40.70717 ], [ -5.8537136, 40.7086454 ], [ -5.8543659, 40.7100614 ], [ -5.8546854, 40.7106119 ], [ -5.8560665, 40.7116315 ], [ -5.8564692, 40.7124681 ], [ -5.8558042, 40.7140789 ], [ -5.8543687, 40.714835 ], [ -5.8538504, 40.7151721 ], [ -5.8535314, 40.7157384 ], [ -5.8535392, 40.7161976 ], [ -5.8543629, 40.7177444 ], [ -5.8553399, 40.7181706 ], [ -5.8571394, 40.7165138 ], [ -5.8590685, 40.7156733 ], [ -5.8624373, 40.7144549 ], [ -5.8654149, 40.7137774 ], [ -5.8680024, 40.7155956 ], [ -5.8759152, 40.7146239 ], [ -5.8771771, 40.7147906 ], [ -5.8780738, 40.7147231 ], [ -5.8796829, 40.7138813 ], [ -5.8804976, 40.7132845 ], [ -5.8820388, 40.711967 ], [ -5.883233, 40.7124866 ], [ -5.8845098, 40.7127249 ], [ -5.8846788, 40.7128017 ], [ -5.8852474, 40.7130848 ], [ -5.8867386, 40.7141733 ], [ -5.88773, 40.7146529 ], [ -5.889561, 40.7148412 ], [ -5.8912681, 40.7154469 ], [ -5.8927257, 40.716302 ], [ -5.8932434, 40.7156856 ], [ -5.895281, 40.7170845 ], [ -5.8956621, 40.7179576 ], [ -5.8964319, 40.7187849 ], [ -5.8973461, 40.7204823 ], [ -5.8968321, 40.721459 ], [ -5.8968611, 40.7218545 ], [ -5.8988602, 40.7223628 ], [ -5.9028221, 40.7249921 ], [ -5.9014663, 40.7267557 ], [ -5.9029511, 40.7282314 ], [ -5.9047347, 40.7292223 ], [ -5.9057145, 40.7299722 ], [ -5.9059793, 40.7303438 ], [ -5.9063767, 40.731856 ] ] ], [ [ [ -5.8737898, 40.7507588 ], [ -5.8746308, 40.7510351 ], [ -5.8755028, 40.7514817 ], [ -5.8765228, 40.7523389 ], [ -5.8789056, 40.7540358 ], [ -5.8802473, 40.7546598 ], [ -5.8819877, 40.7551928 ], [ -5.8826305, 40.7552668 ], [ -5.882976, 40.7553121 ], [ -5.8859868, 40.7550927 ], [ -5.8866568, 40.7544275 ], [ -5.8871341, 40.753686 ], [ -5.889362, 40.7501624 ], [ -5.8898158, 40.7494305 ], [ -5.8916025, 40.747206 ], [ -5.8934228, 40.7452148 ], [ -5.8942366, 40.744591 ], [ -5.894822, 40.7438918 ], [ -5.8954025, 40.7428054 ], [ -5.8957917, 40.740859 ], [ -5.8959241, 40.7362712 ], [ -5.8961477, 40.7340589 ], [ -5.8966266, 40.7322725 ], [ -5.8969901, 40.7313717 ], [ -5.8976848, 40.7301923 ], [ -5.8970211, 40.7299028 ], [ -5.8954173, 40.7289613 ], [ -5.8950686, 40.7285647 ], [ -5.8945078, 40.7265523 ], [ -5.8939032, 40.7254416 ], [ -5.8906957, 40.7265578 ], [ -5.8886009, 40.7265743 ], [ -5.8833579, 40.726066 ], [ -5.8832943, 40.7267882 ], [ -5.8810585, 40.7265558 ], [ -5.8807184, 40.7263572 ], [ -5.8778177, 40.7247093 ], [ -5.8771193, 40.726357 ], [ -5.8767355, 40.7270691 ], [ -5.8756367, 40.7279432 ], [ -5.8744113, 40.7280818 ], [ -5.8736368, 40.7285154 ], [ -5.8716873, 40.728609 ], [ -5.8709175, 40.7288804 ], [ -5.8698151, 40.729124 ], [ -5.8674336, 40.7290842 ], [ -5.8668078, 40.7296761 ], [ -5.8657288, 40.7315675 ], [ -5.8658202, 40.7320426 ], [ -5.8664958, 40.7359168 ], [ -5.8669077, 40.7369604 ], [ -5.866328, 40.7389023 ], [ -5.86648, 40.7405108 ], [ -5.8662118, 40.7433636 ], [ -5.8660632, 40.7498253 ], [ -5.8663851, 40.7501506 ], [ -5.8666956, 40.7504851 ], [ -5.8675812, 40.7501478 ], [ -5.8701098, 40.7491842 ], [ -5.8730811, 40.7497047 ], [ -5.8731833, 40.7501525 ], [ -5.8733047, 40.7507709 ], [ -5.8737898, 40.7507588 ] ] ] ] } }
]
}
