{
"type": "FeatureCollection",
"name": "37273",
"features": [
{ "type": "Feature", "properties": { "CCAA": "07 - Castilla y León", "PROVINCIA": "37 - Salamanca", "MUNICIPIO": "37273 - Sagrada, La", "COD_MUNICIPIO": "37273", "DISTRITO": "01", "SECCION": "3727301001", "V1_H": 79.47, "V1_M": 85.31, "V2_H": 79.34656828, "V2_M": 85.44731594, "V3_H": 79.76976452, "V3_M": 85.31663719 }, "geometry": { "type": "Polygon", "coordinates": [ [ [ -6.0459327, 40.781033 ], [ -6.0476859, 40.7820585 ], [ -6.050057, 40.7831216 ], [ -6.0512177, 40.7833701 ], [ -6.0524574, 40.7832742 ], [ -6.0534205, 40.7830866 ], [ -6.0550704, 40.7828898 ], [ -6.0567309, 40.7829268 ], [ -6.0577303, 40.7827562 ], [ -6.0581437, 40.7822138 ], [ -6.0595581, 40.7792131 ], [ -6.060158, 40.7786027 ], [ -6.0618162, 40.7783335 ], [ -6.0638537, 40.7783244 ], [ -6.0652533, 40.778098 ], [ -6.0675283, 40.7775872 ], [ -6.0680263, 40.7773398 ], [ -6.0688491, 40.7769396 ], [ -6.0694548, 40.7764551 ], [ -6.069881, 40.7756782 ], [ -6.0707642, 40.77479 ], [ -6.0720712, 40.7738456 ], [ -6.0731933, 40.7732572 ], [ -6.0745163, 40.7729157 ], [ -6.0755661, 40.7728156 ], [ -6.0771946, 40.7729343 ], [ -6.0782623, 40.7732211 ], [ -6.0814804, 40.7731261 ], [ -6.0826094, 40.773204 ], [ -6.0820927, 40.774839 ], [ -6.0830605, 40.7742457 ], [ -6.0849218, 40.7732502 ], [ -6.0857225, 40.7728865 ], [ -6.0873128, 40.7719252 ], [ -6.0898322, 40.7705608 ], [ -6.0904355, 40.7700312 ], [ -6.0940421, 40.7652961 ], [ -6.0954519, 40.7640243 ], [ -6.0972077, 40.7635719 ], [ -6.0990502, 40.7629459 ], [ -6.1024959, 40.7616463 ], [ -6.1056454, 40.7600934 ], [ -6.1071831, 40.7582687 ], [ -6.10827, 40.7574468 ], [ -6.1096896, 40.7561386 ], [ -6.1100932, 40.7553982 ], [ -6.1101152, 40.7553616 ], [ -6.1100853, 40.7547229 ], [ -6.1100143, 40.753707 ], [ -6.1101527, 40.7515958 ], [ -6.1101454, 40.7501729 ], [ -6.1101384, 40.75002 ], [ -6.1102172, 40.7489191 ], [ -6.1110664, 40.7470678 ], [ -6.1112758, 40.7464767 ], [ -6.1111724, 40.7460382 ], [ -6.1105014, 40.7451106 ], [ -6.1098621, 40.7446055 ], [ -6.1072923, 40.7430806 ], [ -6.1064829, 40.7422287 ], [ -6.1049257, 40.7408296 ], [ -6.1044751, 40.7405625 ], [ -6.1040287, 40.7403854 ], [ -6.1035502, 40.7402812 ], [ -6.1024287, 40.7406086 ], [ -6.101289, 40.7408014 ], [ -6.0986011, 40.7397838 ], [ -6.09713, 40.7397243 ], [ -6.094509, 40.7393804 ], [ -6.0936547, 40.7390881 ], [ -6.0918999, 40.7380183 ], [ -6.090034, 40.7373568 ], [ -6.0873654, 40.7362394 ], [ -6.085863, 40.7357572 ], [ -6.0847249, 40.7354725 ], [ -6.0827624, 40.7347684 ], [ -6.0847202, 40.7307621 ], [ -6.0855256, 40.7294886 ], [ -6.0855019, 40.7284625 ], [ -6.0855837, 40.7279289 ], [ -6.086073, 40.7269881 ], [ -6.0886763, 40.7251711 ], [ -6.0895885, 40.7244172 ], [ -6.0910131, 40.7232261 ], [ -6.0936751, 40.7216596 ], [ -6.0938535, 40.7214207 ], [ -6.0940567, 40.7204424 ], [ -6.0942454, 40.719915 ], [ -6.0954564, 40.7184595 ], [ -6.0944459, 40.7178561 ], [ -6.0935991, 40.7172123 ], [ -6.0937095, 40.7165249 ], [ -6.0912957, 40.7142478 ], [ -6.0908126, 40.7130179 ], [ -6.0903243, 40.7121844 ], [ -6.08938, 40.7112189 ], [ -6.090217, 40.7088457 ], [ -6.0902887, 40.7078351 ], [ -6.0910327, 40.7055004 ], [ -6.0912517, 40.7043507 ], [ -6.0914555, 40.7038949 ], [ -6.0917596, 40.7035625 ], [ -6.0923076, 40.7033857 ], [ -6.0957911, 40.7034724 ], [ -6.0965437, 40.7036234 ], [ -6.0959557, 40.6998743 ], [ -6.0960682, 40.6971963 ], [ -6.0964373, 40.6962227 ], [ -6.096907, 40.6956336 ], [ -6.1014759, 40.6933672 ], [ -6.1041978, 40.6918439 ], [ -6.1047598, 40.6912073 ], [ -6.1027392, 40.6907574 ], [ -6.0982971, 40.6898861 ], [ -6.0930852, 40.6889992 ], [ -6.090194, 40.6886534 ], [ -6.0886502, 40.6885326 ], [ -6.0825876, 40.6874069 ], [ -6.0800413, 40.6868444 ], [ -6.0783878, 40.6863932 ], [ -6.0699571, 40.6942376 ], [ -6.0676276, 40.6942726 ], [ -6.0675452, 40.6942838 ], [ -6.0642871, 40.6947126 ], [ -6.0634802, 40.6962112 ], [ -6.0623654, 40.6966731 ], [ -6.0628133, 40.6997325 ], [ -6.0618243, 40.700101 ], [ -6.0618504, 40.700929 ], [ -6.062385, 40.7027792 ], [ -6.062418, 40.7034989 ], [ -6.0618626, 40.7060985 ], [ -6.057607, 40.7062114 ], [ -6.0568298, 40.7065563 ], [ -6.0562038, 40.7068431 ], [ -6.049705, 40.7104467 ], [ -6.0485582, 40.7112516 ], [ -6.0477663, 40.7120561 ], [ -6.0477554, 40.7120744 ], [ -6.0440077, 40.7165867 ], [ -6.0427974, 40.7186001 ], [ -6.0410333, 40.7222314 ], [ -6.0401708, 40.7248661 ], [ -6.040235, 40.7254948 ], [ -6.0415477, 40.7280632 ], [ -6.0418852, 40.728973 ], [ -6.0413088, 40.7298348 ], [ -6.041635, 40.731015 ], [ -6.0419983, 40.7340498 ], [ -6.0387391, 40.735802 ], [ -6.0380933, 40.7364404 ], [ -6.0367417, 40.7400428 ], [ -6.0366803, 40.7412963 ], [ -6.0368436, 40.7420215 ], [ -6.0372917, 40.7432797 ], [ -6.0381705, 40.7461927 ], [ -6.0384101, 40.7470331 ], [ -6.0389233, 40.7491991 ], [ -6.0392669, 40.7497214 ], [ -6.0393931, 40.7501505 ], [ -6.0394645, 40.7504188 ], [ -6.0396182, 40.7514505 ], [ -6.0404556, 40.7531937 ], [ -6.0402278, 40.7539113 ], [ -6.0402859, 40.7546663 ], [ -6.0404403, 40.7551936 ], [ -6.0407158, 40.7557808 ], [ -6.0412728, 40.7563066 ], [ -6.0432455, 40.7574884 ], [ -6.0446887, 40.7584861 ], [ -6.0451434, 40.7591045 ], [ -6.0452843, 40.7595962 ], [ -6.0452071, 40.7602377 ], [ -6.0446908, 40.7608638 ], [ -6.0439231, 40.7611723 ], [ -6.0430966, 40.7612301 ], [ -6.040709, 40.7608248 ], [ -6.0394945, 40.7609469 ], [ -6.0381982, 40.7618727 ], [ -6.04131, 40.7654294 ], [ -6.0425935, 40.7662961 ], [ -6.0431718, 40.7670284 ], [ -6.0436328, 40.7680431 ], [ -6.0439243, 40.7687199 ], [ -6.0445049, 40.7697583 ], [ -6.0454737, 40.7712549 ], [ -6.0462914, 40.772296 ], [ -6.0467103, 40.7731676 ], [ -6.0467943, 40.773967 ], [ -6.046735, 40.7747431 ], [ -6.0468535, 40.7773339 ], [ -6.0472728, 40.7789891 ], [ -6.0475188, 40.7807389 ], [ -6.0459327, 40.781033 ] ] ] } }
]
}
