{
"type": "FeatureCollection",
"name": "37287",
"features": [
{ "type": "Feature", "properties": { "CCAA": "07 - Castilla y León", "PROVINCIA": "37 - Salamanca", "MUNICIPIO": "37287 - San Miguel de Valero", "COD_MUNICIPIO": "37287", "DISTRITO": "01", "SECCION": "3728701001", "V1_H": 79.94, "V1_M": 85.93, "V2_H": 80.18978947, "V2_M": 86.02067046000001, "V3_H": 79.89390484, "V3_M": 85.97042077 }, "geometry": { "type": "Polygon", "coordinates": [ [ [ -5.9764085, 40.5829421 ], [ -5.9776872, 40.5830082 ], [ -5.9812529, 40.5834926 ], [ -5.9825369, 40.5836755 ], [ -5.9830577, 40.5836981 ], [ -5.9890894, 40.5851723 ], [ -5.9902372, 40.5852146 ], [ -5.9926795, 40.5851423 ], [ -5.9944931, 40.5850142 ], [ -5.9960064, 40.585038 ], [ -5.9973133, 40.5852022 ], [ -6.0010315, 40.5853938 ], [ -6.0027286, 40.5855657 ], [ -6.0083407, 40.5863653 ], [ -6.0095378, 40.5864512 ], [ -6.0085041, 40.5844786 ], [ -6.0085859, 40.5836659 ], [ -6.0085655, 40.5834772 ], [ -6.0083544, 40.5821948 ], [ -6.0082252, 40.5806309 ], [ -6.0089327, 40.5798109 ], [ -6.0084239, 40.5782119 ], [ -6.0084798, 40.577616 ], [ -6.0082162, 40.576479 ], [ -6.0072216, 40.5743163 ], [ -6.0074465, 40.5735358 ], [ -6.0074543, 40.5734455 ], [ -6.0074718, 40.57331 ], [ -6.0077718, 40.5697264 ], [ -6.0076026, 40.5646329 ], [ -6.0064381, 40.5644741 ], [ -6.0077385, 40.5623957 ], [ -6.0077711, 40.5623318 ], [ -6.0085145, 40.5607362 ], [ -6.0085835, 40.5599058 ], [ -6.0080271, 40.5588214 ], [ -6.0074767, 40.5581332 ], [ -6.006847, 40.5564654 ], [ -6.006434, 40.5559447 ], [ -6.0058416, 40.5553747 ], [ -6.0049536, 40.5547944 ], [ -6.0035242, 40.5542551 ], [ -6.002471, 40.5539403 ], [ -6.0009893, 40.5532853 ], [ -6.0007767, 40.5530206 ], [ -6.0005257, 40.5524236 ], [ -6.0002162, 40.5523686 ], [ -5.998905, 40.5523576 ], [ -5.997955, 40.5522382 ], [ -5.9968294, 40.5518892 ], [ -5.9955164, 40.551572 ], [ -5.9934872, 40.5513454 ], [ -5.9918229, 40.5513615 ], [ -5.9867219, 40.5510974 ], [ -5.986028, 40.5511604 ], [ -5.9805765, 40.5523101 ], [ -5.9803666, 40.5523695 ], [ -5.9798536, 40.5525179 ], [ -5.9775353, 40.5540278 ], [ -5.9769183, 40.5544941 ], [ -5.9774425, 40.555129 ], [ -5.9783428, 40.5557273 ], [ -5.9788548, 40.5558222 ], [ -5.9804349, 40.5557723 ], [ -5.980814, 40.5557986 ], [ -5.9812678, 40.555913 ], [ -5.9825689, 40.5564918 ], [ -5.9830802, 40.5565687 ], [ -5.9839052, 40.5567995 ], [ -5.9854292, 40.5573456 ], [ -5.9861552, 40.5574709 ], [ -5.9881598, 40.5576712 ], [ -5.9889878, 40.5579651 ], [ -5.9944786, 40.5603357 ], [ -5.9953885, 40.5608795 ], [ -5.9853814, 40.5647685 ], [ -5.9849341, 40.5650683 ], [ -5.9839024, 40.5641763 ], [ -5.9829365, 40.5623728 ], [ -5.981879, 40.5622291 ], [ -5.9811633, 40.5620674 ], [ -5.9797551, 40.5614733 ], [ -5.9791623, 40.5611553 ], [ -5.9783924, 40.5605717 ], [ -5.9750569, 40.5663141 ], [ -5.9724353, 40.5681921 ], [ -5.9711003, 40.5692532 ], [ -5.9697656, 40.5692516 ], [ -5.9681312, 40.5691495 ], [ -5.9659615, 40.5692323 ], [ -5.9654448, 40.5692996 ], [ -5.9644033, 40.5697857 ], [ -5.9640537, 40.5698938 ], [ -5.9634882, 40.5699263 ], [ -5.9609787, 40.5698015 ], [ -5.9603832, 40.5696908 ], [ -5.9599746, 40.5695301 ], [ -5.9583268, 40.5685906 ], [ -5.9570505, 40.5680378 ], [ -5.9560809, 40.5674772 ], [ -5.9550825, 40.5665301 ], [ -5.9547796, 40.5663576 ], [ -5.9540325, 40.5662867 ], [ -5.9534771, 40.5662829 ], [ -5.9530355, 40.5661771 ], [ -5.9514969, 40.5655679 ], [ -5.9514965, 40.5652888 ], [ -5.9517488, 40.56485 ], [ -5.9521137, 40.5645524 ], [ -5.9527749, 40.5637429 ], [ -5.953987, 40.5617664 ], [ -5.9547021, 40.5611086 ], [ -5.9578582, 40.5590282 ], [ -5.9625955, 40.5561236 ], [ -5.9621376, 40.5545771 ], [ -5.96142, 40.5546405 ], [ -5.9512623, 40.554054 ], [ -5.9493633, 40.5541026 ], [ -5.9478857, 40.5540683 ], [ -5.9476526, 40.5541373 ], [ -5.9476252, 40.5545883 ], [ -5.9472813, 40.5553627 ], [ -5.9467626, 40.5569972 ], [ -5.9454443, 40.5600572 ], [ -5.9452761, 40.5605299 ], [ -5.9437611, 40.5588392 ], [ -5.9435177, 40.558404 ], [ -5.9423682, 40.5575056 ], [ -5.9401788, 40.5560482 ], [ -5.9401299, 40.555473 ], [ -5.9399396, 40.5549014 ], [ -5.939624, 40.5520092 ], [ -5.9396959, 40.5506833 ], [ -5.939931, 40.5498487 ], [ -5.941074, 40.5476399 ], [ -5.940375, 40.5473154 ], [ -5.9391649, 40.5469139 ], [ -5.9391609, 40.5454729 ], [ -5.9387657, 40.5439968 ], [ -5.9384838, 40.5434906 ], [ -5.9370716, 40.5422475 ], [ -5.9368916, 40.5419099 ], [ -5.9363443, 40.5385731 ], [ -5.9353863, 40.5385345 ], [ -5.9345294, 40.5386464 ], [ -5.9337825, 40.5388455 ], [ -5.9321311, 40.5394188 ], [ -5.9316397, 40.5395214 ], [ -5.9310226, 40.539447 ], [ -5.930769, 40.5393183 ], [ -5.9284338, 40.5374771 ], [ -5.9274122, 40.5373319 ], [ -5.9292111, 40.5358091 ], [ -5.9304459, 40.534886 ], [ -5.9312312, 40.5344878 ], [ -5.9315602, 40.5344524 ], [ -5.9343486, 40.5350481 ], [ -5.9360384, 40.5353564 ], [ -5.9361627, 40.5352272 ], [ -5.9358797, 40.5314514 ], [ -5.9357582, 40.5305628 ], [ -5.9351113, 40.528994 ], [ -5.9344962, 40.528154 ], [ -5.9328132, 40.527188 ], [ -5.9317529, 40.5264223 ], [ -5.9303373, 40.5256296 ], [ -5.9296468, 40.525494 ], [ -5.9286513, 40.5254022 ], [ -5.9281502, 40.5252797 ], [ -5.9270594, 40.523542 ], [ -5.9275531, 40.5226829 ], [ -5.9313154, 40.5180118 ], [ -5.9299332, 40.5182541 ], [ -5.9277561, 40.5189398 ], [ -5.9274909, 40.518271 ], [ -5.9272014, 40.5170444 ], [ -5.9267332, 40.515507 ], [ -5.9247458, 40.5102432 ], [ -5.9235506, 40.5115254 ], [ -5.9206004, 40.5136987 ], [ -5.9164763, 40.5165681 ], [ -5.915156, 40.5174212 ], [ -5.9142544, 40.5178582 ], [ -5.9130909, 40.5185181 ], [ -5.9123999, 40.5189138 ], [ -5.9115743, 40.5189257 ], [ -5.9085556, 40.5184433 ], [ -5.90822, 40.5183256 ], [ -5.9069998, 40.5174016 ], [ -5.9064235, 40.517173 ], [ -5.9042155, 40.5168772 ], [ -5.9035309, 40.5168764 ], [ -5.9025319, 40.5169736 ], [ -5.901435, 40.5172624 ], [ -5.8978793, 40.5180092 ], [ -5.895487, 40.5164479 ], [ -5.8940832, 40.5159157 ], [ -5.8937417, 40.5159332 ], [ -5.8998015, 40.5228968 ], [ -5.9005065, 40.5244643 ], [ -5.9005788, 40.525048 ], [ -5.900268, 40.5279651 ], [ -5.899844, 40.5307229 ], [ -5.8998534, 40.5314882 ], [ -5.9007875, 40.5372653 ], [ -5.9009182, 40.5375593 ], [ -5.9016578, 40.5393781 ], [ -5.9001116, 40.5426685 ], [ -5.8981996, 40.5445991 ], [ -5.8966211, 40.5460528 ], [ -5.8961486, 40.546596 ], [ -5.8957618, 40.5472092 ], [ -5.8924729, 40.5550107 ], [ -5.8951417, 40.5574748 ], [ -5.8958994, 40.5580683 ], [ -5.896739, 40.5586417 ], [ -5.8975916, 40.5592418 ], [ -5.8990361, 40.5604215 ], [ -5.9025665, 40.5612244 ], [ -5.9076735, 40.5627082 ], [ -5.9091171, 40.5630411 ], [ -5.9106615, 40.5635246 ], [ -5.9113954, 40.5632899 ], [ -5.9152656, 40.5623906 ], [ -5.9159821, 40.5623005 ], [ -5.9166435, 40.5623017 ], [ -5.9176568, 40.5625193 ], [ -5.9186885, 40.5628895 ], [ -5.9194818, 40.5626623 ], [ -5.9199981, 40.5628564 ], [ -5.9227262, 40.5642104 ], [ -5.9243093, 40.5647649 ], [ -5.9308343, 40.5675987 ], [ -5.9328262, 40.5669626 ], [ -5.9364831, 40.5663202 ], [ -5.9381977, 40.5660964 ], [ -5.9408643, 40.5654971 ], [ -5.9438643, 40.5649613 ], [ -5.9461762, 40.5646231 ], [ -5.9487214, 40.5655668 ], [ -5.9509408, 40.566618 ], [ -5.9531961, 40.5679474 ], [ -5.9551716, 40.5696262 ], [ -5.9564197, 40.5703418 ], [ -5.9595104, 40.5723972 ], [ -5.9605883, 40.573 ], [ -5.9622431, 40.5735611 ], [ -5.9646531, 40.5741026 ], [ -5.9654791, 40.5743516 ], [ -5.9662521, 40.5747371 ], [ -5.967007, 40.5749788 ], [ -5.9696094, 40.5755964 ], [ -5.9692255, 40.5762638 ], [ -5.9681116, 40.5791207 ], [ -5.9707443, 40.5814848 ], [ -5.9712535, 40.5820481 ], [ -5.9720823, 40.5826212 ], [ -5.973501, 40.5831791 ], [ -5.974001, 40.5832653 ], [ -5.9744498, 40.5832628 ], [ -5.9748132, 40.5831994 ], [ -5.9764085, 40.5829421 ] ] ] } }
]
}
