{
"type": "FeatureCollection",
"name": "37315",
"features": [
{ "type": "Feature", "properties": { "CCAA": "07 - Castilla y León", "PROVINCIA": "37 - Salamanca", "MUNICIPIO": "37315 - Tala, La", "COD_MUNICIPIO": "37315", "DISTRITO": "01", "SECCION": "3731501001", "V1_H": 75.48, "V1_M": 82.31, "V2_H": 75.36985678000001, "V2_M": 82.56533706, "V3_H": 75.8600571, "V3_M": 82.01450712 }, "geometry": { "type": "Polygon", "coordinates": [ [ [ -5.510077, 40.5903687 ], [ -5.5100867, 40.5912602 ], [ -5.5083316, 40.5914065 ], [ -5.5068697, 40.5949692 ], [ -5.5068261, 40.5950693 ], [ -5.5064075, 40.5952494 ], [ -5.5044652, 40.5960843 ], [ -5.5023944, 40.5972732 ], [ -5.5020435, 40.5976861 ], [ -5.5020104, 40.5977499 ], [ -5.5016567, 40.598406 ], [ -5.501491, 40.5987159 ], [ -5.5039579, 40.6002207 ], [ -5.5045826, 40.6039723 ], [ -5.5053801, 40.6072878 ], [ -5.5053933, 40.6101699 ], [ -5.5052891, 40.6127574 ], [ -5.5054136, 40.6129258 ], [ -5.5057497, 40.6130626 ], [ -5.5062011, 40.6131249 ], [ -5.5070335, 40.6132599 ], [ -5.5073052, 40.613254 ], [ -5.5077591, 40.613064 ], [ -5.5084252, 40.6125451 ], [ -5.5086665, 40.6123597 ], [ -5.5097216, 40.6121296 ], [ -5.5107622, 40.612143 ], [ -5.5116952, 40.612438 ], [ -5.5124416, 40.6128001 ], [ -5.5129599, 40.613068 ], [ -5.5141241, 40.6132228 ], [ -5.5149734, 40.6131773 ], [ -5.5165347, 40.6128911 ], [ -5.5179435, 40.6129504 ], [ -5.5209942, 40.6129829 ], [ -5.5210182, 40.6129914 ], [ -5.5227329, 40.6127017 ], [ -5.5232041, 40.6129707 ], [ -5.5236229, 40.6134209 ], [ -5.5242152, 40.6140835 ], [ -5.5250549, 40.615038 ], [ -5.5253289, 40.615095 ], [ -5.5266281, 40.6153818 ], [ -5.5276922, 40.6141335 ], [ -5.5284462, 40.6134414 ], [ -5.5293311, 40.6127736 ], [ -5.5298284, 40.6124834 ], [ -5.5305724, 40.6121518 ], [ -5.5336932, 40.6090388 ], [ -5.5400019, 40.6042883 ], [ -5.5421932, 40.6050417 ], [ -5.5449637, 40.6026838 ], [ -5.5448863, 40.6015776 ], [ -5.5464577, 40.6006332 ], [ -5.5508105, 40.5985644 ], [ -5.5507351, 40.5981337 ], [ -5.5511859, 40.5978716 ], [ -5.5487243, 40.5940437 ], [ -5.5487704, 40.5937004 ], [ -5.5491, 40.5933598 ], [ -5.5504629, 40.5922219 ], [ -5.5499729, 40.5917643 ], [ -5.54943, 40.59147 ], [ -5.5477428, 40.5902912 ], [ -5.5475459, 40.5897732 ], [ -5.5472441, 40.5892934 ], [ -5.5463964, 40.5884383 ], [ -5.5461556, 40.5880113 ], [ -5.5459574, 40.5874572 ], [ -5.5448562, 40.5861484 ], [ -5.5443811, 40.5851501 ], [ -5.5439004, 40.5843139 ], [ -5.5437057, 40.5832283 ], [ -5.5433559, 40.5830378 ], [ -5.5430016, 40.5827304 ], [ -5.5428926, 40.5823454 ], [ -5.5424685, 40.581445 ], [ -5.5422185, 40.5810812 ], [ -5.5421121, 40.5807683 ], [ -5.54212, 40.5803538 ], [ -5.5424014, 40.5790505 ], [ -5.5423083, 40.5781518 ], [ -5.5421746, 40.5777404 ], [ -5.5419259, 40.5774126 ], [ -5.5414966, 40.577305 ], [ -5.5405139, 40.576624 ], [ -5.5400516, 40.5759586 ], [ -5.5395135, 40.575475 ], [ -5.5394442, 40.5733328 ], [ -5.5392957, 40.5728406 ], [ -5.5389884, 40.5725231 ], [ -5.5375013, 40.571619 ], [ -5.5365702, 40.5707388 ], [ -5.5359058, 40.570348 ], [ -5.5350694, 40.5700961 ], [ -5.5344252, 40.5696149 ], [ -5.5336488, 40.5700102 ], [ -5.5294762, 40.5721284 ], [ -5.5290069, 40.5728413 ], [ -5.5287118, 40.5740998 ], [ -5.5284957, 40.574636 ], [ -5.5279447, 40.5750624 ], [ -5.5268598, 40.5754284 ], [ -5.5257811, 40.5759564 ], [ -5.5244984, 40.5767141 ], [ -5.5234863, 40.5771326 ], [ -5.5227356, 40.5772751 ], [ -5.5210116, 40.5772948 ], [ -5.5199753, 40.5776957 ], [ -5.5167943, 40.5772967 ], [ -5.517415, 40.5809312 ], [ -5.517324, 40.5829148 ], [ -5.5171088, 40.583478 ], [ -5.5169038, 40.5839959 ], [ -5.5162232, 40.5853799 ], [ -5.5132053, 40.5868238 ], [ -5.5124839, 40.5877492 ], [ -5.510077, 40.5903687 ] ] ] } }
]
}
