{
"type": "FeatureCollection",
"name": "37345",
"features": [
{ "type": "Feature", "properties": { "CCAA": "07 - Castilla y León", "PROVINCIA": "37 - Salamanca", "MUNICIPIO": "37345 - Vega de Tirados", "COD_MUNICIPIO": "37345", "DISTRITO": "01", "SECCION": "3734501001", "V1_H": 81.04, "V1_M": 86.55, "V2_H": 80.90626992, "V2_M": 86.32523903000001, "V3_H": 81.22678782, "V3_M": 86.81274177 }, "geometry": { "type": "Polygon", "coordinates": [ [ [ -5.8850226, 41.0655003 ], [ -5.8861425, 41.0663458 ], [ -5.8867082, 41.0670341 ], [ -5.8877931, 41.0687092 ], [ -5.8889258, 41.0695725 ], [ -5.889431, 41.0696948 ], [ -5.8904898, 41.0696862 ], [ -5.8911024, 41.0695448 ], [ -5.8949092, 41.0700525 ], [ -5.8995013, 41.071369 ], [ -5.8997767, 41.0714071 ], [ -5.9012151, 41.0716411 ], [ -5.9021515, 41.0720948 ], [ -5.9066204, 41.0770888 ], [ -5.9069926, 41.0777009 ], [ -5.9071052, 41.0780943 ], [ -5.9070759, 41.0787795 ], [ -5.9064794, 41.0811814 ], [ -5.9063314, 41.0834908 ], [ -5.9062953, 41.084023 ], [ -5.9063924, 41.0851464 ], [ -5.9065617, 41.0857456 ], [ -5.9068673, 41.0861972 ], [ -5.9093479, 41.0884583 ], [ -5.9113889, 41.0888479 ], [ -5.9139581, 41.0882606 ], [ -5.9153076, 41.0872807 ], [ -5.915919, 41.0865717 ], [ -5.9178303, 41.083497 ], [ -5.9192749, 41.0811727 ], [ -5.9184341, 41.0810049 ], [ -5.9182666, 41.0809821 ], [ -5.9170859, 41.080931 ], [ -5.9156719, 41.0809849 ], [ -5.9145275, 41.0795998 ], [ -5.9138726, 41.079058 ], [ -5.9124722, 41.0769949 ], [ -5.9126611, 41.0758823 ], [ -5.9135489, 41.0741576 ], [ -5.9165113, 41.0727856 ], [ -5.9205706, 41.0687739 ], [ -5.9212632, 41.0688283 ], [ -5.923208, 41.0675991 ], [ -5.922783, 41.0666011 ], [ -5.9222619, 41.064777 ], [ -5.921588, 41.063263 ], [ -5.9198502, 41.0619111 ], [ -5.9190017, 41.0604825 ], [ -5.9188871, 41.0603143 ], [ -5.9188859, 41.058405 ], [ -5.9198886, 41.0582084 ], [ -5.9212167, 41.0581027 ], [ -5.9214064, 41.0580888 ], [ -5.921364, 41.0579368 ], [ -5.9208977, 41.0565436 ], [ -5.9225131, 41.055674 ], [ -5.9225044, 41.0554761 ], [ -5.9200713, 41.0548083 ], [ -5.9203999, 41.0536291 ], [ -5.9220544, 41.0496152 ], [ -5.9172627, 41.0491423 ], [ -5.9175818, 41.0458648 ], [ -5.9172498, 41.0453509 ], [ -5.9177773, 41.0449052 ], [ -5.9178969, 41.0449201 ], [ -5.9201069, 41.0453955 ], [ -5.9237104, 41.0459074 ], [ -5.9257383, 41.0465674 ], [ -5.9304862, 41.0436456 ], [ -5.9292766, 41.0426587 ], [ -5.9274254, 41.041688 ], [ -5.9268208, 41.041199 ], [ -5.9263049, 41.0405637 ], [ -5.9258487, 41.0407374 ], [ -5.9241834, 41.0388613 ], [ -5.9244901, 41.0363857 ], [ -5.9238561, 41.0352309 ], [ -5.9235095, 41.0335825 ], [ -5.9235134, 41.0328619 ], [ -5.9236723, 41.0321553 ], [ -5.9239858, 41.0314448 ], [ -5.9235846, 41.0312479 ], [ -5.9229407, 41.0314804 ], [ -5.9224859, 41.0308795 ], [ -5.9214627, 41.0311396 ], [ -5.9208427, 41.0302997 ], [ -5.9206795, 41.0301057 ], [ -5.9184553, 41.0290272 ], [ -5.9221431, 41.026628 ], [ -5.9231896, 41.0255477 ], [ -5.9241807, 41.0256396 ], [ -5.9272352, 41.0263996 ], [ -5.9303436, 41.0248884 ], [ -5.9309022, 41.024613 ], [ -5.9304269, 41.0240847 ], [ -5.930128, 41.0232457 ], [ -5.9286908, 41.0200669 ], [ -5.9277631, 41.0189917 ], [ -5.9267392, 41.0176217 ], [ -5.925452, 41.0162134 ], [ -5.9249359, 41.016911 ], [ -5.9249133, 41.0169386 ], [ -5.9254417, 41.0175916 ], [ -5.9249061, 41.0181186 ], [ -5.924677, 41.0185838 ], [ -5.9225355, 41.0174853 ], [ -5.9216735, 41.0173541 ], [ -5.9203814, 41.0163691 ], [ -5.9169131, 41.0143044 ], [ -5.9167031, 41.0138595 ], [ -5.9148067, 41.0142678 ], [ -5.9143427, 41.0139913 ], [ -5.9139543, 41.0143524 ], [ -5.9124834, 41.0130836 ], [ -5.9120875, 41.0130036 ], [ -5.9110731, 41.0134615 ], [ -5.9105248, 41.0131602 ], [ -5.9095002, 41.0133842 ], [ -5.9090809, 41.0127734 ], [ -5.9101134, 41.0121888 ], [ -5.9062482, 41.0113588 ], [ -5.9051828, 41.0109264 ], [ -5.9040141, 41.0105776 ], [ -5.9032255, 41.0102192 ], [ -5.9026075, 41.0099555 ], [ -5.9007374, 41.0093362 ], [ -5.8999824, 41.009202 ], [ -5.8993486, 41.0093891 ], [ -5.8991728, 41.0094476 ], [ -5.8972718, 41.0086669 ], [ -5.8965209, 41.0080822 ], [ -5.8961251, 41.0080022 ], [ -5.8941531, 41.008313 ], [ -5.8935753, 41.0086968 ], [ -5.8929278, 41.0082987 ], [ -5.8918385, 41.0073173 ], [ -5.8911657, 41.0068839 ], [ -5.8901817, 41.0064042 ], [ -5.8886283, 41.0062271 ], [ -5.8878667, 41.0059399 ], [ -5.8862197, 41.0063415 ], [ -5.8858229, 41.0065135 ], [ -5.8855094, 41.0064133 ], [ -5.8854589, 41.0060723 ], [ -5.885282, 41.0058336 ], [ -5.8849899, 41.0056788 ], [ -5.8842081, 41.0054732 ], [ -5.883538, 41.0051027 ], [ -5.8822599, 41.0049636 ], [ -5.8814181, 41.0052909 ], [ -5.8799604, 41.0045798 ], [ -5.8794783, 41.0044297 ], [ -5.8789117, 41.0045249 ], [ -5.8785771, 41.0047585 ], [ -5.8775072, 41.0036684 ], [ -5.8767731, 41.004011 ], [ -5.8756955, 41.0041099 ], [ -5.874667, 41.0034241 ], [ -5.8744592, 41.0032941 ], [ -5.8727642, 41.0031384 ], [ -5.8717837, 41.0032799 ], [ -5.8705474, 41.0038331 ], [ -5.8700413, 41.004224 ], [ -5.8685731, 41.0060079 ], [ -5.8683199, 41.0064735 ], [ -5.8682539, 41.0068715 ], [ -5.8669591, 41.0090923 ], [ -5.8663178, 41.0110267 ], [ -5.8671203, 41.0114391 ], [ -5.8670282, 41.0120539 ], [ -5.8678978, 41.0170219 ], [ -5.8694602, 41.0190455 ], [ -5.8696803, 41.0197336 ], [ -5.869812, 41.0208471 ], [ -5.8700816, 41.0215789 ], [ -5.8726605, 41.0261891 ], [ -5.8736195, 41.0271829 ], [ -5.873995, 41.0278851 ], [ -5.8739667, 41.0291467 ], [ -5.8738099, 41.0299162 ], [ -5.8742055, 41.0313564 ], [ -5.874153, 41.0334292 ], [ -5.8745349, 41.0340051 ], [ -5.8743476, 41.0348925 ], [ -5.8742682, 41.0352547 ], [ -5.873226, 41.035632 ], [ -5.8724931, 41.0360105 ], [ -5.8730582, 41.0369692 ], [ -5.8731771, 41.0375156 ], [ -5.8730184, 41.0379699 ], [ -5.8720284, 41.0384539 ], [ -5.8718281, 41.0390444 ], [ -5.871773, 41.0396942 ], [ -5.8751705, 41.041771 ], [ -5.8762168, 41.0420331 ], [ -5.8763032, 41.0429226 ], [ -5.8752011, 41.0432924 ], [ -5.8749325, 41.0450464 ], [ -5.8744108, 41.0450865 ], [ -5.8741675, 41.0452367 ], [ -5.8738294, 41.046488 ], [ -5.8739167, 41.0468551 ], [ -5.8746457, 41.0474763 ], [ -5.8755602, 41.0488045 ], [ -5.8761917, 41.0485546 ], [ -5.8767371, 41.0496037 ], [ -5.8781953, 41.050576 ], [ -5.8785437, 41.050108 ], [ -5.8794655, 41.0502381 ], [ -5.8800646, 41.0497907 ], [ -5.8818539, 41.0501693 ], [ -5.8835159, 41.0509022 ], [ -5.8851712, 41.0514822 ], [ -5.8862649, 41.051734 ], [ -5.8872821, 41.0518706 ], [ -5.8880411, 41.0520858 ], [ -5.8898428, 41.0522027 ], [ -5.892484, 41.0535594 ], [ -5.893866, 41.0552269 ], [ -5.8940358, 41.0558441 ], [ -5.8922582, 41.0557356 ], [ -5.8917516, 41.055307 ], [ -5.890493, 41.0553657 ], [ -5.8905542, 41.0562197 ], [ -5.8900278, 41.0572417 ], [ -5.8886377, 41.0581052 ], [ -5.8886157, 41.0589614 ], [ -5.8879738, 41.0595179 ], [ -5.8871603, 41.0596914 ], [ -5.8868872, 41.0602477 ], [ -5.8870633, 41.0607386 ], [ -5.8870406, 41.0615768 ], [ -5.8856585, 41.0631696 ], [ -5.8854939, 41.0637591 ], [ -5.8854811, 41.0640117 ], [ -5.8854588, 41.0643185 ], [ -5.8852043, 41.0650274 ], [ -5.8850226, 41.0655003 ] ] ] } }
]
}
