{
"type": "FeatureCollection",
"name": "39016",
"features": [
{ "type": "Feature", "properties": { "CCAA": "06 - Cantabria", "PROVINCIA": "39 - Cantabria", "MUNICIPIO": "39016 - Camargo", "COD_MUNICIPIO": "39016", "DISTRITO": "01", "SECCION": "3901601001", "V1_H": 80.78, "V1_M": 86.64, "V2_H": 80.55514168000001, "V2_M": 86.45889906, "V3_H": 81.06237696, "V3_M": 86.87120108000001 }, "geometry": { "type": "Polygon", "coordinates": [ [ [ -3.8066414, 43.4215983 ], [ -3.8063503, 43.4216452 ], [ -3.8059276, 43.4214411 ], [ -3.8045959, 43.424431 ], [ -3.8126912, 43.426526 ], [ -3.8138263, 43.4273374 ], [ -3.8140871, 43.4274346 ], [ -3.8142105, 43.4292706 ], [ -3.8144574, 43.4292509 ], [ -3.8144109, 43.4276304 ], [ -3.8175141, 43.4296253 ], [ -3.8186491, 43.4304186 ], [ -3.8192091, 43.4307208 ], [ -3.8199659, 43.4309495 ], [ -3.8347743, 43.4316123 ], [ -3.8355581, 43.4259826 ], [ -3.8354465, 43.4253843 ], [ -3.8354444, 43.4253731 ], [ -3.835381, 43.4250214 ], [ -3.8353308, 43.4247806 ], [ -3.8353089, 43.4246291 ], [ -3.8352819, 43.4244905 ], [ -3.8352467, 43.4242994 ], [ -3.8352253, 43.4241835 ], [ -3.8351506, 43.4238278 ], [ -3.8351088, 43.423724 ], [ -3.8350896, 43.4235968 ], [ -3.8350815, 43.4235433 ], [ -3.83508, 43.4234369 ], [ -3.8350922, 43.4233068 ], [ -3.8351279, 43.4231911 ], [ -3.8351728, 43.4230641 ], [ -3.8352436, 43.4229406 ], [ -3.83532, 43.4228289 ], [ -3.8354056, 43.422731 ], [ -3.83545, 43.4226901 ], [ -3.8355712, 43.4225783 ], [ -3.8358166, 43.4223683 ], [ -3.8363829, 43.4219083 ], [ -3.8364125, 43.421884 ], [ -3.8365415, 43.4217781 ], [ -3.8370627, 43.4213502 ], [ -3.8376387, 43.4208696 ], [ -3.8376434, 43.4208659 ], [ -3.8381769, 43.420453 ], [ -3.8387831, 43.4199625 ], [ -3.83886, 43.4198996 ], [ -3.8392187, 43.4196057 ], [ -3.8395512, 43.4193471 ], [ -3.8397685, 43.4191659 ], [ -3.8399047, 43.4190592 ], [ -3.8399121, 43.4190535 ], [ -3.8400285, 43.4189106 ], [ -3.8401053, 43.4188001 ], [ -3.8401883, 43.4186255 ], [ -3.8402577, 43.4182658 ], [ -3.8399974, 43.4181545 ], [ -3.8399791, 43.4181467 ], [ -3.8397325, 43.418136 ], [ -3.8394074, 43.4181022 ], [ -3.8391053, 43.4180794 ], [ -3.8388338, 43.4179963 ], [ -3.8385586, 43.4179121 ], [ -3.8383476, 43.4178496 ], [ -3.8381025, 43.417804 ], [ -3.8379609, 43.4177801 ], [ -3.8378501, 43.4177781 ], [ -3.8376706, 43.4177794 ], [ -3.8375027, 43.4177918 ], [ -3.8373522, 43.4178166 ], [ -3.8372147, 43.4178204 ], [ -3.8370504, 43.4178216 ], [ -3.8369283, 43.4178335 ], [ -3.8367755, 43.4178346 ], [ -3.8366187, 43.4178107 ], [ -3.836492, 43.4177727 ], [ -3.8363538, 43.4177378 ], [ -3.8362773, 43.4177186 ], [ -3.8361206, 43.4176974 ], [ -3.8359465, 43.4176779 ], [ -3.8356216, 43.4176691 ], [ -3.8353886, 43.417668 ], [ -3.8351368, 43.4176893 ], [ -3.8351276, 43.4176899 ], [ -3.8348925, 43.417705 ], [ -3.8347341, 43.4177244 ], [ -3.8346434, 43.4177372 ], [ -3.8345893, 43.4177449 ], [ -3.8343686, 43.417805 ], [ -3.8341748, 43.417876 ], [ -3.8339426, 43.4179418 ], [ -3.8338804, 43.4179579 ], [ -3.8335886, 43.4180335 ], [ -3.8333715, 43.4180795 ], [ -3.8332131, 43.4180877 ], [ -3.8330297, 43.4180807 ], [ -3.8328001, 43.4180573 ], [ -3.8326434, 43.4180584 ], [ -3.8325025, 43.4180873 ], [ -3.8323808, 43.4181188 ], [ -3.8322623, 43.4181224 ], [ -3.8321294, 43.4181028 ], [ -3.8318376, 43.4179265 ], [ -3.8315607, 43.4177864 ], [ -3.8314007, 43.4177104 ], [ -3.8313184, 43.4176712 ], [ -3.831188, 43.4176332 ], [ -3.830659, 43.4176803 ], [ -3.8305122, 43.4176967 ], [ -3.830421, 43.4177308 ], [ -3.8301871, 43.417809 ], [ -3.8300707, 43.4178169 ], [ -3.8299789, 43.4178064 ], [ -3.8298447, 43.4177768 ], [ -3.8297103, 43.4177164 ], [ -3.8296119, 43.4176489 ], [ -3.8293322, 43.4174519 ], [ -3.8291942, 43.4174083 ], [ -3.8290717, 43.4173897 ], [ -3.8289365, 43.4173804 ], [ -3.8288409, 43.4173741 ], [ -3.8286954, 43.4173839 ], [ -3.8285667, 43.4174022 ], [ -3.8284884, 43.4174429 ], [ -3.8283783, 43.4174968 ], [ -3.8281652, 43.4176341 ], [ -3.828009, 43.4177291 ], [ -3.8278636, 43.4177511 ], [ -3.8277349, 43.4177695 ], [ -3.8276096, 43.4177696 ], [ -3.8273542, 43.4177801 ], [ -3.8271565, 43.4178076 ], [ -3.8269842, 43.4178725 ], [ -3.8268065, 43.417973 ], [ -3.8267046, 43.4180294 ], [ -3.826572, 43.4181174 ], [ -3.8265308, 43.4181569 ], [ -3.8264845, 43.4182036 ], [ -3.8264508, 43.4182375 ], [ -3.8264371, 43.4182531 ], [ -3.8263449, 43.4183584 ], [ -3.8262078, 43.41855 ], [ -3.8260208, 43.4188385 ], [ -3.8259827, 43.4188971 ], [ -3.8258862, 43.4190458 ], [ -3.8257897, 43.4191422 ], [ -3.8257634, 43.4191621 ], [ -3.8256785, 43.4192265 ], [ -3.8255743, 43.4192829 ], [ -3.82547, 43.4193342 ], [ -3.8253049, 43.4194042 ], [ -3.824887, 43.419569 ], [ -3.8244987, 43.4197243 ], [ -3.8243371, 43.4197811 ], [ -3.8240603, 43.4198562 ], [ -3.8240315, 43.4198641 ], [ -3.8238771, 43.4199062 ], [ -3.8237509, 43.419928 ], [ -3.8236304, 43.4199315 ], [ -3.8232891, 43.4199444 ], [ -3.8227938, 43.4199559 ], [ -3.822165, 43.4199735 ], [ -3.8215575, 43.419988 ], [ -3.8213762, 43.4199923 ], [ -3.820898, 43.4200075 ], [ -3.8206999, 43.4200141 ], [ -3.8203073, 43.4200265 ], [ -3.8196188, 43.4200393 ], [ -3.8192536, 43.4200489 ], [ -3.8190828, 43.4200531 ], [ -3.8187964, 43.4200601 ], [ -3.8184527, 43.4200677 ], [ -3.8180745, 43.4200749 ], [ -3.8177904, 43.4200787 ], [ -3.8173738, 43.4200895 ], [ -3.8171735, 43.4200944 ], [ -3.8166203, 43.4201053 ], [ -3.815698, 43.4201293 ], [ -3.8123658, 43.4230451 ], [ -3.8066414, 43.4215983 ] ] ] } },
{ "type": "Feature", "properties": { "CCAA": "06 - Cantabria", "PROVINCIA": "39 - Cantabria", "MUNICIPIO": "39016 - Camargo", "COD_MUNICIPIO": "39016", "DISTRITO": "01", "SECCION": "3901601002", "V1_H": 80.23, "V1_M": 86.04, "V2_H": 80.01377171, "V2_M": 86.1814847, "V3_H": 80.55154758, "V3_M": 86.06989916000001 }, "geometry": { "type": "Polygon", "coordinates": [ [ [ -3.8374261, 43.435271 ], [ -3.838113, 43.4351943 ], [ -3.8383852, 43.4352194 ], [ -3.8384596, 43.4352368 ], [ -3.8391917, 43.4354656 ], [ -3.8395498, 43.435445 ], [ -3.8406748, 43.4345902 ], [ -3.8410432, 43.4344254 ], [ -3.8413655, 43.4345041 ], [ -3.8415679, 43.4348358 ], [ -3.8415411, 43.4355834 ], [ -3.8416068, 43.4358621 ], [ -3.8418331, 43.4361485 ], [ -3.8427066, 43.4367635 ], [ -3.8431793, 43.4369851 ], [ -3.8445802, 43.4373169 ], [ -3.8455824, 43.4374086 ], [ -3.8468429, 43.4374173 ], [ -3.8483509, 43.4373371 ], [ -3.8499916, 43.4372499 ], [ -3.850375, 43.437274 ], [ -3.8513894, 43.4373566 ], [ -3.8526557, 43.4372387 ], [ -3.8529922, 43.4372073 ], [ -3.8502095, 43.4319713 ], [ -3.8488224, 43.4293609 ], [ -3.8479046, 43.4276337 ], [ -3.841092, 43.4282216 ], [ -3.8394549, 43.4265213 ], [ -3.8382372, 43.4252696 ], [ -3.8379333, 43.4247543 ], [ -3.8377317, 43.4241725 ], [ -3.8377475, 43.4234479 ], [ -3.8380732, 43.4227305 ], [ -3.8383777, 43.422352 ], [ -3.8394222, 43.4213471 ], [ -3.8402375, 43.4205602 ], [ -3.8404451, 43.420336 ], [ -3.8407461, 43.4200108 ], [ -3.8409721, 43.4196124 ], [ -3.8411907, 43.4191725 ], [ -3.8413498, 43.4187281 ], [ -3.8414231, 43.4182941 ], [ -3.8423284, 43.4182577 ], [ -3.8423153, 43.4182157 ], [ -3.8422969, 43.4181581 ], [ -3.8422907, 43.418137 ], [ -3.8422818, 43.4181071 ], [ -3.8422679, 43.4180586 ], [ -3.8422536, 43.4180076 ], [ -3.8422391, 43.4179555 ], [ -3.8422252, 43.4179047 ], [ -3.8422125, 43.4178573 ], [ -3.8422009, 43.4178125 ], [ -3.8421896, 43.4177692 ], [ -3.8421787, 43.4177258 ], [ -3.8421674, 43.4176809 ], [ -3.8421554, 43.4176326 ], [ -3.8421424, 43.4175797 ], [ -3.8421286, 43.4175232 ], [ -3.8421145, 43.417464 ], [ -3.8421002, 43.4174032 ], [ -3.8420858, 43.4173405 ], [ -3.8420711, 43.4172754 ], [ -3.8420622, 43.4172346 ], [ -3.8420562, 43.417208 ], [ -3.8420416, 43.4171405 ], [ -3.8420276, 43.4170758 ], [ -3.8420147, 43.4170156 ], [ -3.8420027, 43.4169588 ], [ -3.841991, 43.4169028 ], [ -3.8419792, 43.4168455 ], [ -3.8419675, 43.4167859 ], [ -3.8419604, 43.4167468 ], [ -3.841956, 43.416723 ], [ -3.8419447, 43.4166563 ], [ -3.8419338, 43.4165877 ], [ -3.8419231, 43.4165194 ], [ -3.8419131, 43.4164533 ], [ -3.8419039, 43.4163903 ], [ -3.8418952, 43.4163318 ], [ -3.8418951, 43.416331 ], [ -3.8418872, 43.4162754 ], [ -3.8418796, 43.4162207 ], [ -3.8418722, 43.4161637 ], [ -3.8418643, 43.4161023 ], [ -3.8418563, 43.4160383 ], [ -3.8418487, 43.4159747 ], [ -3.8418416, 43.4159137 ], [ -3.8418349, 43.4158557 ], [ -3.8418286, 43.4158002 ], [ -3.8418227, 43.4157465 ], [ -3.841817, 43.4156929 ], [ -3.8418116, 43.415638 ], [ -3.8418063, 43.4155794 ], [ -3.8417998, 43.4155141 ], [ -3.8417919, 43.4154381 ], [ -3.8417731, 43.4151881 ], [ -3.8417598, 43.4150117 ], [ -3.8417498, 43.4148775 ], [ -3.841741, 43.4147609 ], [ -3.8417329, 43.4146536 ], [ -3.8417252, 43.4145517 ], [ -3.8417245, 43.4145421 ], [ -3.8417176, 43.4144518 ], [ -3.84171, 43.4143521 ], [ -3.8417025, 43.4142517 ], [ -3.8416951, 43.4141493 ], [ -3.8416876, 43.4140459 ], [ -3.8416803, 43.4139419 ], [ -3.8416729, 43.4138369 ], [ -3.841665, 43.4137245 ], [ -3.841659, 43.4136385 ], [ -3.8416562, 43.4135975 ], [ -3.8416358, 43.4132999 ], [ -3.8415296, 43.4133239 ], [ -3.8414558, 43.4133425 ], [ -3.8411579, 43.4132366 ], [ -3.840908, 43.4130314 ], [ -3.8408831, 43.4130135 ], [ -3.8401188, 43.4122357 ], [ -3.8397652, 43.411671 ], [ -3.8394398, 43.4113582 ], [ -3.8378865, 43.4106853 ], [ -3.8374619, 43.4103462 ], [ -3.8363559, 43.4089586 ], [ -3.8357088, 43.4077026 ], [ -3.8355302, 43.4074594 ], [ -3.8354193, 43.4073085 ], [ -3.8350826, 43.4070768 ], [ -3.834575, 43.4069815 ], [ -3.8332284, 43.4069553 ], [ -3.8328577, 43.406949 ], [ -3.8307419, 43.4066672 ], [ -3.8296303, 43.4066572 ], [ -3.8291997, 43.4067774 ], [ -3.8289596, 43.4069321 ], [ -3.8288324, 43.4070142 ], [ -3.8284587, 43.407353 ], [ -3.8301816, 43.4080531 ], [ -3.8306455, 43.4082544 ], [ -3.8307929, 43.4083172 ], [ -3.8310167, 43.4084126 ], [ -3.8313733, 43.4085646 ], [ -3.8319615, 43.4088162 ], [ -3.8324004, 43.4090116 ], [ -3.8327335, 43.4091821 ], [ -3.832779, 43.409209 ], [ -3.8331412, 43.4094228 ], [ -3.8334237, 43.4096875 ], [ -3.8335734, 43.4097573 ], [ -3.8335754, 43.4097592 ], [ -3.8337191, 43.409901 ], [ -3.8339165, 43.410107 ], [ -3.8339394, 43.4101309 ], [ -3.8341125, 43.4103197 ], [ -3.8344739, 43.4107154 ], [ -3.8347133, 43.4109876 ], [ -3.8349131, 43.4111948 ], [ -3.835406, 43.4117352 ], [ -3.8355299, 43.4118767 ], [ -3.8357159, 43.412089 ], [ -3.8359514, 43.4123483 ], [ -3.8362206, 43.4126523 ], [ -3.8362867, 43.4127267 ], [ -3.8363296, 43.4127749 ], [ -3.8366031, 43.4130828 ], [ -3.8369657, 43.4135092 ], [ -3.837112, 43.4136733 ], [ -3.8373831, 43.4139771 ], [ -3.8377946, 43.4144366 ], [ -3.8378707, 43.4145222 ], [ -3.8379145, 43.4145715 ], [ -3.8380159, 43.4146856 ], [ -3.8383605, 43.4150663 ], [ -3.8387097, 43.4154607 ], [ -3.8388002, 43.4155587 ], [ -3.8389062, 43.4156736 ], [ -3.8392011, 43.4160027 ], [ -3.8395075, 43.4163499 ], [ -3.8395173, 43.416361 ], [ -3.8395474, 43.4163956 ], [ -3.8396763, 43.4165437 ], [ -3.839847, 43.4167318 ], [ -3.8400125, 43.4169575 ], [ -3.8400954, 43.4171545 ], [ -3.8401293, 43.4172495 ], [ -3.840159, 43.4173322 ], [ -3.8402076, 43.4175352 ], [ -3.8402431, 43.4177647 ], [ -3.8402578, 43.4179956 ], [ -3.8402581, 43.4181526 ], [ -3.8402581, 43.4181642 ], [ -3.8402577, 43.4182658 ], [ -3.8401883, 43.4186255 ], [ -3.8401053, 43.4188001 ], [ -3.8400285, 43.4189106 ], [ -3.8399121, 43.4190535 ], [ -3.8399047, 43.4190592 ], [ -3.8397685, 43.4191659 ], [ -3.8395512, 43.4193471 ], [ -3.8392187, 43.4196057 ], [ -3.83886, 43.4198996 ], [ -3.8387831, 43.4199625 ], [ -3.8381769, 43.420453 ], [ -3.8376434, 43.4208659 ], [ -3.8376387, 43.4208696 ], [ -3.8370627, 43.4213502 ], [ -3.8365415, 43.4217781 ], [ -3.8364125, 43.421884 ], [ -3.8363829, 43.4219083 ], [ -3.8358166, 43.4223683 ], [ -3.8355712, 43.4225783 ], [ -3.83545, 43.4226901 ], [ -3.8354056, 43.422731 ], [ -3.83532, 43.4228289 ], [ -3.8352436, 43.4229406 ], [ -3.8351728, 43.4230641 ], [ -3.8351279, 43.4231911 ], [ -3.8350922, 43.4233068 ], [ -3.83508, 43.4234369 ], [ -3.8350815, 43.4235433 ], [ -3.8350896, 43.4235968 ], [ -3.8351088, 43.423724 ], [ -3.8351506, 43.4238278 ], [ -3.8352253, 43.4241835 ], [ -3.8352467, 43.4242994 ], [ -3.8352819, 43.4244905 ], [ -3.8353089, 43.4246291 ], [ -3.8353308, 43.4247806 ], [ -3.835381, 43.4250214 ], [ -3.8354444, 43.4253731 ], [ -3.8354465, 43.4253843 ], [ -3.8355581, 43.4259826 ], [ -3.8347743, 43.4316123 ], [ -3.8365944, 43.4316936 ], [ -3.8365732, 43.4319459 ], [ -3.836345, 43.4324248 ], [ -3.8363969, 43.4326045 ], [ -3.8366729, 43.4329087 ], [ -3.836551, 43.4330266 ], [ -3.8362683, 43.4331367 ], [ -3.8361853, 43.4333895 ], [ -3.8359391, 43.4334543 ], [ -3.8347879, 43.4333096 ], [ -3.8345386, 43.4333045 ], [ -3.829288, 43.4331965 ], [ -3.8288059, 43.433182 ], [ -3.8285724, 43.4332737 ], [ -3.8285006, 43.4334453 ], [ -3.8286522, 43.4336964 ], [ -3.8299381, 43.4346596 ], [ -3.830401, 43.4350794 ], [ -3.834851, 43.4352002 ], [ -3.8366572, 43.4353581 ], [ -3.8372494, 43.4352907 ], [ -3.8374261, 43.435271 ] ] ] } },
{ "type": "Feature", "properties": { "CCAA": "06 - Cantabria", "PROVINCIA": "39 - Cantabria", "MUNICIPIO": "39016 - Camargo", "COD_MUNICIPIO": "39016", "DISTRITO": "01", "SECCION": "3901601004", "V1_H": 80.72, "V1_M": 86.56, "V2_H": 80.63016227, "V2_M": 86.55369361, "V3_H": 80.94352394000001, "V3_M": 86.74641221 }, "geometry": { "type": "Polygon", "coordinates": [ [ [ -3.8465156, 43.4201816 ], [ -3.846786, 43.4200651 ], [ -3.8471366, 43.419901 ], [ -3.847298, 43.4198434 ], [ -3.8474265, 43.4198152 ], [ -3.847764, 43.419771 ], [ -3.8479985, 43.41974 ], [ -3.8481158, 43.4197287 ], [ -3.8482247, 43.4197321 ], [ -3.8483399, 43.4197688 ], [ -3.8483945, 43.4197893 ], [ -3.8484668, 43.4198191 ], [ -3.8486391, 43.4198899 ], [ -3.8487389, 43.4199253 ], [ -3.8487896, 43.4199432 ], [ -3.8489742, 43.4199923 ], [ -3.8492996, 43.4200438 ], [ -3.8496035, 43.420092 ], [ -3.8502076, 43.4201805 ], [ -3.8505199, 43.4202331 ], [ -3.8508236, 43.420276 ], [ -3.8511682, 43.4203326 ], [ -3.8512204, 43.4203402 ], [ -3.8514327, 43.4203715 ], [ -3.8516026, 43.4204085 ], [ -3.8516759, 43.4204274 ], [ -3.8517801, 43.4204542 ], [ -3.8522607, 43.4205958 ], [ -3.8522939, 43.4206058 ], [ -3.8526587, 43.4207165 ], [ -3.8527822, 43.4207542 ], [ -3.8528781, 43.4207834 ], [ -3.8530412, 43.4208328 ], [ -3.8534245, 43.4207494 ], [ -3.8536885, 43.4206919 ], [ -3.8540999, 43.4206136 ], [ -3.8541533, 43.4206034 ], [ -3.8544789, 43.420484 ], [ -3.8550156, 43.4202717 ], [ -3.8554178, 43.4201153 ], [ -3.8555815, 43.4200994 ], [ -3.8556437, 43.4201061 ], [ -3.8557086, 43.4201131 ], [ -3.8558698, 43.4201606 ], [ -3.8561028, 43.4202568 ], [ -3.8562379, 43.4203126 ], [ -3.8562695, 43.4203256 ], [ -3.8570802, 43.4206607 ], [ -3.8571643, 43.4207089 ], [ -3.8571962, 43.4207212 ], [ -3.8572887, 43.4207567 ], [ -3.8576616, 43.4209152 ], [ -3.8577393, 43.4209482 ], [ -3.858061, 43.4210636 ], [ -3.8582136, 43.4207135 ], [ -3.8582137, 43.4207133 ], [ -3.8582986, 43.420453 ], [ -3.8583883, 43.4201722 ], [ -3.8584613, 43.4199271 ], [ -3.8584943, 43.4198164 ], [ -3.8585262, 43.4197025 ], [ -3.8585578, 43.4195769 ], [ -3.8585799, 43.4194446 ], [ -3.8586066, 43.4192143 ], [ -3.858615, 43.4191423 ], [ -3.8586342, 43.4189819 ], [ -3.8586424, 43.4189202 ], [ -3.8586827, 43.4186118 ], [ -3.8586916, 43.4185543 ], [ -3.8587254, 43.4183355 ], [ -3.8587686, 43.4180152 ], [ -3.8587742, 43.417974 ], [ -3.8587996, 43.4177761 ], [ -3.858862, 43.4172321 ], [ -3.8589903, 43.4160701 ], [ -3.8589945, 43.416032 ], [ -3.859059, 43.4154471 ], [ -3.8589031, 43.4154408 ], [ -3.8585698, 43.4154433 ], [ -3.8583359, 43.4155404 ], [ -3.8581338, 43.41558 ], [ -3.8563577, 43.4153082 ], [ -3.8558252, 43.415154 ], [ -3.8556995, 43.415127 ], [ -3.8554987, 43.4151115 ], [ -3.8552848, 43.4151058 ], [ -3.8550876, 43.4151121 ], [ -3.8549543, 43.4151374 ], [ -3.8547778, 43.4151998 ], [ -3.8545526, 43.4152148 ], [ -3.8544186, 43.4151914 ], [ -3.8536093, 43.4150488 ], [ -3.8533789, 43.4150172 ], [ -3.8532898, 43.4150014 ], [ -3.8531865, 43.4149831 ], [ -3.8530081, 43.4149281 ], [ -3.8528269, 43.414873 ], [ -3.8527176, 43.4148425 ], [ -3.8525182, 43.4148158 ], [ -3.8523547, 43.4148025 ], [ -3.8521885, 43.4147911 ], [ -3.8520824, 43.4147941 ], [ -3.8519254, 43.4148266 ], [ -3.8517714, 43.4148757 ], [ -3.8515023, 43.4149833 ], [ -3.8512259, 43.4150918 ], [ -3.851144, 43.4151208 ], [ -3.8509608, 43.4151857 ], [ -3.8505855, 43.4152877 ], [ -3.8504859, 43.4153261 ], [ -3.8503964, 43.4153745 ], [ -3.8501588, 43.4154478 ], [ -3.8497461, 43.4156458 ], [ -3.8495817, 43.4157539 ], [ -3.8493685, 43.4158687 ], [ -3.8491387, 43.4159991 ], [ -3.848869, 43.416082 ], [ -3.848785, 43.4161347 ], [ -3.848733, 43.4161673 ], [ -3.8486869, 43.4161989 ], [ -3.848564, 43.4162832 ], [ -3.8483097, 43.4164576 ], [ -3.8480174, 43.4166398 ], [ -3.847827, 43.4167014 ], [ -3.8476145, 43.4166996 ], [ -3.8474054, 43.4166916 ], [ -3.8470497, 43.4166942 ], [ -3.8466929, 43.4168718 ], [ -3.8462244, 43.4171224 ], [ -3.8460686, 43.4172057 ], [ -3.8460115, 43.4172363 ], [ -3.8455216, 43.4175704 ], [ -3.8456965, 43.4181081 ], [ -3.8456982, 43.4181125 ], [ -3.8458161, 43.4184322 ], [ -3.8458615, 43.418555 ], [ -3.8459759, 43.4188652 ], [ -3.8460313, 43.4190141 ], [ -3.8462592, 43.4196262 ], [ -3.8463636, 43.4199068 ], [ -3.8463807, 43.4199616 ], [ -3.8464137, 43.4200176 ], [ -3.8464637, 43.4201101 ], [ -3.8465156, 43.4201816 ] ] ] } },
{ "type": "Feature", "properties": { "CCAA": "06 - Cantabria", "PROVINCIA": "39 - Cantabria", "MUNICIPIO": "39016 - Camargo", "COD_MUNICIPIO": "39016", "DISTRITO": "01", "SECCION": "3901601009", "V1_H": 80.25, "V1_M": 86.11, "V2_H": 80.02266353, "V2_M": 86.02270939, "V3_H": 80.50879823, "V3_M": 86.37032083 }, "geometry": { "type": "Polygon", "coordinates": [ [ [ -3.8452868, 43.416788 ], [ -3.8454126, 43.4172106 ], [ -3.8454265, 43.4172571 ], [ -3.8455216, 43.4175704 ], [ -3.8460115, 43.4172363 ], [ -3.8460686, 43.4172057 ], [ -3.8462244, 43.4171224 ], [ -3.8466929, 43.4168718 ], [ -3.8470497, 43.4166942 ], [ -3.8474054, 43.4166916 ], [ -3.8476145, 43.4166996 ], [ -3.847827, 43.4167014 ], [ -3.8480174, 43.4166398 ], [ -3.8483097, 43.4164576 ], [ -3.848564, 43.4162832 ], [ -3.8486869, 43.4161989 ], [ -3.848733, 43.4161673 ], [ -3.848785, 43.4161347 ], [ -3.848869, 43.416082 ], [ -3.8491387, 43.4159991 ], [ -3.8493685, 43.4158687 ], [ -3.8495817, 43.4157539 ], [ -3.8497461, 43.4156458 ], [ -3.8501588, 43.4154478 ], [ -3.8503964, 43.4153745 ], [ -3.8504859, 43.4153261 ], [ -3.8505855, 43.4152877 ], [ -3.8509608, 43.4151857 ], [ -3.851144, 43.4151208 ], [ -3.8512259, 43.4150918 ], [ -3.8515023, 43.4149833 ], [ -3.8517714, 43.4148757 ], [ -3.8519254, 43.4148266 ], [ -3.8520824, 43.4147941 ], [ -3.8521885, 43.4147911 ], [ -3.8523547, 43.4148025 ], [ -3.8525182, 43.4148158 ], [ -3.8527176, 43.4148425 ], [ -3.8528269, 43.414873 ], [ -3.8530081, 43.4149281 ], [ -3.8531865, 43.4149831 ], [ -3.8532898, 43.4150014 ], [ -3.8533789, 43.4150172 ], [ -3.8536093, 43.4150488 ], [ -3.8544186, 43.4151914 ], [ -3.8545526, 43.4152148 ], [ -3.8547778, 43.4151998 ], [ -3.8549543, 43.4151374 ], [ -3.8550876, 43.4151121 ], [ -3.8552848, 43.4151058 ], [ -3.8554987, 43.4151115 ], [ -3.8556995, 43.415127 ], [ -3.8558252, 43.415154 ], [ -3.8563577, 43.4153082 ], [ -3.8581338, 43.41558 ], [ -3.8583359, 43.4155404 ], [ -3.8585698, 43.4154433 ], [ -3.8589031, 43.4154408 ], [ -3.859059, 43.4154471 ], [ -3.8591278, 43.4148238 ], [ -3.8574148, 43.4136621 ], [ -3.8568468, 43.4132471 ], [ -3.8564504, 43.4129451 ], [ -3.8560023, 43.4126816 ], [ -3.8554382, 43.4125429 ], [ -3.8544172, 43.4124457 ], [ -3.8512661, 43.412393 ], [ -3.8506653, 43.412426 ], [ -3.8503522, 43.412476 ], [ -3.8498583, 43.4126798 ], [ -3.8495085, 43.4129016 ], [ -3.8492501, 43.4131227 ], [ -3.8488747, 43.4133828 ], [ -3.8485371, 43.4135473 ], [ -3.8482251, 43.4136735 ], [ -3.8478083, 43.4137814 ], [ -3.8475214, 43.4138312 ], [ -3.8472077, 43.4138335 ], [ -3.8470375, 43.4138157 ], [ -3.846761, 43.4136748 ], [ -3.8464152, 43.4132485 ], [ -3.8461366, 43.4129552 ], [ -3.8455179, 43.4126453 ], [ -3.8450314, 43.4124392 ], [ -3.8444549, 43.4123482 ], [ -3.8439718, 43.4123898 ], [ -3.843655, 43.4124428 ], [ -3.8436094, 43.4124627 ], [ -3.8436731, 43.4126203 ], [ -3.8437136, 43.4127207 ], [ -3.8437996, 43.4129334 ], [ -3.8440002, 43.4134675 ], [ -3.8440532, 43.4136223 ], [ -3.8441898, 43.4140205 ], [ -3.8443224, 43.4143902 ], [ -3.8443735, 43.414524 ], [ -3.8444353, 43.4146858 ], [ -3.8445384, 43.4149911 ], [ -3.8445866, 43.4151288 ], [ -3.8446875, 43.4154168 ], [ -3.8448406, 43.415802 ], [ -3.8448628, 43.4158565 ], [ -3.8448968, 43.4159407 ], [ -3.845106, 43.4163088 ], [ -3.8451864, 43.4164504 ], [ -3.8452831, 43.4167752 ], [ -3.8452868, 43.416788 ] ] ] } },
{ "type": "Feature", "properties": { "CCAA": "06 - Cantabria", "PROVINCIA": "39 - Cantabria", "MUNICIPIO": "39016 - Camargo", "COD_MUNICIPIO": "39016", "DISTRITO": "01", "SECCION": "3901601011", "V1_H": 81.18, "V1_M": 86.79, "V2_H": 80.97904731, "V2_M": 86.77314473, "V3_H": 81.44010912, "V3_M": 86.96351832000001 }, "geometry": { "type": "Polygon", "coordinates": [ [ [ -3.857149, 43.4321904 ], [ -3.8571624, 43.4322123 ], [ -3.8572932, 43.4320623 ], [ -3.8575121, 43.4318225 ], [ -3.8576792, 43.4316211 ], [ -3.8578287, 43.4310958 ], [ -3.8579637, 43.4306397 ], [ -3.8592086, 43.4297323 ], [ -3.8598768, 43.4289077 ], [ -3.8601796, 43.428124 ], [ -3.8602987, 43.4273036 ], [ -3.8600573, 43.4268765 ], [ -3.8599072, 43.4266707 ], [ -3.859926, 43.4266665 ], [ -3.8599318, 43.4263248 ], [ -3.8574354, 43.4254668 ], [ -3.8574549, 43.4249902 ], [ -3.8577871, 43.4244445 ], [ -3.8580712, 43.4241946 ], [ -3.8581502, 43.4242321 ], [ -3.8592795, 43.4245762 ], [ -3.8612863, 43.4222645 ], [ -3.8614328, 43.4215296 ], [ -3.8616377, 43.4203082 ], [ -3.8616775, 43.4194217 ], [ -3.8617698, 43.4180659 ], [ -3.8617443, 43.4180473 ], [ -3.8589945, 43.416032 ], [ -3.8589903, 43.4160701 ], [ -3.858862, 43.4172321 ], [ -3.8587996, 43.4177761 ], [ -3.8587742, 43.417974 ], [ -3.8587686, 43.4180152 ], [ -3.8587254, 43.4183355 ], [ -3.8586916, 43.4185543 ], [ -3.8586827, 43.4186118 ], [ -3.8586424, 43.4189202 ], [ -3.8586342, 43.4189819 ], [ -3.858615, 43.4191423 ], [ -3.8586066, 43.4192143 ], [ -3.8585799, 43.4194446 ], [ -3.8585578, 43.4195769 ], [ -3.8585262, 43.4197025 ], [ -3.8584943, 43.4198164 ], [ -3.8584613, 43.4199271 ], [ -3.8583883, 43.4201722 ], [ -3.8582986, 43.420453 ], [ -3.8582137, 43.4207133 ], [ -3.8582136, 43.4207135 ], [ -3.858061, 43.4210636 ], [ -3.8577393, 43.4209482 ], [ -3.8576616, 43.4209152 ], [ -3.8572887, 43.4207567 ], [ -3.8571962, 43.4207212 ], [ -3.8571643, 43.4207089 ], [ -3.8570802, 43.4206607 ], [ -3.8562695, 43.4203256 ], [ -3.8562379, 43.4203126 ], [ -3.8561028, 43.4202568 ], [ -3.8558698, 43.4201606 ], [ -3.8557086, 43.4201131 ], [ -3.8556437, 43.4201061 ], [ -3.8555815, 43.4200994 ], [ -3.8554178, 43.4201153 ], [ -3.8550156, 43.4202717 ], [ -3.8544789, 43.420484 ], [ -3.8541533, 43.4206034 ], [ -3.8540999, 43.4206136 ], [ -3.8536885, 43.4206919 ], [ -3.8534245, 43.4207494 ], [ -3.8530412, 43.4208328 ], [ -3.8528781, 43.4207834 ], [ -3.8527822, 43.4207542 ], [ -3.8526587, 43.4207165 ], [ -3.8522939, 43.4206058 ], [ -3.8522607, 43.4205958 ], [ -3.8517801, 43.4204542 ], [ -3.8516759, 43.4204274 ], [ -3.8516026, 43.4204085 ], [ -3.8514327, 43.4203715 ], [ -3.8512204, 43.4203402 ], [ -3.8511682, 43.4203326 ], [ -3.8508236, 43.420276 ], [ -3.8505199, 43.4202331 ], [ -3.8502076, 43.4201805 ], [ -3.8496035, 43.420092 ], [ -3.8492996, 43.4200438 ], [ -3.8489742, 43.4199923 ], [ -3.8487896, 43.4199432 ], [ -3.8487389, 43.4199253 ], [ -3.8486391, 43.4198899 ], [ -3.8484668, 43.4198191 ], [ -3.8483945, 43.4197893 ], [ -3.8483399, 43.4197688 ], [ -3.8482247, 43.4197321 ], [ -3.8481158, 43.4197287 ], [ -3.8479985, 43.41974 ], [ -3.847764, 43.419771 ], [ -3.8474265, 43.4198152 ], [ -3.847298, 43.4198434 ], [ -3.8471366, 43.419901 ], [ -3.846786, 43.4200651 ], [ -3.8465156, 43.4201816 ], [ -3.8466171, 43.4202732 ], [ -3.8467595, 43.4203852 ], [ -3.8469416, 43.4204974 ], [ -3.8469883, 43.4205262 ], [ -3.8470329, 43.4205528 ], [ -3.8473301, 43.4207291 ], [ -3.8473417, 43.420736 ], [ -3.8474402, 43.4207938 ], [ -3.8475902, 43.4208821 ], [ -3.8479371, 43.4210894 ], [ -3.8481838, 43.4212369 ], [ -3.848602, 43.4214836 ], [ -3.848762, 43.4215805 ], [ -3.8488688, 43.4216452 ], [ -3.8489372, 43.4216868 ], [ -3.8493588, 43.4219434 ], [ -3.8495671, 43.4220575 ], [ -3.8497494, 43.4221223 ], [ -3.8499051, 43.4221542 ], [ -3.8501824, 43.42218 ], [ -3.8508841, 43.422247 ], [ -3.8511685, 43.4222729 ], [ -3.8512475, 43.4222802 ], [ -3.8513324, 43.4222879 ], [ -3.8515156, 43.4223119 ], [ -3.8515214, 43.4223127 ], [ -3.8516747, 43.4223498 ], [ -3.8518413, 43.422405 ], [ -3.8519905, 43.4224875 ], [ -3.8520959, 43.4225674 ], [ -3.852145, 43.4226046 ], [ -3.8523001, 43.4227723 ], [ -3.8526667, 43.4231744 ], [ -3.8526781, 43.4231868 ], [ -3.8529366, 43.4234652 ], [ -3.8530859, 43.423626 ], [ -3.8533877, 43.4239552 ], [ -3.8535343, 43.4240995 ], [ -3.8536647, 43.4242012 ], [ -3.8537384, 43.4242441 ], [ -3.8539129, 43.424353 ], [ -3.8539505, 43.4243753 ], [ -3.8543426, 43.4246072 ], [ -3.8545003, 43.4247005 ], [ -3.8548476, 43.4248984 ], [ -3.8550549, 43.4250166 ], [ -3.8554265, 43.4252344 ], [ -3.8554517, 43.4252492 ], [ -3.8556577, 43.42537 ], [ -3.8558424, 43.4254716 ], [ -3.8560918, 43.4255477 ], [ -3.8562835, 43.4255908 ], [ -3.8564273, 43.4256253 ], [ -3.8564636, 43.425634 ], [ -3.8566965, 43.4256239 ], [ -3.8566546, 43.4258999 ], [ -3.8566269, 43.4261089 ], [ -3.8566264, 43.42613 ], [ -3.8566229, 43.4262917 ], [ -3.8566149, 43.4266641 ], [ -3.856613, 43.4267249 ], [ -3.8566029, 43.4270348 ], [ -3.8565922, 43.4273591 ], [ -3.8565905, 43.4274149 ], [ -3.85658, 43.4277421 ], [ -3.8565794, 43.4278159 ], [ -3.8565811, 43.4279396 ], [ -3.8565823, 43.4280191 ], [ -3.8566036, 43.4281721 ], [ -3.85664, 43.4283194 ], [ -3.8566937, 43.4284708 ], [ -3.8568414, 43.4288334 ], [ -3.8569106, 43.4289928 ], [ -3.8569509, 43.4291403 ], [ -3.856962, 43.4291946 ], [ -3.8569674, 43.4292211 ], [ -3.8569663, 43.4293135 ], [ -3.8569614, 43.4294788 ], [ -3.8569463, 43.4296816 ], [ -3.8569429, 43.4297277 ], [ -3.8569282, 43.4299237 ], [ -3.8568968, 43.4301458 ], [ -3.8568718, 43.4303752 ], [ -3.8568703, 43.4303889 ], [ -3.8568483, 43.4305317 ], [ -3.8568328, 43.4306327 ], [ -3.8568013, 43.4308357 ], [ -3.8567732, 43.4310483 ], [ -3.856753, 43.4312251 ], [ -3.8567542, 43.4313139 ], [ -3.8567651, 43.4314112 ], [ -3.8567882, 43.4315207 ], [ -3.8567958, 43.431537 ], [ -3.8568435, 43.4316396 ], [ -3.8568905, 43.4317453 ], [ -3.8569565, 43.4318666 ], [ -3.8570896, 43.4320824 ], [ -3.8571338, 43.4321655 ], [ -3.857149, 43.4321904 ] ] ] } },
{ "type": "Feature", "properties": { "CCAA": "06 - Cantabria", "PROVINCIA": "39 - Cantabria", "MUNICIPIO": "39016 - Camargo", "COD_MUNICIPIO": "39016", "DISTRITO": "01", "SECCION": "3901601013", "V1_H": 80.34, "V1_M": 85.99, "V2_H": 80.22806877, "V2_M": 85.94669411, "V3_H": 80.64200885, "V3_M": 86.09540763 }, "geometry": { "type": "Polygon", "coordinates": [ [ [ -3.8423284, 43.4182577 ], [ -3.8414231, 43.4182941 ], [ -3.8413498, 43.4187281 ], [ -3.8411907, 43.4191725 ], [ -3.8409721, 43.4196124 ], [ -3.8407461, 43.4200108 ], [ -3.8404451, 43.420336 ], [ -3.8402375, 43.4205602 ], [ -3.8394222, 43.4213471 ], [ -3.8383777, 43.422352 ], [ -3.8380732, 43.4227305 ], [ -3.8377475, 43.4234479 ], [ -3.8377317, 43.4241725 ], [ -3.8379992, 43.424043 ], [ -3.8385158, 43.4237456 ], [ -3.8386312, 43.4235658 ], [ -3.8387556, 43.4233214 ], [ -3.8391079, 43.4225096 ], [ -3.8391948, 43.4224015 ], [ -3.8394238, 43.4225534 ], [ -3.8397577, 43.4223052 ], [ -3.8397841, 43.422324 ], [ -3.8417575, 43.4236818 ], [ -3.8438016, 43.4221277 ], [ -3.8423036, 43.4211095 ], [ -3.8424656, 43.4210083 ], [ -3.8425171, 43.4210101 ], [ -3.8425059, 43.4210023 ], [ -3.8434471, 43.4208046 ], [ -3.8434025, 43.4207272 ], [ -3.8433562, 43.4206458 ], [ -3.8433086, 43.4205598 ], [ -3.8432592, 43.4204685 ], [ -3.8432078, 43.4203706 ], [ -3.8431531, 43.4202649 ], [ -3.8430959, 43.4201514 ], [ -3.8430389, 43.4200374 ], [ -3.8429883, 43.4199317 ], [ -3.8428967, 43.419752 ], [ -3.842852, 43.4196528 ], [ -3.8428182, 43.4195757 ], [ -3.8427912, 43.4195126 ], [ -3.8427691, 43.419459 ], [ -3.8427496, 43.4194114 ], [ -3.8427313, 43.4193668 ], [ -3.8427138, 43.4193237 ], [ -3.8426965, 43.4192811 ], [ -3.8426795, 43.4192384 ], [ -3.8426625, 43.419195 ], [ -3.8426452, 43.4191509 ], [ -3.8426277, 43.4191054 ], [ -3.8426097, 43.4190585 ], [ -3.842602, 43.4190382 ], [ -3.8425912, 43.4190098 ], [ -3.8425722, 43.4189589 ], [ -3.8425528, 43.4189063 ], [ -3.8425332, 43.418853 ], [ -3.8425136, 43.4187994 ], [ -3.8424939, 43.4187455 ], [ -3.8424744, 43.4186911 ], [ -3.842455, 43.4186357 ], [ -3.8424354, 43.418579 ], [ -3.8424152, 43.41852 ], [ -3.842394, 43.4184573 ], [ -3.8423704, 43.4183871 ], [ -3.8423424, 43.4183026 ], [ -3.8423284, 43.4182577 ] ] ] } },
{ "type": "Feature", "properties": { "CCAA": "06 - Cantabria", "PROVINCIA": "39 - Cantabria", "MUNICIPIO": "39016 - Camargo", "COD_MUNICIPIO": "39016", "DISTRITO": "02", "SECCION": "3901602003", "V1_H": 81.0, "V1_M": 86.46, "V2_H": 80.73228769000001, "V2_M": 86.26471443, "V3_H": 81.28044537, "V3_M": 86.73149122 }, "geometry": { "type": "Polygon", "coordinates": [ [ [ -3.88739, 43.4419273 ], [ -3.8877816, 43.4426887 ], [ -3.8882295, 43.4435596 ], [ -3.8898779, 43.4430425 ], [ -3.8892551, 43.4418678 ], [ -3.8891876, 43.4414721 ], [ -3.8893683, 43.4411556 ], [ -3.889339, 43.4408406 ], [ -3.8899703, 43.4409167 ], [ -3.8902541, 43.4408875 ], [ -3.8905463, 43.4405881 ], [ -3.8911377, 43.4404664 ], [ -3.8912593, 43.4403304 ], [ -3.8916895, 43.440174 ], [ -3.8923583, 43.4402768 ], [ -3.8927901, 43.4402284 ], [ -3.8935259, 43.4398445 ], [ -3.8942782, 43.4397395 ], [ -3.8952429, 43.439795 ], [ -3.8954397, 43.4397305 ], [ -3.8959808, 43.4392485 ], [ -3.8960007, 43.4392308 ], [ -3.8974265, 43.4387154 ], [ -3.8993095, 43.4384022 ], [ -3.9007795, 43.4381577 ], [ -3.9018779, 43.438068 ], [ -3.9025433, 43.4379457 ], [ -3.9029974, 43.437735 ], [ -3.9032352, 43.4371028 ], [ -3.9033675, 43.4369615 ], [ -3.9036852, 43.436622 ], [ -3.9036569, 43.4365444 ], [ -3.9031184, 43.4350687 ], [ -3.9028777, 43.4346654 ], [ -3.9002436, 43.430346 ], [ -3.8991575, 43.4270858 ], [ -3.8968935, 43.4241717 ], [ -3.8903574, 43.4202401 ], [ -3.8804614, 43.4255827 ], [ -3.8767896, 43.4275454 ], [ -3.8760146, 43.4282089 ], [ -3.8757575, 43.4285158 ], [ -3.8752157, 43.429025 ], [ -3.8750531, 43.4291035 ], [ -3.8750547, 43.4291064 ], [ -3.875128, 43.4292487 ], [ -3.875356, 43.4295226 ], [ -3.8756711, 43.4300101 ], [ -3.8758311, 43.4304172 ], [ -3.8761166, 43.4307926 ], [ -3.8764867, 43.4312083 ], [ -3.8768569, 43.431624 ], [ -3.876985, 43.4317659 ], [ -3.8772822, 43.4319779 ], [ -3.8774812, 43.4321806 ], [ -3.8776806, 43.4324138 ], [ -3.8778644, 43.4325349 ], [ -3.878191, 43.4328386 ], [ -3.878576, 43.4333154 ], [ -3.8786455, 43.4334173 ], [ -3.8784889, 43.4338202 ], [ -3.8783453, 43.4354572 ], [ -3.8781621, 43.4356866 ], [ -3.8777291, 43.4357716 ], [ -3.8773767, 43.4365908 ], [ -3.877523, 43.4370184 ], [ -3.8772675, 43.4384036 ], [ -3.883191, 43.4387092 ], [ -3.8850082, 43.4396046 ], [ -3.8866017, 43.4404117 ], [ -3.8866252, 43.4404991 ], [ -3.886238, 43.4406158 ], [ -3.8865626, 43.4410517 ], [ -3.8865844, 43.4410452 ], [ -3.8867882, 43.4409844 ], [ -3.88739, 43.4419273 ] ] ] } },
{ "type": "Feature", "properties": { "CCAA": "06 - Cantabria", "PROVINCIA": "39 - Cantabria", "MUNICIPIO": "39016 - Camargo", "COD_MUNICIPIO": "39016", "DISTRITO": "03", "SECCION": "3901603002", "V1_H": 80.78, "V1_M": 86.64, "V2_H": 80.55514168000001, "V2_M": 86.45889906, "V3_H": 81.06237696, "V3_M": 86.87120108000001 }, "geometry": { "type": "Polygon", "coordinates": [ [ [ -3.8720804, 43.4154249 ], [ -3.8730217, 43.4155285 ], [ -3.8778773, 43.4165099 ], [ -3.8778829, 43.4165259 ], [ -3.8903205, 43.4202021 ], [ -3.8901397, 43.4177138 ], [ -3.8900767, 43.4143026 ], [ -3.8905622, 43.4090766 ], [ -3.8916635, 43.407094 ], [ -3.8917606, 43.4070089 ], [ -3.8922203, 43.4062715 ], [ -3.8926254, 43.4053725 ], [ -3.8930756, 43.4039872 ], [ -3.8931892, 43.4028237 ], [ -3.8928804, 43.4013776 ], [ -3.8924685, 43.4000276 ], [ -3.8924756, 43.3987315 ], [ -3.8926418, 43.3975867 ], [ -3.8926458, 43.396081 ], [ -3.8922337, 43.3947119 ], [ -3.8918221, 43.393381 ], [ -3.8911683, 43.392465 ], [ -3.8911438, 43.3914859 ], [ -3.8916267, 43.3907523 ], [ -3.8924406, 43.3892212 ], [ -3.8931921, 43.3870044 ], [ -3.8936375, 43.3853047 ], [ -3.8944923, 43.3830118 ], [ -3.8909288, 43.382895 ], [ -3.8853168, 43.3827107 ], [ -3.8814712, 43.3848767 ], [ -3.8803273, 43.3883145 ], [ -3.8776386, 43.392147 ], [ -3.8755787, 43.3961081 ], [ -3.8740986, 43.3967865 ], [ -3.8727345, 43.3995319 ], [ -3.8728504, 43.4025943 ], [ -3.8728907, 43.4025968 ], [ -3.8729159, 43.4027233 ], [ -3.8729997, 43.4030943 ], [ -3.8730327, 43.4032076 ], [ -3.8733449, 43.4034914 ], [ -3.8716167, 43.4068974 ], [ -3.8720256, 43.4080664 ], [ -3.872731, 43.4098526 ], [ -3.8728599, 43.4115479 ], [ -3.8723427, 43.4137627 ], [ -3.8721704, 43.4145073 ], [ -3.8720804, 43.4154249 ] ] ] } },
{ "type": "Feature", "properties": { "CCAA": "06 - Cantabria", "PROVINCIA": "39 - Cantabria", "MUNICIPIO": "39016 - Camargo", "COD_MUNICIPIO": "39016", "DISTRITO": "01", "SECCION": "3901601006", "V1_H": 80.38, "V1_M": 86.41, "V2_H": 80.21151379, "V2_M": 86.36716419, "V3_H": 80.6951312, "V3_M": 86.59024448 }, "geometry": { "type": "Polygon", "coordinates": [ [ [ -3.8434655, 43.4180642 ], [ -3.843477, 43.4181289 ], [ -3.8435024, 43.4183629 ], [ -3.8435278, 43.4185818 ], [ -3.843573, 43.4188132 ], [ -3.8437718, 43.4187811 ], [ -3.8439647, 43.4187501 ], [ -3.8443079, 43.4186824 ], [ -3.8448407, 43.4185957 ], [ -3.845773, 43.4184395 ], [ -3.8458161, 43.4184322 ], [ -3.8456982, 43.4181125 ], [ -3.8456965, 43.4181081 ], [ -3.8455216, 43.4175704 ], [ -3.8450794, 43.4177446 ], [ -3.8445909, 43.4178946 ], [ -3.8437615, 43.4180326 ], [ -3.8434655, 43.4180642 ] ] ] } },
{ "type": "Feature", "properties": { "CCAA": "06 - Cantabria", "PROVINCIA": "39 - Cantabria", "MUNICIPIO": "39016 - Camargo", "COD_MUNICIPIO": "39016", "DISTRITO": "01", "SECCION": "3901601007", "V1_H": 81.13, "V1_M": 86.76, "V2_H": 80.8252038, "V2_M": 86.73512652, "V3_H": 81.48774648, "V3_M": 86.92091474 }, "geometry": { "type": "Polygon", "coordinates": [ [ [ -3.8066414, 43.4215983 ], [ -3.8123658, 43.4230451 ], [ -3.815698, 43.4201293 ], [ -3.8166203, 43.4201053 ], [ -3.8171735, 43.4200944 ], [ -3.8173738, 43.4200895 ], [ -3.8177904, 43.4200787 ], [ -3.8180745, 43.4200749 ], [ -3.8184527, 43.4200677 ], [ -3.8187964, 43.4200601 ], [ -3.8190828, 43.4200531 ], [ -3.8192536, 43.4200489 ], [ -3.8196188, 43.4200393 ], [ -3.8203073, 43.4200265 ], [ -3.8206999, 43.4200141 ], [ -3.820898, 43.4200075 ], [ -3.8213762, 43.4199923 ], [ -3.8215575, 43.419988 ], [ -3.822165, 43.4199735 ], [ -3.8227938, 43.4199559 ], [ -3.8232891, 43.4199444 ], [ -3.8236304, 43.4199315 ], [ -3.8237509, 43.419928 ], [ -3.8238771, 43.4199062 ], [ -3.8240315, 43.4198641 ], [ -3.8240603, 43.4198562 ], [ -3.8243371, 43.4197811 ], [ -3.8244987, 43.4197243 ], [ -3.824887, 43.419569 ], [ -3.8253049, 43.4194042 ], [ -3.82547, 43.4193342 ], [ -3.8255743, 43.4192829 ], [ -3.8256785, 43.4192265 ], [ -3.8257634, 43.4191621 ], [ -3.8257897, 43.4191422 ], [ -3.8258862, 43.4190458 ], [ -3.8259827, 43.4188971 ], [ -3.8260208, 43.4188385 ], [ -3.8262078, 43.41855 ], [ -3.8263449, 43.4183584 ], [ -3.8264371, 43.4182531 ], [ -3.8264508, 43.4182375 ], [ -3.8264845, 43.4182036 ], [ -3.8265308, 43.4181569 ], [ -3.826572, 43.4181174 ], [ -3.8267046, 43.4180294 ], [ -3.8268065, 43.417973 ], [ -3.8269842, 43.4178725 ], [ -3.8271565, 43.4178076 ], [ -3.8273542, 43.4177801 ], [ -3.8276096, 43.4177696 ], [ -3.8277349, 43.4177695 ], [ -3.8278636, 43.4177511 ], [ -3.828009, 43.4177291 ], [ -3.8281652, 43.4176341 ], [ -3.8283783, 43.4174968 ], [ -3.8284884, 43.4174429 ], [ -3.8285667, 43.4174022 ], [ -3.8286954, 43.4173839 ], [ -3.8288409, 43.4173741 ], [ -3.8289365, 43.4173804 ], [ -3.8290717, 43.4173897 ], [ -3.8291942, 43.4174083 ], [ -3.8293322, 43.4174519 ], [ -3.8296119, 43.4176489 ], [ -3.8297103, 43.4177164 ], [ -3.8298447, 43.4177768 ], [ -3.8299789, 43.4178064 ], [ -3.8300707, 43.4178169 ], [ -3.8301871, 43.417809 ], [ -3.830421, 43.4177308 ], [ -3.8305122, 43.4176967 ], [ -3.830659, 43.4176803 ], [ -3.831188, 43.4176332 ], [ -3.8313184, 43.4176712 ], [ -3.8314007, 43.4177104 ], [ -3.8315607, 43.4177864 ], [ -3.8318376, 43.4179265 ], [ -3.8321294, 43.4181028 ], [ -3.8322623, 43.4181224 ], [ -3.8323808, 43.4181188 ], [ -3.8325025, 43.4180873 ], [ -3.8326434, 43.4180584 ], [ -3.8328001, 43.4180573 ], [ -3.8330297, 43.4180807 ], [ -3.8332131, 43.4180877 ], [ -3.8333715, 43.4180795 ], [ -3.8335886, 43.4180335 ], [ -3.8338804, 43.4179579 ], [ -3.8339426, 43.4179418 ], [ -3.8341748, 43.417876 ], [ -3.8343686, 43.417805 ], [ -3.8345893, 43.4177449 ], [ -3.8346434, 43.4177372 ], [ -3.8347341, 43.4177244 ], [ -3.8348925, 43.417705 ], [ -3.8351276, 43.4176899 ], [ -3.8351368, 43.4176893 ], [ -3.8353886, 43.417668 ], [ -3.8356216, 43.4176691 ], [ -3.8359465, 43.4176779 ], [ -3.8361206, 43.4176974 ], [ -3.8362773, 43.4177186 ], [ -3.8363538, 43.4177378 ], [ -3.836492, 43.4177727 ], [ -3.8366187, 43.4178107 ], [ -3.8367755, 43.4178346 ], [ -3.8369283, 43.4178335 ], [ -3.8370504, 43.4178216 ], [ -3.8372147, 43.4178204 ], [ -3.8373522, 43.4178166 ], [ -3.8375027, 43.4177918 ], [ -3.8376706, 43.4177794 ], [ -3.8378501, 43.4177781 ], [ -3.8379609, 43.4177801 ], [ -3.8381025, 43.417804 ], [ -3.8383476, 43.4178496 ], [ -3.8385586, 43.4179121 ], [ -3.8388338, 43.4179963 ], [ -3.8391053, 43.4180794 ], [ -3.8394074, 43.4181022 ], [ -3.8397325, 43.418136 ], [ -3.8399791, 43.4181467 ], [ -3.8399974, 43.4181545 ], [ -3.8402577, 43.4182658 ], [ -3.8402581, 43.4181642 ], [ -3.8402581, 43.4181526 ], [ -3.8402578, 43.4179956 ], [ -3.8402431, 43.4177647 ], [ -3.8402076, 43.4175352 ], [ -3.840159, 43.4173322 ], [ -3.8401293, 43.4172495 ], [ -3.8400954, 43.4171545 ], [ -3.8400125, 43.4169575 ], [ -3.839847, 43.4167318 ], [ -3.8396763, 43.4165437 ], [ -3.8395474, 43.4163956 ], [ -3.8395173, 43.416361 ], [ -3.8395075, 43.4163499 ], [ -3.8392011, 43.4160027 ], [ -3.8389062, 43.4156736 ], [ -3.8388002, 43.4155587 ], [ -3.8387097, 43.4154607 ], [ -3.8383605, 43.4150663 ], [ -3.8380159, 43.4146856 ], [ -3.8379145, 43.4145715 ], [ -3.8378707, 43.4145222 ], [ -3.8377946, 43.4144366 ], [ -3.8373831, 43.4139771 ], [ -3.837112, 43.4136733 ], [ -3.8369657, 43.4135092 ], [ -3.8366031, 43.4130828 ], [ -3.8363296, 43.4127749 ], [ -3.8362867, 43.4127267 ], [ -3.8362206, 43.4126523 ], [ -3.8359514, 43.4123483 ], [ -3.8357159, 43.412089 ], [ -3.8355299, 43.4118767 ], [ -3.835406, 43.4117352 ], [ -3.8349131, 43.4111948 ], [ -3.8347133, 43.4109876 ], [ -3.8344739, 43.4107154 ], [ -3.8341125, 43.4103197 ], [ -3.8339394, 43.4101309 ], [ -3.8339165, 43.410107 ], [ -3.8337191, 43.409901 ], [ -3.8335754, 43.4097592 ], [ -3.8335734, 43.4097573 ], [ -3.8334237, 43.4096875 ], [ -3.8331412, 43.4094228 ], [ -3.832779, 43.409209 ], [ -3.8327335, 43.4091821 ], [ -3.8324004, 43.4090116 ], [ -3.8319615, 43.4088162 ], [ -3.8313733, 43.4085646 ], [ -3.8310167, 43.4084126 ], [ -3.8307929, 43.4083172 ], [ -3.8306455, 43.4082544 ], [ -3.8301816, 43.4080531 ], [ -3.8284587, 43.407353 ], [ -3.8284419, 43.4073682 ], [ -3.8282485, 43.4076758 ], [ -3.8281894, 43.4078743 ], [ -3.8278808, 43.408786 ], [ -3.8269823, 43.4108366 ], [ -3.8265928, 43.4112626 ], [ -3.8259572, 43.4117534 ], [ -3.825393, 43.4120457 ], [ -3.8245817, 43.4123396 ], [ -3.8219828, 43.4128806 ], [ -3.821763, 43.4139807 ], [ -3.8201304, 43.4147398 ], [ -3.8198667, 43.4144176 ], [ -3.8188904, 43.4143885 ], [ -3.8188259, 43.4141819 ], [ -3.817195, 43.4141485 ], [ -3.8171862, 43.4144097 ], [ -3.8167959, 43.4147907 ], [ -3.8162182, 43.4150019 ], [ -3.814397, 43.4155191 ], [ -3.8147271, 43.4161831 ], [ -3.8140998, 43.4163857 ], [ -3.8138382, 43.4162165 ], [ -3.813104, 43.416744 ], [ -3.8091347, 43.4201488 ], [ -3.8096828, 43.4204872 ], [ -3.8098047, 43.4203692 ], [ -3.810203, 43.4205915 ], [ -3.8099591, 43.4208274 ], [ -3.8098024, 43.4211256 ], [ -3.8095087, 43.4213348 ], [ -3.80929, 43.4216065 ], [ -3.8083235, 43.4213882 ], [ -3.8084183, 43.4210904 ], [ -3.8081958, 43.421074 ], [ -3.8081008, 43.4213628 ], [ -3.8066414, 43.4215983 ] ] ] } },
{ "type": "Feature", "properties": { "CCAA": "06 - Cantabria", "PROVINCIA": "39 - Cantabria", "MUNICIPIO": "39016 - Camargo", "COD_MUNICIPIO": "39016", "DISTRITO": "01", "SECCION": "3901601005", "V1_H": 80.25, "V1_M": 86.11, "V2_H": 80.02266353, "V2_M": 86.02270939, "V3_H": 80.50879823, "V3_M": 86.37032083 }, "geometry": { "type": "Polygon", "coordinates": [ [ [ -3.8441755, 43.4219521 ], [ -3.8442256, 43.4220229 ], [ -3.8442774, 43.4220956 ], [ -3.8443283, 43.4221668 ], [ -3.8443783, 43.4222365 ], [ -3.8444279, 43.4223049 ], [ -3.8444782, 43.4223736 ], [ -3.8445307, 43.4224443 ], [ -3.8445865, 43.422518 ], [ -3.8446441, 43.4225932 ], [ -3.8446667, 43.4226223 ], [ -3.8446849, 43.4226457 ], [ -3.8447018, 43.4226675 ], [ -3.8447578, 43.4227393 ], [ -3.8448122, 43.4228086 ], [ -3.8448657, 43.4228757 ], [ -3.8449187, 43.4229414 ], [ -3.8449717, 43.4230061 ], [ -3.8450254, 43.423071 ], [ -3.84508, 43.4231367 ], [ -3.8451367, 43.4232039 ], [ -3.8451959, 43.4232731 ], [ -3.8452583, 43.4233449 ], [ -3.8453222, 43.4234175 ], [ -3.8453858, 43.4234895 ], [ -3.8454132, 43.4235209 ], [ -3.8454474, 43.4235597 ], [ -3.8455079, 43.4236288 ], [ -3.8455687, 43.4236981 ], [ -3.8456304, 43.4237686 ], [ -3.8456304, 43.4237686 ], [ -3.8456927, 43.4238396 ], [ -3.8457543, 43.4239099 ], [ -3.8458148, 43.4239787 ], [ -3.8458753, 43.4240475 ], [ -3.8459375, 43.4241181 ], [ -3.8460044, 43.4241943 ], [ -3.8460845, 43.4242873 ], [ -3.8461922, 43.4244104 ], [ -3.8472822, 43.426462 ], [ -3.8479574, 43.4262137 ], [ -3.8486231, 43.4261326 ], [ -3.8492484, 43.4259659 ], [ -3.8500402, 43.4255503 ], [ -3.8493921, 43.4250214 ], [ -3.8497806, 43.4247517 ], [ -3.8503376, 43.4243854 ], [ -3.8505559, 43.4240979 ], [ -3.8507628, 43.4239344 ], [ -3.851126, 43.4237316 ], [ -3.8514099, 43.4234626 ], [ -3.8515014, 43.4234619 ], [ -3.8519576, 43.4233632 ], [ -3.852309, 43.4232463 ], [ -3.8526667, 43.4231744 ], [ -3.8523001, 43.4227723 ], [ -3.852145, 43.4226046 ], [ -3.8520959, 43.4225674 ], [ -3.8519905, 43.4224875 ], [ -3.8518413, 43.422405 ], [ -3.8516747, 43.4223498 ], [ -3.8515214, 43.4223127 ], [ -3.8515156, 43.4223119 ], [ -3.8513324, 43.4222879 ], [ -3.8512475, 43.4222802 ], [ -3.8511685, 43.4222729 ], [ -3.8508841, 43.422247 ], [ -3.8501824, 43.42218 ], [ -3.8499051, 43.4221542 ], [ -3.8497494, 43.4221223 ], [ -3.8495671, 43.4220575 ], [ -3.8493588, 43.4219434 ], [ -3.8489372, 43.4216868 ], [ -3.8488688, 43.4216452 ], [ -3.848762, 43.4215805 ], [ -3.848602, 43.4214836 ], [ -3.8481838, 43.4212369 ], [ -3.8479371, 43.4210894 ], [ -3.8475902, 43.4208821 ], [ -3.8474402, 43.4207938 ], [ -3.8473417, 43.420736 ], [ -3.8473301, 43.4207291 ], [ -3.8470329, 43.4205528 ], [ -3.8469883, 43.4205262 ], [ -3.8469416, 43.4204974 ], [ -3.8467595, 43.4203852 ], [ -3.8466171, 43.4202732 ], [ -3.8465156, 43.4201816 ], [ -3.8464637, 43.4201101 ], [ -3.8462653, 43.4200665 ], [ -3.8462284, 43.4200584 ], [ -3.845983, 43.4202554 ], [ -3.8461515, 43.4203776 ], [ -3.8458873, 43.4205795 ], [ -3.8459144, 43.4206198 ], [ -3.8457447, 43.4207584 ], [ -3.8457554, 43.4207659 ], [ -3.8455933, 43.4208822 ], [ -3.845037, 43.4213008 ], [ -3.8445066, 43.4217097 ], [ -3.8441755, 43.4219521 ] ] ] } },
{ "type": "Feature", "properties": { "CCAA": "06 - Cantabria", "PROVINCIA": "39 - Cantabria", "MUNICIPIO": "39016 - Camargo", "COD_MUNICIPIO": "39016", "DISTRITO": "01", "SECCION": "3901601008", "V1_H": 80.25, "V1_M": 86.11, "V2_H": 80.02266353, "V2_M": 86.02270939, "V3_H": 80.50879823, "V3_M": 86.37032083 }, "geometry": { "type": "Polygon", "coordinates": [ [ [ -3.8423284, 43.4182577 ], [ -3.8423739, 43.4182583 ], [ -3.842589, 43.4182414 ], [ -3.8427385, 43.418225 ], [ -3.8429219, 43.4181949 ], [ -3.8431078, 43.4181592 ], [ -3.8432403, 43.4181306 ], [ -3.8434655, 43.4180642 ], [ -3.8437615, 43.4180326 ], [ -3.8445909, 43.4178946 ], [ -3.8450794, 43.4177446 ], [ -3.8455216, 43.4175704 ], [ -3.8454265, 43.4172571 ], [ -3.8454126, 43.4172106 ], [ -3.8452868, 43.416788 ], [ -3.8431095, 43.4172206 ], [ -3.8428573, 43.416577 ], [ -3.8419604, 43.4167468 ], [ -3.8419675, 43.4167859 ], [ -3.8419792, 43.4168455 ], [ -3.841991, 43.4169028 ], [ -3.8420027, 43.4169588 ], [ -3.8420147, 43.4170156 ], [ -3.8420276, 43.4170758 ], [ -3.8420416, 43.4171405 ], [ -3.8420562, 43.417208 ], [ -3.8420622, 43.4172346 ], [ -3.8420711, 43.4172754 ], [ -3.8420858, 43.4173405 ], [ -3.8421002, 43.4174032 ], [ -3.8421145, 43.417464 ], [ -3.8421286, 43.4175232 ], [ -3.8421424, 43.4175797 ], [ -3.8421554, 43.4176326 ], [ -3.8421674, 43.4176809 ], [ -3.8421787, 43.4177258 ], [ -3.8421896, 43.4177692 ], [ -3.8422009, 43.4178125 ], [ -3.8422125, 43.4178573 ], [ -3.8422252, 43.4179047 ], [ -3.8422391, 43.4179555 ], [ -3.8422536, 43.4180076 ], [ -3.8422679, 43.4180586 ], [ -3.8422818, 43.4181071 ], [ -3.8422907, 43.418137 ], [ -3.8422969, 43.4181581 ], [ -3.8423153, 43.4182157 ], [ -3.8423284, 43.4182577 ] ] ] } },
{ "type": "Feature", "properties": { "CCAA": "06 - Cantabria", "PROVINCIA": "39 - Cantabria", "MUNICIPIO": "39016 - Camargo", "COD_MUNICIPIO": "39016", "DISTRITO": "01", "SECCION": "3901601003", "V1_H": 80.06, "V1_M": 86.09, "V2_H": 79.80248703, "V2_M": 86.14116428, "V3_H": 80.46064959, "V3_M": 86.17412372 }, "geometry": { "type": "Polygon", "coordinates": [ [ [ -3.8419604, 43.4167468 ], [ -3.8428573, 43.416577 ], [ -3.8431095, 43.4172206 ], [ -3.8452868, 43.416788 ], [ -3.8452831, 43.4167752 ], [ -3.8451864, 43.4164504 ], [ -3.845106, 43.4163088 ], [ -3.8448968, 43.4159407 ], [ -3.8448628, 43.4158565 ], [ -3.8448406, 43.415802 ], [ -3.8446875, 43.4154168 ], [ -3.8445866, 43.4151288 ], [ -3.8445384, 43.4149911 ], [ -3.8444353, 43.4146858 ], [ -3.8443735, 43.414524 ], [ -3.8443224, 43.4143902 ], [ -3.8441898, 43.4140205 ], [ -3.8440532, 43.4136223 ], [ -3.8440002, 43.4134675 ], [ -3.8437996, 43.4129334 ], [ -3.8437136, 43.4127207 ], [ -3.8436731, 43.4126203 ], [ -3.8436094, 43.4124627 ], [ -3.8427703, 43.4128286 ], [ -3.8417759, 43.4132681 ], [ -3.8416358, 43.4132999 ], [ -3.8416562, 43.4135975 ], [ -3.841659, 43.4136385 ], [ -3.841665, 43.4137245 ], [ -3.8416729, 43.4138369 ], [ -3.8416803, 43.4139419 ], [ -3.8416876, 43.4140459 ], [ -3.8416951, 43.4141493 ], [ -3.8417025, 43.4142517 ], [ -3.84171, 43.4143521 ], [ -3.8417176, 43.4144518 ], [ -3.8417245, 43.4145421 ], [ -3.8417252, 43.4145517 ], [ -3.8417329, 43.4146536 ], [ -3.841741, 43.4147609 ], [ -3.8417498, 43.4148775 ], [ -3.8417598, 43.4150117 ], [ -3.8417731, 43.4151881 ], [ -3.8417919, 43.4154381 ], [ -3.8417998, 43.4155141 ], [ -3.8418063, 43.4155794 ], [ -3.8418116, 43.415638 ], [ -3.841817, 43.4156929 ], [ -3.8418227, 43.4157465 ], [ -3.8418286, 43.4158002 ], [ -3.8418349, 43.4158557 ], [ -3.8418416, 43.4159137 ], [ -3.8418487, 43.4159747 ], [ -3.8418563, 43.4160383 ], [ -3.8418643, 43.4161023 ], [ -3.8418722, 43.4161637 ], [ -3.8418796, 43.4162207 ], [ -3.8418872, 43.4162754 ], [ -3.8418951, 43.416331 ], [ -3.8418952, 43.4163318 ], [ -3.8419039, 43.4163903 ], [ -3.8419131, 43.4164533 ], [ -3.8419231, 43.4165194 ], [ -3.8419338, 43.4165877 ], [ -3.8419447, 43.4166563 ], [ -3.841956, 43.416723 ], [ -3.8419604, 43.4167468 ] ] ] } },
{ "type": "Feature", "properties": { "CCAA": "06 - Cantabria", "PROVINCIA": "39 - Cantabria", "MUNICIPIO": "39016 - Camargo", "COD_MUNICIPIO": "39016", "DISTRITO": "01", "SECCION": "3901601010", "V1_H": 79.92, "V1_M": 85.8, "V2_H": 79.90391364, "V2_M": 85.68196434, "V3_H": 80.09820982, "V3_M": 86.14356104 }, "geometry": { "type": "Polygon", "coordinates": [ [ [ -3.8425171, 43.4210101 ], [ -3.8439541, 43.4220014 ], [ -3.844173, 43.4219486 ], [ -3.8441755, 43.4219521 ], [ -3.8445066, 43.4217097 ], [ -3.845037, 43.4213008 ], [ -3.8455933, 43.4208822 ], [ -3.8457554, 43.4207659 ], [ -3.8457447, 43.4207584 ], [ -3.8459144, 43.4206198 ], [ -3.8458873, 43.4205795 ], [ -3.8461515, 43.4203776 ], [ -3.845983, 43.4202554 ], [ -3.8462284, 43.4200584 ], [ -3.8455661, 43.4199127 ], [ -3.8451897, 43.4198569 ], [ -3.8449777, 43.4198374 ], [ -3.8447854, 43.4197929 ], [ -3.8444307, 43.4196855 ], [ -3.8441325, 43.4195747 ], [ -3.8438862, 43.419431 ], [ -3.8437794, 43.4193291 ], [ -3.8437678, 43.419318 ], [ -3.8436688, 43.419179 ], [ -3.8436355, 43.41907 ], [ -3.8436239, 43.4190319 ], [ -3.8436, 43.4189537 ], [ -3.843573, 43.4188132 ], [ -3.8435278, 43.4185818 ], [ -3.8435024, 43.4183629 ], [ -3.843477, 43.4181289 ], [ -3.8434655, 43.4180642 ], [ -3.8432403, 43.4181306 ], [ -3.8431078, 43.4181592 ], [ -3.8429219, 43.4181949 ], [ -3.8427385, 43.418225 ], [ -3.842589, 43.4182414 ], [ -3.8423739, 43.4182583 ], [ -3.8423284, 43.4182577 ], [ -3.8423424, 43.4183026 ], [ -3.8423704, 43.4183871 ], [ -3.842394, 43.4184573 ], [ -3.8424152, 43.41852 ], [ -3.8424354, 43.418579 ], [ -3.842455, 43.4186357 ], [ -3.8424744, 43.4186911 ], [ -3.8424939, 43.4187455 ], [ -3.8425136, 43.4187994 ], [ -3.8425332, 43.418853 ], [ -3.8425528, 43.4189063 ], [ -3.8425722, 43.4189589 ], [ -3.8425912, 43.4190098 ], [ -3.842602, 43.4190382 ], [ -3.8426097, 43.4190585 ], [ -3.8426277, 43.4191054 ], [ -3.8426452, 43.4191509 ], [ -3.8426625, 43.419195 ], [ -3.8426795, 43.4192384 ], [ -3.8426965, 43.4192811 ], [ -3.8427138, 43.4193237 ], [ -3.8427313, 43.4193668 ], [ -3.8427496, 43.4194114 ], [ -3.8427691, 43.419459 ], [ -3.8427912, 43.4195126 ], [ -3.8428182, 43.4195757 ], [ -3.842852, 43.4196528 ], [ -3.8428967, 43.419752 ], [ -3.8429883, 43.4199317 ], [ -3.8430389, 43.4200374 ], [ -3.8430959, 43.4201514 ], [ -3.8431531, 43.4202649 ], [ -3.8432078, 43.4203706 ], [ -3.8432592, 43.4204685 ], [ -3.8433086, 43.4205598 ], [ -3.8433562, 43.4206458 ], [ -3.8434025, 43.4207272 ], [ -3.8434471, 43.4208046 ], [ -3.8425059, 43.4210023 ], [ -3.8425171, 43.4210101 ] ] ] } },
{ "type": "Feature", "properties": { "CCAA": "06 - Cantabria", "PROVINCIA": "39 - Cantabria", "MUNICIPIO": "39016 - Camargo", "COD_MUNICIPIO": "39016", "DISTRITO": "03", "SECCION": "3901603003", "V1_H": 80.91, "V1_M": 86.64, "V2_H": 80.44720226, "V2_M": 86.54313262, "V3_H": 81.45534141, "V3_M": 86.89844934 }, "geometry": { "type": "Polygon", "coordinates": [ [ [ -3.8903574, 43.4202401 ], [ -3.8968935, 43.4241717 ], [ -3.8968906, 43.4241681 ], [ -3.8981484, 43.4231767 ], [ -3.8984517, 43.4225743 ], [ -3.8984518, 43.4225743 ], [ -3.9005606, 43.4183853 ], [ -3.901322, 43.4180822 ], [ -3.9030316, 43.416745 ], [ -3.9035684, 43.4162905 ], [ -3.9038706, 43.4158469 ], [ -3.9041519, 43.4148272 ], [ -3.9040837, 43.4143955 ], [ -3.9041149, 43.413999 ], [ -3.9044788, 43.4135549 ], [ -3.9050902, 43.4131359 ], [ -3.9060371, 43.4128493 ], [ -3.9065958, 43.4130429 ], [ -3.9074008, 43.4131896 ], [ -3.9081332, 43.4134359 ], [ -3.9085937, 43.412838 ], [ -3.9088398, 43.412773 ], [ -3.9098976, 43.4124764 ], [ -3.9108188, 43.4121269 ], [ -3.9110744, 43.4118817 ], [ -3.9112555, 43.4107727 ], [ -3.9115195, 43.4102574 ], [ -3.9119439, 43.4097317 ], [ -3.9128808, 43.4104356 ], [ -3.9132704, 43.4100543 ], [ -3.9139915, 43.4095533 ], [ -3.914447, 43.4094506 ], [ -3.9149296, 43.4095098 ], [ -3.9162321, 43.4098865 ], [ -3.9179149, 43.4100891 ], [ -3.9187431, 43.4101275 ], [ -3.9194455, 43.4100228 ], [ -3.919888, 43.4098752 ], [ -3.9214568, 43.4082597 ], [ -3.9202464, 43.4058112 ], [ -3.9200214, 43.4048135 ], [ -3.9196859, 43.4038617 ], [ -3.9195572, 43.4018817 ], [ -3.919151, 43.3962481 ], [ -3.9194282, 43.3940574 ], [ -3.9201548, 43.3883159 ], [ -3.920069, 43.385093 ], [ -3.9209036, 43.3815024 ], [ -3.923761, 43.3777964 ], [ -3.9214313, 43.3758999 ], [ -3.9206614, 43.3752731 ], [ -3.9136919, 43.3747887 ], [ -3.9099053, 43.3782947 ], [ -3.9077492, 43.378582 ], [ -3.903742, 43.3814051 ], [ -3.8999939, 43.3834157 ], [ -3.8995652, 43.3836442 ], [ -3.8968533, 43.3830892 ], [ -3.8944923, 43.3830118 ], [ -3.8936375, 43.3853047 ], [ -3.8931921, 43.3870044 ], [ -3.8924406, 43.3892212 ], [ -3.8916267, 43.3907523 ], [ -3.8911438, 43.3914859 ], [ -3.8911683, 43.392465 ], [ -3.8918221, 43.393381 ], [ -3.8922337, 43.3947119 ], [ -3.8926458, 43.396081 ], [ -3.8926418, 43.3975867 ], [ -3.8924756, 43.3987315 ], [ -3.8924685, 43.4000276 ], [ -3.8928804, 43.4013776 ], [ -3.8931892, 43.4028237 ], [ -3.8930756, 43.4039872 ], [ -3.8926254, 43.4053725 ], [ -3.8922203, 43.4062715 ], [ -3.8917606, 43.4070089 ], [ -3.8916635, 43.407094 ], [ -3.8905622, 43.4090766 ], [ -3.8900767, 43.4143026 ], [ -3.8901397, 43.4177138 ], [ -3.8903205, 43.4202021 ], [ -3.8903532, 43.4202117 ], [ -3.8905406, 43.4201412 ], [ -3.8903574, 43.4202401 ] ] ] } },
{ "type": "Feature", "properties": { "CCAA": "06 - Cantabria", "PROVINCIA": "39 - Cantabria", "MUNICIPIO": "39016 - Camargo", "COD_MUNICIPIO": "39016", "DISTRITO": "01", "SECCION": "3901601015", "V1_H": 81.72, "V1_M": 86.96, "V2_H": 81.44760383000001, "V2_M": 86.83587728000001, "V3_H": 82.03657934, "V3_M": 87.26058658 }, "geometry": { "type": "Polygon", "coordinates": [ [ [ -3.8479046, 43.4276337 ], [ -3.8488224, 43.4293609 ], [ -3.8502095, 43.4319713 ], [ -3.8529922, 43.4372073 ], [ -3.8541077, 43.4371034 ], [ -3.8550795, 43.4355096 ], [ -3.8561428, 43.4339388 ], [ -3.8568053, 43.4327045 ], [ -3.857149, 43.4321904 ], [ -3.8571338, 43.4321655 ], [ -3.8570896, 43.4320824 ], [ -3.8569565, 43.4318666 ], [ -3.8568905, 43.4317453 ], [ -3.8568435, 43.4316396 ], [ -3.8567958, 43.431537 ], [ -3.8567882, 43.4315207 ], [ -3.8567651, 43.4314112 ], [ -3.8567542, 43.4313139 ], [ -3.856753, 43.4312251 ], [ -3.8567732, 43.4310483 ], [ -3.8568013, 43.4308357 ], [ -3.8568328, 43.4306327 ], [ -3.8568483, 43.4305317 ], [ -3.8568703, 43.4303889 ], [ -3.8568718, 43.4303752 ], [ -3.8568968, 43.4301458 ], [ -3.8569282, 43.4299237 ], [ -3.8569429, 43.4297277 ], [ -3.8569463, 43.4296816 ], [ -3.8569614, 43.4294788 ], [ -3.8569663, 43.4293135 ], [ -3.8569674, 43.4292211 ], [ -3.856962, 43.4291946 ], [ -3.8569509, 43.4291403 ], [ -3.8569106, 43.4289928 ], [ -3.8568414, 43.4288334 ], [ -3.8566937, 43.4284708 ], [ -3.85664, 43.4283194 ], [ -3.8566036, 43.4281721 ], [ -3.8565823, 43.4280191 ], [ -3.8565811, 43.4279396 ], [ -3.8565794, 43.4278159 ], [ -3.85658, 43.4277421 ], [ -3.8565905, 43.4274149 ], [ -3.8565922, 43.4273591 ], [ -3.8566029, 43.4270348 ], [ -3.856613, 43.4267249 ], [ -3.8566149, 43.4266641 ], [ -3.8566229, 43.4262917 ], [ -3.8566264, 43.42613 ], [ -3.8566269, 43.4261089 ], [ -3.8566546, 43.4258999 ], [ -3.8566965, 43.4256239 ], [ -3.8564636, 43.425634 ], [ -3.8564273, 43.4256253 ], [ -3.8562835, 43.4255908 ], [ -3.8560918, 43.4255477 ], [ -3.8558424, 43.4254716 ], [ -3.8556577, 43.42537 ], [ -3.8554517, 43.4252492 ], [ -3.8554265, 43.4252344 ], [ -3.8550549, 43.4250166 ], [ -3.8548476, 43.4248984 ], [ -3.8545003, 43.4247005 ], [ -3.8543426, 43.4246072 ], [ -3.8539505, 43.4243753 ], [ -3.8539129, 43.424353 ], [ -3.8537384, 43.4242441 ], [ -3.8536647, 43.4242012 ], [ -3.8535343, 43.4240995 ], [ -3.8533877, 43.4239552 ], [ -3.8530859, 43.423626 ], [ -3.8529366, 43.4234652 ], [ -3.8526781, 43.4231868 ], [ -3.8526667, 43.4231744 ], [ -3.852309, 43.4232463 ], [ -3.8519576, 43.4233632 ], [ -3.8515014, 43.4234619 ], [ -3.8514099, 43.4234626 ], [ -3.851126, 43.4237316 ], [ -3.8507628, 43.4239344 ], [ -3.8505559, 43.4240979 ], [ -3.8503376, 43.4243854 ], [ -3.8497806, 43.4247517 ], [ -3.8493921, 43.4250214 ], [ -3.8500402, 43.4255503 ], [ -3.8492484, 43.4259659 ], [ -3.8486231, 43.4261326 ], [ -3.8479574, 43.4262137 ], [ -3.8472822, 43.426462 ], [ -3.8479046, 43.4276337 ] ] ] } },
{ "type": "Feature", "properties": { "CCAA": "06 - Cantabria", "PROVINCIA": "39 - Cantabria", "MUNICIPIO": "39016 - Camargo", "COD_MUNICIPIO": "39016", "DISTRITO": "02", "SECCION": "3901602002", "V1_H": 81.1, "V1_M": 86.64, "V2_H": 80.60081217, "V2_M": 86.48118059, "V3_H": 81.51550291, "V3_M": 86.87452308 }, "geometry": { "type": "Polygon", "coordinates": [ [ [ -3.8757659, 43.4383778 ], [ -3.8768067, 43.4383957 ], [ -3.8772675, 43.4384036 ], [ -3.877523, 43.4370184 ], [ -3.8773767, 43.4365908 ], [ -3.8777291, 43.4357716 ], [ -3.8781621, 43.4356866 ], [ -3.8783453, 43.4354572 ], [ -3.8784889, 43.4338202 ], [ -3.8786455, 43.4334173 ], [ -3.878576, 43.4333154 ], [ -3.878191, 43.4328386 ], [ -3.8778644, 43.4325349 ], [ -3.8776806, 43.4324138 ], [ -3.8774812, 43.4321806 ], [ -3.8772822, 43.4319779 ], [ -3.876985, 43.4317659 ], [ -3.8768569, 43.431624 ], [ -3.8764867, 43.4312083 ], [ -3.8761166, 43.4307926 ], [ -3.8758311, 43.4304172 ], [ -3.8756711, 43.4300101 ], [ -3.875356, 43.4295226 ], [ -3.875128, 43.4292487 ], [ -3.8750547, 43.4291064 ], [ -3.8726414, 43.4300453 ], [ -3.8712611, 43.4304465 ], [ -3.8705052, 43.4306238 ], [ -3.8700999, 43.4306269 ], [ -3.8697202, 43.4305917 ], [ -3.8693408, 43.4305755 ], [ -3.8651001, 43.431208 ], [ -3.8643849, 43.4314898 ], [ -3.8638903, 43.431646 ], [ -3.8635116, 43.431687 ], [ -3.8632332, 43.4317173 ], [ -3.8629491, 43.4325663 ], [ -3.8622029, 43.434354 ], [ -3.8616209, 43.4357306 ], [ -3.8621851, 43.4358598 ], [ -3.8621006, 43.436356 ], [ -3.8619643, 43.4368906 ], [ -3.8618796, 43.4380975 ], [ -3.8619348, 43.4381028 ], [ -3.8624849, 43.4381559 ], [ -3.8667613, 43.4382226 ], [ -3.8757659, 43.4383778 ] ] ] } },
{ "type": "Feature", "properties": { "CCAA": "06 - Cantabria", "PROVINCIA": "39 - Cantabria", "MUNICIPIO": "39016 - Camargo", "COD_MUNICIPIO": "39016", "DISTRITO": "01", "SECCION": "3901601014", "V1_H": 80.21, "V1_M": 86.17, "V2_H": 80.05188782, "V2_M": 86.17746221, "V3_H": 80.45086201, "V3_M": 86.3559927 }, "geometry": { "type": "Polygon", "coordinates": [ [ [ -3.8377317, 43.4241725 ], [ -3.8379333, 43.4247543 ], [ -3.8382372, 43.4252696 ], [ -3.8394549, 43.4265213 ], [ -3.841092, 43.4282216 ], [ -3.8479046, 43.4276337 ], [ -3.8472822, 43.426462 ], [ -3.8461922, 43.4244104 ], [ -3.8460845, 43.4242873 ], [ -3.8460044, 43.4241943 ], [ -3.8459375, 43.4241181 ], [ -3.8458753, 43.4240475 ], [ -3.8458148, 43.4239787 ], [ -3.8457543, 43.4239099 ], [ -3.8456927, 43.4238396 ], [ -3.8456304, 43.4237686 ], [ -3.8456304, 43.4237686 ], [ -3.8455687, 43.4236981 ], [ -3.8455079, 43.4236288 ], [ -3.8454474, 43.4235597 ], [ -3.8454132, 43.4235209 ], [ -3.8453858, 43.4234895 ], [ -3.8453222, 43.4234175 ], [ -3.8452583, 43.4233449 ], [ -3.8451959, 43.4232731 ], [ -3.8451367, 43.4232039 ], [ -3.84508, 43.4231367 ], [ -3.8450254, 43.423071 ], [ -3.8449717, 43.4230061 ], [ -3.8449187, 43.4229414 ], [ -3.8448657, 43.4228757 ], [ -3.8448122, 43.4228086 ], [ -3.8447578, 43.4227393 ], [ -3.8447018, 43.4226675 ], [ -3.8446849, 43.4226457 ], [ -3.8446667, 43.4226223 ], [ -3.8446441, 43.4225932 ], [ -3.8445865, 43.422518 ], [ -3.8445307, 43.4224443 ], [ -3.8444782, 43.4223736 ], [ -3.8444279, 43.4223049 ], [ -3.8443783, 43.4222365 ], [ -3.8443283, 43.4221668 ], [ -3.8442774, 43.4220956 ], [ -3.8442256, 43.4220229 ], [ -3.8441755, 43.4219521 ], [ -3.844173, 43.4219486 ], [ -3.8439541, 43.4220014 ], [ -3.8425171, 43.4210101 ], [ -3.8424656, 43.4210083 ], [ -3.8423036, 43.4211095 ], [ -3.8438016, 43.4221277 ], [ -3.8417575, 43.4236818 ], [ -3.8397841, 43.422324 ], [ -3.8397577, 43.4223052 ], [ -3.8394238, 43.4225534 ], [ -3.8391948, 43.4224015 ], [ -3.8391079, 43.4225096 ], [ -3.8387556, 43.4233214 ], [ -3.8386312, 43.4235658 ], [ -3.8385158, 43.4237456 ], [ -3.8379992, 43.424043 ], [ -3.8377317, 43.4241725 ] ] ] } },
{ "type": "Feature", "properties": { "CCAA": "06 - Cantabria", "PROVINCIA": "39 - Cantabria", "MUNICIPIO": "39016 - Camargo", "COD_MUNICIPIO": "39016", "DISTRITO": "02", "SECCION": "3901602001", "V1_H": 81.55, "V1_M": 86.88, "V2_H": 81.46298126000001, "V2_M": 86.741846, "V3_H": 81.68783029, "V3_M": 87.18580847 }, "geometry": { "type": "Polygon", "coordinates": [ [ [ -3.8614628, 43.438062 ], [ -3.8614703, 43.4380644 ], [ -3.8615321, 43.438064 ], [ -3.8617732, 43.4380872 ], [ -3.8618796, 43.4380975 ], [ -3.8619643, 43.4368906 ], [ -3.8621006, 43.436356 ], [ -3.8621851, 43.4358598 ], [ -3.8616209, 43.4357306 ], [ -3.8622029, 43.434354 ], [ -3.8629491, 43.4325663 ], [ -3.8632332, 43.4317173 ], [ -3.8635116, 43.431687 ], [ -3.8638903, 43.431646 ], [ -3.8643849, 43.4314898 ], [ -3.8651001, 43.431208 ], [ -3.8693408, 43.4305755 ], [ -3.8697202, 43.4305917 ], [ -3.8700999, 43.4306269 ], [ -3.8705052, 43.4306238 ], [ -3.8712611, 43.4304465 ], [ -3.8726414, 43.4300453 ], [ -3.8750547, 43.4291064 ], [ -3.8750531, 43.4291035 ], [ -3.8752157, 43.429025 ], [ -3.8757575, 43.4285158 ], [ -3.8760146, 43.4282089 ], [ -3.8767896, 43.4275454 ], [ -3.8804614, 43.4255827 ], [ -3.8903574, 43.4202401 ], [ -3.8905406, 43.4201412 ], [ -3.8903532, 43.4202117 ], [ -3.8903205, 43.4202021 ], [ -3.8778829, 43.4165259 ], [ -3.8778773, 43.4165099 ], [ -3.8730217, 43.4155285 ], [ -3.8720804, 43.4154249 ], [ -3.8613688, 43.4142447 ], [ -3.8617443, 43.4180473 ], [ -3.8617698, 43.4180659 ], [ -3.8616775, 43.4194217 ], [ -3.8616377, 43.4203082 ], [ -3.8614328, 43.4215296 ], [ -3.8612863, 43.4222645 ], [ -3.8592795, 43.4245762 ], [ -3.8581502, 43.4242321 ], [ -3.8580712, 43.4241946 ], [ -3.8577871, 43.4244445 ], [ -3.8574549, 43.4249902 ], [ -3.8574354, 43.4254668 ], [ -3.8599318, 43.4263248 ], [ -3.859926, 43.4266665 ], [ -3.8599072, 43.4266707 ], [ -3.8600573, 43.4268765 ], [ -3.8602987, 43.4273036 ], [ -3.8601796, 43.428124 ], [ -3.8598768, 43.4289077 ], [ -3.8592086, 43.4297323 ], [ -3.8579637, 43.4306397 ], [ -3.8578287, 43.4310958 ], [ -3.8576792, 43.4316211 ], [ -3.8575121, 43.4318225 ], [ -3.8572932, 43.4320623 ], [ -3.8571624, 43.4322123 ], [ -3.857149, 43.4321904 ], [ -3.8568053, 43.4327045 ], [ -3.8561428, 43.4339388 ], [ -3.8550795, 43.4355096 ], [ -3.8541077, 43.4371034 ], [ -3.8542277, 43.4370923 ], [ -3.8549828, 43.4371857 ], [ -3.8552404, 43.4372771 ], [ -3.8555075, 43.437372 ], [ -3.8564235, 43.4376972 ], [ -3.8573742, 43.437645 ], [ -3.8583274, 43.4377639 ], [ -3.8594856, 43.4375301 ], [ -3.8604275, 43.4377301 ], [ -3.8614628, 43.438062 ] ] ] } },
{ "type": "Feature", "properties": { "CCAA": "06 - Cantabria", "PROVINCIA": "39 - Cantabria", "MUNICIPIO": "39016 - Camargo", "COD_MUNICIPIO": "39016", "DISTRITO": "01", "SECCION": "3901601012", "V1_H": 80.27, "V1_M": 86.36, "V2_H": 80.04050342, "V2_M": 86.25745667, "V3_H": 80.55487256000001, "V3_M": 86.64917866 }, "geometry": { "type": "Polygon", "coordinates": [ [ [ -3.8462284, 43.4200584 ], [ -3.8462653, 43.4200665 ], [ -3.8464637, 43.4201101 ], [ -3.8464137, 43.4200176 ], [ -3.8463807, 43.4199616 ], [ -3.8463636, 43.4199068 ], [ -3.8462592, 43.4196262 ], [ -3.8460313, 43.4190141 ], [ -3.8459759, 43.4188652 ], [ -3.8458615, 43.418555 ], [ -3.8458161, 43.4184322 ], [ -3.845773, 43.4184395 ], [ -3.8448407, 43.4185957 ], [ -3.8443079, 43.4186824 ], [ -3.8439647, 43.4187501 ], [ -3.8437718, 43.4187811 ], [ -3.843573, 43.4188132 ], [ -3.8436, 43.4189537 ], [ -3.8436239, 43.4190319 ], [ -3.8436355, 43.41907 ], [ -3.8436688, 43.419179 ], [ -3.8437678, 43.419318 ], [ -3.8437794, 43.4193291 ], [ -3.8438862, 43.419431 ], [ -3.8441325, 43.4195747 ], [ -3.8444307, 43.4196855 ], [ -3.8447854, 43.4197929 ], [ -3.8449777, 43.4198374 ], [ -3.8451897, 43.4198569 ], [ -3.8455661, 43.4199127 ], [ -3.8462284, 43.4200584 ] ] ] } },
{ "type": "Feature", "properties": { "CCAA": "06 - Cantabria", "PROVINCIA": "39 - Cantabria", "MUNICIPIO": "39016 - Camargo", "COD_MUNICIPIO": "39016", "DISTRITO": "03", "SECCION": "3901603001", "V1_H": 80.78, "V1_M": 86.63, "V2_H": 80.78050334, "V2_M": 86.59104663, "V3_H": 80.85502768000001, "V3_M": 86.88271981 }, "geometry": { "type": "Polygon", "coordinates": [ [ [ -3.8589945, 43.416032 ], [ -3.8617443, 43.4180473 ], [ -3.8613688, 43.4142447 ], [ -3.8720804, 43.4154249 ], [ -3.8721704, 43.4145073 ], [ -3.8723427, 43.4137627 ], [ -3.8728599, 43.4115479 ], [ -3.872731, 43.4098526 ], [ -3.8720256, 43.4080664 ], [ -3.8716167, 43.4068974 ], [ -3.8733449, 43.4034914 ], [ -3.8730327, 43.4032076 ], [ -3.8729997, 43.4030943 ], [ -3.8729159, 43.4027233 ], [ -3.8728907, 43.4025968 ], [ -3.8728504, 43.4025943 ], [ -3.8727345, 43.3995319 ], [ -3.8740986, 43.3967865 ], [ -3.8755787, 43.3961081 ], [ -3.8776386, 43.392147 ], [ -3.8803273, 43.3883145 ], [ -3.8814712, 43.3848767 ], [ -3.8780547, 43.3868008 ], [ -3.8756787, 43.3881427 ], [ -3.8723053, 43.3881769 ], [ -3.8720863, 43.3881792 ], [ -3.8685755, 43.3887462 ], [ -3.8674044, 43.3888721 ], [ -3.8650993, 43.3891417 ], [ -3.8612817, 43.3898458 ], [ -3.8609862, 43.3899021 ], [ -3.8609034, 43.3901638 ], [ -3.8604594, 43.3915488 ], [ -3.8604594, 43.3915488 ], [ -3.8602175, 43.3923031 ], [ -3.860206, 43.3923662 ], [ -3.8589556, 43.3958985 ], [ -3.8582467, 43.3979008 ], [ -3.8549639, 43.4006808 ], [ -3.8542209, 43.4014158 ], [ -3.8505771, 43.4049007 ], [ -3.8496632, 43.4057219 ], [ -3.8488695, 43.4064352 ], [ -3.8459074, 43.4092486 ], [ -3.8454235, 43.4099815 ], [ -3.84425, 43.4117551 ], [ -3.8438385, 43.4123615 ], [ -3.8437157, 43.4124164 ], [ -3.843655, 43.4124428 ], [ -3.8439718, 43.4123898 ], [ -3.8444549, 43.4123482 ], [ -3.8450314, 43.4124392 ], [ -3.8455179, 43.4126453 ], [ -3.8461366, 43.4129552 ], [ -3.8464152, 43.4132485 ], [ -3.846761, 43.4136748 ], [ -3.8470375, 43.4138157 ], [ -3.8472077, 43.4138335 ], [ -3.8475214, 43.4138312 ], [ -3.8478083, 43.4137814 ], [ -3.8482251, 43.4136735 ], [ -3.8485371, 43.4135473 ], [ -3.8488747, 43.4133828 ], [ -3.8492501, 43.4131227 ], [ -3.8495085, 43.4129016 ], [ -3.8498583, 43.4126798 ], [ -3.8503522, 43.412476 ], [ -3.8506653, 43.412426 ], [ -3.8512661, 43.412393 ], [ -3.8544172, 43.4124457 ], [ -3.8554382, 43.4125429 ], [ -3.8560023, 43.4126816 ], [ -3.8564504, 43.4129451 ], [ -3.8568468, 43.4132471 ], [ -3.8574148, 43.4136621 ], [ -3.8591278, 43.4148238 ], [ -3.859059, 43.4154471 ], [ -3.8589945, 43.416032 ] ] ] } }
]
}
