{
"type": "FeatureCollection",
"name": "39091",
"features": [
{ "type": "Feature", "properties": { "CCAA": "06 - Cantabria", "PROVINCIA": "39 - Cantabria", "MUNICIPIO": "39091 - Valdáliga", "COD_MUNICIPIO": "39091", "DISTRITO": "01", "SECCION": "3909101002", "V1_H": 80.65, "V1_M": 86.42, "V2_H": 80.32339709, "V2_M": 86.16224497, "V3_H": 80.9318118, "V3_M": 86.73476557 }, "geometry": { "type": "Polygon", "coordinates": [ [ [ -4.35251, 43.3349754 ], [ -4.3525676, 43.3340399 ], [ -4.3530546, 43.3331464 ], [ -4.3541479, 43.3321716 ], [ -4.3557119, 43.3318571 ], [ -4.3572375, 43.332098 ], [ -4.3584126, 43.332528 ], [ -4.3595272, 43.3325147 ], [ -4.3608927, 43.3323875 ], [ -4.3623113, 43.3323707 ], [ -4.3639333, 43.3323883 ], [ -4.3656044, 43.3323314 ], [ -4.3674266, 43.3322357 ], [ -4.3691475, 43.3321411 ], [ -4.3707646, 43.3319368 ], [ -4.3724679, 43.3310655 ], [ -4.3742684, 43.3300081 ], [ -4.3763795, 43.3292429 ], [ -4.3767077, 43.3303117 ], [ -4.3769802, 43.3311593 ], [ -4.3776166, 43.3324094 ], [ -4.3792013, 43.3330192 ], [ -4.3802297, 43.3336727 ], [ -4.3805588, 43.3347785 ], [ -4.3796229, 43.3359736 ], [ -4.3794403, 43.3368636 ], [ -4.380424, 43.3377765 ], [ -4.3823301, 43.3387636 ], [ -4.3824723, 43.3385438 ], [ -4.3824563, 43.3383819 ], [ -4.3821556, 43.3381784 ], [ -4.3818521, 43.337849 ], [ -4.3818521, 43.3378489 ], [ -4.3817707, 43.3375258 ], [ -4.3818384, 43.3372458 ], [ -4.3819384, 43.3367584 ], [ -4.3819397, 43.3362721 ], [ -4.3820572, 43.3360787 ], [ -4.3821657, 43.3359002 ], [ -4.3825429, 43.3356705 ], [ -4.3827596, 43.3354338 ], [ -4.3829698, 43.3343687 ], [ -4.3832022, 43.3342848 ], [ -4.3832023, 43.3342848 ], [ -4.3844007, 43.3343694 ], [ -4.3851956, 43.3340626 ], [ -4.3855894, 43.3340219 ], [ -4.3874183, 43.3341618 ], [ -4.3879594, 43.3340922 ], [ -4.3887807, 43.3338661 ], [ -4.3907977, 43.3335985 ], [ -4.3912129, 43.3334134 ], [ -4.393001, 43.3323111 ], [ -4.3937127, 43.3321493 ], [ -4.3941575, 43.3321799 ], [ -4.3952009, 43.3319601 ], [ -4.395201, 43.3319601 ], [ -4.3955582, 43.3319378 ], [ -4.3961273, 43.3320118 ], [ -4.3961273, 43.3320118 ], [ -4.39727, 43.3318178 ], [ -4.3976488, 43.3316601 ], [ -4.3981396, 43.3315461 ], [ -4.3986209, 43.3315582 ], [ -4.3994805, 43.3319259 ], [ -4.3995679, 43.3319698 ], [ -4.4001198, 43.3323683 ], [ -4.4009634, 43.3331143 ], [ -4.4011757, 43.3332288 ], [ -4.4020065, 43.3334167 ], [ -4.4021498, 43.3337481 ], [ -4.4023152, 43.3339712 ], [ -4.4041471, 43.3342369 ], [ -4.4044474, 43.3341343 ], [ -4.4046121, 43.3340781 ], [ -4.4047568, 43.3339323 ], [ -4.4048292, 43.3338594 ], [ -4.4051826, 43.3336749 ], [ -4.4063404, 43.3335977 ], [ -4.4073061, 43.3337479 ], [ -4.4088224, 43.3337112 ], [ -4.4088225, 43.3337112 ], [ -4.4096755, 43.3337907 ], [ -4.4101317, 43.3337851 ], [ -4.4103639, 43.3336922 ], [ -4.4102714, 43.3334232 ], [ -4.4100187, 43.3331652 ], [ -4.4100554, 43.3329122 ], [ -4.4100933, 43.332651 ], [ -4.4143562, 43.3313738 ], [ -4.4143038, 43.3307081 ], [ -4.4162074, 43.3308826 ], [ -4.4155227, 43.3268931 ], [ -4.4155279, 43.3255244 ], [ -4.4155205, 43.324669 ], [ -4.4149879, 43.3224515 ], [ -4.4230568, 43.3209918 ], [ -4.4185252, 43.3138625 ], [ -4.4215106, 43.3012101 ], [ -4.4112185, 43.3007881 ], [ -4.4037535, 43.2973052 ], [ -4.4013135, 43.2962726 ], [ -4.3918697, 43.2930021 ], [ -4.3897497, 43.2903085 ], [ -4.390064, 43.2900345 ], [ -4.3905742, 43.2891639 ], [ -4.3909711, 43.2881866 ], [ -4.3917687, 43.2842419 ], [ -4.3911274, 43.2777304 ], [ -4.3898342, 43.2772238 ], [ -4.3886984, 43.276058 ], [ -4.3875049, 43.275055 ], [ -4.3870217, 43.2738542 ], [ -4.3860594, 43.2732626 ], [ -4.3854935, 43.2733054 ], [ -4.3849363, 43.2731861 ], [ -4.384733, 43.2730347 ], [ -4.3844724, 43.2728406 ], [ -4.3841304, 43.2724305 ], [ -4.3837459, 43.2723181 ], [ -4.3833338, 43.2720799 ], [ -4.3831409, 43.2717221 ], [ -4.3830052, 43.2711744 ], [ -4.3823968, 43.2704254 ], [ -4.3800583, 43.2700034 ], [ -4.3780922, 43.2691537 ], [ -4.3767326, 43.2689719 ], [ -4.3754753, 43.2684017 ], [ -4.3749421, 43.2683069 ], [ -4.3746216, 43.2682499 ], [ -4.3733148, 43.2682206 ], [ -4.3725155, 43.2682932 ], [ -4.3721485, 43.2684146 ], [ -4.3711396, 43.2684807 ], [ -4.370421, 43.2688585 ], [ -4.3700904, 43.2689525 ], [ -4.3695979, 43.2689674 ], [ -4.3693902, 43.269051 ], [ -4.3691314, 43.2695943 ], [ -4.3689502, 43.2697586 ], [ -4.3683041, 43.2700725 ], [ -4.367691, 43.2702059 ], [ -4.3676909, 43.2702059 ], [ -4.3671552, 43.2704914 ], [ -4.3667194, 43.2708388 ], [ -4.3652747, 43.2723688 ], [ -4.3649872, 43.2727324 ], [ -4.3617998, 43.2723742 ], [ -4.3613149, 43.2721818 ], [ -4.3600046, 43.2719993 ], [ -4.3596353, 43.2720127 ], [ -4.3596352, 43.2720127 ], [ -4.3583381, 43.271866 ], [ -4.355316, 43.2717308 ], [ -4.3553159, 43.2717308 ], [ -4.3542447, 43.2717705 ], [ -4.3528586, 43.272057 ], [ -4.3503486, 43.2722307 ], [ -4.3503485, 43.2722307 ], [ -4.3481224, 43.272428 ], [ -4.3477025, 43.2723879 ], [ -4.347597, 43.2723383 ], [ -4.3474784, 43.2722826 ], [ -4.3463517, 43.2720437 ], [ -4.3449351, 43.2720694 ], [ -4.344063, 43.2721966 ], [ -4.3420663, 43.2727423 ], [ -4.3403959, 43.272996 ], [ -4.3371608, 43.273268 ], [ -4.3364863, 43.2734199 ], [ -4.3357522, 43.2736626 ], [ -4.3351561, 43.2739935 ], [ -4.3372188, 43.2757854 ], [ -4.3389662, 43.2776357 ], [ -4.3386932, 43.2807566 ], [ -4.3384174, 43.283753 ], [ -4.3379873, 43.2874993 ], [ -4.3371968, 43.290377 ], [ -4.3382536, 43.2918612 ], [ -4.3389937, 43.2944714 ], [ -4.337493, 43.2961102 ], [ -4.3368621, 43.2984871 ], [ -4.3346674, 43.2996352 ], [ -4.332302, 43.3007851 ], [ -4.3290857, 43.3020696 ], [ -4.3270534, 43.3028415 ], [ -4.3284381, 43.3036984 ], [ -4.3296576, 43.3048066 ], [ -4.331411, 43.3069064 ], [ -4.3312756, 43.3085292 ], [ -4.3309831, 43.3107774 ], [ -4.3322163, 43.312509 ], [ -4.3339647, 43.3143593 ], [ -4.3357185, 43.316459 ], [ -4.3359357, 43.3185765 ], [ -4.3352908, 43.32033 ], [ -4.3341391, 43.3223389 ], [ -4.3331662, 43.3247197 ], [ -4.3320171, 43.3268532 ], [ -4.3339012, 43.3270807 ], [ -4.3374931, 43.3272881 ], [ -4.3410905, 43.3277449 ], [ -4.3423189, 43.329227 ], [ -4.3449495, 43.3323139 ], [ -4.3480652, 43.334148 ], [ -4.35251, 43.3349754 ] ] ] } },
{ "type": "Feature", "properties": { "CCAA": "06 - Cantabria", "PROVINCIA": "39 - Cantabria", "MUNICIPIO": "39091 - Valdáliga", "COD_MUNICIPIO": "39091", "DISTRITO": "01", "SECCION": "3909101003", "V1_H": 79.92, "V1_M": 85.8, "V2_H": 79.90391364, "V2_M": 85.68196434, "V3_H": 80.09820982, "V3_M": 86.14356104 }, "geometry": { "type": "Polygon", "coordinates": [ [ [ -4.333262, 43.3921187 ], [ -4.3332621, 43.3921187 ], [ -4.3341813, 43.3912436 ], [ -4.335447, 43.3859073 ], [ -4.335518, 43.385784 ], [ -4.3359584, 43.3850189 ], [ -4.3362194, 43.3839713 ], [ -4.3365018, 43.3833377 ], [ -4.33669, 43.3829123 ], [ -4.3369834, 43.3827828 ], [ -4.3381314, 43.3827784 ], [ -4.33861, 43.3826467 ], [ -4.3388153, 43.3824372 ], [ -4.3388223, 43.382194 ], [ -4.338221, 43.3817959 ], [ -4.338352, 43.3815782 ], [ -4.3387941, 43.381474 ], [ -4.3397326, 43.3809228 ], [ -4.3402256, 43.38089 ], [ -4.3407975, 43.3810724 ], [ -4.3414863, 43.3815145 ], [ -4.3419015, 43.3818698 ], [ -4.3421887, 43.3820195 ], [ -4.3424482, 43.3820255 ], [ -4.3434369, 43.3815187 ], [ -4.343977, 43.3813772 ], [ -4.344396, 43.3813453 ], [ -4.3449427, 43.381501 ], [ -4.3451274, 43.3814808 ], [ -4.3451274, 43.3814808 ], [ -4.3453005, 43.3813461 ], [ -4.3458555, 43.380914 ], [ -4.3458998, 43.3806793 ], [ -4.3457273, 43.3801411 ], [ -4.3461516, 43.3792266 ], [ -4.346183, 43.3789741 ], [ -4.3460166, 43.378706 ], [ -4.3457146, 43.3784484 ], [ -4.3451274, 43.3781312 ], [ -4.3449123, 43.3778906 ], [ -4.3449123, 43.3778906 ], [ -4.3450074, 43.3777274 ], [ -4.3453024, 43.3776699 ], [ -4.3453025, 43.3776699 ], [ -4.3455869, 43.3776936 ], [ -4.3465009, 43.3782771 ], [ -4.3467852, 43.3782918 ], [ -4.3471391, 43.3781075 ], [ -4.3472342, 43.377386 ], [ -4.3475906, 43.3773098 ], [ -4.3487504, 43.3772871 ], [ -4.3491757, 43.376985 ], [ -4.3494893, 43.3766481 ], [ -4.3501574, 43.376163 ], [ -4.3501168, 43.3760014 ], [ -4.3499038, 43.3758599 ], [ -4.3499038, 43.3758598 ], [ -4.3499049, 43.3758438 ], [ -4.3499318, 43.3754543 ], [ -4.3495855, 43.3754224 ], [ -4.3495855, 43.3754223 ], [ -4.3491998, 43.3752828 ], [ -4.3492296, 43.3749583 ], [ -4.3497527, 43.37461 ], [ -4.3500662, 43.3742732 ], [ -4.3501113, 43.3740836 ], [ -4.3501113, 43.3740835 ], [ -4.3500563, 43.3738321 ], [ -4.349929, 43.3736534 ], [ -4.34937, 43.3734979 ], [ -4.3484915, 43.3734003 ], [ -4.3480386, 43.3735767 ], [ -4.3479403, 43.3739458 ], [ -4.3478678, 43.374218 ], [ -4.3477246, 43.3744448 ], [ -4.3465792, 43.3745573 ], [ -4.3462451, 43.3745252 ], [ -4.3456271, 43.3739292 ], [ -4.3455831, 43.3736146 ], [ -4.345695, 43.373091 ], [ -4.3451786, 43.3726288 ], [ -4.3450629, 43.3724141 ], [ -4.3451697, 43.3722238 ], [ -4.3459649, 43.3718993 ], [ -4.3460963, 43.3716996 ], [ -4.3458477, 43.3710632 ], [ -4.3456217, 43.3708858 ], [ -4.3443323, 43.3706308 ], [ -4.3440553, 43.3703819 ], [ -4.3440837, 43.3699944 ], [ -4.3442692, 43.3694519 ], [ -4.343997, 43.3688609 ], [ -4.343997, 43.3688609 ], [ -4.3439142, 43.3684656 ], [ -4.3439548, 43.368069 ], [ -4.3438615, 43.3677549 ], [ -4.3436478, 43.3675773 ], [ -4.3429496, 43.3672614 ], [ -4.3425676, 43.3667256 ], [ -4.3420045, 43.366381 ], [ -4.3420131, 43.3662098 ], [ -4.3423754, 43.3658454 ], [ -4.3426707, 43.3652477 ], [ -4.3489501, 43.3645705 ], [ -4.3490676, 43.3648572 ], [ -4.3490676, 43.3648573 ], [ -4.349101, 43.3652531 ], [ -4.3489792, 43.3658848 ], [ -4.349476, 43.3665813 ], [ -4.3494723, 43.3669685 ], [ -4.3499006, 43.3673597 ], [ -4.3512102, 43.366867 ], [ -4.3512103, 43.366867 ], [ -4.3517335, 43.3670859 ], [ -4.3517335, 43.3670859 ], [ -4.3520358, 43.3668032 ], [ -4.3525666, 43.366806 ], [ -4.3542411, 43.3666241 ], [ -4.3548843, 43.3666885 ], [ -4.3550392, 43.3658852 ], [ -4.3550393, 43.3658853 ], [ -4.3597776, 43.3663964 ], [ -4.3705417, 43.3675646 ], [ -4.3708139, 43.3675973 ], [ -4.3721181, 43.3677399 ], [ -4.3731895, 43.3678569 ], [ -4.3762425, 43.3675052 ], [ -4.3766594, 43.3673831 ], [ -4.3771988, 43.3672235 ], [ -4.3786865, 43.3664222 ], [ -4.3790964, 43.3659941 ], [ -4.3792197, 43.3654433 ], [ -4.3792197, 43.3654433 ], [ -4.3792376, 43.3645967 ], [ -4.3782696, 43.3627264 ], [ -4.3780859, 43.3617021 ], [ -4.3783159, 43.360952 ], [ -4.3791782, 43.3603383 ], [ -4.3802011, 43.3597317 ], [ -4.3819352, 43.3583871 ], [ -4.382523, 43.3581819 ], [ -4.3825984, 43.3581655 ], [ -4.383137, 43.3580484 ], [ -4.3836675, 43.358042 ], [ -4.3839127, 43.3579582 ], [ -4.3840225, 43.3579207 ], [ -4.3843358, 43.3575837 ], [ -4.3846272, 43.355203 ], [ -4.3850316, 43.355081 ], [ -4.3852459, 43.3547363 ], [ -4.3854312, 43.3542028 ], [ -4.3854827, 43.3537519 ], [ -4.3853725, 43.353249 ], [ -4.3853983, 43.3522132 ], [ -4.3851371, 43.351577 ], [ -4.3843253, 43.3506054 ], [ -4.383975, 43.3503935 ], [ -4.3816783, 43.3497729 ], [ -4.380992, 43.3494391 ], [ -4.3805762, 43.3490569 ], [ -4.3803834, 43.348717 ], [ -4.3803704, 43.3481409 ], [ -4.3803704, 43.3481409 ], [ -4.381038, 43.3476556 ], [ -4.3837105, 43.346894 ], [ -4.384253, 43.3468784 ], [ -4.3844349, 43.3467411 ], [ -4.3844263, 43.3467112 ], [ -4.3843679, 43.3465078 ], [ -4.3826414, 43.3459974 ], [ -4.382205, 43.3457956 ], [ -4.3819144, 43.345493 ], [ -4.3821436, 43.3452651 ], [ -4.3825607, 43.345161 ], [ -4.3835401, 43.3453652 ], [ -4.3836482, 43.345325 ], [ -4.3840906, 43.3451605 ], [ -4.3844257, 43.3447062 ], [ -4.3846577, 43.3440551 ], [ -4.3847212, 43.3430458 ], [ -4.3845773, 43.3426874 ], [ -4.3841923, 43.342575 ], [ -4.3837557, 43.3423642 ], [ -4.3834086, 43.3417471 ], [ -4.3830302, 43.3413825 ], [ -4.3825159, 43.3410105 ], [ -4.3822358, 43.3406267 ], [ -4.3823724, 43.3401207 ], [ -4.3825624, 43.3397943 ], [ -4.38228, 43.3393115 ], [ -4.3820671, 43.33917 ], [ -4.3823301, 43.3387636 ], [ -4.380424, 43.3377765 ], [ -4.3794403, 43.3368636 ], [ -4.3796229, 43.3359736 ], [ -4.3805588, 43.3347785 ], [ -4.3802297, 43.3336727 ], [ -4.3792013, 43.3330192 ], [ -4.3776166, 43.3324094 ], [ -4.3769802, 43.3311593 ], [ -4.3767077, 43.3303117 ], [ -4.3763795, 43.3292429 ], [ -4.3742684, 43.3300081 ], [ -4.3724679, 43.3310655 ], [ -4.3707646, 43.3319368 ], [ -4.3691475, 43.3321411 ], [ -4.3674266, 43.3322357 ], [ -4.3656044, 43.3323314 ], [ -4.3639333, 43.3323883 ], [ -4.3623113, 43.3323707 ], [ -4.3608927, 43.3323875 ], [ -4.3595272, 43.3325147 ], [ -4.3584126, 43.332528 ], [ -4.3572375, 43.332098 ], [ -4.3557119, 43.3318571 ], [ -4.3541479, 43.3321716 ], [ -4.3530546, 43.3331464 ], [ -4.3525676, 43.3340399 ], [ -4.35251, 43.3349754 ], [ -4.3524558, 43.3358539 ], [ -4.3521356, 43.3374114 ], [ -4.3520238, 43.3392254 ], [ -4.351545, 43.3404888 ], [ -4.3504548, 43.3416115 ], [ -4.3485048, 43.3428183 ], [ -4.3466013, 43.3438395 ], [ -4.3451963, 43.3444849 ], [ -4.3430385, 43.345472 ], [ -4.341483, 43.3461931 ], [ -4.3399234, 43.3467293 ], [ -4.3386679, 43.3472619 ], [ -4.3367682, 43.3484679 ], [ -4.3351773, 43.3498922 ], [ -4.334019, 43.3502386 ], [ -4.3321872, 43.349927 ], [ -4.330724, 43.35024 ], [ -4.3295263, 43.3511047 ], [ -4.3283253, 43.3518215 ], [ -4.3272698, 43.3522407 ], [ -4.3258556, 43.352479 ], [ -4.3245435, 43.3527532 ], [ -4.3222652, 43.3528905 ], [ -4.3213031, 43.3529386 ], [ -4.319991, 43.3532127 ], [ -4.3190368, 43.3536306 ], [ -4.3184358, 43.3539705 ], [ -4.3176496, 43.3542821 ], [ -4.317264, 43.3540801 ], [ -4.3176509, 43.3542828 ], [ -4.3179274, 43.3545137 ], [ -4.3179761, 43.3550535 ], [ -4.3182533, 43.3553204 ], [ -4.3183322, 43.3561119 ], [ -4.3198322, 43.3581386 ], [ -4.3197145, 43.3584011 ], [ -4.3199817, 43.3587762 ], [ -4.3199118, 43.3589661 ], [ -4.3195021, 43.359421 ], [ -4.3194875, 43.3598894 ], [ -4.3188379, 43.3606623 ], [ -4.318142, 43.3610125 ], [ -4.3181205, 43.3611568 ], [ -4.3183821, 43.3612709 ], [ -4.3185107, 43.3615125 ], [ -4.3187226, 43.3616091 ], [ -4.3187502, 43.3617438 ], [ -4.3183938, 43.361811 ], [ -4.3182357, 43.3619208 ], [ -4.318288, 43.3620553 ], [ -4.3185986, 43.3621508 ], [ -4.3185518, 43.3622684 ], [ -4.3178011, 43.3623671 ], [ -4.3175821, 43.3625137 ], [ -4.3174835, 43.3630911 ], [ -4.3169694, 43.3632861 ], [ -4.3169353, 43.3634215 ], [ -4.3173472, 43.3642092 ], [ -4.3176872, 43.3645204 ], [ -4.3176678, 43.3647638 ], [ -4.3179359, 43.3651749 ], [ -4.3179188, 43.3655263 ], [ -4.3177629, 43.3657352 ], [ -4.3171735, 43.365877 ], [ -4.3169748, 43.3663925 ], [ -4.316759, 43.3666832 ], [ -4.3168134, 43.3669167 ], [ -4.3167487, 43.3673496 ], [ -4.3165544, 43.367496 ], [ -4.3164815, 43.3675508 ], [ -4.3158061, 43.3677116 ], [ -4.3155451, 43.3676246 ], [ -4.3151271, 43.3677015 ], [ -4.3148306, 43.3676868 ], [ -4.3145867, 43.3678247 ], [ -4.3144908, 43.3685281 ], [ -4.3143327, 43.368638 ], [ -4.3139235, 43.3685527 ], [ -4.3135936, 43.3681332 ], [ -4.3120735, 43.3680426 ], [ -4.3118695, 43.3683151 ], [ -4.3115881, 43.3684264 ], [ -4.3112161, 43.3683496 ], [ -4.3101569, 43.3684518 ], [ -4.3099323, 43.3683373 ], [ -4.3096102, 43.368287 ], [ -4.3094022, 43.3683704 ], [ -4.3094805, 43.3685676 ], [ -4.3098083, 43.368888 ], [ -4.3097372, 43.3690238 ], [ -4.3094314, 43.3691534 ], [ -4.3090065, 43.3694824 ], [ -4.3089359, 43.3696453 ], [ -4.3090781, 43.3710934 ], [ -4.3092722, 43.3715054 ], [ -4.3096726, 43.3717619 ], [ -4.3104133, 43.3723388 ], [ -4.3112371, 43.3727615 ], [ -4.3114554, 43.3731552 ], [ -4.3115636, 43.3735952 ], [ -4.3116786, 43.373774 ], [ -4.3117304, 43.3738905 ], [ -4.311994, 43.3740945 ], [ -4.3121061, 43.3741383 ], [ -4.3123306, 43.3742437 ], [ -4.3127266, 43.3742932 ], [ -4.3138805, 43.3745681 ], [ -4.3151101, 43.3743469 ], [ -4.3154568, 43.3743969 ], [ -4.3156827, 43.3745654 ], [ -4.3158272, 43.374969 ], [ -4.3156576, 43.3756913 ], [ -4.3155519, 43.3765119 ], [ -4.3160073, 43.3770199 ], [ -4.3173021, 43.3775273 ], [ -4.3174301, 43.3777419 ], [ -4.3174648, 43.3782007 ], [ -4.3172559, 43.3788154 ], [ -4.3172743, 43.3790944 ], [ -4.3178658, 43.3796188 ], [ -4.3181212, 43.3800121 ], [ -4.3180529, 43.380274 ], [ -4.3178003, 43.380583 ], [ -4.3175452, 43.3807751 ], [ -4.3171417, 43.3815271 ], [ -4.3170982, 43.3829413 ], [ -4.3171196, 43.3831327 ], [ -4.317236, 43.3841733 ], [ -4.317425, 43.3843512 ], [ -4.317983, 43.3844619 ], [ -4.3181961, 43.3846125 ], [ -4.3198017, 43.384639 ], [ -4.3201018, 43.3848156 ], [ -4.3202332, 43.3851833 ], [ -4.3198563, 43.3857118 ], [ -4.319754, 43.3858551 ], [ -4.3197478, 43.3867106 ], [ -4.3195834, 43.3870997 ], [ -4.3186826, 43.3882626 ], [ -4.318828, 43.3887022 ], [ -4.3190819, 43.3890234 ], [ -4.3194933, 43.3892078 ], [ -4.3200797, 43.3894892 ], [ -4.3208576, 43.3894892 ], [ -4.3216186, 43.3892823 ], [ -4.3244594, 43.3893305 ], [ -4.3253538, 43.3895813 ], [ -4.3257379, 43.3896399 ], [ -4.3261327, 43.3896263 ], [ -4.3265665, 43.3897023 ], [ -4.3295641, 43.3907121 ], [ -4.3313276, 43.3911778 ], [ -4.333262, 43.3921187 ] ] ] } },
{ "type": "Feature", "properties": { "CCAA": "06 - Cantabria", "PROVINCIA": "39 - Cantabria", "MUNICIPIO": "39091 - Valdáliga", "COD_MUNICIPIO": "39091", "DISTRITO": "01", "SECCION": "3909101001", "V1_H": 80.34, "V1_M": 85.99, "V2_H": 80.22806877, "V2_M": 85.94669411, "V3_H": 80.64200885, "V3_M": 86.09540763 }, "geometry": { "type": "Polygon", "coordinates": [ [ [ -4.317264, 43.3540801 ], [ -4.3176496, 43.3542821 ], [ -4.3184358, 43.3539705 ], [ -4.3190368, 43.3536306 ], [ -4.319991, 43.3532127 ], [ -4.3213031, 43.3529386 ], [ -4.3222652, 43.3528905 ], [ -4.3245435, 43.3527532 ], [ -4.3258556, 43.352479 ], [ -4.3272698, 43.3522407 ], [ -4.3283253, 43.3518215 ], [ -4.3295263, 43.3511047 ], [ -4.330724, 43.35024 ], [ -4.3321872, 43.349927 ], [ -4.334019, 43.3502386 ], [ -4.3351773, 43.3498922 ], [ -4.3367682, 43.3484679 ], [ -4.3386679, 43.3472619 ], [ -4.3399234, 43.3467293 ], [ -4.341483, 43.3461931 ], [ -4.3430385, 43.345472 ], [ -4.3451963, 43.3444849 ], [ -4.3466013, 43.3438395 ], [ -4.3485048, 43.3428183 ], [ -4.3504548, 43.3416115 ], [ -4.351545, 43.3404888 ], [ -4.3520238, 43.3392254 ], [ -4.3521356, 43.3374114 ], [ -4.3524558, 43.3358539 ], [ -4.35251, 43.3349754 ], [ -4.3480652, 43.334148 ], [ -4.3449495, 43.3323139 ], [ -4.3423189, 43.329227 ], [ -4.3410905, 43.3277449 ], [ -4.3374931, 43.3272881 ], [ -4.3339012, 43.3270807 ], [ -4.3320171, 43.3268532 ], [ -4.3331662, 43.3247197 ], [ -4.3341391, 43.3223389 ], [ -4.3352908, 43.32033 ], [ -4.3359357, 43.3185765 ], [ -4.3357185, 43.316459 ], [ -4.3339647, 43.3143593 ], [ -4.3322163, 43.312509 ], [ -4.3309831, 43.3107774 ], [ -4.3312756, 43.3085292 ], [ -4.331411, 43.3069064 ], [ -4.3296576, 43.3048066 ], [ -4.3284381, 43.3036984 ], [ -4.3270534, 43.3028415 ], [ -4.3290857, 43.3020696 ], [ -4.332302, 43.3007851 ], [ -4.3346674, 43.2996352 ], [ -4.3368621, 43.2984871 ], [ -4.337493, 43.2961102 ], [ -4.3389937, 43.2944714 ], [ -4.3382536, 43.2918612 ], [ -4.3371968, 43.290377 ], [ -4.3379873, 43.2874993 ], [ -4.3384174, 43.283753 ], [ -4.3386932, 43.2807566 ], [ -4.3389662, 43.2776357 ], [ -4.3372188, 43.2757854 ], [ -4.3351561, 43.2739935 ], [ -4.334559, 43.2743248 ], [ -4.3340934, 43.2744473 ], [ -4.333342, 43.274465 ], [ -4.3317779, 43.273943 ], [ -4.3285835, 43.2732598 ], [ -4.3269651, 43.2730714 ], [ -4.3264866, 43.273167 ], [ -4.325747, 43.2731576 ], [ -4.3254362, 43.2730351 ], [ -4.3249111, 43.27269 ], [ -4.3244633, 43.2724971 ], [ -4.3237443, 43.2722983 ], [ -4.3228789, 43.2721732 ], [ -4.321589, 43.2723592 ], [ -4.3201097, 43.2729075 ], [ -4.3191775, 43.2731074 ], [ -4.3183062, 43.273094 ], [ -4.317501, 43.2730817 ], [ -4.3165641, 43.2730654 ], [ -4.3158884, 43.2731632 ], [ -4.3129798, 43.2731516 ], [ -4.3097193, 43.2728198 ], [ -4.3077467, 43.2727793 ], [ -4.3023499, 43.2728138 ], [ -4.2999041, 43.2731208 ], [ -4.299904, 43.2731208 ], [ -4.2976015, 43.2732099 ], [ -4.2976015, 43.2732099 ], [ -4.2957167, 43.2732403 ], [ -4.2952475, 43.2732005 ], [ -4.2931788, 43.2732779 ], [ -4.2910936, 43.2737427 ], [ -4.2894344, 43.2739505 ], [ -4.2885729, 43.2740052 ], [ -4.2861197, 43.2739698 ], [ -4.2827, 43.2742693 ], [ -4.2796199, 43.2743037 ], [ -4.2780898, 43.274798 ], [ -4.2780897, 43.274798 ], [ -4.2763434, 43.2749706 ], [ -4.2763433, 43.2749706 ], [ -4.2741874, 43.2750036 ], [ -4.2745554, 43.2790606 ], [ -4.2743266, 43.2799096 ], [ -4.2743989, 43.2816016 ], [ -4.2743488, 43.2827458 ], [ -4.2745656, 43.2830945 ], [ -4.2752323, 43.2837354 ], [ -4.2773147, 43.2837032 ], [ -4.2777842, 43.283761 ], [ -4.2784302, 43.2840059 ], [ -4.2796769, 43.2846764 ], [ -4.2805728, 43.2850806 ], [ -4.2813664, 43.2853058 ], [ -4.2817897, 43.2855082 ], [ -4.2820906, 43.2857479 ], [ -4.282944, 43.2858914 ], [ -4.2837744, 43.2866925 ], [ -4.28415, 43.2869675 ], [ -4.2843422, 43.2873165 ], [ -4.2845043, 43.28799 ], [ -4.2846262, 43.2890962 ], [ -4.2844574, 43.2898635 ], [ -4.2843158, 43.2901622 ], [ -4.2837094, 43.2906373 ], [ -4.2826747, 43.2912612 ], [ -4.2825795, 43.2914243 ], [ -4.282633, 43.2916218 ], [ -4.2833952, 43.2921085 ], [ -4.2835868, 43.2924305 ], [ -4.2832121, 43.2933712 ], [ -4.2832033, 43.2935424 ], [ -4.2835187, 43.2938811 ], [ -4.2835465, 43.2940338 ], [ -4.2834631, 43.2941698 ], [ -4.2828555, 43.2945908 ], [ -4.2821968, 43.2949224 ], [ -4.2809, 43.2953961 ], [ -4.2800905, 43.2955943 ], [ -4.2797976, 43.2957326 ], [ -4.2789601, 43.2963633 ], [ -4.2781283, 43.2966697 ], [ -4.2766563, 43.2970283 ], [ -4.276016, 43.2970625 ], [ -4.2754849, 43.2970144 ], [ -4.2750139, 43.2968936 ], [ -4.2750124, 43.2974158 ], [ -4.2754747, 43.2988874 ], [ -4.2754996, 43.2996667 ], [ -4.2755101, 43.2999946 ], [ -4.2754486, 43.3005896 ], [ -4.2762216, 43.3010042 ], [ -4.2767283, 43.3016469 ], [ -4.2768365, 43.3021049 ], [ -4.2772314, 43.3027128 ], [ -4.2780606, 43.3034509 ], [ -4.2783541, 43.3039249 ], [ -4.2782692, 43.3045832 ], [ -4.2780898, 43.3048463 ], [ -4.2774921, 43.3051591 ], [ -4.2773353, 43.305323 ], [ -4.2772689, 43.3056839 ], [ -4.2773257, 43.3060434 ], [ -4.2779262, 43.3070453 ], [ -4.2780871, 43.3082501 ], [ -4.2778437, 43.3089911 ], [ -4.2768667, 43.3100376 ], [ -4.2765266, 43.3102845 ], [ -4.2756471, 43.3106815 ], [ -4.2739052, 43.3111151 ], [ -4.2731652, 43.3116996 ], [ -4.2723, 43.3121955 ], [ -4.2720832, 43.312441 ], [ -4.2720144, 43.3126939 ], [ -4.2722753, 43.3133753 ], [ -4.2716378, 43.3147421 ], [ -4.270709, 43.3167014 ], [ -4.2705865, 43.3169599 ], [ -4.2693819, 43.3195215 ], [ -4.2821513, 43.3226929 ], [ -4.2828175, 43.3233232 ], [ -4.2849827, 43.3253715 ], [ -4.2857709, 43.3257285 ], [ -4.2876601, 43.3265841 ], [ -4.2876558, 43.3269623 ], [ -4.2879307, 43.3277156 ], [ -4.2877045, 43.3281053 ], [ -4.2875592, 43.328233 ], [ -4.2874775, 43.3284501 ], [ -4.2874659, 43.3296568 ], [ -4.2874659, 43.3296568 ], [ -4.2876345, 43.3306274 ], [ -4.2873659, 43.3313418 ], [ -4.2871134, 43.3315795 ], [ -4.2869788, 43.3317063 ], [ -4.2895279, 43.3324158 ], [ -4.2920787, 43.3331256 ], [ -4.294337, 43.3325868 ], [ -4.2946677, 43.3330603 ], [ -4.2947864, 43.3334192 ], [ -4.294967, 43.3337953 ], [ -4.294924, 43.334093 ], [ -4.2946103, 43.3344207 ], [ -4.2934685, 43.335262 ], [ -4.2931548, 43.3355897 ], [ -4.293051, 43.335933 ], [ -4.293051, 43.3359331 ], [ -4.2931199, 43.3362744 ], [ -4.2933353, 43.3365421 ], [ -4.2938959, 43.3367969 ], [ -4.2945167, 43.336988 ], [ -4.296401, 43.3374169 ], [ -4.2971968, 43.3377141 ], [ -4.2975369, 43.3380434 ], [ -4.2977105, 43.3386627 ], [ -4.2976808, 43.3390052 ], [ -4.2977787, 43.3395534 ], [ -4.2980667, 43.3397482 ], [ -4.2994377, 43.340408 ], [ -4.299828, 43.3407727 ], [ -4.3003757, 43.3410006 ], [ -4.3023354, 43.3420679 ], [ -4.3034773, 43.3423881 ], [ -4.3043388, 43.3422882 ], [ -4.3047738, 43.3424363 ], [ -4.3054494, 43.3428789 ], [ -4.305916, 43.3433508 ], [ -4.3066278, 43.3437479 ], [ -4.3068693, 43.3440783 ], [ -4.3075213, 43.3445661 ], [ -4.3080419, 43.3452535 ], [ -4.3084777, 43.3460139 ], [ -4.3085988, 43.3464807 ], [ -4.3084222, 43.3468789 ], [ -4.3084049, 43.3472213 ], [ -4.3084969, 43.3474814 ], [ -4.3088105, 43.3477209 ], [ -4.3090774, 43.348087 ], [ -4.3091746, 43.3485902 ], [ -4.3093896, 43.3494071 ], [ -4.3102984, 43.3497839 ], [ -4.3107246, 43.3500942 ], [ -4.3108274, 43.3502821 ], [ -4.3117578, 43.3505146 ], [ -4.3120589, 43.3507452 ], [ -4.3125904, 43.3513605 ], [ -4.3131258, 43.3515885 ], [ -4.3137961, 43.3517698 ], [ -4.3141948, 43.3519453 ], [ -4.3155037, 43.3531369 ], [ -4.3165345, 43.3534402 ], [ -4.317264, 43.3540801 ] ] ] } }
]
}
