{
"type": "FeatureCollection",
"name": "40025",
"features": [
{ "type": "Feature", "properties": { "CCAA": "07 - Castilla y León", "PROVINCIA": "40 - Segovia", "MUNICIPIO": "40025 - Barbolla", "COD_MUNICIPIO": "40025", "DISTRITO": "01", "SECCION": "4002501001", "V1_H": 79.89, "V1_M": 85.97, "V2_H": 79.67266264, "V2_M": 85.8368825, "V3_H": 80.33686579, "V3_M": 86.2809331 }, "geometry": { "type": "Polygon", "coordinates": [ [ [ -3.6635934, 41.3437394 ], [ -3.6642697, 41.3444291 ], [ -3.6657999, 41.3456273 ], [ -3.6673751, 41.346546 ], [ -3.6689705, 41.3471043 ], [ -3.670325, 41.3474747 ], [ -3.6716171, 41.3475753 ], [ -3.6754776, 41.3475438 ], [ -3.6763372, 41.3474397 ], [ -3.6773386, 41.3471816 ], [ -3.6792679, 41.3464947 ], [ -3.6795675, 41.346565 ], [ -3.6808381, 41.3469088 ], [ -3.6828134, 41.3472125 ], [ -3.6852463, 41.3478106 ], [ -3.6858702, 41.348041 ], [ -3.6864602, 41.3484429 ], [ -3.6874356, 41.3491307 ], [ -3.6875911, 41.3491297 ], [ -3.6878183, 41.3491374 ], [ -3.6971034, 41.3477486 ], [ -3.6985128, 41.3442811 ], [ -3.6986888, 41.3439738 ], [ -3.7011164, 41.3396175 ], [ -3.7002925, 41.3363437 ], [ -3.6989811, 41.3355229 ], [ -3.6979559, 41.3346464 ], [ -3.696893, 41.3335989 ], [ -3.6967604, 41.3334826 ], [ -3.6946039, 41.3318562 ], [ -3.6926871, 41.3291474 ], [ -3.6924552, 41.3286804 ], [ -3.6902831, 41.3266757 ], [ -3.6883159, 41.3236879 ], [ -3.688231, 41.3235713 ], [ -3.6883837, 41.3221832 ], [ -3.6887513, 41.3185059 ], [ -3.6875856, 41.3178552 ], [ -3.6868766, 41.3174721 ], [ -3.6855938, 41.3159124 ], [ -3.6815601, 41.3129007 ], [ -3.6769132, 41.3094691 ], [ -3.6830378, 41.3056678 ], [ -3.6825736, 41.3046707 ], [ -3.6811321, 41.3015895 ], [ -3.6805477, 41.3005301 ], [ -3.6798273, 41.300174 ], [ -3.6792526, 41.3000423 ], [ -3.678976, 41.2998637 ], [ -3.6788278, 41.2993872 ], [ -3.6784581, 41.2982904 ], [ -3.6782307, 41.2970848 ], [ -3.6781206, 41.2968422 ], [ -3.6757925, 41.2957749 ], [ -3.6748554, 41.2952399 ], [ -3.6747113, 41.2951687 ], [ -3.6741156, 41.2941543 ], [ -3.6737916, 41.292841 ], [ -3.6726489, 41.292055 ], [ -3.6701738, 41.2905922 ], [ -3.6696319, 41.2901629 ], [ -3.6689728, 41.2899416 ], [ -3.6671679, 41.2897808 ], [ -3.6655051, 41.2895202 ], [ -3.6652454, 41.2862789 ], [ -3.6657895, 41.2857624 ], [ -3.6623914, 41.2839263 ], [ -3.6582151, 41.2818784 ], [ -3.657506, 41.2826031 ], [ -3.6566996, 41.2831751 ], [ -3.654959, 41.2834553 ], [ -3.6537641, 41.2833899 ], [ -3.6470447, 41.281338 ], [ -3.6440849, 41.2802917 ], [ -3.6409786, 41.2789038 ], [ -3.6397179, 41.2781811 ], [ -3.638326, 41.2774952 ], [ -3.6378955, 41.2774255 ], [ -3.6373499, 41.280266 ], [ -3.6386922, 41.2832221 ], [ -3.6376049, 41.2856242 ], [ -3.6375518, 41.2863001 ], [ -3.6377164, 41.288497 ], [ -3.6378257, 41.2899106 ], [ -3.6366237, 41.2915747 ], [ -3.6365652, 41.2917101 ], [ -3.6362498, 41.2924325 ], [ -3.6354128, 41.2935631 ], [ -3.6352006, 41.2938525 ], [ -3.6345735, 41.2944594 ], [ -3.6330668, 41.2955126 ], [ -3.6323531, 41.2958137 ], [ -3.629817, 41.2966473 ], [ -3.6267887, 41.2972222 ], [ -3.6247688, 41.2983322 ], [ -3.6241147, 41.2986329 ], [ -3.6233039, 41.2987814 ], [ -3.6227449, 41.2990276 ], [ -3.6224372, 41.2993356 ], [ -3.6221488, 41.300409 ], [ -3.6224841, 41.3017583 ], [ -3.6224235, 41.3029207 ], [ -3.6225721, 41.3034783 ], [ -3.6259094, 41.3052168 ], [ -3.6267814, 41.3052121 ], [ -3.6293383, 41.3065134 ], [ -3.6299547, 41.3072486 ], [ -3.6316426, 41.3088608 ], [ -3.6398171, 41.3153283 ], [ -3.638706, 41.3165505 ], [ -3.6383393, 41.3242901 ], [ -3.6395709, 41.3243734 ], [ -3.640829, 41.3247357 ], [ -3.6423523, 41.3253218 ], [ -3.6437807, 41.3259714 ], [ -3.646774, 41.3277922 ], [ -3.6491545, 41.3292561 ], [ -3.6505982, 41.3302209 ], [ -3.653519, 41.3319248 ], [ -3.6541089, 41.3323538 ], [ -3.655626, 41.3334982 ], [ -3.6557465, 41.3335966 ], [ -3.6569238, 41.3342025 ], [ -3.663782, 41.3399461 ], [ -3.6635934, 41.3437394 ] ] ] } }
]
}
