{
"type": "FeatureCollection",
"name": "40077",
"features": [
{ "type": "Feature", "properties": { "CCAA": "07 - Castilla y León", "PROVINCIA": "40 - Segovia", "MUNICIPIO": "40077 - Espirdo", "COD_MUNICIPIO": "40077", "DISTRITO": "01", "SECCION": "4007701001", "V1_H": 80.91, "V1_M": 86.7, "V2_H": 80.91796575, "V2_M": 86.73459974, "V3_H": 81.00259482, "V3_M": 86.81948346 }, "geometry": { "type": "Polygon", "coordinates": [ [ [ -4.0467278, 41.0143775 ], [ -4.0490701, 41.0128429 ], [ -4.0512244, 41.0152014 ], [ -4.0550136, 41.0156532 ], [ -4.0557656, 41.0158265 ], [ -4.0585751, 41.0182239 ], [ -4.0594901, 41.0189181 ], [ -4.0605349, 41.0195481 ], [ -4.0631674, 41.0205418 ], [ -4.0656237, 41.021663 ], [ -4.0677189, 41.0239858 ], [ -4.0706918, 41.0246789 ], [ -4.0719009, 41.025154 ], [ -4.0733035, 41.0258256 ], [ -4.0747932, 41.0267306 ], [ -4.0769703, 41.0282146 ], [ -4.0776633, 41.0291359 ], [ -4.0784497, 41.030678 ], [ -4.0793188, 41.0314445 ], [ -4.0806546, 41.0323869 ], [ -4.0821253, 41.0335711 ], [ -4.0832912, 41.0350285 ], [ -4.0836663, 41.0354123 ], [ -4.0841978, 41.0351821 ], [ -4.0850838, 41.0347955 ], [ -4.0854263, 41.0346481 ], [ -4.0878904, 41.0332917 ], [ -4.0904433, 41.0315561 ], [ -4.0915046, 41.0317171 ], [ -4.0928746, 41.0318393 ], [ -4.094684, 41.0319122 ], [ -4.0959965, 41.032152 ], [ -4.0979084, 41.0326653 ], [ -4.1001871, 41.0330669 ], [ -4.1007322, 41.0329357 ], [ -4.1016436, 41.031945 ], [ -4.1019911, 41.0313832 ], [ -4.1020889, 41.0308238 ], [ -4.1018923, 41.0290241 ], [ -4.1019279, 41.0283031 ], [ -4.1023285, 41.0273624 ], [ -4.1035027, 41.0250182 ], [ -4.1053628, 41.0224421 ], [ -4.1060649, 41.0210391 ], [ -4.1060431, 41.0197331 ], [ -4.1056965, 41.0175025 ], [ -4.1056137, 41.016107 ], [ -4.1054369, 41.0154871 ], [ -4.104881, 41.0142494 ], [ -4.1028059, 41.0110444 ], [ -4.1019854, 41.0096199 ], [ -4.1010582, 41.0082145 ], [ -4.1004901, 41.0076615 ], [ -4.0972543, 41.0061519 ], [ -4.0963536, 41.005611 ], [ -4.09587, 41.0051292 ], [ -4.0963453, 41.004395 ], [ -4.0964196, 41.0017009 ], [ -4.096638, 41.0012484 ], [ -4.097097, 41.0002442 ], [ -4.0971433, 41.0001716 ], [ -4.0981616, 40.9984774 ], [ -4.0997022, 40.9967422 ], [ -4.1016893, 40.9939759 ], [ -4.1037687, 40.991767 ], [ -4.103452, 40.9913106 ], [ -4.1032596, 40.9904657 ], [ -4.1041294, 40.9891602 ], [ -4.1047531, 40.9880643 ], [ -4.1049171, 40.987207 ], [ -4.1048845, 40.9852525 ], [ -4.1046383, 40.9840298 ], [ -4.1042127, 40.9834574 ], [ -4.1037938, 40.9832902 ], [ -4.0992669, 40.9819823 ], [ -4.0974727, 40.9820264 ], [ -4.0960854, 40.9815171 ], [ -4.095315, 40.9809299 ], [ -4.0935441, 40.9802261 ], [ -4.0922105, 40.9800856 ], [ -4.0903222, 40.9794639 ], [ -4.089774, 40.9793789 ], [ -4.0891447, 40.9794209 ], [ -4.088398, 40.9795541 ], [ -4.0879132, 40.9797028 ], [ -4.0863838, 40.9792218 ], [ -4.0853445, 40.9789072 ], [ -4.0852985, 40.9787496 ], [ -4.0851556, 40.9782604 ], [ -4.0850022, 40.9768747 ], [ -4.0817248, 40.976338 ], [ -4.081005, 40.97666 ], [ -4.0795435, 40.9766917 ], [ -4.0789605, 40.9766521 ], [ -4.0765335, 40.9765126 ], [ -4.0755144, 40.9774409 ], [ -4.0741817, 40.9773453 ], [ -4.0734549, 40.9772349 ], [ -4.0719995, 40.9776448 ], [ -4.0703636, 40.9771826 ], [ -4.0684553, 40.9752996 ], [ -4.0672375, 40.9734912 ], [ -4.0654111, 40.9752107 ], [ -4.0627223, 40.9750463 ], [ -4.0596648, 40.9748673 ], [ -4.0583205, 40.9747895 ], [ -4.0562956, 40.9752585 ], [ -4.0519945, 40.9753608 ], [ -4.0510936, 40.9755132 ], [ -4.0509021, 40.9761725 ], [ -4.0502582, 40.9775476 ], [ -4.0499409, 40.9777757 ], [ -4.0482205, 40.9787192 ], [ -4.0475704, 40.9789503 ], [ -4.04411, 40.9796123 ], [ -4.0435428, 40.9798245 ], [ -4.0432157, 40.9801878 ], [ -4.0428418, 40.9805966 ], [ -4.0422023, 40.9807464 ], [ -4.0406132, 40.9817427 ], [ -4.037036, 40.9833063 ], [ -4.0385339, 40.9840765 ], [ -4.0403868, 40.9847354 ], [ -4.0409026, 40.985028 ], [ -4.0412403, 40.9853403 ], [ -4.0415921, 40.9857875 ], [ -4.0417275, 40.9860835 ], [ -4.0418018, 40.986272 ], [ -4.0422025, 40.9890699 ], [ -4.0425117, 40.9905894 ], [ -4.0427848, 40.9913257 ], [ -4.0432108, 40.9919523 ], [ -4.0434316, 40.9923828 ], [ -4.0434934, 40.9925353 ], [ -4.0436208, 40.9930747 ], [ -4.0437358, 40.9943347 ], [ -4.0448034, 40.9971896 ], [ -4.0451441, 40.997691 ], [ -4.0454221, 40.9979767 ], [ -4.0458177, 40.9981804 ], [ -4.0458733, 40.9986843 ], [ -4.0470024, 41.0001603 ], [ -4.0470754, 41.0002678 ], [ -4.0469633, 41.0007012 ], [ -4.047024, 41.0015294 ], [ -4.0470752, 41.0025108 ], [ -4.047314, 41.0033283 ], [ -4.0480818, 41.0037537 ], [ -4.0476506, 41.0043072 ], [ -4.0471857, 41.0057346 ], [ -4.0456968, 41.005577 ], [ -4.0440677, 41.0055828 ], [ -4.0426425, 41.0079558 ], [ -4.041829, 41.0091522 ], [ -4.0437035, 41.011135 ], [ -4.0467278, 41.0143775 ] ] ] } }
]
}
