{
"type": "FeatureCollection",
"name": "40142",
"features": [
{ "type": "Feature", "properties": { "CCAA": "07 - Castilla y León", "PROVINCIA": "40 - Segovia", "MUNICIPIO": "40142 - Navares de Ayuso", "COD_MUNICIPIO": "40142", "DISTRITO": "01", "SECCION": "4014201001", "V1_H": 75.48, "V1_M": 82.31, "V2_H": 75.36985678000001, "V2_M": 82.56533706, "V3_H": 75.8600571, "V3_M": 82.01450712 }, "geometry": { "type": "Polygon", "coordinates": [ [ [ -3.6825861, 41.3655262 ], [ -3.6822572, 41.3660956 ], [ -3.6814498, 41.3689287 ], [ -3.6808842, 41.3720307 ], [ -3.6804161, 41.3753122 ], [ -3.6808421, 41.3760303 ], [ -3.6821694, 41.3783194 ], [ -3.6835376, 41.3810766 ], [ -3.6845242, 41.3827822 ], [ -3.6853438, 41.3845248 ], [ -3.685566, 41.3851901 ], [ -3.6867176, 41.3912092 ], [ -3.6869682, 41.3945585 ], [ -3.6874942, 41.3967982 ], [ -3.6875917, 41.3969688 ], [ -3.6882511, 41.3982439 ], [ -3.6882037, 41.3994241 ], [ -3.6892527, 41.4002015 ], [ -3.6881264, 41.401163 ], [ -3.6928095, 41.4016935 ], [ -3.6983193, 41.4023179 ], [ -3.7010787, 41.4052736 ], [ -3.7033634, 41.4074575 ], [ -3.7039342, 41.4071298 ], [ -3.7045344, 41.4062074 ], [ -3.7063389, 41.4015936 ], [ -3.7080966, 41.3970971 ], [ -3.7083828, 41.3959154 ], [ -3.7083846, 41.3949696 ], [ -3.7082759, 41.3937813 ], [ -3.7088718, 41.3880669 ], [ -3.7162504, 41.3792211 ], [ -3.7162857, 41.3791668 ], [ -3.7174992, 41.3775019 ], [ -3.7176287, 41.3773119 ], [ -3.7187817, 41.3755843 ], [ -3.719897, 41.3737038 ], [ -3.7211198, 41.3707236 ], [ -3.7211719, 41.3700207 ], [ -3.7146975, 41.3651428 ], [ -3.712588, 41.3602828 ], [ -3.7118189, 41.3588193 ], [ -3.7114019, 41.357858 ], [ -3.7107744, 41.3551235 ], [ -3.7100997, 41.3513265 ], [ -3.7100113, 41.3508947 ], [ -3.7098527, 41.3494995 ], [ -3.7096764, 41.3398444 ], [ -3.7089592, 41.3398398 ], [ -3.7082982, 41.3395015 ], [ -3.7069455, 41.3393027 ], [ -3.7055609, 41.3394733 ], [ -3.7011164, 41.3396175 ], [ -3.6986888, 41.3439738 ], [ -3.6985128, 41.3442811 ], [ -3.6971034, 41.3477486 ], [ -3.6878183, 41.3491374 ], [ -3.6880529, 41.3498476 ], [ -3.6892911, 41.3516508 ], [ -3.6908509, 41.3533259 ], [ -3.6917309, 41.3540232 ], [ -3.6903759, 41.3559048 ], [ -3.6891593, 41.3561643 ], [ -3.6878123, 41.3565417 ], [ -3.6875862, 41.3566331 ], [ -3.6871221, 41.356843 ], [ -3.6868974, 41.3570786 ], [ -3.6812417, 41.3627238 ], [ -3.6825861, 41.3655262 ] ] ] } }
]
}
