{
"type": "FeatureCollection",
"name": "40170",
"features": [
{ "type": "Feature", "properties": { "CCAA": "07 - Castilla y León", "PROVINCIA": "40 - Segovia", "MUNICIPIO": "40170 - Riaza", "COD_MUNICIPIO": "40170", "DISTRITO": "01", "SECCION": "4017001001", "V1_H": 80.01, "V1_M": 85.88, "V2_H": 79.90171161000001, "V2_M": 85.93881404, "V3_H": 80.29104055000001, "V3_M": 85.88520273 }, "geometry": { "type": "MultiPolygon", "coordinates": [ [ [ [ -3.4808241, 41.3077031 ], [ -3.4819349, 41.3076804 ], [ -3.4830823, 41.3077567 ], [ -3.4846151, 41.3082637 ], [ -3.4868765, 41.3087496 ], [ -3.4889218, 41.3090833 ], [ -3.4896404, 41.3093145 ], [ -3.4903365, 41.3097439 ], [ -3.4908413, 41.3101561 ], [ -3.4910586, 41.3104615 ], [ -3.4915023, 41.3106758 ], [ -3.4927956, 41.3110846 ], [ -3.4927418, 41.3102832 ], [ -3.4922251, 41.3082947 ], [ -3.4915533, 41.3031362 ], [ -3.4913678, 41.3006959 ], [ -3.4914422, 41.2994616 ], [ -3.4912444, 41.2985706 ], [ -3.4902973, 41.2965119 ], [ -3.4884866, 41.2939434 ], [ -3.4860953, 41.2903774 ], [ -3.4878882, 41.290568 ], [ -3.4886637, 41.2904567 ], [ -3.4895213, 41.2901558 ], [ -3.4901877, 41.2898377 ], [ -3.4906117, 41.2906376 ], [ -3.4911176, 41.2912029 ], [ -3.4925366, 41.292503 ], [ -3.4936172, 41.2932551 ], [ -3.4941584, 41.2937481 ], [ -3.4945697, 41.29444 ], [ -3.4949104, 41.2952763 ], [ -3.4955036, 41.2963276 ], [ -3.4960206, 41.2967848 ], [ -3.4966686, 41.2971784 ], [ -3.4986342, 41.2980707 ], [ -3.4991556, 41.297528 ], [ -3.4988421, 41.297133 ], [ -3.4985418, 41.2969181 ], [ -3.5000275, 41.2943806 ], [ -3.5007554, 41.292738 ], [ -3.5008475, 41.2922782 ], [ -3.5008763, 41.2913503 ], [ -3.5007742, 41.2889277 ], [ -3.5026852, 41.2873972 ], [ -3.5049151, 41.2854057 ], [ -3.5050421, 41.2848467 ], [ -3.5039773, 41.2814825 ], [ -3.5034481, 41.2809804 ], [ -3.5023925, 41.2803544 ], [ -3.5007953, 41.2791813 ], [ -3.5001207, 41.2784006 ], [ -3.499577, 41.2775652 ], [ -3.4990078, 41.2765047 ], [ -3.4948544, 41.273586 ], [ -3.4949333, 41.2729731 ], [ -3.4948981, 41.27146 ], [ -3.4945476, 41.270903 ], [ -3.4932749, 41.2699536 ], [ -3.4926373, 41.2693078 ], [ -3.4911711, 41.2680349 ], [ -3.4886986, 41.2662708 ], [ -3.4869565, 41.2647919 ], [ -3.485958, 41.2637512 ], [ -3.4852617, 41.2632317 ], [ -3.4792415, 41.2594825 ], [ -3.4806544, 41.2584317 ], [ -3.4817363, 41.2578417 ], [ -3.483295, 41.2539079 ], [ -3.4824415, 41.2530827 ], [ -3.4807626, 41.2520178 ], [ -3.4794405, 41.2507711 ], [ -3.4789454, 41.2499715 ], [ -3.478332, 41.2493345 ], [ -3.4774509, 41.2479779 ], [ -3.4761772, 41.2451548 ], [ -3.4757916, 41.2446519 ], [ -3.4749744, 41.2438625 ], [ -3.4736749, 41.2423996 ], [ -3.4726987, 41.2377646 ], [ -3.4722879, 41.2370547 ], [ -3.4716877, 41.2365617 ], [ -3.4702851, 41.2356666 ], [ -3.4708572, 41.2322323 ], [ -3.4708294, 41.231683 ], [ -3.470586, 41.2310174 ], [ -3.4702119, 41.2304243 ], [ -3.469839, 41.2299935 ], [ -3.4692024, 41.2294196 ], [ -3.4683362, 41.2284142 ], [ -3.4679161, 41.2280736 ], [ -3.4674231, 41.2275442 ], [ -3.4672281, 41.2269594 ], [ -3.4668894, 41.2263122 ], [ -3.4664086, 41.2258187 ], [ -3.4649753, 41.2238969 ], [ -3.4645506, 41.2228987 ], [ -3.4644353, 41.2217642 ], [ -3.463519, 41.2204076 ], [ -3.4629981, 41.2192928 ], [ -3.4628776, 41.2191131 ], [ -3.4622029, 41.2181789 ], [ -3.4618677, 41.2180091 ], [ -3.4614709, 41.2175693 ], [ -3.4607642, 41.2171578 ], [ -3.4604173, 41.217033 ], [ -3.4600475, 41.2170255 ], [ -3.4596411, 41.21691 ], [ -3.4591378, 41.2165877 ], [ -3.4583721, 41.2162755 ], [ -3.4571905, 41.2161901 ], [ -3.4556969, 41.2158356 ], [ -3.4553392, 41.2158731 ], [ -3.4550287, 41.2158113 ], [ -3.4546575, 41.2156235 ], [ -3.4542878, 41.215634 ], [ -3.4538113, 41.215744 ], [ -3.4537336, 41.216582 ], [ -3.453774, 41.2172484 ], [ -3.4540907, 41.218193 ], [ -3.4543446, 41.2186874 ], [ -3.4550675, 41.2197115 ], [ -3.4560094, 41.2213472 ], [ -3.4578234, 41.2248621 ], [ -3.4589668, 41.2262898 ], [ -3.4596634, 41.2269447 ], [ -3.4596469, 41.2279896 ], [ -3.4595128, 41.2292963 ], [ -3.4594097, 41.2316117 ], [ -3.4595444, 41.2321066 ], [ -3.460388, 41.2332922 ], [ -3.4601775, 41.2339056 ], [ -3.459589, 41.235079 ], [ -3.4595329, 41.2372861 ], [ -3.4604974, 41.2386875 ], [ -3.4617434, 41.2410966 ], [ -3.4628358, 41.2437045 ], [ -3.4635327, 41.2460617 ], [ -3.4635612, 41.2467192 ], [ -3.4634458, 41.2472781 ], [ -3.4631501, 41.2476577 ], [ -3.4629038, 41.2482712 ], [ -3.4624548, 41.2489125 ], [ -3.4612093, 41.2500254 ], [ -3.4636329, 41.2517993 ], [ -3.4640524, 41.2520498 ], [ -3.4645072, 41.2522282 ], [ -3.4649849, 41.2522623 ], [ -3.4653205, 41.2524501 ], [ -3.465577, 41.2532868 ], [ -3.4657081, 41.2549347 ], [ -3.4661771, 41.2554282 ], [ -3.4661219, 41.256059 ], [ -3.4662084, 41.256473 ], [ -3.466414, 41.2568505 ], [ -3.4665131, 41.2573545 ], [ -3.4664208, 41.2578053 ], [ -3.4647506, 41.2579472 ], [ -3.4603471, 41.2581448 ], [ -3.4580684, 41.258316 ], [ -3.4531252, 41.2616053 ], [ -3.4522921, 41.2619688 ], [ -3.451087, 41.2620636 ], [ -3.4502658, 41.2624271 ], [ -3.4493866, 41.263052 ], [ -3.4482803, 41.2636238 ], [ -3.4477705, 41.2641572 ], [ -3.4477458, 41.2657787 ], [ -3.4475093, 41.2661039 ], [ -3.4469386, 41.2664484 ], [ -3.4457937, 41.266642 ], [ -3.4430003, 41.2666707 ], [ -3.4408861, 41.2665166 ], [ -3.438006, 41.2660861 ], [ -3.4365972, 41.2660735 ], [ -3.4342844, 41.2665776 ], [ -3.4328036, 41.2665111 ], [ -3.4314652, 41.2681374 ], [ -3.4308362, 41.2687163 ], [ -3.4293503, 41.2697036 ], [ -3.429005, 41.269849 ], [ -3.4291288, 41.2705241 ], [ -3.4291334, 41.2712177 ], [ -3.428276, 41.2715812 ], [ -3.42644, 41.2719843 ], [ -3.4257448, 41.2734191 ], [ -3.4251101, 41.2749617 ], [ -3.4249114, 41.2756381 ], [ -3.4249881, 41.2764034 ], [ -3.4254497, 41.2776177 ], [ -3.4257678, 41.2787966 ], [ -3.4257913, 41.280571 ], [ -3.4268495, 41.2853952 ], [ -3.4275032, 41.286744 ], [ -3.4288135, 41.2898829 ], [ -3.4288821, 41.2912427 ], [ -3.4292939, 41.2921239 ], [ -3.4294631, 41.2942402 ], [ -3.429836, 41.2946531 ], [ -3.4304238, 41.2950383 ], [ -3.4313693, 41.2953409 ], [ -3.4329961, 41.2957043 ], [ -3.4349345, 41.2962374 ], [ -3.4367193, 41.2970054 ], [ -3.4398143, 41.2989844 ], [ -3.4419408, 41.3008228 ], [ -3.4456193, 41.3007457 ], [ -3.4474709, 41.3007746 ], [ -3.4488336, 41.3009134 ], [ -3.4505436, 41.3011861 ], [ -3.453774, 41.3019391 ], [ -3.4543231, 41.3018919 ], [ -3.4563297, 41.301866 ], [ -3.4590709, 41.3026929 ], [ -3.4621151, 41.304131 ], [ -3.4630388, 41.3046768 ], [ -3.4636977, 41.3049444 ], [ -3.4651668, 41.3049115 ], [ -3.4674951, 41.304758 ], [ -3.4694716, 41.3055247 ], [ -3.4704791, 41.3060881 ], [ -3.4725925, 41.3076108 ], [ -3.473506, 41.3083817 ], [ -3.4771582, 41.3079344 ], [ -3.4808241, 41.3077031 ] ] ], [ [ [ -3.3542865, 41.3334702 ], [ -3.3545619, 41.3335864 ], [ -3.3628126, 41.3516481 ], [ -3.3665642, 41.3619769 ], [ -3.3668332, 41.3609042 ], [ -3.3670412, 41.3596244 ], [ -3.367325, 41.359065 ], [ -3.3680841, 41.3579998 ], [ -3.3700823, 41.3561649 ], [ -3.3747626, 41.3530332 ], [ -3.3768932, 41.351432 ], [ -3.3784385, 41.3499137 ], [ -3.3786832, 41.348814 ], [ -3.3785966, 41.3483189 ], [ -3.3785723, 41.3482379 ], [ -3.3787942, 41.3473454 ], [ -3.3795693, 41.3449648 ], [ -3.3849824, 41.3426591 ], [ -3.3864207, 41.3413122 ], [ -3.3858329, 41.3409448 ], [ -3.385303, 41.3402711 ], [ -3.3843894, 41.3393823 ], [ -3.3844452, 41.3387065 ], [ -3.3844239, 41.3371033 ], [ -3.3846224, 41.336319 ], [ -3.3875913, 41.3391645 ], [ -3.3901817, 41.3426597 ], [ -3.3908293, 41.3410182 ], [ -3.392646, 41.3370217 ], [ -3.393497, 41.3354335 ], [ -3.394373, 41.3340524 ], [ -3.3949916, 41.3335818 ], [ -3.3950754, 41.3335816 ], [ -3.3951464, 41.3334913 ], [ -3.3978982, 41.3300589 ], [ -3.3999761, 41.3278719 ], [ -3.4009964, 41.3266704 ], [ -3.4014959, 41.3262724 ], [ -3.402068, 41.3260362 ], [ -3.4038962, 41.3260208 ], [ -3.4051871, 41.3260704 ], [ -3.4078078, 41.3247641 ], [ -3.4091445, 41.3245071 ], [ -3.4100999, 41.3244227 ], [ -3.4127562, 41.3230892 ], [ -3.4161897, 41.3256261 ], [ -3.4189186, 41.3263278 ], [ -3.4234808, 41.3240864 ], [ -3.4283463, 41.3171056 ], [ -3.4289855, 41.3161845 ], [ -3.4279228, 41.3089643 ], [ -3.4275533, 41.3072633 ], [ -3.4273997, 41.3056875 ], [ -3.4272646, 41.3051205 ], [ -3.4268418, 41.3043924 ], [ -3.4265724, 41.3033845 ], [ -3.4264236, 41.3025384 ], [ -3.4263372, 41.3021063 ], [ -3.4262921, 41.3006923 ], [ -3.4260337, 41.2995222 ], [ -3.4249463, 41.2976256 ], [ -3.4241441, 41.2954667 ], [ -3.423752, 41.2939369 ], [ -3.4212847, 41.292874 ], [ -3.4204578, 41.2924356 ], [ -3.4199297, 41.2920231 ], [ -3.4193872, 41.2912324 ], [ -3.4183003, 41.2893447 ], [ -3.4162854, 41.2861272 ], [ -3.4165814, 41.2857208 ], [ -3.4168155, 41.2849634 ], [ -3.416892, 41.2838461 ], [ -3.4165105, 41.282073 ], [ -3.4164578, 41.2812895 ], [ -3.4165018, 41.2807039 ], [ -3.4167101, 41.2796582 ], [ -3.4162364, 41.2783899 ], [ -3.4159421, 41.2771659 ], [ -3.4152886, 41.27579 ], [ -3.4144338, 41.2746851 ], [ -3.4142756, 41.2742173 ], [ -3.4151528, 41.2731963 ], [ -3.4152453, 41.2727275 ], [ -3.414971, 41.2708909 ], [ -3.4145201, 41.2694423 ], [ -3.412979, 41.2654934 ], [ -3.4121691, 41.2638929 ], [ -3.4118194, 41.2633357 ], [ -3.4097849, 41.2606226 ], [ -3.4093139, 41.2616601 ], [ -3.4086939, 41.2617884 ], [ -3.406187, 41.2617972 ], [ -3.4047503, 41.2611267 ], [ -3.4030734, 41.2601867 ], [ -3.4007731, 41.2588345 ], [ -3.3993365, 41.2581639 ], [ -3.3974228, 41.2575309 ], [ -3.3957136, 41.2571584 ], [ -3.3942322, 41.2569833 ], [ -3.3904498, 41.2572393 ], [ -3.3880649, 41.2576707 ], [ -3.3865144, 41.257892 ], [ -3.3856549, 41.2578859 ], [ -3.3848438, 41.2579877 ], [ -3.3811843, 41.2588735 ], [ -3.3784303, 41.259495 ], [ -3.3776903, 41.2595245 ], [ -3.3761488, 41.2592412 ], [ -3.3733908, 41.2591511 ], [ -3.3728419, 41.2591799 ], [ -3.3693989, 41.2604159 ], [ -3.3661462, 41.2593903 ], [ -3.3645801, 41.2589809 ], [ -3.3634193, 41.2584621 ], [ -3.3608756, 41.2582809 ], [ -3.3601589, 41.258166 ], [ -3.3593577, 41.2579253 ], [ -3.3587946, 41.2575487 ], [ -3.3582308, 41.257046 ], [ -3.3573449, 41.2565533 ], [ -3.3564358, 41.2562138 ], [ -3.3555033, 41.2559555 ], [ -3.354238, 41.2559593 ], [ -3.3456916, 41.2560031 ], [ -3.3445053, 41.2551329 ], [ -3.3428559, 41.2547234 ], [ -3.3405351, 41.2537394 ], [ -3.3392591, 41.2539593 ], [ -3.3383635, 41.2538899 ], [ -3.3375027, 41.2536132 ], [ -3.3363538, 41.253031 ], [ -3.330446, 41.2555431 ], [ -3.3306198, 41.2568668 ], [ -3.3298495, 41.2579589 ], [ -3.3299491, 41.2587873 ], [ -3.3287328, 41.259052 ], [ -3.3283992, 41.2591791 ], [ -3.3263171, 41.2605721 ], [ -3.3257098, 41.2608891 ], [ -3.3250674, 41.2613323 ], [ -3.323625, 41.2617417 ], [ -3.322742, 41.2618162 ], [ -3.321065, 41.2606408 ], [ -3.3203008, 41.2606159 ], [ -3.3192149, 41.2606999 ], [ -3.3178174, 41.2605327 ], [ -3.3159809, 41.260907 ], [ -3.3138348, 41.2614893 ], [ -3.3128926, 41.2616811 ], [ -3.3120927, 41.2616652 ], [ -3.311316, 41.2614961 ], [ -3.3106343, 41.2612277 ], [ -3.3075984, 41.2604431 ], [ -3.3063575, 41.2605725 ], [ -3.3056866, 41.2600518 ], [ -3.3038765, 41.2584352 ], [ -3.3028228, 41.2577263 ], [ -3.3021654, 41.2575388 ], [ -3.3008515, 41.2573351 ], [ -3.2987136, 41.2571064 ], [ -3.2978535, 41.2569555 ], [ -3.2970783, 41.2571016 ], [ -3.2966734, 41.2573188 ], [ -3.2964005, 41.2576798 ], [ -3.293393, 41.2578226 ], [ -3.2905521, 41.2578387 ], [ -3.2901705, 41.2579297 ], [ -3.289921, 41.2582096 ], [ -3.2895085, 41.2593997 ], [ -3.2895022, 41.2606878 ], [ -3.2890055, 41.261743 ], [ -3.2890087, 41.2624546 ], [ -3.2892046, 41.263571 ], [ -3.2891464, 41.2639225 ], [ -3.2883885, 41.2653206 ], [ -3.2878779, 41.2659344 ], [ -3.2872592, 41.2664133 ], [ -3.2866748, 41.2665589 ], [ -3.2844354, 41.2677264 ], [ -3.283637, 41.2680616 ], [ -3.2832092, 41.2685311 ], [ -3.2824862, 41.2697489 ], [ -3.2818911, 41.2701917 ], [ -3.2816289, 41.2702914 ], [ -3.2814031, 41.2705352 ], [ -3.2812177, 41.2718688 ], [ -3.2791017, 41.2740087 ], [ -3.2785176, 41.2742353 ], [ -3.2757628, 41.2750346 ], [ -3.2763983, 41.2756906 ], [ -3.276365, 41.2762762 ], [ -3.2764827, 41.278717 ], [ -3.2767364, 41.279401 ], [ -3.2768003, 41.2804007 ], [ -3.2771987, 41.2814446 ], [ -3.2773096, 41.2822371 ], [ -3.2774381, 41.2843986 ], [ -3.2768371, 41.2862736 ], [ -3.2760455, 41.2883113 ], [ -3.2752689, 41.2910695 ], [ -3.2761931, 41.2921752 ], [ -3.2765569, 41.2934714 ], [ -3.2756423, 41.2946716 ], [ -3.2758594, 41.2951755 ], [ -3.2868469, 41.314101 ], [ -3.2913378, 41.3218634 ], [ -3.2922054, 41.3235186 ], [ -3.2944805, 41.327233 ], [ -3.2966853, 41.3311998 ], [ -3.2972389, 41.3320541 ], [ -3.2981656, 41.3334839 ], [ -3.2982018, 41.3335649 ], [ -3.2995636, 41.3360475 ], [ -3.3075814, 41.3408275 ], [ -3.3128373, 41.3401739 ], [ -3.3176763, 41.3447726 ], [ -3.3250886, 41.3474904 ], [ -3.3300149, 41.3478008 ], [ -3.3315807, 41.3477783 ], [ -3.3324539, 41.3478839 ], [ -3.3300555, 41.3440085 ], [ -3.3311182, 41.3437802 ], [ -3.3321309, 41.3431378 ], [ -3.3333217, 41.3422697 ], [ -3.3398426, 41.338972 ], [ -3.3397054, 41.3378825 ], [ -3.3397575, 41.336387 ], [ -3.3404758, 41.3366281 ], [ -3.3427426, 41.3335859 ], [ -3.3428137, 41.3334686 ], [ -3.344743, 41.3299139 ], [ -3.3450639, 41.3295977 ], [ -3.348861, 41.3312617 ], [ -3.3502741, 41.3318249 ], [ -3.3542505, 41.3334523 ], [ -3.3542865, 41.3334702 ] ] ], [ [ [ -3.5404808, 41.3451278 ], [ -3.5415434, 41.3449787 ], [ -3.5422728, 41.3450113 ], [ -3.5427416, 41.3453334 ], [ -3.5433206, 41.3459702 ], [ -3.5450231, 41.3465837 ], [ -3.5491562, 41.3476901 ], [ -3.5515755, 41.3439855 ], [ -3.5521065, 41.3431724 ], [ -3.5526375, 41.3423591 ], [ -3.5532599, 41.3410591 ], [ -3.5549113, 41.338457 ], [ -3.5558688, 41.3372183 ], [ -3.5560794, 41.3366769 ], [ -3.5558348, 41.3360296 ], [ -3.5548417, 41.334485 ], [ -3.554707, 41.3340893 ], [ -3.5548711, 41.3337102 ], [ -3.5552877, 41.3335191 ], [ -3.5553234, 41.3335009 ], [ -3.5561322, 41.3330466 ], [ -3.5564938, 41.332 ], [ -3.5567763, 41.3314942 ], [ -3.5578285, 41.3301651 ], [ -3.5581602, 41.3298031 ], [ -3.5587808, 41.3297191 ], [ -3.5591145, 41.3296184 ], [ -3.5602321, 41.3289465 ], [ -3.5613716, 41.3280491 ], [ -3.5613379, 41.3268963 ], [ -3.5609507, 41.3249435 ], [ -3.5607221, 41.3247555 ], [ -3.5594806, 41.3221042 ], [ -3.5589351, 41.3211881 ], [ -3.5580986, 41.3211742 ], [ -3.5569283, 41.3212518 ], [ -3.5564839, 41.3209838 ], [ -3.554757, 41.3202264 ], [ -3.5517983, 41.3193488 ], [ -3.5493807, 41.3188559 ], [ -3.5474595, 41.3191532 ], [ -3.546422, 41.3193923 ], [ -3.5455515, 41.3196036 ], [ -3.5437161, 41.3201526 ], [ -3.5434433, 41.3204062 ], [ -3.5433723, 41.3204786 ], [ -3.5402416, 41.3204572 ], [ -3.5390057, 41.3212736 ], [ -3.5365752, 41.3206814 ], [ -3.5355905, 41.3200735 ], [ -3.5333238, 41.319021 ], [ -3.5324591, 41.3184755 ], [ -3.5289842, 41.3157711 ], [ -3.528662, 41.3158087 ], [ -3.5280552, 41.3161267 ], [ -3.5276254, 41.3161647 ], [ -3.5270293, 41.3163295 ], [ -3.5273493, 41.31749 ], [ -3.5275063, 41.3191918 ], [ -3.5278374, 41.3202441 ], [ -3.5278346, 41.3213701 ], [ -3.5277814, 41.322199 ], [ -3.5275643, 41.3234341 ], [ -3.5284565, 41.3258981 ], [ -3.5285277, 41.327321 ], [ -3.5283982, 41.3290511 ], [ -3.5277762, 41.3289728 ], [ -3.52669, 41.3306171 ], [ -3.5266585, 41.3311577 ], [ -3.5268892, 41.331815 ], [ -3.527171, 41.332365 ], [ -3.5275563, 41.3330896 ], [ -3.5278733, 41.3338146 ], [ -3.5279727, 41.3339057 ], [ -3.5283617, 41.3341498 ], [ -3.5285755, 41.3343147 ], [ -3.528828, 41.334571 ], [ -3.5292029, 41.334941 ], [ -3.5293408, 41.3351063 ], [ -3.5297004, 41.3354707 ], [ -3.5300608, 41.3359209 ], [ -3.5305271, 41.336342 ], [ -3.5309704, 41.3367232 ], [ -3.5317105, 41.337206 ], [ -3.5321611, 41.3375586 ], [ -3.5325966, 41.3379112 ], [ -3.5329961, 41.3382407 ], [ -3.5331942, 41.3383518 ], [ -3.5335343, 41.3390258 ], [ -3.5337224, 41.3401059 ], [ -3.5343339, 41.3418145 ], [ -3.5358373, 41.3444107 ], [ -3.5375497, 41.3462673 ], [ -3.5387536, 41.3458564 ], [ -3.5393961, 41.3454931 ], [ -3.5404808, 41.3451278 ] ] ], [ [ [ -3.4334443, 41.3219508 ], [ -3.4310153, 41.3214464 ], [ -3.4302864, 41.3196116 ], [ -3.4298199, 41.3213518 ], [ -3.4316511, 41.323651 ], [ -3.4355667, 41.3302658 ], [ -3.4340824, 41.3335051 ], [ -3.4340469, 41.3335683 ], [ -3.4332561, 41.3350575 ], [ -3.4331396, 41.3355083 ], [ -3.4350724, 41.3368162 ], [ -3.4367556, 41.3383231 ], [ -3.4375622, 41.3392028 ], [ -3.4378433, 41.3401205 ], [ -3.4380113, 41.3420115 ], [ -3.4381457, 41.3424433 ], [ -3.4386281, 41.3430901 ], [ -3.4382255, 41.3436501 ], [ -3.4381732, 41.3447762 ], [ -3.438335, 41.3457214 ], [ -3.4378806, 41.3474796 ], [ -3.4379813, 41.3482358 ], [ -3.4382259, 41.3490636 ], [ -3.4382657, 41.349667 ], [ -3.4384119, 41.3500717 ], [ -3.4389646, 41.350484 ], [ -3.4404041, 41.3512351 ], [ -3.4408063, 41.3506121 ], [ -3.4412992, 41.3492501 ], [ -3.4419444, 41.3492026 ], [ -3.4422366, 41.3482196 ], [ -3.4427978, 41.3481184 ], [ -3.4453465, 41.3449921 ], [ -3.4465344, 41.3439156 ], [ -3.4483773, 41.3407468 ], [ -3.4478676, 41.3396048 ], [ -3.4451389, 41.3355619 ], [ -3.4440544, 41.334251 ], [ -3.4441214, 41.3335572 ], [ -3.444133, 41.3335031 ], [ -3.4443885, 41.3306467 ], [ -3.4444937, 41.3302951 ], [ -3.4444548, 41.3298538 ], [ -3.4443091, 41.3295031 ], [ -3.443648, 41.3289471 ], [ -3.441441, 41.3277215 ], [ -3.4392252, 41.3269643 ], [ -3.4384224, 41.326634 ], [ -3.4369341, 41.3256488 ], [ -3.4359848, 41.3248507 ], [ -3.4356951, 41.3244195 ], [ -3.4353675, 41.323682 ], [ -3.4350413, 41.3231428 ], [ -3.4340675, 41.3222367 ], [ -3.4334443, 41.3219508 ] ] ], [ [ [ -3.5649964, 41.3576122 ], [ -3.5650737, 41.3582604 ], [ -3.5648318, 41.3593245 ], [ -3.5643192, 41.3608853 ], [ -3.5640807, 41.3637238 ], [ -3.5641185, 41.3639488 ], [ -3.5641574, 41.3643089 ], [ -3.5645566, 41.3648384 ], [ -3.5648228, 41.3652154 ], [ -3.5664256, 41.3652796 ], [ -3.5669758, 41.365304 ], [ -3.568578, 41.3653051 ], [ -3.5758285, 41.3644947 ], [ -3.5776206, 41.3643326 ], [ -3.5786241, 41.3642465 ], [ -3.5802738, 41.3642112 ], [ -3.5811704, 41.3641977 ], [ -3.5829329, 41.3634052 ], [ -3.5896663, 41.359651 ], [ -3.590072, 41.3595679 ], [ -3.5913756, 41.3596152 ], [ -3.592152, 41.3595302 ], [ -3.5925805, 41.3593298 ], [ -3.5938407, 41.3585397 ], [ -3.5919382, 41.3570452 ], [ -3.5914437, 41.3565704 ], [ -3.5913709, 41.3564446 ], [ -3.591213, 41.3561752 ], [ -3.5912076, 41.3555717 ], [ -3.592798, 41.3516633 ], [ -3.5931475, 41.3506527 ], [ -3.5933986, 41.3493363 ], [ -3.5920306, 41.3461186 ], [ -3.591109, 41.3446461 ], [ -3.5902514, 41.3423356 ], [ -3.5899242, 41.3418238 ], [ -3.5893585, 41.3413853 ], [ -3.5886383, 41.3410557 ], [ -3.5879075, 41.3408702 ], [ -3.586366, 41.3408961 ], [ -3.5857428, 41.3407101 ], [ -3.5846509, 41.3402292 ], [ -3.5797196, 41.3380832 ], [ -3.5782201, 41.3374512 ], [ -3.5757625, 41.3365897 ], [ -3.5746047, 41.3353975 ], [ -3.5735648, 41.3340154 ], [ -3.5733933, 41.3335389 ], [ -3.573429, 41.3335297 ], [ -3.5734168, 41.3335027 ], [ -3.5720373, 41.3315369 ], [ -3.5714518, 41.3287925 ], [ -3.5709464, 41.3256514 ], [ -3.570151, 41.3221333 ], [ -3.5679679, 41.319775 ], [ -3.5675839, 41.3195878 ], [ -3.5673253, 41.3200754 ], [ -3.5666775, 41.3211595 ], [ -3.5660982, 41.321874 ], [ -3.5644002, 41.3231072 ], [ -3.5627475, 41.3240701 ], [ -3.5633864, 41.3261117 ], [ -3.5632193, 41.3275267 ], [ -3.563224, 41.3280672 ], [ -3.5639065, 41.3296041 ], [ -3.563864, 41.3302349 ], [ -3.5639689, 41.3313243 ], [ -3.5642269, 41.3321338 ], [ -3.5644814, 41.3325468 ], [ -3.5650394, 41.3334989 ], [ -3.5650517, 41.3335349 ], [ -3.5654183, 41.3344698 ], [ -3.5654641, 41.3356316 ], [ -3.5653707, 41.3386586 ], [ -3.5652144, 41.3399294 ], [ -3.5647832, 41.3412106 ], [ -3.5643565, 41.3430232 ], [ -3.5640052, 41.3452497 ], [ -3.5636295, 41.3460443 ], [ -3.5630867, 41.3468666 ], [ -3.5621994, 41.3479337 ], [ -3.5618937, 41.3485298 ], [ -3.5617681, 41.3492059 ], [ -3.5616376, 41.3507198 ], [ -3.5616143, 41.350792 ], [ -3.5613688, 41.3514327 ], [ -3.5610141, 41.3518848 ], [ -3.560291, 41.3526089 ], [ -3.5600317, 41.3530335 ], [ -3.5601065, 41.3533935 ], [ -3.560808, 41.3543358 ], [ -3.5618741, 41.3559881 ], [ -3.562343, 41.356301 ], [ -3.56336, 41.3564042 ], [ -3.5642348, 41.3566341 ], [ -3.5647522, 41.357019 ], [ -3.5649964, 41.3576122 ] ] ] ] } }
]
}
