{
"type": "FeatureCollection",
"name": "40203",
"features": [
{ "type": "Feature", "properties": { "CCAA": "07 - Castilla y León", "PROVINCIA": "40 - Segovia", "MUNICIPIO": "40203 - Torrecaballeros", "COD_MUNICIPIO": "40203", "DISTRITO": "01", "SECCION": "4020301001", "V1_H": 80.63, "V1_M": 86.52, "V2_H": 80.3855305, "V2_M": 86.44800565, "V3_H": 80.88841766, "V3_M": 86.66780776 }, "geometry": { "type": "Polygon", "coordinates": [ [ [ -3.9042084, 40.9565438 ], [ -3.90446, 40.9572989 ], [ -3.9050995, 40.9588793 ], [ -3.9056112, 40.9598031 ], [ -3.9064841, 40.9610754 ], [ -3.9063362, 40.961554 ], [ -3.906273, 40.962149 ], [ -3.9063617, 40.9625537 ], [ -3.9066266, 40.9628038 ], [ -3.9069847, 40.9629181 ], [ -3.9139697, 40.9636017 ], [ -3.9159104, 40.9638655 ], [ -3.9189913, 40.9640843 ], [ -3.9201281, 40.9646517 ], [ -3.9227637, 40.9653153 ], [ -3.9235753, 40.9655609 ], [ -3.924433, 40.9657163 ], [ -3.9262651, 40.9658547 ], [ -3.9273621, 40.9661161 ], [ -3.9283769, 40.9664412 ], [ -3.9307337, 40.9675573 ], [ -3.9331638, 40.9688078 ], [ -3.9339998, 40.9690983 ], [ -3.9358189, 40.9691466 ], [ -3.9382611, 40.9695682 ], [ -3.941486, 40.9698572 ], [ -3.9453492, 40.9707354 ], [ -3.9461707, 40.9708367 ], [ -3.948383, 40.9709537 ], [ -3.9521681, 40.9713459 ], [ -3.9528333, 40.9713224 ], [ -3.9549213, 40.9710619 ], [ -3.9607622, 40.9697883 ], [ -3.9600507, 40.970722 ], [ -3.9596029, 40.9718067 ], [ -3.9595019, 40.9730417 ], [ -3.9592841, 40.973593 ], [ -3.9588902, 40.9742989 ], [ -3.957784, 40.9758845 ], [ -3.9567106, 40.9772807 ], [ -3.9557804, 40.9787116 ], [ -3.9568376, 40.9794866 ], [ -3.9580254, 40.9802514 ], [ -3.9598475, 40.9813082 ], [ -3.9635784, 40.9836552 ], [ -3.9653027, 40.9845146 ], [ -3.9682633, 40.9861833 ], [ -3.969196, 40.9865538 ], [ -3.9701795, 40.987149 ], [ -3.9716282, 40.9878485 ], [ -3.9742063, 40.9893582 ], [ -3.9778881, 40.9915339 ], [ -3.9818304, 40.9936173 ], [ -3.9815924, 40.9944121 ], [ -3.9802709, 40.997495 ], [ -3.9799865, 40.9983622 ], [ -3.9799568, 40.9987678 ], [ -3.9803334, 40.9993051 ], [ -3.9808396, 40.9997692 ], [ -3.9814877, 41.0001691 ], [ -3.9816197, 41.0002581 ], [ -3.983967, 41.0021928 ], [ -3.9869002, 41.0043297 ], [ -3.9891211, 41.0057339 ], [ -3.9915887, 41.0077305 ], [ -3.9939603, 41.0096648 ], [ -3.9960706, 41.0116014 ], [ -3.9970794, 41.0122593 ], [ -3.9980962, 41.0126558 ], [ -4.0002793, 41.0131053 ], [ -4.0030694, 41.0135765 ], [ -4.0025941, 41.0167425 ], [ -4.0008551, 41.0173612 ], [ -4.0013109, 41.0184021 ], [ -4.0014904, 41.0192563 ], [ -4.0014493, 41.0204727 ], [ -4.0032541, 41.0218353 ], [ -4.0046468, 41.0226969 ], [ -4.0064152, 41.0208799 ], [ -4.0092228, 41.0178016 ], [ -4.005974, 41.0168932 ], [ -4.0052456, 41.0159177 ], [ -4.0043788, 41.0160063 ], [ -4.0039099, 41.0148934 ], [ -4.004067, 41.0142705 ], [ -4.0045244, 41.0130684 ], [ -4.0073853, 41.0135028 ], [ -4.0110925, 41.0148486 ], [ -4.0125763, 41.0154391 ], [ -4.0126837, 41.0154652 ], [ -4.0146319, 41.0160967 ], [ -4.0187144, 41.0170786 ], [ -4.0209445, 41.0166985 ], [ -4.0237321, 41.0162234 ], [ -4.0249359, 41.0156272 ], [ -4.0259982, 41.0151043 ], [ -4.0273002, 41.015471 ], [ -4.0300944, 41.0139058 ], [ -4.0308477, 41.0134036 ], [ -4.0313281, 41.0121742 ], [ -4.0344805, 41.0130017 ], [ -4.0346956, 41.0130628 ], [ -4.0351484, 41.0131218 ], [ -4.0364779, 41.0129568 ], [ -4.0392522, 41.0124183 ], [ -4.0437035, 41.011135 ], [ -4.041829, 41.0091522 ], [ -4.0426425, 41.0079558 ], [ -4.0440677, 41.0055828 ], [ -4.0456968, 41.005577 ], [ -4.0471857, 41.0057346 ], [ -4.0476506, 41.0043072 ], [ -4.0480818, 41.0037537 ], [ -4.047314, 41.0033283 ], [ -4.0470752, 41.0025108 ], [ -4.047024, 41.0015294 ], [ -4.0469633, 41.0007012 ], [ -4.0470754, 41.0002678 ], [ -4.0470024, 41.0001603 ], [ -4.0458733, 40.9986843 ], [ -4.0458177, 40.9981804 ], [ -4.0454221, 40.9979767 ], [ -4.0451441, 40.997691 ], [ -4.0448034, 40.9971896 ], [ -4.0437358, 40.9943347 ], [ -4.0436208, 40.9930747 ], [ -4.0434934, 40.9925353 ], [ -4.0434316, 40.9923828 ], [ -4.0432108, 40.9919523 ], [ -4.0427848, 40.9913257 ], [ -4.0425117, 40.9905894 ], [ -4.0422025, 40.9890699 ], [ -4.0418018, 40.986272 ], [ -4.0417275, 40.9860835 ], [ -4.0415921, 40.9857875 ], [ -4.0412403, 40.9853403 ], [ -4.0409026, 40.985028 ], [ -4.0403868, 40.9847354 ], [ -4.0385339, 40.9840765 ], [ -4.037036, 40.9833063 ], [ -4.0406132, 40.9817427 ], [ -4.0422023, 40.9807464 ], [ -4.0428418, 40.9805966 ], [ -4.0432157, 40.9801878 ], [ -4.0435428, 40.9798245 ], [ -4.04411, 40.9796123 ], [ -4.0475704, 40.9789503 ], [ -4.0482205, 40.9787192 ], [ -4.0499409, 40.9777757 ], [ -4.0502582, 40.9775476 ], [ -4.0509021, 40.9761725 ], [ -4.0510936, 40.9755132 ], [ -4.0503577, 40.9755739 ], [ -4.0463736, 40.975421 ], [ -4.041596, 40.9746985 ], [ -4.0393151, 40.9740165 ], [ -4.0329702, 40.9718485 ], [ -4.0305602, 40.9712575 ], [ -4.0278554, 40.9708132 ], [ -4.0250362, 40.9706492 ], [ -4.0222119, 40.9701607 ], [ -4.0187763, 40.9693264 ], [ -4.017776, 40.9692001 ], [ -4.0155385, 40.9682109 ], [ -4.0150621, 40.968143 ], [ -4.0140524, 40.968179 ], [ -4.0123044, 40.9688969 ], [ -4.0120194, 40.9689085 ], [ -4.0083686, 40.9679856 ], [ -4.0066045, 40.9676406 ], [ -4.0054147, 40.9675429 ], [ -4.004699, 40.967369 ], [ -4.0036592, 40.9669817 ], [ -3.9924847, 40.9635832 ], [ -3.9906841, 40.9631754 ], [ -3.9883904, 40.9623663 ], [ -3.9817065, 40.9603966 ], [ -3.9716282, 40.9570498 ], [ -3.9674594, 40.9555535 ], [ -3.9515268, 40.9498578 ], [ -3.9481806, 40.9501556 ], [ -3.9465718, 40.9498175 ], [ -3.9445595, 40.9495097 ], [ -3.9408427, 40.9488194 ], [ -3.9390335, 40.9485819 ], [ -3.9349945, 40.947777 ], [ -3.9293573, 40.9473722 ], [ -3.9238987, 40.9469836 ], [ -3.9192114, 40.9465346 ], [ -3.9196445, 40.9409191 ], [ -3.919959, 40.9387636 ], [ -3.9201286, 40.9381407 ], [ -3.9200873, 40.9377267 ], [ -3.9196316, 40.9385381 ], [ -3.9185062, 40.9406959 ], [ -3.9172254, 40.9431511 ], [ -3.9122396, 40.9445936 ], [ -3.9118805, 40.9446974 ], [ -3.9119086, 40.9457573 ], [ -3.9114497, 40.946708 ], [ -3.9118483, 40.947628 ], [ -3.9125218, 40.949183 ], [ -3.9122222, 40.9492584 ], [ -3.9103704, 40.9497239 ], [ -3.9099177, 40.9497634 ], [ -3.9093939, 40.951881 ], [ -3.9083522, 40.952955 ], [ -3.9071562, 40.955149 ], [ -3.9042315, 40.9565394 ], [ -3.9042084, 40.9565438 ] ] ] } }
]
}
