{
"type": "FeatureCollection",
"name": "40210",
"features": [
{ "type": "Feature", "properties": { "CCAA": "07 - Castilla y León", "PROVINCIA": "40 - Segovia", "MUNICIPIO": "40210 - Urueñas", "COD_MUNICIPIO": "40210", "DISTRITO": "01", "SECCION": "4021001001", "V1_H": 81.73, "V1_M": 86.8, "V2_H": 81.31626673, "V2_M": 86.83145999, "V3_H": 82.17064416, "V3_M": 87.00536352 }, "geometry": { "type": "Polygon", "coordinates": [ [ [ -3.7211719, 41.3700207 ], [ -3.7220758, 41.3695917 ], [ -3.725186, 41.3686264 ], [ -3.7324481, 41.3700579 ], [ -3.7345917, 41.3703414 ], [ -3.736952, 41.3707588 ], [ -3.7417113, 41.3718182 ], [ -3.7448651, 41.3725996 ], [ -3.7466285, 41.3730925 ], [ -3.7472507, 41.3731245 ], [ -3.7491876, 41.3720491 ], [ -3.7501846, 41.3734838 ], [ -3.7513428, 41.375413 ], [ -3.7538946, 41.3789272 ], [ -3.7557719, 41.3820135 ], [ -3.7565059, 41.3834229 ], [ -3.7587216, 41.3867772 ], [ -3.7607495, 41.389403 ], [ -3.7616828, 41.3904598 ], [ -3.7621342, 41.3912134 ], [ -3.762504, 41.3921477 ], [ -3.7662979, 41.3902851 ], [ -3.767629, 41.3895556 ], [ -3.7693242, 41.3841938 ], [ -3.773714, 41.3832186 ], [ -3.7774559, 41.3820766 ], [ -3.7823689, 41.3808723 ], [ -3.7921403, 41.378932 ], [ -3.7951613, 41.3785419 ], [ -3.7971681, 41.3783568 ], [ -3.8013515, 41.3781657 ], [ -3.7984279, 41.3718356 ], [ -3.7980916, 41.37073 ], [ -3.7980298, 41.3705683 ], [ -3.7974994, 41.368257 ], [ -3.7973766, 41.3670148 ], [ -3.7974003, 41.3669876 ], [ -3.7979304, 41.3663354 ], [ -3.8067438, 41.3586716 ], [ -3.8061594, 41.3549105 ], [ -3.805521, 41.3516002 ], [ -3.8054499, 41.3506818 ], [ -3.8057087, 41.3493649 ], [ -3.8061046, 41.3485155 ], [ -3.7994773, 41.3481113 ], [ -3.7975922, 41.3474217 ], [ -3.7949899, 41.3467371 ], [ -3.7907348, 41.3457665 ], [ -3.785117, 41.3447871 ], [ -3.7837749, 41.3445079 ], [ -3.7823088, 41.3438423 ], [ -3.780351, 41.3430539 ], [ -3.7731614, 41.3405172 ], [ -3.7710124, 41.3397029 ], [ -3.7677185, 41.3370586 ], [ -3.7666221, 41.3363093 ], [ -3.7645744, 41.3349357 ], [ -3.7642386, 41.3348298 ], [ -3.7639271, 41.3347688 ], [ -3.7570777, 41.333616 ], [ -3.7559784, 41.3336322 ], [ -3.7546171, 41.3337312 ], [ -3.7495123, 41.3346203 ], [ -3.7468684, 41.33543 ], [ -3.7438325, 41.3364586 ], [ -3.7430305, 41.3353018 ], [ -3.7426631, 41.3345115 ], [ -3.7425375, 41.3339809 ], [ -3.7425331, 41.3335935 ], [ -3.7424374, 41.3335851 ], [ -3.7423237, 41.3298747 ], [ -3.744483, 41.3285006 ], [ -3.7433982, 41.3276789 ], [ -3.7427049, 41.3287192 ], [ -3.7350467, 41.3320561 ], [ -3.7307725, 41.3335065 ], [ -3.7305225, 41.3335892 ], [ -3.7238755, 41.3355407 ], [ -3.7212548, 41.3363137 ], [ -3.7196335, 41.3366841 ], [ -3.7166279, 41.3372523 ], [ -3.7096764, 41.3398444 ], [ -3.7098527, 41.3494995 ], [ -3.7100113, 41.3508947 ], [ -3.7100997, 41.3513265 ], [ -3.7107744, 41.3551235 ], [ -3.7114019, 41.357858 ], [ -3.7118189, 41.3588193 ], [ -3.712588, 41.3602828 ], [ -3.7146975, 41.3651428 ], [ -3.7211719, 41.3700207 ] ] ] } }
]
}
