{
"type": "FeatureCollection",
"name": "40213",
"features": [
{ "type": "Feature", "properties": { "CCAA": "07 - Castilla y León", "PROVINCIA": "40 - Segovia", "MUNICIPIO": "40213 - Valdevacas y Guijar", "COD_MUNICIPIO": "40213", "DISTRITO": "01", "SECCION": "4021301001", "V1_H": 75.48, "V1_M": 82.31, "V2_H": 75.36985678000001, "V2_M": 82.56533706, "V3_H": 75.8600571, "V3_M": 82.01450712 }, "geometry": { "type": "Polygon", "coordinates": [ [ [ -3.9057485, 41.1771841 ], [ -3.9068451, 41.1763017 ], [ -3.9074366, 41.1759727 ], [ -3.9078995, 41.1758159 ], [ -3.9113925, 41.1766712 ], [ -3.9123448, 41.1765645 ], [ -3.9136062, 41.1772571 ], [ -3.9132091, 41.1778458 ], [ -3.9130188, 41.1787391 ], [ -3.9131314, 41.1791255 ], [ -3.9141005, 41.1802258 ], [ -3.9147401, 41.1807702 ], [ -3.9178823, 41.1820964 ], [ -3.9204734, 41.1815172 ], [ -3.9212202, 41.181205 ], [ -3.9221243, 41.1802069 ], [ -3.9213864, 41.1786004 ], [ -3.921404, 41.1781499 ], [ -3.922259, 41.1745128 ], [ -3.9227982, 41.1730041 ], [ -3.9253349, 41.1668944 ], [ -3.9253699, 41.1668401 ], [ -3.9261018, 41.165483 ], [ -3.926789, 41.162649 ], [ -3.9275674, 41.1612194 ], [ -3.9339572, 41.1587717 ], [ -3.9398553, 41.1594895 ], [ -3.9424127, 41.1582885 ], [ -3.945335, 41.1567872 ], [ -3.9471135, 41.1561421 ], [ -3.9492722, 41.1545929 ], [ -3.9526616, 41.1524481 ], [ -3.9528624, 41.1523203 ], [ -3.9534169, 41.1511087 ], [ -3.9556428, 41.1509281 ], [ -3.9587735, 41.1482357 ], [ -3.9588677, 41.1481538 ], [ -3.9579405, 41.1458555 ], [ -3.9570819, 41.1441692 ], [ -3.9562696, 41.143212 ], [ -3.9561249, 41.1430962 ], [ -3.9533532, 41.1409572 ], [ -3.951007, 41.1393822 ], [ -3.9496255, 41.1377722 ], [ -3.9488152, 41.1369501 ], [ -3.9479549, 41.1376058 ], [ -3.9460176, 41.1371173 ], [ -3.9455279, 41.1362025 ], [ -3.946009, 41.1356851 ], [ -3.945324, 41.1352763 ], [ -3.9427584, 41.1366665 ], [ -3.9417459, 41.1366839 ], [ -3.9386182, 41.1379344 ], [ -3.9383399, 41.1368017 ], [ -3.9363615, 41.135926 ], [ -3.9370592, 41.1338755 ], [ -3.9373395, 41.1334859 ], [ -3.9377926, 41.1335093 ], [ -3.9393116, 41.1305783 ], [ -3.9398512, 41.1299884 ], [ -3.9415906, 41.1283257 ], [ -3.9351228, 41.1292432 ], [ -3.9316487, 41.1295686 ], [ -3.9270245, 41.1302905 ], [ -3.923224, 41.130285 ], [ -3.919028, 41.1301203 ], [ -3.9154136, 41.1297888 ], [ -3.9130416, 41.1296995 ], [ -3.9121607, 41.1297516 ], [ -3.9114003, 41.1299017 ], [ -3.9028334, 41.1315726 ], [ -3.9012662, 41.1319722 ], [ -3.8970622, 41.1347164 ], [ -3.8945285, 41.1350154 ], [ -3.8902266, 41.1358414 ], [ -3.8908538, 41.1364131 ], [ -3.8925592, 41.1382825 ], [ -3.8932197, 41.1386648 ], [ -3.8951146, 41.1395689 ], [ -3.8950844, 41.1452261 ], [ -3.8926114, 41.1465335 ], [ -3.8916718, 41.1475406 ], [ -3.8905134, 41.149117 ], [ -3.8902384, 41.1499388 ], [ -3.8900738, 41.150976 ], [ -3.8911057, 41.1514995 ], [ -3.8946251, 41.153526 ], [ -3.8965834, 41.1546728 ], [ -3.8987685, 41.1558448 ], [ -3.9003788, 41.1568141 ], [ -3.9018474, 41.1596131 ], [ -3.9046845, 41.1648425 ], [ -3.9059754, 41.1651026 ], [ -3.908033, 41.1656269 ], [ -3.9094936, 41.1660838 ], [ -3.9090748, 41.1668347 ], [ -3.9090516, 41.1668799 ], [ -3.9064563, 41.1714494 ], [ -3.9056668, 41.172987 ], [ -3.9052048, 41.1740626 ], [ -3.9046787, 41.1756791 ], [ -3.9053865, 41.1768716 ], [ -3.9057485, 41.1771841 ] ] ] } }
]
}
