{
"type": "FeatureCollection",
"name": "41041",
"features": [
{ "type": "Feature", "properties": { "CCAA": "01 - Andalucía", "PROVINCIA": "41 - Sevilla", "MUNICIPIO": "41041 - Estepa", "COD_MUNICIPIO": "41041", "DISTRITO": "01", "SECCION": "4104101001", "V1_H": 79.57, "V1_M": 85.52, "V2_H": 79.5571672, "V2_M": 85.61629353, "V3_H": 79.73611669, "V3_M": 85.61269153000001 }, "geometry": { "type": "Polygon", "coordinates": [ [ [ -4.8867414, 37.2932132 ], [ -4.8872099, 37.2933297 ], [ -4.8874465, 37.2935113 ], [ -4.8874567, 37.2935288 ], [ -4.8874975, 37.2935958 ], [ -4.8877615, 37.2939261 ], [ -4.8879276, 37.2941571 ], [ -4.8882091, 37.2945485 ], [ -4.8889711, 37.2954234 ], [ -4.8894999, 37.2960209 ], [ -4.8899614, 37.2966195 ], [ -4.8905901, 37.2975453 ], [ -4.8909064, 37.2980653 ], [ -4.892617, 37.2969729 ], [ -4.8960999, 37.2949981 ], [ -4.8960813, 37.2949599 ], [ -4.896518, 37.2944686 ], [ -4.896676, 37.2941036 ], [ -4.8966917, 37.293779 ], [ -4.8966831, 37.2934358 ], [ -4.896559, 37.293247 ], [ -4.8963649, 37.2930831 ], [ -4.8963728, 37.2930681 ], [ -4.8961491, 37.2929541 ], [ -4.8955872, 37.2927782 ], [ -4.8952072, 37.2927254 ], [ -4.8948807, 37.2927055 ], [ -4.8943484, 37.2928736 ], [ -4.8935113, 37.2930467 ], [ -4.8927553, 37.2931008 ], [ -4.8923234, 37.2930741 ], [ -4.8922972, 37.293073 ], [ -4.8913233, 37.2927942 ], [ -4.8910109, 37.2926587 ], [ -4.8906054, 37.2924259 ], [ -4.892492, 37.2923392 ], [ -4.8923382, 37.2881066 ], [ -4.8911429, 37.2880494 ], [ -4.8912751, 37.2876085 ], [ -4.8929978, 37.2867988 ], [ -4.8945944, 37.285724 ], [ -4.8948984, 37.2854712 ], [ -4.8899092, 37.2861875 ], [ -4.8899026, 37.2861874 ], [ -4.8898307, 37.2861987 ], [ -4.8876742, 37.2865384 ], [ -4.886843, 37.2867052 ], [ -4.8853587, 37.2868445 ], [ -4.8849005, 37.286661 ], [ -4.8843593, 37.286021 ], [ -4.8836099, 37.2856514 ], [ -4.8833981, 37.2848154 ], [ -4.8822535, 37.2848718 ], [ -4.8820846, 37.2838443 ], [ -4.8809901, 37.2839952 ], [ -4.8808496, 37.2850658 ], [ -4.8808386, 37.2855067 ], [ -4.8809403, 37.2855055 ], [ -4.8809551, 37.2855323 ], [ -4.8811118, 37.2863206 ], [ -4.8811183, 37.2863544 ], [ -4.8811319, 37.2864217 ], [ -4.8811475, 37.2864253 ], [ -4.8811649, 37.2864581 ], [ -4.8819395, 37.2866461 ], [ -4.8829945, 37.2870634 ], [ -4.8833509, 37.2872341 ], [ -4.8835592, 37.2874502 ], [ -4.8837419, 37.2878336 ], [ -4.8840249, 37.2888879 ], [ -4.8841781, 37.289286 ], [ -4.8843065, 37.289422 ], [ -4.8833588, 37.2901535 ], [ -4.883322, 37.2901856 ], [ -4.8827804, 37.2905674 ], [ -4.8825519, 37.2909788 ], [ -4.8824687, 37.291116 ], [ -4.8828764, 37.2914243 ], [ -4.8831938, 37.2914929 ], [ -4.8837067, 37.2916877 ], [ -4.8856965, 37.2929628 ], [ -4.886239, 37.2931735 ], [ -4.8867414, 37.2932132 ] ] ] } },
{ "type": "Feature", "properties": { "CCAA": "01 - Andalucía", "PROVINCIA": "41 - Sevilla", "MUNICIPIO": "41041 - Estepa", "COD_MUNICIPIO": "41041", "DISTRITO": "02", "SECCION": "4104102002", "V1_H": 80.11, "V1_M": 85.95, "V2_H": 80.1609953, "V2_M": 86.03869322, "V3_H": 80.32004483, "V3_M": 85.9872989 }, "geometry": { "type": "Polygon", "coordinates": [ [ [ -4.8738926, 37.2929745 ], [ -4.8738895, 37.2929784 ], [ -4.8739686, 37.2930392 ], [ -4.8740974, 37.2931802 ], [ -4.8742015, 37.2932835 ], [ -4.874275, 37.2933615 ], [ -4.876084, 37.294505 ], [ -4.8764158, 37.294707 ], [ -4.876432, 37.2947265 ], [ -4.876817, 37.2948993 ], [ -4.8772668, 37.2950225 ], [ -4.8780269, 37.2951208 ], [ -4.8782676, 37.295117 ], [ -4.8783088, 37.2951163 ], [ -4.8782539, 37.2945681 ], [ -4.8782525, 37.2945111 ], [ -4.8781574, 37.2938391 ], [ -4.8781094, 37.2936844 ], [ -4.8780828, 37.2935751 ], [ -4.8780793, 37.2935537 ], [ -4.87805, 37.2932155 ], [ -4.8780245, 37.2929131 ], [ -4.8780135, 37.2927082 ], [ -4.8780021, 37.2926106 ], [ -4.8779966, 37.2924995 ], [ -4.877985, 37.2924184 ], [ -4.8779672, 37.292294 ], [ -4.8777227, 37.2922979 ], [ -4.8774542, 37.2922841 ], [ -4.8773452, 37.2922859 ], [ -4.8773265, 37.2922163 ], [ -4.8774885, 37.2916795 ], [ -4.8775285, 37.2912088 ], [ -4.8774886, 37.2908065 ], [ -4.8776056, 37.2908176 ], [ -4.877805, 37.290797 ], [ -4.877713, 37.2905883 ], [ -4.8776075, 37.2903038 ], [ -4.8775243, 37.2900786 ], [ -4.8774943, 37.2900719 ], [ -4.877462, 37.2899746 ], [ -4.8774328, 37.2897605 ], [ -4.877228, 37.2896874 ], [ -4.8771083, 37.2896356 ], [ -4.8771073, 37.2896355 ], [ -4.876768, 37.2895054 ], [ -4.8766557, 37.2894624 ], [ -4.8763932, 37.2894058 ], [ -4.8762541, 37.2894022 ], [ -4.8760117, 37.2893798 ], [ -4.8758677, 37.2893487 ], [ -4.8757344, 37.2892698 ], [ -4.8755837, 37.2891922 ], [ -4.8754797, 37.2891663 ], [ -4.8754259, 37.2891529 ], [ -4.8751323, 37.28903 ], [ -4.8748196, 37.2898594 ], [ -4.8748675, 37.289876 ], [ -4.8750715, 37.2899108 ], [ -4.875247, 37.2899523 ], [ -4.8758194, 37.2900447 ], [ -4.8755945, 37.2909674 ], [ -4.8755041, 37.2912908 ], [ -4.8753168, 37.2918017 ], [ -4.8751651, 37.2921832 ], [ -4.8750783, 37.2921727 ], [ -4.8750543, 37.2922084 ], [ -4.8750476, 37.2922112 ], [ -4.8745363, 37.2928673 ], [ -4.8744791, 37.2929487 ], [ -4.8744705, 37.2929472 ], [ -4.8744148, 37.2929797 ], [ -4.8740069, 37.2929003 ], [ -4.8739474, 37.292906 ], [ -4.8739184, 37.2929422 ], [ -4.8738977, 37.2929681 ], [ -4.8738926, 37.2929745 ] ] ] } },
{ "type": "Feature", "properties": { "CCAA": "01 - Andalucía", "PROVINCIA": "41 - Sevilla", "MUNICIPIO": "41041 - Estepa", "COD_MUNICIPIO": "41041", "DISTRITO": "01", "SECCION": "4104101002", "V1_H": 80.01, "V1_M": 85.96, "V2_H": 79.87654463, "V2_M": 85.8497366, "V3_H": 80.24882261, "V3_M": 86.17409879 }, "geometry": { "type": "Polygon", "coordinates": [ [ [ -4.8873828, 37.2995474 ], [ -4.8875117, 37.299691 ], [ -4.88762, 37.2998652 ], [ -4.8876676, 37.2999758 ], [ -4.8909094, 37.2980701 ], [ -4.8909064, 37.2980653 ], [ -4.8905901, 37.2975453 ], [ -4.8899614, 37.2966195 ], [ -4.8894999, 37.2960209 ], [ -4.8889711, 37.2954234 ], [ -4.8882091, 37.2945485 ], [ -4.8879276, 37.2941571 ], [ -4.8877615, 37.2939261 ], [ -4.8874975, 37.2935958 ], [ -4.8874567, 37.2935288 ], [ -4.8874465, 37.2935113 ], [ -4.8872099, 37.2933297 ], [ -4.8867414, 37.2932132 ], [ -4.886239, 37.2931735 ], [ -4.8856965, 37.2929628 ], [ -4.8837067, 37.2916877 ], [ -4.8831938, 37.2914929 ], [ -4.8828764, 37.2914243 ], [ -4.8824687, 37.291116 ], [ -4.8825519, 37.2909788 ], [ -4.8827804, 37.2905674 ], [ -4.883322, 37.2901856 ], [ -4.8833588, 37.2901535 ], [ -4.8843065, 37.289422 ], [ -4.8841781, 37.289286 ], [ -4.8840249, 37.2888879 ], [ -4.8837419, 37.2878336 ], [ -4.8835592, 37.2874502 ], [ -4.8833509, 37.2872341 ], [ -4.8829945, 37.2870634 ], [ -4.8819395, 37.2866461 ], [ -4.8811649, 37.2864581 ], [ -4.8811475, 37.2864253 ], [ -4.8811319, 37.2864217 ], [ -4.8811183, 37.2863544 ], [ -4.8808811, 37.2863716 ], [ -4.8803484, 37.2863936 ], [ -4.8800908, 37.286427 ], [ -4.8801576, 37.2870298 ], [ -4.8801776, 37.2871399 ], [ -4.8803429, 37.2875631 ], [ -4.8803392, 37.2875653 ], [ -4.8803523, 37.2876252 ], [ -4.8802183, 37.2876397 ], [ -4.8802075, 37.2876463 ], [ -4.8790814, 37.2878543 ], [ -4.8787784, 37.2883781 ], [ -4.8787803, 37.2883855 ], [ -4.8787143, 37.2885105 ], [ -4.8786592, 37.2886062 ], [ -4.8784035, 37.2888572 ], [ -4.8785407, 37.2889582 ], [ -4.8785621, 37.2889676 ], [ -4.8786864, 37.2891635 ], [ -4.8787882, 37.2894012 ], [ -4.8787913, 37.2895254 ], [ -4.8793476, 37.2897509 ], [ -4.879782, 37.2900066 ], [ -4.8799072, 37.2901266 ], [ -4.8801217, 37.2905906 ], [ -4.8801838, 37.2906428 ], [ -4.8803449, 37.2908064 ], [ -4.8807249, 37.2911025 ], [ -4.8810678, 37.2914292 ], [ -4.8817664, 37.2921573 ], [ -4.8818093, 37.2921996 ], [ -4.8818926, 37.2921887 ], [ -4.8821167, 37.2921236 ], [ -4.8821953, 37.2921098 ], [ -4.8822916, 37.2920934 ], [ -4.8823443, 37.29211 ], [ -4.882513, 37.2921741 ], [ -4.8830147, 37.2924236 ], [ -4.8835691, 37.2928727 ], [ -4.8837168, 37.2930515 ], [ -4.8838128, 37.2933075 ], [ -4.883866, 37.2933935 ], [ -4.8840102, 37.2936786 ], [ -4.884518, 37.2944145 ], [ -4.8847101, 37.294936 ], [ -4.8847396, 37.2951597 ], [ -4.8848071, 37.2952541 ], [ -4.8848113, 37.2952852 ], [ -4.8851072, 37.295662 ], [ -4.8852275, 37.2956982 ], [ -4.885397, 37.2957909 ], [ -4.8858982, 37.2974707 ], [ -4.8861286, 37.2977044 ], [ -4.8864826, 37.2981655 ], [ -4.8868806, 37.2986674 ], [ -4.8871515, 37.299061 ], [ -4.8871535, 37.2990638 ], [ -4.8871534, 37.2990649 ], [ -4.8873828, 37.2995474 ] ] ] } },
{ "type": "Feature", "properties": { "CCAA": "01 - Andalucía", "PROVINCIA": "41 - Sevilla", "MUNICIPIO": "41041 - Estepa", "COD_MUNICIPIO": "41041", "DISTRITO": "03", "SECCION": "4104103002", "V1_H": 79.2, "V1_M": 85.22, "V2_H": 79.18248439, "V2_M": 85.25623492, "V3_H": 79.42953696, "V3_M": 85.41396632 }, "geometry": { "type": "MultiPolygon", "coordinates": [ [ [ [ -4.9165568, 37.3696265 ], [ -4.918416, 37.3699118 ], [ -4.9208945, 37.370133 ], [ -4.9243877, 37.3707251 ], [ -4.9248643, 37.3703749 ], [ -4.925733, 37.3699011 ], [ -4.9275106, 37.3700885 ], [ -4.9278983, 37.3697937 ], [ -4.9286209, 37.3693494 ], [ -4.9307288, 37.3674404 ], [ -4.9309716, 37.3672202 ], [ -4.9329887, 37.3675027 ], [ -4.9334528, 37.3671076 ], [ -4.93485, 37.3656698 ], [ -4.9356876, 37.364872 ], [ -4.9371755, 37.3634507 ], [ -4.9375693, 37.3629253 ], [ -4.9377432, 37.3626934 ], [ -4.9364387, 37.3620208 ], [ -4.9353148, 37.360462 ], [ -4.9326727, 37.3564947 ], [ -4.9380231, 37.3546948 ], [ -4.9384137, 37.3527598 ], [ -4.9388147, 37.3499143 ], [ -4.9388792, 37.3489128 ], [ -4.9428402, 37.3475411 ], [ -4.9441184, 37.3472046 ], [ -4.9450649, 37.347135 ], [ -4.9452567, 37.3471319 ], [ -4.9468148, 37.3471423 ], [ -4.948301, 37.3469917 ], [ -4.9498077, 37.3467596 ], [ -4.9512782, 37.3464379 ], [ -4.9523074, 37.3460785 ], [ -4.9525625, 37.345903 ], [ -4.9538831, 37.3450251 ], [ -4.9544877, 37.3448348 ], [ -4.9555789, 37.3446906 ], [ -4.9573481, 37.3445712 ], [ -4.958826, 37.3445378 ], [ -4.9594827, 37.344617 ], [ -4.9598936, 37.3447904 ], [ -4.9619948, 37.34572 ], [ -4.9637731, 37.3463844 ], [ -4.9651149, 37.3467587 ], [ -4.966122, 37.3468501 ], [ -4.9671034, 37.3468248 ], [ -4.968645, 37.3466369 ], [ -4.9696166, 37.3466658 ], [ -4.970579, 37.346776 ], [ -4.9714074, 37.3469424 ], [ -4.9733203, 37.3475685 ], [ -4.9740906, 37.3476728 ], [ -4.9759555, 37.3477588 ], [ -4.976751, 37.3479618 ], [ -4.9786068, 37.3485617 ], [ -4.9794367, 37.3487821 ], [ -4.9800115, 37.3487454 ], [ -4.9810545, 37.3484847 ], [ -4.9825981, 37.3479451 ], [ -4.9832234, 37.3476823 ], [ -4.9834354, 37.3475886 ], [ -4.9841965, 37.3473416 ], [ -4.9842118, 37.3472967 ], [ -4.9843328, 37.3469427 ], [ -4.9846804, 37.3464231 ], [ -4.9851774, 37.3460093 ], [ -4.9861446, 37.3454433 ], [ -4.9865874, 37.3451114 ], [ -4.9869237, 37.344592 ], [ -4.9872377, 37.3436585 ], [ -4.9879939, 37.3397975 ], [ -4.9880137, 37.3392655 ], [ -4.9877967, 37.3387374 ], [ -4.9876097, 37.3384972 ], [ -4.9876247, 37.3382085 ], [ -4.9886689, 37.3380017 ], [ -4.988883, 37.3375565 ], [ -4.9892856, 37.3361348 ], [ -4.9902673, 37.3348385 ], [ -4.9904153, 37.3344575 ], [ -4.9903793, 37.3335209 ], [ -4.9903617, 37.3328542 ], [ -4.9901671, 37.3318932 ], [ -4.9900358, 37.331625 ], [ -4.9898021, 37.3313225 ], [ -4.989459, 37.3311481 ], [ -4.9892852, 37.3309798 ], [ -4.9892694, 37.3308088 ], [ -4.9893324, 37.3306275 ], [ -4.9900013, 37.3298862 ], [ -4.9900193, 37.3297147 ], [ -4.98924, 37.3288356 ], [ -4.9891981, 37.3285298 ], [ -4.9892746, 37.3280059 ], [ -4.9895345, 37.3271633 ], [ -4.9898255, 37.3266447 ], [ -4.9900585, 37.326064 ], [ -4.9901204, 37.3254141 ], [ -4.9898094, 37.3243198 ], [ -4.9898734, 37.323751 ], [ -4.9901155, 37.323089 ], [ -4.9918185, 37.3230514 ], [ -4.9919973, 37.3229853 ], [ -4.9921963, 37.3228287 ], [ -4.9932528, 37.3209543 ], [ -4.9933072, 37.3204487 ], [ -4.9935706, 37.3197413 ], [ -4.9937019, 37.3195859 ], [ -4.9939584, 37.3194734 ], [ -4.9951239, 37.3191654 ], [ -4.9956483, 37.3189402 ], [ -4.9956999, 37.3187592 ], [ -4.9955191, 37.3183206 ], [ -4.9954887, 37.3180237 ], [ -4.9955506, 37.3178064 ], [ -4.9960785, 37.3168602 ], [ -4.9961479, 37.3164985 ], [ -4.9961248, 37.3160483 ], [ -4.9958377, 37.3154313 ], [ -4.9951101, 37.3143711 ], [ -4.9949781, 37.3140759 ], [ -4.9946037, 37.3135685 ], [ -4.9945881, 37.3134065 ], [ -4.994837, 37.3130058 ], [ -4.9949332, 37.3123733 ], [ -4.9950635, 37.3121818 ], [ -4.9967714, 37.3106299 ], [ -4.9968758, 37.3103127 ], [ -4.9968858, 37.3098349 ], [ -4.9969735, 37.3093107 ], [ -4.997191, 37.308577 ], [ -4.9976002, 37.3078402 ], [ -4.9980465, 37.3080759 ], [ -4.9982941, 37.3080538 ], [ -4.998495, 37.3079692 ], [ -4.9986805, 37.3077318 ], [ -4.999615, 37.305526 ], [ -5.0005636, 37.3042843 ], [ -5.0009707, 37.3034663 ], [ -5.0010538, 37.3031945 ], [ -5.0010552, 37.302825 ], [ -5.0009675, 37.302493 ], [ -5.0007451, 37.3021903 ], [ -5.000445, 37.301934 ], [ -4.9982772, 37.3010153 ], [ -4.9977144, 37.3006373 ], [ -4.9977068, 37.3003491 ], [ -4.9979436, 37.2999215 ], [ -4.9984835, 37.2998583 ], [ -4.99884, 37.2996901 ], [ -4.9988792, 37.2994641 ], [ -4.9987444, 37.2990608 ], [ -4.9985345, 37.298803 ], [ -4.9976693, 37.2980786 ], [ -4.9975851, 37.2978817 ], [ -4.9975326, 37.2976032 ], [ -4.9969822, 37.2968375 ], [ -4.996496, 37.296368 ], [ -4.9964261, 37.2958554 ], [ -4.9962843, 37.2956145 ], [ -4.9960883, 37.2954556 ], [ -4.995971, 37.2952863 ], [ -4.9958593, 37.2949007 ], [ -4.9959802, 37.2943489 ], [ -4.9977557, 37.2928139 ], [ -4.9979401, 37.2925314 ], [ -4.9979902, 37.2922962 ], [ -4.9978449, 37.291064 ], [ -4.9977437, 37.2906511 ], [ -4.9980002, 37.2901151 ], [ -4.9981484, 37.2893195 ], [ -4.9984246, 37.2886749 ], [ -4.999335, 37.2876952 ], [ -4.9996267, 37.2872126 ], [ -4.999697, 37.286887 ], [ -4.9996643, 37.2865 ], [ -4.9994276, 37.2860804 ], [ -4.9994359, 37.2855396 ], [ -4.999587, 37.2852846 ], [ -5.0007619, 37.2853549 ], [ -5.0016711, 37.2851863 ], [ -5.0020611, 37.2850085 ], [ -5.0022914, 37.2847613 ], [ -5.0022983, 37.2841664 ], [ -5.0022432, 37.2833652 ], [ -5.0024206, 37.2823978 ], [ -5.0027313, 37.2817797 ], [ -5.0031396, 37.2814394 ], [ -5.003745, 37.2817266 ], [ -5.0039954, 37.2818124 ], [ -5.0045487, 37.2818391 ], [ -5.0048843, 37.2817343 ], [ -5.0053612, 37.2814288 ], [ -5.0054116, 37.2812026 ], [ -5.0053171, 37.2810421 ], [ -5.0041177, 37.2804675 ], [ -5.0039675, 37.2803349 ], [ -5.003868, 37.2799851 ], [ -5.0039513, 37.2792987 ], [ -5.0041646, 37.2788355 ], [ -5.0041714, 37.2786641 ], [ -5.0040661, 37.2785217 ], [ -5.0035056, 37.2782248 ], [ -5.0029871, 37.27781 ], [ -5.002133, 37.2774999 ], [ -5.0018466, 37.2773336 ], [ -5.0017303, 37.2772004 ], [ -5.0016572, 37.2769943 ], [ -5.0017196, 37.276795 ], [ -5.0019628, 37.2766106 ], [ -5.0026217, 37.2763652 ], [ -5.0028213, 37.2762356 ], [ -5.0028729, 37.2760545 ], [ -5.0025125, 37.2752224 ], [ -5.0023977, 37.2747197 ], [ -5.0022312, 37.2735419 ], [ -5.0022782, 37.2731896 ], [ -5.002505, 37.2728072 ], [ -5.0031083, 37.2721662 ], [ -5.003694, 37.2712911 ], [ -5.0040469, 37.2705641 ], [ -5.0041146, 37.2701394 ], [ -5.0040839, 37.2698335 ], [ -5.0039427, 37.2696106 ], [ -5.003623, 37.2694627 ], [ -5.0030666, 37.2693189 ], [ -5.0026333, 37.269137 ], [ -5.0025484, 37.2689132 ], [ -5.0025972, 37.2686239 ], [ -5.0025872, 37.267822 ], [ -5.0026504, 37.2676497 ], [ -5.0033984, 37.2673667 ], [ -5.0039253, 37.2672496 ], [ -5.0041011, 37.2670754 ], [ -5.0040755, 37.2665351 ], [ -5.0042355, 37.2661899 ], [ -5.005252, 37.2649741 ], [ -5.0056651, 37.2648229 ], [ -5.0061694, 37.2647062 ], [ -5.0063561, 37.2645137 ], [ -5.0063623, 37.2643244 ], [ -5.0062108, 37.2641377 ], [ -5.0061475, 37.2638774 ], [ -5.0062818, 37.2634155 ], [ -5.0062775, 37.2632533 ], [ -5.0060565, 37.2629957 ], [ -5.0055153, 37.2625723 ], [ -5.0050285, 37.2624994 ], [ -4.9989836, 37.2607541 ], [ -4.999556, 37.2623577 ], [ -5.0003386, 37.2638134 ], [ -5.0009634, 37.2648393 ], [ -5.0011789, 37.2653133 ], [ -5.0001748, 37.2652943 ], [ -4.9971223, 37.2649943 ], [ -4.9951573, 37.2648832 ], [ -4.9938084, 37.2650411 ], [ -4.9901852, 37.2653364 ], [ -4.9860473, 37.2657844 ], [ -4.9860898, 37.2648284 ], [ -4.9866049, 37.2603946 ], [ -4.9865629, 37.2583676 ], [ -4.9864688, 37.2573597 ], [ -4.9835051, 37.257851 ], [ -4.9826753, 37.2580272 ], [ -4.9791776, 37.2587976 ], [ -4.9778912, 37.2591886 ], [ -4.974889, 37.2599417 ], [ -4.9675348, 37.2620108 ], [ -4.9667633, 37.2622579 ], [ -4.9644594, 37.2629902 ], [ -4.9619999, 37.263806 ], [ -4.9595516, 37.2646216 ], [ -4.959261, 37.2647256 ], [ -4.9563004, 37.2662255 ], [ -4.9555382, 37.2668419 ], [ -4.9551647, 37.2672267 ], [ -4.9548134, 37.267593 ], [ -4.9543798, 37.2678344 ], [ -4.9517647, 37.2696259 ], [ -4.9496447, 37.2709406 ], [ -4.9492193, 37.2706232 ], [ -4.949001, 37.2704646 ], [ -4.948237, 37.2697021 ], [ -4.9474294, 37.2689944 ], [ -4.9422328, 37.2664391 ], [ -4.9401023, 37.2651492 ], [ -4.9380736, 37.2643082 ], [ -4.9362315, 37.2637074 ], [ -4.9358462, 37.2636327 ], [ -4.9345302, 37.2637623 ], [ -4.9336961, 37.2646591 ], [ -4.9288513, 37.2621606 ], [ -4.9282649, 37.2630444 ], [ -4.9242718, 37.2612167 ], [ -4.9241337, 37.261994 ], [ -4.9236132, 37.2632552 ], [ -4.9233314, 37.2637014 ], [ -4.9208427, 37.2669412 ], [ -4.9204878, 37.2671723 ], [ -4.9189393, 37.2679184 ], [ -4.9168987, 37.2679424 ], [ -4.9157179, 37.2689619 ], [ -4.914806, 37.269914 ], [ -4.9142487, 37.2706169 ], [ -4.9121009, 37.2726434 ], [ -4.9109398, 37.2744466 ], [ -4.9104019, 37.2754737 ], [ -4.9127764, 37.2761654 ], [ -4.9020291, 37.2788801 ], [ -4.8987872, 37.279581 ], [ -4.8983033, 37.2796248 ], [ -4.8974687, 37.2787279 ], [ -4.8970401, 37.2782752 ], [ -4.8930958, 37.2765989 ], [ -4.8903634, 37.2755701 ], [ -4.8888961, 37.2750708 ], [ -4.8874365, 37.2739765 ], [ -4.8851253, 37.2726524 ], [ -4.8807068, 37.2713798 ], [ -4.8786933, 37.2706818 ], [ -4.8780609, 37.2683755 ], [ -4.8771132, 37.2651731 ], [ -4.8768654, 37.2642758 ], [ -4.8769254, 37.2639684 ], [ -4.8778119, 37.2619806 ], [ -4.8779252, 37.2615462 ], [ -4.8777615, 37.2594939 ], [ -4.8760114, 37.2580346 ], [ -4.8750689, 37.2573105 ], [ -4.8731884, 37.2560424 ], [ -4.8729383, 37.255046 ], [ -4.8678865, 37.254567 ], [ -4.8675674, 37.2544278 ], [ -4.8658441, 37.2526705 ], [ -4.8653674, 37.2525428 ], [ -4.8639899, 37.2524564 ], [ -4.8625287, 37.252182 ], [ -4.8618361, 37.2519856 ], [ -4.8589262, 37.2514815 ], [ -4.8586844, 37.2503587 ], [ -4.8585985, 37.2500717 ], [ -4.8582216, 37.2489601 ], [ -4.8598458, 37.248529 ], [ -4.8598621, 37.2478167 ], [ -4.8599672, 37.2475086 ], [ -4.8602623, 37.2471254 ], [ -4.8597531, 37.2465927 ], [ -4.8589461, 37.2458663 ], [ -4.8571945, 37.2410991 ], [ -4.856968, 37.240598 ], [ -4.8543519, 37.2368807 ], [ -4.8541186, 37.2365599 ], [ -4.8538993, 37.2358874 ], [ -4.8539875, 37.2348856 ], [ -4.8541603, 37.2341168 ], [ -4.8518398, 37.2332609 ], [ -4.8487266, 37.2340936 ], [ -4.8474789, 37.231923 ], [ -4.8468508, 37.230662 ], [ -4.8464291, 37.2300107 ], [ -4.8473924, 37.2293017 ], [ -4.8464418, 37.2291453 ], [ -4.8462933, 37.2285978 ], [ -4.8444933, 37.2292027 ], [ -4.8437208, 37.228025 ], [ -4.8420904, 37.2281855 ], [ -4.8415116, 37.2280233 ], [ -4.8408909, 37.2275283 ], [ -4.8393526, 37.2254432 ], [ -4.8410424, 37.2249483 ], [ -4.8428374, 37.2246049 ], [ -4.8466699, 37.2241667 ], [ -4.8496975, 37.2235337 ], [ -4.8507867, 37.2233724 ], [ -4.8519809, 37.2233538 ], [ -4.854352, 37.223533 ], [ -4.8587813, 37.2239953 ], [ -4.8572198, 37.2214422 ], [ -4.8561348, 37.2194764 ], [ -4.8554909, 37.2184951 ], [ -4.8552325, 37.2176069 ], [ -4.8546535, 37.2155881 ], [ -4.8545684, 37.2153371 ], [ -4.8553797, 37.2144141 ], [ -4.8546394, 37.2122536 ], [ -4.8543506, 37.2110415 ], [ -4.8533527, 37.2089391 ], [ -4.8510875, 37.2093891 ], [ -4.8495582, 37.2095211 ], [ -4.84851, 37.2095105 ], [ -4.8450625, 37.2090685 ], [ -4.8433471, 37.20896 ], [ -4.8424941, 37.2090995 ], [ -4.8415141, 37.2095743 ], [ -4.8413709, 37.2097118 ], [ -4.8406987, 37.2103351 ], [ -4.8402782, 37.2111167 ], [ -4.8401206, 37.2115878 ], [ -4.8397935, 37.2125032 ], [ -4.8394179, 37.2128154 ], [ -4.8389082, 37.2127062 ], [ -4.8385106, 37.2125772 ], [ -4.8373982, 37.212243 ], [ -4.8351116, 37.2113501 ], [ -4.8326112, 37.2104695 ], [ -4.830956, 37.2100535 ], [ -4.8293862, 37.2099065 ], [ -4.827796, 37.2098499 ], [ -4.8280666, 37.2112607 ], [ -4.8281534, 37.2125211 ], [ -4.8282724, 37.2132493 ], [ -4.8283528, 37.2137798 ], [ -4.8287745, 37.2153776 ], [ -4.829191, 37.2162905 ], [ -4.8297205, 37.2172196 ], [ -4.8290156, 37.2174287 ], [ -4.8264703, 37.2179637 ], [ -4.8260247, 37.2181779 ], [ -4.8253781, 37.2194046 ], [ -4.8242317, 37.2204677 ], [ -4.8236745, 37.2211973 ], [ -4.8235703, 37.2215504 ], [ -4.8239154, 37.2223112 ], [ -4.826281, 37.2250687 ], [ -4.8274907, 37.2266272 ], [ -4.8293236, 37.2283203 ], [ -4.8251313, 37.2292772 ], [ -4.8246258, 37.2293481 ], [ -4.8238419, 37.2290898 ], [ -4.8224476, 37.2287598 ], [ -4.8204907, 37.2284655 ], [ -4.8182011, 37.2284015 ], [ -4.8141441, 37.2284277 ], [ -4.8128788, 37.2283028 ], [ -4.8099154, 37.2278704 ], [ -4.808959, 37.2279391 ], [ -4.8069028, 37.2282048 ], [ -4.8037367, 37.2287218 ], [ -4.8000611, 37.2291472 ], [ -4.7988062, 37.228986 ], [ -4.7970603, 37.2285619 ], [ -4.7941661, 37.2281912 ], [ -4.7872067, 37.2274943 ], [ -4.7863379, 37.2274533 ], [ -4.7864197, 37.2285336 ], [ -4.7864704, 37.2316422 ], [ -4.7866159, 37.2325503 ], [ -4.7869456, 37.2331492 ], [ -4.7877393, 37.2342998 ], [ -4.7882104, 37.2351579 ], [ -4.7882134, 37.2357617 ], [ -4.7877816, 37.2375257 ], [ -4.7877954, 37.238589 ], [ -4.7880783, 37.2410182 ], [ -4.7878044, 37.2456548 ], [ -4.7875752, 37.2474068 ], [ -4.7872171, 37.2489533 ], [ -4.7871453, 37.2492518 ], [ -4.7868946, 37.2500938 ], [ -4.7865905, 37.2510627 ], [ -4.7862273, 37.2528708 ], [ -4.7858247, 37.2563558 ], [ -4.785394, 37.2576961 ], [ -4.7849668, 37.258703 ], [ -4.7845172, 37.2601968 ], [ -4.7837719, 37.2620647 ], [ -4.7827939, 37.2641073 ], [ -4.7819215, 37.2663285 ], [ -4.7814156, 37.2678322 ], [ -4.7813845, 37.2684275 ], [ -4.7812764, 37.2691051 ], [ -4.7820851, 37.2694444 ], [ -4.7866129, 37.2711156 ], [ -4.7879692, 37.271717 ], [ -4.791032, 37.2724728 ], [ -4.7929318, 37.2726874 ], [ -4.7946182, 37.2729413 ], [ -4.7953216, 37.2731199 ], [ -4.7940436, 37.275816 ], [ -4.793651, 37.2773361 ], [ -4.7921565, 37.2785214 ], [ -4.7918589, 37.2788142 ], [ -4.7919596, 37.2802097 ], [ -4.7919978, 37.280867 ], [ -4.7920969, 37.2813009 ], [ -4.7921094, 37.2813557 ], [ -4.7921799, 37.2816645 ], [ -4.7921865, 37.2816933 ], [ -4.7952786, 37.279862 ], [ -4.7982962, 37.2786986 ], [ -4.7982963, 37.2786986 ], [ -4.803216, 37.2769024 ], [ -4.8025814, 37.2758305 ], [ -4.8022312, 37.2753312 ], [ -4.8018346, 37.2747784 ], [ -4.8012401, 37.2739673 ], [ -4.7997417, 37.2716648 ], [ -4.7997417, 37.2716648 ], [ -4.7993256, 37.2702922 ], [ -4.7987564, 37.2691202 ], [ -4.8007279, 37.2690362 ], [ -4.8006805, 37.2679914 ], [ -4.8006805, 37.2679914 ], [ -4.8002194, 37.2633029 ], [ -4.8002194, 37.2633028 ], [ -4.8002783, 37.2624638 ], [ -4.8006443, 37.2612596 ], [ -4.8012638, 37.2598081 ], [ -4.8012051, 37.2580515 ], [ -4.8011463, 37.2562949 ], [ -4.8023822, 37.2556362 ], [ -4.8075097, 37.2526921 ], [ -4.8113147, 37.2500924 ], [ -4.8121024, 37.2495576 ], [ -4.8125077, 37.2490647 ], [ -4.8127983, 37.2480147 ], [ -4.8135585, 37.2458671 ], [ -4.8135586, 37.2458671 ], [ -4.8141117, 37.2449573 ], [ -4.8147448, 37.2445601 ], [ -4.8155513, 37.2434032 ], [ -4.8169715, 37.2419844 ], [ -4.8188732, 37.2409007 ], [ -4.8207826, 37.2401414 ], [ -4.8239396, 37.2387679 ], [ -4.8254379, 37.2377895 ], [ -4.8287082, 37.2364412 ], [ -4.8298498, 37.2356395 ], [ -4.8313509, 37.2343185 ], [ -4.8326289, 37.2331001 ], [ -4.8326289, 37.2331001 ], [ -4.8327803, 37.2331336 ], [ -4.8331616, 37.2332179 ], [ -4.8341932, 37.2334634 ], [ -4.8339715, 37.2340796 ], [ -4.832274, 37.2375308 ], [ -4.8320433, 37.2391746 ], [ -4.8319852, 37.2416544 ], [ -4.8319823, 37.2417802 ], [ -4.8319823, 37.2417803 ], [ -4.8318853, 37.2438276 ], [ -4.8317363, 37.2465246 ], [ -4.8316194, 37.2500774 ], [ -4.8316193, 37.2500775 ], [ -4.8311284, 37.2563488 ], [ -4.8312019, 37.2563852 ], [ -4.8313994, 37.2564829 ], [ -4.8320339, 37.2567968 ], [ -4.832418, 37.2569868 ], [ -4.8340088, 37.2588909 ], [ -4.8318172, 37.2605831 ], [ -4.8323676, 37.2618904 ], [ -4.8325947, 37.2628873 ], [ -4.8320864, 37.2633188 ], [ -4.8326283, 37.2638061 ], [ -4.8324556, 37.2645929 ], [ -4.8328324, 37.2647852 ], [ -4.833183, 37.2648148 ], [ -4.8335555, 37.2648462 ], [ -4.8360909, 37.2647709 ], [ -4.83702, 37.2649547 ], [ -4.8372562, 37.2653927 ], [ -4.8373832, 37.2655169 ], [ -4.8378122, 37.2659969 ], [ -4.8390798, 37.2666531 ], [ -4.8390798, 37.2666532 ], [ -4.8391434, 37.2688062 ], [ -4.8400399, 37.2690356 ], [ -4.8400976, 37.2700171 ], [ -4.8397637, 37.2729784 ], [ -4.8387095, 37.2727604 ], [ -4.8385664, 37.2733665 ], [ -4.8384371, 37.2742714 ], [ -4.8384025, 37.2745136 ], [ -4.8384025, 37.2745137 ], [ -4.8378112, 37.2743156 ], [ -4.8375024, 37.275528 ], [ -4.8399447, 37.2762472 ], [ -4.8396832, 37.2770894 ], [ -4.8393477, 37.2776714 ], [ -4.8383517, 37.2793812 ], [ -4.8380557, 37.280197 ], [ -4.8378335, 37.2817326 ], [ -4.8375193, 37.2822602 ], [ -4.8369281, 37.2825307 ], [ -4.836072, 37.2830397 ], [ -4.8357871, 37.2833866 ], [ -4.8358398, 37.2837012 ], [ -4.8361484, 37.2838677 ], [ -4.8374399, 37.2840999 ], [ -4.8376935, 37.2843613 ], [ -4.8378448, 37.2845172 ], [ -4.8388966, 37.286024 ], [ -4.8392847, 37.2866759 ], [ -4.8394345, 37.2872684 ], [ -4.8392922, 37.2897671 ], [ -4.8394218, 37.2904591 ], [ -4.8397912, 37.2908048 ], [ -4.8402539, 37.2908157 ], [ -4.8408254, 37.2911222 ], [ -4.8410285, 37.2920473 ], [ -4.8410285, 37.2920474 ], [ -4.8411746, 37.293415 ], [ -4.8410683, 37.295075 ], [ -4.8407816, 37.2962691 ], [ -4.8407815, 37.2962691 ], [ -4.8405794, 37.296676 ], [ -4.8401363, 37.2975679 ], [ -4.839341, 37.2982652 ], [ -4.839341, 37.2982652 ], [ -4.8386022, 37.298502 ], [ -4.8376742, 37.2983812 ], [ -4.8370116, 37.29804 ], [ -4.8365938, 37.2975598 ], [ -4.8363607, 37.2967884 ], [ -4.8363607, 37.2967884 ], [ -4.8362475, 37.2949155 ], [ -4.8359693, 37.2932165 ], [ -4.8355769, 37.2914561 ], [ -4.8308036, 37.2913858 ], [ -4.8306886, 37.2926944 ], [ -4.8306961, 37.293938 ], [ -4.8306961, 37.293938 ], [ -4.8300144, 37.2942009 ], [ -4.8300143, 37.2942009 ], [ -4.8295345, 37.2943193 ], [ -4.8291958, 37.2944028 ], [ -4.8291958, 37.2944029 ], [ -4.8279128, 37.2945308 ], [ -4.8272473, 37.294532 ], [ -4.8267849, 37.2945392 ], [ -4.8258006, 37.2944192 ], [ -4.8254326, 37.2945961 ], [ -4.8252388, 37.2949776 ], [ -4.8252388, 37.2949776 ], [ -4.8250807, 37.2954397 ], [ -4.8248912, 37.2960014 ], [ -4.8246902, 37.2965542 ], [ -4.8235664, 37.2967338 ], [ -4.8220781, 37.2967657 ], [ -4.8195575, 37.2965612 ], [ -4.8171782, 37.2961381 ], [ -4.8155554, 37.2957394 ], [ -4.8148374, 37.295435 ], [ -4.8128475, 37.2943119 ], [ -4.8102007, 37.2930725 ], [ -4.805898, 37.2914529 ], [ -4.8049332, 37.2912063 ], [ -4.8048353, 37.2912024 ], [ -4.8039509, 37.2911671 ], [ -4.8030067, 37.2913077 ], [ -4.8023357, 37.2915523 ], [ -4.8019122, 37.2922436 ], [ -4.8013967, 37.293333 ], [ -4.8012303, 37.294399 ], [ -4.8009723, 37.2949347 ], [ -4.8006073, 37.2952377 ], [ -4.800085, 37.2955701 ], [ -4.7997906, 37.2959981 ], [ -4.7994084, 37.2970043 ], [ -4.799065, 37.2982173 ], [ -4.7988984, 37.2997519 ], [ -4.7989967, 37.3029319 ], [ -4.7992057, 37.3041274 ], [ -4.7995067, 37.3049249 ], [ -4.8000595, 37.3058719 ], [ -4.8009728, 37.3072639 ], [ -4.8013354, 37.3082768 ], [ -4.8012316, 37.3105496 ], [ -4.8013001, 37.3115309 ], [ -4.8017125, 37.3122637 ], [ -4.8018368, 37.3132171 ], [ -4.8016423, 37.3135806 ], [ -4.800828, 37.3144492 ], [ -4.8000537, 37.3151008 ], [ -4.797978, 37.315601 ], [ -4.7972336, 37.3156123 ], [ -4.7961438, 37.3153404 ], [ -4.7949202, 37.3151337 ], [ -4.7939716, 37.315103 ], [ -4.7933535, 37.3161578 ], [ -4.7930233, 37.316983 ], [ -4.7931023, 37.3174595 ], [ -4.7934294, 37.3179322 ], [ -4.793544, 37.3184802 ], [ -4.7930037, 37.3194888 ], [ -4.7931572, 37.3197749 ], [ -4.793177, 37.320135 ], [ -4.7928291, 37.3206901 ], [ -4.7917535, 37.3219682 ], [ -4.7914442, 37.3217746 ], [ -4.7903499, 37.3213135 ], [ -4.7886118, 37.320826 ], [ -4.7870695, 37.3205068 ], [ -4.7857343, 37.3203558 ], [ -4.7848554, 37.3204141 ], [ -4.7829847, 37.3210011 ], [ -4.7826662, 37.323286 ], [ -4.7824189, 37.3242812 ], [ -4.7824078, 37.3252457 ], [ -4.7822534, 37.3258789 ], [ -4.7819356, 37.3262802 ], [ -4.7812285, 37.3269218 ], [ -4.782225, 37.3285019 ], [ -4.7827416, 37.3293504 ], [ -4.7832879, 37.3300181 ], [ -4.7840014, 37.3306022 ], [ -4.7858494, 37.3319081 ], [ -4.7865391, 37.3324385 ], [ -4.7870141, 37.332954 ], [ -4.7872592, 37.333428 ], [ -4.7872861, 37.3334816 ], [ -4.7878989, 37.3345719 ], [ -4.7886311, 37.3354622 ], [ -4.7892998, 37.3360559 ], [ -4.7899768, 37.3365233 ], [ -4.7913626, 37.3373675 ], [ -4.794712, 37.3400926 ], [ -4.7962338, 37.3414304 ], [ -4.7981207, 37.3429249 ], [ -4.7999303, 37.3444926 ], [ -4.8005669, 37.3446812 ], [ -4.801368, 37.3451377 ], [ -4.802278, 37.3458989 ], [ -4.8036224, 37.3468878 ], [ -4.8062189, 37.3483082 ], [ -4.8076511, 37.3491876 ], [ -4.809225, 37.3503261 ], [ -4.8130918, 37.352448 ], [ -4.8150951, 37.3535979 ], [ -4.8172663, 37.3546822 ], [ -4.8176428, 37.354379 ], [ -4.8196691, 37.3531942 ], [ -4.8201337, 37.3527996 ], [ -4.8202774, 37.3522025 ], [ -4.8201962, 37.351645 ], [ -4.8197545, 37.35112 ], [ -4.8191303, 37.3505168 ], [ -4.8186032, 37.3501914 ], [ -4.8183018, 37.3498626 ], [ -4.8182911, 37.3494211 ], [ -4.8187484, 37.3491888 ], [ -4.8192896, 37.3491625 ], [ -4.8203365, 37.3495069 ], [ -4.8210343, 37.3498836 ], [ -4.8217205, 37.3507202 ], [ -4.8226944, 37.3522464 ], [ -4.8230416, 37.3526016 ], [ -4.8233269, 37.3527233 ], [ -4.8237571, 37.3524109 ], [ -4.8240369, 37.3522077 ], [ -4.8255233, 37.3511123 ], [ -4.8282255, 37.348484 ], [ -4.8289599, 37.3475804 ], [ -4.8298002, 37.3463868 ], [ -4.8301768, 37.3456239 ], [ -4.830442, 37.3444572 ], [ -4.8308927, 37.3439545 ], [ -4.832425, 37.3429034 ], [ -4.8331075, 37.3421898 ], [ -4.8337946, 37.3411968 ], [ -4.8357586, 37.3374802 ], [ -4.836374, 37.3367948 ], [ -4.8373717, 37.3360492 ], [ -4.8387393, 37.3351989 ], [ -4.8397816, 37.3344346 ], [ -4.8404821, 37.3340001 ], [ -4.8407379, 37.333843 ], [ -4.8409643, 37.3334068 ], [ -4.8416919, 37.3331612 ], [ -4.8419021, 37.3329867 ], [ -4.841215, 37.3316545 ], [ -4.8420823, 37.3311183 ], [ -4.8433094, 37.3305314 ], [ -4.8436804, 37.3304716 ], [ -4.8442123, 37.3305264 ], [ -4.8456014, 37.3310274 ], [ -4.8478279, 37.3316145 ], [ -4.8500166, 37.33204 ], [ -4.8516958, 37.3324013 ], [ -4.85215, 37.3325113 ], [ -4.8521838, 37.3325234 ], [ -4.8534025, 37.3329603 ], [ -4.854339, 37.3334053 ], [ -4.8558648, 37.3339492 ], [ -4.8587403, 37.3347602 ], [ -4.8602827, 37.3355201 ], [ -4.8612923, 37.3361802 ], [ -4.8626089, 37.3369345 ], [ -4.8641751, 37.337739 ], [ -4.8649168, 37.3380608 ], [ -4.8672213, 37.3385922 ], [ -4.8684045, 37.3389702 ], [ -4.8760343, 37.3425806 ], [ -4.8779611, 37.3438028 ], [ -4.8816702, 37.3463305 ], [ -4.8844455, 37.3480707 ], [ -4.8902215, 37.3515205 ], [ -4.8881618, 37.3517697 ], [ -4.8882096, 37.3519613 ], [ -4.8889147, 37.3547859 ], [ -4.8901358, 37.3607146 ], [ -4.8890383, 37.3610746 ], [ -4.8892082, 37.3620002 ], [ -4.8894315, 37.3627987 ], [ -4.8904791, 37.3627009 ], [ -4.8946436, 37.3621746 ], [ -4.8955136, 37.3621968 ], [ -4.8991729, 37.3626878 ], [ -4.9005456, 37.3629452 ], [ -4.9008447, 37.3631657 ], [ -4.9028891, 37.365431 ], [ -4.9033269, 37.3657754 ], [ -4.9044853, 37.3664868 ], [ -4.9050958, 37.3669636 ], [ -4.9054622, 37.3680573 ], [ -4.9054334, 37.3687066 ], [ -4.9078696, 37.3690369 ], [ -4.9104965, 37.369319 ], [ -4.9165568, 37.3696265 ] ], [ [ -4.8943484, 37.2928736 ], [ -4.8948807, 37.2927055 ], [ -4.8952072, 37.2927254 ], [ -4.8955872, 37.2927782 ], [ -4.8961491, 37.2929541 ], [ -4.8963728, 37.2930681 ], [ -4.8963649, 37.2930831 ], [ -4.896559, 37.293247 ], [ -4.8966831, 37.2934358 ], [ -4.8966917, 37.293779 ], [ -4.896676, 37.2941036 ], [ -4.896518, 37.2944686 ], [ -4.8960813, 37.2949599 ], [ -4.8960999, 37.2949981 ], [ -4.892617, 37.2969729 ], [ -4.8909064, 37.2980653 ], [ -4.8909094, 37.2980701 ], [ -4.8876676, 37.2999758 ], [ -4.887737, 37.300137 ], [ -4.8878801, 37.3003839 ], [ -4.8867493, 37.30109 ], [ -4.883976, 37.3021609 ], [ -4.8824526, 37.3024296 ], [ -4.880377, 37.3026459 ], [ -4.8785732, 37.3027113 ], [ -4.878361, 37.3027285 ], [ -4.8778209, 37.302724 ], [ -4.877271, 37.302695 ], [ -4.8766881, 37.3025884 ], [ -4.8759298, 37.3023448 ], [ -4.8753462, 37.3021574 ], [ -4.8737746, 37.3017178 ], [ -4.8718372, 37.3013329 ], [ -4.8705344, 37.3012435 ], [ -4.8685318, 37.3013117 ], [ -4.8674605, 37.3013042 ], [ -4.8663556, 37.3011749 ], [ -4.8658017, 37.3010492 ], [ -4.8659174, 37.3007785 ], [ -4.8666378, 37.2989704 ], [ -4.8669535, 37.298122 ], [ -4.8670824, 37.2977655 ], [ -4.867396, 37.297455 ], [ -4.8678334, 37.2972036 ], [ -4.8684469, 37.2969797 ], [ -4.8687565, 37.2969227 ], [ -4.8691304, 37.2967876 ], [ -4.8691301, 37.2967892 ], [ -4.869839, 37.296627 ], [ -4.8714639, 37.2962341 ], [ -4.8715245, 37.2962602 ], [ -4.8714948, 37.2962156 ], [ -4.8722074, 37.2962043 ], [ -4.8726052, 37.296198 ], [ -4.8728776, 37.2961937 ], [ -4.8731011, 37.2959063 ], [ -4.8732364, 37.2954513 ], [ -4.8733835, 37.2946131 ], [ -4.8733299, 37.2941452 ], [ -4.8732805, 37.2938441 ], [ -4.8726683, 37.292396 ], [ -4.87261, 37.2922792 ], [ -4.8726092, 37.2922777 ], [ -4.8725869, 37.2921335 ], [ -4.8725817, 37.2920674 ], [ -4.8725183, 37.2918484 ], [ -4.8724615, 37.2914821 ], [ -4.8723727, 37.2912736 ], [ -4.8721666, 37.2906616 ], [ -4.8721745, 37.2904994 ], [ -4.8722265, 37.2901885 ], [ -4.8723669, 37.2895949 ], [ -4.8725412, 37.2889197 ], [ -4.8725582, 37.2887001 ], [ -4.8725063, 37.2883475 ], [ -4.8724944, 37.2882102 ], [ -4.8735984, 37.2869265 ], [ -4.8742781, 37.2865732 ], [ -4.8749472, 37.2864928 ], [ -4.8758692, 37.2862033 ], [ -4.8768636, 37.2860501 ], [ -4.8773449, 37.286029 ], [ -4.8780973, 37.285839 ], [ -4.8783877, 37.2857511 ], [ -4.8788666, 37.285633 ], [ -4.8803176, 37.2855131 ], [ -4.8808386, 37.2855067 ], [ -4.8808496, 37.2850658 ], [ -4.8809901, 37.2839952 ], [ -4.8820846, 37.2838443 ], [ -4.8822535, 37.2848718 ], [ -4.8833981, 37.2848154 ], [ -4.8836099, 37.2856514 ], [ -4.8843593, 37.286021 ], [ -4.8849005, 37.286661 ], [ -4.8853587, 37.2868445 ], [ -4.886843, 37.2867052 ], [ -4.8876742, 37.2865384 ], [ -4.8898307, 37.2861987 ], [ -4.8899026, 37.2861874 ], [ -4.8899092, 37.2861875 ], [ -4.8948984, 37.2854712 ], [ -4.8945944, 37.285724 ], [ -4.8929978, 37.2867988 ], [ -4.8912751, 37.2876085 ], [ -4.8911429, 37.2880494 ], [ -4.8923382, 37.2881066 ], [ -4.892492, 37.2923392 ], [ -4.8906054, 37.2924259 ], [ -4.8910109, 37.2926587 ], [ -4.8913233, 37.2927942 ], [ -4.8922972, 37.293073 ], [ -4.8923234, 37.2930741 ], [ -4.8927553, 37.2931008 ], [ -4.8935113, 37.2930467 ], [ -4.8943484, 37.2928736 ] ] ], [ [ [ -4.8456494, 37.4376891 ], [ -4.8486091, 37.4380846 ], [ -4.8494948, 37.438251 ], [ -4.8520561, 37.438995 ], [ -4.8543265, 37.439392 ], [ -4.8548613, 37.4390772 ], [ -4.8571829, 37.4383468 ], [ -4.8587112, 37.4379893 ], [ -4.8597814, 37.4378464 ], [ -4.8613286, 37.437795 ], [ -4.8670928, 37.4377943 ], [ -4.8804027, 37.4380701 ], [ -4.8831018, 37.4379821 ], [ -4.8847406, 37.4379831 ], [ -4.8848629, 37.4365482 ], [ -4.8848038, 37.4350891 ], [ -4.8848189, 37.4338902 ], [ -4.8850636, 37.4328319 ], [ -4.8858834, 37.4303674 ], [ -4.8866561, 37.4282823 ], [ -4.8869692, 37.4263486 ], [ -4.8869008, 37.425872 ], [ -4.886591, 37.4256877 ], [ -4.8862167, 37.4256306 ], [ -4.885789, 37.4257005 ], [ -4.8839547, 37.4269104 ], [ -4.8823034, 37.4273061 ], [ -4.881512, 37.4272917 ], [ -4.8809659, 37.4271471 ], [ -4.8804913, 37.4266951 ], [ -4.8801127, 37.4260162 ], [ -4.879686, 37.4247702 ], [ -4.8796438, 37.4244374 ], [ -4.8797909, 37.4239935 ], [ -4.8801699, 37.4237802 ], [ -4.8818208, 37.423826 ], [ -4.8823572, 37.4235832 ], [ -4.882828, 37.4229809 ], [ -4.8830126, 37.4222299 ], [ -4.8829496, 37.4215189 ], [ -4.8824122, 37.4208155 ], [ -4.8814678, 37.4201005 ], [ -4.879519, 37.4189869 ], [ -4.8782538, 37.4185474 ], [ -4.8773111, 37.418355 ], [ -4.8768828, 37.4183979 ], [ -4.8766712, 37.4185184 ], [ -4.8766643, 37.4186988 ], [ -4.878187, 37.4199453 ], [ -4.8786505, 37.4204066 ], [ -4.8788228, 37.4209717 ], [ -4.8786108, 37.4215338 ], [ -4.878238, 37.4219903 ], [ -4.8776782, 37.4221975 ], [ -4.8768416, 37.4221837 ], [ -4.8758267, 37.4218123 ], [ -4.8731777, 37.4202591 ], [ -4.8723119, 37.4199754 ], [ -4.871587, 37.4194551 ], [ -4.8706249, 37.418479 ], [ -4.8694027, 37.4170383 ], [ -4.8681505, 37.4153006 ], [ -4.8675829, 37.4142821 ], [ -4.8676498, 37.4133348 ], [ -4.867929, 37.412294 ], [ -4.8685378, 37.4113291 ], [ -4.8702063, 37.4098156 ], [ -4.8704636, 37.4092618 ], [ -4.8703481, 37.4087048 ], [ -4.8700435, 37.4082681 ], [ -4.8694579, 37.4078898 ], [ -4.8682205, 37.4076479 ], [ -4.8670453, 37.4076395 ], [ -4.8657878, 37.4079567 ], [ -4.8646924, 37.4084336 ], [ -4.864039, 37.408507 ], [ -4.8636631, 37.408483 ], [ -4.8630205, 37.4084419 ], [ -4.8620913, 37.4083304 ], [ -4.8608763, 37.4085388 ], [ -4.8592281, 37.4090513 ], [ -4.8558965, 37.4100229 ], [ -4.8553288, 37.4103653 ], [ -4.8549253, 37.4109574 ], [ -4.8547139, 37.4115466 ], [ -4.8548313, 37.4121846 ], [ -4.8550505, 37.41283 ], [ -4.8550058, 37.4133084 ], [ -4.854557, 37.4148115 ], [ -4.8543351, 37.4149772 ], [ -4.8535378, 37.4147193 ], [ -4.8530871, 37.4147715 ], [ -4.8526847, 37.414949 ], [ -4.8514755, 37.4158601 ], [ -4.85115, 37.4159463 ], [ -4.8508647, 37.4158337 ], [ -4.8505649, 37.415586 ], [ -4.850362, 37.4151476 ], [ -4.8503142, 37.4145805 ], [ -4.8505627, 37.4136574 ], [ -4.8508831, 37.4119851 ], [ -4.851148, 37.4112689 ], [ -4.851454, 37.4108496 ], [ -4.8514038, 37.4106431 ], [ -4.8512078, 37.4104839 ], [ -4.8508665, 37.4103901 ], [ -4.8498111, 37.410659 ], [ -4.8492331, 37.4110465 ], [ -4.8480498, 37.4120924 ], [ -4.8473821, 37.4125084 ], [ -4.8456848, 37.413328 ], [ -4.8442473, 37.4136839 ], [ -4.8432839, 37.4140233 ], [ -4.8427725, 37.4143648 ], [ -4.8420659, 37.4150427 ], [ -4.8411866, 37.4160478 ], [ -4.8409097, 37.416737 ], [ -4.8409845, 37.4170243 ], [ -4.8412068, 37.4173362 ], [ -4.841339, 37.4176586 ], [ -4.8412439, 37.4179305 ], [ -4.8409569, 37.4182053 ], [ -4.8403341, 37.4186115 ], [ -4.83987, 37.4190424 ], [ -4.8395532, 37.4194889 ], [ -4.8392022, 37.4203866 ], [ -4.8380726, 37.4222517 ], [ -4.8376448, 37.4232407 ], [ -4.8383177, 37.4239602 ], [ -4.8389746, 37.4249414 ], [ -4.8397929, 37.4265239 ], [ -4.8401133, 37.4276094 ], [ -4.8403278, 37.4317608 ], [ -4.840189, 37.4348633 ], [ -4.8403991, 37.435599 ], [ -4.8406355, 37.4360189 ], [ -4.8409487, 37.4363475 ], [ -4.8423299, 37.4369028 ], [ -4.8435934, 37.4372706 ], [ -4.8456494, 37.4376891 ] ] ] ] } },
{ "type": "Feature", "properties": { "CCAA": "01 - Andalucía", "PROVINCIA": "41 - Sevilla", "MUNICIPIO": "41041 - Estepa", "COD_MUNICIPIO": "41041", "DISTRITO": "03", "SECCION": "4104103001", "V1_H": 79.78, "V1_M": 85.67, "V2_H": 79.78305357000001, "V2_M": 85.83721796, "V3_H": 80.07461692, "V3_M": 85.64972132 }, "geometry": { "type": "Polygon", "coordinates": [ [ [ -4.8738926, 37.2929745 ], [ -4.8738977, 37.2929681 ], [ -4.8739184, 37.2929422 ], [ -4.8739474, 37.292906 ], [ -4.8740069, 37.2929003 ], [ -4.8744148, 37.2929797 ], [ -4.8744705, 37.2929472 ], [ -4.8744791, 37.2929487 ], [ -4.8745363, 37.2928673 ], [ -4.8750476, 37.2922112 ], [ -4.8750543, 37.2922084 ], [ -4.8750783, 37.2921727 ], [ -4.8751651, 37.2921832 ], [ -4.8753168, 37.2918017 ], [ -4.8755041, 37.2912908 ], [ -4.8755945, 37.2909674 ], [ -4.8758194, 37.2900447 ], [ -4.875247, 37.2899523 ], [ -4.8750715, 37.2899108 ], [ -4.8748675, 37.289876 ], [ -4.8748196, 37.2898594 ], [ -4.8751323, 37.28903 ], [ -4.8747307, 37.288862 ], [ -4.8747286, 37.2888579 ], [ -4.8745861, 37.2888232 ], [ -4.8745701, 37.2888109 ], [ -4.87457, 37.2888112 ], [ -4.8744859, 37.2887556 ], [ -4.8744669, 37.2887106 ], [ -4.8745064, 37.288617 ], [ -4.8752118, 37.2881789 ], [ -4.8755372, 37.2880617 ], [ -4.8757625, 37.2880009 ], [ -4.8760403, 37.2878892 ], [ -4.876321, 37.2877774 ], [ -4.8764657, 37.2877131 ], [ -4.8767835, 37.2876509 ], [ -4.8771145, 37.2876409 ], [ -4.8774617, 37.287683 ], [ -4.8778267, 37.2877154 ], [ -4.8780308, 37.287643 ], [ -4.8781458, 37.2875863 ], [ -4.8789893, 37.2870626 ], [ -4.8794348, 37.286736 ], [ -4.8799701, 37.2864175 ], [ -4.8800771, 37.2864015 ], [ -4.8800867, 37.2864286 ], [ -4.8800908, 37.286427 ], [ -4.8803484, 37.2863936 ], [ -4.8808811, 37.2863716 ], [ -4.8811183, 37.2863544 ], [ -4.8811118, 37.2863206 ], [ -4.8809551, 37.2855323 ], [ -4.8809403, 37.2855055 ], [ -4.8808386, 37.2855067 ], [ -4.8803176, 37.2855131 ], [ -4.8788666, 37.285633 ], [ -4.8783877, 37.2857511 ], [ -4.8780973, 37.285839 ], [ -4.8773449, 37.286029 ], [ -4.8768636, 37.2860501 ], [ -4.8758692, 37.2862033 ], [ -4.8749472, 37.2864928 ], [ -4.8742781, 37.2865732 ], [ -4.8735984, 37.2869265 ], [ -4.8724944, 37.2882102 ], [ -4.8725063, 37.2883475 ], [ -4.8725582, 37.2887001 ], [ -4.8725412, 37.2889197 ], [ -4.8723669, 37.2895949 ], [ -4.8722265, 37.2901885 ], [ -4.8721745, 37.2904994 ], [ -4.8721666, 37.2906616 ], [ -4.8723727, 37.2912736 ], [ -4.8724615, 37.2914821 ], [ -4.8725183, 37.2918484 ], [ -4.8725817, 37.2920674 ], [ -4.8725869, 37.2921335 ], [ -4.8726092, 37.2922777 ], [ -4.87261, 37.2922792 ], [ -4.8734971, 37.2927725 ], [ -4.8735016, 37.2927795 ], [ -4.8735556, 37.2928006 ], [ -4.8735809, 37.292814 ], [ -4.8737608, 37.2929015 ], [ -4.8738926, 37.2929745 ] ] ] } },
{ "type": "Feature", "properties": { "CCAA": "01 - Andalucía", "PROVINCIA": "41 - Sevilla", "MUNICIPIO": "41041 - Estepa", "COD_MUNICIPIO": "41041", "DISTRITO": "04", "SECCION": "4104104001", "V1_H": 79.2, "V1_M": 85.22, "V2_H": 79.18248439, "V2_M": 85.25623492, "V3_H": 79.42953696, "V3_M": 85.41396632 }, "geometry": { "type": "Polygon", "coordinates": [ [ [ -4.8789454, 37.2951303 ], [ -4.8787513, 37.2952478 ], [ -4.8782377, 37.2954777 ], [ -4.8781916, 37.2955012 ], [ -4.8781852, 37.295502 ], [ -4.8779566, 37.2955934 ], [ -4.8782104, 37.2956999 ], [ -4.8806742, 37.296834 ], [ -4.8814918, 37.2973027 ], [ -4.883012, 37.2983791 ], [ -4.8831317, 37.2985476 ], [ -4.883218, 37.2988841 ], [ -4.8832056, 37.298916 ], [ -4.8832055, 37.2990981 ], [ -4.883246, 37.2996662 ], [ -4.8834191, 37.3002638 ], [ -4.883642, 37.3007448 ], [ -4.8838294, 37.3013843 ], [ -4.883976, 37.3021609 ], [ -4.8867493, 37.30109 ], [ -4.8878801, 37.3003839 ], [ -4.887737, 37.300137 ], [ -4.8876676, 37.2999758 ], [ -4.88762, 37.2998652 ], [ -4.8875117, 37.299691 ], [ -4.8873828, 37.2995474 ], [ -4.8871534, 37.2990649 ], [ -4.8871535, 37.2990638 ], [ -4.8871515, 37.299061 ], [ -4.8868806, 37.2986674 ], [ -4.8864826, 37.2981655 ], [ -4.8861286, 37.2977044 ], [ -4.8858982, 37.2974707 ], [ -4.885397, 37.2957909 ], [ -4.8852275, 37.2956982 ], [ -4.8851072, 37.295662 ], [ -4.8848113, 37.2952852 ], [ -4.8848071, 37.2952541 ], [ -4.8847396, 37.2951597 ], [ -4.8847101, 37.294936 ], [ -4.884518, 37.2944145 ], [ -4.8840102, 37.2936786 ], [ -4.883866, 37.2933935 ], [ -4.8838128, 37.2933075 ], [ -4.8837168, 37.2930515 ], [ -4.8835691, 37.2928727 ], [ -4.8830147, 37.2924236 ], [ -4.882513, 37.2921741 ], [ -4.8823443, 37.29211 ], [ -4.8822916, 37.2920934 ], [ -4.8821953, 37.2921098 ], [ -4.8819222, 37.2925827 ], [ -4.8817768, 37.2929703 ], [ -4.8812181, 37.2940382 ], [ -4.8806997, 37.294639 ], [ -4.8804113, 37.294808 ], [ -4.879643, 37.2950546 ], [ -4.8792482, 37.2951014 ], [ -4.8790725, 37.2951042 ], [ -4.8790377, 37.2951048 ], [ -4.8789454, 37.2951303 ] ] ] } },
{ "type": "Feature", "properties": { "CCAA": "01 - Andalucía", "PROVINCIA": "41 - Sevilla", "MUNICIPIO": "41041 - Estepa", "COD_MUNICIPIO": "41041", "DISTRITO": "04", "SECCION": "4104104002", "V1_H": 79.83, "V1_M": 85.66, "V2_H": 79.86201885, "V2_M": 85.75249, "V3_H": 79.86616026, "V3_M": 85.80070523000001 }, "geometry": { "type": "Polygon", "coordinates": [ [ [ -4.87261, 37.2922792 ], [ -4.8726683, 37.292396 ], [ -4.8732805, 37.2938441 ], [ -4.8733299, 37.2941452 ], [ -4.8733835, 37.2946131 ], [ -4.8732364, 37.2954513 ], [ -4.8731011, 37.2959063 ], [ -4.8728776, 37.2961937 ], [ -4.8726052, 37.296198 ], [ -4.8722074, 37.2962043 ], [ -4.8714948, 37.2962156 ], [ -4.8715245, 37.2962602 ], [ -4.8714639, 37.2962341 ], [ -4.869839, 37.296627 ], [ -4.8691301, 37.2967892 ], [ -4.8691304, 37.2967876 ], [ -4.8687565, 37.2969227 ], [ -4.8684469, 37.2969797 ], [ -4.8678334, 37.2972036 ], [ -4.867396, 37.297455 ], [ -4.8670824, 37.2977655 ], [ -4.8669535, 37.298122 ], [ -4.8666378, 37.2989704 ], [ -4.8659174, 37.3007785 ], [ -4.8658017, 37.3010492 ], [ -4.8663556, 37.3011749 ], [ -4.8674605, 37.3013042 ], [ -4.8685318, 37.3013117 ], [ -4.8705344, 37.3012435 ], [ -4.8718372, 37.3013329 ], [ -4.8737746, 37.3017178 ], [ -4.8753462, 37.3021574 ], [ -4.8759298, 37.3023448 ], [ -4.8766881, 37.3025884 ], [ -4.877271, 37.302695 ], [ -4.8778209, 37.302724 ], [ -4.878361, 37.3027285 ], [ -4.8785732, 37.3027113 ], [ -4.880377, 37.3026459 ], [ -4.8824526, 37.3024296 ], [ -4.883976, 37.3021609 ], [ -4.8838294, 37.3013843 ], [ -4.883642, 37.3007448 ], [ -4.8834191, 37.3002638 ], [ -4.883246, 37.2996662 ], [ -4.8832055, 37.2990981 ], [ -4.8832056, 37.298916 ], [ -4.883218, 37.2988841 ], [ -4.8831317, 37.2985476 ], [ -4.883012, 37.2983791 ], [ -4.8814918, 37.2973027 ], [ -4.8806742, 37.296834 ], [ -4.8782104, 37.2956999 ], [ -4.8779566, 37.2955934 ], [ -4.8781852, 37.295502 ], [ -4.8781916, 37.2955012 ], [ -4.8782377, 37.2954777 ], [ -4.8787513, 37.2952478 ], [ -4.8789454, 37.2951303 ], [ -4.8790377, 37.2951048 ], [ -4.8783363, 37.2951159 ], [ -4.8783088, 37.2951163 ], [ -4.8782676, 37.295117 ], [ -4.8780269, 37.2951208 ], [ -4.8772668, 37.2950225 ], [ -4.876817, 37.2948993 ], [ -4.876432, 37.2947265 ], [ -4.8764158, 37.294707 ], [ -4.876084, 37.294505 ], [ -4.874275, 37.2933615 ], [ -4.8742015, 37.2932835 ], [ -4.8740974, 37.2931802 ], [ -4.8739686, 37.2930392 ], [ -4.8738895, 37.2929784 ], [ -4.8738926, 37.2929745 ], [ -4.8737608, 37.2929015 ], [ -4.8735809, 37.292814 ], [ -4.8735556, 37.2928006 ], [ -4.8735016, 37.2927795 ], [ -4.8734971, 37.2927725 ], [ -4.87261, 37.2922792 ] ] ] } },
{ "type": "Feature", "properties": { "CCAA": "01 - Andalucía", "PROVINCIA": "41 - Sevilla", "MUNICIPIO": "41041 - Estepa", "COD_MUNICIPIO": "41041", "DISTRITO": "02", "SECCION": "4104102001", "V1_H": 80.16, "V1_M": 86.09, "V2_H": 80.12695049, "V2_M": 86.02539962, "V3_H": 80.31827198000001, "V3_M": 86.38244546 }, "geometry": { "type": "Polygon", "coordinates": [ [ [ -4.8790725, 37.2951042 ], [ -4.8792482, 37.2951014 ], [ -4.879643, 37.2950546 ], [ -4.8804113, 37.294808 ], [ -4.8806997, 37.294639 ], [ -4.8812181, 37.2940382 ], [ -4.8817768, 37.2929703 ], [ -4.8819222, 37.2925827 ], [ -4.8821953, 37.2921098 ], [ -4.8821167, 37.2921236 ], [ -4.8818926, 37.2921887 ], [ -4.8818093, 37.2921996 ], [ -4.8817664, 37.2921573 ], [ -4.8810678, 37.2914292 ], [ -4.8807249, 37.2911025 ], [ -4.8803449, 37.2908064 ], [ -4.8801838, 37.2906428 ], [ -4.8801217, 37.2905906 ], [ -4.8799072, 37.2901266 ], [ -4.879782, 37.2900066 ], [ -4.8793476, 37.2897509 ], [ -4.8787913, 37.2895254 ], [ -4.8787882, 37.2894012 ], [ -4.8786864, 37.2891635 ], [ -4.8785621, 37.2889676 ], [ -4.8785407, 37.2889582 ], [ -4.8784035, 37.2888572 ], [ -4.8786592, 37.2886062 ], [ -4.8787143, 37.2885105 ], [ -4.8787803, 37.2883855 ], [ -4.8787784, 37.2883781 ], [ -4.8790814, 37.2878543 ], [ -4.8802075, 37.2876463 ], [ -4.8802183, 37.2876397 ], [ -4.8803523, 37.2876252 ], [ -4.8803392, 37.2875653 ], [ -4.8803429, 37.2875631 ], [ -4.8801776, 37.2871399 ], [ -4.8801576, 37.2870298 ], [ -4.8800908, 37.286427 ], [ -4.8800867, 37.2864286 ], [ -4.8800771, 37.2864015 ], [ -4.8799701, 37.2864175 ], [ -4.8794348, 37.286736 ], [ -4.8789893, 37.2870626 ], [ -4.8781458, 37.2875863 ], [ -4.8780308, 37.287643 ], [ -4.8778267, 37.2877154 ], [ -4.8774617, 37.287683 ], [ -4.8771145, 37.2876409 ], [ -4.8767835, 37.2876509 ], [ -4.8764657, 37.2877131 ], [ -4.876321, 37.2877774 ], [ -4.8760403, 37.2878892 ], [ -4.8757625, 37.2880009 ], [ -4.8755372, 37.2880617 ], [ -4.8752118, 37.2881789 ], [ -4.8745064, 37.288617 ], [ -4.8744669, 37.2887106 ], [ -4.8744859, 37.2887556 ], [ -4.87457, 37.2888112 ], [ -4.8745701, 37.2888109 ], [ -4.8745861, 37.2888232 ], [ -4.8747286, 37.2888579 ], [ -4.8747307, 37.288862 ], [ -4.8751323, 37.28903 ], [ -4.8754259, 37.2891529 ], [ -4.8754797, 37.2891663 ], [ -4.8755837, 37.2891922 ], [ -4.8757344, 37.2892698 ], [ -4.8758677, 37.2893487 ], [ -4.8760117, 37.2893798 ], [ -4.8762541, 37.2894022 ], [ -4.8763932, 37.2894058 ], [ -4.8766557, 37.2894624 ], [ -4.876768, 37.2895054 ], [ -4.8771073, 37.2896355 ], [ -4.8771083, 37.2896356 ], [ -4.877228, 37.2896874 ], [ -4.8774328, 37.2897605 ], [ -4.877462, 37.2899746 ], [ -4.8774943, 37.2900719 ], [ -4.8775243, 37.2900786 ], [ -4.8776075, 37.2903038 ], [ -4.877713, 37.2905883 ], [ -4.877805, 37.290797 ], [ -4.8776056, 37.2908176 ], [ -4.8774886, 37.2908065 ], [ -4.8775285, 37.2912088 ], [ -4.8774885, 37.2916795 ], [ -4.8773265, 37.2922163 ], [ -4.8773452, 37.2922859 ], [ -4.8774542, 37.2922841 ], [ -4.8777227, 37.2922979 ], [ -4.8779672, 37.292294 ], [ -4.877985, 37.2924184 ], [ -4.8779966, 37.2924995 ], [ -4.8780021, 37.2926106 ], [ -4.8780135, 37.2927082 ], [ -4.8780245, 37.2929131 ], [ -4.87805, 37.2932155 ], [ -4.8780793, 37.2935537 ], [ -4.8780828, 37.2935751 ], [ -4.8781094, 37.2936844 ], [ -4.8781574, 37.2938391 ], [ -4.8782525, 37.2945111 ], [ -4.8782539, 37.2945681 ], [ -4.8783088, 37.2951163 ], [ -4.8783363, 37.2951159 ], [ -4.8790377, 37.2951048 ], [ -4.8790725, 37.2951042 ] ] ] } }
]
}
