{
"type": "FeatureCollection",
"name": "41053",
"features": [
{ "type": "Feature", "properties": { "CCAA": "01 - Andalucía", "PROVINCIA": "41 - Sevilla", "MUNICIPIO": "41053 - Lebrija", "COD_MUNICIPIO": "41053", "DISTRITO": "01", "SECCION": "4105301001", "V1_H": 79.94, "V1_M": 85.93, "V2_H": 80.18978947, "V2_M": 86.02067046000001, "V3_H": 79.89390484, "V3_M": 85.97042077 }, "geometry": { "type": "Polygon", "coordinates": [ [ [ -6.0699745, 36.9201614 ], [ -6.0700554, 36.9201627 ], [ -6.0700536, 36.920154 ], [ -6.0707413, 36.9201493 ], [ -6.0713006, 36.9201148 ], [ -6.0713991, 36.9201132 ], [ -6.0722244, 36.9200435 ], [ -6.0733258, 36.9198619 ], [ -6.0743924, 36.9197014 ], [ -6.0749641, 36.9196085 ], [ -6.075339, 36.9195868 ], [ -6.0756831, 36.9195779 ], [ -6.0768174, 36.9195771 ], [ -6.0777735, 36.9195762 ], [ -6.0778441, 36.91956 ], [ -6.0778928, 36.9195348 ], [ -6.0779065, 36.9195395 ], [ -6.0779555, 36.9195238 ], [ -6.0780138, 36.9194984 ], [ -6.0780689, 36.9194556 ], [ -6.078089, 36.9194488 ], [ -6.0782009, 36.9193385 ], [ -6.0782097, 36.9193379 ], [ -6.0782479, 36.9192635 ], [ -6.0782563, 36.919232 ], [ -6.0782892, 36.9191098 ], [ -6.0783684, 36.9188646 ], [ -6.0784694, 36.9187189 ], [ -6.0786795, 36.9184798 ], [ -6.0789957, 36.9182189 ], [ -6.0793173, 36.9180961 ], [ -6.0795462, 36.9180282 ], [ -6.0795688, 36.9180136 ], [ -6.0795656, 36.9180103 ], [ -6.0795152, 36.9179579 ], [ -6.0785253, 36.9169541 ], [ -6.0784092, 36.9168255 ], [ -6.077883, 36.9163434 ], [ -6.0775517, 36.9165731 ], [ -6.0774465, 36.916614 ], [ -6.0773634, 36.9166162 ], [ -6.0772798, 36.916604 ], [ -6.0771836, 36.9165726 ], [ -6.076912, 36.9163421 ], [ -6.0761117, 36.9158977 ], [ -6.0757363, 36.9163198 ], [ -6.0754152, 36.9167525 ], [ -6.0752961, 36.9168939 ], [ -6.0751805, 36.9168253 ], [ -6.0750043, 36.916725 ], [ -6.074763, 36.9166311 ], [ -6.0745963, 36.9166211 ], [ -6.0743301, 36.9166471 ], [ -6.0739239, 36.9167339 ], [ -6.0738752, 36.916745 ], [ -6.0739098, 36.9169751 ], [ -6.0739847, 36.9173618 ], [ -6.0740006, 36.9177571 ], [ -6.073683, 36.9177606 ], [ -6.0735152, 36.9177959 ], [ -6.0734523, 36.9178214 ], [ -6.0722026, 36.9181088 ], [ -6.0718163, 36.9181956 ], [ -6.0718802, 36.9184327 ], [ -6.0723544, 36.9184957 ], [ -6.0724636, 36.9190394 ], [ -6.0724583, 36.91904 ], [ -6.0724645, 36.9190629 ], [ -6.0720328, 36.9191098 ], [ -6.0714089, 36.9191736 ], [ -6.0711518, 36.9192041 ], [ -6.0709685, 36.9192256 ], [ -6.0698651, 36.9193274 ], [ -6.0698655, 36.9193375 ], [ -6.0699206, 36.9196747 ], [ -6.0699745, 36.9201614 ] ] ] } },
{ "type": "Feature", "properties": { "CCAA": "01 - Andalucía", "PROVINCIA": "41 - Sevilla", "MUNICIPIO": "41053 - Lebrija", "COD_MUNICIPIO": "41053", "DISTRITO": "01", "SECCION": "4105301004", "V1_H": 79.96, "V1_M": 85.86, "V2_H": 79.90630759, "V2_M": 85.80766239, "V3_H": 80.18166072, "V3_M": 86.22029934 }, "geometry": { "type": "Polygon", "coordinates": [ [ [ -6.0534587, 37.053221 ], [ -6.0533944, 37.0541418 ], [ -6.0533961, 37.0541421 ], [ -6.0534024, 37.0541416 ], [ -6.0555532, 37.0545097 ], [ -6.0587714, 37.0551385 ], [ -6.0610179, 37.0556483 ], [ -6.0673268, 37.0573684 ], [ -6.0719727, 37.058825 ], [ -6.0732437, 37.0593958 ], [ -6.074284, 37.0600986 ], [ -6.0747877, 37.0605992 ], [ -6.075017, 37.0609898 ], [ -6.0751458, 37.0616712 ], [ -6.0751303, 37.0624015 ], [ -6.0736961, 37.0672594 ], [ -6.0733806, 37.0689165 ], [ -6.0735739, 37.0698036 ], [ -6.0741234, 37.0714383 ], [ -6.0744688, 37.0721952 ], [ -6.075018, 37.0729829 ], [ -6.0758048, 37.0738095 ], [ -6.076588, 37.0745461 ], [ -6.0772505, 37.0750785 ], [ -6.0785501, 37.0757927 ], [ -6.0795605, 37.0760277 ], [ -6.0810965, 37.0762487 ], [ -6.0810967, 37.0762487 ], [ -6.0810989, 37.076249 ], [ -6.0811041, 37.0762485 ], [ -6.0826335, 37.076101 ], [ -6.0835782, 37.0758242 ], [ -6.084271, 37.0754367 ], [ -6.0846285, 37.075103 ], [ -6.0854667, 37.0738647 ], [ -6.0863284, 37.0723736 ], [ -6.0868325, 37.0712161 ], [ -6.0880258, 37.0690314 ], [ -6.0897029, 37.0663025 ], [ -6.0932479, 37.0611191 ], [ -6.095124, 37.0585922 ], [ -6.1025554, 37.0494774 ], [ -6.1051586, 37.0468773 ], [ -6.1079318, 37.044588 ], [ -6.1112554, 37.0422933 ], [ -6.1139941, 37.0405454 ], [ -6.1157059, 37.0395272 ], [ -6.1181389, 37.0380036 ], [ -6.1205376, 37.0367421 ], [ -6.1218389, 37.0361311 ], [ -6.1242604, 37.0351573 ], [ -6.1274578, 37.0342302 ], [ -6.1308581, 37.0332442 ], [ -6.1338968, 37.0325242 ], [ -6.1399082, 37.0308514 ], [ -6.1421152, 37.0301351 ], [ -6.1436505, 37.0294817 ], [ -6.1473317, 37.0277261 ], [ -6.1509522, 37.0255936 ], [ -6.1520447, 37.0248347 ], [ -6.1530114, 37.0240251 ], [ -6.1546237, 37.0222522 ], [ -6.1559254, 37.0205776 ], [ -6.1567099, 37.0194394 ], [ -6.1572466, 37.0182898 ], [ -6.1577021, 37.0170792 ], [ -6.1585525, 37.0153626 ], [ -6.1594246, 37.0130868 ], [ -6.1617694, 37.0083928 ], [ -6.1636834, 37.0036113 ], [ -6.1644729, 37.0015178 ], [ -6.1648973, 37.0001008 ], [ -6.1656115, 36.9986311 ], [ -6.1684835, 36.9917695 ], [ -6.1685782, 36.9915376 ], [ -6.1712198, 36.9850687 ], [ -6.1718278, 36.9835797 ], [ -6.17417, 36.9769664 ], [ -6.176043, 36.9725822 ], [ -6.1779749, 36.9682685 ], [ -6.1787252, 36.9663293 ], [ -6.1805087, 36.9608841 ], [ -6.1828459, 36.9541807 ], [ -6.1847429, 36.9495885 ], [ -6.1872738, 36.9426997 ], [ -6.1876856, 36.9418056 ], [ -6.1884765, 36.9395047 ], [ -6.1895036, 36.9372154 ], [ -6.1909567, 36.9343741 ], [ -6.1925796, 36.9315733 ], [ -6.1935808, 36.929474 ], [ -6.1952555, 36.9265725 ], [ -6.1964707, 36.9247648 ], [ -6.1973825, 36.9232175 ], [ -6.1982229, 36.921573 ], [ -6.1992638, 36.9198959 ], [ -6.2006704, 36.9178397 ], [ -6.2015673, 36.9167433 ], [ -6.2017062, 36.9165773 ], [ -6.2030801, 36.9153509 ], [ -6.2085342, 36.9108065 ], [ -6.2115178, 36.9086354 ], [ -6.2146059, 36.9068219 ], [ -6.2179646, 36.9047756 ], [ -6.2214726, 36.9028153 ], [ -6.2234931, 36.9017693 ], [ -6.2296089, 36.8986026 ], [ -6.2310016, 36.8981052 ], [ -6.2310003, 36.8981032 ], [ -6.2299466, 36.8964219 ], [ -6.229562, 36.896081 ], [ -6.2291862, 36.8959471 ], [ -6.2282952, 36.8958362 ], [ -6.2250098, 36.8956101 ], [ -6.2233819, 36.8955822 ], [ -6.2221144, 36.8953192 ], [ -6.2201446, 36.8951654 ], [ -6.2177706, 36.8947342 ], [ -6.2157477, 36.8945473 ], [ -6.2152816, 36.8945043 ], [ -6.212128, 36.8939409 ], [ -6.208685, 36.8934303 ], [ -6.205074, 36.8931944 ], [ -6.2028216, 36.8929848 ], [ -6.2005987, 36.8929457 ], [ -6.1981797, 36.8930469 ], [ -6.1932009, 36.8928295 ], [ -6.1921251, 36.8928584 ], [ -6.1907723, 36.8932371 ], [ -6.1892797, 36.8934935 ], [ -6.1884534, 36.8935878 ], [ -6.1876888, 36.8935452 ], [ -6.1871632, 36.8935864 ], [ -6.1864815, 36.8933794 ], [ -6.1859772, 36.8931226 ], [ -6.1849356, 36.8922568 ], [ -6.1845596, 36.8919442 ], [ -6.1843175, 36.8917885 ], [ -6.1836784, 36.8915263 ], [ -6.1810824, 36.890875 ], [ -6.1791296, 36.8905849 ], [ -6.1771739, 36.8904931 ], [ -6.1758064, 36.8902503 ], [ -6.1742219, 36.8899142 ], [ -6.1727869, 36.8896643 ], [ -6.1722192, 36.8894992 ], [ -6.1713053, 36.8891001 ], [ -6.1702382, 36.8882546 ], [ -6.1697916, 36.8880322 ], [ -6.1665175, 36.8872545 ], [ -6.1648794, 36.8869738 ], [ -6.1626462, 36.8866819 ], [ -6.1601695, 36.8864685 ], [ -6.1575827, 36.8860327 ], [ -6.1561535, 36.8856472 ], [ -6.1555029, 36.8853761 ], [ -6.1534655, 36.8841147 ], [ -6.1524184, 36.8833083 ], [ -6.1500947, 36.8815189 ], [ -6.1480234, 36.8796996 ], [ -6.1466536, 36.8785735 ], [ -6.1432039, 36.876232 ], [ -6.1374208, 36.8730509 ], [ -6.1350897, 36.8719951 ], [ -6.1316563, 36.8703105 ], [ -6.1305023, 36.8697912 ], [ -6.1265354, 36.8671204 ], [ -6.1237412, 36.8651484 ], [ -6.1219925, 36.8637887 ], [ -6.1206425, 36.8634097 ], [ -6.1179466, 36.8624713 ], [ -6.1117889, 36.8599564 ], [ -6.1093411, 36.8590473 ], [ -6.1052385, 36.8574245 ], [ -6.1044468, 36.857256 ], [ -6.0993495, 36.8568213 ], [ -6.095371, 36.8563213 ], [ -6.0902777, 36.8554266 ], [ -6.0856987, 36.8544913 ], [ -6.0854709, 36.854477 ], [ -6.0854708, 36.854477 ], [ -6.085294, 36.8544658 ], [ -6.0847018, 36.8545172 ], [ -6.080691, 36.8552026 ], [ -6.0805366, 36.855229 ], [ -6.0796109, 36.8570282 ], [ -6.0783877, 36.8586818 ], [ -6.0774853, 36.8599487 ], [ -6.0769837, 36.8608628 ], [ -6.0766497, 36.8614842 ], [ -6.0763942, 36.8618242 ], [ -6.0760769, 36.8620217 ], [ -6.0757741, 36.8620205 ], [ -6.0754322, 36.8618851 ], [ -6.0746238, 36.8621403 ], [ -6.0732552, 36.8626894 ], [ -6.0714852, 36.8632938 ], [ -6.0691379, 36.863769 ], [ -6.0675211, 36.864 ], [ -6.0661557, 36.8643506 ], [ -6.0652943, 36.8655262 ], [ -6.0646342, 36.8664083 ], [ -6.0641104, 36.8670526 ], [ -6.0634894, 36.8675101 ], [ -6.0625739, 36.8678942 ], [ -6.0616077, 36.8684147 ], [ -6.0608978, 36.8688925 ], [ -6.0601532, 36.8693442 ], [ -6.0594356, 36.8699124 ], [ -6.0587745, 36.8704881 ], [ -6.0580916, 36.8710824 ], [ -6.057524, 36.8714755 ], [ -6.05674, 36.8717839 ], [ -6.0554196, 36.8721423 ], [ -6.0546089, 36.8723434 ], [ -6.0538429, 36.8725433 ], [ -6.0532653, 36.8726843 ], [ -6.0529324, 36.8727739 ], [ -6.0525786, 36.8726208 ], [ -6.052478, 36.8720647 ], [ -6.0525403, 36.8716576 ], [ -6.052449, 36.8713356 ], [ -6.0521704, 36.8710995 ], [ -6.0516864, 36.8713371 ], [ -6.0511488, 36.8716393 ], [ -6.0511165, 36.8719555 ], [ -6.0511435, 36.8723513 ], [ -6.0504723, 36.8723956 ], [ -6.0498419, 36.872619 ], [ -6.0491286, 36.8730158 ], [ -6.0486359, 36.8733168 ], [ -6.0476931, 36.8735842 ], [ -6.0467284, 36.8738613 ], [ -6.046005, 36.874006 ], [ -6.0456736, 36.8741316 ], [ -6.0451874, 36.8743153 ], [ -6.0447618, 36.8746146 ], [ -6.044299, 36.875104 ], [ -6.0439782, 36.8754997 ], [ -6.0436762, 36.8758048 ], [ -6.0430417, 36.8762085 ], [ -6.0427828, 36.8764675 ], [ -6.0419833, 36.8763888 ], [ -6.0409001, 36.8762273 ], [ -6.039415, 36.8761121 ], [ -6.0378904, 36.8761331 ], [ -6.0365136, 36.8762043 ], [ -6.0353406, 36.8763244 ], [ -6.0340664, 36.8764381 ], [ -6.0328017, 36.8765064 ], [ -6.0316783, 36.8764629 ], [ -6.0303417, 36.876416 ], [ -6.0314706, 36.8774505 ], [ -6.0320444, 36.878346 ], [ -6.0324091, 36.8796252 ], [ -6.0326462, 36.8807996 ], [ -6.0330084, 36.8820159 ], [ -6.0332298, 36.8827942 ], [ -6.0333243, 36.8831973 ], [ -6.0335658, 36.883912 ], [ -6.0330031, 36.8841517 ], [ -6.032032, 36.8845549 ], [ -6.0313044, 36.8854476 ], [ -6.0305397, 36.886251 ], [ -6.029822, 36.8871073 ], [ -6.0290775, 36.8878562 ], [ -6.0283212, 36.8885874 ], [ -6.0277604, 36.8891604 ], [ -6.0271338, 36.8897711 ], [ -6.0266785, 36.8901701 ], [ -6.0263161, 36.8903686 ], [ -6.0259653, 36.8905758 ], [ -6.0256452, 36.8907101 ], [ -6.0252187, 36.8907029 ], [ -6.0248718, 36.8904414 ], [ -6.0241606, 36.890045 ], [ -6.0232532, 36.8895095 ], [ -6.0224536, 36.888863 ], [ -6.0213551, 36.8883142 ], [ -6.0197666, 36.887859 ], [ -6.0180664, 36.8874156 ], [ -6.0162686, 36.8870558 ], [ -6.0142904, 36.8866734 ], [ -6.012631, 36.8864091 ], [ -6.012419, 36.8863433 ], [ -6.0113704, 36.8860175 ], [ -6.0101929, 36.885741 ], [ -6.0088337, 36.8848383 ], [ -6.0070638, 36.8837567 ], [ -6.0058911, 36.8830294 ], [ -6.0048474, 36.8824431 ], [ -6.0039535, 36.8819611 ], [ -6.0028521, 36.8816194 ], [ -6.0020665, 36.8813239 ], [ -6.0014546, 36.8808798 ], [ -6.0004311, 36.8799505 ], [ -5.9990084, 36.878851 ], [ -5.9977903, 36.8778184 ], [ -5.9970334, 36.8771076 ], [ -5.9965333, 36.8766516 ], [ -5.9961323, 36.8761481 ], [ -5.9954148, 36.8758198 ], [ -5.9953671, 36.8757979 ], [ -5.9944615, 36.8755865 ], [ -5.9937072, 36.8755154 ], [ -5.9932394, 36.8755992 ], [ -5.9924347, 36.8753852 ], [ -5.9910991, 36.8747881 ], [ -5.9898164, 36.8741085 ], [ -5.9882812, 36.8729936 ], [ -5.9869086, 36.8720189 ], [ -5.9854095, 36.8709662 ], [ -5.9839284, 36.8697959 ], [ -5.9825103, 36.8688042 ], [ -5.9817589, 36.8682283 ], [ -5.9808896, 36.8677906 ], [ -5.9798304, 36.8673756 ], [ -5.9787114, 36.8671513 ], [ -5.9779859, 36.8669533 ], [ -5.9774468, 36.8669307 ], [ -5.9772275, 36.8673507 ], [ -5.9752388, 36.8672563 ], [ -5.9742938, 36.8671809 ], [ -5.9737458, 36.8672216 ], [ -5.973319, 36.8672053 ], [ -5.9724608, 36.8667672 ], [ -5.9712632, 36.8662474 ], [ -5.9703383, 36.8655317 ], [ -5.9694813, 36.8645438 ], [ -5.9686611, 36.8636361 ], [ -5.9678536, 36.8627642 ], [ -5.9669911, 36.8619206 ], [ -5.9662502, 36.861029 ], [ -5.9659856, 36.860567 ], [ -5.9651143, 36.8600751 ], [ -5.9644396, 36.8600288 ], [ -5.9633361, 36.8602006 ], [ -5.9619072, 36.8603714 ], [ -5.9605743, 36.8604136 ], [ -5.9593235, 36.8602555 ], [ -5.9578941, 36.8601199 ], [ -5.956439, 36.8601921 ], [ -5.9550564, 36.8603978 ], [ -5.9538995, 36.8606428 ], [ -5.9533102, 36.8607746 ], [ -5.952451, 36.860886 ], [ -5.9509822, 36.8603098 ], [ -5.9498706, 36.8596886 ], [ -5.949188, 36.8594351 ], [ -5.9483772, 36.8593472 ], [ -5.9472796, 36.8585093 ], [ -5.9464852, 36.8579703 ], [ -5.9457974, 36.8575818 ], [ -5.9453807, 36.8572407 ], [ -5.9454628, 36.8561663 ], [ -5.9456076, 36.8549733 ], [ -5.9456069, 36.8543695 ], [ -5.9454126, 36.8536894 ], [ -5.9442171, 36.8529261 ], [ -5.9429725, 36.8523441 ], [ -5.9414206, 36.8519452 ], [ -5.9413418, 36.8519249 ], [ -5.9354407, 36.8524313 ], [ -5.9305493, 36.8526601 ], [ -5.928544, 36.8527095 ], [ -5.9263986, 36.8529066 ], [ -5.9255513, 36.8530367 ], [ -5.9255512, 36.8530368 ], [ -5.9253507, 36.8530676 ], [ -5.9224601, 36.8522466 ], [ -5.9179453, 36.851177 ], [ -5.914161, 36.8501434 ], [ -5.9099319, 36.8486159 ], [ -5.9048771, 36.8468923 ], [ -5.8995129, 36.8452841 ], [ -5.8918587, 36.8424067 ], [ -5.8910546, 36.842192 ], [ -5.8905956, 36.8425095 ], [ -5.8896262, 36.8429656 ], [ -5.8887867, 36.8433014 ], [ -5.8896801, 36.8438024 ], [ -5.8903518, 36.8443718 ], [ -5.8888275, 36.8467699 ], [ -5.8895675, 36.8473646 ], [ -5.8921809, 36.8500676 ], [ -5.8935605, 36.8512686 ], [ -5.8935836, 36.8515834 ], [ -5.8922348, 36.8550676 ], [ -5.8907259, 36.8581773 ], [ -5.88774, 36.8658465 ], [ -5.8782948, 36.8902985 ], [ -5.8770912, 36.8932023 ], [ -5.8765196, 36.894712 ], [ -5.8740646, 36.8941677 ], [ -5.8720755, 36.8937832 ], [ -5.870328, 36.8935551 ], [ -5.8696041, 36.8936988 ], [ -5.8707126, 36.8942397 ], [ -5.8733874, 36.8952564 ], [ -5.8747041, 36.8959635 ], [ -5.8761385, 36.8965145 ], [ -5.877741, 36.896764 ], [ -5.8794513, 36.8968938 ], [ -5.8801623, 36.8970027 ], [ -5.8814764, 36.8973404 ], [ -5.8825583, 36.8977647 ], [ -5.8836575, 36.8983507 ], [ -5.8847641, 36.8991349 ], [ -5.8860545, 36.8997344 ], [ -5.8915974, 36.9036006 ], [ -5.8921021, 36.9038947 ], [ -5.8925998, 36.9039997 ], [ -5.894934, 36.9043033 ], [ -5.8959722, 36.9044582 ], [ -5.8988734, 36.9049192 ], [ -5.9027941, 36.9056344 ], [ -5.9042461, 36.9057521 ], [ -5.9048505, 36.9057103 ], [ -5.9069314, 36.9052539 ], [ -5.9088878, 36.9047644 ], [ -5.9104152, 36.9050965 ], [ -5.9132751, 36.9059455 ], [ -5.9119392, 36.906519 ], [ -5.9124258, 36.9072189 ], [ -5.9131724, 36.9088497 ], [ -5.9142341, 36.9113919 ], [ -5.915132, 36.9131631 ], [ -5.9157065, 36.9141042 ], [ -5.9178336, 36.9157371 ], [ -5.9184699, 36.9156493 ], [ -5.9198672, 36.9152095 ], [ -5.9201835, 36.9152648 ], [ -5.9205142, 36.9154009 ], [ -5.9209052, 36.9153552 ], [ -5.9211752, 36.9150782 ], [ -5.9214154, 36.9143153 ], [ -5.9216155, 36.9142653 ], [ -5.9218963, 36.9145648 ], [ -5.9221937, 36.9150081 ], [ -5.922572, 36.915215 ], [ -5.9230361, 36.9153207 ], [ -5.9229515, 36.9160438 ], [ -5.923301, 36.916675 ], [ -5.9233498, 36.9170703 ], [ -5.922508, 36.9197133 ], [ -5.9231191, 36.9210228 ], [ -5.9232659, 36.921632 ], [ -5.9231704, 36.9223643 ], [ -5.9232592, 36.9226324 ], [ -5.9237221, 36.9229995 ], [ -5.924064, 36.9231353 ], [ -5.9257307, 36.9232835 ], [ -5.9264691, 36.9232202 ], [ -5.9273047, 36.9233528 ], [ -5.9275488, 36.9235721 ], [ -5.9279378, 36.9240581 ], [ -5.9288272, 36.9244237 ], [ -5.9289672, 36.9245644 ], [ -5.9293137, 36.9251146 ], [ -5.929581, 36.9253512 ], [ -5.9303254, 36.9257384 ], [ -5.9314375, 36.9263507 ], [ -5.9320636, 36.9265786 ], [ -5.9345615, 36.9273279 ], [ -5.9348152, 36.9275019 ], [ -5.9353015, 36.9281837 ], [ -5.9356574, 36.9289769 ], [ -5.9361481, 36.9294784 ], [ -5.9365068, 36.9297579 ], [ -5.9393552, 36.9314446 ], [ -5.9397634, 36.9315516 ], [ -5.9404689, 36.9315072 ], [ -5.9417043, 36.9312332 ], [ -5.9434277, 36.9311004 ], [ -5.9446999, 36.9309067 ], [ -5.945038, 36.9309434 ], [ -5.9456193, 36.9311722 ], [ -5.9462888, 36.9316512 ], [ -5.9475363, 36.9325665 ], [ -5.9490992, 36.9335099 ], [ -5.9494804, 36.9337888 ], [ -5.9499417, 36.9343991 ], [ -5.9502943, 36.9351022 ], [ -5.9509031, 36.9360422 ], [ -5.9534059, 36.9374849 ], [ -5.9544687, 36.9379721 ], [ -5.9552978, 36.9382218 ], [ -5.9571496, 36.9385001 ], [ -5.9579899, 36.9387495 ], [ -5.9585376, 36.9389792 ], [ -5.9597395, 36.9398684 ], [ -5.9600149, 36.9400237 ], [ -5.9605357, 36.9401368 ], [ -5.9607663, 36.9402933 ], [ -5.9616419, 36.9411636 ], [ -5.9621111, 36.9413951 ], [ -5.9627094, 36.9414794 ], [ -5.9632133, 36.9414488 ], [ -5.9638702, 36.9413062 ], [ -5.9642013, 36.9413005 ], [ -5.9650369, 36.9412861 ], [ -5.9656807, 36.9413872 ], [ -5.9663501, 36.9415687 ], [ -5.9686768, 36.9425108 ], [ -5.9690707, 36.9428253 ], [ -5.9698711, 36.9437785 ], [ -5.9704405, 36.9445662 ], [ -5.9709656, 36.9447874 ], [ -5.9754272, 36.9460634 ], [ -5.9749625, 36.9471023 ], [ -5.974995, 36.9473628 ], [ -5.9751801, 36.9477907 ], [ -5.975947, 36.9487446 ], [ -5.9771211, 36.9500669 ], [ -5.9786543, 36.9513801 ], [ -5.9819921, 36.954342 ], [ -5.9837158, 36.9562181 ], [ -5.9861001, 36.9586181 ], [ -5.986904, 36.9596522 ], [ -5.9890703, 36.9624992 ], [ -5.9906282, 36.9647218 ], [ -5.9925766, 36.967448 ], [ -5.9931255, 36.9685605 ], [ -5.9940726, 36.9709516 ], [ -5.9951408, 36.9732766 ], [ -5.9969072, 36.9756469 ], [ -5.998321, 36.9773323 ], [ -5.9991182, 36.9778979 ], [ -6.0005492, 36.9791593 ], [ -6.0020822, 36.9810128 ], [ -6.0041589, 36.9835554 ], [ -6.0059679, 36.9858525 ], [ -6.0069573, 36.9870169 ], [ -6.0078769, 36.9881199 ], [ -6.0114388, 36.9927062 ], [ -6.0142378, 36.9961675 ], [ -6.0148621, 36.9968995 ], [ -6.0157461, 36.9979494 ], [ -6.0176833, 37.0000627 ], [ -6.0183574, 37.001199 ], [ -6.0208087, 37.0040922 ], [ -6.0210095, 37.0043393 ], [ -6.0236595, 37.007705 ], [ -6.0277408, 37.0123046 ], [ -6.030494, 37.0157034 ], [ -6.0336015, 37.019814 ], [ -6.0362187, 37.0237389 ], [ -6.0370854, 37.0246178 ], [ -6.0380778, 37.0261151 ], [ -6.038688, 37.0270457 ], [ -6.0410123, 37.0303741 ], [ -6.042401, 37.0322218 ], [ -6.0440472, 37.0340448 ], [ -6.0475247, 37.0380914 ], [ -6.0513856, 37.0427228 ], [ -6.0535083, 37.0449208 ], [ -6.0536357, 37.0455753 ], [ -6.053602, 37.0472612 ], [ -6.0536367, 37.050369 ], [ -6.0534587, 37.053221 ] ], [ [ -6.0744768, 36.953251 ], [ -6.0716886, 36.9545893 ], [ -6.0715301, 36.9546654 ], [ -6.070074, 36.9554629 ], [ -6.0681552, 36.9564148 ], [ -6.0640592, 36.9585805 ], [ -6.0627791, 36.9572504 ], [ -6.0628073, 36.9572193 ], [ -6.0627172, 36.9571179 ], [ -6.061946, 36.9562605 ], [ -6.0612986, 36.9555238 ], [ -6.0602174, 36.9543405 ], [ -6.0584475, 36.9525742 ], [ -6.0579506, 36.9520339 ], [ -6.0567952, 36.9507763 ], [ -6.0556613, 36.9494608 ], [ -6.0552459, 36.9491759 ], [ -6.0568417, 36.9480762 ], [ -6.0579507, 36.9472847 ], [ -6.0588126, 36.9466601 ], [ -6.0587789, 36.9466101 ], [ -6.0599419, 36.9457015 ], [ -6.0611933, 36.9443323 ], [ -6.0612944, 36.9441468 ], [ -6.0615104, 36.9439028 ], [ -6.0622127, 36.9430454 ], [ -6.062653, 36.9424714 ], [ -6.0632994, 36.9417013 ], [ -6.0635379, 36.9414282 ], [ -6.0637524, 36.9411461 ], [ -6.0639259, 36.9407315 ], [ -6.0638677, 36.9401704 ], [ -6.0636568, 36.9396513 ], [ -6.0637491, 36.9392865 ], [ -6.0638932, 36.9387297 ], [ -6.0641367, 36.9385803 ], [ -6.0644142, 36.938392 ], [ -6.0647891, 36.9379627 ], [ -6.0648592, 36.9376366 ], [ -6.0649228, 36.9371486 ], [ -6.0650733, 36.9364581 ], [ -6.0647709, 36.9360272 ], [ -6.0645746, 36.9355746 ], [ -6.0645758, 36.9350119 ], [ -6.0646179, 36.9345816 ], [ -6.0647722, 36.934282 ], [ -6.0649047, 36.9340306 ], [ -6.0651746, 36.9336517 ], [ -6.0653848, 36.9332648 ], [ -6.0656797, 36.9326183 ], [ -6.0661322, 36.9320535 ], [ -6.0669017, 36.931099 ], [ -6.0673653, 36.9307381 ], [ -6.0673504, 36.9307345 ], [ -6.0672769, 36.9306792 ], [ -6.067177, 36.9305578 ], [ -6.0670652, 36.9304367 ], [ -6.0669975, 36.9302287 ], [ -6.0669049, 36.9299927 ], [ -6.0668161, 36.9298519 ], [ -6.0665458, 36.92963 ], [ -6.0664262, 36.9294753 ], [ -6.0663868, 36.9294437 ], [ -6.0662324, 36.9293197 ], [ -6.0661748, 36.9292751 ], [ -6.0660785, 36.929232 ], [ -6.0657868, 36.9290679 ], [ -6.0657248, 36.9290027 ], [ -6.0656062, 36.9288351 ], [ -6.0654914, 36.9287464 ], [ -6.065229, 36.9283409 ], [ -6.0648853, 36.9274442 ], [ -6.064412, 36.9268977 ], [ -6.0643947, 36.9268381 ], [ -6.0643405, 36.9267688 ], [ -6.0643019, 36.9266935 ], [ -6.0643704, 36.926625 ], [ -6.0644426, 36.9265835 ], [ -6.0644558, 36.9265636 ], [ -6.0645446, 36.9265251 ], [ -6.064541, 36.9264351 ], [ -6.0645605, 36.9264056 ], [ -6.0645281, 36.9261155 ], [ -6.0645178, 36.9258582 ], [ -6.0644838, 36.9256016 ], [ -6.0645175, 36.9254053 ], [ -6.0645137, 36.9250144 ], [ -6.0644994, 36.9245093 ], [ -6.0645179, 36.9244163 ], [ -6.0645165, 36.9243819 ], [ -6.0645035, 36.9240573 ], [ -6.0645016, 36.9240095 ], [ -6.0644383, 36.9238719 ], [ -6.0643882, 36.9236586 ], [ -6.0643759, 36.9235016 ], [ -6.0643182, 36.9234582 ], [ -6.0640121, 36.9236921 ], [ -6.0637861, 36.9238314 ], [ -6.0636336, 36.9235826 ], [ -6.0634196, 36.9235786 ], [ -6.0632617, 36.9228961 ], [ -6.0629082, 36.9229672 ], [ -6.0626707, 36.9219857 ], [ -6.0626666, 36.9219845 ], [ -6.062465, 36.9215616 ], [ -6.0624792, 36.9215576 ], [ -6.0622845, 36.9211856 ], [ -6.0622629, 36.9210908 ], [ -6.0622467, 36.9209816 ], [ -6.0622446, 36.9207813 ], [ -6.0622381, 36.9206194 ], [ -6.0622402, 36.920524 ], [ -6.0638158, 36.9202735 ], [ -6.0639827, 36.9202883 ], [ -6.0641734, 36.9202542 ], [ -6.0643914, 36.9201746 ], [ -6.0645063, 36.9201651 ], [ -6.0648638, 36.920194 ], [ -6.06486, 36.9200987 ], [ -6.064863, 36.9199161 ], [ -6.0648476, 36.9198983 ], [ -6.064853, 36.9198949 ], [ -6.0648361, 36.9198666 ], [ -6.0648291, 36.9198629 ], [ -6.0644363, 36.9190294 ], [ -6.0649377, 36.9188522 ], [ -6.0657236, 36.9186054 ], [ -6.0657951, 36.9185817 ], [ -6.0664486, 36.9184439 ], [ -6.0665374, 36.918432 ], [ -6.0672491, 36.9182894 ], [ -6.0683488, 36.9178661 ], [ -6.0683501, 36.9178613 ], [ -6.0684918, 36.9178108 ], [ -6.0685374, 36.9178035 ], [ -6.0688408, 36.9176879 ], [ -6.0688406, 36.9176837 ], [ -6.0692767, 36.9175456 ], [ -6.0696376, 36.9174314 ], [ -6.0701547, 36.9173704 ], [ -6.0701522, 36.9173082 ], [ -6.0701706, 36.9173064 ], [ -6.070171, 36.9162009 ], [ -6.0701629, 36.9161937 ], [ -6.0701728, 36.9160442 ], [ -6.0701179, 36.9157119 ], [ -6.0700506, 36.9152177 ], [ -6.0700875, 36.9149545 ], [ -6.0701348, 36.9145051 ], [ -6.0701528, 36.9140659 ], [ -6.0701536, 36.9137893 ], [ -6.0700153, 36.9134496 ], [ -6.0699739, 36.9133076 ], [ -6.0699172, 36.9131547 ], [ -6.0699238, 36.913153 ], [ -6.0698369, 36.9130012 ], [ -6.0696831, 36.9127191 ], [ -6.0696441, 36.9126343 ], [ -6.0696035, 36.9125114 ], [ -6.0696049, 36.9123969 ], [ -6.0696066, 36.9122919 ], [ -6.0695597, 36.9121596 ], [ -6.0695255, 36.9120461 ], [ -6.0694244, 36.9118961 ], [ -6.0692882, 36.9117566 ], [ -6.0691642, 36.9116263 ], [ -6.0690148, 36.9113059 ], [ -6.0689827, 36.9112447 ], [ -6.0689092, 36.9110416 ], [ -6.0688137, 36.910882 ], [ -6.0687114, 36.9106986 ], [ -6.0686406, 36.9105622 ], [ -6.0685537, 36.9103212 ], [ -6.0685229, 36.9101456 ], [ -6.0684841, 36.9099177 ], [ -6.0684702, 36.9097178 ], [ -6.0684417, 36.9094515 ], [ -6.0684346, 36.9092753 ], [ -6.0684643, 36.9091267 ], [ -6.068505, 36.9089588 ], [ -6.0685915, 36.9087467 ], [ -6.0687073, 36.9086722 ], [ -6.0691366, 36.9093096 ], [ -6.0698764, 36.9098388 ], [ -6.0706853, 36.9103186 ], [ -6.0711166, 36.9105601 ], [ -6.0715705, 36.9109203 ], [ -6.0721614, 36.9117347 ], [ -6.0722311, 36.9118705 ], [ -6.0722853, 36.9118691 ], [ -6.0726473, 36.9114227 ], [ -6.0731546, 36.9112136 ], [ -6.0740931, 36.910928 ], [ -6.0750945, 36.9101835 ], [ -6.0757645, 36.9099701 ], [ -6.0758694, 36.9098796 ], [ -6.0766287, 36.9098599 ], [ -6.0766793, 36.9097707 ], [ -6.0769382, 36.9094599 ], [ -6.0770389, 36.9092613 ], [ -6.077476, 36.9093356 ], [ -6.0778024, 36.9093496 ], [ -6.0782808, 36.9090984 ], [ -6.0785746, 36.9089805 ], [ -6.0789673, 36.9086233 ], [ -6.0795902, 36.9083391 ], [ -6.0810386, 36.9078429 ], [ -6.0811022, 36.9076335 ], [ -6.0812526, 36.9072386 ], [ -6.0813054, 36.9070751 ], [ -6.0814141, 36.9067528 ], [ -6.0814636, 36.9065823 ], [ -6.0815008, 36.9063977 ], [ -6.08152, 36.9062113 ], [ -6.0815118, 36.9057284 ], [ -6.0814749, 36.9056107 ], [ -6.0813523, 36.9053645 ], [ -6.0812058, 36.9050229 ], [ -6.0812056, 36.9050226 ], [ -6.0810618, 36.9047755 ], [ -6.0805195, 36.9039448 ], [ -6.0804979, 36.9037864 ], [ -6.0804956, 36.9037691 ], [ -6.0803798, 36.9034473 ], [ -6.0803382, 36.9033816 ], [ -6.0803039, 36.9032889 ], [ -6.0802226, 36.9031122 ], [ -6.0798991, 36.9025984 ], [ -6.0797355, 36.9023632 ], [ -6.0797149, 36.9023115 ], [ -6.0795955, 36.9021342 ], [ -6.0794653, 36.9018515 ], [ -6.079458, 36.901668 ], [ -6.0794427, 36.9016299 ], [ -6.0794411, 36.90159 ], [ -6.0793787, 36.9011743 ], [ -6.0793447, 36.9007723 ], [ -6.0793996, 36.9005575 ], [ -6.0793993, 36.9005501 ], [ -6.0794504, 36.9003846 ], [ -6.0794516, 36.9003848 ], [ -6.0794617, 36.9003591 ], [ -6.0796018, 36.9003722 ], [ -6.0802149, 36.9004111 ], [ -6.0807455, 36.9004665 ], [ -6.0810135, 36.9004882 ], [ -6.0815453, 36.9004982 ], [ -6.0819136, 36.9005029 ], [ -6.082614, 36.900499 ], [ -6.0827975, 36.9004847 ], [ -6.0830016, 36.9004651 ], [ -6.0832835, 36.9003887 ], [ -6.0837652, 36.9001878 ], [ -6.0838945, 36.9001558 ], [ -6.0840098, 36.9002994 ], [ -6.0840169, 36.9002976 ], [ -6.0842353, 36.9005833 ], [ -6.0844429, 36.9008735 ], [ -6.0846663, 36.9011366 ], [ -6.084765, 36.9012776 ], [ -6.0849054, 36.901448 ], [ -6.0850811, 36.9016819 ], [ -6.0853106, 36.9020001 ], [ -6.0853987, 36.9021242 ], [ -6.0854632, 36.9021774 ], [ -6.085765, 36.9023722 ], [ -6.0866871, 36.9030062 ], [ -6.0870766, 36.9032417 ], [ -6.087378, 36.9034293 ], [ -6.0883741, 36.9040567 ], [ -6.0892153, 36.9045974 ], [ -6.0895866, 36.9048238 ], [ -6.0899461, 36.9050505 ], [ -6.0906954, 36.9055221 ], [ -6.0906751, 36.9055646 ], [ -6.0906786, 36.9055668 ], [ -6.0903329, 36.9061752 ], [ -6.090224, 36.9064189 ], [ -6.0901407, 36.9067095 ], [ -6.0900686, 36.9069832 ], [ -6.0900019, 36.9072424 ], [ -6.0898753, 36.9078967 ], [ -6.0898272, 36.9080133 ], [ -6.0897739, 36.9082139 ], [ -6.0896861, 36.9083926 ], [ -6.0895918, 36.908705 ], [ -6.0893584, 36.9091507 ], [ -6.0893309, 36.9092173 ], [ -6.0892123, 36.9093777 ], [ -6.0890183, 36.9096794 ], [ -6.0889809, 36.9097199 ], [ -6.0888785, 36.9098608 ], [ -6.0886574, 36.9101217 ], [ -6.0885583, 36.9102411 ], [ -6.0884521, 36.9103321 ], [ -6.088008, 36.9106559 ], [ -6.0876367, 36.9109469 ], [ -6.0875636, 36.910998 ], [ -6.0875564, 36.9110053 ], [ -6.0874177, 36.9111124 ], [ -6.0872806, 36.9112447 ], [ -6.0871701, 36.9113763 ], [ -6.0869411, 36.911809 ], [ -6.0867778, 36.9121041 ], [ -6.0865884, 36.9124118 ], [ -6.086291, 36.9129329 ], [ -6.0862116, 36.9130476 ], [ -6.0861665, 36.9131404 ], [ -6.0858262, 36.9136833 ], [ -6.0857934, 36.9137557 ], [ -6.085434, 36.9140463 ], [ -6.0850241, 36.9143566 ], [ -6.0849942, 36.9143854 ], [ -6.0848364, 36.9144672 ], [ -6.0848272, 36.914474 ], [ -6.0859303, 36.9141312 ], [ -6.0859336, 36.9141374 ], [ -6.086954, 36.9138209 ], [ -6.0872029, 36.9137493 ], [ -6.0872022, 36.9137472 ], [ -6.0878405, 36.9135689 ], [ -6.0883366, 36.9134273 ], [ -6.0886336, 36.9133575 ], [ -6.0890003, 36.9132479 ], [ -6.0897015, 36.912965 ], [ -6.0900968, 36.9128283 ], [ -6.0904919, 36.9126869 ], [ -6.0907101, 36.9122092 ], [ -6.0909791, 36.9118112 ], [ -6.0911786, 36.9116057 ], [ -6.0913687, 36.9114601 ], [ -6.091779, 36.9112539 ], [ -6.0924596, 36.9110502 ], [ -6.0935162, 36.9106746 ], [ -6.0948494, 36.9102369 ], [ -6.0953714, 36.9100314 ], [ -6.0951372, 36.9109784 ], [ -6.095193, 36.9109866 ], [ -6.0950895, 36.9114752 ], [ -6.0949298, 36.9125188 ], [ -6.0947568, 36.9138203 ], [ -6.0946942, 36.9141494 ], [ -6.0946885, 36.9141791 ], [ -6.094772, 36.9141494 ], [ -6.0946488, 36.915127 ], [ -6.0944126, 36.9153246 ], [ -6.0945337, 36.9153283 ], [ -6.0942415, 36.9171133 ], [ -6.0937939, 36.9182738 ], [ -6.092765, 36.9198685 ], [ -6.0916386, 36.9209836 ], [ -6.0904268, 36.921914 ], [ -6.0891303, 36.9233286 ], [ -6.0884543, 36.9246415 ], [ -6.0879763, 36.9256992 ], [ -6.0878274, 36.9261751 ], [ -6.087515, 36.9271732 ], [ -6.0871835, 36.9283104 ], [ -6.0871317, 36.9283208 ], [ -6.0869441, 36.9291524 ], [ -6.0867589, 36.9297227 ], [ -6.0868554, 36.9298418 ], [ -6.0866455, 36.9304645 ], [ -6.0866265, 36.9315801 ], [ -6.0868131, 36.9325011 ], [ -6.0876974, 36.9345596 ], [ -6.0901646, 36.9388498 ], [ -6.0906339, 36.9401419 ], [ -6.0910986, 36.9418374 ], [ -6.0911499, 36.9431088 ], [ -6.0904261, 36.9458399 ], [ -6.0886522, 36.9483956 ], [ -6.0870339, 36.9496429 ], [ -6.0851691, 36.9504618 ], [ -6.0821231, 36.951478 ], [ -6.0779841, 36.9522905 ], [ -6.0744768, 36.953251 ] ] ] } },
{ "type": "Feature", "properties": { "CCAA": "01 - Andalucía", "PROVINCIA": "41 - Sevilla", "MUNICIPIO": "41053 - Lebrija", "COD_MUNICIPIO": "41053", "DISTRITO": "04", "SECCION": "4105304008", "V1_H": 77.6, "V1_M": 83.87, "V2_H": 77.77347434000001, "V2_M": 84.06024086, "V3_H": 77.45781126, "V3_M": 83.80561047 }, "geometry": { "type": "Polygon", "coordinates": [ [ [ -6.0825512, 36.9203483 ], [ -6.0825692, 36.9203888 ], [ -6.0827848, 36.9209482 ], [ -6.0829378, 36.9209133 ], [ -6.0832428, 36.920832 ], [ -6.0833637, 36.9210524 ], [ -6.083706, 36.9217959 ], [ -6.0837005, 36.9218153 ], [ -6.0832083, 36.9221007 ], [ -6.0834363, 36.9223046 ], [ -6.0836013, 36.9222073 ], [ -6.0838637, 36.9224811 ], [ -6.0847364, 36.9234631 ], [ -6.0847239, 36.9234765 ], [ -6.0843136, 36.9237361 ], [ -6.0845233, 36.9239573 ], [ -6.0845501, 36.9240109 ], [ -6.084567, 36.9240162 ], [ -6.084741, 36.9241732 ], [ -6.0848591, 36.9241085 ], [ -6.0849192, 36.9241275 ], [ -6.0849081, 36.9241361 ], [ -6.0850034, 36.9241998 ], [ -6.0857022, 36.9247395 ], [ -6.0862307, 36.9251787 ], [ -6.0871283, 36.9257896 ], [ -6.0874943, 36.926028 ], [ -6.0878274, 36.9261751 ], [ -6.0879763, 36.9256992 ], [ -6.0884543, 36.9246415 ], [ -6.0891303, 36.9233286 ], [ -6.0904268, 36.921914 ], [ -6.0916386, 36.9209836 ], [ -6.092765, 36.9198685 ], [ -6.0937939, 36.9182738 ], [ -6.0942415, 36.9171133 ], [ -6.0945337, 36.9153283 ], [ -6.0944126, 36.9153246 ], [ -6.0938552, 36.9157897 ], [ -6.0924832, 36.9168639 ], [ -6.0918171, 36.9173904 ], [ -6.0907854, 36.9182575 ], [ -6.0902692, 36.9186832 ], [ -6.0898398, 36.9192215 ], [ -6.0893426, 36.9196129 ], [ -6.0885587, 36.9200118 ], [ -6.0869168, 36.9205005 ], [ -6.086896, 36.9204987 ], [ -6.0867466, 36.9205234 ], [ -6.0862942, 36.920497 ], [ -6.0856881, 36.9204889 ], [ -6.0850225, 36.9204776 ], [ -6.0847178, 36.9204331 ], [ -6.0842023, 36.920313 ], [ -6.0838056, 36.9202637 ], [ -6.0832242, 36.9202495 ], [ -6.0829423, 36.9202839 ], [ -6.0825458, 36.920331 ], [ -6.0825437, 36.9203316 ], [ -6.0825512, 36.9203483 ] ] ] } },
{ "type": "Feature", "properties": { "CCAA": "01 - Andalucía", "PROVINCIA": "41 - Sevilla", "MUNICIPIO": "41053 - Lebrija", "COD_MUNICIPIO": "41053", "DISTRITO": "04", "SECCION": "4105304002", "V1_H": 78.77, "V1_M": 84.85, "V2_H": 78.83270398000001, "V2_M": 84.81764444, "V3_H": 78.82199574000001, "V3_M": 85.12573797 }, "geometry": { "type": "Polygon", "coordinates": [ [ [ -6.0794808, 36.9209775 ], [ -6.0794971, 36.9210074 ], [ -6.0796816, 36.9208691 ], [ -6.0799355, 36.9206861 ], [ -6.0801501, 36.9205787 ], [ -6.080402, 36.9208467 ], [ -6.0803983, 36.9208473 ], [ -6.0804395, 36.9208864 ], [ -6.080578, 36.9208625 ], [ -6.081182, 36.9207443 ], [ -6.0816136, 36.9206234 ], [ -6.0821799, 36.9204538 ], [ -6.0825512, 36.9203483 ], [ -6.0825437, 36.9203316 ], [ -6.0825458, 36.920331 ], [ -6.0829423, 36.9202839 ], [ -6.0832242, 36.9202495 ], [ -6.0838056, 36.9202637 ], [ -6.0842023, 36.920313 ], [ -6.0847178, 36.9204331 ], [ -6.0850225, 36.9204776 ], [ -6.0856881, 36.9204889 ], [ -6.0862942, 36.920497 ], [ -6.0867466, 36.9205234 ], [ -6.086896, 36.9204987 ], [ -6.0869168, 36.9205005 ], [ -6.0885587, 36.9200118 ], [ -6.0893426, 36.9196129 ], [ -6.0898398, 36.9192215 ], [ -6.0902692, 36.9186832 ], [ -6.0907854, 36.9182575 ], [ -6.0918171, 36.9173904 ], [ -6.0924832, 36.9168639 ], [ -6.0938552, 36.9157897 ], [ -6.0944126, 36.9153246 ], [ -6.0946488, 36.915127 ], [ -6.094772, 36.9141494 ], [ -6.0946885, 36.9141791 ], [ -6.0946942, 36.9141494 ], [ -6.0941132, 36.9143521 ], [ -6.0934443, 36.9145507 ], [ -6.0930455, 36.9146755 ], [ -6.092811, 36.9147603 ], [ -6.0926858, 36.9148112 ], [ -6.0921892, 36.9150125 ], [ -6.0917499, 36.9151646 ], [ -6.0913391, 36.915285 ], [ -6.0908984, 36.915399 ], [ -6.0903098, 36.9155288 ], [ -6.0902777, 36.91547 ], [ -6.0894487, 36.9156752 ], [ -6.0886882, 36.9158857 ], [ -6.0874305, 36.9162117 ], [ -6.0869408, 36.9162912 ], [ -6.0869423, 36.9162887 ], [ -6.0865201, 36.9162958 ], [ -6.085315, 36.9163978 ], [ -6.0852958, 36.9169515 ], [ -6.0850692, 36.9169287 ], [ -6.0846076, 36.9168215 ], [ -6.0839245, 36.9171111 ], [ -6.0843008, 36.9177545 ], [ -6.084061, 36.9178466 ], [ -6.0832956, 36.9180095 ], [ -6.0823166, 36.9183258 ], [ -6.0821009, 36.9176877 ], [ -6.0817934, 36.9167713 ], [ -6.0817845, 36.9167776 ], [ -6.0814531, 36.9170107 ], [ -6.0808107, 36.9174279 ], [ -6.0801084, 36.9178324 ], [ -6.0797803, 36.9179795 ], [ -6.0797798, 36.9179794 ], [ -6.0795656, 36.9180103 ], [ -6.0795688, 36.9180136 ], [ -6.0795462, 36.9180282 ], [ -6.0793173, 36.9180961 ], [ -6.0789957, 36.9182189 ], [ -6.0786795, 36.9184798 ], [ -6.0784694, 36.9187189 ], [ -6.0783684, 36.9188646 ], [ -6.0782892, 36.9191098 ], [ -6.0782563, 36.919232 ], [ -6.0783465, 36.9197378 ], [ -6.078375, 36.9198978 ], [ -6.0783795, 36.9198977 ], [ -6.078459, 36.9200044 ], [ -6.0787264, 36.9203026 ], [ -6.0789625, 36.9205635 ], [ -6.0791417, 36.9207353 ], [ -6.0793545, 36.9208585 ], [ -6.0794849, 36.9209744 ], [ -6.0794808, 36.9209775 ] ] ] } },
{ "type": "Feature", "properties": { "CCAA": "01 - Andalucía", "PROVINCIA": "41 - Sevilla", "MUNICIPIO": "41053 - Lebrija", "COD_MUNICIPIO": "41053", "DISTRITO": "04", "SECCION": "4105304007", "V1_H": 78.55, "V1_M": 84.66, "V2_H": 78.61689556, "V2_M": 84.78747684, "V3_H": 78.67326671, "V3_M": 84.67928018000001 }, "geometry": { "type": "Polygon", "coordinates": [ [ [ -6.0803876, 36.9231372 ], [ -6.0816797, 36.9251336 ], [ -6.0816812, 36.9251712 ], [ -6.0819996, 36.9254469 ], [ -6.0827066, 36.9261572 ], [ -6.0833379, 36.9267893 ], [ -6.083723, 36.9272084 ], [ -6.0840079, 36.9274967 ], [ -6.0846013, 36.9280725 ], [ -6.0852827, 36.92877 ], [ -6.08564, 36.9290389 ], [ -6.0859366, 36.9293453 ], [ -6.0861867, 36.9297375 ], [ -6.0867589, 36.9297227 ], [ -6.0869441, 36.9291524 ], [ -6.0871317, 36.9283208 ], [ -6.0871835, 36.9283104 ], [ -6.087515, 36.9271732 ], [ -6.0878274, 36.9261751 ], [ -6.0874943, 36.926028 ], [ -6.0871283, 36.9257896 ], [ -6.0862307, 36.9251787 ], [ -6.0857022, 36.9247395 ], [ -6.0850034, 36.9241998 ], [ -6.0849081, 36.9241361 ], [ -6.0849192, 36.9241275 ], [ -6.0848591, 36.9241085 ], [ -6.084741, 36.9241732 ], [ -6.084567, 36.9240162 ], [ -6.0845501, 36.9240109 ], [ -6.0845233, 36.9239573 ], [ -6.0843136, 36.9237361 ], [ -6.0847239, 36.9234765 ], [ -6.0847364, 36.9234631 ], [ -6.0838637, 36.9224811 ], [ -6.0836013, 36.9222073 ], [ -6.0834363, 36.9223046 ], [ -6.0832083, 36.9221007 ], [ -6.0837005, 36.9218153 ], [ -6.083706, 36.9217959 ], [ -6.0833637, 36.9210524 ], [ -6.0832428, 36.920832 ], [ -6.0829378, 36.9209133 ], [ -6.0827848, 36.9209482 ], [ -6.0825692, 36.9203888 ], [ -6.0825512, 36.9203483 ], [ -6.0821799, 36.9204538 ], [ -6.0816136, 36.9206234 ], [ -6.081182, 36.9207443 ], [ -6.080578, 36.9208625 ], [ -6.0804395, 36.9208864 ], [ -6.0802158, 36.9209249 ], [ -6.0800796, 36.9211218 ], [ -6.0801107, 36.9213846 ], [ -6.0802681, 36.9217274 ], [ -6.0803323, 36.9223024 ], [ -6.0803925, 36.9227785 ], [ -6.0804016, 36.9230058 ], [ -6.0804063, 36.9231228 ], [ -6.0803876, 36.9231372 ] ] ] } },
{ "type": "Feature", "properties": { "CCAA": "01 - Andalucía", "PROVINCIA": "41 - Sevilla", "MUNICIPIO": "41053 - Lebrija", "COD_MUNICIPIO": "41053", "DISTRITO": "01", "SECCION": "4105301005", "V1_H": 79.78, "V1_M": 85.67, "V2_H": 79.78305357000001, "V2_M": 85.83721796, "V3_H": 80.07461692, "V3_M": 85.64972132 }, "geometry": { "type": "Polygon", "coordinates": [ [ [ -6.0761117, 36.9158977 ], [ -6.076912, 36.9163421 ], [ -6.0771836, 36.9165726 ], [ -6.0772798, 36.916604 ], [ -6.0773634, 36.9166162 ], [ -6.0774465, 36.916614 ], [ -6.0775517, 36.9165731 ], [ -6.077883, 36.9163434 ], [ -6.0779387, 36.9163048 ], [ -6.0779287, 36.9162938 ], [ -6.0782707, 36.9155735 ], [ -6.0783402, 36.9153607 ], [ -6.0785285, 36.9148742 ], [ -6.0787665, 36.9144353 ], [ -6.0788324, 36.9142805 ], [ -6.0788949, 36.9141661 ], [ -6.0790048, 36.9139463 ], [ -6.0792, 36.9134835 ], [ -6.0793722, 36.9131142 ], [ -6.0795338, 36.9128423 ], [ -6.0795407, 36.9128389 ], [ -6.0795953, 36.9127556 ], [ -6.0800201, 36.9121724 ], [ -6.0801986, 36.9118864 ], [ -6.0804268, 36.9115801 ], [ -6.0806071, 36.9113394 ], [ -6.0806788, 36.9112438 ], [ -6.0806852, 36.9112353 ], [ -6.0807073, 36.9111723 ], [ -6.0808026, 36.9105905 ], [ -6.080864, 36.9101537 ], [ -6.080904, 36.9099608 ], [ -6.080913, 36.9097015 ], [ -6.080902, 36.9095937 ], [ -6.0808835, 36.9093558 ], [ -6.080867, 36.9090176 ], [ -6.0808527, 36.9085889 ], [ -6.0809509, 36.9081524 ], [ -6.0810497, 36.9078391 ], [ -6.0810386, 36.9078429 ], [ -6.0795902, 36.9083391 ], [ -6.0789673, 36.9086233 ], [ -6.0785746, 36.9089805 ], [ -6.0782808, 36.9090984 ], [ -6.0778024, 36.9093496 ], [ -6.077476, 36.9093356 ], [ -6.0770389, 36.9092613 ], [ -6.0769382, 36.9094599 ], [ -6.0766793, 36.9097707 ], [ -6.0766287, 36.9098599 ], [ -6.0758694, 36.9098796 ], [ -6.0757645, 36.9099701 ], [ -6.0750945, 36.9101835 ], [ -6.0740931, 36.910928 ], [ -6.0731546, 36.9112136 ], [ -6.0726473, 36.9114227 ], [ -6.0722853, 36.9118691 ], [ -6.0722311, 36.9118705 ], [ -6.0722245, 36.9118707 ], [ -6.0727769, 36.9126028 ], [ -6.0735511, 36.9134827 ], [ -6.0747853, 36.914864 ], [ -6.0753482, 36.9154427 ], [ -6.0756567, 36.9156814 ], [ -6.0760288, 36.9158517 ], [ -6.0761117, 36.9158977 ] ] ] } },
{ "type": "Feature", "properties": { "CCAA": "01 - Andalucía", "PROVINCIA": "41 - Sevilla", "MUNICIPIO": "41053 - Lebrija", "COD_MUNICIPIO": "41053", "DISTRITO": "03", "SECCION": "4105303002", "V1_H": 80.06, "V1_M": 86.12, "V2_H": 80.10460866, "V2_M": 86.20761786, "V3_H": 80.17898723, "V3_M": 86.18020212 }, "geometry": { "type": "Polygon", "coordinates": [ [ [ -6.0696876, 36.9229515 ], [ -6.0706959, 36.9232059 ], [ -6.0706869, 36.923215 ], [ -6.0708788, 36.9234087 ], [ -6.0723199, 36.9255274 ], [ -6.0726365, 36.9260109 ], [ -6.072738, 36.9255292 ], [ -6.0730433, 36.9249603 ], [ -6.0733118, 36.9244938 ], [ -6.0738057, 36.9240192 ], [ -6.0740847, 36.9238137 ], [ -6.0745388, 36.923374 ], [ -6.0747193, 36.9232702 ], [ -6.0747888, 36.9231625 ], [ -6.0748158, 36.923119 ], [ -6.0751966, 36.9228951 ], [ -6.0766636, 36.922134 ], [ -6.0778964, 36.9216718 ], [ -6.0782422, 36.9215975 ], [ -6.0788518, 36.921451 ], [ -6.0794808, 36.9209775 ], [ -6.0794849, 36.9209744 ], [ -6.0793545, 36.9208585 ], [ -6.0791417, 36.9207353 ], [ -6.0789625, 36.9205635 ], [ -6.0787264, 36.9203026 ], [ -6.078459, 36.9200044 ], [ -6.0783795, 36.9198977 ], [ -6.078375, 36.9198978 ], [ -6.0783465, 36.9197378 ], [ -6.0781321, 36.9198488 ], [ -6.0781244, 36.9198346 ], [ -6.0779512, 36.919934 ], [ -6.0774102, 36.9202889 ], [ -6.0771593, 36.9204742 ], [ -6.0770211, 36.9205827 ], [ -6.0769579, 36.9205605 ], [ -6.0769337, 36.9205492 ], [ -6.0767851, 36.9205459 ], [ -6.0766582, 36.9205659 ], [ -6.0764973, 36.9206273 ], [ -6.0762562, 36.9207599 ], [ -6.0760432, 36.9208536 ], [ -6.0756772, 36.9209823 ], [ -6.0754786, 36.9209899 ], [ -6.0752827, 36.9209926 ], [ -6.0750693, 36.9210029 ], [ -6.0746675, 36.9210538 ], [ -6.074386, 36.9210682 ], [ -6.0740171, 36.9211231 ], [ -6.0736026, 36.9212292 ], [ -6.0733206, 36.9213772 ], [ -6.0729511, 36.9215679 ], [ -6.0724006, 36.9219088 ], [ -6.0720734, 36.9221175 ], [ -6.0716157, 36.9224012 ], [ -6.0712679, 36.9226125 ], [ -6.0699259, 36.9229146 ], [ -6.0696876, 36.9229515 ] ] ] } },
{ "type": "Feature", "properties": { "CCAA": "01 - Andalucía", "PROVINCIA": "41 - Sevilla", "MUNICIPIO": "41053 - Lebrija", "COD_MUNICIPIO": "41053", "DISTRITO": "01", "SECCION": "4105301006", "V1_H": 79.33, "V1_M": 85.14, "V2_H": 79.29974376, "V2_M": 85.20981541, "V3_H": 79.50065775, "V3_M": 85.33298389 }, "geometry": { "type": "Polygon", "coordinates": [ [ [ -6.0722311, 36.9118705 ], [ -6.0721614, 36.9117347 ], [ -6.0715705, 36.9109203 ], [ -6.0711166, 36.9105601 ], [ -6.0706853, 36.9103186 ], [ -6.0698764, 36.9098388 ], [ -6.0691366, 36.9093096 ], [ -6.0687073, 36.9086722 ], [ -6.0685915, 36.9087467 ], [ -6.068505, 36.9089588 ], [ -6.0684643, 36.9091267 ], [ -6.0684346, 36.9092753 ], [ -6.0684417, 36.9094515 ], [ -6.0684702, 36.9097178 ], [ -6.0684841, 36.9099177 ], [ -6.0685229, 36.9101456 ], [ -6.0685537, 36.9103212 ], [ -6.0686406, 36.9105622 ], [ -6.0687114, 36.9106986 ], [ -6.0688137, 36.910882 ], [ -6.0689092, 36.9110416 ], [ -6.0689827, 36.9112447 ], [ -6.0690148, 36.9113059 ], [ -6.0691642, 36.9116263 ], [ -6.0692882, 36.9117566 ], [ -6.0694244, 36.9118961 ], [ -6.0695255, 36.9120461 ], [ -6.0695597, 36.9121596 ], [ -6.0696066, 36.9122919 ], [ -6.0696049, 36.9123969 ], [ -6.0696035, 36.9125114 ], [ -6.0696441, 36.9126343 ], [ -6.0696831, 36.9127191 ], [ -6.0698369, 36.9130012 ], [ -6.0699238, 36.913153 ], [ -6.0699172, 36.9131547 ], [ -6.0699739, 36.9133076 ], [ -6.0700153, 36.9134496 ], [ -6.0701536, 36.9137893 ], [ -6.0701528, 36.9140659 ], [ -6.0701348, 36.9145051 ], [ -6.0700875, 36.9149545 ], [ -6.0700506, 36.9152177 ], [ -6.0701179, 36.9157119 ], [ -6.0701728, 36.9160442 ], [ -6.0701629, 36.9161937 ], [ -6.070171, 36.9162009 ], [ -6.0701706, 36.9173064 ], [ -6.0701522, 36.9173082 ], [ -6.0701547, 36.9173704 ], [ -6.0696376, 36.9174314 ], [ -6.0692767, 36.9175456 ], [ -6.0695829, 36.9174757 ], [ -6.0702473, 36.9173822 ], [ -6.0711829, 36.9171697 ], [ -6.0715027, 36.9170732 ], [ -6.071927, 36.9168428 ], [ -6.0720462, 36.9167587 ], [ -6.0720783, 36.9167435 ], [ -6.0725628, 36.9164169 ], [ -6.0730392, 36.9162604 ], [ -6.0730398, 36.9162619 ], [ -6.0730759, 36.9162481 ], [ -6.0731778, 36.9166101 ], [ -6.0732007, 36.9166048 ], [ -6.0736031, 36.9165409 ], [ -6.0736039, 36.9165432 ], [ -6.0737076, 36.9165249 ], [ -6.0737795, 36.9167481 ], [ -6.0738733, 36.9167328 ], [ -6.0738752, 36.916745 ], [ -6.0739239, 36.9167339 ], [ -6.0743301, 36.9166471 ], [ -6.0745963, 36.9166211 ], [ -6.074763, 36.9166311 ], [ -6.0750043, 36.916725 ], [ -6.0751805, 36.9168253 ], [ -6.0752961, 36.9168939 ], [ -6.0754152, 36.9167525 ], [ -6.0757363, 36.9163198 ], [ -6.0761117, 36.9158977 ], [ -6.0760288, 36.9158517 ], [ -6.0756567, 36.9156814 ], [ -6.0753482, 36.9154427 ], [ -6.0747853, 36.914864 ], [ -6.0735511, 36.9134827 ], [ -6.0727769, 36.9126028 ], [ -6.0722245, 36.9118707 ], [ -6.0722311, 36.9118705 ] ] ] } },
{ "type": "Feature", "properties": { "CCAA": "01 - Andalucía", "PROVINCIA": "41 - Sevilla", "MUNICIPIO": "41053 - Lebrija", "COD_MUNICIPIO": "41053", "DISTRITO": "02", "SECCION": "4105302002", "V1_H": 79.19, "V1_M": 85.12, "V2_H": 79.38537767, "V2_M": 85.11224236, "V3_H": 79.115857, "V3_M": 85.3484756 }, "geometry": { "type": "Polygon", "coordinates": [ [ [ -6.0817934, 36.9167713 ], [ -6.0821009, 36.9176877 ], [ -6.0823166, 36.9183258 ], [ -6.0832956, 36.9180095 ], [ -6.084061, 36.9178466 ], [ -6.0843008, 36.9177545 ], [ -6.0839245, 36.9171111 ], [ -6.0846076, 36.9168215 ], [ -6.0850692, 36.9169287 ], [ -6.0852958, 36.9169515 ], [ -6.085315, 36.9163978 ], [ -6.0865201, 36.9162958 ], [ -6.0869423, 36.9162887 ], [ -6.0870071, 36.9161826 ], [ -6.0870064, 36.9161827 ], [ -6.0870412, 36.9161288 ], [ -6.0870542, 36.916102 ], [ -6.0874558, 36.9155888 ], [ -6.0868796, 36.9152891 ], [ -6.0866563, 36.9153473 ], [ -6.0865269, 36.9153793 ], [ -6.0862011, 36.914663 ], [ -6.0860817, 36.9144478 ], [ -6.0860847, 36.9144469 ], [ -6.0860145, 36.9142888 ], [ -6.0859395, 36.9141485 ], [ -6.0859336, 36.9141374 ], [ -6.0859303, 36.9141312 ], [ -6.0848272, 36.914474 ], [ -6.0846634, 36.9145956 ], [ -6.0845731, 36.9147124 ], [ -6.0844478, 36.9148444 ], [ -6.084192, 36.9150461 ], [ -6.0839413, 36.9152438 ], [ -6.083396, 36.9156506 ], [ -6.0833242, 36.9156927 ], [ -6.0825969, 36.9162181 ], [ -6.0822352, 36.9164737 ], [ -6.0821697, 36.9165201 ], [ -6.0819915, 36.9166235 ], [ -6.0819035, 36.9166939 ], [ -6.0817934, 36.9167713 ] ] ] } },
{ "type": "Feature", "properties": { "CCAA": "01 - Andalucía", "PROVINCIA": "41 - Sevilla", "MUNICIPIO": "41053 - Lebrija", "COD_MUNICIPIO": "41053", "DISTRITO": "02", "SECCION": "4105302001", "V1_H": 79.36, "V1_M": 85.46, "V2_H": 79.32780616, "V2_M": 85.51002556, "V3_H": 79.53169609, "V3_M": 85.5666933 }, "geometry": { "type": "Polygon", "coordinates": [ [ [ -6.077883, 36.9163434 ], [ -6.0784092, 36.9168255 ], [ -6.0785253, 36.9169541 ], [ -6.0795152, 36.9179579 ], [ -6.0795656, 36.9180103 ], [ -6.0797798, 36.9179794 ], [ -6.0797803, 36.9179795 ], [ -6.0801084, 36.9178324 ], [ -6.0808107, 36.9174279 ], [ -6.0814531, 36.9170107 ], [ -6.0817845, 36.9167776 ], [ -6.0817934, 36.9167713 ], [ -6.0819035, 36.9166939 ], [ -6.0819915, 36.9166235 ], [ -6.0821697, 36.9165201 ], [ -6.0822352, 36.9164737 ], [ -6.081884, 36.9157193 ], [ -6.0817366, 36.9153035 ], [ -6.0816017, 36.9150495 ], [ -6.0814554, 36.9146599 ], [ -6.0812828, 36.914209 ], [ -6.0812521, 36.9140358 ], [ -6.0811262, 36.9136385 ], [ -6.0809394, 36.9130545 ], [ -6.0808108, 36.912736 ], [ -6.0807153, 36.9124285 ], [ -6.0806666, 36.9121771 ], [ -6.0806638, 36.9118863 ], [ -6.0807054, 36.9112987 ], [ -6.0806788, 36.9112438 ], [ -6.0806071, 36.9113394 ], [ -6.0804268, 36.9115801 ], [ -6.0801986, 36.9118864 ], [ -6.0800201, 36.9121724 ], [ -6.0795953, 36.9127556 ], [ -6.0795407, 36.9128389 ], [ -6.0795338, 36.9128423 ], [ -6.0793722, 36.9131142 ], [ -6.0792, 36.9134835 ], [ -6.0790048, 36.9139463 ], [ -6.0788949, 36.9141661 ], [ -6.0788324, 36.9142805 ], [ -6.0787665, 36.9144353 ], [ -6.0785285, 36.9148742 ], [ -6.0783402, 36.9153607 ], [ -6.0782707, 36.9155735 ], [ -6.0779287, 36.9162938 ], [ -6.0779387, 36.9163048 ], [ -6.077883, 36.9163434 ] ] ] } },
{ "type": "Feature", "properties": { "CCAA": "01 - Andalucía", "PROVINCIA": "41 - Sevilla", "MUNICIPIO": "41053 - Lebrija", "COD_MUNICIPIO": "41053", "DISTRITO": "02", "SECCION": "4105302003", "V1_H": 79.2, "V1_M": 85.22, "V2_H": 79.18248439, "V2_M": 85.25623492, "V3_H": 79.42953696, "V3_M": 85.41396632 }, "geometry": { "type": "Polygon", "coordinates": [ [ [ -6.0869423, 36.9162887 ], [ -6.0869408, 36.9162912 ], [ -6.0874305, 36.9162117 ], [ -6.0886882, 36.9158857 ], [ -6.0894487, 36.9156752 ], [ -6.0902777, 36.91547 ], [ -6.0903098, 36.9155288 ], [ -6.0908984, 36.915399 ], [ -6.0913391, 36.915285 ], [ -6.0917499, 36.9151646 ], [ -6.0921892, 36.9150125 ], [ -6.0926858, 36.9148112 ], [ -6.092811, 36.9147603 ], [ -6.0930455, 36.9146755 ], [ -6.0934443, 36.9145507 ], [ -6.0941132, 36.9143521 ], [ -6.0946942, 36.9141494 ], [ -6.0947568, 36.9138203 ], [ -6.0949298, 36.9125188 ], [ -6.0950895, 36.9114752 ], [ -6.095193, 36.9109866 ], [ -6.0951372, 36.9109784 ], [ -6.0953714, 36.9100314 ], [ -6.0948494, 36.9102369 ], [ -6.0935162, 36.9106746 ], [ -6.0924596, 36.9110502 ], [ -6.091779, 36.9112539 ], [ -6.0913687, 36.9114601 ], [ -6.0911786, 36.9116057 ], [ -6.0909791, 36.9118112 ], [ -6.0907101, 36.9122092 ], [ -6.0904919, 36.9126869 ], [ -6.0900968, 36.9128283 ], [ -6.0897015, 36.912965 ], [ -6.0890003, 36.9132479 ], [ -6.0886336, 36.9133575 ], [ -6.0883366, 36.9134273 ], [ -6.0878405, 36.9135689 ], [ -6.0872022, 36.9137472 ], [ -6.0872029, 36.9137493 ], [ -6.086954, 36.9138209 ], [ -6.0859336, 36.9141374 ], [ -6.0859395, 36.9141485 ], [ -6.0860145, 36.9142888 ], [ -6.0860847, 36.9144469 ], [ -6.0860817, 36.9144478 ], [ -6.0862011, 36.914663 ], [ -6.0865269, 36.9153793 ], [ -6.0866563, 36.9153473 ], [ -6.0868796, 36.9152891 ], [ -6.0874558, 36.9155888 ], [ -6.0870542, 36.916102 ], [ -6.0870412, 36.9161288 ], [ -6.0870064, 36.9161827 ], [ -6.0870071, 36.9161826 ], [ -6.0869423, 36.9162887 ] ] ] } },
{ "type": "Feature", "properties": { "CCAA": "01 - Andalucía", "PROVINCIA": "41 - Sevilla", "MUNICIPIO": "41053 - Lebrija", "COD_MUNICIPIO": "41053", "DISTRITO": "03", "SECCION": "4105303001", "V1_H": 79.83, "V1_M": 85.66, "V2_H": 79.86201885, "V2_M": 85.75249, "V3_H": 79.86616026, "V3_M": 85.80070523000001 }, "geometry": { "type": "Polygon", "coordinates": [ [ [ -6.0648638, 36.920194 ], [ -6.0645063, 36.9201651 ], [ -6.0643914, 36.9201746 ], [ -6.0641734, 36.9202542 ], [ -6.0639827, 36.9202883 ], [ -6.0638158, 36.9202735 ], [ -6.0622402, 36.920524 ], [ -6.0622381, 36.9206194 ], [ -6.0622446, 36.9207813 ], [ -6.0622467, 36.9209816 ], [ -6.0622629, 36.9210908 ], [ -6.0622845, 36.9211856 ], [ -6.0624792, 36.9215576 ], [ -6.062465, 36.9215616 ], [ -6.0626666, 36.9219845 ], [ -6.0626707, 36.9219857 ], [ -6.0629082, 36.9229672 ], [ -6.0632617, 36.9228961 ], [ -6.0634196, 36.9235786 ], [ -6.0636336, 36.9235826 ], [ -6.0637861, 36.9238314 ], [ -6.0640121, 36.9236921 ], [ -6.0643182, 36.9234582 ], [ -6.0643651, 36.9234224 ], [ -6.0643619, 36.9234155 ], [ -6.0646205, 36.923247 ], [ -6.0650051, 36.9231276 ], [ -6.0663543, 36.9230069 ], [ -6.0675853, 36.9228988 ], [ -6.068662, 36.9227947 ], [ -6.0690796, 36.9228411 ], [ -6.0693912, 36.9229093 ], [ -6.0696308, 36.9229604 ], [ -6.0696876, 36.9229515 ], [ -6.0699259, 36.9229146 ], [ -6.0712679, 36.9226125 ], [ -6.0716157, 36.9224012 ], [ -6.0720734, 36.9221175 ], [ -6.0724006, 36.9219088 ], [ -6.0729511, 36.9215679 ], [ -6.0733206, 36.9213772 ], [ -6.0736026, 36.9212292 ], [ -6.0740171, 36.9211231 ], [ -6.074386, 36.9210682 ], [ -6.0746675, 36.9210538 ], [ -6.0750693, 36.9210029 ], [ -6.0752827, 36.9209926 ], [ -6.0754786, 36.9209899 ], [ -6.0756772, 36.9209823 ], [ -6.0760432, 36.9208536 ], [ -6.0762562, 36.9207599 ], [ -6.0764973, 36.9206273 ], [ -6.0766582, 36.9205659 ], [ -6.0767851, 36.9205459 ], [ -6.0769337, 36.9205492 ], [ -6.0769579, 36.9205605 ], [ -6.0770211, 36.9205827 ], [ -6.0771593, 36.9204742 ], [ -6.0774102, 36.9202889 ], [ -6.0779512, 36.919934 ], [ -6.0781244, 36.9198346 ], [ -6.0781321, 36.9198488 ], [ -6.0783465, 36.9197378 ], [ -6.0782563, 36.919232 ], [ -6.0782479, 36.9192635 ], [ -6.0782097, 36.9193379 ], [ -6.0782009, 36.9193385 ], [ -6.078089, 36.9194488 ], [ -6.0780689, 36.9194556 ], [ -6.0780138, 36.9194984 ], [ -6.0779555, 36.9195238 ], [ -6.0779065, 36.9195395 ], [ -6.0778928, 36.9195348 ], [ -6.0778441, 36.91956 ], [ -6.0777735, 36.9195762 ], [ -6.0768174, 36.9195771 ], [ -6.0756831, 36.9195779 ], [ -6.075339, 36.9195868 ], [ -6.0749641, 36.9196085 ], [ -6.0743924, 36.9197014 ], [ -6.0733258, 36.9198619 ], [ -6.0722244, 36.9200435 ], [ -6.0713991, 36.9201132 ], [ -6.0713006, 36.9201148 ], [ -6.0707413, 36.9201493 ], [ -6.0700536, 36.920154 ], [ -6.0700554, 36.9201627 ], [ -6.0699745, 36.9201614 ], [ -6.0680427, 36.9201291 ], [ -6.0678125, 36.9201482 ], [ -6.0668819, 36.9201681 ], [ -6.0661412, 36.9202661 ], [ -6.0655829, 36.9202805 ], [ -6.0655788, 36.9202806 ], [ -6.0655762, 36.9202791 ], [ -6.0655226, 36.9202675 ], [ -6.0652276, 36.9202323 ], [ -6.0648638, 36.920194 ] ] ] } },
{ "type": "Feature", "properties": { "CCAA": "01 - Andalucía", "PROVINCIA": "41 - Sevilla", "MUNICIPIO": "41053 - Lebrija", "COD_MUNICIPIO": "41053", "DISTRITO": "03", "SECCION": "4105303003", "V1_H": 79.16, "V1_M": 85.0, "V2_H": 79.432337, "V2_M": 85.16926182, "V3_H": 78.95181978, "V3_M": 84.90024095 }, "geometry": { "type": "Polygon", "coordinates": [ [ [ -6.0673653, 36.9307381 ], [ -6.0674223, 36.9307518 ], [ -6.0674905, 36.9306737 ], [ -6.067535, 36.9305796 ], [ -6.0676928, 36.9304353 ], [ -6.0681253, 36.9299646 ], [ -6.0686232, 36.9295891 ], [ -6.0695216, 36.9289711 ], [ -6.0703819, 36.9284218 ], [ -6.0717307, 36.9272673 ], [ -6.0720864, 36.926963 ], [ -6.0723455, 36.9267422 ], [ -6.0725915, 36.9262245 ], [ -6.0726365, 36.9260109 ], [ -6.0723199, 36.9255274 ], [ -6.0708788, 36.9234087 ], [ -6.0706869, 36.923215 ], [ -6.0706959, 36.9232059 ], [ -6.0696876, 36.9229515 ], [ -6.0696308, 36.9229604 ], [ -6.0693912, 36.9229093 ], [ -6.0690796, 36.9228411 ], [ -6.068662, 36.9227947 ], [ -6.0675853, 36.9228988 ], [ -6.0663543, 36.9230069 ], [ -6.0650051, 36.9231276 ], [ -6.0646205, 36.923247 ], [ -6.0643619, 36.9234155 ], [ -6.0643651, 36.9234224 ], [ -6.0643182, 36.9234582 ], [ -6.0643759, 36.9235016 ], [ -6.0643882, 36.9236586 ], [ -6.0644383, 36.9238719 ], [ -6.0645016, 36.9240095 ], [ -6.0645035, 36.9240573 ], [ -6.0645165, 36.9243819 ], [ -6.0645179, 36.9244163 ], [ -6.0644994, 36.9245093 ], [ -6.0645137, 36.9250144 ], [ -6.0645175, 36.9254053 ], [ -6.0644838, 36.9256016 ], [ -6.0645178, 36.9258582 ], [ -6.0645281, 36.9261155 ], [ -6.0645605, 36.9264056 ], [ -6.064541, 36.9264351 ], [ -6.0645446, 36.9265251 ], [ -6.0644558, 36.9265636 ], [ -6.0644426, 36.9265835 ], [ -6.0643704, 36.926625 ], [ -6.0643019, 36.9266935 ], [ -6.0643405, 36.9267688 ], [ -6.0643947, 36.9268381 ], [ -6.064412, 36.9268977 ], [ -6.0648853, 36.9274442 ], [ -6.065229, 36.9283409 ], [ -6.0654914, 36.9287464 ], [ -6.0656062, 36.9288351 ], [ -6.0657248, 36.9290027 ], [ -6.0657868, 36.9290679 ], [ -6.0660785, 36.929232 ], [ -6.0661748, 36.9292751 ], [ -6.0662324, 36.9293197 ], [ -6.0663868, 36.9294437 ], [ -6.0664262, 36.9294753 ], [ -6.0665458, 36.92963 ], [ -6.0668161, 36.9298519 ], [ -6.0669049, 36.9299927 ], [ -6.0669975, 36.9302287 ], [ -6.0670652, 36.9304367 ], [ -6.067177, 36.9305578 ], [ -6.0672769, 36.9306792 ], [ -6.0673504, 36.9307345 ], [ -6.0673653, 36.9307381 ] ] ] } },
{ "type": "Feature", "properties": { "CCAA": "01 - Andalucía", "PROVINCIA": "41 - Sevilla", "MUNICIPIO": "41053 - Lebrija", "COD_MUNICIPIO": "41053", "DISTRITO": "01", "SECCION": "4105301003", "V1_H": 79.81, "V1_M": 85.63, "V2_H": 79.83092799000001, "V2_M": 85.85143097, "V3_H": 80.00184088, "V3_M": 85.62912109 }, "geometry": { "type": "Polygon", "coordinates": [ [ [ -6.0648638, 36.920194 ], [ -6.0652276, 36.9202323 ], [ -6.0655226, 36.9202675 ], [ -6.0655762, 36.9202791 ], [ -6.0655788, 36.9202806 ], [ -6.0655829, 36.9202805 ], [ -6.0661412, 36.9202661 ], [ -6.0668819, 36.9201681 ], [ -6.0678125, 36.9201482 ], [ -6.0680427, 36.9201291 ], [ -6.0699745, 36.9201614 ], [ -6.0699206, 36.9196747 ], [ -6.0698655, 36.9193375 ], [ -6.0698651, 36.9193274 ], [ -6.0709685, 36.9192256 ], [ -6.0711518, 36.9192041 ], [ -6.0714089, 36.9191736 ], [ -6.0720328, 36.9191098 ], [ -6.0724645, 36.9190629 ], [ -6.0724583, 36.91904 ], [ -6.0724636, 36.9190394 ], [ -6.0723544, 36.9184957 ], [ -6.0718802, 36.9184327 ], [ -6.0718163, 36.9181956 ], [ -6.0722026, 36.9181088 ], [ -6.0734523, 36.9178214 ], [ -6.0735152, 36.9177959 ], [ -6.073683, 36.9177606 ], [ -6.0740006, 36.9177571 ], [ -6.0739847, 36.9173618 ], [ -6.0739098, 36.9169751 ], [ -6.0738752, 36.916745 ], [ -6.0738733, 36.9167328 ], [ -6.0737795, 36.9167481 ], [ -6.0737076, 36.9165249 ], [ -6.0736039, 36.9165432 ], [ -6.0736031, 36.9165409 ], [ -6.0732007, 36.9166048 ], [ -6.0731778, 36.9166101 ], [ -6.0730759, 36.9162481 ], [ -6.0730398, 36.9162619 ], [ -6.0730392, 36.9162604 ], [ -6.0725628, 36.9164169 ], [ -6.0720783, 36.9167435 ], [ -6.0720462, 36.9167587 ], [ -6.071927, 36.9168428 ], [ -6.0715027, 36.9170732 ], [ -6.0711829, 36.9171697 ], [ -6.0702473, 36.9173822 ], [ -6.0695829, 36.9174757 ], [ -6.0692767, 36.9175456 ], [ -6.0688406, 36.9176837 ], [ -6.0688408, 36.9176879 ], [ -6.0685374, 36.9178035 ], [ -6.0684918, 36.9178108 ], [ -6.0683501, 36.9178613 ], [ -6.0683488, 36.9178661 ], [ -6.0672491, 36.9182894 ], [ -6.0665374, 36.918432 ], [ -6.0664486, 36.9184439 ], [ -6.0657951, 36.9185817 ], [ -6.0657236, 36.9186054 ], [ -6.0649377, 36.9188522 ], [ -6.0644363, 36.9190294 ], [ -6.0648291, 36.9198629 ], [ -6.0648361, 36.9198666 ], [ -6.064853, 36.9198949 ], [ -6.0648476, 36.9198983 ], [ -6.064863, 36.9199161 ], [ -6.06486, 36.9200987 ], [ -6.0648638, 36.920194 ] ] ] } },
{ "type": "Feature", "properties": { "CCAA": "01 - Andalucía", "PROVINCIA": "41 - Sevilla", "MUNICIPIO": "41053 - Lebrija", "COD_MUNICIPIO": "41053", "DISTRITO": "02", "SECCION": "4105302004", "V1_H": 78.77, "V1_M": 84.85, "V2_H": 78.83270398000001, "V2_M": 84.81764444, "V3_H": 78.82199574000001, "V3_M": 85.12573797 }, "geometry": { "type": "Polygon", "coordinates": [ [ [ -6.0806788, 36.9112438 ], [ -6.0807054, 36.9112987 ], [ -6.0806638, 36.9118863 ], [ -6.0806666, 36.9121771 ], [ -6.0807153, 36.9124285 ], [ -6.0808108, 36.912736 ], [ -6.0809394, 36.9130545 ], [ -6.0811262, 36.9136385 ], [ -6.0812521, 36.9140358 ], [ -6.0812828, 36.914209 ], [ -6.0814554, 36.9146599 ], [ -6.0816017, 36.9150495 ], [ -6.0817366, 36.9153035 ], [ -6.081884, 36.9157193 ], [ -6.0822352, 36.9164737 ], [ -6.0825969, 36.9162181 ], [ -6.0833242, 36.9156927 ], [ -6.083396, 36.9156506 ], [ -6.0839413, 36.9152438 ], [ -6.084192, 36.9150461 ], [ -6.0844478, 36.9148444 ], [ -6.0845731, 36.9147124 ], [ -6.0846634, 36.9145956 ], [ -6.0848272, 36.914474 ], [ -6.0848364, 36.9144672 ], [ -6.0849942, 36.9143854 ], [ -6.0850241, 36.9143566 ], [ -6.085434, 36.9140463 ], [ -6.0857934, 36.9137557 ], [ -6.0858262, 36.9136833 ], [ -6.0861665, 36.9131404 ], [ -6.0862116, 36.9130476 ], [ -6.086291, 36.9129329 ], [ -6.0865884, 36.9124118 ], [ -6.0867778, 36.9121041 ], [ -6.0869411, 36.911809 ], [ -6.0871701, 36.9113763 ], [ -6.0872806, 36.9112447 ], [ -6.0874177, 36.9111124 ], [ -6.0875564, 36.9110053 ], [ -6.0875636, 36.910998 ], [ -6.0876367, 36.9109469 ], [ -6.088008, 36.9106559 ], [ -6.0884521, 36.9103321 ], [ -6.0885583, 36.9102411 ], [ -6.0886574, 36.9101217 ], [ -6.0888785, 36.9098608 ], [ -6.0889809, 36.9097199 ], [ -6.0890183, 36.9096794 ], [ -6.0892123, 36.9093777 ], [ -6.0893309, 36.9092173 ], [ -6.0893584, 36.9091507 ], [ -6.0895918, 36.908705 ], [ -6.0896861, 36.9083926 ], [ -6.0897739, 36.9082139 ], [ -6.0898272, 36.9080133 ], [ -6.0898753, 36.9078967 ], [ -6.0900019, 36.9072424 ], [ -6.0900686, 36.9069832 ], [ -6.0901407, 36.9067095 ], [ -6.090224, 36.9064189 ], [ -6.0903329, 36.9061752 ], [ -6.0906786, 36.9055668 ], [ -6.0906751, 36.9055646 ], [ -6.0906954, 36.9055221 ], [ -6.0899461, 36.9050505 ], [ -6.0895866, 36.9048238 ], [ -6.0892153, 36.9045974 ], [ -6.0883741, 36.9040567 ], [ -6.087378, 36.9034293 ], [ -6.0870766, 36.9032417 ], [ -6.0866871, 36.9030062 ], [ -6.085765, 36.9023722 ], [ -6.0854632, 36.9021774 ], [ -6.0853987, 36.9021242 ], [ -6.0853106, 36.9020001 ], [ -6.0850811, 36.9016819 ], [ -6.0849054, 36.901448 ], [ -6.084765, 36.9012776 ], [ -6.0846663, 36.9011366 ], [ -6.0844429, 36.9008735 ], [ -6.0842353, 36.9005833 ], [ -6.0840169, 36.9002976 ], [ -6.0840098, 36.9002994 ], [ -6.0838945, 36.9001558 ], [ -6.0837652, 36.9001878 ], [ -6.0832835, 36.9003887 ], [ -6.0830016, 36.9004651 ], [ -6.0827975, 36.9004847 ], [ -6.082614, 36.900499 ], [ -6.0819136, 36.9005029 ], [ -6.0815453, 36.9004982 ], [ -6.0810135, 36.9004882 ], [ -6.0807455, 36.9004665 ], [ -6.0802149, 36.9004111 ], [ -6.0796018, 36.9003722 ], [ -6.0794617, 36.9003591 ], [ -6.0794516, 36.9003848 ], [ -6.0794504, 36.9003846 ], [ -6.0793993, 36.9005501 ], [ -6.0793996, 36.9005575 ], [ -6.0793447, 36.9007723 ], [ -6.0793787, 36.9011743 ], [ -6.0794411, 36.90159 ], [ -6.0794427, 36.9016299 ], [ -6.079458, 36.901668 ], [ -6.0794653, 36.9018515 ], [ -6.0795955, 36.9021342 ], [ -6.0797149, 36.9023115 ], [ -6.0797355, 36.9023632 ], [ -6.0798991, 36.9025984 ], [ -6.0802226, 36.9031122 ], [ -6.0803039, 36.9032889 ], [ -6.0803382, 36.9033816 ], [ -6.0803798, 36.9034473 ], [ -6.0804956, 36.9037691 ], [ -6.0804979, 36.9037864 ], [ -6.0805195, 36.9039448 ], [ -6.0810618, 36.9047755 ], [ -6.0812056, 36.9050226 ], [ -6.0812058, 36.9050229 ], [ -6.0813523, 36.9053645 ], [ -6.0814749, 36.9056107 ], [ -6.0815118, 36.9057284 ], [ -6.08152, 36.9062113 ], [ -6.0815008, 36.9063977 ], [ -6.0814636, 36.9065823 ], [ -6.0814141, 36.9067528 ], [ -6.0813054, 36.9070751 ], [ -6.0812526, 36.9072386 ], [ -6.0811022, 36.9076335 ], [ -6.0810386, 36.9078429 ], [ -6.0810497, 36.9078391 ], [ -6.0809509, 36.9081524 ], [ -6.0808527, 36.9085889 ], [ -6.080867, 36.9090176 ], [ -6.0808835, 36.9093558 ], [ -6.080902, 36.9095937 ], [ -6.080913, 36.9097015 ], [ -6.080904, 36.9099608 ], [ -6.080864, 36.9101537 ], [ -6.0808026, 36.9105905 ], [ -6.0807073, 36.9111723 ], [ -6.0806852, 36.9112353 ], [ -6.0806788, 36.9112438 ] ] ] } },
{ "type": "Feature", "properties": { "CCAA": "01 - Andalucía", "PROVINCIA": "41 - Sevilla", "MUNICIPIO": "41053 - Lebrija", "COD_MUNICIPIO": "41053", "DISTRITO": "04", "SECCION": "4105304001", "V1_H": 79.47, "V1_M": 85.31, "V2_H": 79.34656828, "V2_M": 85.44731594, "V3_H": 79.76976452, "V3_M": 85.31663719 }, "geometry": { "type": "Polygon", "coordinates": [ [ [ -6.0747888, 36.9231625 ], [ -6.076806, 36.9233806 ], [ -6.0778142, 36.9234536 ], [ -6.0791656, 36.9233704 ], [ -6.0792058, 36.9233679 ], [ -6.0802272, 36.9232603 ], [ -6.0803876, 36.9231372 ], [ -6.0804063, 36.9231228 ], [ -6.0804016, 36.9230058 ], [ -6.0803925, 36.9227785 ], [ -6.0803323, 36.9223024 ], [ -6.0802681, 36.9217274 ], [ -6.0801107, 36.9213846 ], [ -6.0800796, 36.9211218 ], [ -6.0802158, 36.9209249 ], [ -6.0804395, 36.9208864 ], [ -6.0803983, 36.9208473 ], [ -6.080402, 36.9208467 ], [ -6.0801501, 36.9205787 ], [ -6.0799355, 36.9206861 ], [ -6.0796816, 36.9208691 ], [ -6.0794971, 36.9210074 ], [ -6.0794808, 36.9209775 ], [ -6.0788518, 36.921451 ], [ -6.0782422, 36.9215975 ], [ -6.0778964, 36.9216718 ], [ -6.0766636, 36.922134 ], [ -6.0751966, 36.9228951 ], [ -6.0748158, 36.923119 ], [ -6.0747888, 36.9231625 ] ] ] } },
{ "type": "Feature", "properties": { "CCAA": "01 - Andalucía", "PROVINCIA": "41 - Sevilla", "MUNICIPIO": "41053 - Lebrija", "COD_MUNICIPIO": "41053", "DISTRITO": "04", "SECCION": "4105304009", "V1_H": 79.36, "V1_M": 85.46, "V2_H": 79.32780616, "V2_M": 85.51002556, "V3_H": 79.53169609, "V3_M": 85.5666933 }, "geometry": { "type": "Polygon", "coordinates": [ [ [ -6.0791656, 36.9233704 ], [ -6.0778142, 36.9234536 ], [ -6.076806, 36.9233806 ], [ -6.0747888, 36.9231625 ], [ -6.0747193, 36.9232702 ], [ -6.0745388, 36.923374 ], [ -6.0740847, 36.9238137 ], [ -6.0738057, 36.9240192 ], [ -6.0733118, 36.9244938 ], [ -6.0730433, 36.9249603 ], [ -6.072738, 36.9255292 ], [ -6.0726365, 36.9260109 ], [ -6.0725915, 36.9262245 ], [ -6.0723455, 36.9267422 ], [ -6.0720864, 36.926963 ], [ -6.0717307, 36.9272673 ], [ -6.0703819, 36.9284218 ], [ -6.0695216, 36.9289711 ], [ -6.0686232, 36.9295891 ], [ -6.0681253, 36.9299646 ], [ -6.0676928, 36.9304353 ], [ -6.067535, 36.9305796 ], [ -6.0674905, 36.9306737 ], [ -6.0674223, 36.9307518 ], [ -6.0673653, 36.9307381 ], [ -6.0669017, 36.931099 ], [ -6.0661322, 36.9320535 ], [ -6.0656797, 36.9326183 ], [ -6.0653848, 36.9332648 ], [ -6.0651746, 36.9336517 ], [ -6.0649047, 36.9340306 ], [ -6.0647722, 36.934282 ], [ -6.0646179, 36.9345816 ], [ -6.0645758, 36.9350119 ], [ -6.0645746, 36.9355746 ], [ -6.0647709, 36.9360272 ], [ -6.0650733, 36.9364581 ], [ -6.0649228, 36.9371486 ], [ -6.0648592, 36.9376366 ], [ -6.0647891, 36.9379627 ], [ -6.0644142, 36.938392 ], [ -6.0641367, 36.9385803 ], [ -6.0638932, 36.9387297 ], [ -6.0637491, 36.9392865 ], [ -6.0636568, 36.9396513 ], [ -6.0638677, 36.9401704 ], [ -6.0639259, 36.9407315 ], [ -6.0637524, 36.9411461 ], [ -6.0635379, 36.9414282 ], [ -6.0632994, 36.9417013 ], [ -6.062653, 36.9424714 ], [ -6.0622127, 36.9430454 ], [ -6.0615104, 36.9439028 ], [ -6.0612944, 36.9441468 ], [ -6.0611933, 36.9443323 ], [ -6.0599419, 36.9457015 ], [ -6.0587789, 36.9466101 ], [ -6.0588126, 36.9466601 ], [ -6.0579507, 36.9472847 ], [ -6.0568417, 36.9480762 ], [ -6.0552459, 36.9491759 ], [ -6.0556613, 36.9494608 ], [ -6.0567952, 36.9507763 ], [ -6.0579506, 36.9520339 ], [ -6.0584475, 36.9525742 ], [ -6.0602174, 36.9543405 ], [ -6.0612986, 36.9555238 ], [ -6.061946, 36.9562605 ], [ -6.0627172, 36.9571179 ], [ -6.0628073, 36.9572193 ], [ -6.0627791, 36.9572504 ], [ -6.0640592, 36.9585805 ], [ -6.0681552, 36.9564148 ], [ -6.070074, 36.9554629 ], [ -6.0715301, 36.9546654 ], [ -6.0716886, 36.9545893 ], [ -6.0714496, 36.9542066 ], [ -6.0711387, 36.9535662 ], [ -6.0708109, 36.9525065 ], [ -6.0703591, 36.9507254 ], [ -6.0702948, 36.9467598 ], [ -6.0704909, 36.9445423 ], [ -6.0709244, 36.9423186 ], [ -6.0715982, 36.9389824 ], [ -6.072246, 36.9373635 ], [ -6.072736, 36.9365497 ], [ -6.0731571, 36.935795 ], [ -6.0755259, 36.9320716 ], [ -6.0774887, 36.9288927 ], [ -6.0773794, 36.9282423 ], [ -6.076725, 36.9283642 ], [ -6.0757353, 36.9284184 ], [ -6.0751405, 36.9283957 ], [ -6.0748211, 36.92828 ], [ -6.0744928, 36.928093 ], [ -6.0746676, 36.9278596 ], [ -6.0748498, 36.9276641 ], [ -6.0768193, 36.9268692 ], [ -6.0774134, 36.9265773 ], [ -6.0790619, 36.9259242 ], [ -6.0794592, 36.9257613 ], [ -6.0794051, 36.9255958 ], [ -6.0792022, 36.9252768 ], [ -6.0793425, 36.9252207 ], [ -6.0787016, 36.9242026 ], [ -6.0789456, 36.9240676 ], [ -6.0791447, 36.9239956 ], [ -6.0791656, 36.9233704 ] ] ] } },
{ "type": "Feature", "properties": { "CCAA": "01 - Andalucía", "PROVINCIA": "41 - Sevilla", "MUNICIPIO": "41053 - Lebrija", "COD_MUNICIPIO": "41053", "DISTRITO": "04", "SECCION": "4105304010", "V1_H": 78.9, "V1_M": 84.87, "V2_H": 79.02373168, "V2_M": 85.07467156, "V3_H": 78.82484982, "V3_M": 84.79604014 }, "geometry": { "type": "Polygon", "coordinates": [ [ [ -6.0791656, 36.9233704 ], [ -6.0791447, 36.9239956 ], [ -6.0789456, 36.9240676 ], [ -6.0787016, 36.9242026 ], [ -6.0793425, 36.9252207 ], [ -6.0792022, 36.9252768 ], [ -6.0794051, 36.9255958 ], [ -6.0794592, 36.9257613 ], [ -6.0790619, 36.9259242 ], [ -6.0774134, 36.9265773 ], [ -6.0768193, 36.9268692 ], [ -6.0748498, 36.9276641 ], [ -6.0746676, 36.9278596 ], [ -6.0744928, 36.928093 ], [ -6.0748211, 36.92828 ], [ -6.0751405, 36.9283957 ], [ -6.0757353, 36.9284184 ], [ -6.076725, 36.9283642 ], [ -6.0773794, 36.9282423 ], [ -6.0774887, 36.9288927 ], [ -6.0755259, 36.9320716 ], [ -6.0731571, 36.935795 ], [ -6.072736, 36.9365497 ], [ -6.072246, 36.9373635 ], [ -6.0715982, 36.9389824 ], [ -6.0709244, 36.9423186 ], [ -6.0704909, 36.9445423 ], [ -6.0702948, 36.9467598 ], [ -6.0703591, 36.9507254 ], [ -6.0708109, 36.9525065 ], [ -6.0711387, 36.9535662 ], [ -6.0714496, 36.9542066 ], [ -6.0716886, 36.9545893 ], [ -6.0744768, 36.953251 ], [ -6.0779841, 36.9522905 ], [ -6.0821231, 36.951478 ], [ -6.0851691, 36.9504618 ], [ -6.0870339, 36.9496429 ], [ -6.0886522, 36.9483956 ], [ -6.0904261, 36.9458399 ], [ -6.0911499, 36.9431088 ], [ -6.0910986, 36.9418374 ], [ -6.0906339, 36.9401419 ], [ -6.0901646, 36.9388498 ], [ -6.0876974, 36.9345596 ], [ -6.0868131, 36.9325011 ], [ -6.0866265, 36.9315801 ], [ -6.0866455, 36.9304645 ], [ -6.0868554, 36.9298418 ], [ -6.0867589, 36.9297227 ], [ -6.0861867, 36.9297375 ], [ -6.0859366, 36.9293453 ], [ -6.08564, 36.9290389 ], [ -6.0852827, 36.92877 ], [ -6.0846013, 36.9280725 ], [ -6.0840079, 36.9274967 ], [ -6.083723, 36.9272084 ], [ -6.0833379, 36.9267893 ], [ -6.0827066, 36.9261572 ], [ -6.0819996, 36.9254469 ], [ -6.0816812, 36.9251712 ], [ -6.0816797, 36.9251336 ], [ -6.0803876, 36.9231372 ], [ -6.0802272, 36.9232603 ], [ -6.0792058, 36.9233679 ], [ -6.0791656, 36.9233704 ] ] ] } }
]
}
