{
"type": "FeatureCollection",
"name": "41074",
"features": [
{ "type": "Feature", "properties": { "CCAA": "01 - Andalucía", "PROVINCIA": "41 - Sevilla", "MUNICIPIO": "41074 - Peñaflor", "COD_MUNICIPIO": "41074", "DISTRITO": "01", "SECCION": "4107401002", "V1_H": 79.29, "V1_M": 85.18, "V2_H": 79.29248013, "V2_M": 85.31775581, "V3_H": 79.43295666, "V3_M": 85.21995842 }, "geometry": { "type": "Polygon", "coordinates": [ [ [ -5.3448062, 37.7113047 ], [ -5.3450063, 37.7119397 ], [ -5.3450838, 37.7119215 ], [ -5.3452418, 37.7118897 ], [ -5.3456741, 37.7117976 ], [ -5.3454551, 37.7111344 ], [ -5.3465207, 37.7109487 ], [ -5.346549, 37.7111155 ], [ -5.3465524, 37.7111149 ], [ -5.3465529, 37.711115 ], [ -5.3465545, 37.711165 ], [ -5.3473411, 37.7111448 ], [ -5.3473839, 37.7111464 ], [ -5.3476383, 37.7106069 ], [ -5.3479696, 37.7103595 ], [ -5.3482803, 37.7102174 ], [ -5.3485462, 37.7100858 ], [ -5.3485706, 37.7100972 ], [ -5.3487484, 37.7103106 ], [ -5.3489549, 37.7105759 ], [ -5.349268, 37.7104195 ], [ -5.3495988, 37.7102507 ], [ -5.3497926, 37.7103995 ], [ -5.3501428, 37.7107501 ], [ -5.3504437, 37.7110676 ], [ -5.350449, 37.7110662 ], [ -5.3505301, 37.7111334 ], [ -5.3506155, 37.7110817 ], [ -5.3506775, 37.7110494 ], [ -5.3507717, 37.7109927 ], [ -5.3508256, 37.7109642 ], [ -5.3510382, 37.7109065 ], [ -5.3511169, 37.7108976 ], [ -5.3511618, 37.7108943 ], [ -5.3513267, 37.7108886 ], [ -5.3514466, 37.7108862 ], [ -5.3515851, 37.7109002 ], [ -5.3517269, 37.7109212 ], [ -5.3518747, 37.7109468 ], [ -5.3520917, 37.7109735 ], [ -5.3521818, 37.7109765 ], [ -5.3522773, 37.7109603 ], [ -5.352385, 37.7109486 ], [ -5.3527939, 37.7099295 ], [ -5.353128, 37.7090096 ], [ -5.3528882, 37.7080703 ], [ -5.3530465, 37.708048 ], [ -5.3539232, 37.7079638 ], [ -5.3534855, 37.7076959 ], [ -5.3536516, 37.7075376 ], [ -5.3534317, 37.707418 ], [ -5.3532698, 37.7073283 ], [ -5.3534869, 37.707076 ], [ -5.3540407, 37.7065571 ], [ -5.3539412, 37.7065424 ], [ -5.3536695, 37.7065859 ], [ -5.3529485, 37.7067505 ], [ -5.3526117, 37.706824 ], [ -5.3524319, 37.7068348 ], [ -5.352173, 37.7068066 ], [ -5.3519511, 37.7067677 ], [ -5.3519465, 37.7067638 ], [ -5.3518409, 37.706744 ], [ -5.351684, 37.7067186 ], [ -5.3516237, 37.7067078 ], [ -5.3516105, 37.70667 ], [ -5.3515809, 37.7065895 ], [ -5.3515523, 37.70654 ], [ -5.351503, 37.7064981 ], [ -5.3514287, 37.706428 ], [ -5.3514091, 37.7064078 ], [ -5.3513939, 37.7064008 ], [ -5.3512036, 37.7062346 ], [ -5.3511094, 37.7061983 ], [ -5.351022, 37.7061882 ], [ -5.3508326, 37.7061776 ], [ -5.3506706, 37.7061785 ], [ -5.3505656, 37.7061782 ], [ -5.3504899, 37.7061582 ], [ -5.3503415, 37.7061159 ], [ -5.3500295, 37.706022 ], [ -5.3499809, 37.7060063 ], [ -5.3493526, 37.7060641 ], [ -5.34897, 37.7061123 ], [ -5.348941, 37.7059555 ], [ -5.3488836, 37.7056586 ], [ -5.3488239, 37.7052878 ], [ -5.3488094, 37.7052094 ], [ -5.3480337, 37.7055444 ], [ -5.3476996, 37.7057036 ], [ -5.3470275, 37.7059912 ], [ -5.3470666, 37.7060415 ], [ -5.3470579, 37.7060447 ], [ -5.3472776, 37.7063081 ], [ -5.3474946, 37.7065279 ], [ -5.3475696, 37.7066242 ], [ -5.3475967, 37.7067214 ], [ -5.3476742, 37.70718 ], [ -5.3476598, 37.7073877 ], [ -5.3476579, 37.7076143 ], [ -5.3476669, 37.7078048 ], [ -5.3476936, 37.7078901 ], [ -5.3477722, 37.708003 ], [ -5.3479451, 37.7081569 ], [ -5.3481479, 37.7083055 ], [ -5.348353, 37.7083395 ], [ -5.3487609, 37.7083314 ], [ -5.3490252, 37.7083357 ], [ -5.3491828, 37.708385 ], [ -5.3492321, 37.7084269 ], [ -5.3493316, 37.7085346 ], [ -5.3492187, 37.7085916 ], [ -5.3492237, 37.7085952 ], [ -5.3488477, 37.7087016 ], [ -5.3483666, 37.7088638 ], [ -5.3481884, 37.7089246 ], [ -5.3481547, 37.7089968 ], [ -5.3480117, 37.7090282 ], [ -5.3477323, 37.7091149 ], [ -5.3471869, 37.70914 ], [ -5.3463036, 37.70911 ], [ -5.3456372, 37.7091041 ], [ -5.3450249, 37.709102 ], [ -5.3447671, 37.7091119 ], [ -5.3443943, 37.7090907 ], [ -5.3439708, 37.7089847 ], [ -5.3439037, 37.7089527 ], [ -5.3438171, 37.7088686 ], [ -5.3436269, 37.7087388 ], [ -5.3429314, 37.7083807 ], [ -5.3425286, 37.7081694 ], [ -5.342504, 37.7081508 ], [ -5.3424299, 37.7080855 ], [ -5.3423434, 37.7080085 ], [ -5.3422974, 37.7078807 ], [ -5.3422582, 37.7077789 ], [ -5.3422386, 37.7077293 ], [ -5.342017, 37.7077425 ], [ -5.3420177, 37.7077352 ], [ -5.3419022, 37.7077193 ], [ -5.3413521, 37.7075967 ], [ -5.3406736, 37.7075863 ], [ -5.3401542, 37.7075826 ], [ -5.3401543, 37.7075905 ], [ -5.3396108, 37.707574 ], [ -5.3386125, 37.7075128 ], [ -5.3385909, 37.7075895 ], [ -5.3384617, 37.7080594 ], [ -5.3384483, 37.7082075 ], [ -5.3384093, 37.7086851 ], [ -5.3384517, 37.7088893 ], [ -5.3385581, 37.7090255 ], [ -5.3388062, 37.7092828 ], [ -5.3389653, 37.7095706 ], [ -5.3390133, 37.7097603 ], [ -5.3390562, 37.7099789 ], [ -5.3390812, 37.7102025 ], [ -5.3411691, 37.7100705 ], [ -5.3411687, 37.7100733 ], [ -5.3420349, 37.710027 ], [ -5.3420772, 37.7103242 ], [ -5.3421372, 37.710323 ], [ -5.3424068, 37.7103057 ], [ -5.3425057, 37.7103014 ], [ -5.3425759, 37.7103405 ], [ -5.3427593, 37.7104441 ], [ -5.342986, 37.7105922 ], [ -5.3434515, 37.7108882 ], [ -5.3435928, 37.711181 ], [ -5.343397, 37.711254 ], [ -5.3432076, 37.7113365 ], [ -5.3432459, 37.7115389 ], [ -5.3443697, 37.7113461 ], [ -5.3443715, 37.7113502 ], [ -5.3447959, 37.7112644 ], [ -5.3448062, 37.7113047 ] ] ] } },
{ "type": "Feature", "properties": { "CCAA": "01 - Andalucía", "PROVINCIA": "41 - Sevilla", "MUNICIPIO": "41074 - Peñaflor", "COD_MUNICIPIO": "41074", "DISTRITO": "01", "SECCION": "4107401001", "V1_H": 79.2, "V1_M": 85.22, "V2_H": 79.18248439, "V2_M": 85.25623492, "V3_H": 79.42953696, "V3_M": 85.41396632 }, "geometry": { "type": "Polygon", "coordinates": [ [ [ -5.3076128, 37.7360959 ], [ -5.3077167, 37.7368869 ], [ -5.3081345, 37.7386449 ], [ -5.3086522, 37.7399685 ], [ -5.3093045, 37.7419743 ], [ -5.3098965, 37.7442245 ], [ -5.3102477, 37.7467589 ], [ -5.3106363, 37.7475803 ], [ -5.3117375, 37.7494151 ], [ -5.3128895, 37.7528799 ], [ -5.3132098, 37.7533242 ], [ -5.3135582, 37.7535787 ], [ -5.3142455, 37.7537815 ], [ -5.31536, 37.7542192 ], [ -5.3159988, 37.7546842 ], [ -5.3166255, 37.7554919 ], [ -5.3175962, 37.7564101 ], [ -5.3182567, 37.7572081 ], [ -5.3186747, 37.7582362 ], [ -5.3184801, 37.7592763 ], [ -5.3180237, 37.7595646 ], [ -5.3171381, 37.759555 ], [ -5.3164249, 37.7596141 ], [ -5.3160448, 37.7598018 ], [ -5.3158838, 37.7604628 ], [ -5.3159766, 37.761254 ], [ -5.3160417, 37.7626134 ], [ -5.3157634, 37.7638805 ], [ -5.3151255, 37.7649023 ], [ -5.3142983, 37.7656755 ], [ -5.313657, 37.7658593 ], [ -5.3125444, 37.7658541 ], [ -5.3111913, 37.7657815 ], [ -5.3105312, 37.7660918 ], [ -5.3099149, 37.7667167 ], [ -5.3095094, 37.7675447 ], [ -5.3092637, 37.7684056 ], [ -5.3092406, 37.7694874 ], [ -5.3092949, 37.7705046 ], [ -5.309754, 37.7735866 ], [ -5.3100352, 37.7742298 ], [ -5.3104269, 37.7744114 ], [ -5.3110611, 37.774363 ], [ -5.3120769, 37.7741718 ], [ -5.3136982, 37.7741039 ], [ -5.3155018, 37.77442 ], [ -5.3171945, 37.7748193 ], [ -5.3185762, 37.7754409 ], [ -5.3196872, 37.7761129 ], [ -5.3206215, 37.7769506 ], [ -5.3209843, 37.7769344 ], [ -5.321344, 37.7768192 ], [ -5.3217177, 37.7764243 ], [ -5.3222127, 37.7762794 ], [ -5.322896, 37.7763471 ], [ -5.325693, 37.7772021 ], [ -5.3268689, 37.7774131 ], [ -5.328724, 37.7779172 ], [ -5.3293931, 37.7782554 ], [ -5.3296784, 37.7786643 ], [ -5.3294353, 37.7810481 ], [ -5.3294514, 37.7819219 ], [ -5.3307458, 37.7815629 ], [ -5.3331826, 37.7807036 ], [ -5.3355833, 37.779782 ], [ -5.3369344, 37.7790613 ], [ -5.3397885, 37.7777611 ], [ -5.3413534, 37.7769821 ], [ -5.3422219, 37.7764422 ], [ -5.3437603, 37.775186 ], [ -5.3469682, 37.7746716 ], [ -5.3501128, 37.7739511 ], [ -5.3509688, 37.7737358 ], [ -5.3524951, 37.7724618 ], [ -5.3538223, 37.7713539 ], [ -5.3543219, 37.7710015 ], [ -5.3567978, 37.7692489 ], [ -5.3572876, 37.7689417 ], [ -5.3578714, 37.7687407 ], [ -5.3588417, 37.7685501 ], [ -5.363144, 37.7681936 ], [ -5.364199, 37.7681724 ], [ -5.3651143, 37.7683973 ], [ -5.3665613, 37.768918 ], [ -5.3674588, 37.7692965 ], [ -5.368777, 37.7693421 ], [ -5.3700204, 37.7691729 ], [ -5.3721398, 37.7690672 ], [ -5.3760987, 37.7689784 ], [ -5.3779819, 37.7689404 ], [ -5.3786835, 37.7688722 ], [ -5.3800673, 37.7684838 ], [ -5.384459, 37.7670253 ], [ -5.3864781, 37.7662725 ], [ -5.3875186, 37.7658008 ], [ -5.3882269, 37.7659397 ], [ -5.390406, 37.7666344 ], [ -5.3915515, 37.7666022 ], [ -5.3929715, 37.7666365 ], [ -5.3936268, 37.7661906 ], [ -5.3941748, 37.7659361 ], [ -5.3948037, 37.7657251 ], [ -5.3959334, 37.765558 ], [ -5.3963727, 37.7654499 ], [ -5.3968378, 37.765089 ], [ -5.3991842, 37.7628786 ], [ -5.4016246, 37.7607743 ], [ -5.4032193, 37.7595432 ], [ -5.404872, 37.7583561 ], [ -5.4063535, 37.7574878 ], [ -5.4074411, 37.7570781 ], [ -5.4089374, 37.756669 ], [ -5.4113936, 37.7561141 ], [ -5.4160552, 37.7546219 ], [ -5.4185563, 37.7537055 ], [ -5.420883, 37.7530089 ], [ -5.4243602, 37.7520994 ], [ -5.4242143, 37.7514536 ], [ -5.4244267, 37.7499623 ], [ -5.4243693, 37.7495941 ], [ -5.4238167, 37.7486592 ], [ -5.4240223, 37.7469609 ], [ -5.4251941, 37.7449633 ], [ -5.4255025, 37.7446776 ], [ -5.4272682, 37.7441907 ], [ -5.4278342, 37.7438005 ], [ -5.4287612, 37.7423036 ], [ -5.4288354, 37.7417974 ], [ -5.4290161, 37.7414243 ], [ -5.4294547, 37.7409557 ], [ -5.4296602, 37.740645 ], [ -5.4296813, 37.7402481 ], [ -5.4295106, 37.7395397 ], [ -5.4292655, 37.7389861 ], [ -5.4287591, 37.7384198 ], [ -5.4287375, 37.7381048 ], [ -5.4290896, 37.7374217 ], [ -5.429062, 37.7369267 ], [ -5.4287416, 37.7361493 ], [ -5.4277682, 37.7344843 ], [ -5.4262074, 37.7318581 ], [ -5.4259889, 37.731421 ], [ -5.4256508, 37.7307972 ], [ -5.4255202, 37.7302682 ], [ -5.4255049, 37.7297999 ], [ -5.4253013, 37.7294707 ], [ -5.4248828, 37.7291639 ], [ -5.4244682, 37.7289742 ], [ -5.4232699, 37.7273678 ], [ -5.4222019, 37.7245332 ], [ -5.4216983, 37.723354 ], [ -5.4213179, 37.7217759 ], [ -5.4213135, 37.7212893 ], [ -5.4216995, 37.7202541 ], [ -5.4216183, 37.7198503 ], [ -5.419898, 37.7175337 ], [ -5.4197266, 37.7167983 ], [ -5.4196413, 37.715223 ], [ -5.4195063, 37.7145589 ], [ -5.4196518, 37.7141505 ], [ -5.4210659, 37.7119407 ], [ -5.4227238, 37.7092123 ], [ -5.4231107, 37.7075102 ], [ -5.4232267, 37.7065436 ], [ -5.4231247, 37.7044551 ], [ -5.4228743, 37.7037303 ], [ -5.4221936, 37.7026809 ], [ -5.4222647, 37.7020757 ], [ -5.4228891, 37.7007022 ], [ -5.4228344, 37.700415 ], [ -5.4225227, 37.6998987 ], [ -5.4212862, 37.6988428 ], [ -5.4206145, 37.698415 ], [ -5.4201074, 37.6981641 ], [ -5.4198844, 37.6979344 ], [ -5.4197825, 37.6972426 ], [ -5.4197635, 37.6966572 ], [ -5.4195076, 37.6957614 ], [ -5.4192706, 37.6950994 ], [ -5.4191351, 37.6947687 ], [ -5.418892, 37.6942691 ], [ -5.4185479, 37.6937986 ], [ -5.4184902, 37.6930698 ], [ -5.418685, 37.6920836 ], [ -5.4190702, 37.6917242 ], [ -5.4204959, 37.690929 ], [ -5.4209217, 37.6904246 ], [ -5.4216328, 37.6885808 ], [ -5.4215531, 37.6882219 ], [ -5.421216, 37.6879675 ], [ -5.4206413, 37.6880785 ], [ -5.4202874, 37.6880046 ], [ -5.4199741, 37.6877858 ], [ -5.4188953, 37.6877358 ], [ -5.4183867, 37.6874399 ], [ -5.4177712, 37.6869929 ], [ -5.417568, 37.6866727 ], [ -5.4171766, 37.6864915 ], [ -5.4162645, 37.6863389 ], [ -5.4157372, 37.6861605 ], [ -5.4151944, 37.6858562 ], [ -5.4143955, 37.6849985 ], [ -5.4136284, 37.6844195 ], [ -5.4122348, 37.6837541 ], [ -5.4119094, 37.6835084 ], [ -5.411291, 37.6850711 ], [ -5.4104727, 37.6867639 ], [ -5.4094016, 37.6883537 ], [ -5.4080383, 37.6900307 ], [ -5.4069023, 37.6910181 ], [ -5.4054936, 37.691993 ], [ -5.4036897, 37.6930211 ], [ -5.4022776, 37.6935365 ], [ -5.4010733, 37.6938223 ], [ -5.4000316, 37.6938705 ], [ -5.3975099, 37.6933902 ], [ -5.3963476, 37.6932156 ], [ -5.3949879, 37.6932522 ], [ -5.394122, 37.6934771 ], [ -5.3934205, 37.6938788 ], [ -5.3926948, 37.6945874 ], [ -5.3905481, 37.6969559 ], [ -5.3899308, 37.6975091 ], [ -5.3890775, 37.6977787 ], [ -5.3882502, 37.6977955 ], [ -5.3875641, 37.6976201 ], [ -5.3868057, 37.697311 ], [ -5.385902, 37.6967165 ], [ -5.3850479, 37.6958958 ], [ -5.3843417, 37.69509 ], [ -5.383976, 37.6942954 ], [ -5.3836409, 37.693392 ], [ -5.3834029, 37.6919821 ], [ -5.3832703, 37.6903176 ], [ -5.3832181, 37.6886876 ], [ -5.3834273, 37.6867189 ], [ -5.3844472, 37.6838687 ], [ -5.3846238, 37.6830091 ], [ -5.3845369, 37.6820646 ], [ -5.3841501, 37.6813155 ], [ -5.38341, 37.6805104 ], [ -5.3800915, 37.6784958 ], [ -5.3787332, 37.6778564 ], [ -5.3776932, 37.677598 ], [ -5.3763429, 37.6775621 ], [ -5.3751298, 37.67792 ], [ -5.3743208, 37.678504 ], [ -5.3729288, 37.6800099 ], [ -5.372202, 37.6810428 ], [ -5.3703818, 37.6844136 ], [ -5.3699362, 37.6860897 ], [ -5.3696491, 37.6874021 ], [ -5.3687152, 37.6901243 ], [ -5.3681597, 37.6911988 ], [ -5.3670796, 37.6925362 ], [ -5.3638728, 37.6961871 ], [ -5.3627698, 37.6971644 ], [ -5.3615941, 37.697999 ], [ -5.3604714, 37.6987153 ], [ -5.3575118, 37.7001623 ], [ -5.3525152, 37.7024699 ], [ -5.3499302, 37.7035758 ], [ -5.3448367, 37.7053443 ], [ -5.3434635, 37.705678 ], [ -5.3386284, 37.7062967 ], [ -5.3376241, 37.7061003 ], [ -5.3368622, 37.7056738 ], [ -5.3363691, 37.7051429 ], [ -5.3358464, 37.7043873 ], [ -5.3347527, 37.7024264 ], [ -5.3334767, 37.7000727 ], [ -5.3332781, 37.6991664 ], [ -5.3330849, 37.69662 ], [ -5.3327484, 37.6956535 ], [ -5.3322516, 37.6949964 ], [ -5.3315158, 37.6943171 ], [ -5.32817, 37.6921304 ], [ -5.3270994, 37.6916198 ], [ -5.3263512, 37.6916255 ], [ -5.3256972, 37.6917466 ], [ -5.3251438, 37.6921811 ], [ -5.3242686, 37.6932076 ], [ -5.3228947, 37.6946044 ], [ -5.3220551, 37.6956843 ], [ -5.3215754, 37.6966669 ], [ -5.321112, 37.698172 ], [ -5.3207724, 37.6996476 ], [ -5.320283, 37.7006845 ], [ -5.3196413, 37.7012018 ], [ -5.3190046, 37.7015116 ], [ -5.3154491, 37.7016987 ], [ -5.3145951, 37.7015893 ], [ -5.314169, 37.7013814 ], [ -5.3128895, 37.6992617 ], [ -5.3120248, 37.6984406 ], [ -5.3111386, 37.6980254 ], [ -5.310262, 37.6979165 ], [ -5.3093818, 37.6980598 ], [ -5.3084343, 37.6985921 ], [ -5.3076038, 37.6992391 ], [ -5.3070652, 37.7001599 ], [ -5.3067894, 37.7011385 ], [ -5.3066345, 37.7027275 ], [ -5.3067157, 37.7035189 ], [ -5.307145, 37.7041954 ], [ -5.3077357, 37.7045894 ], [ -5.3091141, 37.7051481 ], [ -5.3094358, 37.7056465 ], [ -5.3100378, 37.7067701 ], [ -5.3108112, 37.7079355 ], [ -5.3109685, 37.7086173 ], [ -5.3109275, 37.7091227 ], [ -5.3104381, 37.7097991 ], [ -5.3092481, 37.7109309 ], [ -5.3088737, 37.7116592 ], [ -5.3089793, 37.7121347 ], [ -5.3092074, 37.7125447 ], [ -5.3094289, 37.7130991 ], [ -5.3094064, 37.7138385 ], [ -5.308796, 37.7157338 ], [ -5.3083212, 37.7165181 ], [ -5.3053258, 37.7197938 ], [ -5.3042881, 37.7210847 ], [ -5.3040941, 37.7217824 ], [ -5.3043059, 37.722391 ], [ -5.3056621, 37.7244191 ], [ -5.3059618, 37.7253054 ], [ -5.3062086, 37.7263098 ], [ -5.3062141, 37.7272199 ], [ -5.3057781, 37.7285261 ], [ -5.305113, 37.7297647 ], [ -5.3048057, 37.7304646 ], [ -5.3048888, 37.7309495 ], [ -5.3051865, 37.7314033 ], [ -5.3064654, 37.7331265 ], [ -5.3070382, 37.7340345 ], [ -5.3073632, 37.7350014 ], [ -5.3076128, 37.7360959 ] ], [ [ -5.3450063, 37.7119397 ], [ -5.3448062, 37.7113047 ], [ -5.3447959, 37.7112644 ], [ -5.3443715, 37.7113502 ], [ -5.3443697, 37.7113461 ], [ -5.3432459, 37.7115389 ], [ -5.3432076, 37.7113365 ], [ -5.343397, 37.711254 ], [ -5.3435928, 37.711181 ], [ -5.3434515, 37.7108882 ], [ -5.342986, 37.7105922 ], [ -5.3427593, 37.7104441 ], [ -5.3425759, 37.7103405 ], [ -5.3425057, 37.7103014 ], [ -5.3424068, 37.7103057 ], [ -5.3421372, 37.710323 ], [ -5.3420772, 37.7103242 ], [ -5.3420349, 37.710027 ], [ -5.3411687, 37.7100733 ], [ -5.3411691, 37.7100705 ], [ -5.3390812, 37.7102025 ], [ -5.3390562, 37.7099789 ], [ -5.3390133, 37.7097603 ], [ -5.3389653, 37.7095706 ], [ -5.3388062, 37.7092828 ], [ -5.3385581, 37.7090255 ], [ -5.3384517, 37.7088893 ], [ -5.3384093, 37.7086851 ], [ -5.3384483, 37.7082075 ], [ -5.3384617, 37.7080594 ], [ -5.3385909, 37.7075895 ], [ -5.3386125, 37.7075128 ], [ -5.3396108, 37.707574 ], [ -5.3401543, 37.7075905 ], [ -5.3401542, 37.7075826 ], [ -5.3406736, 37.7075863 ], [ -5.3413521, 37.7075967 ], [ -5.3419022, 37.7077193 ], [ -5.3420177, 37.7077352 ], [ -5.342017, 37.7077425 ], [ -5.3422386, 37.7077293 ], [ -5.3422582, 37.7077789 ], [ -5.3422974, 37.7078807 ], [ -5.3423434, 37.7080085 ], [ -5.3424299, 37.7080855 ], [ -5.342504, 37.7081508 ], [ -5.3425286, 37.7081694 ], [ -5.3429314, 37.7083807 ], [ -5.3436269, 37.7087388 ], [ -5.3438171, 37.7088686 ], [ -5.3439037, 37.7089527 ], [ -5.3439708, 37.7089847 ], [ -5.3443943, 37.7090907 ], [ -5.3447671, 37.7091119 ], [ -5.3450249, 37.709102 ], [ -5.3456372, 37.7091041 ], [ -5.3463036, 37.70911 ], [ -5.3471869, 37.70914 ], [ -5.3477323, 37.7091149 ], [ -5.3480117, 37.7090282 ], [ -5.3481547, 37.7089968 ], [ -5.3481884, 37.7089246 ], [ -5.3483666, 37.7088638 ], [ -5.3488477, 37.7087016 ], [ -5.3492237, 37.7085952 ], [ -5.3492187, 37.7085916 ], [ -5.3493316, 37.7085346 ], [ -5.3492321, 37.7084269 ], [ -5.3491828, 37.708385 ], [ -5.3490252, 37.7083357 ], [ -5.3487609, 37.7083314 ], [ -5.348353, 37.7083395 ], [ -5.3481479, 37.7083055 ], [ -5.3479451, 37.7081569 ], [ -5.3477722, 37.708003 ], [ -5.3476936, 37.7078901 ], [ -5.3476669, 37.7078048 ], [ -5.3476579, 37.7076143 ], [ -5.3476598, 37.7073877 ], [ -5.3476742, 37.70718 ], [ -5.3475967, 37.7067214 ], [ -5.3475696, 37.7066242 ], [ -5.3474946, 37.7065279 ], [ -5.3472776, 37.7063081 ], [ -5.3470579, 37.7060447 ], [ -5.3470666, 37.7060415 ], [ -5.3470275, 37.7059912 ], [ -5.3476996, 37.7057036 ], [ -5.3480337, 37.7055444 ], [ -5.3488094, 37.7052094 ], [ -5.3488239, 37.7052878 ], [ -5.3488836, 37.7056586 ], [ -5.348941, 37.7059555 ], [ -5.34897, 37.7061123 ], [ -5.3493526, 37.7060641 ], [ -5.3499809, 37.7060063 ], [ -5.3500295, 37.706022 ], [ -5.3503415, 37.7061159 ], [ -5.3504899, 37.7061582 ], [ -5.3505656, 37.7061782 ], [ -5.3506706, 37.7061785 ], [ -5.3508326, 37.7061776 ], [ -5.351022, 37.7061882 ], [ -5.3511094, 37.7061983 ], [ -5.3512036, 37.7062346 ], [ -5.3513939, 37.7064008 ], [ -5.3514091, 37.7064078 ], [ -5.3514287, 37.706428 ], [ -5.351503, 37.7064981 ], [ -5.3515523, 37.70654 ], [ -5.3515809, 37.7065895 ], [ -5.3516105, 37.70667 ], [ -5.3516237, 37.7067078 ], [ -5.351684, 37.7067186 ], [ -5.3518409, 37.706744 ], [ -5.3519465, 37.7067638 ], [ -5.3519511, 37.7067677 ], [ -5.352173, 37.7068066 ], [ -5.3524319, 37.7068348 ], [ -5.3526117, 37.706824 ], [ -5.3529485, 37.7067505 ], [ -5.3536695, 37.7065859 ], [ -5.3539412, 37.7065424 ], [ -5.3540407, 37.7065571 ], [ -5.3534869, 37.707076 ], [ -5.3532698, 37.7073283 ], [ -5.3534317, 37.707418 ], [ -5.3536516, 37.7075376 ], [ -5.3534855, 37.7076959 ], [ -5.3539232, 37.7079638 ], [ -5.3530465, 37.708048 ], [ -5.3528882, 37.7080703 ], [ -5.353128, 37.7090096 ], [ -5.3527939, 37.7099295 ], [ -5.352385, 37.7109486 ], [ -5.3522773, 37.7109603 ], [ -5.3521818, 37.7109765 ], [ -5.3520917, 37.7109735 ], [ -5.3518747, 37.7109468 ], [ -5.3517269, 37.7109212 ], [ -5.3515851, 37.7109002 ], [ -5.3514466, 37.7108862 ], [ -5.3513267, 37.7108886 ], [ -5.3511618, 37.7108943 ], [ -5.3511169, 37.7108976 ], [ -5.3510382, 37.7109065 ], [ -5.3508256, 37.7109642 ], [ -5.3507717, 37.7109927 ], [ -5.3506775, 37.7110494 ], [ -5.3506155, 37.7110817 ], [ -5.3505301, 37.7111334 ], [ -5.350449, 37.7110662 ], [ -5.3504437, 37.7110676 ], [ -5.3501428, 37.7107501 ], [ -5.3497926, 37.7103995 ], [ -5.3495988, 37.7102507 ], [ -5.349268, 37.7104195 ], [ -5.3489549, 37.7105759 ], [ -5.3487484, 37.7103106 ], [ -5.3485706, 37.7100972 ], [ -5.3485462, 37.7100858 ], [ -5.3482803, 37.7102174 ], [ -5.3479696, 37.7103595 ], [ -5.3476383, 37.7106069 ], [ -5.3473839, 37.7111464 ], [ -5.3473411, 37.7111448 ], [ -5.3465545, 37.711165 ], [ -5.3465529, 37.711115 ], [ -5.3465524, 37.7111149 ], [ -5.346549, 37.7111155 ], [ -5.3465207, 37.7109487 ], [ -5.3454551, 37.7111344 ], [ -5.3456741, 37.7117976 ], [ -5.3452418, 37.7118897 ], [ -5.3450838, 37.7119215 ], [ -5.3450063, 37.7119397 ] ] ] } }
]
}
