{
"type": "FeatureCollection",
"name": "42145",
"features": [
{ "type": "Feature", "properties": { "CCAA": "07 - Castilla y León", "PROVINCIA": "42 - Soria", "MUNICIPIO": "42145 - Quintanas de Gormaz", "COD_MUNICIPIO": "42145", "DISTRITO": "01", "SECCION": "4214501001", "V1_H": 80.0, "V1_M": 86.03, "V2_H": 79.84963877, "V2_M": 86.04281727, "V3_H": 80.29290896000001, "V3_M": 86.20578322 }, "geometry": { "type": "Polygon", "coordinates": [ [ [ -2.955251, 41.5419513 ], [ -2.9556823, 41.5423208 ], [ -2.9567008, 41.5432219 ], [ -2.9924161, 41.5480575 ], [ -2.9948384, 41.5443106 ], [ -2.9948384, 41.5443105 ], [ -2.9929924, 41.541365 ], [ -2.991638, 41.5389059 ], [ -2.9894087, 41.5354288 ], [ -2.989482, 41.527115 ], [ -2.989482, 41.527043 ], [ -2.9894728, 41.5262773 ], [ -2.9893875, 41.5192245 ], [ -2.9899749, 41.5185039 ], [ -2.9942061, 41.512253 ], [ -2.9975017, 41.5075152 ], [ -2.9956448, 41.5034978 ], [ -2.9947822, 41.5016602 ], [ -2.9938957, 41.5003361 ], [ -2.9939556, 41.500237 ], [ -2.9940036, 41.500129 ], [ -2.989009, 41.4903285 ], [ -2.9882663, 41.4902383 ], [ -2.9861939, 41.4902381 ], [ -2.9854392, 41.4899498 ], [ -2.9851518, 41.4894363 ], [ -2.9850442, 41.4887247 ], [ -2.9850205, 41.4876979 ], [ -2.9849128, 41.4871934 ], [ -2.9846134, 41.4866169 ], [ -2.9821582, 41.4854095 ], [ -2.9784332, 41.484256 ], [ -2.9772116, 41.4837513 ], [ -2.9749362, 41.4822016 ], [ -2.9740022, 41.481751 ], [ -2.973068, 41.4813995 ], [ -2.9721099, 41.481183 ], [ -2.9708164, 41.4810026 ], [ -2.9700018, 41.4810204 ], [ -2.9694388, 41.4813085 ], [ -2.969151, 41.4819299 ], [ -2.9690907, 41.4827496 ], [ -2.9693176, 41.484263 ], [ -2.9703116, 41.4847586 ], [ -2.971078, 41.4852361 ], [ -2.9717127, 41.4857228 ], [ -2.9721316, 41.4862993 ], [ -2.9722751, 41.4868759 ], [ -2.9720353, 41.4875153 ], [ -2.9715199, 41.4881727 ], [ -2.9706811, 41.4889112 ], [ -2.9699141, 41.4893794 ], [ -2.9690515, 41.4898025 ], [ -2.9683805, 41.4899194 ], [ -2.9674342, 41.4899282 ], [ -2.9658052, 41.4896214 ], [ -2.9650866, 41.4892159 ], [ -2.9645239, 41.4886933 ], [ -2.9624768, 41.4863147 ], [ -2.9613394, 41.4852514 ], [ -2.9605851, 41.4847558 ], [ -2.960142, 41.4845574 ], [ -2.9594713, 41.4845032 ], [ -2.9585249, 41.4845389 ], [ -2.9567757, 41.4850607 ], [ -2.9552184, 41.4852042 ], [ -2.9534331, 41.4859511 ], [ -2.9515518, 41.4867431 ], [ -2.9504617, 41.4867336 ], [ -2.9464979, 41.4853807 ], [ -2.942223, 41.4836672 ], [ -2.9414446, 41.4834867 ], [ -2.9404983, 41.4835042 ], [ -2.9354782, 41.4846815 ], [ -2.9331296, 41.485581 ], [ -2.931739, 41.4979475 ], [ -2.9317149, 41.4981366 ], [ -2.9314252, 41.5001361 ], [ -2.9314132, 41.5001992 ], [ -2.9314848, 41.5004875 ], [ -2.9299951, 41.5041616 ], [ -2.9291777, 41.5065391 ], [ -2.9290331, 41.5072777 ], [ -2.9294735, 41.5100612 ], [ -2.9296165, 41.5107189 ], [ -2.9301171, 41.5132953 ], [ -2.9308316, 41.5174662 ], [ -2.9341126, 41.5201523 ], [ -2.9354779, 41.5211709 ], [ -2.9370227, 41.5224869 ], [ -2.9396214, 41.5247401 ], [ -2.9443886, 41.5285256 ], [ -2.9447838, 41.5288501 ], [ -2.9482215, 41.5319052 ], [ -2.9485809, 41.5322386 ], [ -2.9490479, 41.5327702 ], [ -2.9491917, 41.5329504 ], [ -2.9495506, 41.5337883 ], [ -2.9495745, 41.5338694 ], [ -2.9501367, 41.535536 ], [ -2.9520034, 41.5401126 ], [ -2.9524102, 41.5411486 ], [ -2.9550712, 41.5418972 ], [ -2.955251, 41.5419513 ] ] ] } }
]
}
