{
"type": "FeatureCollection",
"name": "42151",
"features": [
{ "type": "Feature", "properties": { "CCAA": "07 - Castilla y León", "PROVINCIA": "42 - Soria", "MUNICIPIO": "42151 - Rebollar", "COD_MUNICIPIO": "42151", "DISTRITO": "01", "SECCION": "4215101001", "V1_H": 75.48, "V1_M": 82.31, "V2_H": 75.36985678000001, "V2_M": 82.56533706, "V3_H": 75.8600571, "V3_M": 82.01450712 }, "geometry": { "type": "Polygon", "coordinates": [ [ [ -2.5079815, 41.887176 ], [ -2.502013, 41.8951843 ], [ -2.5012334, 41.8962257 ], [ -2.4956529, 41.8930399 ], [ -2.4939556, 41.8942574 ], [ -2.4928285, 41.8980533 ], [ -2.4887002, 41.9002326 ], [ -2.495378, 41.9049548 ], [ -2.4963942, 41.9045179 ], [ -2.4975512, 41.9045679 ], [ -2.4981308, 41.9044624 ], [ -2.4988183, 41.9044384 ], [ -2.4997155, 41.905334 ], [ -2.500253, 41.9059939 ], [ -2.5005654, 41.9076615 ], [ -2.5011115, 41.9087537 ], [ -2.5000118, 41.9106133 ], [ -2.501191, 41.9109247 ], [ -2.5019417, 41.9120808 ], [ -2.501212, 41.9128612 ], [ -2.4991972, 41.9130055 ], [ -2.4993014, 41.9135554 ], [ -2.497781, 41.915224 ], [ -2.4969368, 41.9152384 ], [ -2.4961288, 41.916775 ], [ -2.495933, 41.9171434 ], [ -2.4956759, 41.9176286 ], [ -2.4980195, 41.9186297 ], [ -2.4982093, 41.9190358 ], [ -2.5012111, 41.9207062 ], [ -2.5016789, 41.9210324 ], [ -2.5019514, 41.9216551 ], [ -2.5023216, 41.9221251 ], [ -2.5028127, 41.9225595 ], [ -2.5032807, 41.9228588 ], [ -2.5037808, 41.9236895 ], [ -2.5043324, 41.9240882 ], [ -2.5046384, 41.9250713 ], [ -2.5096442, 41.9328387 ], [ -2.5112278, 41.9308099 ], [ -2.5128978, 41.9285022 ], [ -2.5128818, 41.9274304 ], [ -2.5136892, 41.9259477 ], [ -2.5156455, 41.9240375 ], [ -2.5169447, 41.9228721 ], [ -2.5178908, 41.9221555 ], [ -2.5193924, 41.9213332 ], [ -2.5198351, 41.9202092 ], [ -2.5207243, 41.9190241 ], [ -2.5208827, 41.9187995 ], [ -2.5220495, 41.9175795 ], [ -2.5226466, 41.9167624 ], [ -2.5231948, 41.9160171 ], [ -2.5239853, 41.9151197 ], [ -2.5258115, 41.9143977 ], [ -2.5261211, 41.9100577 ], [ -2.5262442, 41.9064645 ], [ -2.5254164, 41.9042724 ], [ -2.5261472, 41.9032757 ], [ -2.526957, 41.9030088 ], [ -2.5275599, 41.9030023 ], [ -2.5279685, 41.9031751 ], [ -2.5295392, 41.9043614 ], [ -2.5300358, 41.9040392 ], [ -2.5319589, 41.9015702 ], [ -2.5345056, 41.8995091 ], [ -2.5363747, 41.8928065 ], [ -2.5270351, 41.8875534 ], [ -2.5208817, 41.8867712 ], [ -2.5177018, 41.8864787 ], [ -2.5152439, 41.8863513 ], [ -2.5128476, 41.8860529 ], [ -2.5079815, 41.887176 ] ] ] } }
]
}
