{
"type": "FeatureCollection",
"name": "42181",
"features": [
{ "type": "Feature", "properties": { "CCAA": "07 - Castilla y León", "PROVINCIA": "42 - Soria", "MUNICIPIO": "42181 - Tardelcuende", "COD_MUNICIPIO": "42181", "DISTRITO": "01", "SECCION": "4218101001", "V1_H": 80.91, "V1_M": 86.7, "V2_H": 80.91796575, "V2_M": 86.73459974, "V3_H": 81.00259482, "V3_M": 86.81948346 }, "geometry": { "type": "Polygon", "coordinates": [ [ [ -2.5712704, 41.5699217 ], [ -2.5711522, 41.5714795 ], [ -2.5714364, 41.572039 ], [ -2.5712959, 41.5733355 ], [ -2.5714019, 41.5736331 ], [ -2.5716157, 41.5739402 ], [ -2.5717218, 41.5742288 ], [ -2.5715254, 41.5749036 ], [ -2.5715229, 41.5752729 ], [ -2.5718181, 41.5759856 ], [ -2.5722808, 41.576753 ], [ -2.5723264, 41.5771314 ], [ -2.572263, 41.5776536 ], [ -2.5724275, 41.5781587 ], [ -2.5739953, 41.5805334 ], [ -2.5744124, 41.5809673 ], [ -2.5751167, 41.5814833 ], [ -2.575535, 41.5817281 ], [ -2.5759652, 41.5819819 ], [ -2.5773881, 41.5826987 ], [ -2.5788948, 41.5834608 ], [ -2.5809874, 41.5845224 ], [ -2.5818716, 41.585075 ], [ -2.5825758, 41.585645 ], [ -2.5833046, 41.5861161 ], [ -2.5879165, 41.5891051 ], [ -2.589738, 41.5894539 ], [ -2.5901454, 41.5895365 ], [ -2.5910689, 41.5895938 ], [ -2.5918748, 41.5892634 ], [ -2.5936077, 41.5903504 ], [ -2.5937566, 41.590411 ], [ -2.5939428, 41.5904867 ], [ -2.59507, 41.5905898 ], [ -2.5959685, 41.5908091 ], [ -2.5968777, 41.5912357 ], [ -2.5978093, 41.5919235 ], [ -2.5985387, 41.5923133 ], [ -2.6027405, 41.5938953 ], [ -2.6035615, 41.595042 ], [ -2.6058739, 41.5955814 ], [ -2.6075136, 41.5962806 ], [ -2.6080997, 41.5965889 ], [ -2.6088386, 41.5974291 ], [ -2.6092324, 41.5977817 ], [ -2.611606, 41.598168 ], [ -2.6120129, 41.5983406 ], [ -2.6130025, 41.5994247 ], [ -2.615074, 41.6001613 ], [ -2.6159352, 41.6006416 ], [ -2.6214102, 41.6042357 ], [ -2.6253455, 41.6064824 ], [ -2.6273832, 41.6068944 ], [ -2.6297437, 41.6075506 ], [ -2.6303295, 41.6079578 ], [ -2.6306034, 41.608328 ], [ -2.6307207, 41.6087967 ], [ -2.63055, 41.6092736 ], [ -2.6283651, 41.6114733 ], [ -2.6258442, 41.6136178 ], [ -2.6254228, 41.6138326 ], [ -2.6239448, 41.614134 ], [ -2.6262247, 41.6163212 ], [ -2.6276928, 41.6177491 ], [ -2.6300125, 41.6151085 ], [ -2.6336518, 41.6167955 ], [ -2.6345147, 41.6170145 ], [ -2.6362132, 41.6180827 ], [ -2.6389009, 41.6182713 ], [ -2.6420024, 41.6195961 ], [ -2.6441356, 41.6202242 ], [ -2.6447938, 41.6205776 ], [ -2.6460057, 41.6206624 ], [ -2.6475404, 41.6210004 ], [ -2.6489562, 41.6211309 ], [ -2.6515969, 41.6211479 ], [ -2.6543743, 41.6225435 ], [ -2.6556748, 41.6240426 ], [ -2.6563078, 41.6246569 ], [ -2.6569653, 41.6251633 ], [ -2.6585695, 41.6259968 ], [ -2.6589106, 41.6273308 ], [ -2.6592446, 41.6277462 ], [ -2.6598305, 41.6281983 ], [ -2.6604516, 41.6287856 ], [ -2.6613932, 41.6300944 ], [ -2.6627887, 41.6295491 ], [ -2.6629604, 41.6288471 ], [ -2.6635047, 41.628065 ], [ -2.6643859, 41.6271398 ], [ -2.6655305, 41.6263325 ], [ -2.6664203, 41.6260739 ], [ -2.6670087, 41.6260396 ], [ -2.668353, 41.6260795 ], [ -2.6729535, 41.6255613 ], [ -2.6750912, 41.6253782 ], [ -2.6769428, 41.624789 ], [ -2.6777118, 41.624647 ], [ -2.6791891, 41.624507 ], [ -2.6805602, 41.6239885 ], [ -2.6815574, 41.6238021 ], [ -2.693651, 41.6201601 ], [ -2.6949022, 41.6144708 ], [ -2.6940458, 41.605218 ], [ -2.6941281, 41.6030385 ], [ -2.6950377, 41.593349 ], [ -2.6959927, 41.5841641 ], [ -2.6961901, 41.5778865 ], [ -2.6961112, 41.5742473 ], [ -2.6960311, 41.5734275 ], [ -2.6956294, 41.5721113 ], [ -2.6952488, 41.5714258 ], [ -2.6951329, 41.5705787 ], [ -2.693856, 41.5692062 ], [ -2.6935122, 41.5683496 ], [ -2.6936511, 41.5668548 ], [ -2.6933488, 41.5648453 ], [ -2.6914839, 41.5635703 ], [ -2.690477, 41.5634685 ], [ -2.6900699, 41.5633233 ], [ -2.688193, 41.5620752 ], [ -2.6872621, 41.5611359 ], [ -2.6863422, 41.5603948 ], [ -2.6855668, 41.559546 ], [ -2.6836722, 41.5570547 ], [ -2.6815548, 41.553563 ], [ -2.6794724, 41.5527285 ], [ -2.6772573, 41.5520648 ], [ -2.6752356, 41.5511043 ], [ -2.6742184, 41.5507141 ], [ -2.6731764, 41.5504769 ], [ -2.6706281, 41.5493437 ], [ -2.6694329, 41.5485927 ], [ -2.6678111, 41.5468586 ], [ -2.6660215, 41.545124 ], [ -2.6421935, 41.5481057 ], [ -2.6405136, 41.5483076 ], [ -2.6381859, 41.5486065 ], [ -2.6368791, 41.5485754 ], [ -2.6241347, 41.5483362 ], [ -2.6195317, 41.5481139 ], [ -2.6066939, 41.5514574 ], [ -2.6066937, 41.5514574 ], [ -2.60285, 41.5525701 ], [ -2.5927523, 41.55657 ], [ -2.59134, 41.5580422 ], [ -2.5906527, 41.5586342 ], [ -2.5906286, 41.5586521 ], [ -2.5900266, 41.5590283 ], [ -2.5884758, 41.5596262 ], [ -2.5872313, 41.5599539 ], [ -2.5863496, 41.560186 ], [ -2.5863495, 41.5601861 ], [ -2.5858806, 41.5603825 ], [ -2.5838804, 41.5618525 ], [ -2.5826381, 41.5629378 ], [ -2.5801912, 41.5648475 ], [ -2.5794567, 41.5652862 ], [ -2.577641, 41.5660091 ], [ -2.5721738, 41.5693666 ], [ -2.5712705, 41.5699217 ], [ -2.5712704, 41.5699217 ] ] ] } }
]
}
