{
"type": "FeatureCollection",
"name": "43047",
"features": [
{ "type": "Feature", "properties": { "CCAA": "09 - Cataluña", "PROVINCIA": "43 - Tarragona", "MUNICIPIO": "43047 - Constantí", "COD_MUNICIPIO": "43047", "DISTRITO": "01", "SECCION": "4304701002", "V1_H": 77.6, "V1_M": 83.87, "V2_H": 77.77347434000001, "V2_M": 84.06024086, "V3_H": 77.45781126, "V3_M": 83.80561047 }, "geometry": { "type": "Polygon", "coordinates": [ [ [ 1.2350636, 41.1695419 ], [ 1.2350566, 41.1695428 ], [ 1.2240079, 41.1708913 ], [ 1.2226899, 41.171052 ], [ 1.2141349, 41.1720947 ], [ 1.2139915, 41.1724602 ], [ 1.2142106, 41.1729024 ], [ 1.2142108, 41.1729031 ], [ 1.2131793, 41.1753974 ], [ 1.2092353, 41.177461 ], [ 1.2082962, 41.1768928 ], [ 1.2081762, 41.1765027 ], [ 1.2081193, 41.1763228 ], [ 1.2080546, 41.1758628 ], [ 1.2080995, 41.1757274 ], [ 1.2084146, 41.1751215 ], [ 1.208748, 41.1744148 ], [ 1.2089236, 41.1740169 ], [ 1.2094307, 41.1729744 ], [ 1.2097056, 41.172333 ], [ 1.2097948, 41.1720815 ], [ 1.2100055, 41.1713418 ], [ 1.210246, 41.1708281 ], [ 1.2103513, 41.1705535 ], [ 1.2103772, 41.1703556 ], [ 1.2103459, 41.1699933 ], [ 1.2100834, 41.1692345 ], [ 1.2098312, 41.1686666 ], [ 1.209844, 41.1685734 ], [ 1.2099252, 41.1682401 ], [ 1.2102094, 41.1674432 ], [ 1.2104508, 41.1667078 ], [ 1.210476, 41.166537 ], [ 1.2106132, 41.1658468 ], [ 1.2107255, 41.1655023 ], [ 1.2109311, 41.1647586 ], [ 1.210989, 41.1645222 ], [ 1.2112355, 41.1634057 ], [ 1.2115458, 41.1629787 ], [ 1.2116739, 41.1628095 ], [ 1.2119014, 41.1623929 ], [ 1.2121521, 41.1618795 ], [ 1.2125881, 41.1609915 ], [ 1.2126117, 41.1608791 ], [ 1.2126426, 41.1606889 ], [ 1.2126334, 41.1604593 ], [ 1.212456, 41.1597913 ], [ 1.2121579, 41.1588636 ], [ 1.2121171, 41.158698 ], [ 1.2120703, 41.158604 ], [ 1.2116189, 41.1579372 ], [ 1.2112138, 41.1574028 ], [ 1.2111578, 41.1572638 ], [ 1.2111263, 41.1570031 ], [ 1.211123, 41.1567518 ], [ 1.211121, 41.1565916 ], [ 1.2119138, 41.1565115 ], [ 1.2121291, 41.1564274 ], [ 1.2126128, 41.1562048 ], [ 1.213327, 41.1557402 ], [ 1.2131075, 41.1555624 ], [ 1.2146366, 41.1545343 ], [ 1.2152977, 41.1540288 ], [ 1.2165813, 41.1532051 ], [ 1.2174642, 41.15262 ], [ 1.2194403, 41.1542343 ], [ 1.2208968, 41.1532564 ], [ 1.221104, 41.1522624 ], [ 1.2197745, 41.1510962 ], [ 1.2216547, 41.1498454 ], [ 1.2224815, 41.1471133 ], [ 1.2214794, 41.146626 ], [ 1.2198126, 41.1469778 ], [ 1.2192617, 41.1466454 ], [ 1.2190035, 41.1468455 ], [ 1.2188382, 41.146823 ], [ 1.2183324, 41.1466102 ], [ 1.2183382, 41.1465987 ], [ 1.2185014, 41.1462782 ], [ 1.2187825, 41.1458679 ], [ 1.2193823, 41.1452202 ], [ 1.2199056, 41.1445905 ], [ 1.2205045, 41.1439746 ], [ 1.2209176, 41.1434829 ], [ 1.225933, 41.1461786 ], [ 1.2275735, 41.1450755 ], [ 1.2285137, 41.1444432 ], [ 1.2296576, 41.1452143 ], [ 1.2344677, 41.1484565 ], [ 1.2366559, 41.1499312 ], [ 1.2382992, 41.1510386 ], [ 1.2374701, 41.1524614 ], [ 1.2382406, 41.1525143 ], [ 1.2382072, 41.152586 ], [ 1.238186, 41.1526689 ], [ 1.2381632, 41.1527474 ], [ 1.238157, 41.1527824 ], [ 1.2381296, 41.152854 ], [ 1.2380872, 41.1529516 ], [ 1.2380312, 41.1530722 ], [ 1.2379581, 41.1532256 ], [ 1.2378859, 41.1533754 ], [ 1.2378396, 41.1534652 ], [ 1.2378124, 41.1535181 ], [ 1.237804, 41.153531 ], [ 1.2371054, 41.1535228 ], [ 1.2371107, 41.1538165 ], [ 1.2370759, 41.1539018 ], [ 1.2370478, 41.153962 ], [ 1.2370243, 41.1540101 ], [ 1.2369966, 41.1540582 ], [ 1.2369659, 41.1541053 ], [ 1.2369359, 41.1541507 ], [ 1.2368913, 41.1542241 ], [ 1.2368509, 41.1542976 ], [ 1.2368332, 41.1543314 ], [ 1.2368068, 41.154393 ], [ 1.23678, 41.1544685 ], [ 1.2367598, 41.1545496 ], [ 1.2367446, 41.1546171 ], [ 1.2367367, 41.154657 ], [ 1.2367308, 41.154715 ], [ 1.2367259, 41.1547774 ], [ 1.2367262, 41.1548075 ], [ 1.2367263, 41.1548435 ], [ 1.2367316, 41.1548854 ], [ 1.2367375, 41.1549269 ], [ 1.2367449, 41.1549553 ], [ 1.236757, 41.1549911 ], [ 1.2367744, 41.155026 ], [ 1.2367931, 41.1550565 ], [ 1.2368276, 41.1557594 ], [ 1.2368358, 41.1558434 ], [ 1.2367083, 41.1564735 ], [ 1.2366235, 41.1568633 ], [ 1.2365818, 41.1570546 ], [ 1.2367651, 41.1575088 ], [ 1.2369471, 41.1579621 ], [ 1.2369694, 41.1580134 ], [ 1.2370389, 41.1581715 ], [ 1.2370303, 41.1587282 ], [ 1.2370287, 41.1588371 ], [ 1.2370234, 41.1591774 ], [ 1.2370242, 41.1592335 ], [ 1.2370185, 41.1594941 ], [ 1.237017, 41.1595935 ], [ 1.2370162, 41.1596457 ], [ 1.2370102, 41.160035 ], [ 1.2375897, 41.1602344 ], [ 1.2379305, 41.1602152 ], [ 1.2399904, 41.1600988 ], [ 1.2400158, 41.1600996 ], [ 1.2400697, 41.1603127 ], [ 1.2401023, 41.160444 ], [ 1.2400558, 41.1612149 ], [ 1.2357219, 41.1647817 ], [ 1.2357244, 41.165744 ], [ 1.2349651, 41.1667175 ], [ 1.2343601, 41.1676853 ], [ 1.2346729, 41.1692158 ], [ 1.2350636, 41.1695419 ] ] ] } },
{ "type": "Feature", "properties": { "CCAA": "09 - Cataluña", "PROVINCIA": "43 - Tarragona", "MUNICIPIO": "43047 - Constantí", "COD_MUNICIPIO": "43047", "DISTRITO": "02", "SECCION": "4304702001", "V1_H": 80.21, "V1_M": 86.35, "V2_H": 80.00126986, "V2_M": 86.33312861, "V3_H": 80.58114521, "V3_M": 86.56210486000001 }, "geometry": { "type": "Polygon", "coordinates": [ [ [ 1.1836863, 41.1909839 ], [ 1.1836866, 41.1909828 ], [ 1.1831916, 41.1907994 ], [ 1.1829784, 41.1907198 ], [ 1.181711, 41.1910596 ], [ 1.1816555, 41.1910744 ], [ 1.1726401, 41.1934904 ], [ 1.1703802, 41.1911243 ], [ 1.1690677, 41.1881018 ], [ 1.166735, 41.1860956 ], [ 1.1621489, 41.1822097 ], [ 1.1575952, 41.1805031 ], [ 1.1559713, 41.1798865 ], [ 1.1546416, 41.1790341 ], [ 1.1527283, 41.1753578 ], [ 1.1499876, 41.1725387 ], [ 1.1482483, 41.1721681 ], [ 1.1462078, 41.1713779 ], [ 1.144203, 41.1705778 ], [ 1.1462129, 41.1680543 ], [ 1.1467996, 41.1673493 ], [ 1.1472943, 41.1666927 ], [ 1.1614044, 41.1499655 ], [ 1.1677216, 41.1492666 ], [ 1.1695851, 41.1497224 ], [ 1.1703241, 41.1480382 ], [ 1.1776577, 41.1440348 ], [ 1.1812093, 41.1365667 ], [ 1.1851684, 41.1353336 ], [ 1.1916987, 41.1314656 ], [ 1.1934127, 41.1323852 ], [ 1.1972996, 41.1298401 ], [ 1.204395, 41.134812 ], [ 1.2086416, 41.1321353 ], [ 1.2116913, 41.1358242 ], [ 1.2122183, 41.1364616 ], [ 1.2176317, 41.1406304 ], [ 1.2172596, 41.1415164 ], [ 1.2209176, 41.1434829 ], [ 1.2205045, 41.1439746 ], [ 1.2199056, 41.1445905 ], [ 1.2193823, 41.1452202 ], [ 1.2187825, 41.1458679 ], [ 1.2185014, 41.1462782 ], [ 1.2183382, 41.1465987 ], [ 1.2183324, 41.1466102 ], [ 1.218234, 41.1468034 ], [ 1.2179379, 41.1474559 ], [ 1.2178103, 41.1477759 ], [ 1.217612, 41.1482736 ], [ 1.2173032, 41.1490032 ], [ 1.2169719, 41.1497826 ], [ 1.2167338, 41.150396 ], [ 1.2163844, 41.1511464 ], [ 1.2162609, 41.1514985 ], [ 1.2160605, 41.1516533 ], [ 1.2156291, 41.1519241 ], [ 1.2153518, 41.1521159 ], [ 1.2147341, 41.1524843 ], [ 1.2145086, 41.1526339 ], [ 1.2142523, 41.1527495 ], [ 1.2140541, 41.152823 ], [ 1.2137595, 41.1529476 ], [ 1.2134184, 41.1531575 ], [ 1.2131738, 41.1533068 ], [ 1.2127536, 41.1536304 ], [ 1.2124831, 41.1538032 ], [ 1.2123349, 41.1539014 ], [ 1.2120921, 41.1542181 ], [ 1.212086, 41.1544428 ], [ 1.2121861, 41.1547171 ], [ 1.2122783, 41.1550534 ], [ 1.2122936, 41.1551876 ], [ 1.2121699, 41.1553148 ], [ 1.2118931, 41.1554827 ], [ 1.2116134, 41.1556271 ], [ 1.2112393, 41.1558151 ], [ 1.2111211, 41.155901 ], [ 1.2111163, 41.1560761 ], [ 1.2111267, 41.1563419 ], [ 1.2111206, 41.1565648 ], [ 1.2111209, 41.1565864 ], [ 1.211121, 41.1565916 ], [ 1.211123, 41.1567518 ], [ 1.2111263, 41.1570031 ], [ 1.2111578, 41.1572638 ], [ 1.2112138, 41.1574028 ], [ 1.2116189, 41.1579372 ], [ 1.2120703, 41.158604 ], [ 1.2121171, 41.158698 ], [ 1.2121579, 41.1588636 ], [ 1.212456, 41.1597913 ], [ 1.2126334, 41.1604593 ], [ 1.2126426, 41.1606889 ], [ 1.2126117, 41.1608791 ], [ 1.2125881, 41.1609915 ], [ 1.2121521, 41.1618795 ], [ 1.2119014, 41.1623929 ], [ 1.2116739, 41.1628095 ], [ 1.2115458, 41.1629787 ], [ 1.2112355, 41.1634057 ], [ 1.210989, 41.1645222 ], [ 1.2109311, 41.1647586 ], [ 1.2107255, 41.1655023 ], [ 1.2106132, 41.1658468 ], [ 1.210476, 41.166537 ], [ 1.2104508, 41.1667078 ], [ 1.2102094, 41.1674432 ], [ 1.2099252, 41.1682401 ], [ 1.209844, 41.1685734 ], [ 1.2098312, 41.1686666 ], [ 1.2100834, 41.1692345 ], [ 1.2103459, 41.1699933 ], [ 1.2103772, 41.1703556 ], [ 1.2103513, 41.1705535 ], [ 1.210246, 41.1708281 ], [ 1.2100055, 41.1713418 ], [ 1.2097948, 41.1720815 ], [ 1.2097056, 41.172333 ], [ 1.2094307, 41.1729744 ], [ 1.2089236, 41.1740169 ], [ 1.208748, 41.1744148 ], [ 1.2084146, 41.1751215 ], [ 1.2080995, 41.1757274 ], [ 1.2080546, 41.1758628 ], [ 1.2081193, 41.1763228 ], [ 1.2081762, 41.1765027 ], [ 1.2082962, 41.1768928 ], [ 1.2079491, 41.1766829 ], [ 1.2079459, 41.1766798 ], [ 1.2076678, 41.1766179 ], [ 1.2068035, 41.1768927 ], [ 1.2057901, 41.1770739 ], [ 1.2052071, 41.1772754 ], [ 1.2038302, 41.1779201 ], [ 1.2038285, 41.1779205 ], [ 1.2025826, 41.1777946 ], [ 1.2025824, 41.1777946 ], [ 1.202027, 41.1776798 ], [ 1.2016375, 41.1777391 ], [ 1.2013375, 41.1778941 ], [ 1.2010808, 41.1780973 ], [ 1.2000765, 41.1782998 ], [ 1.2000765, 41.1783004 ], [ 1.2000764, 41.1783004 ], [ 1.1999448, 41.1786654 ], [ 1.2001402, 41.179105 ], [ 1.200198, 41.1798347 ], [ 1.1972716, 41.1812201 ], [ 1.1972772, 41.1813089 ], [ 1.1967975, 41.1814458 ], [ 1.1967974, 41.1814458 ], [ 1.1967013, 41.1816205 ], [ 1.197085, 41.182038 ], [ 1.1970855, 41.1820386 ], [ 1.1970856, 41.1820392 ], [ 1.1969291, 41.1824375 ], [ 1.1967409, 41.1829167 ], [ 1.1966589, 41.1831255 ], [ 1.1962245, 41.1842313 ], [ 1.196181, 41.1842675 ], [ 1.1960095, 41.1844102 ], [ 1.1958966, 41.1846935 ], [ 1.1959375, 41.1849618 ], [ 1.1959375, 41.1849621 ], [ 1.1959365, 41.1849624 ], [ 1.1957853, 41.1850037 ], [ 1.1956034, 41.1849563 ], [ 1.195072, 41.1846605 ], [ 1.1950689, 41.1846615 ], [ 1.1948852, 41.1847214 ], [ 1.1945338, 41.1850029 ], [ 1.1941021, 41.1852783 ], [ 1.19142, 41.1869892 ], [ 1.1914181, 41.1869905 ], [ 1.1894014, 41.1880365 ], [ 1.1893989, 41.1880377 ], [ 1.1893964, 41.1880368 ], [ 1.1891347, 41.1880017 ], [ 1.1887683, 41.1877843 ], [ 1.1887631, 41.1877812 ], [ 1.1885309, 41.1878797 ], [ 1.1884851, 41.1879309 ], [ 1.1866663, 41.1889021 ], [ 1.1866652, 41.1889022 ], [ 1.1862784, 41.1890064 ], [ 1.1859461, 41.1892166 ], [ 1.1856825, 41.1895684 ], [ 1.1853797, 41.1902659 ], [ 1.185277, 41.1903749 ], [ 1.1847352, 41.1909495 ], [ 1.1847224, 41.190963 ], [ 1.1839681, 41.1909774 ], [ 1.1839164, 41.1909793 ], [ 1.1836863, 41.1909839 ] ] ] } },
{ "type": "Feature", "properties": { "CCAA": "09 - Cataluña", "PROVINCIA": "43 - Tarragona", "MUNICIPIO": "43047 - Constantí", "COD_MUNICIPIO": "43047", "DISTRITO": "01", "SECCION": "4304701001", "V1_H": 80.21, "V1_M": 86.35, "V2_H": 80.00126986, "V2_M": 86.33312861, "V3_H": 80.58114521, "V3_M": 86.56210486000001 }, "geometry": { "type": "Polygon", "coordinates": [ [ [ 1.2183324, 41.1466102 ], [ 1.2188382, 41.146823 ], [ 1.2190035, 41.1468455 ], [ 1.2192617, 41.1466454 ], [ 1.2198126, 41.1469778 ], [ 1.2214794, 41.146626 ], [ 1.2224815, 41.1471133 ], [ 1.2216547, 41.1498454 ], [ 1.2197745, 41.1510962 ], [ 1.221104, 41.1522624 ], [ 1.2208968, 41.1532564 ], [ 1.2194403, 41.1542343 ], [ 1.2174642, 41.15262 ], [ 1.2165813, 41.1532051 ], [ 1.2152977, 41.1540288 ], [ 1.2146366, 41.1545343 ], [ 1.2131075, 41.1555624 ], [ 1.213327, 41.1557402 ], [ 1.2126128, 41.1562048 ], [ 1.2121291, 41.1564274 ], [ 1.2119138, 41.1565115 ], [ 1.211121, 41.1565916 ], [ 1.2111209, 41.1565864 ], [ 1.2111206, 41.1565648 ], [ 1.2111267, 41.1563419 ], [ 1.2111163, 41.1560761 ], [ 1.2111211, 41.155901 ], [ 1.2112393, 41.1558151 ], [ 1.2116134, 41.1556271 ], [ 1.2118931, 41.1554827 ], [ 1.2121699, 41.1553148 ], [ 1.2122936, 41.1551876 ], [ 1.2122783, 41.1550534 ], [ 1.2121861, 41.1547171 ], [ 1.212086, 41.1544428 ], [ 1.2120921, 41.1542181 ], [ 1.2123349, 41.1539014 ], [ 1.2124831, 41.1538032 ], [ 1.2127536, 41.1536304 ], [ 1.2131738, 41.1533068 ], [ 1.2134184, 41.1531575 ], [ 1.2137595, 41.1529476 ], [ 1.2140541, 41.152823 ], [ 1.2142523, 41.1527495 ], [ 1.2145086, 41.1526339 ], [ 1.2147341, 41.1524843 ], [ 1.2153518, 41.1521159 ], [ 1.2156291, 41.1519241 ], [ 1.2160605, 41.1516533 ], [ 1.2162609, 41.1514985 ], [ 1.2163844, 41.1511464 ], [ 1.2167338, 41.150396 ], [ 1.2169719, 41.1497826 ], [ 1.2173032, 41.1490032 ], [ 1.217612, 41.1482736 ], [ 1.2178103, 41.1477759 ], [ 1.2179379, 41.1474559 ], [ 1.218234, 41.1468034 ], [ 1.2183324, 41.1466102 ] ] ] } }
]
}
