{
"type": "FeatureCollection",
"name": "43051",
"features": [
{ "type": "Feature", "properties": { "CCAA": "09 - Cataluña", "PROVINCIA": "43 - Tarragona", "MUNICIPIO": "43051 - Cunit", "COD_MUNICIPIO": "43051", "DISTRITO": "01", "SECCION": "4305101002", "V1_H": 80.38, "V1_M": 86.41, "V2_H": 80.21151379, "V2_M": 86.36716419, "V3_H": 80.6951312, "V3_M": 86.59024448 }, "geometry": { "type": "Polygon", "coordinates": [ [ [ 1.6332537, 41.1985029 ], [ 1.6331557, 41.199122 ], [ 1.6333234, 41.1994263 ], [ 1.6335191, 41.2000597 ], [ 1.6335763, 41.200652 ], [ 1.6333786, 41.2009519 ], [ 1.6329024, 41.2014875 ], [ 1.6325465, 41.2022311 ], [ 1.6314698, 41.2034102 ], [ 1.630838, 41.2040338 ], [ 1.630628, 41.2051998 ], [ 1.6312852, 41.2063294 ], [ 1.6312285, 41.2075674 ], [ 1.6315552, 41.2082257 ], [ 1.6311566, 41.2095297 ], [ 1.6304893, 41.2103631 ], [ 1.630074, 41.2109892 ], [ 1.6293964, 41.2123133 ], [ 1.6284521, 41.2130733 ], [ 1.6279384, 41.2139552 ], [ 1.6271207, 41.2145765 ], [ 1.6264607, 41.2150594 ], [ 1.6249351, 41.2154852 ], [ 1.624053, 41.2162226 ], [ 1.622719, 41.2163702 ], [ 1.6216326, 41.2165208 ], [ 1.6197297, 41.2168252 ], [ 1.619573, 41.2167767 ], [ 1.618776, 41.2137372 ], [ 1.6186749, 41.213661 ], [ 1.6179287, 41.213099 ], [ 1.6168067, 41.2122539 ], [ 1.6169663, 41.2120607 ], [ 1.6171031, 41.211895 ], [ 1.6175818, 41.2111081 ], [ 1.6179133, 41.2106784 ], [ 1.6183153, 41.2100246 ], [ 1.6187994, 41.2093155 ], [ 1.6189754, 41.2088791 ], [ 1.6191395, 41.2082739 ], [ 1.6192702, 41.2076831 ], [ 1.6194434, 41.2072077 ], [ 1.6191771, 41.2066068 ], [ 1.6183913, 41.2054804 ], [ 1.6179469, 41.2050428 ], [ 1.6177685, 41.2047116 ], [ 1.6178007, 41.2041899 ], [ 1.6178339, 41.2039283 ], [ 1.6179618, 41.2032986 ], [ 1.6179123, 41.2023507 ], [ 1.6178406, 41.2020673 ], [ 1.6176052, 41.2016603 ], [ 1.6173789, 41.2013832 ], [ 1.6173616, 41.2011366 ], [ 1.6179146, 41.200672 ], [ 1.6183501, 41.2002511 ], [ 1.6187856, 41.1998303 ], [ 1.6189797, 41.1994061 ], [ 1.6191186, 41.1989321 ], [ 1.6192664, 41.1983406 ], [ 1.6194621, 41.1976951 ], [ 1.6194299, 41.1969938 ], [ 1.6196295, 41.1966474 ], [ 1.6198272, 41.1962751 ], [ 1.619973, 41.1959722 ], [ 1.6226472, 41.1968176 ], [ 1.6237242, 41.1970347 ], [ 1.6264048, 41.1972845 ], [ 1.6300176, 41.1977769 ], [ 1.632583, 41.1983656 ], [ 1.6332537, 41.1985029 ] ] ] } },
{ "type": "Feature", "properties": { "CCAA": "09 - Cataluña", "PROVINCIA": "43 - Tarragona", "MUNICIPIO": "43051 - Cunit", "COD_MUNICIPIO": "43051", "DISTRITO": "01", "SECCION": "4305101003", "V1_H": 79.85, "V1_M": 85.78, "V2_H": 79.86035794, "V2_M": 85.76242541000001, "V3_H": 79.99500792000001, "V3_M": 85.93655133 }, "geometry": { "type": "Polygon", "coordinates": [ [ [ 1.6455726, 41.1956227 ], [ 1.6425944, 41.1995163 ], [ 1.6425259, 41.1997189 ], [ 1.6403733, 41.1990842 ], [ 1.6394753, 41.1989238 ], [ 1.6385204, 41.1988989 ], [ 1.636413, 41.1988195 ], [ 1.6349009, 41.1987198 ], [ 1.633642, 41.1985824 ], [ 1.6332537, 41.1985029 ], [ 1.6334762, 41.1978861 ], [ 1.6333679, 41.1970271 ], [ 1.6335335, 41.1968657 ], [ 1.6336439, 41.1967771 ], [ 1.6344178, 41.1954143 ], [ 1.6346262, 41.1944808 ], [ 1.6347653, 41.1943556 ], [ 1.6349805, 41.1935968 ], [ 1.6351331, 41.1929576 ], [ 1.6455726, 41.1956227 ] ] ] } },
{ "type": "Feature", "properties": { "CCAA": "09 - Cataluña", "PROVINCIA": "43 - Tarragona", "MUNICIPIO": "43051 - Cunit", "COD_MUNICIPIO": "43051", "DISTRITO": "01", "SECCION": "4305101004", "V1_H": 80.23, "V1_M": 86.04, "V2_H": 80.01377171, "V2_M": 86.1814847, "V3_H": 80.55154758, "V3_M": 86.06989916000001 }, "geometry": { "type": "Polygon", "coordinates": [ [ [ 1.6349805, 41.1935968 ], [ 1.6347653, 41.1943556 ], [ 1.6346262, 41.1944808 ], [ 1.6344178, 41.1954143 ], [ 1.6336439, 41.1967771 ], [ 1.6335335, 41.1968657 ], [ 1.6333679, 41.1970271 ], [ 1.6334762, 41.1978861 ], [ 1.6332537, 41.1985029 ], [ 1.632583, 41.1983656 ], [ 1.6300176, 41.1977769 ], [ 1.6264048, 41.1972845 ], [ 1.6237242, 41.1970347 ], [ 1.6226472, 41.1968176 ], [ 1.619973, 41.1959722 ], [ 1.619245, 41.1957421 ], [ 1.6166856, 41.1948809 ], [ 1.6156286, 41.1945686 ], [ 1.6145237, 41.194362 ], [ 1.6144958, 41.1943991 ], [ 1.6144286, 41.1943939 ], [ 1.6144167, 41.1943796 ], [ 1.6147957, 41.1938497 ], [ 1.6151172, 41.1933985 ], [ 1.6154142, 41.1929577 ], [ 1.6157211, 41.1924785 ], [ 1.6161007, 41.1919582 ], [ 1.6164751, 41.1913619 ], [ 1.6168289, 41.1908331 ], [ 1.6169078, 41.1906819 ], [ 1.6171652, 41.1907067 ], [ 1.6186834, 41.1909355 ], [ 1.6349142, 41.1929017 ], [ 1.6351331, 41.1929576 ], [ 1.6349805, 41.1935968 ] ] ] } },
{ "type": "Feature", "properties": { "CCAA": "09 - Cataluña", "PROVINCIA": "43 - Tarragona", "MUNICIPIO": "43051 - Cunit", "COD_MUNICIPIO": "43051", "DISTRITO": "01", "SECCION": "4305101005", "V1_H": 80.53, "V1_M": 86.43, "V2_H": 80.43347749, "V2_M": 86.30479166000001, "V3_H": 80.8868878, "V3_M": 86.74881461 }, "geometry": { "type": "Polygon", "coordinates": [ [ [ 1.619245, 41.1957421 ], [ 1.619973, 41.1959722 ], [ 1.6198272, 41.1962751 ], [ 1.6196295, 41.1966474 ], [ 1.6194299, 41.1969938 ], [ 1.6194621, 41.1976951 ], [ 1.6192664, 41.1983406 ], [ 1.6191186, 41.1989321 ], [ 1.6189797, 41.1994061 ], [ 1.6187856, 41.1998303 ], [ 1.6183501, 41.2002511 ], [ 1.6179146, 41.200672 ], [ 1.6173616, 41.2011366 ], [ 1.6173789, 41.2013832 ], [ 1.6176052, 41.2016603 ], [ 1.6178406, 41.2020673 ], [ 1.6179123, 41.2023507 ], [ 1.6179618, 41.2032986 ], [ 1.6178339, 41.2039283 ], [ 1.6178007, 41.2041899 ], [ 1.6177685, 41.2047116 ], [ 1.6179469, 41.2050428 ], [ 1.6183913, 41.2054804 ], [ 1.6191771, 41.2066068 ], [ 1.6194434, 41.2072077 ], [ 1.6192702, 41.2076831 ], [ 1.6191395, 41.2082739 ], [ 1.6189754, 41.2088791 ], [ 1.6187994, 41.2093155 ], [ 1.6183153, 41.2100246 ], [ 1.6179133, 41.2106784 ], [ 1.6175818, 41.2111081 ], [ 1.6171031, 41.211895 ], [ 1.6169663, 41.2120607 ], [ 1.6168067, 41.2122539 ], [ 1.6163803, 41.2119327 ], [ 1.615681, 41.211406 ], [ 1.6151124, 41.2109778 ], [ 1.6143765, 41.209682 ], [ 1.6143617, 41.209658 ], [ 1.6143703, 41.2095086 ], [ 1.6143571, 41.2093624 ], [ 1.6141653, 41.2089269 ], [ 1.614032, 41.2087027 ], [ 1.6139222, 41.2085178 ], [ 1.6138134, 41.2083349 ], [ 1.6136896, 41.2081992 ], [ 1.6132713, 41.2077406 ], [ 1.6131145, 41.2074829 ], [ 1.6130675, 41.2074769 ], [ 1.6128768, 41.2074131 ], [ 1.6126534, 41.2073316 ], [ 1.6125007, 41.2072686 ], [ 1.6123123, 41.2071904 ], [ 1.6121695, 41.2070889 ], [ 1.6121269, 41.2070668 ], [ 1.612125, 41.2069502 ], [ 1.6121314, 41.2068165 ], [ 1.6121633, 41.2067318 ], [ 1.6121985, 41.2066042 ], [ 1.6121923, 41.206471 ], [ 1.6121969, 41.2062231 ], [ 1.6122082, 41.2061154 ], [ 1.612224, 41.2059814 ], [ 1.6122281, 41.2059099 ], [ 1.612183, 41.2056273 ], [ 1.6119643, 41.2052769 ], [ 1.611957, 41.205265 ], [ 1.6119059, 41.2051997 ], [ 1.611781, 41.2050404 ], [ 1.6116927, 41.2049278 ], [ 1.6116461, 41.2048683 ], [ 1.6113728, 41.2045194 ], [ 1.6112281, 41.2043347 ], [ 1.6111392, 41.2038694 ], [ 1.6109867, 41.2030711 ], [ 1.6105968, 41.2010295 ], [ 1.6098103, 41.1992695 ], [ 1.6097239, 41.1988986 ], [ 1.6096458, 41.1985125 ], [ 1.6095878, 41.1982254 ], [ 1.6095929, 41.1982164 ], [ 1.6095832, 41.1982137 ], [ 1.6095329, 41.1982157 ], [ 1.609497, 41.1979742 ], [ 1.6094896, 41.1978697 ], [ 1.6096368, 41.1976303 ], [ 1.6100316, 41.1968759 ], [ 1.6103101, 41.1964407 ], [ 1.6104163, 41.1962459 ], [ 1.6106701, 41.1959974 ], [ 1.611076, 41.1954904 ], [ 1.6112166, 41.1953371 ], [ 1.6112443, 41.1953405 ], [ 1.6113937, 41.1950802 ], [ 1.6140568, 41.1949818 ], [ 1.6144958, 41.1943991 ], [ 1.6145237, 41.194362 ], [ 1.6156286, 41.1945686 ], [ 1.6166856, 41.1948809 ], [ 1.619245, 41.1957421 ] ] ] } },
{ "type": "Feature", "properties": { "CCAA": "09 - Cataluña", "PROVINCIA": "43 - Tarragona", "MUNICIPIO": "43051 - Cunit", "COD_MUNICIPIO": "43051", "DISTRITO": "01", "SECCION": "4305101001", "V1_H": 80.65, "V1_M": 86.42, "V2_H": 80.32339709, "V2_M": 86.16224497, "V3_H": 80.9318118, "V3_M": 86.73476557 }, "geometry": { "type": "Polygon", "coordinates": [ [ [ 1.6462416, 41.2277564 ], [ 1.6464352, 41.2288038 ], [ 1.6462366, 41.2290256 ], [ 1.6426258, 41.23344 ], [ 1.6413304, 41.2353579 ], [ 1.6389866, 41.2346056 ], [ 1.6360892, 41.2315881 ], [ 1.6344589, 41.2309616 ], [ 1.6341983, 41.2289631 ], [ 1.6326672, 41.2285663 ], [ 1.6314346, 41.2244572 ], [ 1.6243623, 41.22293 ], [ 1.6217581, 41.2232064 ], [ 1.6214355, 41.2233871 ], [ 1.621433, 41.2233644 ], [ 1.6213951, 41.2231849 ], [ 1.6213548, 41.2229721 ], [ 1.621304, 41.2227883 ], [ 1.6211959, 41.2225973 ], [ 1.6210284, 41.2223706 ], [ 1.6209494, 41.2221451 ], [ 1.6207681, 41.2219903 ], [ 1.6206703, 41.2218561 ], [ 1.6205314, 41.2216759 ], [ 1.620355, 41.2215019 ], [ 1.6200836, 41.2212317 ], [ 1.6199907, 41.2210782 ], [ 1.6199207, 41.2208904 ], [ 1.6199063, 41.2207767 ], [ 1.6198511, 41.2205311 ], [ 1.6197304, 41.2202501 ], [ 1.6197303, 41.2201596 ], [ 1.6198925, 41.2200435 ], [ 1.6199402, 41.2200242 ], [ 1.619662, 41.2195372 ], [ 1.6196143, 41.2177163 ], [ 1.6198397, 41.2172806 ], [ 1.6198639, 41.2172338 ], [ 1.6199939, 41.2171039 ], [ 1.6200467, 41.2170179 ], [ 1.6200438, 41.2169449 ], [ 1.6199899, 41.2168866 ], [ 1.6197746, 41.2168391 ], [ 1.6197297, 41.2168252 ], [ 1.6216326, 41.2165208 ], [ 1.622719, 41.2163702 ], [ 1.624053, 41.2162226 ], [ 1.6249351, 41.2154852 ], [ 1.6264607, 41.2150594 ], [ 1.6271207, 41.2145765 ], [ 1.6279384, 41.2139552 ], [ 1.6284521, 41.2130733 ], [ 1.6293964, 41.2123133 ], [ 1.630074, 41.2109892 ], [ 1.6304893, 41.2103631 ], [ 1.6311566, 41.2095297 ], [ 1.6315552, 41.2082257 ], [ 1.6312285, 41.2075674 ], [ 1.6312852, 41.2063294 ], [ 1.630628, 41.2051998 ], [ 1.630838, 41.2040338 ], [ 1.6314698, 41.2034102 ], [ 1.6325465, 41.2022311 ], [ 1.6329024, 41.2014875 ], [ 1.6333786, 41.2009519 ], [ 1.6335763, 41.200652 ], [ 1.6335191, 41.2000597 ], [ 1.6333234, 41.1994263 ], [ 1.6331557, 41.199122 ], [ 1.6332537, 41.1985029 ], [ 1.633642, 41.1985824 ], [ 1.6349009, 41.1987198 ], [ 1.636413, 41.1988195 ], [ 1.6385204, 41.1988989 ], [ 1.6394753, 41.1989238 ], [ 1.6403733, 41.1990842 ], [ 1.6425259, 41.1997189 ], [ 1.642492, 41.1998191 ], [ 1.641165, 41.2037411 ], [ 1.641588, 41.2117375 ], [ 1.646244, 41.2118194 ], [ 1.6468931, 41.2118832 ], [ 1.646646, 41.2085703 ], [ 1.6497289, 41.2086707 ], [ 1.6526068, 41.2070517 ], [ 1.6535018, 41.2074038 ], [ 1.6528353, 41.2080108 ], [ 1.648205, 41.2122269 ], [ 1.6479661, 41.2164234 ], [ 1.6462485, 41.2182655 ], [ 1.6442996, 41.2203814 ], [ 1.6462416, 41.2277564 ] ] ] } }
]
}
