{
"type": "FeatureCollection",
"name": "43070",
"features": [
{ "type": "Feature", "properties": { "CCAA": "09 - Cataluña", "PROVINCIA": "43 - Tarragona", "MUNICIPIO": "43070 - Guiamets, Els", "COD_MUNICIPIO": "43070", "DISTRITO": "01", "SECCION": "4307001001", "V1_H": 80.85, "V1_M": 86.44, "V2_H": 80.47892397, "V2_M": 86.23437891, "V3_H": 81.22204479, "V3_M": 86.80010662 }, "geometry": { "type": "Polygon", "coordinates": [ [ [ 0.7706891, 41.1211269 ], [ 0.767259, 41.1219507 ], [ 0.7665546, 41.1221268 ], [ 0.7617839, 41.1226251 ], [ 0.7601408, 41.1232552 ], [ 0.7595496, 41.1216626 ], [ 0.7597114, 41.1213691 ], [ 0.7604573, 41.1208764 ], [ 0.7607789, 41.1204607 ], [ 0.7604716, 41.1196693 ], [ 0.7600289, 41.1190083 ], [ 0.7593439, 41.1184814 ], [ 0.7592189, 41.1181703 ], [ 0.7590237, 41.1176724 ], [ 0.7584882, 41.1166362 ], [ 0.757414, 41.1163831 ], [ 0.7561221, 41.1162812 ], [ 0.7534183, 41.1164775 ], [ 0.7493874, 41.116789 ], [ 0.7469933, 41.1167769 ], [ 0.7432318, 41.1165931 ], [ 0.7421138, 41.1161972 ], [ 0.74085, 41.1157521 ], [ 0.7399339, 41.1155567 ], [ 0.7385324, 41.1156202 ], [ 0.7368579, 41.1159088 ], [ 0.7346112, 41.1163959 ], [ 0.7338753, 41.1164378 ], [ 0.7333798, 41.1163098 ], [ 0.7316972, 41.1156169 ], [ 0.7304478, 41.1154233 ], [ 0.7294102, 41.1153939 ], [ 0.7275708, 41.1157146 ], [ 0.7243491, 41.1164403 ], [ 0.7233546, 41.1167516 ], [ 0.7225196, 41.1167246 ], [ 0.7205741, 41.1164363 ], [ 0.7183766, 41.1167415 ], [ 0.7144677, 41.1166876 ], [ 0.7131213, 41.1168842 ], [ 0.71142, 41.1150119 ], [ 0.7118164, 41.1144408 ], [ 0.7121459, 41.1141599 ], [ 0.7126008, 41.1139922 ], [ 0.7134022, 41.1140564 ], [ 0.7137511, 41.11391 ], [ 0.7141102, 41.1135202 ], [ 0.7144504, 41.1123745 ], [ 0.7151286, 41.1115241 ], [ 0.7162613, 41.110497 ], [ 0.7178592, 41.1092746 ], [ 0.7174745, 41.1089989 ], [ 0.714756, 41.1070334 ], [ 0.7141773, 41.1064848 ], [ 0.7133339, 41.1056745 ], [ 0.7127739, 41.1050351 ], [ 0.7155914, 41.104539 ], [ 0.7165529, 41.1040667 ], [ 0.7181574, 41.1033845 ], [ 0.7198546, 41.1028703 ], [ 0.7208675, 41.1026755 ], [ 0.7235502, 41.102958 ], [ 0.7262709, 41.1036984 ], [ 0.7283249, 41.1033888 ], [ 0.7298569, 41.1026907 ], [ 0.7309425, 41.1025205 ], [ 0.7321876, 41.1032726 ], [ 0.7329896, 41.1031385 ], [ 0.7336897, 41.1016299 ], [ 0.7343961, 41.1008596 ], [ 0.7352272, 41.0995628 ], [ 0.7364061, 41.0983088 ], [ 0.7377402, 41.0972749 ], [ 0.7388575, 41.0974547 ], [ 0.7393926, 41.096816 ], [ 0.7403007, 41.0962462 ], [ 0.7446004, 41.0935668 ], [ 0.7471122, 41.0923144 ], [ 0.7483859, 41.0916875 ], [ 0.7493481, 41.0910258 ], [ 0.750005, 41.0904371 ], [ 0.7505409, 41.0898162 ], [ 0.7514426, 41.088301 ], [ 0.751738, 41.0872197 ], [ 0.7520128, 41.0851485 ], [ 0.7526473, 41.0856321 ], [ 0.7532547, 41.0858465 ], [ 0.7543146, 41.0858569 ], [ 0.7600712, 41.0845343 ], [ 0.761208, 41.0846412 ], [ 0.7639236, 41.0867588 ], [ 0.7646532, 41.0876535 ], [ 0.7651524, 41.0886817 ], [ 0.7654506, 41.0901489 ], [ 0.7654803, 41.0908774 ], [ 0.7655779, 41.0929994 ], [ 0.7656072, 41.0935118 ], [ 0.7663784, 41.0936756 ], [ 0.7669548, 41.093972 ], [ 0.7674563, 41.0944148 ], [ 0.7681426, 41.0951758 ], [ 0.7698446, 41.1014058 ], [ 0.7707915, 41.1048418 ], [ 0.7709546, 41.1054039 ], [ 0.7713755, 41.10693 ], [ 0.7721194, 41.1074459 ], [ 0.772218, 41.1083342 ], [ 0.771465, 41.1095296 ], [ 0.7723515, 41.1100409 ], [ 0.7726274, 41.1104911 ], [ 0.7727341, 41.1119374 ], [ 0.7736073, 41.112215 ], [ 0.7738371, 41.1137294 ], [ 0.7736206, 41.1138985 ], [ 0.772585, 41.1143197 ], [ 0.7722677, 41.1146003 ], [ 0.7722826, 41.1150681 ], [ 0.7725053, 41.115421 ], [ 0.7737753, 41.1165951 ], [ 0.7739778, 41.1170117 ], [ 0.7740371, 41.1178382 ], [ 0.7754221, 41.1179009 ], [ 0.7753072, 41.1198408 ], [ 0.7733072, 41.1202666 ], [ 0.7713068, 41.120062 ], [ 0.7706891, 41.1211269 ] ] ] } }
]
}
