{
"type": "FeatureCollection",
"name": "43073",
"features": [
{ "type": "Feature", "properties": { "CCAA": "09 - Cataluña", "PROVINCIA": "43 - Tarragona", "MUNICIPIO": "43073 - Llorac", "COD_MUNICIPIO": "43073", "DISTRITO": "01", "SECCION": "4307301001", "V1_H": 75.48, "V1_M": 82.31, "V2_H": 75.36985678000001, "V2_M": 82.56533706, "V3_H": 75.8600571, "V3_M": 82.01450712 }, "geometry": { "type": "Polygon", "coordinates": [ [ [ 1.3129112, 41.5690002 ], [ 1.3121313, 41.5691736 ], [ 1.3068653, 41.5709382 ], [ 1.3049845, 41.5716841 ], [ 1.3044481, 41.5708308 ], [ 1.3037383, 41.5700741 ], [ 1.3033496, 41.5698185 ], [ 1.298632, 41.5686538 ], [ 1.298235, 41.5684525 ], [ 1.2975277, 41.5677317 ], [ 1.2967282, 41.5674285 ], [ 1.2960011, 41.5673117 ], [ 1.2952895, 41.5670682 ], [ 1.2945188, 41.5666558 ], [ 1.2770324, 41.5701996 ], [ 1.2764008, 41.5704392 ], [ 1.2731088, 41.5721556 ], [ 1.259493, 41.5675026 ], [ 1.2613106, 41.5660643 ], [ 1.2611958, 41.5658736 ], [ 1.2610179, 41.5650987 ], [ 1.261036, 41.5646025 ], [ 1.2608856, 41.564246 ], [ 1.2608441, 41.5639998 ], [ 1.2609697, 41.5635949 ], [ 1.2611043, 41.5629418 ], [ 1.2613859, 41.5622071 ], [ 1.2611861, 41.5618715 ], [ 1.2610927, 41.5616081 ], [ 1.2606567, 41.5607666 ], [ 1.2600147, 41.5594944 ], [ 1.2598037, 41.5589877 ], [ 1.2601, 41.5588623 ], [ 1.2605381, 41.5585792 ], [ 1.2606004, 41.5584918 ], [ 1.2607711, 41.558685 ], [ 1.2641371, 41.5582808 ], [ 1.264469, 41.5582234 ], [ 1.2680993, 41.5576472 ], [ 1.2734857, 41.5569784 ], [ 1.2872304, 41.5549078 ], [ 1.2925154, 41.5604909 ], [ 1.293121, 41.5611255 ], [ 1.298191, 41.5602063 ], [ 1.2981331, 41.5596952 ], [ 1.2981026, 41.5595974 ], [ 1.2965093, 41.553291 ], [ 1.2965089, 41.5527418 ], [ 1.2986301, 41.5521941 ], [ 1.3007168, 41.5514856 ], [ 1.3012124, 41.5511879 ], [ 1.3015419, 41.5507343 ], [ 1.3021291, 41.55019 ], [ 1.3028681, 41.5497662 ], [ 1.3048267, 41.548216 ], [ 1.3051926, 41.5481302 ], [ 1.3063888, 41.5482744 ], [ 1.3096139, 41.5491888 ], [ 1.3115072, 41.5495408 ], [ 1.3129055, 41.5505598 ], [ 1.3142011, 41.5514745 ], [ 1.3159821, 41.5530192 ], [ 1.3197346, 41.5503298 ], [ 1.3202719, 41.5495802 ], [ 1.3220006, 41.5476423 ], [ 1.3231763, 41.5465805 ], [ 1.3247446, 41.5449367 ], [ 1.3253142, 41.5441319 ], [ 1.3252364, 41.5436846 ], [ 1.3252378, 41.543684 ], [ 1.3292369, 41.54203 ], [ 1.3309613, 41.5416498 ], [ 1.3309668, 41.541646 ], [ 1.3322781, 41.5405545 ], [ 1.3322804, 41.5405528 ], [ 1.3328478, 41.5397507 ], [ 1.3338691, 41.5390729 ], [ 1.3351444, 41.5383343 ], [ 1.3351499, 41.53833 ], [ 1.3351548, 41.5383304 ], [ 1.3360398, 41.5381985 ], [ 1.3377232, 41.5385487 ], [ 1.3451201, 41.539177 ], [ 1.3451417, 41.5391777 ], [ 1.3451458, 41.5391751 ], [ 1.3458297, 41.5385398 ], [ 1.34583, 41.5385394 ], [ 1.3458295, 41.5385387 ], [ 1.3427602, 41.5356601 ], [ 1.3427109, 41.5356138 ], [ 1.3427101, 41.535613 ], [ 1.3449057, 41.5349446 ], [ 1.3601027, 41.5365741 ], [ 1.3634297, 41.5380965 ], [ 1.3654773, 41.5417164 ], [ 1.3688126, 41.5476116 ], [ 1.3688307, 41.5476424 ], [ 1.3688304, 41.547643 ], [ 1.3674701, 41.5504667 ], [ 1.3664757, 41.5525305 ], [ 1.3664754, 41.5525312 ], [ 1.3664791, 41.5525299 ], [ 1.3676707, 41.5521255 ], [ 1.372598, 41.5514246 ], [ 1.3733562, 41.5504052 ], [ 1.3762809, 41.5475655 ], [ 1.3784109, 41.5459458 ], [ 1.3784127, 41.5459444 ], [ 1.3796451, 41.5457353 ], [ 1.3828896, 41.5455248 ], [ 1.3847048, 41.545407 ], [ 1.3870239, 41.5451383 ], [ 1.38825, 41.5473561 ], [ 1.3897831, 41.550129 ], [ 1.3897892, 41.5501299 ], [ 1.39057, 41.550243 ], [ 1.3913615, 41.5500735 ], [ 1.3919523, 41.549947 ], [ 1.3933345, 41.5500021 ], [ 1.3933345, 41.5500026 ], [ 1.3923062, 41.5551648 ], [ 1.3922802, 41.5558741 ], [ 1.3922599, 41.5564271 ], [ 1.388814, 41.556523 ], [ 1.3858118, 41.5562687 ], [ 1.3849291, 41.5565095 ], [ 1.3837202, 41.5570689 ], [ 1.3835204, 41.5574818 ], [ 1.3835583, 41.5587499 ], [ 1.3814702, 41.559604 ], [ 1.3811865, 41.55984 ], [ 1.3808125, 41.5612229 ], [ 1.379379, 41.562007 ], [ 1.3774079, 41.5628205 ], [ 1.3765526, 41.5631143 ], [ 1.375382, 41.5638883 ], [ 1.3735585, 41.5647592 ], [ 1.3720541, 41.5653838 ], [ 1.3701582, 41.5650058 ], [ 1.3670236, 41.5661697 ], [ 1.3496351, 41.5677217 ], [ 1.3467045, 41.5680039 ], [ 1.3311436, 41.5682143 ], [ 1.3129112, 41.5690002 ] ] ] } }
]
}
