{
"type": "FeatureCollection",
"name": "43111",
"features": [
{ "type": "Feature", "properties": { "CCAA": "09 - Cataluña", "PROVINCIA": "43 - Tarragona", "MUNICIPIO": "43111 - Pobla de Montornès, La", "COD_MUNICIPIO": "43111", "DISTRITO": "01", "SECCION": "4311101002", "V1_H": 80.24, "V1_M": 86.29, "V2_H": 79.84273941, "V2_M": 86.47368807, "V3_H": 80.7355329, "V3_M": 86.23078999000001 }, "geometry": { "type": "Polygon", "coordinates": [ [ [ 1.4051411, 41.1974057 ], [ 1.4044183, 41.1982911 ], [ 1.4036983, 41.1980899 ], [ 1.4027167, 41.1981276 ], [ 1.4014241, 41.1980436 ], [ 1.3990072, 41.1973738 ], [ 1.3986781, 41.196605 ], [ 1.399781, 41.1957432 ], [ 1.4007708, 41.1950763 ], [ 1.4015003, 41.1946672 ], [ 1.4019492, 41.1942117 ], [ 1.4021772, 41.1930975 ], [ 1.4027518, 41.1926371 ], [ 1.4028346, 41.1923671 ], [ 1.4026443, 41.1906591 ], [ 1.4007664, 41.1916268 ], [ 1.3998289, 41.1915674 ], [ 1.3990936, 41.1911381 ], [ 1.3983826, 41.19107 ], [ 1.3982834, 41.1899683 ], [ 1.3978148, 41.1893764 ], [ 1.3963622, 41.1887839 ], [ 1.3970184, 41.1880346 ], [ 1.3976084, 41.1878023 ], [ 1.398465, 41.1874074 ], [ 1.3994575, 41.1871598 ], [ 1.4001239, 41.1865625 ], [ 1.4022704, 41.185089 ], [ 1.4012269, 41.1845762 ], [ 1.4010466, 41.1841448 ], [ 1.4019842, 41.1830797 ], [ 1.4023779, 41.1829312 ], [ 1.4028442, 41.1823606 ], [ 1.4042511, 41.1826498 ], [ 1.4052367, 41.1830504 ], [ 1.4056524, 41.1836062 ], [ 1.4062197, 41.1834129 ], [ 1.4088037, 41.184324 ], [ 1.4071295, 41.1860654 ], [ 1.4083741, 41.1861892 ], [ 1.4096693, 41.1866923 ], [ 1.4095929, 41.1870573 ], [ 1.4149483, 41.1905302 ], [ 1.4115427, 41.1924144 ], [ 1.4107766, 41.1926535 ], [ 1.4104783, 41.1949711 ], [ 1.4096489, 41.197271 ], [ 1.4093315, 41.1974591 ], [ 1.4088725, 41.1973579 ], [ 1.4074123, 41.1970327 ], [ 1.4051652, 41.1962612 ], [ 1.4051411, 41.1974057 ] ] ] } },
{ "type": "Feature", "properties": { "CCAA": "09 - Cataluña", "PROVINCIA": "43 - Tarragona", "MUNICIPIO": "43111 - Pobla de Montornès, La", "COD_MUNICIPIO": "43111", "DISTRITO": "01", "SECCION": "4311101001", "V1_H": 80.39, "V1_M": 86.24, "V2_H": 80.20629068, "V2_M": 86.34105578, "V3_H": 80.66489809, "V3_M": 86.38520791000001 }, "geometry": { "type": "Polygon", "coordinates": [ [ [ 1.4176497, 41.2107712 ], [ 1.4177524, 41.2115867 ], [ 1.4127167, 41.2122394 ], [ 1.4111958, 41.212496 ], [ 1.4102032, 41.212453 ], [ 1.4048212, 41.2100842 ], [ 1.4033954, 41.2085631 ], [ 1.4023505, 41.2072074 ], [ 1.4014069, 41.206118 ], [ 1.3964396, 41.205831 ], [ 1.3949244, 41.2036828 ], [ 1.397008, 41.2016851 ], [ 1.3953287, 41.2001106 ], [ 1.3949533, 41.1998458 ], [ 1.3944382, 41.19892 ], [ 1.3941668, 41.1986062 ], [ 1.3931081, 41.1981064 ], [ 1.3926357, 41.1978183 ], [ 1.3920679, 41.1969936 ], [ 1.3911768, 41.1965054 ], [ 1.3900246, 41.1949646 ], [ 1.3893269, 41.1938027 ], [ 1.3885956, 41.1928491 ], [ 1.3879072, 41.1921821 ], [ 1.3874992, 41.1919636 ], [ 1.3873391, 41.1917086 ], [ 1.3874523, 41.191263 ], [ 1.3875015, 41.191108 ], [ 1.3888503, 41.1875718 ], [ 1.3890948, 41.1869501 ], [ 1.3891337, 41.1816539 ], [ 1.3847762, 41.1783355 ], [ 1.3824476, 41.1759481 ], [ 1.3823592, 41.1751591 ], [ 1.3821674, 41.1746081 ], [ 1.3834918, 41.1728467 ], [ 1.3841957, 41.1732161 ], [ 1.3848151, 41.1733905 ], [ 1.3860943, 41.1734945 ], [ 1.3860972, 41.1734947 ], [ 1.3861033, 41.1734934 ], [ 1.3870302, 41.1732082 ], [ 1.3875857, 41.1729426 ], [ 1.3878703, 41.1729496 ], [ 1.3878718, 41.1729492 ], [ 1.3891699, 41.1721852 ], [ 1.3891774, 41.1721525 ], [ 1.3895766, 41.1718851 ], [ 1.3898493, 41.1717854 ], [ 1.3906356, 41.1713226 ], [ 1.3906358, 41.1713224 ], [ 1.392354, 41.1703112 ], [ 1.3925496, 41.170196 ], [ 1.39255, 41.1701956 ], [ 1.393071, 41.1699686 ], [ 1.3946678, 41.1697905 ], [ 1.3946685, 41.1697903 ], [ 1.3954734, 41.1684715 ], [ 1.3960121, 41.1672718 ], [ 1.3960122, 41.1672718 ], [ 1.3960207, 41.167265 ], [ 1.3962382, 41.1670831 ], [ 1.396702, 41.1667141 ], [ 1.3971676, 41.1663722 ], [ 1.3977512, 41.1657408 ], [ 1.3986342, 41.1647853 ], [ 1.399457, 41.1641349 ], [ 1.3994602, 41.1641318 ], [ 1.4017012, 41.1626731 ], [ 1.4025827, 41.1620993 ], [ 1.4025884, 41.1620946 ], [ 1.4037347, 41.160889 ], [ 1.403904, 41.1607475 ], [ 1.4047287, 41.1600766 ], [ 1.4063202, 41.158935 ], [ 1.4071047, 41.159085 ], [ 1.4079169, 41.1593774 ], [ 1.4079089, 41.1594209 ], [ 1.4087555, 41.1596793 ], [ 1.4087774, 41.1596872 ], [ 1.4133216, 41.1619497 ], [ 1.4136466, 41.1621116 ], [ 1.4140987, 41.1619502 ], [ 1.4170372, 41.1609084 ], [ 1.4181154, 41.1605261 ], [ 1.4209877, 41.1600104 ], [ 1.4225468, 41.1608689 ], [ 1.423776, 41.1614775 ], [ 1.4238805, 41.1615917 ], [ 1.4245111, 41.1619676 ], [ 1.4245018, 41.1625779 ], [ 1.4243966, 41.1628869 ], [ 1.4243949, 41.1636112 ], [ 1.4244056, 41.1641445 ], [ 1.4243345, 41.1645856 ], [ 1.4242659, 41.1646944 ], [ 1.4237193, 41.1655622 ], [ 1.4232282, 41.1661338 ], [ 1.4226693, 41.1668224 ], [ 1.4224711, 41.1672493 ], [ 1.4221837, 41.1678512 ], [ 1.422017, 41.1683722 ], [ 1.4221079, 41.1685974 ], [ 1.4221373, 41.1690347 ], [ 1.4222692, 41.1698682 ], [ 1.4224449, 41.1706048 ], [ 1.4225319, 41.170623 ], [ 1.4224871, 41.1709472 ], [ 1.4222367, 41.1712991 ], [ 1.4213332, 41.171685 ], [ 1.4215905, 41.1721433 ], [ 1.4217576, 41.1726772 ], [ 1.4216501, 41.1732036 ], [ 1.4217657, 41.1735053 ], [ 1.4220186, 41.1737206 ], [ 1.4226816, 41.1740103 ], [ 1.422416, 41.17502 ], [ 1.4221728, 41.1754796 ], [ 1.422254, 41.1766831 ], [ 1.4226506, 41.1777934 ], [ 1.4224715, 41.1781424 ], [ 1.4220635, 41.1784553 ], [ 1.4218754, 41.1786696 ], [ 1.4217094, 41.1790362 ], [ 1.4213412, 41.180293 ], [ 1.4209559, 41.180587 ], [ 1.420898, 41.1809674 ], [ 1.420316, 41.18135 ], [ 1.4201458, 41.1816537 ], [ 1.4200821, 41.1821243 ], [ 1.4198901, 41.182636 ], [ 1.4195343, 41.1828388 ], [ 1.4193907, 41.1830064 ], [ 1.4189636, 41.1842744 ], [ 1.4185762, 41.1848926 ], [ 1.4183435, 41.185685 ], [ 1.4176239, 41.186505 ], [ 1.4175958, 41.1867943 ], [ 1.4180004, 41.1871389 ], [ 1.4180137, 41.1873365 ], [ 1.418028, 41.1873719 ], [ 1.4176789, 41.1887361 ], [ 1.4172386, 41.1899866 ], [ 1.4169356, 41.1911508 ], [ 1.4179337, 41.192166 ], [ 1.4168221, 41.1931812 ], [ 1.417151, 41.1948794 ], [ 1.416858, 41.1949537 ], [ 1.4162103, 41.1952487 ], [ 1.4149068, 41.1960732 ], [ 1.4147261, 41.1965754 ], [ 1.4145005, 41.1969443 ], [ 1.4142327, 41.1972157 ], [ 1.4124384, 41.1978339 ], [ 1.411732, 41.1983202 ], [ 1.411367, 41.1983883 ], [ 1.4112007, 41.1985748 ], [ 1.4111304, 41.1989467 ], [ 1.4118269, 41.199199 ], [ 1.4124319, 41.199509 ], [ 1.4128308, 41.1999439 ], [ 1.4127655, 41.2005677 ], [ 1.4129003, 41.2009768 ], [ 1.4128144, 41.2012952 ], [ 1.4121999, 41.2020842 ], [ 1.4121653, 41.2024547 ], [ 1.4123093, 41.2031785 ], [ 1.4126995, 41.2038389 ], [ 1.4128267, 41.2048425 ], [ 1.4135133, 41.2072473 ], [ 1.4137106, 41.207699 ], [ 1.4145983, 41.2086644 ], [ 1.4149314, 41.2091829 ], [ 1.4151299, 41.2096524 ], [ 1.4154597, 41.209946 ], [ 1.4159987, 41.2101594 ], [ 1.4170431, 41.2102633 ], [ 1.4173681, 41.2104849 ], [ 1.4176497, 41.2107712 ] ], [ [ 1.4056524, 41.1836062 ], [ 1.4052367, 41.1830504 ], [ 1.4042511, 41.1826498 ], [ 1.4028442, 41.1823606 ], [ 1.4023779, 41.1829312 ], [ 1.4019842, 41.1830797 ], [ 1.4010466, 41.1841448 ], [ 1.4012269, 41.1845762 ], [ 1.4022704, 41.185089 ], [ 1.4001239, 41.1865625 ], [ 1.3994575, 41.1871598 ], [ 1.398465, 41.1874074 ], [ 1.3976084, 41.1878023 ], [ 1.3970184, 41.1880346 ], [ 1.3963622, 41.1887839 ], [ 1.3978148, 41.1893764 ], [ 1.3982834, 41.1899683 ], [ 1.3983826, 41.19107 ], [ 1.3990936, 41.1911381 ], [ 1.3998289, 41.1915674 ], [ 1.4007664, 41.1916268 ], [ 1.4026443, 41.1906591 ], [ 1.4028346, 41.1923671 ], [ 1.4027518, 41.1926371 ], [ 1.4021772, 41.1930975 ], [ 1.4019492, 41.1942117 ], [ 1.4015003, 41.1946672 ], [ 1.4007708, 41.1950763 ], [ 1.399781, 41.1957432 ], [ 1.3986781, 41.196605 ], [ 1.3990072, 41.1973738 ], [ 1.4014241, 41.1980436 ], [ 1.4027167, 41.1981276 ], [ 1.4036983, 41.1980899 ], [ 1.4044183, 41.1982911 ], [ 1.4051411, 41.1974057 ], [ 1.4051652, 41.1962612 ], [ 1.4074123, 41.1970327 ], [ 1.4088725, 41.1973579 ], [ 1.4093315, 41.1974591 ], [ 1.4096489, 41.197271 ], [ 1.4104783, 41.1949711 ], [ 1.4107766, 41.1926535 ], [ 1.4115427, 41.1924144 ], [ 1.4149483, 41.1905302 ], [ 1.4095929, 41.1870573 ], [ 1.4096693, 41.1866923 ], [ 1.4083741, 41.1861892 ], [ 1.4071295, 41.1860654 ], [ 1.4088037, 41.184324 ], [ 1.4062197, 41.1834129 ], [ 1.4056524, 41.1836062 ] ] ] } }
]
}
