{
"type": "FeatureCollection",
"name": "44059",
"features": [
{ "type": "Feature", "properties": { "CCAA": "02 - Aragón", "PROVINCIA": "44 - Teruel", "MUNICIPIO": "44059 - Cantavieja", "COD_MUNICIPIO": "44059", "DISTRITO": "01", "SECCION": "4405901001", "V1_H": 80.3, "V1_M": 86.18, "V2_H": 80.25682951, "V2_M": 86.26310791, "V3_H": 80.49886239, "V3_M": 86.29802272000001 }, "geometry": { "type": "Polygon", "coordinates": [ [ [ -0.2961898, 40.5645238 ], [ -0.2979446, 40.5646459 ], [ -0.2983255, 40.5645738 ], [ -0.3000064, 40.563307 ], [ -0.3011416, 40.5626851 ], [ -0.302635, 40.5622606 ], [ -0.3031526, 40.5617233 ], [ -0.3036664, 40.5609877 ], [ -0.3042989, 40.5602368 ], [ -0.3048296, 40.559961 ], [ -0.3053081, 40.55981 ], [ -0.3060612, 40.5592871 ], [ -0.3070191, 40.5583727 ], [ -0.3096781, 40.5565612 ], [ -0.3103003, 40.5560623 ], [ -0.3106952, 40.5556391 ], [ -0.3120476, 40.554896 ], [ -0.3122439, 40.5538287 ], [ -0.312244, 40.5535315 ], [ -0.3125413, 40.5528898 ], [ -0.3126416, 40.5521536 ], [ -0.3129385, 40.551521 ], [ -0.3132746, 40.5513847 ], [ -0.3140865, 40.5514576 ], [ -0.3149138, 40.5511436 ], [ -0.3152799, 40.5511431 ], [ -0.3157733, 40.5509114 ], [ -0.3161798, 40.5507857 ], [ -0.3165434, 40.5508482 ], [ -0.3169138, 40.5507397 ], [ -0.3172696, 40.5504057 ], [ -0.3176486, 40.549784 ], [ -0.3189895, 40.5484371 ], [ -0.3195945, 40.5480728 ], [ -0.3208965, 40.5479949 ], [ -0.3212815, 40.5478147 ], [ -0.3216916, 40.5473018 ], [ -0.3220806, 40.5470226 ], [ -0.3239035, 40.54602 ], [ -0.3249027, 40.5461332 ], [ -0.3259805, 40.5457529 ], [ -0.3281997, 40.545471 ], [ -0.3301405, 40.5453628 ], [ -0.3326517, 40.5457541 ], [ -0.3351398, 40.5458386 ], [ -0.3391083, 40.547002 ], [ -0.3444057, 40.5483039 ], [ -0.3449792, 40.5487315 ], [ -0.3464619, 40.5491619 ], [ -0.3476575, 40.5496848 ], [ -0.3485953, 40.5501567 ], [ -0.3504891, 40.5506415 ], [ -0.3546372, 40.5502593 ], [ -0.3589495, 40.5514029 ], [ -0.3628904, 40.5529882 ], [ -0.3652576, 40.5537538 ], [ -0.3669379, 40.553666 ], [ -0.3799881, 40.5512158 ], [ -0.3818541, 40.5509068 ], [ -0.3829677, 40.5517247 ], [ -0.3833146, 40.5519127 ], [ -0.3836196, 40.5519646 ], [ -0.3845446, 40.5515622 ], [ -0.3856315, 40.5521544 ], [ -0.3867654, 40.5524503 ], [ -0.3872228, 40.5525327 ], [ -0.3867775, 40.5545673 ], [ -0.3888506, 40.5559203 ], [ -0.3898093, 40.5564734 ], [ -0.3900257, 40.5566765 ], [ -0.389872, 40.557898 ], [ -0.3908086, 40.5593243 ], [ -0.3921656, 40.5602647 ], [ -0.3933673, 40.5621654 ], [ -0.3936865, 40.5624608 ], [ -0.3941238, 40.562759 ], [ -0.3983532, 40.564863 ], [ -0.4004122, 40.5659813 ], [ -0.4016242, 40.5660987 ], [ -0.4024798, 40.5659648 ], [ -0.4042522, 40.5653381 ], [ -0.404348, 40.5677453 ], [ -0.4045392, 40.5686053 ], [ -0.4055062, 40.5683388 ], [ -0.4062268, 40.5683369 ], [ -0.4093348, 40.5686049 ], [ -0.4111186, 40.5685999 ], [ -0.4117899, 40.5686509 ], [ -0.4120221, 40.5687553 ], [ -0.4125685, 40.56929 ], [ -0.4138535, 40.5702735 ], [ -0.4138799, 40.5705083 ], [ -0.4133828, 40.5708394 ], [ -0.4140111, 40.5720065 ], [ -0.4166103, 40.5750641 ], [ -0.4189558, 40.577963 ], [ -0.4195127, 40.5788401 ], [ -0.4204822, 40.5800508 ], [ -0.4213704, 40.5809174 ], [ -0.4216977, 40.581312 ], [ -0.4253908, 40.5802055 ], [ -0.4305529, 40.5789873 ], [ -0.4338909, 40.5778907 ], [ -0.4378837, 40.5766552 ], [ -0.440361, 40.5758185 ], [ -0.4415886, 40.5752242 ], [ -0.4504464, 40.5681241 ], [ -0.4517313, 40.5672608 ], [ -0.4520544, 40.5671508 ], [ -0.4609279, 40.5655088 ], [ -0.4614641, 40.5644487 ], [ -0.4632305, 40.561461 ], [ -0.4636092, 40.5605055 ], [ -0.4640643, 40.5597138 ], [ -0.4693264, 40.5551544 ], [ -0.4710636, 40.5538683 ], [ -0.4722478, 40.5528404 ], [ -0.4858996, 40.5421043 ], [ -0.4901693, 40.5387473 ], [ -0.4836186, 40.5333353 ], [ -0.4813949, 40.5315574 ], [ -0.4807084, 40.5312902 ], [ -0.4798052, 40.5308201 ], [ -0.4768457, 40.5285216 ], [ -0.4755225, 40.5272946 ], [ -0.4689354, 40.5197733 ], [ -0.4631732, 40.5132605 ], [ -0.4607675, 40.5103973 ], [ -0.4596392, 40.5093366 ], [ -0.4573764, 40.5080077 ], [ -0.4521111, 40.5046309 ], [ -0.4509223, 40.5039291 ], [ -0.4515133, 40.500168 ], [ -0.451527, 40.5001142 ], [ -0.4523373, 40.4936737 ], [ -0.45264, 40.4900414 ], [ -0.45271, 40.4869443 ], [ -0.4527613, 40.4865221 ], [ -0.4526833, 40.4854665 ], [ -0.4519169, 40.4820267 ], [ -0.4506241, 40.4775394 ], [ -0.4503932, 40.4758499 ], [ -0.4468138, 40.4741225 ], [ -0.4456066, 40.4736094 ], [ -0.4440289, 40.4732232 ], [ -0.442934, 40.4728566 ], [ -0.4417092, 40.47219 ], [ -0.4407354, 40.4717451 ], [ -0.439182, 40.4713413 ], [ -0.4378577, 40.4708075 ], [ -0.4373086, 40.4706693 ], [ -0.4349286, 40.4702922 ], [ -0.4344513, 40.4701284 ], [ -0.4329381, 40.4702209 ], [ -0.4327756, 40.4695327 ], [ -0.432111, 40.4690226 ], [ -0.4310759, 40.4686392 ], [ -0.4304967, 40.4686713 ], [ -0.4300358, 40.4686972 ], [ -0.4281366, 40.4690152 ], [ -0.4271619, 40.4689034 ], [ -0.4260324, 40.4688332 ], [ -0.4252106, 40.4687338 ], [ -0.4236733, 40.4682222 ], [ -0.42121, 40.4675637 ], [ -0.4198762, 40.4672816 ], [ -0.4190021, 40.4673162 ], [ -0.4175198, 40.46722 ], [ -0.4164045, 40.467087 ], [ -0.4132366, 40.4663495 ], [ -0.4099337, 40.4657531 ], [ -0.4054512, 40.4645535 ], [ -0.4024462, 40.4638825 ], [ -0.401046, 40.4634907 ], [ -0.4000709, 40.462478 ], [ -0.3995403, 40.4621688 ], [ -0.398611, 40.4618055 ], [ -0.3956623, 40.4609014 ], [ -0.3942305, 40.4604187 ], [ -0.3936923, 40.4603075 ], [ -0.3930912, 40.4599967 ], [ -0.3925305, 40.4595517 ], [ -0.391949, 40.4593403 ], [ -0.3915225, 40.4590876 ], [ -0.3908476, 40.4585499 ], [ -0.388162, 40.4572551 ], [ -0.3874593, 40.4568249 ], [ -0.3868351, 40.4561983 ], [ -0.386261, 40.4557979 ], [ -0.3850958, 40.4551321 ], [ -0.3841812, 40.454697 ], [ -0.3833547, 40.4538136 ], [ -0.3815953, 40.4523595 ], [ -0.3805636, 40.4519038 ], [ -0.3787485, 40.4512771 ], [ -0.3781378, 40.4518217 ], [ -0.375716, 40.4546671 ], [ -0.375425, 40.4551739 ], [ -0.375366, 40.4554788 ], [ -0.3753949, 40.4580647 ], [ -0.3752635, 40.4605297 ], [ -0.375146, 40.4614278 ], [ -0.3752983, 40.4617555 ], [ -0.3756031, 40.4621047 ], [ -0.3763132, 40.4629495 ], [ -0.3769863, 40.4635323 ], [ -0.3815916, 40.4682306 ], [ -0.3802767, 40.4692907 ], [ -0.3773041, 40.4714211 ], [ -0.3722025, 40.474908 ], [ -0.3718568, 40.4753055 ], [ -0.3712742, 40.4763282 ], [ -0.3708071, 40.4768129 ], [ -0.370307, 40.4772339 ], [ -0.3692589, 40.4777955 ], [ -0.3681841, 40.4787348 ], [ -0.3673619, 40.4792475 ], [ -0.3668838, 40.4794078 ], [ -0.365955, 40.4796297 ], [ -0.3623579, 40.4814212 ], [ -0.3620129, 40.4814944 ], [ -0.3585633, 40.4816227 ], [ -0.3577812, 40.4817129 ], [ -0.3566209, 40.4836229 ], [ -0.3544724, 40.4866632 ], [ -0.3541818, 40.487152 ], [ -0.354069, 40.4873206 ], [ -0.3541716, 40.487413 ], [ -0.3545011, 40.4877358 ], [ -0.3548644, 40.4880954 ], [ -0.3549678, 40.4884671 ], [ -0.3548597, 40.4888159 ], [ -0.3546476, 40.4891083 ], [ -0.3543063, 40.4893887 ], [ -0.3538991, 40.4895415 ], [ -0.350189, 40.4905824 ], [ -0.3491101, 40.491017 ], [ -0.3484466, 40.4913891 ], [ -0.3479327, 40.4915574 ], [ -0.3464725, 40.4917851 ], [ -0.3458167, 40.4919591 ], [ -0.3454667, 40.4921583 ], [ -0.3445034, 40.4929468 ], [ -0.3441785, 40.4931105 ], [ -0.3431927, 40.4932769 ], [ -0.3419047, 40.4939229 ], [ -0.3410832, 40.4944084 ], [ -0.3406886, 40.4948406 ], [ -0.3404115, 40.4952846 ], [ -0.3401397, 40.4958909 ], [ -0.3398695, 40.4970556 ], [ -0.3400815, 40.4979612 ], [ -0.3404095, 40.4986173 ], [ -0.3405093, 40.499079 ], [ -0.3403822, 40.500202 ], [ -0.3400117, 40.502112 ], [ -0.3396838, 40.5023477 ], [ -0.3389189, 40.502294 ], [ -0.3384777, 40.5024099 ], [ -0.3375868, 40.5028578 ], [ -0.3370677, 40.5028548 ], [ -0.336554, 40.5027168 ], [ -0.3359503, 40.502766 ], [ -0.3351122, 40.5030709 ], [ -0.334652, 40.5033665 ], [ -0.3339794, 40.5039635 ], [ -0.3334571, 40.504636 ], [ -0.3331527, 40.5051694 ], [ -0.3328391, 40.5059368 ], [ -0.3325097, 40.5065057 ], [ -0.3320142, 40.5070977 ], [ -0.3309145, 40.5080451 ], [ -0.3305205, 40.5081621 ], [ -0.3286548, 40.508191 ], [ -0.3279298, 40.5083184 ], [ -0.3271642, 40.5085799 ], [ -0.3260623, 40.5092839 ], [ -0.3256342, 40.5093641 ], [ -0.3241483, 40.5093387 ], [ -0.3234348, 40.5094752 ], [ -0.3226912, 40.5097733 ], [ -0.3211188, 40.5101421 ], [ -0.3204925, 40.5104609 ], [ -0.3199718, 40.5107911 ], [ -0.3181684, 40.5116229 ], [ -0.3168277, 40.5123934 ], [ -0.3163989, 40.5127888 ], [ -0.3159187, 40.5138765 ], [ -0.3155378, 40.514255 ], [ -0.3149861, 40.5144763 ], [ -0.3142596, 40.5146396 ], [ -0.3136129, 40.5145795 ], [ -0.3132528, 40.514436 ], [ -0.3124561, 40.5139941 ], [ -0.3109984, 40.5147348 ], [ -0.3096325, 40.5155407 ], [ -0.3083384, 40.5166184 ], [ -0.3078944, 40.5170945 ], [ -0.3074128, 40.5179209 ], [ -0.3071499, 40.5185904 ], [ -0.3068616, 40.5196015 ], [ -0.3063034, 40.5205703 ], [ -0.306106, 40.521079 ], [ -0.3062585, 40.5222806 ], [ -0.3061735, 40.5229271 ], [ -0.3049748, 40.5242683 ], [ -0.3041371, 40.5254377 ], [ -0.3037898, 40.5261502 ], [ -0.302969, 40.5274821 ], [ -0.3022572, 40.5281591 ], [ -0.3007268, 40.5292312 ], [ -0.3000512, 40.5295937 ], [ -0.2980359, 40.5309787 ], [ -0.2974804, 40.53129 ], [ -0.2969446, 40.5314035 ], [ -0.2966207, 40.531531 ], [ -0.2963143, 40.5318121 ], [ -0.2960982, 40.5321944 ], [ -0.2960101, 40.5326246 ], [ -0.295996, 40.5335611 ], [ -0.2957038, 40.5340766 ], [ -0.2953561, 40.5345009 ], [ -0.2949517, 40.5354551 ], [ -0.294692, 40.5357463 ], [ -0.2930999, 40.5365827 ], [ -0.2929276, 40.5367588 ], [ -0.2928906, 40.5370913 ], [ -0.2930628, 40.5377979 ], [ -0.2928804, 40.5385142 ], [ -0.292578, 40.5386962 ], [ -0.29216, 40.5388125 ], [ -0.2917891, 40.5392272 ], [ -0.2916584, 40.5395394 ], [ -0.2917168, 40.5401442 ], [ -0.292041, 40.5411786 ], [ -0.2922584, 40.5416431 ], [ -0.2921949, 40.542047 ], [ -0.2918601, 40.5424444 ], [ -0.2902905, 40.5435966 ], [ -0.2901109, 40.5439527 ], [ -0.2904428, 40.5442127 ], [ -0.2909863, 40.5444956 ], [ -0.2916016, 40.5450505 ], [ -0.2920275, 40.5459072 ], [ -0.2925526, 40.5466491 ], [ -0.2925355, 40.547072 ], [ -0.2920868, 40.5476559 ], [ -0.2917726, 40.5484233 ], [ -0.2917032, 40.548971 ], [ -0.2915141, 40.5495611 ], [ -0.2915034, 40.5507048 ], [ -0.2904547, 40.5521123 ], [ -0.290184, 40.5526735 ], [ -0.2902853, 40.5530901 ], [ -0.2909901, 40.553476 ], [ -0.2915793, 40.5535078 ], [ -0.2924069, 40.5534822 ], [ -0.2933128, 40.5535665 ], [ -0.2937439, 40.5537117 ], [ -0.2940051, 40.5539701 ], [ -0.2939696, 40.5542665 ], [ -0.2933027, 40.5544039 ], [ -0.2931947, 40.555032 ], [ -0.2929413, 40.5554584 ], [ -0.2924547, 40.5561045 ], [ -0.2925037, 40.5566461 ], [ -0.2929083, 40.5574482 ], [ -0.2933543, 40.5578099 ], [ -0.2939288, 40.5579135 ], [ -0.294653, 40.5581106 ], [ -0.2949894, 40.5582626 ], [ -0.2950468, 40.5585972 ], [ -0.2946144, 40.5593617 ], [ -0.2948303, 40.5595739 ], [ -0.2954518, 40.5599758 ], [ -0.2960572, 40.5604854 ], [ -0.2963287, 40.5610772 ], [ -0.2965095, 40.5618651 ], [ -0.296592, 40.5627498 ], [ -0.2964013, 40.5642585 ], [ -0.2961898, 40.5645238 ] ] ] } }
]
}
