{
"type": "FeatureCollection",
"name": "44145",
"features": [
{ "type": "Feature", "properties": { "CCAA": "02 - Aragón", "PROVINCIA": "44 - Teruel", "MUNICIPIO": "44145 - Mas de las Matas", "COD_MUNICIPIO": "44145", "DISTRITO": "01", "SECCION": "4414501001", "V1_H": 80.25, "V1_M": 86.11, "V2_H": 80.02266353, "V2_M": 86.02270939, "V3_H": 80.50879823, "V3_M": 86.37032083 }, "geometry": { "type": "Polygon", "coordinates": [ [ [ -0.2185055, 40.852498 ], [ -0.219344, 40.8528695 ], [ -0.2224666, 40.8528007 ], [ -0.2232747, 40.853901 ], [ -0.2242729, 40.8547086 ], [ -0.2257167, 40.8556441 ], [ -0.2266058, 40.8556565 ], [ -0.228219, 40.8570824 ], [ -0.2286048, 40.8577852 ], [ -0.2301637, 40.8576695 ], [ -0.2309044, 40.8583989 ], [ -0.23194, 40.8588831 ], [ -0.232891, 40.8591222 ], [ -0.2394474, 40.8592163 ], [ -0.2436277, 40.8599649 ], [ -0.2447225, 40.8601712 ], [ -0.2448747, 40.86022 ], [ -0.2467907, 40.8609323 ], [ -0.2478091, 40.8615511 ], [ -0.2490526, 40.8624634 ], [ -0.249352, 40.8632542 ], [ -0.2502257, 40.8633561 ], [ -0.2510319, 40.8639428 ], [ -0.2519437, 40.8642707 ], [ -0.2528697, 40.8642568 ], [ -0.254556, 40.8647924 ], [ -0.2555784, 40.8661768 ], [ -0.259885, 40.8670449 ], [ -0.2608706, 40.8681762 ], [ -0.2642135, 40.868823 ], [ -0.2662116, 40.8692848 ], [ -0.2671469, 40.869334 ], [ -0.2679352, 40.8694968 ], [ -0.269092, 40.8693531 ], [ -0.270041, 40.869934 ], [ -0.2710871, 40.8707514 ], [ -0.273657, 40.8723164 ], [ -0.2746132, 40.8727263 ], [ -0.2755625, 40.8727218 ], [ -0.2764971, 40.8725007 ], [ -0.2785569, 40.8729096 ], [ -0.2807952, 40.8730165 ], [ -0.2816687, 40.8734154 ], [ -0.2823086, 40.874016 ], [ -0.2840107, 40.8750469 ], [ -0.2852834, 40.8755543 ], [ -0.2864348, 40.8758336 ], [ -0.2893241, 40.8759826 ], [ -0.2929642, 40.8769239 ], [ -0.2948414, 40.8777426 ], [ -0.2962461, 40.8782169 ], [ -0.2978297, 40.8786684 ], [ -0.298737, 40.8788248 ], [ -0.300307, 40.8799063 ], [ -0.3027385, 40.8799363 ], [ -0.3036712, 40.8803454 ], [ -0.304792, 40.8805067 ], [ -0.3047066, 40.878226 ], [ -0.3045932, 40.8754672 ], [ -0.3047291, 40.8747498 ], [ -0.3061695, 40.8717121 ], [ -0.306382, 40.870276 ], [ -0.311024, 40.8687451 ], [ -0.3135944, 40.8682647 ], [ -0.3164949, 40.8678369 ], [ -0.3163709, 40.8670864 ], [ -0.3164427, 40.8664847 ], [ -0.3165766, 40.8652268 ], [ -0.3173487, 40.8625607 ], [ -0.3091658, 40.8542816 ], [ -0.3088694, 40.8539865 ], [ -0.303139, 40.8499164 ], [ -0.3011122, 40.8484188 ], [ -0.29424, 40.8400793 ], [ -0.2923913, 40.8400449 ], [ -0.2906497, 40.8385448 ], [ -0.2899432, 40.8381319 ], [ -0.2891048, 40.8368782 ], [ -0.288403, 40.8363483 ], [ -0.2869687, 40.8354589 ], [ -0.286099, 40.8352673 ], [ -0.2847084, 40.8350544 ], [ -0.2819859, 40.833477 ], [ -0.2815798, 40.8332603 ], [ -0.2811373, 40.8330607 ], [ -0.2793894, 40.8325961 ], [ -0.2790425, 40.8323807 ], [ -0.2751593, 40.8278846 ], [ -0.273539, 40.826333 ], [ -0.2725765, 40.8252294 ], [ -0.2687625, 40.8196448 ], [ -0.2683875, 40.8192486 ], [ -0.2680111, 40.8191767 ], [ -0.2675821, 40.8192295 ], [ -0.2672775, 40.8194295 ], [ -0.2669658, 40.8200886 ], [ -0.2667186, 40.8203349 ], [ -0.2662495, 40.8204949 ], [ -0.2654097, 40.820448 ], [ -0.2640673, 40.820227 ], [ -0.2626467, 40.8195988 ], [ -0.2620474, 40.8194675 ], [ -0.2601777, 40.819378 ], [ -0.2591658, 40.8191918 ], [ -0.2576746, 40.8188411 ], [ -0.2571896, 40.8188115 ], [ -0.2563972, 40.8190539 ], [ -0.255159, 40.8197539 ], [ -0.2513235, 40.8221935 ], [ -0.2496333, 40.8229278 ], [ -0.2476898, 40.8234758 ], [ -0.2459595, 40.8237407 ], [ -0.2452396, 40.8239486 ], [ -0.2444069, 40.8242981 ], [ -0.2425156, 40.8258741 ], [ -0.2410755, 40.8274339 ], [ -0.2403145, 40.8280551 ], [ -0.2396992, 40.8283106 ], [ -0.2388759, 40.828435 ], [ -0.2378771, 40.8285011 ], [ -0.2359063, 40.8282737 ], [ -0.2352785, 40.8282586 ], [ -0.2347757, 40.8283727 ], [ -0.2344499, 40.828509 ], [ -0.2338336, 40.8290706 ], [ -0.2331476, 40.8298829 ], [ -0.2328511, 40.8304521 ], [ -0.2326756, 40.8315378 ], [ -0.2321636, 40.8330116 ], [ -0.2319683, 40.8334303 ], [ -0.2316396, 40.834206 ], [ -0.2288136, 40.8391279 ], [ -0.2280904, 40.8408308 ], [ -0.2273736, 40.8420925 ], [ -0.2265988, 40.8430376 ], [ -0.2253525, 40.8441966 ], [ -0.2237551, 40.8455271 ], [ -0.2232128, 40.8462977 ], [ -0.2228343, 40.8471262 ], [ -0.2225198, 40.848974 ], [ -0.2221877, 40.8495425 ], [ -0.2216793, 40.8500706 ], [ -0.2197197, 40.8509781 ], [ -0.2190749, 40.8516471 ], [ -0.2185055, 40.852498 ] ] ] } }
]
}
