{
"type": "FeatureCollection",
"name": "44174",
"features": [
{ "type": "Feature", "properties": { "CCAA": "02 - Aragón", "PROVINCIA": "44 - Teruel", "MUNICIPIO": "44174 - Orihuela del Tremedal", "COD_MUNICIPIO": "44174", "DISTRITO": "01", "SECCION": "4417401001", "V1_H": 80.06, "V1_M": 86.09, "V2_H": 79.80248703, "V2_M": 86.14116428, "V3_H": 80.46064959, "V3_M": 86.17412372 }, "geometry": { "type": "Polygon", "coordinates": [ [ [ -1.5375757, 40.588573 ], [ -1.5455147, 40.5951953 ], [ -1.5467561, 40.5946255 ], [ -1.5496605, 40.5931125 ], [ -1.5556871, 40.5859903 ], [ -1.5581637, 40.5845619 ], [ -1.5638073, 40.5814613 ], [ -1.5666921, 40.5797135 ], [ -1.5752566, 40.5742162 ], [ -1.5828946, 40.5694546 ], [ -1.5871838, 40.5694081 ], [ -1.5987489, 40.5620539 ], [ -1.6023111, 40.5645655 ], [ -1.6297059, 40.5760644 ], [ -1.6342495, 40.5797937 ], [ -1.6373672, 40.5798667 ], [ -1.6432928, 40.5801436 ], [ -1.6472607, 40.5808298 ], [ -1.6506625, 40.5814732 ], [ -1.6537129, 40.5819593 ], [ -1.6664602, 40.5820441 ], [ -1.6675549, 40.5834441 ], [ -1.6743303, 40.5921703 ], [ -1.6781003, 40.5909523 ], [ -1.6833529, 40.5834362 ], [ -1.6858206, 40.5799059 ], [ -1.6875202, 40.5793938 ], [ -1.6932845, 40.5776484 ], [ -1.6930517, 40.5762585 ], [ -1.6911652, 40.5706067 ], [ -1.6896389, 40.5664905 ], [ -1.6920522, 40.5620677 ], [ -1.6955567, 40.5537383 ], [ -1.6966298, 40.5513902 ], [ -1.6986621, 40.5464674 ], [ -1.7016237, 40.5410956 ], [ -1.7013031, 40.539966 ], [ -1.7015244, 40.539509 ], [ -1.7018919, 40.5382159 ], [ -1.7015559, 40.5335997 ], [ -1.7013508, 40.5332191 ], [ -1.7013768, 40.5324806 ], [ -1.7007131, 40.5313921 ], [ -1.7007647, 40.5305549 ], [ -1.6999554, 40.5278342 ], [ -1.6997046, 40.5273719 ], [ -1.6987564, 40.5263433 ], [ -1.6986474, 40.5258736 ], [ -1.6984107, 40.5252944 ], [ -1.6971111, 40.5229104 ], [ -1.6969475, 40.5222149 ], [ -1.6969949, 40.5215939 ], [ -1.6974195, 40.5210041 ], [ -1.6967575, 40.5198345 ], [ -1.6967331, 40.5180505 ], [ -1.6968203, 40.5172047 ], [ -1.6968159, 40.5162137 ], [ -1.6967238, 40.515483 ], [ -1.6969277, 40.514098 ], [ -1.6955176, 40.5113344 ], [ -1.6880392, 40.5129072 ], [ -1.6875231, 40.5127392 ], [ -1.6862914, 40.5123469 ], [ -1.6846927, 40.5120133 ], [ -1.676569, 40.5103621 ], [ -1.6729343, 40.5097348 ], [ -1.6670374, 40.5095047 ], [ -1.6639034, 40.5092252 ], [ -1.6616624, 40.5091452 ], [ -1.6615562, 40.509144 ], [ -1.6567487, 40.5093314 ], [ -1.6523248, 40.5092258 ], [ -1.6482933, 40.5089715 ], [ -1.6462506, 40.5090196 ], [ -1.6431074, 40.5103701 ], [ -1.6337143, 40.5114305 ], [ -1.6305786, 40.510078 ], [ -1.6280189, 40.5123178 ], [ -1.6266976, 40.5134372 ], [ -1.6261187, 40.5140429 ], [ -1.6255324, 40.5144323 ], [ -1.6239802, 40.5152967 ], [ -1.6218667, 40.5164786 ], [ -1.6197755, 40.5177238 ], [ -1.6139491, 40.518627 ], [ -1.6125616, 40.5217994 ], [ -1.6111663, 40.5241969 ], [ -1.6107063, 40.5247499 ], [ -1.6071288, 40.5264815 ], [ -1.6053209, 40.5271263 ], [ -1.6034142, 40.5279861 ], [ -1.5996176, 40.5311472 ], [ -1.5957626, 40.5342624 ], [ -1.5938652, 40.5357887 ], [ -1.5924734, 40.5368438 ], [ -1.5904899, 40.5385222 ], [ -1.5904418, 40.5385667 ], [ -1.5893784, 40.5397248 ], [ -1.5866955, 40.5420883 ], [ -1.5854199, 40.5426582 ], [ -1.5829774, 40.5453759 ], [ -1.5801664, 40.547071 ], [ -1.5771471, 40.5491148 ], [ -1.575995, 40.5499834 ], [ -1.5706819, 40.5543589 ], [ -1.5685037, 40.5562598 ], [ -1.5671288, 40.557594 ], [ -1.5663306, 40.558467 ], [ -1.5659042, 40.5590742 ], [ -1.5655232, 40.5597721 ], [ -1.5648067, 40.5606911 ], [ -1.564311, 40.561775 ], [ -1.5640715, 40.5619252 ], [ -1.5626579, 40.5628534 ], [ -1.5623168, 40.5633356 ], [ -1.5610371, 40.564626 ], [ -1.5606525, 40.5649365 ], [ -1.5574331, 40.5663286 ], [ -1.5535581, 40.5701898 ], [ -1.5521874, 40.5712987 ], [ -1.5507085, 40.5724963 ], [ -1.5491501, 40.5735397 ], [ -1.5464353, 40.5767036 ], [ -1.5428242, 40.579775 ], [ -1.5418253, 40.5811587 ], [ -1.5403223, 40.5829053 ], [ -1.5399797, 40.5834415 ], [ -1.5387335, 40.5853266 ], [ -1.5377173, 40.5864127 ], [ -1.5375757, 40.588573 ] ] ] } }
]
}
