{
"type": "FeatureCollection",
"name": "44217",
"features": [
{ "type": "Feature", "properties": { "CCAA": "02 - Aragón", "PROVINCIA": "44 - Teruel", "MUNICIPIO": "44217 - Toril y Masegoso", "COD_MUNICIPIO": "44217", "DISTRITO": "01", "SECCION": "4421701001", "V1_H": 75.48, "V1_M": 82.31, "V2_H": 75.36985678000001, "V2_M": 82.56533706, "V3_H": 75.8600571, "V3_M": 82.01450712 }, "geometry": { "type": "Polygon", "coordinates": [ [ [ -1.4924468, 40.253944 ], [ -1.4929313, 40.2538331 ], [ -1.4936047, 40.2536888 ], [ -1.4952441, 40.2529264 ], [ -1.4965242, 40.2524655 ], [ -1.4976931, 40.2522464 ], [ -1.4984572, 40.2522564 ], [ -1.4994276, 40.2525032 ], [ -1.5003654, 40.2526325 ], [ -1.500707, 40.2526009 ], [ -1.502311, 40.2518469 ], [ -1.5025033, 40.2516602 ], [ -1.5027263, 40.2511406 ], [ -1.5030174, 40.2507389 ], [ -1.503373, 40.2506084 ], [ -1.5049498, 40.2505477 ], [ -1.505406, 40.2501212 ], [ -1.5054662, 40.2500589 ], [ -1.5061548, 40.2497525 ], [ -1.5088458, 40.2498232 ], [ -1.5094303, 40.2499749 ], [ -1.5097544, 40.2496728 ], [ -1.5104776, 40.2499344 ], [ -1.5108852, 40.2501108 ], [ -1.5113971, 40.2503605 ], [ -1.5111444, 40.2511591 ], [ -1.5116508, 40.2516611 ], [ -1.512081, 40.2518829 ], [ -1.5133985, 40.2518548 ], [ -1.5154331, 40.2518269 ], [ -1.5160256, 40.2516183 ], [ -1.5169533, 40.2511347 ], [ -1.519526, 40.2501586 ], [ -1.5196212, 40.2501058 ], [ -1.5199182, 40.2499655 ], [ -1.520242, 40.2496723 ], [ -1.5204685, 40.2489905 ], [ -1.5205106, 40.2481352 ], [ -1.5207101, 40.2476153 ], [ -1.520845, 40.2473558 ], [ -1.5211338, 40.2470531 ], [ -1.5218843, 40.2466033 ], [ -1.5231051, 40.2456098 ], [ -1.5250173, 40.2447153 ], [ -1.5251729, 40.2445912 ], [ -1.5253957, 40.2440715 ], [ -1.5264235, 40.2433009 ], [ -1.5277574, 40.242507 ], [ -1.5282553, 40.2423152 ], [ -1.5292842, 40.2414904 ], [ -1.5295504, 40.2411425 ], [ -1.5299312, 40.2409311 ], [ -1.5318785, 40.2400369 ], [ -1.5328313, 40.2394634 ], [ -1.5337404, 40.2387362 ], [ -1.5339451, 40.2385136 ], [ -1.534336, 40.2372844 ], [ -1.5343206, 40.2363652 ], [ -1.5342323, 40.2360938 ], [ -1.5342723, 40.2358782 ], [ -1.5350183, 40.2350768 ], [ -1.535711, 40.2345721 ], [ -1.5363353, 40.2339674 ], [ -1.5387573, 40.2339439 ], [ -1.5387327, 40.2334481 ], [ -1.5386033, 40.232906 ], [ -1.5383537, 40.2324884 ], [ -1.5378702, 40.2320138 ], [ -1.5372811, 40.2315289 ], [ -1.5365837, 40.2306192 ], [ -1.5364234, 40.230419 ], [ -1.5364165, 40.2301937 ], [ -1.5374702, 40.2276575 ], [ -1.5373908, 40.2275213 ], [ -1.5364765, 40.2268611 ], [ -1.5358459, 40.2261234 ], [ -1.5354752, 40.2258755 ], [ -1.5334815, 40.22567 ], [ -1.533262, 40.2254961 ], [ -1.5331714, 40.2247922 ], [ -1.5325322, 40.2239103 ], [ -1.5321867, 40.2235815 ], [ -1.5313853, 40.223139 ], [ -1.5305524, 40.2225248 ], [ -1.5284548, 40.2211558 ], [ -1.5279671, 40.2208793 ], [ -1.5270438, 40.2206424 ], [ -1.526469, 40.22059 ], [ -1.5256092, 40.2195971 ], [ -1.5250356, 40.2189501 ], [ -1.5249596, 40.2186609 ], [ -1.5252552, 40.218034 ], [ -1.5246963, 40.2172521 ], [ -1.5240815, 40.2168839 ], [ -1.5239557, 40.2167201 ], [ -1.523989, 40.2162701 ], [ -1.523877, 40.2160164 ], [ -1.522914, 40.2154456 ], [ -1.5222964, 40.2152035 ], [ -1.5208444, 40.2149687 ], [ -1.5203072, 40.2148087 ], [ -1.5198291, 40.2146404 ], [ -1.519415, 40.2142297 ], [ -1.518475, 40.2131456 ], [ -1.518073, 40.212717 ], [ -1.5178601, 40.2122459 ], [ -1.5177402, 40.2118119 ], [ -1.5189062, 40.2095295 ], [ -1.5191786, 40.2088934 ], [ -1.5194797, 40.2085549 ], [ -1.5208496, 40.2076986 ], [ -1.5231567, 40.2058902 ], [ -1.5234781, 40.2056961 ], [ -1.5243284, 40.2054997 ], [ -1.5240499, 40.2042529 ], [ -1.5240007, 40.2038109 ], [ -1.5240949, 40.2032626 ], [ -1.5243057, 40.2027517 ], [ -1.5246316, 40.2023505 ], [ -1.5251097, 40.2019782 ], [ -1.5265984, 40.2010512 ], [ -1.5260196, 40.2006475 ], [ -1.5255216, 40.2003168 ], [ -1.5253462, 40.2002785 ], [ -1.5251691, 40.2003213 ], [ -1.5243296, 40.2011034 ], [ -1.5233139, 40.2018922 ], [ -1.5220555, 40.2024888 ], [ -1.521468, 40.2024902 ], [ -1.5210526, 40.2026831 ], [ -1.5208391, 40.2027795 ], [ -1.5193488, 40.2032289 ], [ -1.5182936, 40.2036659 ], [ -1.5172872, 40.2040223 ], [ -1.5166306, 40.2039599 ], [ -1.5152355, 40.2032753 ], [ -1.5145012, 40.2030046 ], [ -1.5126381, 40.203314 ], [ -1.5119043, 40.2035569 ], [ -1.5114833, 40.2040019 ], [ -1.5112495, 40.2044853 ], [ -1.5109632, 40.2046799 ], [ -1.5105999, 40.2046392 ], [ -1.5099044, 40.2042068 ], [ -1.5090265, 40.2035198 ], [ -1.5089028, 40.203266 ], [ -1.5069871, 40.2022232 ], [ -1.5053699, 40.2014907 ], [ -1.5042459, 40.2007824 ], [ -1.5035067, 40.2002053 ], [ -1.5024875, 40.1995345 ], [ -1.5013376, 40.198934 ], [ -1.4995345, 40.1981178 ], [ -1.4991816, 40.1981403 ], [ -1.497485, 40.1988931 ], [ -1.4969232, 40.1982641 ], [ -1.4964901, 40.1981864 ], [ -1.4955255, 40.1977144 ], [ -1.4926349, 40.1961453 ], [ -1.4913967, 40.1958229 ], [ -1.4894067, 40.1954996 ], [ -1.4891931, 40.1950644 ], [ -1.4889756, 40.1948093 ], [ -1.4887397, 40.1948513 ], [ -1.4885493, 40.1944344 ], [ -1.4883667, 40.1941887 ], [ -1.4855949, 40.19363 ], [ -1.4840838, 40.1934391 ], [ -1.4834774, 40.1932329 ], [ -1.4815183, 40.1915315 ], [ -1.4804335, 40.1906615 ], [ -1.4789753, 40.1896783 ], [ -1.4781985, 40.1892177 ], [ -1.4775074, 40.188605 ], [ -1.4760646, 40.1869373 ], [ -1.4757619, 40.1868163 ], [ -1.4751751, 40.1867905 ], [ -1.4753628, 40.1862794 ], [ -1.4751561, 40.1860695 ], [ -1.473462, 40.1856598 ], [ -1.4729602, 40.1870856 ], [ -1.4722555, 40.1886529 ], [ -1.4717052, 40.1896186 ], [ -1.4711365, 40.1903588 ], [ -1.4705481, 40.1909276 ], [ -1.469929, 40.1912978 ], [ -1.4691223, 40.1916475 ], [ -1.4677148, 40.1920703 ], [ -1.4655235, 40.1928701 ], [ -1.4641162, 40.1938063 ], [ -1.4631065, 40.1942974 ], [ -1.4610459, 40.1950269 ], [ -1.4599529, 40.1955708 ], [ -1.4582518, 40.1965031 ], [ -1.4561514, 40.1979436 ], [ -1.4560406, 40.1981673 ], [ -1.4568405, 40.19916 ], [ -1.4568698, 40.1994216 ], [ -1.4567047, 40.2004825 ], [ -1.4569095, 40.2007825 ], [ -1.4574574, 40.20097 ], [ -1.4584637, 40.2011546 ], [ -1.4600619, 40.2016533 ], [ -1.4632029, 40.2030374 ], [ -1.4640389, 40.2034809 ], [ -1.4657243, 40.2048096 ], [ -1.4665074, 40.2060361 ], [ -1.4668634, 40.2064012 ], [ -1.4684889, 40.2077921 ], [ -1.4702991, 40.208807 ], [ -1.4715327, 40.2098594 ], [ -1.4724913, 40.2106018 ], [ -1.4737918, 40.2112946 ], [ -1.4747989, 40.2119745 ], [ -1.4758806, 40.2135203 ], [ -1.4772764, 40.2157368 ], [ -1.4774981, 40.2163344 ], [ -1.4775955, 40.216705 ], [ -1.4776926, 40.2170937 ], [ -1.4779856, 40.2176561 ], [ -1.4784697, 40.2180769 ], [ -1.4795097, 40.2193968 ], [ -1.4800413, 40.2203227 ], [ -1.4802725, 40.2210194 ], [ -1.4818595, 40.2236348 ], [ -1.4823726, 40.2243443 ], [ -1.4827714, 40.224908 ], [ -1.4831566, 40.2255527 ], [ -1.4831963, 40.2258775 ], [ -1.48335, 40.2263661 ], [ -1.4842764, 40.2275133 ], [ -1.4844822, 40.2282998 ], [ -1.4848842, 40.229251 ], [ -1.4847536, 40.2298348 ], [ -1.4852915, 40.231013 ], [ -1.4855659, 40.2313589 ], [ -1.4858804, 40.2314892 ], [ -1.4862325, 40.2315118 ], [ -1.4863923, 40.2317301 ], [ -1.4864035, 40.2322798 ], [ -1.4866567, 40.2330489 ], [ -1.4872177, 40.2337229 ], [ -1.4872686, 40.2346064 ], [ -1.4874121, 40.2355542 ], [ -1.4874217, 40.2356445 ], [ -1.4872531, 40.2358314 ], [ -1.486777, 40.2360955 ], [ -1.4862005, 40.2366465 ], [ -1.485655, 40.2373871 ], [ -1.4853603, 40.2379508 ], [ -1.484525, 40.2395614 ], [ -1.4842216, 40.2399898 ], [ -1.4831826, 40.240715 ], [ -1.4818247, 40.2415079 ], [ -1.4799399, 40.2427354 ], [ -1.4761553, 40.2432172 ], [ -1.4754459, 40.243397 ], [ -1.4739598, 40.2441341 ], [ -1.4721841, 40.2441558 ], [ -1.4697528, 40.2440516 ], [ -1.4672122, 40.244108 ], [ -1.4652829, 40.244686 ], [ -1.4644101, 40.2448096 ], [ -1.4616611, 40.244719 ], [ -1.4615101, 40.2482755 ], [ -1.4624438, 40.2501347 ], [ -1.4632646, 40.2517942 ], [ -1.4654331, 40.2510483 ], [ -1.4663899, 40.2524123 ], [ -1.4683313, 40.2549605 ], [ -1.4676482, 40.2570955 ], [ -1.466915, 40.2609235 ], [ -1.4669289, 40.2639597 ], [ -1.4668083, 40.2651292 ], [ -1.4663653, 40.2675648 ], [ -1.4645305, 40.273288 ], [ -1.4639262, 40.2755683 ], [ -1.4631056, 40.2764853 ], [ -1.4616393, 40.2783846 ], [ -1.4607228, 40.2793814 ], [ -1.4628657, 40.2813648 ], [ -1.4641854, 40.2812652 ], [ -1.4664232, 40.2780157 ], [ -1.4680989, 40.2762092 ], [ -1.4685535, 40.2758729 ], [ -1.4706382, 40.2747022 ], [ -1.4712434, 40.274467 ], [ -1.4728611, 40.2741821 ], [ -1.4730654, 40.2739866 ], [ -1.4737024, 40.2728599 ], [ -1.4742982, 40.2714714 ], [ -1.4749573, 40.270399 ], [ -1.4754128, 40.2694951 ], [ -1.4760113, 40.2685031 ], [ -1.4761478, 40.2681896 ], [ -1.4759843, 40.2676108 ], [ -1.4760066, 40.2671427 ], [ -1.4767008, 40.2660798 ], [ -1.47711, 40.2651392 ], [ -1.4777425, 40.2642016 ], [ -1.4787046, 40.2643044 ], [ -1.4786609, 40.2636281 ], [ -1.4790818, 40.2626878 ], [ -1.4796206, 40.2612083 ], [ -1.4803535, 40.2599838 ], [ -1.480787, 40.25953 ], [ -1.4824635, 40.2587052 ], [ -1.4847487, 40.2574739 ], [ -1.4850383, 40.2571444 ], [ -1.4852519, 40.2565256 ], [ -1.4857915, 40.2555326 ], [ -1.4862514, 40.2549441 ], [ -1.4868361, 40.2545644 ], [ -1.4876892, 40.2542692 ], [ -1.4894953, 40.2539505 ], [ -1.4897549, 40.2539088 ], [ -1.4911057, 40.2539715 ], [ -1.4915736, 40.2540767 ], [ -1.4920463, 40.2539748 ], [ -1.4924468, 40.253944 ] ] ] } }
]
}
