{
"type": "FeatureCollection",
"name": "45041",
"features": [
{ "type": "Feature", "properties": { "CCAA": "08 - Castilla-La Mancha", "PROVINCIA": "45 - Toledo", "MUNICIPIO": "45041 - Casarrubios del Monte", "COD_MUNICIPIO": "45041", "DISTRITO": "01", "SECCION": "4504101002", "V1_H": 80.27, "V1_M": 86.36, "V2_H": 80.04050342, "V2_M": 86.25745667, "V3_H": 80.55487256000001, "V3_M": 86.64917866 }, "geometry": { "type": "Polygon", "coordinates": [ [ [ -4.0526869, 40.2518319 ], [ -4.0529974, 40.2519887 ], [ -4.054203, 40.2526014 ], [ -4.0545843, 40.252795 ], [ -4.055176, 40.2531122 ], [ -4.0561741, 40.2536301 ], [ -4.0564103, 40.2537617 ], [ -4.0566201, 40.2538783 ], [ -4.0567566, 40.2539599 ], [ -4.056976, 40.2539336 ], [ -4.0570007, 40.253937 ], [ -4.0570214, 40.2539465 ], [ -4.0570256, 40.2539485 ], [ -4.057029, 40.2539509 ], [ -4.0570423, 40.2539609 ], [ -4.0570664, 40.2539941 ], [ -4.0570963, 40.2540352 ], [ -4.0571456, 40.2541014 ], [ -4.0571901, 40.2541605 ], [ -4.0572513, 40.2542455 ], [ -4.057337, 40.254302 ], [ -4.057349, 40.2543099 ], [ -4.0616055, 40.2571186 ], [ -4.0625384, 40.2577341 ], [ -4.0627604, 40.2579625 ], [ -4.0631481, 40.258597 ], [ -4.0645163, 40.2603592 ], [ -4.0649785, 40.2605892 ], [ -4.0658677, 40.261159 ], [ -4.0676395, 40.2622944 ], [ -4.0680992, 40.2626279 ], [ -4.0723319, 40.2651202 ], [ -4.0728943, 40.2654513 ], [ -4.0745162, 40.265292 ], [ -4.0753755, 40.2652076 ], [ -4.0772366, 40.265842 ], [ -4.0804565, 40.2669396 ], [ -4.083737, 40.2598142 ], [ -4.0842756, 40.2589378 ], [ -4.0848614, 40.2582064 ], [ -4.0849979, 40.2579168 ], [ -4.0855982, 40.2572175 ], [ -4.0872348, 40.2541898 ], [ -4.0888496, 40.2530535 ], [ -4.0895982, 40.2529365 ], [ -4.0898855, 40.2525194 ], [ -4.09038, 40.2525598 ], [ -4.0940691, 40.2501826 ], [ -4.0942663, 40.2500186 ], [ -4.0960393, 40.2491369 ], [ -4.0996842, 40.2469582 ], [ -4.0997624, 40.2467052 ], [ -4.0999351, 40.2464783 ], [ -4.1005647, 40.246148 ], [ -4.1005796, 40.2461369 ], [ -4.1006121, 40.246113 ], [ -4.1009364, 40.2458742 ], [ -4.1017148, 40.2445695 ], [ -4.1021824, 40.2436821 ], [ -4.1024013, 40.2434007 ], [ -4.1027498, 40.2431452 ], [ -4.1030995, 40.2429617 ], [ -4.1039263, 40.2421211 ], [ -4.1042445, 40.2417976 ], [ -4.1038956, 40.2413054 ], [ -4.1035729, 40.2409842 ], [ -4.1033408, 40.2404368 ], [ -4.1032277, 40.2399964 ], [ -4.1029489, 40.2394765 ], [ -4.1025034, 40.2388231 ], [ -4.1018085, 40.2380189 ], [ -4.1016126, 40.2375343 ], [ -4.1012893, 40.237168 ], [ -4.1009476, 40.2363965 ], [ -4.1003667, 40.2353659 ], [ -4.1001803, 40.2347461 ], [ -4.0995855, 40.2343103 ], [ -4.099129, 40.2337019 ], [ -4.0987844, 40.233471 ], [ -4.0982283, 40.233251 ], [ -4.0973915, 40.2331148 ], [ -4.0968265, 40.2330661 ], [ -4.0962917, 40.2327018 ], [ -4.0953154, 40.2319363 ], [ -4.0951429, 40.2314424 ], [ -4.0947442, 40.2307705 ], [ -4.0943645, 40.2298191 ], [ -4.093541, 40.2283134 ], [ -4.0920609, 40.2276336 ], [ -4.091872, 40.2275813 ], [ -4.0916731, 40.2276373 ], [ -4.0899848, 40.2286442 ], [ -4.089588, 40.2288191 ], [ -4.088546, 40.2290722 ], [ -4.087192, 40.2296705 ], [ -4.0866311, 40.2298739 ], [ -4.0860924, 40.2300051 ], [ -4.0855642, 40.2300461 ], [ -4.0850703, 40.2300327 ], [ -4.0840368, 40.2300875 ], [ -4.0830874, 40.2302585 ], [ -4.0824904, 40.2304172 ], [ -4.0819647, 40.2306204 ], [ -4.0816136, 40.2307137 ], [ -4.0812014, 40.2306635 ], [ -4.0807053, 40.230515 ], [ -4.080208, 40.2302854 ], [ -4.0791115, 40.2285929 ], [ -4.0788032, 40.2284246 ], [ -4.0779603, 40.2271531 ], [ -4.0777905, 40.2268214 ], [ -4.0777268, 40.2265156 ], [ -4.0777203, 40.2261013 ], [ -4.0779405, 40.2251623 ], [ -4.0779978, 40.2243239 ], [ -4.0778654, 40.2233882 ], [ -4.0784186, 40.2212118 ], [ -4.0781896, 40.2208536 ], [ -4.0780693, 40.2206835 ], [ -4.0776542, 40.2197054 ], [ -4.0772607, 40.2186009 ], [ -4.077208, 40.218241 ], [ -4.0769672, 40.2178829 ], [ -4.0767244, 40.2173897 ], [ -4.0764483, 40.2162751 ], [ -4.0762269, 40.2156555 ], [ -4.0759494, 40.2151986 ], [ -4.0757097, 40.2149035 ], [ -4.074723, 40.2141919 ], [ -4.0735003, 40.2134105 ], [ -4.0732146, 40.2131789 ], [ -4.0729142, 40.2127582 ], [ -4.07252, 40.2123475 ], [ -4.072092, 40.2120361 ], [ -4.0718049, 40.2117144 ], [ -4.0714842, 40.2107534 ], [ -4.0705578, 40.2086268 ], [ -4.0699825, 40.2071636 ], [ -4.0698249, 40.2068588 ], [ -4.0692543, 40.2062862 ], [ -4.0689176, 40.2059482 ], [ -4.0688464, 40.2057836 ], [ -4.0688446, 40.2057794 ], [ -4.0687488, 40.2057693 ], [ -4.0686805, 40.2057747 ], [ -4.0686315, 40.2058205 ], [ -4.0686261, 40.2058706 ], [ -4.0686176, 40.2059255 ], [ -4.0685941, 40.2060139 ], [ -4.0682637, 40.2067511 ], [ -4.068174, 40.2069808 ], [ -4.0680775, 40.20717 ], [ -4.0678099, 40.2075515 ], [ -4.0676501, 40.2078652 ], [ -4.0675461, 40.2081737 ], [ -4.0672936, 40.208729 ], [ -4.0668901, 40.2093278 ], [ -4.0668058, 40.2095368 ], [ -4.0667024, 40.2096879 ], [ -4.0665586, 40.2098347 ], [ -4.0663654, 40.2100081 ], [ -4.0661634, 40.2102078 ], [ -4.0659048, 40.2105749 ], [ -4.0658849, 40.2108897 ], [ -4.0658702, 40.2111425 ], [ -4.0658808, 40.2114237 ], [ -4.0658765, 40.2115429 ], [ -4.0658379, 40.2116624 ], [ -4.0657733, 40.2117036 ], [ -4.0656553, 40.2117142 ], [ -4.0654371, 40.2116757 ], [ -4.0649977, 40.211613 ], [ -4.0648882, 40.2115711 ], [ -4.0647419, 40.2115581 ], [ -4.0644814, 40.2116034 ], [ -4.0640884, 40.2117214 ], [ -4.0635977, 40.2117593 ], [ -4.0637455, 40.2121662 ], [ -4.0643353, 40.2125093 ], [ -4.0651781, 40.2130081 ], [ -4.0650339, 40.2133289 ], [ -4.0647887, 40.2135552 ], [ -4.0642918, 40.2138788 ], [ -4.0639851, 40.2142634 ], [ -4.0638198, 40.214427 ], [ -4.0635552, 40.2145327 ], [ -4.0631036, 40.2151582 ], [ -4.0630041, 40.2155548 ], [ -4.0632381, 40.2158054 ], [ -4.0632551, 40.2161037 ], [ -4.0631956, 40.2164528 ], [ -4.0631464, 40.2166977 ], [ -4.0630308, 40.2168656 ], [ -4.0630305, 40.2172399 ], [ -4.0630094, 40.2176858 ], [ -4.0629217, 40.2178416 ], [ -4.0627804, 40.2179525 ], [ -4.0624379, 40.2183204 ], [ -4.0623202, 40.2185479 ], [ -4.0622054, 40.2189613 ], [ -4.0620773, 40.2189267 ], [ -4.0619401, 40.2189018 ], [ -4.061763, 40.2189082 ], [ -4.0613109, 40.2190315 ], [ -4.0607231, 40.2192204 ], [ -4.0600928, 40.2194683 ], [ -4.0594183, 40.2196972 ], [ -4.0587033, 40.2199042 ], [ -4.0583085, 40.2201197 ], [ -4.0569945, 40.2206013 ], [ -4.0564699, 40.2206609 ], [ -4.0561931, 40.2206587 ], [ -4.0559543, 40.2206263 ], [ -4.0557243, 40.2204542 ], [ -4.0554791, 40.2201384 ], [ -4.0551918, 40.2198574 ], [ -4.0548766, 40.2195814 ], [ -4.0545893, 40.2193075 ], [ -4.0543356, 40.2189832 ], [ -4.0541252, 40.2186514 ], [ -4.0539458, 40.2183122 ], [ -4.0538098, 40.217963 ], [ -4.0537732, 40.2176106 ], [ -4.0536974, 40.2173348 ], [ -4.0535719, 40.2170594 ], [ -4.0531974, 40.2163644 ], [ -4.0527234, 40.215675 ], [ -4.0524724, 40.2153269 ], [ -4.0522978, 40.2150997 ], [ -4.0521197, 40.2150393 ], [ -4.0518388, 40.2151753 ], [ -4.0515922, 40.2153135 ], [ -4.0514364, 40.2154913 ], [ -4.0509424, 40.2155172 ], [ -4.0504442, 40.2154717 ], [ -4.0501465, 40.215522 ], [ -4.0499281, 40.2154764 ], [ -4.0498758, 40.2153076 ], [ -4.0496662, 40.2154287 ], [ -4.049488, 40.2155333 ], [ -4.0493865, 40.2156129 ], [ -4.049062, 40.2158915 ], [ -4.0488592, 40.2160667 ], [ -4.0486667, 40.2162417 ], [ -4.0485206, 40.2163472 ], [ -4.0483943, 40.2164271 ], [ -4.0482391, 40.2164976 ], [ -4.0480621, 40.2166589 ], [ -4.0477917, 40.2168009 ], [ -4.0476552, 40.2168914 ], [ -4.0474865, 40.2170407 ], [ -4.0473391, 40.2171612 ], [ -4.0472504, 40.217255 ], [ -4.0471062, 40.2173803 ], [ -4.0469741, 40.2174863 ], [ -4.0468819, 40.2175587 ], [ -4.0467525, 40.2176338 ], [ -4.0466134, 40.2176898 ], [ -4.0464499, 40.2177346 ], [ -4.0461489, 40.2178132 ], [ -4.0459692, 40.217853 ], [ -4.0452775, 40.2179641 ], [ -4.0445833, 40.2181158 ], [ -4.0438924, 40.2182793 ], [ -4.0437466, 40.2183045 ], [ -4.0436167, 40.2183462 ], [ -4.0433906, 40.2184054 ], [ -4.0432078, 40.21845 ], [ -4.043025, 40.2184922 ], [ -4.0427833, 40.2185492 ], [ -4.0426003, 40.2185794 ], [ -4.0424445, 40.218557 ], [ -4.0422663, 40.2184918 ], [ -4.0421145, 40.218529 ], [ -4.0419603, 40.2186114 ], [ -4.0417478, 40.2187468 ], [ -4.0416121, 40.2188219 ], [ -4.0415236, 40.2189324 ], [ -4.0415035, 40.2190398 ], [ -4.0415298, 40.2191349 ], [ -4.0414967, 40.219202 ], [ -4.0414321, 40.2192502 ], [ -4.0412685, 40.2193304 ], [ -4.0411359, 40.2194031 ], [ -4.0410003, 40.2194806 ], [ -4.0408432, 40.2195773 ], [ -4.0406641, 40.2196613 ], [ -4.0405421, 40.2197411 ], [ -4.0403591, 40.2198688 ], [ -4.0401872, 40.2199932 ], [ -4.040024, 40.2200948 ], [ -4.0398856, 40.2201985 ], [ -4.0397471, 40.2202904 ], [ -4.0395683, 40.2203921 ], [ -4.0393239, 40.2204753 ], [ -4.0390977, 40.2205298 ], [ -4.0388436, 40.2205821 ], [ -4.0386358, 40.2206221 ], [ -4.0383909, 40.220672 ], [ -4.0380998, 40.2207485 ], [ -4.0378675, 40.2208102 ], [ -4.0375392, 40.2209101 ], [ -4.0373957, 40.220935 ], [ -4.0372314, 40.2209444 ], [ -4.0370877, 40.2209535 ], [ -4.0369522, 40.2209423 ], [ -4.0368271, 40.2208958 ], [ -4.0366561, 40.2208949 ], [ -4.0364884, 40.2209131 ], [ -4.0362059, 40.2209419 ], [ -4.0357991, 40.2209813 ], [ -4.035175, 40.2210369 ], [ -4.0347808, 40.2210857 ], [ -4.0343956, 40.2211106 ], [ -4.0340943, 40.2211372 ], [ -4.0339296, 40.2211386 ], [ -4.0337526, 40.2211593 ], [ -4.0334841, 40.2211354 ], [ -4.0331017, 40.2210936 ], [ -4.0328715, 40.2210861 ], [ -4.0326477, 40.2210905 ], [ -4.0324301, 40.2210948 ], [ -4.0322201, 40.221123 ], [ -4.0320392, 40.2211579 ], [ -4.0318405, 40.2211658 ], [ -4.0315327, 40.2211922 ], [ -4.0312437, 40.221196 ], [ -4.0310234, 40.2212265 ], [ -4.0305142, 40.2212764 ], [ -4.0301053, 40.2213801 ], [ -4.0300378, 40.2214379 ], [ -4.0299102, 40.2214367 ], [ -4.0295953, 40.2213775 ], [ -4.0292365, 40.2212996 ], [ -4.0288772, 40.221186 ], [ -4.0286744, 40.2211402 ], [ -4.028475, 40.2211157 ], [ -4.0280574, 40.2210598 ], [ -4.0276055, 40.2209923 ], [ -4.0272284, 40.2209385 ], [ -4.0268727, 40.2208582 ], [ -4.0265017, 40.2207948 ], [ -4.0262087, 40.2207449 ], [ -4.0259002, 40.2207047 ], [ -4.0256385, 40.2206713 ], [ -4.0253493, 40.2206715 ], [ -4.0250233, 40.2207006 ], [ -4.0248495, 40.220726 ], [ -4.0247339, 40.220717 ], [ -4.0246501, 40.2207015 ], [ -4.0244984, 40.220741 ], [ -4.024359, 40.220778 ], [ -4.0242213, 40.2207924 ], [ -4.0240797, 40.2208186 ], [ -4.0239246, 40.2208438 ], [ -4.0237187, 40.220852 ], [ -4.023462, 40.2208621 ], [ -4.023339, 40.2208789 ], [ -4.0231328, 40.2209152 ], [ -4.0229418, 40.2209405 ], [ -4.0227662, 40.2209399 ], [ -4.0225947, 40.22092 ], [ -4.022315, 40.2209176 ], [ -4.0220789, 40.2209541 ], [ -4.0217445, 40.2210275 ], [ -4.0214843, 40.2210942 ], [ -4.0212209, 40.2211609 ], [ -4.0209826, 40.2212369 ], [ -4.0207203, 40.2213146 ], [ -4.0205514, 40.2213574 ], [ -4.0204004, 40.2213922 ], [ -4.0202607, 40.2214077 ], [ -4.0201359, 40.2213965 ], [ -4.0199508, 40.2213863 ], [ -4.0197785, 40.2213953 ], [ -4.0196139, 40.221411 ], [ -4.0195027, 40.2214573 ], [ -4.0193263, 40.2215185 ], [ -4.0191531, 40.2215772 ], [ -4.0190017, 40.2216429 ], [ -4.018804, 40.2217304 ], [ -4.0184215, 40.2219388 ], [ -4.0180257, 40.2220853 ], [ -4.0178743, 40.2221534 ], [ -4.0177592, 40.2222149 ], [ -4.0176676, 40.2222748 ], [ -4.0174856, 40.2223618 ], [ -4.0172693, 40.2224519 ], [ -4.0170808, 40.2225346 ], [ -4.0169048, 40.2226148 ], [ -4.016667, 40.2227289 ], [ -4.0165251, 40.2228017 ], [ -4.0163434, 40.2229225 ], [ -4.0161926, 40.2230287 ], [ -4.0160336, 40.2232065 ], [ -4.0158467, 40.2233916 ], [ -4.0155616, 40.2236755 ], [ -4.0153945, 40.2238365 ], [ -4.0152455, 40.2239499 ], [ -4.0150063, 40.2241589 ], [ -4.0147702, 40.22435 ], [ -4.0144641, 40.2244944 ], [ -4.0143198, 40.2245551 ], [ -4.014339, 40.224572 ], [ -4.0167608, 40.2271229 ], [ -4.0189797, 40.2295258 ], [ -4.0200498, 40.2303625 ], [ -4.0206094, 40.2308351 ], [ -4.0209418, 40.2316473 ], [ -4.0209975, 40.2317074 ], [ -4.0221036, 40.2335877 ], [ -4.026159, 40.2356105 ], [ -4.0261769, 40.2359382 ], [ -4.0261885, 40.2360868 ], [ -4.0262112, 40.2362658 ], [ -4.0262203, 40.2364009 ], [ -4.0262208, 40.2365108 ], [ -4.0262181, 40.2365667 ], [ -4.0262047, 40.2366137 ], [ -4.0261567, 40.2367006 ], [ -4.0260889, 40.2368057 ], [ -4.0260362, 40.2368869 ], [ -4.0261006, 40.2371921 ], [ -4.0261152, 40.2378529 ], [ -4.0261662, 40.2379591 ], [ -4.0262266, 40.2381424 ], [ -4.0262497, 40.2382737 ], [ -4.0262713, 40.2384564 ], [ -4.0262777, 40.2386482 ], [ -4.0262895, 40.2388058 ], [ -4.0263045, 40.2390218 ], [ -4.026343, 40.2393125 ], [ -4.0263621, 40.2395646 ], [ -4.026385, 40.2397563 ], [ -4.0263209, 40.2401104 ], [ -4.0263126, 40.2403344 ], [ -4.02628, 40.2404392 ], [ -4.0262664, 40.2405456 ], [ -4.0262709, 40.2408438 ], [ -4.0262849, 40.24115 ], [ -4.0263282, 40.2414496 ], [ -4.0263859, 40.2416887 ], [ -4.0264581, 40.2419521 ], [ -4.0265462, 40.2421865 ], [ -4.026663, 40.2425206 ], [ -4.0267464, 40.2428297 ], [ -4.0267953, 40.2430329 ], [ -4.026818, 40.2432867 ], [ -4.0266686, 40.2436763 ], [ -4.0266668, 40.2440215 ], [ -4.0266448, 40.2445126 ], [ -4.0266461, 40.2446748 ], [ -4.0266412, 40.2447397 ], [ -4.0266291, 40.2447939 ], [ -4.0265961, 40.244868 ], [ -4.0264615, 40.2451449 ], [ -4.0263781, 40.2453033 ], [ -4.0262915, 40.2454861 ], [ -4.0262224, 40.2456606 ], [ -4.0261602, 40.2458224 ], [ -4.0260806, 40.2460024 ], [ -4.0259858, 40.2461852 ], [ -4.0258754, 40.2463474 ], [ -4.0257209, 40.2465488 ], [ -4.0256623, 40.2466421 ], [ -4.02553, 40.2468352 ], [ -4.0253595, 40.2470637 ], [ -4.0251968, 40.2472751 ], [ -4.0250743, 40.2474068 ], [ -4.0249733, 40.2475014 ], [ -4.0248863, 40.2475769 ], [ -4.0248698, 40.2475914 ], [ -4.0247438, 40.2477989 ], [ -4.0243952, 40.2481074 ], [ -4.0241986, 40.2482812 ], [ -4.0237682, 40.2490193 ], [ -4.0240278, 40.2489683 ], [ -4.0259618, 40.2495819 ], [ -4.0315145, 40.2497253 ], [ -4.034526, 40.249803 ], [ -4.0386202, 40.2497507 ], [ -4.0418697, 40.2497092 ], [ -4.0437174, 40.2500383 ], [ -4.052086, 40.2515286 ], [ -4.052341, 40.2516573 ], [ -4.0526869, 40.2518319 ] ] ] } },
{ "type": "Feature", "properties": { "CCAA": "08 - Castilla-La Mancha", "PROVINCIA": "45 - Toledo", "MUNICIPIO": "45041 - Casarrubios del Monte", "COD_MUNICIPIO": "45041", "DISTRITO": "01", "SECCION": "4504101003", "V1_H": 79.63, "V1_M": 85.51, "V2_H": 79.79644461, "V2_M": 85.57767022, "V3_H": 79.53263393, "V3_M": 85.68344389000001 }, "geometry": { "type": "Polygon", "coordinates": [ [ [ -3.9967898, 40.1818745 ], [ -3.99622, 40.18192 ], [ -3.9955505, 40.1819257 ], [ -3.9936914, 40.1817074 ], [ -3.9922321, 40.1815127 ], [ -3.9896195, 40.1811747 ], [ -3.9853862, 40.1808414 ], [ -3.9846325, 40.1807037 ], [ -3.9843488, 40.1805799 ], [ -3.9839382, 40.1797996 ], [ -3.982097, 40.1800045 ], [ -3.9802228, 40.1803627 ], [ -3.9782986, 40.1805051 ], [ -3.9773817, 40.1804588 ], [ -3.975381, 40.1801873 ], [ -3.9739902, 40.1798476 ], [ -3.9717058, 40.1794434 ], [ -3.9699846, 40.1789984 ], [ -3.9692997, 40.1787428 ], [ -3.9674251, 40.178245 ], [ -3.9672091, 40.1795801 ], [ -3.9639627, 40.1792559 ], [ -3.9619992, 40.179119 ], [ -3.9617115, 40.1795358 ], [ -3.9611435, 40.1800721 ], [ -3.9601267, 40.179594 ], [ -3.9594011, 40.1789514 ], [ -3.9586676, 40.1777412 ], [ -3.9584294, 40.1775089 ], [ -3.9580621, 40.1772777 ], [ -3.9579633, 40.1786029 ], [ -3.9577067, 40.179569 ], [ -3.9569622, 40.1809175 ], [ -3.9568055, 40.1814684 ], [ -3.9566937, 40.1827126 ], [ -3.9567599, 40.1832436 ], [ -3.9581046, 40.1844848 ], [ -3.958424, 40.1846353 ], [ -3.9592956, 40.1848083 ], [ -3.9594984, 40.1850319 ], [ -3.9596862, 40.1858501 ], [ -3.9599717, 40.186109 ], [ -3.9602232, 40.1864493 ], [ -3.9605395, 40.1872215 ], [ -3.9607552, 40.187517 ], [ -3.9603459, 40.1884844 ], [ -3.9596805, 40.1896161 ], [ -3.9580339, 40.1936569 ], [ -3.9568685, 40.1951621 ], [ -3.9562514, 40.1963924 ], [ -3.9561189, 40.1969971 ], [ -3.9561027, 40.1975198 ], [ -3.9562233, 40.1985819 ], [ -3.9562818, 40.1990722 ], [ -3.9562977, 40.1990851 ], [ -3.9562647, 40.199441 ], [ -3.956247, 40.1995952 ], [ -3.9561352, 40.200089 ], [ -3.9560949, 40.2002308 ], [ -3.9560255, 40.2004728 ], [ -3.9559716, 40.2006507 ], [ -3.9559028, 40.2008558 ], [ -3.955851, 40.2010139 ], [ -3.9557922, 40.2011801 ], [ -3.9556835, 40.2014783 ], [ -3.9555996, 40.2016889 ], [ -3.9555542, 40.2018091 ], [ -3.9554498, 40.2020667 ], [ -3.9553945, 40.2022285 ], [ -3.9553495, 40.2023757 ], [ -3.9552017, 40.2028985 ], [ -3.955166, 40.203107 ], [ -3.9551214, 40.2033677 ], [ -3.95487, 40.2040383 ], [ -3.9547656, 40.2043049 ], [ -3.9544538, 40.2050309 ], [ -3.9541785, 40.20559 ], [ -3.9540732, 40.2057944 ], [ -3.9539831, 40.2059825 ], [ -3.9538395, 40.2063036 ], [ -3.9535963, 40.206974 ], [ -3.9535312, 40.2071971 ], [ -3.9534911, 40.2073524 ], [ -3.9534143, 40.2076584 ], [ -3.9533876, 40.2077686 ], [ -3.9533565, 40.2078968 ], [ -3.9533207, 40.2081079 ], [ -3.953309, 40.2081972 ], [ -3.9532978, 40.2083135 ], [ -3.9532799, 40.2084614 ], [ -3.9532675, 40.2085885 ], [ -3.9532584, 40.2086967 ], [ -3.9532458, 40.2087995 ], [ -3.953228, 40.2089528 ], [ -3.9531876, 40.2091721 ], [ -3.9531595, 40.2092696 ], [ -3.9531114, 40.2094412 ], [ -3.9530541, 40.2096308 ], [ -3.9529925, 40.2098422 ], [ -3.9529658, 40.2099505 ], [ -3.9529555, 40.2100524 ], [ -3.9529573, 40.2101857 ], [ -3.952958, 40.2103209 ], [ -3.9529672, 40.210728 ], [ -3.9529849, 40.2109846 ], [ -3.952986, 40.2109976 ], [ -3.9530272, 40.2111491 ], [ -3.9530013, 40.2115403 ], [ -3.9529884, 40.2117352 ], [ -3.9529696, 40.2118941 ], [ -3.9529515, 40.2120472 ], [ -3.9529169, 40.2123393 ], [ -3.9544584, 40.2121578 ], [ -3.9561857, 40.2114646 ], [ -3.9621046, 40.2122868 ], [ -3.9625586, 40.2122597 ], [ -3.9642178, 40.2121608 ], [ -3.9672321, 40.211981 ], [ -3.9737206, 40.2119455 ], [ -3.9737232, 40.2119455 ], [ -3.9769273, 40.2119284 ], [ -3.9819736, 40.2108893 ], [ -3.9861832, 40.2100211 ], [ -3.9877363, 40.2098461 ], [ -3.9880254, 40.2097567 ], [ -3.9883525, 40.2097767 ], [ -3.9902916, 40.2095583 ], [ -3.9910026, 40.2094782 ], [ -3.9912311, 40.2097406 ], [ -3.9935422, 40.2123934 ], [ -3.9948976, 40.212425 ], [ -3.996949, 40.2142471 ], [ -3.9979774, 40.2150247 ], [ -3.9985759, 40.2154772 ], [ -4.0012232, 40.2175415 ], [ -4.0015139, 40.2176411 ], [ -4.0022857, 40.2178047 ], [ -4.0061744, 40.2182494 ], [ -4.0062174, 40.218275 ], [ -4.0088032, 40.2198157 ], [ -4.0103471, 40.2210582 ], [ -4.0143198, 40.2245551 ], [ -4.0144641, 40.2244944 ], [ -4.0147702, 40.22435 ], [ -4.0150063, 40.2241589 ], [ -4.0152455, 40.2239499 ], [ -4.0153945, 40.2238365 ], [ -4.0155616, 40.2236755 ], [ -4.0158467, 40.2233916 ], [ -4.0160336, 40.2232065 ], [ -4.0161926, 40.2230287 ], [ -4.0163434, 40.2229225 ], [ -4.0165251, 40.2228017 ], [ -4.016667, 40.2227289 ], [ -4.0169048, 40.2226148 ], [ -4.0170808, 40.2225346 ], [ -4.0172693, 40.2224519 ], [ -4.0174856, 40.2223618 ], [ -4.0176676, 40.2222748 ], [ -4.0177592, 40.2222149 ], [ -4.0178743, 40.2221534 ], [ -4.0180257, 40.2220853 ], [ -4.0184215, 40.2219388 ], [ -4.018804, 40.2217304 ], [ -4.0190017, 40.2216429 ], [ -4.0191531, 40.2215772 ], [ -4.0193263, 40.2215185 ], [ -4.0195027, 40.2214573 ], [ -4.0196139, 40.221411 ], [ -4.0197785, 40.2213953 ], [ -4.0199508, 40.2213863 ], [ -4.0201359, 40.2213965 ], [ -4.0202607, 40.2214077 ], [ -4.0204004, 40.2213922 ], [ -4.0205514, 40.2213574 ], [ -4.0207203, 40.2213146 ], [ -4.0209826, 40.2212369 ], [ -4.0212209, 40.2211609 ], [ -4.0214843, 40.2210942 ], [ -4.0217445, 40.2210275 ], [ -4.0220789, 40.2209541 ], [ -4.022315, 40.2209176 ], [ -4.0225947, 40.22092 ], [ -4.0227662, 40.2209399 ], [ -4.0229418, 40.2209405 ], [ -4.0231328, 40.2209152 ], [ -4.023339, 40.2208789 ], [ -4.023462, 40.2208621 ], [ -4.0237187, 40.220852 ], [ -4.0239246, 40.2208438 ], [ -4.0240797, 40.2208186 ], [ -4.0242213, 40.2207924 ], [ -4.024359, 40.220778 ], [ -4.0244984, 40.220741 ], [ -4.0246501, 40.2207015 ], [ -4.0247339, 40.220717 ], [ -4.0248495, 40.220726 ], [ -4.0250233, 40.2207006 ], [ -4.0253493, 40.2206715 ], [ -4.0256385, 40.2206713 ], [ -4.0259002, 40.2207047 ], [ -4.0262087, 40.2207449 ], [ -4.0265017, 40.2207948 ], [ -4.0268727, 40.2208582 ], [ -4.0272284, 40.2209385 ], [ -4.0276055, 40.2209923 ], [ -4.0280574, 40.2210598 ], [ -4.028475, 40.2211157 ], [ -4.0286744, 40.2211402 ], [ -4.0288772, 40.221186 ], [ -4.0292365, 40.2212996 ], [ -4.0295953, 40.2213775 ], [ -4.0299102, 40.2214367 ], [ -4.0300378, 40.2214379 ], [ -4.0301053, 40.2213801 ], [ -4.0305142, 40.2212764 ], [ -4.0310234, 40.2212265 ], [ -4.0312437, 40.221196 ], [ -4.0315327, 40.2211922 ], [ -4.0318405, 40.2211658 ], [ -4.0320392, 40.2211579 ], [ -4.0322201, 40.221123 ], [ -4.0324301, 40.2210948 ], [ -4.0326477, 40.2210905 ], [ -4.0328715, 40.2210861 ], [ -4.0331017, 40.2210936 ], [ -4.0334841, 40.2211354 ], [ -4.0337526, 40.2211593 ], [ -4.0339296, 40.2211386 ], [ -4.0340943, 40.2211372 ], [ -4.0343956, 40.2211106 ], [ -4.0347808, 40.2210857 ], [ -4.035175, 40.2210369 ], [ -4.0357991, 40.2209813 ], [ -4.0362059, 40.2209419 ], [ -4.0364884, 40.2209131 ], [ -4.0366561, 40.2208949 ], [ -4.0368271, 40.2208958 ], [ -4.0369522, 40.2209423 ], [ -4.0370877, 40.2209535 ], [ -4.0372314, 40.2209444 ], [ -4.0373957, 40.220935 ], [ -4.0375392, 40.2209101 ], [ -4.0378675, 40.2208102 ], [ -4.0380998, 40.2207485 ], [ -4.0383909, 40.220672 ], [ -4.0386358, 40.2206221 ], [ -4.0388436, 40.2205821 ], [ -4.0390977, 40.2205298 ], [ -4.0393239, 40.2204753 ], [ -4.0395683, 40.2203921 ], [ -4.0397471, 40.2202904 ], [ -4.0398856, 40.2201985 ], [ -4.040024, 40.2200948 ], [ -4.0401872, 40.2199932 ], [ -4.0403591, 40.2198688 ], [ -4.0405421, 40.2197411 ], [ -4.0406641, 40.2196613 ], [ -4.0408432, 40.2195773 ], [ -4.0410003, 40.2194806 ], [ -4.0411359, 40.2194031 ], [ -4.0412685, 40.2193304 ], [ -4.0414321, 40.2192502 ], [ -4.0414967, 40.219202 ], [ -4.0415298, 40.2191349 ], [ -4.0415035, 40.2190398 ], [ -4.0415236, 40.2189324 ], [ -4.0416121, 40.2188219 ], [ -4.0417478, 40.2187468 ], [ -4.0419603, 40.2186114 ], [ -4.0421145, 40.218529 ], [ -4.0422663, 40.2184918 ], [ -4.0424445, 40.218557 ], [ -4.0426003, 40.2185794 ], [ -4.0427833, 40.2185492 ], [ -4.043025, 40.2184922 ], [ -4.0432078, 40.21845 ], [ -4.0433906, 40.2184054 ], [ -4.0436167, 40.2183462 ], [ -4.0437466, 40.2183045 ], [ -4.0438924, 40.2182793 ], [ -4.0445833, 40.2181158 ], [ -4.0452775, 40.2179641 ], [ -4.0459692, 40.217853 ], [ -4.0461489, 40.2178132 ], [ -4.0464499, 40.2177346 ], [ -4.0466134, 40.2176898 ], [ -4.0467525, 40.2176338 ], [ -4.0468819, 40.2175587 ], [ -4.0469741, 40.2174863 ], [ -4.0471062, 40.2173803 ], [ -4.0472504, 40.217255 ], [ -4.0473391, 40.2171612 ], [ -4.0474865, 40.2170407 ], [ -4.0476552, 40.2168914 ], [ -4.0477917, 40.2168009 ], [ -4.0480621, 40.2166589 ], [ -4.0482391, 40.2164976 ], [ -4.0483943, 40.2164271 ], [ -4.0485206, 40.2163472 ], [ -4.0486667, 40.2162417 ], [ -4.0488592, 40.2160667 ], [ -4.049062, 40.2158915 ], [ -4.0493865, 40.2156129 ], [ -4.049488, 40.2155333 ], [ -4.0496662, 40.2154287 ], [ -4.0498758, 40.2153076 ], [ -4.0499281, 40.2154764 ], [ -4.0501465, 40.215522 ], [ -4.0504442, 40.2154717 ], [ -4.0509424, 40.2155172 ], [ -4.0514364, 40.2154913 ], [ -4.0515922, 40.2153135 ], [ -4.0518388, 40.2151753 ], [ -4.0521197, 40.2150393 ], [ -4.0522978, 40.2150997 ], [ -4.0524724, 40.2153269 ], [ -4.0527234, 40.215675 ], [ -4.0531974, 40.2163644 ], [ -4.0535719, 40.2170594 ], [ -4.0536974, 40.2173348 ], [ -4.0537732, 40.2176106 ], [ -4.0538098, 40.217963 ], [ -4.0539458, 40.2183122 ], [ -4.0541252, 40.2186514 ], [ -4.0543356, 40.2189832 ], [ -4.0545893, 40.2193075 ], [ -4.0548766, 40.2195814 ], [ -4.0551918, 40.2198574 ], [ -4.0554791, 40.2201384 ], [ -4.0557243, 40.2204542 ], [ -4.0559543, 40.2206263 ], [ -4.0561931, 40.2206587 ], [ -4.0564699, 40.2206609 ], [ -4.0569945, 40.2206013 ], [ -4.0583085, 40.2201197 ], [ -4.0587033, 40.2199042 ], [ -4.0594183, 40.2196972 ], [ -4.0600928, 40.2194683 ], [ -4.0607231, 40.2192204 ], [ -4.0613109, 40.2190315 ], [ -4.061763, 40.2189082 ], [ -4.0619401, 40.2189018 ], [ -4.0620773, 40.2189267 ], [ -4.0622054, 40.2189613 ], [ -4.0623202, 40.2185479 ], [ -4.0624379, 40.2183204 ], [ -4.0627804, 40.2179525 ], [ -4.0629217, 40.2178416 ], [ -4.0630094, 40.2176858 ], [ -4.0630305, 40.2172399 ], [ -4.0630308, 40.2168656 ], [ -4.0631464, 40.2166977 ], [ -4.0631956, 40.2164528 ], [ -4.0632551, 40.2161037 ], [ -4.0632381, 40.2158054 ], [ -4.0630041, 40.2155548 ], [ -4.0631036, 40.2151582 ], [ -4.0635552, 40.2145327 ], [ -4.0638198, 40.214427 ], [ -4.0639851, 40.2142634 ], [ -4.0642918, 40.2138788 ], [ -4.0647887, 40.2135552 ], [ -4.0650339, 40.2133289 ], [ -4.0651781, 40.2130081 ], [ -4.0643353, 40.2125093 ], [ -4.0637455, 40.2121662 ], [ -4.0635977, 40.2117593 ], [ -4.0640884, 40.2117214 ], [ -4.0644814, 40.2116034 ], [ -4.0647419, 40.2115581 ], [ -4.0648882, 40.2115711 ], [ -4.0649977, 40.211613 ], [ -4.0654371, 40.2116757 ], [ -4.0656553, 40.2117142 ], [ -4.0657733, 40.2117036 ], [ -4.0658379, 40.2116624 ], [ -4.0658765, 40.2115429 ], [ -4.0658808, 40.2114237 ], [ -4.0658702, 40.2111425 ], [ -4.0658849, 40.2108897 ], [ -4.0659048, 40.2105749 ], [ -4.0661634, 40.2102078 ], [ -4.0663654, 40.2100081 ], [ -4.0665586, 40.2098347 ], [ -4.0667024, 40.2096879 ], [ -4.0668058, 40.2095368 ], [ -4.0668901, 40.2093278 ], [ -4.0672936, 40.208729 ], [ -4.0675461, 40.2081737 ], [ -4.0676501, 40.2078652 ], [ -4.0678099, 40.2075515 ], [ -4.0680775, 40.20717 ], [ -4.068174, 40.2069808 ], [ -4.0682637, 40.2067511 ], [ -4.0685941, 40.2060139 ], [ -4.0686176, 40.2059255 ], [ -4.0686261, 40.2058706 ], [ -4.0686315, 40.2058205 ], [ -4.0686805, 40.2057747 ], [ -4.0687488, 40.2057693 ], [ -4.0688446, 40.2057794 ], [ -4.0688322, 40.2057508 ], [ -4.0688461, 40.205138 ], [ -4.0694735, 40.2031862 ], [ -4.0695775, 40.2023294 ], [ -4.0698221, 40.2014443 ], [ -4.0700962, 40.2009462 ], [ -4.0703033, 40.200665 ], [ -4.070652, 40.2004275 ], [ -4.0709441, 40.2003167 ], [ -4.0713042, 40.2002883 ], [ -4.0715894, 40.2002657 ], [ -4.0717233, 40.2001868 ], [ -4.0718688, 40.200101 ], [ -4.072054, 40.1999191 ], [ -4.0721444, 40.199693 ], [ -4.0720816, 40.1994413 ], [ -4.0714061, 40.1983214 ], [ -4.0713908, 40.1980963 ], [ -4.0716577, 40.1978866 ], [ -4.0727752, 40.1972276 ], [ -4.0738093, 40.1972361 ], [ -4.074217, 40.1970161 ], [ -4.0744706, 40.1967074 ], [ -4.0747109, 40.1962997 ], [ -4.0747769, 40.1960695 ], [ -4.0747898, 40.1960245 ], [ -4.074623, 40.1960181 ], [ -4.0743836, 40.1960155 ], [ -4.0742033, 40.1960172 ], [ -4.0740759, 40.1960184 ], [ -4.0739764, 40.1960193 ], [ -4.0738646, 40.1960203 ], [ -4.0732394, 40.1959952 ], [ -4.0728055, 40.1954867 ], [ -4.0726072, 40.1953288 ], [ -4.072369, 40.1952045 ], [ -4.0717117, 40.1949176 ], [ -4.0710271, 40.1946736 ], [ -4.0704444, 40.1944204 ], [ -4.0698809, 40.1941288 ], [ -4.0695005, 40.1938582 ], [ -4.0692248, 40.1937225 ], [ -4.0686338, 40.1934967 ], [ -4.0683658, 40.1933398 ], [ -4.0678363, 40.1929845 ], [ -4.0674376, 40.1927331 ], [ -4.0667375, 40.1923924 ], [ -4.0664468, 40.1921892 ], [ -4.0661826, 40.1919866 ], [ -4.065981, 40.1918192 ], [ -4.0657428, 40.1916951 ], [ -4.065524, 40.1916113 ], [ -4.06529, 40.1915351 ], [ -4.0651088, 40.1914983 ], [ -4.0649312, 40.1915155 ], [ -4.0645011, 40.1915969 ], [ -4.0638755, 40.1917433 ], [ -4.0635966, 40.1917959 ], [ -4.0633226, 40.1918281 ], [ -4.062892, 40.1918572 ], [ -4.0624692, 40.1918515 ], [ -4.0615827, 40.191812 ], [ -4.0608122, 40.1917824 ], [ -4.0603444, 40.1917304 ], [ -4.0598892, 40.1916463 ], [ -4.0595617, 40.1915707 ], [ -4.0592255, 40.1915356 ], [ -4.0588363, 40.1915255 ], [ -4.0582275, 40.1915185 ], [ -4.0579405, 40.191452 ], [ -4.0577709, 40.1913392 ], [ -4.0576448, 40.1910257 ], [ -4.0575648, 40.1908786 ], [ -4.0575336, 40.1906739 ], [ -4.0573751, 40.1906729 ], [ -4.0573304, 40.1907997 ], [ -4.0573074, 40.1909167 ], [ -4.0573191, 40.1910715 ], [ -4.0573583, 40.1911951 ], [ -4.057293, 40.1917917 ], [ -4.057308, 40.1921586 ], [ -4.0573669, 40.192344 ], [ -4.0574596, 40.1925148 ], [ -4.0575996, 40.1927185 ], [ -4.0577117, 40.192932 ], [ -4.0577462, 40.193151 ], [ -4.0576977, 40.1936306 ], [ -4.0575195, 40.1941661 ], [ -4.0575783, 40.1943515 ], [ -4.0577061, 40.1945744 ], [ -4.0575178, 40.194855 ], [ -4.0573875, 40.1950708 ], [ -4.0572165, 40.1954728 ], [ -4.057155, 40.1959167 ], [ -4.0571387, 40.1966677 ], [ -4.0571311, 40.1977762 ], [ -4.0571239, 40.1986213 ], [ -4.0572049, 40.1989293 ], [ -4.0573462, 40.1992188 ], [ -4.0576338, 40.1997215 ], [ -4.0576263, 40.2002412 ], [ -4.0576391, 40.2004652 ], [ -4.0576953, 40.2006768 ], [ -4.0577592, 40.2009885 ], [ -4.0577574, 40.2012769 ], [ -4.0577111, 40.2018008 ], [ -4.0577489, 40.202128 ], [ -4.0578222, 40.2024467 ], [ -4.0580284, 40.2029894 ], [ -4.0581442, 40.2031589 ], [ -4.0582677, 40.2033032 ], [ -4.0583279, 40.2033765 ], [ -4.0583698, 40.2034715 ], [ -4.0584866, 40.2036267 ], [ -4.058653, 40.2038908 ], [ -4.058769, 40.2041567 ], [ -4.0580908, 40.2037243 ], [ -4.0575948, 40.2034142 ], [ -4.0559408, 40.2024043 ], [ -4.0545878, 40.2015585 ], [ -4.0531978, 40.200725 ], [ -4.0519147, 40.1999738 ], [ -4.0506072, 40.1992491 ], [ -4.0501403, 40.1990079 ], [ -4.0498143, 40.198832 ], [ -4.0491827, 40.1983896 ], [ -4.0486347, 40.1979298 ], [ -4.0484118, 40.1975319 ], [ -4.0483614, 40.1973435 ], [ -4.0480122, 40.1968023 ], [ -4.047887, 40.1964368 ], [ -4.0477338, 40.1961862 ], [ -4.0474596, 40.195845 ], [ -4.0469621, 40.1952919 ], [ -4.0465482, 40.1948679 ], [ -4.0460751, 40.1944108 ], [ -4.0455479, 40.1938816 ], [ -4.0448078, 40.1932542 ], [ -4.0440369, 40.1926462 ], [ -4.0434387, 40.1921486 ], [ -4.0431492, 40.1919128 ], [ -4.042888, 40.1917054 ], [ -4.0425511, 40.1914248 ], [ -4.0422485, 40.1911486 ], [ -4.0420484, 40.1908691 ], [ -4.041882, 40.190556 ], [ -4.0417018, 40.1901572 ], [ -4.0414762, 40.1896324 ], [ -4.0413017, 40.189193 ], [ -4.041086, 40.1889136 ], [ -4.0408258, 40.1885632 ], [ -4.0407182, 40.1884354 ], [ -4.0405766, 40.1883199 ], [ -4.0404946, 40.1882283 ], [ -4.0403386, 40.1881079 ], [ -4.0395281, 40.1880504 ], [ -4.039018, 40.188024 ], [ -4.0386134, 40.1879944 ], [ -4.0381061, 40.187944 ], [ -4.0377669, 40.1879137 ], [ -4.0375775, 40.1877727 ], [ -4.0373597, 40.1876014 ], [ -4.0370322, 40.1872826 ], [ -4.0369165, 40.1871823 ], [ -4.0368279, 40.1870735 ], [ -4.0368076, 40.1869712 ], [ -4.0369111, 40.1868248 ], [ -4.0369806, 40.1866955 ], [ -4.0369883, 40.1865905 ], [ -4.0369768, 40.1864429 ], [ -4.0369407, 40.1863192 ], [ -4.0368792, 40.1861294 ], [ -4.0365006, 40.1859942 ], [ -4.035389, 40.1856561 ], [ -4.035077, 40.1855731 ], [ -4.0349903, 40.1855977 ], [ -4.0344171, 40.1855075 ], [ -4.0338161, 40.1854294 ], [ -4.0330557, 40.185298 ], [ -4.0326431, 40.1851396 ], [ -4.0323495, 40.1850445 ], [ -4.0321905, 40.1850101 ], [ -4.0320315, 40.1849782 ], [ -4.0317133, 40.1849023 ], [ -4.0314166, 40.1848049 ], [ -4.0311656, 40.1846522 ], [ -4.0309895, 40.1845155 ], [ -4.0308378, 40.1843476 ], [ -4.0307016, 40.1841819 ], [ -4.0305928, 40.1839708 ], [ -4.03054, 40.1837686 ], [ -4.030515, 40.1835519 ], [ -4.0303501, 40.1835462 ], [ -4.0302313, 40.1834996 ], [ -4.0301183, 40.183422 ], [ -4.0300462, 40.1833821 ], [ -4.029962, 40.1833661 ], [ -4.0296168, 40.1833478 ], [ -4.0292001, 40.1833324 ], [ -4.0289076, 40.1833088 ], [ -4.0285808, 40.1832759 ], [ -4.0282948, 40.1832689 ], [ -4.0276968, 40.1831884 ], [ -4.0267399, 40.1829991 ], [ -4.0258091, 40.1828977 ], [ -4.0251306, 40.1828346 ], [ -4.0244063, 40.1828195 ], [ -4.0238154, 40.1827961 ], [ -4.0235139, 40.1827916 ], [ -4.0232409, 40.1828227 ], [ -4.0222594, 40.1828623 ], [ -4.0212247, 40.1828762 ], [ -4.0204943, 40.1828731 ], [ -4.0201834, 40.1828663 ], [ -4.0198776, 40.1828416 ], [ -4.0189608, 40.1827841 ], [ -4.0181335, 40.1827437 ], [ -4.0177755, 40.182704 ], [ -4.0175951, 40.1826984 ], [ -4.0174182, 40.1827119 ], [ -4.0168275, 40.1827004 ], [ -4.0164104, 40.1826564 ], [ -4.0161804, 40.1826536 ], [ -4.0158507, 40.1826375 ], [ -4.0157973, 40.1825974 ], [ -4.0157713, 40.1825237 ], [ -4.0156834, 40.1824602 ], [ -4.015596, 40.1824347 ], [ -4.0154718, 40.1824429 ], [ -4.0152175, 40.1824833 ], [ -4.0149822, 40.1825378 ], [ -4.0147373, 40.1825853 ], [ -4.0143963, 40.1826431 ], [ -4.014111, 40.1826837 ], [ -4.0138567, 40.1827169 ], [ -4.0134806, 40.1827178 ], [ -4.0130045, 40.1826767 ], [ -4.0125343, 40.1826141 ], [ -4.0120859, 40.182556 ], [ -4.0117435, 40.1825209 ], [ -4.0114949, 40.182523 ], [ -4.0112525, 40.1825228 ], [ -4.0109976, 40.1825155 ], [ -4.0106619, 40.182516 ], [ -4.0102334, 40.1825388 ], [ -4.0098981, 40.1825656 ], [ -4.0094917, 40.1826144 ], [ -4.0091996, 40.1826122 ], [ -4.0089723, 40.1825856 ], [ -4.0087485, 40.1825852 ], [ -4.0084628, 40.1825972 ], [ -4.0081678, 40.1826188 ], [ -4.0078636, 40.1826381 ], [ -4.0074598, 40.1826583 ], [ -4.0069749, 40.182653 ], [ -4.0067018, 40.1826792 ], [ -4.0063943, 40.1826867 ], [ -4.0059994, 40.1826734 ], [ -4.0055732, 40.1826436 ], [ -4.0051727, 40.1826228 ], [ -4.004825, 40.1826097 ], [ -4.0044457, 40.1825968 ], [ -4.0039563, 40.1825911 ], [ -4.0035295, 40.1825967 ], [ -4.003045, 40.1825928 ], [ -4.0027628, 40.1825871 ], [ -4.0025489, 40.1826199 ], [ -4.0023754, 40.1826596 ], [ -4.0021089, 40.1827119 ], [ -4.0018947, 40.1827257 ], [ -4.0016988, 40.1827175 ], [ -4.00133, 40.1827046 ], [ -4.001098, 40.1826823 ], [ -4.0008133, 40.1826606 ], [ -4.0006004, 40.1826273 ], [ -4.0003697, 40.182584 ], [ -4.000064, 40.1825056 ], [ -3.9994843, 40.1823914 ], [ -3.9989638, 40.1822886 ], [ -3.9985457, 40.1821778 ], [ -3.9982744, 40.182096 ], [ -3.9980779, 40.1820476 ], [ -3.9977667, 40.1820145 ], [ -3.9972748, 40.1819544 ], [ -3.9967898, 40.1818745 ] ] ] } },
{ "type": "Feature", "properties": { "CCAA": "08 - Castilla-La Mancha", "PROVINCIA": "45 - Toledo", "MUNICIPIO": "45041 - Casarrubios del Monte", "COD_MUNICIPIO": "45041", "DISTRITO": "01", "SECCION": "4504101001", "V1_H": 79.35, "V1_M": 85.2, "V2_H": 79.29922448000001, "V2_M": 85.22530012, "V3_H": 79.59037894, "V3_M": 85.4114479 }, "geometry": { "type": "Polygon", "coordinates": [ [ [ -3.9967898, 40.1818745 ], [ -3.9972748, 40.1819544 ], [ -3.9977667, 40.1820145 ], [ -3.9980779, 40.1820476 ], [ -3.9982744, 40.182096 ], [ -3.9985457, 40.1821778 ], [ -3.9989638, 40.1822886 ], [ -3.9994843, 40.1823914 ], [ -4.000064, 40.1825056 ], [ -4.0003697, 40.182584 ], [ -4.0006004, 40.1826273 ], [ -4.0008133, 40.1826606 ], [ -4.001098, 40.1826823 ], [ -4.00133, 40.1827046 ], [ -4.0016988, 40.1827175 ], [ -4.0018947, 40.1827257 ], [ -4.0021089, 40.1827119 ], [ -4.0023754, 40.1826596 ], [ -4.0025489, 40.1826199 ], [ -4.0027628, 40.1825871 ], [ -4.003045, 40.1825928 ], [ -4.0035295, 40.1825967 ], [ -4.0039563, 40.1825911 ], [ -4.0044457, 40.1825968 ], [ -4.004825, 40.1826097 ], [ -4.0051727, 40.1826228 ], [ -4.0055732, 40.1826436 ], [ -4.0059994, 40.1826734 ], [ -4.0063943, 40.1826867 ], [ -4.0067018, 40.1826792 ], [ -4.0069749, 40.182653 ], [ -4.0074598, 40.1826583 ], [ -4.0078636, 40.1826381 ], [ -4.0081678, 40.1826188 ], [ -4.0084628, 40.1825972 ], [ -4.0087485, 40.1825852 ], [ -4.0089723, 40.1825856 ], [ -4.0091996, 40.1826122 ], [ -4.0094917, 40.1826144 ], [ -4.0098981, 40.1825656 ], [ -4.0102334, 40.1825388 ], [ -4.0106619, 40.182516 ], [ -4.0109976, 40.1825155 ], [ -4.0112525, 40.1825228 ], [ -4.0114949, 40.182523 ], [ -4.0117435, 40.1825209 ], [ -4.0120859, 40.182556 ], [ -4.0125343, 40.1826141 ], [ -4.0130045, 40.1826767 ], [ -4.0134806, 40.1827178 ], [ -4.0138567, 40.1827169 ], [ -4.014111, 40.1826837 ], [ -4.0143963, 40.1826431 ], [ -4.0147373, 40.1825853 ], [ -4.0149822, 40.1825378 ], [ -4.0152175, 40.1824833 ], [ -4.0154718, 40.1824429 ], [ -4.015596, 40.1824347 ], [ -4.0156834, 40.1824602 ], [ -4.0157713, 40.1825237 ], [ -4.0157973, 40.1825974 ], [ -4.0158507, 40.1826375 ], [ -4.0161804, 40.1826536 ], [ -4.0164104, 40.1826564 ], [ -4.0168275, 40.1827004 ], [ -4.0174182, 40.1827119 ], [ -4.0175951, 40.1826984 ], [ -4.0177755, 40.182704 ], [ -4.0181335, 40.1827437 ], [ -4.0189608, 40.1827841 ], [ -4.0198776, 40.1828416 ], [ -4.0201834, 40.1828663 ], [ -4.0204943, 40.1828731 ], [ -4.0212247, 40.1828762 ], [ -4.0222594, 40.1828623 ], [ -4.0232409, 40.1828227 ], [ -4.0235139, 40.1827916 ], [ -4.0238154, 40.1827961 ], [ -4.0244063, 40.1828195 ], [ -4.0251306, 40.1828346 ], [ -4.0258091, 40.1828977 ], [ -4.0267399, 40.1829991 ], [ -4.0276968, 40.1831884 ], [ -4.0282948, 40.1832689 ], [ -4.0285808, 40.1832759 ], [ -4.0289076, 40.1833088 ], [ -4.0292001, 40.1833324 ], [ -4.0296168, 40.1833478 ], [ -4.029962, 40.1833661 ], [ -4.0300462, 40.1833821 ], [ -4.0301183, 40.183422 ], [ -4.0302313, 40.1834996 ], [ -4.0303501, 40.1835462 ], [ -4.030515, 40.1835519 ], [ -4.03054, 40.1837686 ], [ -4.0305928, 40.1839708 ], [ -4.0307016, 40.1841819 ], [ -4.0308378, 40.1843476 ], [ -4.0309895, 40.1845155 ], [ -4.0311656, 40.1846522 ], [ -4.0314166, 40.1848049 ], [ -4.0317133, 40.1849023 ], [ -4.0320315, 40.1849782 ], [ -4.0321905, 40.1850101 ], [ -4.0323495, 40.1850445 ], [ -4.0326431, 40.1851396 ], [ -4.0330557, 40.185298 ], [ -4.0338161, 40.1854294 ], [ -4.0344171, 40.1855075 ], [ -4.0349903, 40.1855977 ], [ -4.035077, 40.1855731 ], [ -4.035389, 40.1856561 ], [ -4.0365006, 40.1859942 ], [ -4.0368792, 40.1861294 ], [ -4.0369407, 40.1863192 ], [ -4.0369768, 40.1864429 ], [ -4.0369883, 40.1865905 ], [ -4.0369806, 40.1866955 ], [ -4.0369111, 40.1868248 ], [ -4.0368076, 40.1869712 ], [ -4.0368279, 40.1870735 ], [ -4.0369165, 40.1871823 ], [ -4.0370322, 40.1872826 ], [ -4.0373597, 40.1876014 ], [ -4.0375775, 40.1877727 ], [ -4.0377669, 40.1879137 ], [ -4.0381061, 40.187944 ], [ -4.0386134, 40.1879944 ], [ -4.039018, 40.188024 ], [ -4.0395281, 40.1880504 ], [ -4.0403386, 40.1881079 ], [ -4.0404946, 40.1882283 ], [ -4.0405766, 40.1883199 ], [ -4.0407182, 40.1884354 ], [ -4.0408258, 40.1885632 ], [ -4.041086, 40.1889136 ], [ -4.0413017, 40.189193 ], [ -4.0414762, 40.1896324 ], [ -4.0417018, 40.1901572 ], [ -4.041882, 40.190556 ], [ -4.0420484, 40.1908691 ], [ -4.0422485, 40.1911486 ], [ -4.0425511, 40.1914248 ], [ -4.042888, 40.1917054 ], [ -4.0431492, 40.1919128 ], [ -4.0434387, 40.1921486 ], [ -4.0440369, 40.1926462 ], [ -4.0448078, 40.1932542 ], [ -4.0455479, 40.1938816 ], [ -4.0460751, 40.1944108 ], [ -4.0465482, 40.1948679 ], [ -4.0469621, 40.1952919 ], [ -4.0474596, 40.195845 ], [ -4.0477338, 40.1961862 ], [ -4.047887, 40.1964368 ], [ -4.0480122, 40.1968023 ], [ -4.0483614, 40.1973435 ], [ -4.0484118, 40.1975319 ], [ -4.0486347, 40.1979298 ], [ -4.0491827, 40.1983896 ], [ -4.0498143, 40.198832 ], [ -4.0501403, 40.1990079 ], [ -4.0506072, 40.1992491 ], [ -4.0519147, 40.1999738 ], [ -4.0531978, 40.200725 ], [ -4.0545878, 40.2015585 ], [ -4.0559408, 40.2024043 ], [ -4.0575948, 40.2034142 ], [ -4.0580908, 40.2037243 ], [ -4.058769, 40.2041567 ], [ -4.058653, 40.2038908 ], [ -4.0584866, 40.2036267 ], [ -4.0583698, 40.2034715 ], [ -4.0583279, 40.2033765 ], [ -4.0582677, 40.2033032 ], [ -4.0581442, 40.2031589 ], [ -4.0580284, 40.2029894 ], [ -4.0578222, 40.2024467 ], [ -4.0577489, 40.202128 ], [ -4.0577111, 40.2018008 ], [ -4.0577574, 40.2012769 ], [ -4.0577592, 40.2009885 ], [ -4.0576953, 40.2006768 ], [ -4.0576391, 40.2004652 ], [ -4.0576263, 40.2002412 ], [ -4.0576338, 40.1997215 ], [ -4.0573462, 40.1992188 ], [ -4.0572049, 40.1989293 ], [ -4.0571239, 40.1986213 ], [ -4.0571311, 40.1977762 ], [ -4.0571387, 40.1966677 ], [ -4.057155, 40.1959167 ], [ -4.0572165, 40.1954728 ], [ -4.0573875, 40.1950708 ], [ -4.0575178, 40.194855 ], [ -4.0577061, 40.1945744 ], [ -4.0575783, 40.1943515 ], [ -4.0575195, 40.1941661 ], [ -4.0576977, 40.1936306 ], [ -4.0577462, 40.193151 ], [ -4.0577117, 40.192932 ], [ -4.0575996, 40.1927185 ], [ -4.0574596, 40.1925148 ], [ -4.0573669, 40.192344 ], [ -4.057308, 40.1921586 ], [ -4.057293, 40.1917917 ], [ -4.0573583, 40.1911951 ], [ -4.0573191, 40.1910715 ], [ -4.0573074, 40.1909167 ], [ -4.0573304, 40.1907997 ], [ -4.0573751, 40.1906729 ], [ -4.0575336, 40.1906739 ], [ -4.0575648, 40.1908786 ], [ -4.0576448, 40.1910257 ], [ -4.0577709, 40.1913392 ], [ -4.0579405, 40.191452 ], [ -4.0582275, 40.1915185 ], [ -4.0588363, 40.1915255 ], [ -4.0592255, 40.1915356 ], [ -4.0595617, 40.1915707 ], [ -4.0598892, 40.1916463 ], [ -4.0603444, 40.1917304 ], [ -4.0608122, 40.1917824 ], [ -4.0615827, 40.191812 ], [ -4.0624692, 40.1918515 ], [ -4.062892, 40.1918572 ], [ -4.0633226, 40.1918281 ], [ -4.0635966, 40.1917959 ], [ -4.0638755, 40.1917433 ], [ -4.0645011, 40.1915969 ], [ -4.0649312, 40.1915155 ], [ -4.0651088, 40.1914983 ], [ -4.06529, 40.1915351 ], [ -4.065524, 40.1916113 ], [ -4.0657428, 40.1916951 ], [ -4.065981, 40.1918192 ], [ -4.0661826, 40.1919866 ], [ -4.0664468, 40.1921892 ], [ -4.0667375, 40.1923924 ], [ -4.0674376, 40.1927331 ], [ -4.0678363, 40.1929845 ], [ -4.0683658, 40.1933398 ], [ -4.0686338, 40.1934967 ], [ -4.0692248, 40.1937225 ], [ -4.0695005, 40.1938582 ], [ -4.0698809, 40.1941288 ], [ -4.0704444, 40.1944204 ], [ -4.0710271, 40.1946736 ], [ -4.0717117, 40.1949176 ], [ -4.072369, 40.1952045 ], [ -4.0726072, 40.1953288 ], [ -4.0728055, 40.1954867 ], [ -4.0732394, 40.1959952 ], [ -4.0738646, 40.1960203 ], [ -4.0739764, 40.1960193 ], [ -4.0740759, 40.1960184 ], [ -4.0742033, 40.1960172 ], [ -4.0743836, 40.1960155 ], [ -4.074623, 40.1960181 ], [ -4.0747898, 40.1960245 ], [ -4.0748222, 40.1959113 ], [ -4.0747715, 40.1956775 ], [ -4.0741253, 40.1949268 ], [ -4.072759, 40.1939574 ], [ -4.0723795, 40.1937357 ], [ -4.0718395, 40.1930109 ], [ -4.0716225, 40.1926616 ], [ -4.071867, 40.1925242 ], [ -4.0794818, 40.1904354 ], [ -4.0858262, 40.1890067 ], [ -4.0862674, 40.1879484 ], [ -4.0865939, 40.1877922 ], [ -4.0885467, 40.1872333 ], [ -4.0943048, 40.18517 ], [ -4.0959466, 40.1850013 ], [ -4.1028044, 40.1834136 ], [ -4.1072922, 40.1841816 ], [ -4.1077065, 40.1843759 ], [ -4.1093335, 40.1847477 ], [ -4.1101806, 40.1848297 ], [ -4.1164222, 40.1865175 ], [ -4.1175986, 40.1866232 ], [ -4.1183979, 40.1866516 ], [ -4.1191283, 40.1867796 ], [ -4.1209637, 40.1869601 ], [ -4.1236306, 40.1869793 ], [ -4.1247618, 40.1871935 ], [ -4.1253603, 40.1871517 ], [ -4.1259826, 40.1871366 ], [ -4.1268488, 40.186957 ], [ -4.1270401, 40.1871534 ], [ -4.1297768, 40.1878474 ], [ -4.1302494, 40.188005 ], [ -4.1316553, 40.1884868 ], [ -4.1323415, 40.1880746 ], [ -4.1329133, 40.1878438 ], [ -4.1327701, 40.1870074 ], [ -4.1327313, 40.1867915 ], [ -4.1342049, 40.1863987 ], [ -4.1344153, 40.1863426 ], [ -4.1349779, 40.186265 ], [ -4.1354123, 40.1862517 ], [ -4.1357894, 40.1863201 ], [ -4.1361564, 40.1864967 ], [ -4.1367456, 40.186608 ], [ -4.1384363, 40.1865554 ], [ -4.1381671, 40.1852066 ], [ -4.1395513, 40.1843912 ], [ -4.1400849, 40.1839895 ], [ -4.1407313, 40.1833075 ], [ -4.1408281, 40.182775 ], [ -4.140851, 40.1827387 ], [ -4.141191, 40.1820056 ], [ -4.1422353, 40.1819323 ], [ -4.1432913, 40.1818678 ], [ -4.1441141, 40.1819047 ], [ -4.1457152, 40.1821231 ], [ -4.1462778, 40.1820455 ], [ -4.1470535, 40.1820738 ], [ -4.1493532, 40.1819249 ], [ -4.1505767, 40.1820389 ], [ -4.1513917, 40.1823101 ], [ -4.1517685, 40.1823604 ], [ -4.1521932, 40.1824733 ], [ -4.1537915, 40.1832141 ], [ -4.1554265, 40.1826572 ], [ -4.1556945, 40.1825285 ], [ -4.1557512, 40.1824108 ], [ -4.1561838, 40.1822893 ], [ -4.1573064, 40.1813051 ], [ -4.1583281, 40.1806012 ], [ -4.1592558, 40.1798982 ], [ -4.1621052, 40.1775543 ], [ -4.1622179, 40.1772738 ], [ -4.163391, 40.1765053 ], [ -4.1635454, 40.1766028 ], [ -4.1674091, 40.1745188 ], [ -4.1681476, 40.1717005 ], [ -4.1683995, 40.1713196 ], [ -4.1681633, 40.1713451 ], [ -4.1678485, 40.1713792 ], [ -4.1670852, 40.1713869 ], [ -4.1664637, 40.1714382 ], [ -4.1653995, 40.1717012 ], [ -4.1641633, 40.1722181 ], [ -4.1633917, 40.1724151 ], [ -4.1628645, 40.1724925 ], [ -4.1623013, 40.1725251 ], [ -4.1615955, 40.1724602 ], [ -4.161041, 40.1723126 ], [ -4.1598024, 40.1719916 ], [ -4.1588095, 40.1716142 ], [ -4.1578742, 40.1711731 ], [ -4.1570111, 40.1708303 ], [ -4.1535273, 40.1696939 ], [ -4.152816, 40.1692956 ], [ -4.1516362, 40.168974 ], [ -4.15106, 40.1689346 ], [ -4.1500273, 40.1689719 ], [ -4.1480529, 40.1688924 ], [ -4.1475218, 40.1687355 ], [ -4.1462216, 40.1682349 ], [ -4.1434223, 40.1672806 ], [ -4.1426792, 40.1670807 ], [ -4.1424434, 40.1670289 ], [ -4.1423464, 40.1668407 ], [ -4.1420385, 40.1666906 ], [ -4.140858, 40.1663238 ], [ -4.140412, 40.1663372 ], [ -4.1391377, 40.1666831 ], [ -4.1381774, 40.1668367 ], [ -4.1379583, 40.1670821 ], [ -4.1368936, 40.1680205 ], [ -4.1345833, 40.1682144 ], [ -4.1342189, 40.1681909 ], [ -4.1339046, 40.1683561 ], [ -4.1335139, 40.1688735 ], [ -4.1330737, 40.1692382 ], [ -4.1328558, 40.1695556 ], [ -4.132466, 40.170127 ], [ -4.1310913, 40.1715008 ], [ -4.1308733, 40.1718093 ], [ -4.1294118, 40.1707875 ], [ -4.120243, 40.167417 ], [ -4.1177768, 40.1674138 ], [ -4.1164959, 40.1673631 ], [ -4.1124483, 40.1676002 ], [ -4.1114876, 40.1677356 ], [ -4.11103, 40.167767 ], [ -4.1099748, 40.1678673 ], [ -4.109955, 40.1678653 ], [ -4.1097277, 40.1678426 ], [ -4.1093973, 40.1677466 ], [ -4.1073394, 40.1668474 ], [ -4.1029627, 40.1648891 ], [ -4.1012398, 40.1600135 ], [ -4.0990755, 40.159052 ], [ -4.0912677, 40.1532247 ], [ -4.0956101, 40.1487242 ], [ -4.0959372, 40.1478922 ], [ -4.097727, 40.1423886 ], [ -4.0973033, 40.140861 ], [ -4.0989746, 40.139674 ], [ -4.1001252, 40.1389603 ], [ -4.1015201, 40.1373794 ], [ -4.1021175, 40.1366266 ], [ -4.1023484, 40.1363355 ], [ -4.0987646, 40.1353785 ], [ -4.0937985, 40.1338579 ], [ -4.09126, 40.1329268 ], [ -4.090884, 40.1329034 ], [ -4.0894511, 40.1343133 ], [ -4.0815829, 40.1429549 ], [ -4.0806542, 40.1436122 ], [ -4.0798533, 40.1441963 ], [ -4.0788006, 40.1451792 ], [ -4.0782011, 40.1458694 ], [ -4.0778224, 40.1464225 ], [ -4.0777428, 40.1465854 ], [ -4.0757377, 40.15046 ], [ -4.0751595, 40.151024 ], [ -4.0744511, 40.1515171 ], [ -4.0732994, 40.1521944 ], [ -4.0723556, 40.1526536 ], [ -4.071094, 40.1530617 ], [ -4.0701697, 40.1532685 ], [ -4.0604951, 40.1540241 ], [ -4.0561135, 40.1554065 ], [ -4.0561052, 40.1541093 ], [ -4.0535558, 40.1540154 ], [ -4.0536099, 40.1544743 ], [ -4.0533086, 40.1585313 ], [ -4.0528454, 40.1619951 ], [ -4.0523066, 40.1651262 ], [ -4.0520503, 40.1660204 ], [ -4.0519335, 40.1668233 ], [ -4.0519114, 40.1669136 ], [ -4.0516318, 40.171628 ], [ -4.0506441, 40.1723127 ], [ -4.0474546, 40.1749272 ], [ -4.0464905, 40.1748639 ], [ -4.0461508, 40.174921 ], [ -4.0448128, 40.1749781 ], [ -4.0414718, 40.1746208 ], [ -4.0400934, 40.1743449 ], [ -4.0390556, 40.1740659 ], [ -4.0368307, 40.1729507 ], [ -4.0365489, 40.1729622 ], [ -4.0354861, 40.1733501 ], [ -4.0346596, 40.173835 ], [ -4.0333224, 40.1747208 ], [ -4.0302246, 40.1764602 ], [ -4.0288536, 40.1758958 ], [ -4.0260745, 40.1761907 ], [ -4.0245948, 40.1762038 ], [ -4.0242581, 40.176468 ], [ -4.0232246, 40.177252 ], [ -4.0225801, 40.1773568 ], [ -4.0209502, 40.1775333 ], [ -4.0190638, 40.1778382 ], [ -4.0161034, 40.1778012 ], [ -4.013405, 40.178005 ], [ -4.011432, 40.1780223 ], [ -4.0042789, 40.1812017 ], [ -4.0021073, 40.1820944 ], [ -4.0012101, 40.1817868 ], [ -4.0003967, 40.1815867 ], [ -3.9976395, 40.1818067 ], [ -3.9967898, 40.1818745 ] ] ] } }
]
}
