{
"type": "FeatureCollection",
"name": "45057",
"features": [
{ "type": "Feature", "properties": { "CCAA": "08 - Castilla-La Mancha", "PROVINCIA": "45 - Toledo", "MUNICIPIO": "45057 - Chueca", "COD_MUNICIPIO": "45057", "DISTRITO": "01", "SECCION": "4505701001", "V1_H": 79.96, "V1_M": 85.86, "V2_H": 79.90630759, "V2_M": 85.80766239, "V3_H": 80.18166072, "V3_M": 86.22029934 }, "geometry": { "type": "Polygon", "coordinates": [ [ [ -3.9142701, 39.7246071 ], [ -3.9145438, 39.7250104 ], [ -3.9158106, 39.726397 ], [ -3.9164595, 39.7269325 ], [ -3.9165565, 39.7269949 ], [ -3.9170126, 39.7272885 ], [ -3.9170126, 39.7272885 ], [ -3.9170088, 39.7278832 ], [ -3.9171337, 39.7281489 ], [ -3.9171649, 39.7282153 ], [ -3.9174468, 39.7283572 ], [ -3.9177287, 39.7284992 ], [ -3.9184348, 39.7289441 ], [ -3.9207, 39.7308093 ], [ -3.9217448, 39.7312785 ], [ -3.9228571, 39.731558 ], [ -3.9238852, 39.7316579 ], [ -3.9238853, 39.7316579 ], [ -3.9244016, 39.7318701 ], [ -3.9253941, 39.7327902 ], [ -3.9255383, 39.7328413 ], [ -3.9264376, 39.7331603 ], [ -3.9266518, 39.7337171 ], [ -3.9269938, 39.7346064 ], [ -3.9271708, 39.7349132 ], [ -3.9273044, 39.7351446 ], [ -3.9274284, 39.7351845 ], [ -3.9275505, 39.7352237 ], [ -3.928543, 39.7352608 ], [ -3.9288243, 39.7353577 ], [ -3.9289276, 39.7354617 ], [ -3.9291792, 39.7357152 ], [ -3.9302303, 39.7357699 ], [ -3.9305878, 39.7363167 ], [ -3.9312765, 39.7363382 ], [ -3.9320759, 39.7376382 ], [ -3.9320759, 39.7376382 ], [ -3.9329619, 39.737568 ], [ -3.9338351, 39.7391468 ], [ -3.934905, 39.7405888 ], [ -3.9352007, 39.7410444 ], [ -3.9358824, 39.7420946 ], [ -3.9358666, 39.7421758 ], [ -3.9358386, 39.7423202 ], [ -3.9356357, 39.7427944 ], [ -3.9355446, 39.7430073 ], [ -3.9355445, 39.7430074 ], [ -3.9465498, 39.7446661 ], [ -3.9475918, 39.7457568 ], [ -3.9479149, 39.7460264 ], [ -3.9483829, 39.746417 ], [ -3.950919, 39.7458107 ], [ -3.9516128, 39.7461834 ], [ -3.9524343, 39.746519 ], [ -3.9524344, 39.7465191 ], [ -3.9528282, 39.7454527 ], [ -3.9531027, 39.7450449 ], [ -3.9540382, 39.7443255 ], [ -3.9543902, 39.7436108 ], [ -3.9549584, 39.7441917 ], [ -3.9549584, 39.7441918 ], [ -3.955446, 39.7431606 ], [ -3.9561319, 39.7421189 ], [ -3.9565072, 39.741404 ], [ -3.9570765, 39.7395252 ], [ -3.9573923, 39.7378918 ], [ -3.9585376, 39.7380085 ], [ -3.9585376, 39.7380085 ], [ -3.9592083, 39.7375615 ], [ -3.9597076, 39.7373771 ], [ -3.9601837, 39.737211 ], [ -3.9601837, 39.737211 ], [ -3.9611262, 39.737005 ], [ -3.9620114, 39.7368806 ], [ -3.9625764, 39.7355514 ], [ -3.9626842, 39.7349108 ], [ -3.9624718, 39.7339034 ], [ -3.9619774, 39.7327543 ], [ -3.9622404, 39.7323646 ], [ -3.9632479, 39.7318067 ], [ -3.9635828, 39.7315516 ], [ -3.9637163, 39.7302441 ], [ -3.9637162, 39.7302441 ], [ -3.9620427, 39.7290506 ], [ -3.9630333, 39.7272854 ], [ -3.9633667, 39.7260844 ], [ -3.9637587, 39.7252767 ], [ -3.9641834, 39.7244017 ], [ -3.9646175, 39.7237404 ], [ -3.9638812, 39.7236474 ], [ -3.9634442, 39.7238313 ], [ -3.9631388, 39.7239599 ], [ -3.9628795, 39.7237728 ], [ -3.9624353, 39.7228755 ], [ -3.962993, 39.7227087 ], [ -3.9629854, 39.7213212 ], [ -3.9627042, 39.7212335 ], [ -3.9627041, 39.7212335 ], [ -3.962063, 39.7212748 ], [ -3.9616268, 39.7201071 ], [ -3.9610069, 39.7199951 ], [ -3.9608042, 39.7196815 ], [ -3.9608042, 39.7196814 ], [ -3.9606085, 39.7181874 ], [ -3.9605695, 39.7170615 ], [ -3.9600406, 39.7142457 ], [ -3.9600717, 39.7131282 ], [ -3.9581835, 39.713252 ], [ -3.9566208, 39.7132919 ], [ -3.9566208, 39.7132919 ], [ -3.9550591, 39.7134038 ], [ -3.955059, 39.7134038 ], [ -3.952836, 39.7137825 ], [ -3.9497202, 39.7145648 ], [ -3.9497201, 39.7145648 ], [ -3.9453912, 39.71451 ], [ -3.9449115, 39.7144058 ], [ -3.944238, 39.7137806 ], [ -3.9435859, 39.713011 ], [ -3.9429745, 39.7126646 ], [ -3.942005, 39.7123856 ], [ -3.9417565, 39.7123141 ], [ -3.9417564, 39.7123141 ], [ -3.9404127, 39.7121538 ], [ -3.9393296, 39.7122887 ], [ -3.9386106, 39.7125315 ], [ -3.9380173, 39.7127318 ], [ -3.9380173, 39.7127318 ], [ -3.935348, 39.7137624 ], [ -3.9322967, 39.7150213 ], [ -3.9298403, 39.7154104 ], [ -3.9288175, 39.7156979 ], [ -3.9269854, 39.7165415 ], [ -3.9241612, 39.7182218 ], [ -3.9239787, 39.7176556 ], [ -3.9237265, 39.717117 ], [ -3.923257, 39.7169045 ], [ -3.9232569, 39.7169045 ], [ -3.9222886, 39.7169032 ], [ -3.9202045, 39.7172261 ], [ -3.9180763, 39.7177385 ], [ -3.9170529, 39.7171069 ], [ -3.9161206, 39.7168548 ], [ -3.9155307, 39.7166953 ], [ -3.9137957, 39.7165069 ], [ -3.9132876, 39.7164518 ], [ -3.9132875, 39.7164517 ], [ -3.9103345, 39.7163488 ], [ -3.9071043, 39.7164641 ], [ -3.9071674, 39.7168241 ], [ -3.9073599, 39.7172731 ], [ -3.9078826, 39.7179898 ], [ -3.9099965, 39.7199284 ], [ -3.9104244, 39.7205287 ], [ -3.9107322, 39.7208687 ], [ -3.9122846, 39.7218026 ], [ -3.9128058, 39.7223932 ], [ -3.9142701, 39.7246071 ], [ -3.9142701, 39.7246071 ] ] ] } }
]
}
