{
"type": "FeatureCollection",
"name": "45078",
"features": [
{ "type": "Feature", "properties": { "CCAA": "08 - Castilla-La Mancha", "PROVINCIA": "45 - Toledo", "MUNICIPIO": "45078 - Huerta de Valdecarábanos", "COD_MUNICIPIO": "45078", "DISTRITO": "01", "SECCION": "4507801002", "V1_H": 79.81, "V1_M": 85.63, "V2_H": 79.83092799000001, "V2_M": 85.85143097, "V3_H": 80.00184088, "V3_M": 85.62912109 }, "geometry": { "type": "Polygon", "coordinates": [ [ [ -3.5622183, 39.8881037 ], [ -3.5638466, 39.8881114 ], [ -3.5648525, 39.888128 ], [ -3.5667032, 39.8881547 ], [ -3.5691453, 39.8882048 ], [ -3.5714665, 39.888241 ], [ -3.5734453, 39.8882765 ], [ -3.5761576, 39.8883188 ], [ -3.578246, 39.8883502 ], [ -3.5805695, 39.8883873 ], [ -3.5812837, 39.8883877 ], [ -3.5818532, 39.8884018 ], [ -3.5825404, 39.8884195 ], [ -3.5831687, 39.8884307 ], [ -3.583636, 39.8884355 ], [ -3.5841839, 39.888459 ], [ -3.5844865, 39.8884675 ], [ -3.5846387, 39.8884495 ], [ -3.584787, 39.8884178 ], [ -3.5849352, 39.8883741 ], [ -3.5850645, 39.8882996 ], [ -3.5853535, 39.8880716 ], [ -3.5859762, 39.8874249 ], [ -3.5867677, 39.886627 ], [ -3.5871081, 39.8862629 ], [ -3.5886358, 39.8846962 ], [ -3.5889976, 39.8843081 ], [ -3.5894241, 39.8838888 ], [ -3.5896357, 39.8836636 ], [ -3.5898143, 39.8834402 ], [ -3.5898602, 39.8832319 ], [ -3.5898834, 39.882228 ], [ -3.5899091, 39.8809065 ], [ -3.5899281, 39.8802317 ], [ -3.5899355, 39.879951 ], [ -3.5898943, 39.8797859 ], [ -3.5897818, 39.8796335 ], [ -3.5894693, 39.8794069 ], [ -3.5891026, 39.8791718 ], [ -3.5890273, 39.8791016 ], [ -3.5889741, 39.879028 ], [ -3.5889425, 39.8789542 ], [ -3.5889331, 39.8788666 ], [ -3.588984, 39.8787418 ], [ -3.5893976, 39.8782558 ], [ -3.5900319, 39.8775398 ], [ -3.5901393, 39.8774368 ], [ -3.5902472, 39.8773933 ], [ -3.5904172, 39.877371 ], [ -3.5907581, 39.8774336 ], [ -3.5917809, 39.8776429 ], [ -3.5920373, 39.8777124 ], [ -3.5922371, 39.8777932 ], [ -3.5925634, 39.877924 ], [ -3.592805, 39.8779905 ], [ -3.5929876, 39.8779944 ], [ -3.5932344, 39.8779168 ], [ -3.5940261, 39.8775099 ], [ -3.5945621, 39.8772402 ], [ -3.5949262, 39.8771191 ], [ -3.5966147, 39.8766622 ], [ -3.5967999, 39.8766136 ], [ -3.5969508, 39.8765342 ], [ -3.5970676, 39.8764358 ], [ -3.5971563, 39.8763186 ], [ -3.5980034, 39.8751723 ], [ -3.5985534, 39.8743876 ], [ -3.5987248, 39.874165 ], [ -3.5989305, 39.8739804 ], [ -3.5997337, 39.8734923 ], [ -3.6009003, 39.8727997 ], [ -3.6020298, 39.8721192 ], [ -3.6029192, 39.8715877 ], [ -3.6033625, 39.8713304 ], [ -3.6038826, 39.8710178 ], [ -3.6043722, 39.870753 ], [ -3.6052501, 39.8703169 ], [ -3.6056135, 39.8701267 ], [ -3.605872, 39.8699704 ], [ -3.6061699, 39.8697281 ], [ -3.6063884, 39.8695934 ], [ -3.6067831, 39.8694483 ], [ -3.6070691, 39.8692466 ], [ -3.6080181, 39.8684597 ], [ -3.6082947, 39.8682556 ], [ -3.6085871, 39.8680825 ], [ -3.6087933, 39.8679598 ], [ -3.6091287, 39.8677554 ], [ -3.6094733, 39.8675462 ], [ -3.6098519, 39.8673249 ], [ -3.610455, 39.8669689 ], [ -3.6103991, 39.8665854 ], [ -3.6103878, 39.8660133 ], [ -3.6103925, 39.8658464 ], [ -3.6104258, 39.8657604 ], [ -3.610514, 39.8655883 ], [ -3.6104542, 39.8651286 ], [ -3.6104249, 39.8649666 ], [ -3.6104532, 39.864788 ], [ -3.610669, 39.8645791 ], [ -3.6108538, 39.8644914 ], [ -3.6110992, 39.8644174 ], [ -3.6112951, 39.8643705 ], [ -3.6115482, 39.8643051 ], [ -3.6119401, 39.8641934 ], [ -3.6120604, 39.8641546 ], [ -3.6121965, 39.8641587 ], [ -3.6122143, 39.864068 ], [ -3.6122871, 39.8637783 ], [ -3.6122464, 39.8636151 ], [ -3.6122684, 39.8634364 ], [ -3.6125467, 39.8633715 ], [ -3.6126483, 39.8633316 ], [ -3.6126456, 39.8631765 ], [ -3.6128931, 39.8631728 ], [ -3.6128844, 39.862943 ], [ -3.6130727, 39.8629208 ], [ -3.613488, 39.8628279 ], [ -3.6135661, 39.862776 ], [ -3.6135736, 39.8627306 ], [ -3.6136986, 39.8626532 ], [ -3.6138392, 39.862573 ], [ -3.614086, 39.8625081 ], [ -3.614464, 39.8624255 ], [ -3.6147913, 39.862357 ], [ -3.614946, 39.862361 ], [ -3.6153006, 39.8624274 ], [ -3.6154911, 39.8624344 ], [ -3.6161351, 39.8624977 ], [ -3.617455, 39.8627243 ], [ -3.6177118, 39.8627396 ], [ -3.6179157, 39.8627099 ], [ -3.6182122, 39.8626559 ], [ -3.6184597, 39.8626546 ], [ -3.618599, 39.8626634 ], [ -3.6186827, 39.862682 ], [ -3.6188309, 39.8626526 ], [ -3.6190283, 39.8625943 ], [ -3.6193117, 39.8624593 ], [ -3.6195706, 39.8623531 ], [ -3.6197553, 39.8622519 ], [ -3.6198908, 39.8621845 ], [ -3.619983, 39.8621125 ], [ -3.6200937, 39.8620404 ], [ -3.6202353, 39.8619681 ], [ -3.6207161, 39.8617748 ], [ -3.6212683, 39.8616002 ], [ -3.6216632, 39.8614837 ], [ -3.6221418, 39.8613881 ], [ -3.6227289, 39.8613158 ], [ -3.6234219, 39.8613312 ], [ -3.6242175, 39.8613913 ], [ -3.6248832, 39.8614687 ], [ -3.6254806, 39.8615084 ], [ -3.6260871, 39.8615314 ], [ -3.6263747, 39.8615179 ], [ -3.6266713, 39.8614829 ], [ -3.6272581, 39.8613796 ], [ -3.627851, 39.8612692 ], [ -3.628271, 39.8611906 ], [ -3.628506, 39.861175 ], [ -3.6287441, 39.8611714 ], [ -3.6289266, 39.8611656 ], [ -3.629112, 39.8611479 ], [ -3.6292598, 39.8610684 ], [ -3.6293826, 39.8609748 ], [ -3.6293974, 39.8608913 ], [ -3.6352113, 39.8613936 ], [ -3.636215, 39.8615549 ], [ -3.6369898, 39.8617176 ], [ -3.6409054, 39.8626472 ], [ -3.6421933, 39.8627545 ], [ -3.6433654, 39.8627265 ], [ -3.6441724, 39.8626863 ], [ -3.6448741, 39.8626276 ], [ -3.6454486, 39.8625815 ], [ -3.6467299, 39.8595636 ], [ -3.6472484, 39.8587408 ], [ -3.6479442, 39.8556466 ], [ -3.6489326, 39.8538481 ], [ -3.6511725, 39.8508712 ], [ -3.6522432, 39.8491353 ], [ -3.6531092, 39.8480042 ], [ -3.6539427, 39.8471526 ], [ -3.6544174, 39.8466724 ], [ -3.6547927, 39.8443277 ], [ -3.6572044, 39.8385928 ], [ -3.6576842, 39.8374368 ], [ -3.6593069, 39.8335713 ], [ -3.6593411, 39.833472 ], [ -3.6596823, 39.832488 ], [ -3.6599185, 39.8303063 ], [ -3.6601449, 39.8295301 ], [ -3.6613106, 39.8267935 ], [ -3.6617465, 39.825935 ], [ -3.6622099, 39.8243016 ], [ -3.6622313, 39.8240853 ], [ -3.6624036, 39.8237779 ], [ -3.6627041, 39.8234338 ], [ -3.6631212, 39.823062 ], [ -3.6636047, 39.8223115 ], [ -3.6648156, 39.8206377 ], [ -3.6665262, 39.8174834 ], [ -3.6683196, 39.8144547 ], [ -3.6696095, 39.8125282 ], [ -3.6717955, 39.8102541 ], [ -3.6730114, 39.8091388 ], [ -3.6734757, 39.8088388 ], [ -3.681904, 39.8010681 ], [ -3.6832578, 39.7997627 ], [ -3.6843559, 39.7985849 ], [ -3.685538, 39.7976499 ], [ -3.6867302, 39.7965437 ], [ -3.6871614, 39.7960511 ], [ -3.6872614, 39.7959369 ], [ -3.6872614, 39.7959368 ], [ -3.6876069, 39.7954392 ], [ -3.6876529, 39.7953669 ], [ -3.6876529, 39.7953669 ], [ -3.6877892, 39.7949697 ], [ -3.6877617, 39.7945644 ], [ -3.6879561, 39.7929684 ], [ -3.6882122, 39.7917056 ], [ -3.6883878, 39.7882177 ], [ -3.6882141, 39.7872006 ], [ -3.6882942, 39.7846773 ], [ -3.6883829, 39.7842082 ], [ -3.6883668, 39.7837578 ], [ -3.6882343, 39.7833532 ], [ -3.6876076, 39.782573 ], [ -3.6873359, 39.7822593 ], [ -3.6873359, 39.7822592 ], [ -3.6869704, 39.7819101 ], [ -3.6876084, 39.7814738 ], [ -3.6878331, 39.7813204 ], [ -3.6884202, 39.7809194 ], [ -3.6884202, 39.7809193 ], [ -3.6876075, 39.7802124 ], [ -3.6859233, 39.7787717 ], [ -3.6821527, 39.7753341 ], [ -3.6808548, 39.7739542 ], [ -3.6795105, 39.7726106 ], [ -3.6793209, 39.7724305 ], [ -3.6792275, 39.7723419 ], [ -3.6785933, 39.7719582 ], [ -3.6770157, 39.7694356 ], [ -3.6751442, 39.7666984 ], [ -3.6748539, 39.7668623 ], [ -3.6740514, 39.7671823 ], [ -3.6735633, 39.7674104 ], [ -3.6735633, 39.7674104 ], [ -3.671262, 39.7684869 ], [ -3.6710006, 39.7686192 ], [ -3.6698212, 39.769216 ], [ -3.6686945, 39.7698082 ], [ -3.6679407, 39.7703531 ], [ -3.6664592, 39.771159 ], [ -3.6656642, 39.7715915 ], [ -3.6656641, 39.7715916 ], [ -3.6643877, 39.7724187 ], [ -3.661902, 39.7737844 ], [ -3.6593421, 39.7759524 ], [ -3.6590521, 39.7761523 ], [ -3.6588096, 39.7764329 ], [ -3.6582756, 39.7767693 ], [ -3.6580445, 39.7770229 ], [ -3.6571719, 39.7785956 ], [ -3.656803, 39.7790933 ], [ -3.6565175, 39.7797706 ], [ -3.6563258, 39.7804925 ], [ -3.6563685, 39.7813031 ], [ -3.6563281, 39.7819701 ], [ -3.6558518, 39.7834685 ], [ -3.6558454, 39.7840181 ], [ -3.6559671, 39.78454 ], [ -3.6566321, 39.7857075 ], [ -3.657836, 39.7870432 ], [ -3.6589187, 39.787911 ], [ -3.6590729, 39.7881534 ], [ -3.6591579, 39.7884953 ], [ -3.6591255, 39.7887748 ], [ -3.658965, 39.7890911 ], [ -3.6586751, 39.789309 ], [ -3.6577857, 39.7903502 ], [ -3.6570375, 39.7914987 ], [ -3.6567188, 39.7923835 ], [ -3.6565723, 39.7941773 ], [ -3.6559323, 39.7944332 ], [ -3.6553518, 39.7947969 ], [ -3.6548888, 39.79525 ], [ -3.6542422, 39.7960375 ], [ -3.652619, 39.797317 ], [ -3.6509743, 39.7987949 ], [ -3.6504778, 39.7994103 ], [ -3.6497492, 39.8001893 ], [ -3.6488452, 39.8009512 ], [ -3.6484652, 39.8015299 ], [ -3.6478175, 39.8022183 ], [ -3.647504, 39.8024273 ], [ -3.6470491, 39.8024929 ], [ -3.6457044, 39.8023562 ], [ -3.64493, 39.8019911 ], [ -3.6442792, 39.8010937 ], [ -3.6437257, 39.8006193 ], [ -3.6431516, 39.8004242 ], [ -3.6421688, 39.8002495 ], [ -3.6418533, 39.8002422 ], [ -3.6415925, 39.7998292 ], [ -3.6407399, 39.7998339 ], [ -3.6398852, 39.7996314 ], [ -3.6386135, 39.7997915 ], [ -3.6377379, 39.7998504 ], [ -3.6342788, 39.7996711 ], [ -3.6332854, 39.7996225 ], [ -3.631278, 39.7998046 ], [ -3.6291215, 39.8003029 ], [ -3.6284112, 39.80055 ], [ -3.6279214, 39.8006337 ], [ -3.6273601, 39.8005647 ], [ -3.6265657, 39.8005599 ], [ -3.6252559, 39.8003958 ], [ -3.6248219, 39.8001909 ], [ -3.623403, 39.7995769 ], [ -3.6222173, 39.7989165 ], [ -3.6210316, 39.7982561 ], [ -3.6197183, 39.7976865 ], [ -3.6177139, 39.7969042 ], [ -3.6159433, 39.7961388 ], [ -3.6132693, 39.7949096 ], [ -3.6109713, 39.7939216 ], [ -3.6076546, 39.7926415 ], [ -3.6066694, 39.7921782 ], [ -3.6058841, 39.7931914 ], [ -3.6057695, 39.7934443 ], [ -3.6059955, 39.7939116 ], [ -3.6049436, 39.7951694 ], [ -3.6031661, 39.7976114 ], [ -3.6024961, 39.7984618 ], [ -3.6015123, 39.7995121 ], [ -3.6005527, 39.8006523 ], [ -3.5980832, 39.804152 ], [ -3.5960313, 39.8073341 ], [ -3.593535, 39.8105003 ], [ -3.5927854, 39.8116394 ], [ -3.5920229, 39.8126345 ], [ -3.5888648, 39.8163266 ], [ -3.5871787, 39.8186507 ], [ -3.586738, 39.8190404 ], [ -3.5862229, 39.8203043 ], [ -3.585925, 39.8209997 ], [ -3.5851071, 39.8223823 ], [ -3.5847484, 39.8227986 ], [ -3.5839871, 39.8239737 ], [ -3.5837009, 39.8246779 ], [ -3.58339, 39.82522 ], [ -3.5813665, 39.827762 ], [ -3.5810332, 39.8284394 ], [ -3.5807805, 39.8289543 ], [ -3.5806124, 39.8298111 ], [ -3.5803043, 39.8306956 ], [ -3.579823, 39.8318332 ], [ -3.5790188, 39.8334861 ], [ -3.5789958, 39.8335313 ], [ -3.5772741, 39.8358734 ], [ -3.5745311, 39.8362925 ], [ -3.5729022, 39.8385801 ], [ -3.5706964, 39.840384 ], [ -3.5666605, 39.8456475 ], [ -3.5660782, 39.8473352 ], [ -3.5631484, 39.8492776 ], [ -3.5615184, 39.8500694 ], [ -3.5555191, 39.8526571 ], [ -3.5511046, 39.8532008 ], [ -3.5504308, 39.8537356 ], [ -3.5475558, 39.8538122 ], [ -3.5442157, 39.85572 ], [ -3.5420009, 39.8565323 ], [ -3.5389999, 39.8584834 ], [ -3.5379002, 39.8583804 ], [ -3.5373527, 39.8586352 ], [ -3.5366544, 39.8605395 ], [ -3.5362785, 39.8663347 ], [ -3.5357589, 39.8671841 ], [ -3.5359359, 39.8673905 ], [ -3.5372461, 39.8689882 ], [ -3.5396401, 39.8700943 ], [ -3.5406618, 39.8706482 ], [ -3.5418814, 39.871102 ], [ -3.5430032, 39.8725023 ], [ -3.5442918, 39.8728026 ], [ -3.5452219, 39.8721134 ], [ -3.5450415, 39.8714836 ], [ -3.5448582, 39.8704754 ], [ -3.5465985, 39.8717106 ], [ -3.5470718, 39.8724111 ], [ -3.5478776, 39.8722812 ], [ -3.5488036, 39.8710875 ], [ -3.550517, 39.8718722 ], [ -3.5514687, 39.8709757 ], [ -3.5521502, 39.8699273 ], [ -3.5543263, 39.8700791 ], [ -3.5561896, 39.8706018 ], [ -3.5577315, 39.8704052 ], [ -3.557554, 39.8715953 ], [ -3.5568236, 39.8723737 ], [ -3.5571695, 39.8732099 ], [ -3.5578158, 39.8736033 ], [ -3.5586414, 39.8744733 ], [ -3.5589993, 39.8753546 ], [ -3.5581405, 39.8761605 ], [ -3.5601461, 39.8768897 ], [ -3.5604348, 39.8778884 ], [ -3.5592708, 39.8785518 ], [ -3.5601997, 39.879169 ], [ -3.5604155, 39.8798166 ], [ -3.5600099, 39.8802781 ], [ -3.5611932, 39.8848584 ], [ -3.5619995, 39.8876476 ], [ -3.5622183, 39.8881037 ] ] ] } },
{ "type": "Feature", "properties": { "CCAA": "08 - Castilla-La Mancha", "PROVINCIA": "45 - Toledo", "MUNICIPIO": "45078 - Huerta de Valdecarábanos", "COD_MUNICIPIO": "45078", "DISTRITO": "01", "SECCION": "4507801001", "V1_H": 79.47, "V1_M": 85.31, "V2_H": 79.34656828, "V2_M": 85.44731594, "V3_H": 79.76976452, "V3_M": 85.31663719 }, "geometry": { "type": "Polygon", "coordinates": [ [ [ -3.5622183, 39.8881037 ], [ -3.5623445, 39.8883667 ], [ -3.5632854, 39.8904345 ], [ -3.5646036, 39.8942933 ], [ -3.5672019, 39.9001641 ], [ -3.5692384, 39.9002983 ], [ -3.5727194, 39.898281 ], [ -3.5761645, 39.8990027 ], [ -3.5765056, 39.8978297 ], [ -3.5774755, 39.8977078 ], [ -3.5785147, 39.8974773 ], [ -3.5792204, 39.8993299 ], [ -3.5807559, 39.8997006 ], [ -3.5818349, 39.89865 ], [ -3.5820268, 39.8978201 ], [ -3.5829266, 39.8977075 ], [ -3.5832797, 39.8965795 ], [ -3.5832835, 39.8956515 ], [ -3.5853368, 39.8950104 ], [ -3.5900668, 39.8941575 ], [ -3.5913888, 39.8941868 ], [ -3.5927689, 39.8955312 ], [ -3.5949577, 39.8956912 ], [ -3.5981559, 39.8949089 ], [ -3.5995238, 39.8948388 ], [ -3.6024392, 39.8938145 ], [ -3.6049275, 39.8921257 ], [ -3.6066331, 39.8905581 ], [ -3.6056893, 39.8883106 ], [ -3.60948, 39.8871194 ], [ -3.6097067, 39.8876318 ], [ -3.6121955, 39.8873574 ], [ -3.6127716, 39.8876968 ], [ -3.6150303, 39.887847 ], [ -3.6151371, 39.8854047 ], [ -3.6164341, 39.8852627 ], [ -3.6189408, 39.8856998 ], [ -3.6211049, 39.8857423 ], [ -3.6211555, 39.8857436 ], [ -3.622263, 39.8857721 ], [ -3.6242091, 39.8849958 ], [ -3.6251916, 39.8850086 ], [ -3.6273525, 39.8847085 ], [ -3.6346486, 39.8768753 ], [ -3.6387601, 39.8700413 ], [ -3.6414233, 39.8684949 ], [ -3.6450225, 39.8632582 ], [ -3.6453801, 39.8627426 ], [ -3.6454486, 39.8625815 ], [ -3.6448741, 39.8626276 ], [ -3.6441724, 39.8626863 ], [ -3.6433654, 39.8627265 ], [ -3.6421933, 39.8627545 ], [ -3.6409054, 39.8626472 ], [ -3.6369898, 39.8617176 ], [ -3.636215, 39.8615549 ], [ -3.6352113, 39.8613936 ], [ -3.6293974, 39.8608913 ], [ -3.6293826, 39.8609748 ], [ -3.6292598, 39.8610684 ], [ -3.629112, 39.8611479 ], [ -3.6289266, 39.8611656 ], [ -3.6287441, 39.8611714 ], [ -3.628506, 39.861175 ], [ -3.628271, 39.8611906 ], [ -3.627851, 39.8612692 ], [ -3.6272581, 39.8613796 ], [ -3.6266713, 39.8614829 ], [ -3.6263747, 39.8615179 ], [ -3.6260871, 39.8615314 ], [ -3.6254806, 39.8615084 ], [ -3.6248832, 39.8614687 ], [ -3.6242175, 39.8613913 ], [ -3.6234219, 39.8613312 ], [ -3.6227289, 39.8613158 ], [ -3.6221418, 39.8613881 ], [ -3.6216632, 39.8614837 ], [ -3.6212683, 39.8616002 ], [ -3.6207161, 39.8617748 ], [ -3.6202353, 39.8619681 ], [ -3.6200937, 39.8620404 ], [ -3.619983, 39.8621125 ], [ -3.6198908, 39.8621845 ], [ -3.6197553, 39.8622519 ], [ -3.6195706, 39.8623531 ], [ -3.6193117, 39.8624593 ], [ -3.6190283, 39.8625943 ], [ -3.6188309, 39.8626526 ], [ -3.6186827, 39.862682 ], [ -3.618599, 39.8626634 ], [ -3.6184597, 39.8626546 ], [ -3.6182122, 39.8626559 ], [ -3.6179157, 39.8627099 ], [ -3.6177118, 39.8627396 ], [ -3.617455, 39.8627243 ], [ -3.6161351, 39.8624977 ], [ -3.6154911, 39.8624344 ], [ -3.6153006, 39.8624274 ], [ -3.614946, 39.862361 ], [ -3.6147913, 39.862357 ], [ -3.614464, 39.8624255 ], [ -3.614086, 39.8625081 ], [ -3.6138392, 39.862573 ], [ -3.6136986, 39.8626532 ], [ -3.6135736, 39.8627306 ], [ -3.6135661, 39.862776 ], [ -3.613488, 39.8628279 ], [ -3.6130727, 39.8629208 ], [ -3.6128844, 39.862943 ], [ -3.6128931, 39.8631728 ], [ -3.6126456, 39.8631765 ], [ -3.6126483, 39.8633316 ], [ -3.6125467, 39.8633715 ], [ -3.6122684, 39.8634364 ], [ -3.6122464, 39.8636151 ], [ -3.6122871, 39.8637783 ], [ -3.6122143, 39.864068 ], [ -3.6121965, 39.8641587 ], [ -3.6120604, 39.8641546 ], [ -3.6119401, 39.8641934 ], [ -3.6115482, 39.8643051 ], [ -3.6112951, 39.8643705 ], [ -3.6110992, 39.8644174 ], [ -3.6108538, 39.8644914 ], [ -3.610669, 39.8645791 ], [ -3.6104532, 39.864788 ], [ -3.6104249, 39.8649666 ], [ -3.6104542, 39.8651286 ], [ -3.610514, 39.8655883 ], [ -3.6104258, 39.8657604 ], [ -3.6103925, 39.8658464 ], [ -3.6103878, 39.8660133 ], [ -3.6103991, 39.8665854 ], [ -3.610455, 39.8669689 ], [ -3.6098519, 39.8673249 ], [ -3.6094733, 39.8675462 ], [ -3.6091287, 39.8677554 ], [ -3.6087933, 39.8679598 ], [ -3.6085871, 39.8680825 ], [ -3.6082947, 39.8682556 ], [ -3.6080181, 39.8684597 ], [ -3.6070691, 39.8692466 ], [ -3.6067831, 39.8694483 ], [ -3.6063884, 39.8695934 ], [ -3.6061699, 39.8697281 ], [ -3.605872, 39.8699704 ], [ -3.6056135, 39.8701267 ], [ -3.6052501, 39.8703169 ], [ -3.6043722, 39.870753 ], [ -3.6038826, 39.8710178 ], [ -3.6033625, 39.8713304 ], [ -3.6029192, 39.8715877 ], [ -3.6020298, 39.8721192 ], [ -3.6009003, 39.8727997 ], [ -3.5997337, 39.8734923 ], [ -3.5989305, 39.8739804 ], [ -3.5987248, 39.874165 ], [ -3.5985534, 39.8743876 ], [ -3.5980034, 39.8751723 ], [ -3.5971563, 39.8763186 ], [ -3.5970676, 39.8764358 ], [ -3.5969508, 39.8765342 ], [ -3.5967999, 39.8766136 ], [ -3.5966147, 39.8766622 ], [ -3.5949262, 39.8771191 ], [ -3.5945621, 39.8772402 ], [ -3.5940261, 39.8775099 ], [ -3.5932344, 39.8779168 ], [ -3.5929876, 39.8779944 ], [ -3.592805, 39.8779905 ], [ -3.5925634, 39.877924 ], [ -3.5922371, 39.8777932 ], [ -3.5920373, 39.8777124 ], [ -3.5917809, 39.8776429 ], [ -3.5907581, 39.8774336 ], [ -3.5904172, 39.877371 ], [ -3.5902472, 39.8773933 ], [ -3.5901393, 39.8774368 ], [ -3.5900319, 39.8775398 ], [ -3.5893976, 39.8782558 ], [ -3.588984, 39.8787418 ], [ -3.5889331, 39.8788666 ], [ -3.5889425, 39.8789542 ], [ -3.5889741, 39.879028 ], [ -3.5890273, 39.8791016 ], [ -3.5891026, 39.8791718 ], [ -3.5894693, 39.8794069 ], [ -3.5897818, 39.8796335 ], [ -3.5898943, 39.8797859 ], [ -3.5899355, 39.879951 ], [ -3.5899281, 39.8802317 ], [ -3.5899091, 39.8809065 ], [ -3.5898834, 39.882228 ], [ -3.5898602, 39.8832319 ], [ -3.5898143, 39.8834402 ], [ -3.5896357, 39.8836636 ], [ -3.5894241, 39.8838888 ], [ -3.5889976, 39.8843081 ], [ -3.5886358, 39.8846962 ], [ -3.5871081, 39.8862629 ], [ -3.5867677, 39.886627 ], [ -3.5859762, 39.8874249 ], [ -3.5853535, 39.8880716 ], [ -3.5850645, 39.8882996 ], [ -3.5849352, 39.8883741 ], [ -3.584787, 39.8884178 ], [ -3.5846387, 39.8884495 ], [ -3.5844865, 39.8884675 ], [ -3.5841839, 39.888459 ], [ -3.583636, 39.8884355 ], [ -3.5831687, 39.8884307 ], [ -3.5825404, 39.8884195 ], [ -3.5818532, 39.8884018 ], [ -3.5812837, 39.8883877 ], [ -3.5805695, 39.8883873 ], [ -3.578246, 39.8883502 ], [ -3.5761576, 39.8883188 ], [ -3.5734453, 39.8882765 ], [ -3.5714665, 39.888241 ], [ -3.5691453, 39.8882048 ], [ -3.5667032, 39.8881547 ], [ -3.5648525, 39.888128 ], [ -3.5638466, 39.8881114 ], [ -3.5622183, 39.8881037 ] ] ] } }
]
}
