{
"type": "FeatureCollection",
"name": "45135",
"features": [
{ "type": "Feature", "properties": { "CCAA": "08 - Castilla-La Mancha", "PROVINCIA": "45 - Toledo", "MUNICIPIO": "45135 - Puebla de Almoradiel, La", "COD_MUNICIPIO": "45135", "DISTRITO": "01", "SECCION": "4513501002", "V1_H": 79.16, "V1_M": 85.0, "V2_H": 79.432337, "V2_M": 85.16926182, "V3_H": 78.95181978, "V3_M": 84.90024095 }, "geometry": { "type": "Polygon", "coordinates": [ [ [ -3.1181485, 39.5982998 ], [ -3.1180113, 39.5982893 ], [ -3.117464, 39.5982536 ], [ -3.1171565, 39.5982458 ], [ -3.1163852, 39.5982466 ], [ -3.1159161, 39.5982511 ], [ -3.1151605, 39.5983003 ], [ -3.1134199, 39.5984068 ], [ -3.1131072, 39.5984272 ], [ -3.1127058, 39.5983712 ], [ -3.1110064, 39.5981511 ], [ -3.1099795, 39.5980271 ], [ -3.1095573, 39.5979831 ], [ -3.1081654, 39.597811 ], [ -3.1066068, 39.597623 ], [ -3.1055278, 39.597495 ], [ -3.1044591, 39.5973669 ], [ -3.1029787, 39.5971948 ], [ -3.1014618, 39.5969986 ], [ -3.1010969, 39.5969465 ], [ -3.1006122, 39.5968824 ], [ -3.0995435, 39.5967422 ], [ -3.0986626, 39.5966381 ], [ -3.0976149, 39.596518 ], [ -3.0966276, 39.5964222 ], [ -3.095565, 39.5962797 ], [ -3.0943665, 39.5961278 ], [ -3.0925996, 39.5959094 ], [ -3.0914506, 39.5957765 ], [ -3.0907216, 39.5957006 ], [ -3.0900791, 39.5956246 ], [ -3.0887818, 39.595444 ], [ -3.0868049, 39.5951875 ], [ -3.0854211, 39.5950356 ], [ -3.083642, 39.5948075 ], [ -3.0828265, 39.5946934 ], [ -3.0800466, 39.5943704 ], [ -3.0781192, 39.5940945 ], [ -3.0774768, 39.5940281 ], [ -3.0762907, 39.5939046 ], [ -3.0742893, 39.5936956 ], [ -3.0703234, 39.5932107 ], [ -3.0695055, 39.5931151 ], [ -3.069391, 39.5936838 ], [ -3.0690201, 39.5955132 ], [ -3.0682898, 39.5990817 ], [ -3.0681526, 39.6016587 ], [ -3.0674934, 39.6065878 ], [ -3.0677794, 39.625302 ], [ -3.0677814, 39.6253299 ], [ -3.067862, 39.6264193 ], [ -3.0680394, 39.6291223 ], [ -3.069616, 39.6326444 ], [ -3.0702588, 39.6336893 ], [ -3.0704914, 39.6340675 ], [ -3.0709004, 39.6352115 ], [ -3.0710058, 39.635707 ], [ -3.0713211, 39.6363826 ], [ -3.072138, 39.6375174 ], [ -3.0746735, 39.6436879 ], [ -3.0785102, 39.6456947 ], [ -3.0786609, 39.6450188 ], [ -3.0791263, 39.6442526 ], [ -3.0800458, 39.6431437 ], [ -3.0807562, 39.6427197 ], [ -3.0829348, 39.6419794 ], [ -3.0836802, 39.6416274 ], [ -3.0841463, 39.64151 ], [ -3.0851253, 39.6415273 ], [ -3.0853699, 39.641437 ], [ -3.0854512, 39.6412297 ], [ -3.085439, 39.6407341 ], [ -3.0855436, 39.6405539 ], [ -3.0859396, 39.6403013 ], [ -3.0865095, 39.6393458 ], [ -3.0883278, 39.6395967 ], [ -3.0900081, 39.6412263 ], [ -3.0902767, 39.6416225 ], [ -3.0917339, 39.6419277 ], [ -3.0944384, 39.6423851 ], [ -3.0959427, 39.6429966 ], [ -3.0979137, 39.6439861 ], [ -3.0987886, 39.64458 ], [ -3.1049222, 39.646566 ], [ -3.105785, 39.6467814 ], [ -3.1062548, 39.6468513 ], [ -3.1060036, 39.6459573 ], [ -3.1061092, 39.6444314 ], [ -3.1063392, 39.6435897 ], [ -3.1064898, 39.6432987 ], [ -3.1067268, 39.6430195 ], [ -3.1071488, 39.6426902 ], [ -3.1075118, 39.6421701 ], [ -3.1079367, 39.6417406 ], [ -3.1082751, 39.6412373 ], [ -3.108672, 39.6406409 ], [ -3.1087611, 39.6404501 ], [ -3.1088132, 39.640245 ], [ -3.1088252, 39.6400138 ], [ -3.1087816, 39.6397873 ], [ -3.1086823, 39.6393368 ], [ -3.1088164, 39.638376 ], [ -3.108853, 39.6381042 ], [ -3.1088434, 39.6378658 ], [ -3.1085983, 39.6368909 ], [ -3.1084928, 39.6364786 ], [ -3.1084273, 39.6360281 ], [ -3.1083462, 39.6354202 ], [ -3.1083057, 39.6351437 ], [ -3.1082127, 39.6348315 ], [ -3.1079618, 39.634057 ], [ -3.1077817, 39.6332633 ], [ -3.1076511, 39.63251 ], [ -3.1075796, 39.6321382 ], [ -3.107468, 39.6317664 ], [ -3.1072391, 39.6312993 ], [ -3.107041, 39.6307989 ], [ -3.1069231, 39.6302745 ], [ -3.106892, 39.6301196 ], [ -3.1068825, 39.6299646 ], [ -3.1068854, 39.6298287 ], [ -3.1069067, 39.6296595 ], [ -3.1069369, 39.6292518 ], [ -3.1069613, 39.6290825 ], [ -3.1070011, 39.6288917 ], [ -3.1074065, 39.6279115 ], [ -3.1074785, 39.626574 ], [ -3.1075737, 39.626357 ], [ -3.1076383, 39.626264 ], [ -3.1077245, 39.6261781 ], [ -3.1081126, 39.6260013 ], [ -3.108131, 39.6259393 ], [ -3.1078717, 39.6256701 ], [ -3.1077477, 39.6252721 ], [ -3.1075992, 39.6248908 ], [ -3.1070886, 39.6236707 ], [ -3.1079883, 39.6213812 ], [ -3.1084519, 39.6201602 ], [ -3.1089433, 39.6189725 ], [ -3.10977, 39.617403 ], [ -3.1102065, 39.6166659 ], [ -3.1105814, 39.615917 ], [ -3.11095, 39.6151299 ], [ -3.1113588, 39.6143977 ], [ -3.1117398, 39.6136368 ], [ -3.1121887, 39.6129164 ], [ -3.1129272, 39.6121409 ], [ -3.1135176, 39.611313 ], [ -3.1137355, 39.6107574 ], [ -3.1138918, 39.610166 ], [ -3.1140203, 39.6095889 ], [ -3.1141087, 39.6090143 ], [ -3.1141817, 39.6084373 ], [ -3.1142831, 39.6082083 ], [ -3.114403, 39.6080508 ], [ -3.1148462, 39.6076523 ], [ -3.1149631, 39.607533 ], [ -3.115043, 39.6073851 ], [ -3.1151074, 39.6072372 ], [ -3.1151286, 39.6070083 ], [ -3.115235, 39.6061094 ], [ -3.1153272, 39.6059115 ], [ -3.1154471, 39.6057445 ], [ -3.115564, 39.6056132 ], [ -3.1157024, 39.6054581 ], [ -3.1159142, 39.6049239 ], [ -3.1159597, 39.6045138 ], [ -3.1160947, 39.6041561 ], [ -3.1162054, 39.6039819 ], [ -3.1163654, 39.6038435 ], [ -3.1164761, 39.603667 ], [ -3.1166696, 39.6032901 ], [ -3.1168816, 39.6029108 ], [ -3.1170598, 39.6025936 ], [ -3.1172932, 39.602107 ], [ -3.1174468, 39.6018136 ], [ -3.117625, 39.6014678 ], [ -3.1178217, 39.6011719 ], [ -3.1179354, 39.6009835 ], [ -3.118012, 39.600695 ], [ -3.1180034, 39.6003991 ], [ -3.1180231, 39.5999678 ], [ -3.1180439, 39.5995339 ], [ -3.1180587, 39.5992049 ], [ -3.1180611, 39.5989408 ], [ -3.118061, 39.5987352 ], [ -3.1180823, 39.5985898 ], [ -3.1181098, 39.598442 ], [ -3.1181485, 39.5982998 ] ] ] } },
{ "type": "Feature", "properties": { "CCAA": "08 - Castilla-La Mancha", "PROVINCIA": "45 - Toledo", "MUNICIPIO": "45135 - Puebla de Almoradiel, La", "COD_MUNICIPIO": "45135", "DISTRITO": "02", "SECCION": "4513502002", "V1_H": 79.29, "V1_M": 85.18, "V2_H": 79.29248013, "V2_M": 85.31775581, "V3_H": 79.43295666, "V3_M": 85.21995842 }, "geometry": { "type": "Polygon", "coordinates": [ [ [ -3.0695055, 39.5931151 ], [ -3.0703234, 39.5932107 ], [ -3.0742893, 39.5936956 ], [ -3.0762907, 39.5939046 ], [ -3.0774768, 39.5940281 ], [ -3.0781192, 39.5940945 ], [ -3.0800466, 39.5943704 ], [ -3.0828265, 39.5946934 ], [ -3.083642, 39.5948075 ], [ -3.0854211, 39.5950356 ], [ -3.0868049, 39.5951875 ], [ -3.0887818, 39.595444 ], [ -3.0900791, 39.5956246 ], [ -3.0907216, 39.5957006 ], [ -3.0914506, 39.5957765 ], [ -3.0925996, 39.5959094 ], [ -3.0943665, 39.5961278 ], [ -3.095565, 39.5962797 ], [ -3.0966276, 39.5964222 ], [ -3.0976149, 39.596518 ], [ -3.0986626, 39.5966381 ], [ -3.0995435, 39.5967422 ], [ -3.1006122, 39.5968824 ], [ -3.1010969, 39.5969465 ], [ -3.1014618, 39.5969986 ], [ -3.1029787, 39.5971948 ], [ -3.1044591, 39.5973669 ], [ -3.1055278, 39.597495 ], [ -3.1066068, 39.597623 ], [ -3.1081654, 39.597811 ], [ -3.1095573, 39.5979831 ], [ -3.1099795, 39.5980271 ], [ -3.1110064, 39.5981511 ], [ -3.1127058, 39.5983712 ], [ -3.1131072, 39.5984272 ], [ -3.1134199, 39.5984068 ], [ -3.1151605, 39.5983003 ], [ -3.1159161, 39.5982511 ], [ -3.1163852, 39.5982466 ], [ -3.1171565, 39.5982458 ], [ -3.117464, 39.5982536 ], [ -3.1180113, 39.5982893 ], [ -3.1181485, 39.5982998 ], [ -3.1183241, 39.5983132 ], [ -3.1189756, 39.5983206 ], [ -3.1189756, 39.5983201 ], [ -3.1189562, 39.5979715 ], [ -3.1189621, 39.5978022 ], [ -3.1189848, 39.5976185 ], [ -3.1190169, 39.5974159 ], [ -3.1193129, 39.5975348 ], [ -3.1194733, 39.5976086 ], [ -3.1195287, 39.5976037 ], [ -3.1195476, 39.5975635 ], [ -3.1195903, 39.5974153 ], [ -3.1196616, 39.5970786 ], [ -3.1197345, 39.596847 ], [ -3.119792, 39.5966117 ], [ -3.1198436, 39.5963507 ], [ -3.1199162, 39.5959632 ], [ -3.1199935, 39.5954839 ], [ -3.1200311, 39.5953176 ], [ -3.1201315, 39.595073 ], [ -3.1202545, 39.5947149 ], [ -3.1203917, 39.5945659 ], [ -3.1207984, 39.5940233 ], [ -3.1210955, 39.5936545 ], [ -3.1213103, 39.593392 ], [ -3.1215615, 39.5929736 ], [ -3.1218353, 39.5923744 ], [ -3.1221878, 39.5921535 ], [ -3.1223263, 39.5920509 ], [ -3.1224124, 39.591922 ], [ -3.1224609, 39.5918052 ], [ -3.1224703, 39.5915477 ], [ -3.1225346, 39.5913521 ], [ -3.1226388, 39.5910206 ], [ -3.1228941, 39.5907462 ], [ -3.1231749, 39.5904922 ], [ -3.1240999, 39.5895696 ], [ -3.1247987, 39.5892208 ], [ -3.1251896, 39.5889772 ], [ -3.1255804, 39.5886978 ], [ -3.1258706, 39.5884926 ], [ -3.126233, 39.5882709 ], [ -3.1266606, 39.5880172 ], [ -3.12703, 39.5877975 ], [ -3.1273193, 39.5876327 ], [ -3.127661, 39.5874487 ], [ -3.1279935, 39.5872863 ], [ -3.1283012, 39.5870976 ], [ -3.1285011, 39.5868995 ], [ -3.1287164, 39.5866537 ], [ -3.1290023, 39.5863196 ], [ -3.1293282, 39.5859616 ], [ -3.129688, 39.5855965 ], [ -3.1300356, 39.5852719 ], [ -3.1302694, 39.5850976 ], [ -3.1306356, 39.5848516 ], [ -3.1311186, 39.5844815 ], [ -3.131371, 39.5843573 ], [ -3.1315373, 39.584288 ], [ -3.131722, 39.5842282 ], [ -3.1319098, 39.584154 ], [ -3.1321068, 39.5840465 ], [ -3.1326976, 39.5836597 ], [ -3.1330146, 39.5834638 ], [ -3.1333901, 39.5832774 ], [ -3.1338025, 39.5830242 ], [ -3.134461, 39.5826206 ], [ -3.134704, 39.5824177 ], [ -3.1353068, 39.581871 ], [ -3.1357588, 39.5813746 ], [ -3.1361245, 39.5809093 ], [ -3.1363795, 39.5805657 ], [ -3.1366807, 39.5801949 ], [ -3.1369684, 39.5799433 ], [ -3.1371851, 39.5797518 ], [ -3.1376055, 39.5793245 ], [ -3.1379291, 39.5789475 ], [ -3.1381804, 39.5786266 ], [ -3.138427, 39.5783414 ], [ -3.1385553, 39.5781943 ], [ -3.1386697, 39.5780335 ], [ -3.1390381, 39.5773942 ], [ -3.1390965, 39.5772916 ], [ -3.139198, 39.577208 ], [ -3.140223, 39.5767729 ], [ -3.1411955, 39.5763188 ], [ -3.1414509, 39.5761492 ], [ -3.1416475, 39.5759862 ], [ -3.1421826, 39.5754212 ], [ -3.1427352, 39.5744836 ], [ -3.1430641, 39.5741065 ], [ -3.1436817, 39.5733715 ], [ -3.1438813, 39.5730255 ], [ -3.1441173, 39.5726836 ], [ -3.1446406, 39.5722832 ], [ -3.1451418, 39.5718319 ], [ -3.1455475, 39.5714119 ], [ -3.1459738, 39.5709849 ], [ -3.1483645, 39.5691864 ], [ -3.148876, 39.568822 ], [ -3.1506467, 39.5680181 ], [ -3.1510353, 39.5678169 ], [ -3.1514351, 39.567547 ], [ -3.1522498, 39.5667997 ], [ -3.1526524, 39.5664011 ], [ -3.1531321, 39.5660476 ], [ -3.1534645, 39.565897 ], [ -3.1538368, 39.5657296 ], [ -3.154206, 39.5655217 ], [ -3.1545012, 39.5652996 ], [ -3.1548799, 39.565094 ], [ -3.1551534, 39.5649483 ], [ -3.1554457, 39.5648167 ], [ -3.1568368, 39.5643095 ], [ -3.1582741, 39.5637926 ], [ -3.1595235, 39.5633284 ], [ -3.1608223, 39.562876 ], [ -3.1631676, 39.5620168 ], [ -3.1637304, 39.5617777 ], [ -3.1643366, 39.5615551 ], [ -3.164863, 39.5614184 ], [ -3.1652571, 39.5613678 ], [ -3.1655834, 39.5612935 ], [ -3.1667953, 39.5606099 ], [ -3.1679794, 39.5598954 ], [ -3.1685236, 39.5595084 ], [ -3.1700577, 39.5582688 ], [ -3.1712219, 39.5571371 ], [ -3.1724234, 39.5560386 ], [ -3.1727495, 39.5558689 ], [ -3.1731556, 39.5556919 ], [ -3.1739247, 39.5553593 ], [ -3.1746445, 39.5550388 ], [ -3.1753212, 39.5546969 ], [ -3.1755763, 39.5544962 ], [ -3.1757944, 39.5542599 ], [ -3.1761843, 39.5537825 ], [ -3.1765711, 39.5533099 ], [ -3.1768408, 39.5527993 ], [ -3.1775406, 39.551847 ], [ -3.1780835, 39.5510165 ], [ -3.1781756, 39.5508805 ], [ -3.1783846, 39.5507466 ], [ -3.1786153, 39.5506319 ], [ -3.1791198, 39.5504046 ], [ -3.18015, 39.5498499 ], [ -3.1805068, 39.549692 ], [ -3.180805, 39.5495056 ], [ -3.181057, 39.5493026 ], [ -3.1812966, 39.5490566 ], [ -3.1815085, 39.5488417 ], [ -3.1817544, 39.5486578 ], [ -3.1824001, 39.5482968 ], [ -3.1831719, 39.5478593 ], [ -3.1835039, 39.5476275 ], [ -3.1837864, 39.5473338 ], [ -3.184404, 39.5468155 ], [ -3.1851016, 39.5462899 ], [ -3.186451, 39.5453699 ], [ -3.1867214, 39.5451454 ], [ -3.1869485, 39.5448899 ], [ -3.1873936, 39.5443456 ], [ -3.187587, 39.5441308 ], [ -3.1878574, 39.5439086 ], [ -3.1881002, 39.5437556 ], [ -3.1883616, 39.5436169 ], [ -3.1886106, 39.5434854 ], [ -3.1888565, 39.5433253 ], [ -3.1895079, 39.5427831 ], [ -3.1901656, 39.5423409 ], [ -3.1904975, 39.5420996 ], [ -3.1907832, 39.541875 ], [ -3.1910365, 39.5410188 ], [ -3.1914446, 39.5405341 ], [ -3.1918621, 39.5400733 ], [ -3.1935087, 39.5387021 ], [ -3.1936162, 39.5385875 ], [ -3.1936988, 39.5384253 ], [ -3.1937384, 39.5382679 ], [ -3.1937657, 39.5380914 ], [ -3.1937341, 39.5378078 ], [ -3.1936071, 39.537529 ], [ -3.1934246, 39.537248 ], [ -3.1931841, 39.5370052 ], [ -3.1928872, 39.5366481 ], [ -3.1927667, 39.5364743 ], [ -3.1927292, 39.5362813 ], [ -3.1927473, 39.5361334 ], [ -3.1928546, 39.535983 ], [ -3.193304, 39.5358416 ], [ -3.1939378, 39.5357953 ], [ -3.1943474, 39.5358041 ], [ -3.1948, 39.535832 ], [ -3.1956745, 39.5358424 ], [ -3.1966818, 39.5360362 ], [ -3.1983269, 39.5363624 ], [ -3.2000104, 39.5361521 ], [ -3.2011033, 39.5361097 ], [ -3.2016054, 39.5361732 ], [ -3.2020798, 39.5362892 ], [ -3.2029749, 39.5370291 ], [ -3.2035767, 39.5375263 ], [ -3.2042465, 39.5379781 ], [ -3.2048038, 39.5380868 ], [ -3.2053951, 39.5381191 ], [ -3.2061891, 39.5379961 ], [ -3.2065366, 39.5378644 ], [ -3.206905, 39.537763 ], [ -3.2065471, 39.5371431 ], [ -3.2052554, 39.5332258 ], [ -3.2026863, 39.526049 ], [ -3.2019838, 39.5245274 ], [ -3.1978214, 39.5173262 ], [ -3.1926486, 39.5188216 ], [ -3.1916369, 39.5190035 ], [ -3.1891123, 39.5189806 ], [ -3.1881929, 39.518883 ], [ -3.1875873, 39.5186587 ], [ -3.1856319, 39.5183104 ], [ -3.1818042, 39.5182534 ], [ -3.181409, 39.5183441 ], [ -3.1805258, 39.518751 ], [ -3.1788518, 39.5192311 ], [ -3.1749177, 39.5199977 ], [ -3.1727933, 39.5204116 ], [ -3.1710262, 39.5209278 ], [ -3.1699685, 39.5213349 ], [ -3.1677606, 39.5224644 ], [ -3.1664478, 39.5232682 ], [ -3.1636488, 39.5253626 ], [ -3.1627548, 39.5261928 ], [ -3.1608047, 39.5281959 ], [ -3.1584144, 39.5311276 ], [ -3.1567778, 39.5329138 ], [ -3.1540018, 39.5352513 ], [ -3.1516897, 39.5369032 ], [ -3.1515514, 39.5375251 ], [ -3.1511696, 39.5385618 ], [ -3.1504506, 39.5397161 ], [ -3.145512, 39.5432274 ], [ -3.143805, 39.5450947 ], [ -3.1397358, 39.5471991 ], [ -3.1371426, 39.5483285 ], [ -3.135805, 39.5487716 ], [ -3.1335722, 39.5497743 ], [ -3.1320145, 39.5507943 ], [ -3.1296539, 39.5519593 ], [ -3.1202621, 39.5526812 ], [ -3.1199148, 39.5538079 ], [ -3.118476, 39.5564764 ], [ -3.1133355, 39.5592117 ], [ -3.1107407, 39.559917 ], [ -3.1093087, 39.5598372 ], [ -3.1029683, 39.562402 ], [ -3.0984511, 39.5656876 ], [ -3.0983511, 39.5657603 ], [ -3.0930828, 39.5695916 ], [ -3.0844385, 39.5745719 ], [ -3.0763899, 39.5807461 ], [ -3.0755387, 39.5813989 ], [ -3.0717564, 39.5834827 ], [ -3.0713493, 39.5839605 ], [ -3.0695055, 39.5931151 ] ] ] } },
{ "type": "Feature", "properties": { "CCAA": "08 - Castilla-La Mancha", "PROVINCIA": "45 - Toledo", "MUNICIPIO": "45135 - Puebla de Almoradiel, La", "COD_MUNICIPIO": "45135", "DISTRITO": "01", "SECCION": "4513501001", "V1_H": 79.16, "V1_M": 85.0, "V2_H": 79.432337, "V2_M": 85.16926182, "V3_H": 78.95181978, "V3_M": 84.90024095 }, "geometry": { "type": "Polygon", "coordinates": [ [ [ -3.1062548, 39.6468513 ], [ -3.1083148, 39.6471575 ], [ -3.1149259, 39.648665 ], [ -3.115777, 39.6488083 ], [ -3.1168495, 39.6488973 ], [ -3.1214432, 39.6496945 ], [ -3.1239968, 39.6502324 ], [ -3.1253263, 39.6506365 ], [ -3.1280324, 39.6516698 ], [ -3.1305404, 39.6526852 ], [ -3.1338765, 39.6539518 ], [ -3.1352761, 39.6543647 ], [ -3.1370043, 39.6558944 ], [ -3.1377163, 39.6563621 ], [ -3.1387432, 39.6569015 ], [ -3.1388726, 39.656957 ], [ -3.1401899, 39.6575215 ], [ -3.1410302, 39.658007 ], [ -3.1445087, 39.6602373 ], [ -3.1450809, 39.6607322 ], [ -3.1483145, 39.6627825 ], [ -3.1507193, 39.6643022 ], [ -3.1525634, 39.6652368 ], [ -3.1554692, 39.6665034 ], [ -3.1557026, 39.6666383 ], [ -3.155773, 39.6668094 ], [ -3.1581435, 39.6684821 ], [ -3.1587269, 39.6686976 ], [ -3.1596848, 39.6694982 ], [ -3.1605488, 39.6700466 ], [ -3.1617279, 39.6706577 ], [ -3.167317, 39.6724519 ], [ -3.1682619, 39.6726307 ], [ -3.1693593, 39.6732328 ], [ -3.1719616, 39.674085 ], [ -3.1720187, 39.6735804 ], [ -3.1718112, 39.6698414 ], [ -3.1719039, 39.669607 ], [ -3.1719129, 39.6685437 ], [ -3.1717955, 39.6681835 ], [ -3.1712801, 39.6672382 ], [ -3.170871, 39.6667973 ], [ -3.1704495, 39.6660771 ], [ -3.1699467, 39.6654381 ], [ -3.1668684, 39.6604148 ], [ -3.1661533, 39.6587309 ], [ -3.1656269, 39.6579567 ], [ -3.1652632, 39.6569661 ], [ -3.1649669, 39.6549302 ], [ -3.1648122, 39.6535789 ], [ -3.1646232, 39.6525429 ], [ -3.164549, 39.650732 ], [ -3.164438, 39.6481281 ], [ -3.1640506, 39.6469844 ], [ -3.1632762, 39.6447959 ], [ -3.1631003, 39.6443006 ], [ -3.1624297, 39.6416345 ], [ -3.1622752, 39.6403463 ], [ -3.1617605, 39.639518 ], [ -3.1610901, 39.6368789 ], [ -3.1603523, 39.6352941 ], [ -3.1595078, 39.6329256 ], [ -3.1587075, 39.6294306 ], [ -3.1585759, 39.6279441 ], [ -3.1584343, 39.6271424 ], [ -3.1577772, 39.625143 ], [ -3.1574358, 39.6235756 ], [ -3.1565911, 39.6210088 ], [ -3.1565557, 39.6208016 ], [ -3.1569383, 39.6199632 ], [ -3.1595169, 39.6165357 ], [ -3.1598745, 39.6149224 ], [ -3.1606734, 39.6128218 ], [ -3.1606958, 39.6124163 ], [ -3.1625363, 39.607368 ], [ -3.1626636, 39.6069984 ], [ -3.1634502, 39.605511 ], [ -3.1634502, 39.605511 ], [ -3.1607176, 39.6050863 ], [ -3.1600736, 39.6049938 ], [ -3.1580046, 39.6046667 ], [ -3.1573204, 39.6045867 ], [ -3.1571029, 39.6045123 ], [ -3.1569097, 39.6044877 ], [ -3.1552514, 39.6042471 ], [ -3.1544465, 39.6041486 ], [ -3.1520959, 39.6038466 ], [ -3.1500513, 39.6035692 ], [ -3.1496488, 39.6035199 ], [ -3.1489726, 39.6034087 ], [ -3.1465495, 39.6030694 ], [ -3.1449235, 39.6028162 ], [ -3.1440621, 39.6026865 ], [ -3.1434181, 39.6025815 ], [ -3.1432572, 39.6025506 ], [ -3.1421541, 39.6022967 ], [ -3.1411799, 39.6020551 ], [ -3.1391349, 39.601572 ], [ -3.138346, 39.6013862 ], [ -3.1375408, 39.6011817 ], [ -3.1369049, 39.6010642 ], [ -3.1359146, 39.6008537 ], [ -3.1341435, 39.6004449 ], [ -3.1329278, 39.600135 ], [ -3.1312613, 39.5997074 ], [ -3.1303193, 39.5994657 ], [ -3.1294176, 39.5992426 ], [ -3.1285804, 39.599038 ], [ -3.1274533, 39.5987716 ], [ -3.1263423, 39.5985103 ], [ -3.1255481, 39.5983203 ], [ -3.1237877, 39.5979072 ], [ -3.1231544, 39.5977502 ], [ -3.1226285, 39.5976262 ], [ -3.1223803, 39.5976222 ], [ -3.1221503, 39.5976837 ], [ -3.1217961, 39.5978563 ], [ -3.1212496, 39.5980377 ], [ -3.1209329, 39.5981285 ], [ -3.1206388, 39.5982018 ], [ -3.1203592, 39.5982304 ], [ -3.1199822, 39.5982675 ], [ -3.1194681, 39.5983272 ], [ -3.1190251, 39.5983358 ], [ -3.1189756, 39.5983201 ], [ -3.1189756, 39.5983206 ], [ -3.1183241, 39.5983132 ], [ -3.1181485, 39.5982998 ], [ -3.1181098, 39.598442 ], [ -3.1180823, 39.5985898 ], [ -3.118061, 39.5987352 ], [ -3.1180611, 39.5989408 ], [ -3.1180587, 39.5992049 ], [ -3.1180439, 39.5995339 ], [ -3.1180231, 39.5999678 ], [ -3.1180034, 39.6003991 ], [ -3.118012, 39.600695 ], [ -3.1179354, 39.6009835 ], [ -3.1178217, 39.6011719 ], [ -3.117625, 39.6014678 ], [ -3.1174468, 39.6018136 ], [ -3.1172932, 39.602107 ], [ -3.1170598, 39.6025936 ], [ -3.1168816, 39.6029108 ], [ -3.1166696, 39.6032901 ], [ -3.1164761, 39.603667 ], [ -3.1163654, 39.6038435 ], [ -3.1162054, 39.6039819 ], [ -3.1160947, 39.6041561 ], [ -3.1159597, 39.6045138 ], [ -3.1159142, 39.6049239 ], [ -3.1157024, 39.6054581 ], [ -3.115564, 39.6056132 ], [ -3.1154471, 39.6057445 ], [ -3.1153272, 39.6059115 ], [ -3.115235, 39.6061094 ], [ -3.1151286, 39.6070083 ], [ -3.1151074, 39.6072372 ], [ -3.115043, 39.6073851 ], [ -3.1149631, 39.607533 ], [ -3.1148462, 39.6076523 ], [ -3.114403, 39.6080508 ], [ -3.1142831, 39.6082083 ], [ -3.1141817, 39.6084373 ], [ -3.1141087, 39.6090143 ], [ -3.1140203, 39.6095889 ], [ -3.1138918, 39.610166 ], [ -3.1137355, 39.6107574 ], [ -3.1135176, 39.611313 ], [ -3.1129272, 39.6121409 ], [ -3.1121887, 39.6129164 ], [ -3.1117398, 39.6136368 ], [ -3.1113588, 39.6143977 ], [ -3.11095, 39.6151299 ], [ -3.1105814, 39.615917 ], [ -3.1102065, 39.6166659 ], [ -3.10977, 39.617403 ], [ -3.1089433, 39.6189725 ], [ -3.1084519, 39.6201602 ], [ -3.1079883, 39.6213812 ], [ -3.1070886, 39.6236707 ], [ -3.1075992, 39.6248908 ], [ -3.1077477, 39.6252721 ], [ -3.1078717, 39.6256701 ], [ -3.108131, 39.6259393 ], [ -3.1081126, 39.6260013 ], [ -3.1077245, 39.6261781 ], [ -3.1076383, 39.626264 ], [ -3.1075737, 39.626357 ], [ -3.1074785, 39.626574 ], [ -3.1074065, 39.6279115 ], [ -3.1070011, 39.6288917 ], [ -3.1069613, 39.6290825 ], [ -3.1069369, 39.6292518 ], [ -3.1069067, 39.6296595 ], [ -3.1068854, 39.6298287 ], [ -3.1068825, 39.6299646 ], [ -3.106892, 39.6301196 ], [ -3.1069231, 39.6302745 ], [ -3.107041, 39.6307989 ], [ -3.1072391, 39.6312993 ], [ -3.107468, 39.6317664 ], [ -3.1075796, 39.6321382 ], [ -3.1076511, 39.63251 ], [ -3.1077817, 39.6332633 ], [ -3.1079618, 39.634057 ], [ -3.1082127, 39.6348315 ], [ -3.1083057, 39.6351437 ], [ -3.1083462, 39.6354202 ], [ -3.1084273, 39.6360281 ], [ -3.1084928, 39.6364786 ], [ -3.1085983, 39.6368909 ], [ -3.1088434, 39.6378658 ], [ -3.108853, 39.6381042 ], [ -3.1088164, 39.638376 ], [ -3.1086823, 39.6393368 ], [ -3.1087816, 39.6397873 ], [ -3.1088252, 39.6400138 ], [ -3.1088132, 39.640245 ], [ -3.1087611, 39.6404501 ], [ -3.108672, 39.6406409 ], [ -3.1082751, 39.6412373 ], [ -3.1079367, 39.6417406 ], [ -3.1075118, 39.6421701 ], [ -3.1071488, 39.6426902 ], [ -3.1067268, 39.6430195 ], [ -3.1064898, 39.6432987 ], [ -3.1063392, 39.6435897 ], [ -3.1061092, 39.6444314 ], [ -3.1060036, 39.6459573 ], [ -3.1062548, 39.6468513 ] ] ] } },
{ "type": "Feature", "properties": { "CCAA": "08 - Castilla-La Mancha", "PROVINCIA": "45 - Toledo", "MUNICIPIO": "45135 - Puebla de Almoradiel, La", "COD_MUNICIPIO": "45135", "DISTRITO": "02", "SECCION": "4513502001", "V1_H": 79.16, "V1_M": 85.0, "V2_H": 79.432337, "V2_M": 85.16926182, "V3_H": 78.95181978, "V3_M": 84.90024095 }, "geometry": { "type": "Polygon", "coordinates": [ [ [ -3.1189756, 39.5983201 ], [ -3.1190251, 39.5983358 ], [ -3.1194681, 39.5983272 ], [ -3.1199822, 39.5982675 ], [ -3.1203592, 39.5982304 ], [ -3.1206388, 39.5982018 ], [ -3.1209329, 39.5981285 ], [ -3.1212496, 39.5980377 ], [ -3.1217961, 39.5978563 ], [ -3.1221503, 39.5976837 ], [ -3.1223803, 39.5976222 ], [ -3.1226285, 39.5976262 ], [ -3.1231544, 39.5977502 ], [ -3.1237877, 39.5979072 ], [ -3.1255481, 39.5983203 ], [ -3.1263423, 39.5985103 ], [ -3.1274533, 39.5987716 ], [ -3.1285804, 39.599038 ], [ -3.1294176, 39.5992426 ], [ -3.1303193, 39.5994657 ], [ -3.1312613, 39.5997074 ], [ -3.1329278, 39.600135 ], [ -3.1341435, 39.6004449 ], [ -3.1359146, 39.6008537 ], [ -3.1369049, 39.6010642 ], [ -3.1375408, 39.6011817 ], [ -3.138346, 39.6013862 ], [ -3.1391349, 39.601572 ], [ -3.1411799, 39.6020551 ], [ -3.1421541, 39.6022967 ], [ -3.1432572, 39.6025506 ], [ -3.1434181, 39.6025815 ], [ -3.1440621, 39.6026865 ], [ -3.1449235, 39.6028162 ], [ -3.1465495, 39.6030694 ], [ -3.1489726, 39.6034087 ], [ -3.1496488, 39.6035199 ], [ -3.1500513, 39.6035692 ], [ -3.1520959, 39.6038466 ], [ -3.1544465, 39.6041486 ], [ -3.1552514, 39.6042471 ], [ -3.1569097, 39.6044877 ], [ -3.1571029, 39.6045123 ], [ -3.1573204, 39.6045867 ], [ -3.1580046, 39.6046667 ], [ -3.1600736, 39.6049938 ], [ -3.1607176, 39.6050863 ], [ -3.1634502, 39.605511 ], [ -3.1634858, 39.6054436 ], [ -3.1634858, 39.6054436 ], [ -3.1640321, 39.6044105 ], [ -3.1651338, 39.6023366 ], [ -3.167106, 39.599054 ], [ -3.1693826, 39.5964557 ], [ -3.1710073, 39.5940566 ], [ -3.1729466, 39.5917921 ], [ -3.1735268, 39.5909172 ], [ -3.1741755, 39.5895467 ], [ -3.174337, 39.5889247 ], [ -3.1744396, 39.5880325 ], [ -3.1744036, 39.5876001 ], [ -3.1740662, 39.5877087 ], [ -3.1738453, 39.5878712 ], [ -3.1733011, 39.5891515 ], [ -3.172872, 39.589855 ], [ -3.1715473, 39.5910463 ], [ -3.1699889, 39.5919406 ], [ -3.169118, 39.5929871 ], [ -3.1683972, 39.5935378 ], [ -3.1662563, 39.5943878 ], [ -3.1659074, 39.5945956 ], [ -3.165431, 39.5950648 ], [ -3.1643393, 39.5963818 ], [ -3.1640835, 39.5965624 ], [ -3.163129, 39.596789 ], [ -3.1623598, 39.5965738 ], [ -3.1614971, 39.5962236 ], [ -3.1580595, 39.5954354 ], [ -3.1558683, 39.5947446 ], [ -3.1544461, 39.5941428 ], [ -3.153548, 39.5935403 ], [ -3.1534194, 39.5933152 ], [ -3.172763, 39.5834577 ], [ -3.1758222, 39.5821196 ], [ -3.1851233, 39.5766539 ], [ -3.1852953, 39.5756445 ], [ -3.1855153, 39.5752026 ], [ -3.1875418, 39.5710636 ], [ -3.192161, 39.565776 ], [ -3.1990373, 39.560295 ], [ -3.2091529, 39.5524112 ], [ -3.2101055, 39.5517788 ], [ -3.2103952, 39.5513547 ], [ -3.2108112, 39.5503719 ], [ -3.2112492, 39.5489384 ], [ -3.2113969, 39.5477578 ], [ -3.2113969, 39.5477577 ], [ -3.2092518, 39.5426707 ], [ -3.2072021, 39.5382773 ], [ -3.206905, 39.537763 ], [ -3.2065366, 39.5378644 ], [ -3.2061891, 39.5379961 ], [ -3.2053951, 39.5381191 ], [ -3.2048038, 39.5380868 ], [ -3.2042465, 39.5379781 ], [ -3.2035767, 39.5375263 ], [ -3.2029749, 39.5370291 ], [ -3.2020798, 39.5362892 ], [ -3.2016054, 39.5361732 ], [ -3.2011033, 39.5361097 ], [ -3.2000104, 39.5361521 ], [ -3.1983269, 39.5363624 ], [ -3.1966818, 39.5360362 ], [ -3.1956745, 39.5358424 ], [ -3.1948, 39.535832 ], [ -3.1943474, 39.5358041 ], [ -3.1939378, 39.5357953 ], [ -3.193304, 39.5358416 ], [ -3.1928546, 39.535983 ], [ -3.1927473, 39.5361334 ], [ -3.1927292, 39.5362813 ], [ -3.1927667, 39.5364743 ], [ -3.1928872, 39.5366481 ], [ -3.1931841, 39.5370052 ], [ -3.1934246, 39.537248 ], [ -3.1936071, 39.537529 ], [ -3.1937341, 39.5378078 ], [ -3.1937657, 39.5380914 ], [ -3.1937384, 39.5382679 ], [ -3.1936988, 39.5384253 ], [ -3.1936162, 39.5385875 ], [ -3.1935087, 39.5387021 ], [ -3.1918621, 39.5400733 ], [ -3.1914446, 39.5405341 ], [ -3.1910365, 39.5410188 ], [ -3.1907832, 39.541875 ], [ -3.1904975, 39.5420996 ], [ -3.1901656, 39.5423409 ], [ -3.1895079, 39.5427831 ], [ -3.1888565, 39.5433253 ], [ -3.1886106, 39.5434854 ], [ -3.1883616, 39.5436169 ], [ -3.1881002, 39.5437556 ], [ -3.1878574, 39.5439086 ], [ -3.187587, 39.5441308 ], [ -3.1873936, 39.5443456 ], [ -3.1869485, 39.5448899 ], [ -3.1867214, 39.5451454 ], [ -3.186451, 39.5453699 ], [ -3.1851016, 39.5462899 ], [ -3.184404, 39.5468155 ], [ -3.1837864, 39.5473338 ], [ -3.1835039, 39.5476275 ], [ -3.1831719, 39.5478593 ], [ -3.1824001, 39.5482968 ], [ -3.1817544, 39.5486578 ], [ -3.1815085, 39.5488417 ], [ -3.1812966, 39.5490566 ], [ -3.181057, 39.5493026 ], [ -3.180805, 39.5495056 ], [ -3.1805068, 39.549692 ], [ -3.18015, 39.5498499 ], [ -3.1791198, 39.5504046 ], [ -3.1786153, 39.5506319 ], [ -3.1783846, 39.5507466 ], [ -3.1781756, 39.5508805 ], [ -3.1780835, 39.5510165 ], [ -3.1775406, 39.551847 ], [ -3.1768408, 39.5527993 ], [ -3.1765711, 39.5533099 ], [ -3.1761843, 39.5537825 ], [ -3.1757944, 39.5542599 ], [ -3.1755763, 39.5544962 ], [ -3.1753212, 39.5546969 ], [ -3.1746445, 39.5550388 ], [ -3.1739247, 39.5553593 ], [ -3.1731556, 39.5556919 ], [ -3.1727495, 39.5558689 ], [ -3.1724234, 39.5560386 ], [ -3.1712219, 39.5571371 ], [ -3.1700577, 39.5582688 ], [ -3.1685236, 39.5595084 ], [ -3.1679794, 39.5598954 ], [ -3.1667953, 39.5606099 ], [ -3.1655834, 39.5612935 ], [ -3.1652571, 39.5613678 ], [ -3.164863, 39.5614184 ], [ -3.1643366, 39.5615551 ], [ -3.1637304, 39.5617777 ], [ -3.1631676, 39.5620168 ], [ -3.1608223, 39.562876 ], [ -3.1595235, 39.5633284 ], [ -3.1582741, 39.5637926 ], [ -3.1568368, 39.5643095 ], [ -3.1554457, 39.5648167 ], [ -3.1551534, 39.5649483 ], [ -3.1548799, 39.565094 ], [ -3.1545012, 39.5652996 ], [ -3.154206, 39.5655217 ], [ -3.1538368, 39.5657296 ], [ -3.1534645, 39.565897 ], [ -3.1531321, 39.5660476 ], [ -3.1526524, 39.5664011 ], [ -3.1522498, 39.5667997 ], [ -3.1514351, 39.567547 ], [ -3.1510353, 39.5678169 ], [ -3.1506467, 39.5680181 ], [ -3.148876, 39.568822 ], [ -3.1483645, 39.5691864 ], [ -3.1459738, 39.5709849 ], [ -3.1455475, 39.5714119 ], [ -3.1451418, 39.5718319 ], [ -3.1446406, 39.5722832 ], [ -3.1441173, 39.5726836 ], [ -3.1438813, 39.5730255 ], [ -3.1436817, 39.5733715 ], [ -3.1430641, 39.5741065 ], [ -3.1427352, 39.5744836 ], [ -3.1421826, 39.5754212 ], [ -3.1416475, 39.5759862 ], [ -3.1414509, 39.5761492 ], [ -3.1411955, 39.5763188 ], [ -3.140223, 39.5767729 ], [ -3.139198, 39.577208 ], [ -3.1390965, 39.5772916 ], [ -3.1390381, 39.5773942 ], [ -3.1386697, 39.5780335 ], [ -3.1385553, 39.5781943 ], [ -3.138427, 39.5783414 ], [ -3.1381804, 39.5786266 ], [ -3.1379291, 39.5789475 ], [ -3.1376055, 39.5793245 ], [ -3.1371851, 39.5797518 ], [ -3.1369684, 39.5799433 ], [ -3.1366807, 39.5801949 ], [ -3.1363795, 39.5805657 ], [ -3.1361245, 39.5809093 ], [ -3.1357588, 39.5813746 ], [ -3.1353068, 39.581871 ], [ -3.134704, 39.5824177 ], [ -3.134461, 39.5826206 ], [ -3.1338025, 39.5830242 ], [ -3.1333901, 39.5832774 ], [ -3.1330146, 39.5834638 ], [ -3.1326976, 39.5836597 ], [ -3.1321068, 39.5840465 ], [ -3.1319098, 39.584154 ], [ -3.131722, 39.5842282 ], [ -3.1315373, 39.584288 ], [ -3.131371, 39.5843573 ], [ -3.1311186, 39.5844815 ], [ -3.1306356, 39.5848516 ], [ -3.1302694, 39.5850976 ], [ -3.1300356, 39.5852719 ], [ -3.129688, 39.5855965 ], [ -3.1293282, 39.5859616 ], [ -3.1290023, 39.5863196 ], [ -3.1287164, 39.5866537 ], [ -3.1285011, 39.5868995 ], [ -3.1283012, 39.5870976 ], [ -3.1279935, 39.5872863 ], [ -3.127661, 39.5874487 ], [ -3.1273193, 39.5876327 ], [ -3.12703, 39.5877975 ], [ -3.1266606, 39.5880172 ], [ -3.126233, 39.5882709 ], [ -3.1258706, 39.5884926 ], [ -3.1255804, 39.5886978 ], [ -3.1251896, 39.5889772 ], [ -3.1247987, 39.5892208 ], [ -3.1240999, 39.5895696 ], [ -3.1231749, 39.5904922 ], [ -3.1228941, 39.5907462 ], [ -3.1226388, 39.5910206 ], [ -3.1225346, 39.5913521 ], [ -3.1224703, 39.5915477 ], [ -3.1224609, 39.5918052 ], [ -3.1224124, 39.591922 ], [ -3.1223263, 39.5920509 ], [ -3.1221878, 39.5921535 ], [ -3.1218353, 39.5923744 ], [ -3.1215615, 39.5929736 ], [ -3.1213103, 39.593392 ], [ -3.1210955, 39.5936545 ], [ -3.1207984, 39.5940233 ], [ -3.1203917, 39.5945659 ], [ -3.1202545, 39.5947149 ], [ -3.1201315, 39.595073 ], [ -3.1200311, 39.5953176 ], [ -3.1199935, 39.5954839 ], [ -3.1199162, 39.5959632 ], [ -3.1198436, 39.5963507 ], [ -3.119792, 39.5966117 ], [ -3.1197345, 39.596847 ], [ -3.1196616, 39.5970786 ], [ -3.1195903, 39.5974153 ], [ -3.1195476, 39.5975635 ], [ -3.1195287, 39.5976037 ], [ -3.1194733, 39.5976086 ], [ -3.1193129, 39.5975348 ], [ -3.1190169, 39.5974159 ], [ -3.1189848, 39.5976185 ], [ -3.1189621, 39.5978022 ], [ -3.1189562, 39.5979715 ], [ -3.1189756, 39.5983201 ] ] ] } }
]
}
