{
"type": "FeatureCollection",
"name": "46005",
"features": [
{ "type": "Feature", "properties": { "CCAA": "10 - Comunitat Valenciana", "PROVINCIA": "46 - Valencia/Valéncia", "MUNICIPIO": "46005 - Alaquàs", "COD_MUNICIPIO": "46005", "DISTRITO": "01", "SECCION": "4600501007", "V1_H": 79.86, "V1_M": 85.62, "V2_H": 79.74592797, "V2_M": 85.80311169, "V3_H": 80.14073418, "V3_M": 85.57864485 }, "geometry": { "type": "Polygon", "coordinates": [ [ [ -0.4540456, 39.4581506 ], [ -0.4540357, 39.4587941 ], [ -0.4550219, 39.4587742 ], [ -0.4569678, 39.4587347 ], [ -0.4568888, 39.4586365 ], [ -0.456815, 39.4584807 ], [ -0.4566887, 39.4582624 ], [ -0.4565728, 39.4581027 ], [ -0.4565721, 39.4580986 ], [ -0.455687, 39.4581145 ], [ -0.4545574, 39.4581348 ], [ -0.4540457, 39.458144 ], [ -0.4540456, 39.4581506 ] ] ] } },
{ "type": "Feature", "properties": { "CCAA": "10 - Comunitat Valenciana", "PROVINCIA": "46 - Valencia/Valéncia", "MUNICIPIO": "46005 - Alaquàs", "COD_MUNICIPIO": "46005", "DISTRITO": "01", "SECCION": "4600501008", "V1_H": 79.27, "V1_M": 85.17, "V2_H": 79.19654882, "V2_M": 85.28496149, "V3_H": 79.61871206, "V3_M": 85.37047204 }, "geometry": { "type": "Polygon", "coordinates": [ [ [ -0.4550543, 39.4596955 ], [ -0.4551219, 39.4597071 ], [ -0.4566335, 39.4596861 ], [ -0.4573349, 39.4596793 ], [ -0.4574901, 39.4595279 ], [ -0.457351, 39.4593133 ], [ -0.4572856, 39.459187 ], [ -0.4572661, 39.4591544 ], [ -0.4571587, 39.4591874 ], [ -0.4571191, 39.4591299 ], [ -0.4571181, 39.4591293 ], [ -0.4570974, 39.4590806 ], [ -0.4571074, 39.4589977 ], [ -0.4571179, 39.4588988 ], [ -0.4569997, 39.4587742 ], [ -0.4569678, 39.4587347 ], [ -0.4550219, 39.4587742 ], [ -0.4550543, 39.4596955 ] ] ] } },
{ "type": "Feature", "properties": { "CCAA": "10 - Comunitat Valenciana", "PROVINCIA": "46 - Valencia/Valéncia", "MUNICIPIO": "46005 - Alaquàs", "COD_MUNICIPIO": "46005", "DISTRITO": "02", "SECCION": "4600502001", "V1_H": 79.94, "V1_M": 85.93, "V2_H": 80.18978947, "V2_M": 86.02067046000001, "V3_H": 79.89390484, "V3_M": 85.97042077 }, "geometry": { "type": "Polygon", "coordinates": [ [ [ -0.462915, 39.4559419 ], [ -0.4629073, 39.4559417 ], [ -0.4629621, 39.4563361 ], [ -0.4630769, 39.4575383 ], [ -0.4658031, 39.4574451 ], [ -0.4662148, 39.4573507 ], [ -0.4669515, 39.4571818 ], [ -0.4679155, 39.4568785 ], [ -0.4683707, 39.456794 ], [ -0.4702297, 39.4564488 ], [ -0.4704778, 39.4564028 ], [ -0.4729775, 39.4557274 ], [ -0.4736591, 39.455517 ], [ -0.4752086, 39.4547669 ], [ -0.4763504, 39.454044 ], [ -0.4769668, 39.453706 ], [ -0.4788278, 39.4530167 ], [ -0.483206, 39.4518053 ], [ -0.4882685, 39.4503022 ], [ -0.4916529, 39.4489248 ], [ -0.4928634, 39.4485455 ], [ -0.4941751, 39.4479342 ], [ -0.4972007, 39.4468372 ], [ -0.4985808, 39.4465876 ], [ -0.5026503, 39.4458643 ], [ -0.5053335, 39.4452372 ], [ -0.5078454, 39.4445253 ], [ -0.5070027, 39.4440515 ], [ -0.5049637, 39.442905 ], [ -0.4976777, 39.4442259 ], [ -0.4973501, 39.4442909 ], [ -0.4970008, 39.4443104 ], [ -0.49633, 39.4442239 ], [ -0.4952931, 39.4443006 ], [ -0.4952404, 39.4442998 ], [ -0.495102, 39.4442978 ], [ -0.4939692, 39.4442811 ], [ -0.4896528, 39.4444402 ], [ -0.4866186, 39.4448071 ], [ -0.486446, 39.4448345 ], [ -0.4724897, 39.4470503 ], [ -0.4690673, 39.4474989 ], [ -0.4686717, 39.4475507 ], [ -0.4664771, 39.4478383 ], [ -0.4641429, 39.4481882 ], [ -0.4641497, 39.4482413 ], [ -0.4643229, 39.4495888 ], [ -0.4644095, 39.451305 ], [ -0.4641101, 39.4522934 ], [ -0.4635344, 39.4540918 ], [ -0.4642111, 39.4541416 ], [ -0.4659085, 39.4542666 ], [ -0.4663639, 39.4550253 ], [ -0.4663402, 39.4563149 ], [ -0.4660491, 39.4563945 ], [ -0.4653976, 39.456559 ], [ -0.465095, 39.4566417 ], [ -0.4651415, 39.4559551 ], [ -0.4651427, 39.4559366 ], [ -0.4642078, 39.4559425 ], [ -0.4632248, 39.4559487 ], [ -0.462915, 39.4559419 ] ] ] } },
{ "type": "Feature", "properties": { "CCAA": "10 - Comunitat Valenciana", "PROVINCIA": "46 - Valencia/Valéncia", "MUNICIPIO": "46005 - Alaquàs", "COD_MUNICIPIO": "46005", "DISTRITO": "01", "SECCION": "4600501001", "V1_H": 80.3, "V1_M": 86.18, "V2_H": 80.25682951, "V2_M": 86.26310791, "V3_H": 80.49886239, "V3_M": 86.29802272000001 }, "geometry": { "type": "Polygon", "coordinates": [ [ [ -0.4608517, 39.459645 ], [ -0.4611908, 39.4596417 ], [ -0.4625881, 39.4598884 ], [ -0.4628556, 39.4599387 ], [ -0.4631306, 39.4599903 ], [ -0.4631352, 39.4599664 ], [ -0.463303, 39.4590842 ], [ -0.463286, 39.458273 ], [ -0.463281, 39.4582556 ], [ -0.4632757, 39.4582368 ], [ -0.4630698, 39.4575424 ], [ -0.4627147, 39.4575046 ], [ -0.4624704, 39.4574884 ], [ -0.4623025, 39.4574847 ], [ -0.4621493, 39.4574651 ], [ -0.461668, 39.4572267 ], [ -0.4615537, 39.4570995 ], [ -0.4613251, 39.4571246 ], [ -0.4612656, 39.4571312 ], [ -0.4612885, 39.4572727 ], [ -0.4613207, 39.4573494 ], [ -0.4612548, 39.4578145 ], [ -0.4613085, 39.4578753 ], [ -0.4613627, 39.4579253 ], [ -0.4614309, 39.4579757 ], [ -0.4616525, 39.4580402 ], [ -0.4618044, 39.4580977 ], [ -0.4617513, 39.4582105 ], [ -0.4617378, 39.4582895 ], [ -0.461313, 39.4583311 ], [ -0.4612779, 39.4585257 ], [ -0.461276, 39.4587697 ], [ -0.4610656, 39.4587814 ], [ -0.4607853, 39.4587916 ], [ -0.460789, 39.4588839 ], [ -0.4608517, 39.459645 ] ] ] } },
{ "type": "Feature", "properties": { "CCAA": "10 - Comunitat Valenciana", "PROVINCIA": "46 - Valencia/Valéncia", "MUNICIPIO": "46005 - Alaquàs", "COD_MUNICIPIO": "46005", "DISTRITO": "03", "SECCION": "4600503002", "V1_H": 79.66, "V1_M": 85.68, "V2_H": 79.65353369, "V2_M": 85.83118741, "V3_H": 79.80284041, "V3_M": 85.7603318 }, "geometry": { "type": "Polygon", "coordinates": [ [ [ -0.4505004, 39.4567727 ], [ -0.4497797, 39.4574725 ], [ -0.4490055, 39.4582139 ], [ -0.4492074, 39.4585005 ], [ -0.4498761, 39.4582706 ], [ -0.451985, 39.457438 ], [ -0.4525813, 39.4572064 ], [ -0.4529498, 39.457062 ], [ -0.4526484, 39.4566081 ], [ -0.4509076, 39.4572732 ], [ -0.4506952, 39.4569996 ], [ -0.4505677, 39.4568383 ], [ -0.4505004, 39.4567727 ] ] ] } },
{ "type": "Feature", "properties": { "CCAA": "10 - Comunitat Valenciana", "PROVINCIA": "46 - Valencia/Valéncia", "MUNICIPIO": "46005 - Alaquàs", "COD_MUNICIPIO": "46005", "DISTRITO": "03", "SECCION": "4600503003", "V1_H": 79.66, "V1_M": 85.68, "V2_H": 79.65353369, "V2_M": 85.83118741, "V3_H": 79.80284041, "V3_M": 85.7603318 }, "geometry": { "type": "Polygon", "coordinates": [ [ [ -0.4505004, 39.4567727 ], [ -0.4505677, 39.4568383 ], [ -0.4506952, 39.4569996 ], [ -0.4509076, 39.4572732 ], [ -0.4526484, 39.4566081 ], [ -0.4529498, 39.457062 ], [ -0.4542343, 39.4565582 ], [ -0.4540476, 39.4562411 ], [ -0.4538607, 39.4559239 ], [ -0.4530237, 39.455841 ], [ -0.4522618, 39.4557655 ], [ -0.4521437, 39.4557321 ], [ -0.4521291, 39.455733 ], [ -0.4505004, 39.4567727 ] ] ] } },
{ "type": "Feature", "properties": { "CCAA": "10 - Comunitat Valenciana", "PROVINCIA": "46 - Valencia/Valéncia", "MUNICIPIO": "46005 - Alaquàs", "COD_MUNICIPIO": "46005", "DISTRITO": "02", "SECCION": "4600502003", "V1_H": 80.02, "V1_M": 86.02, "V2_H": 79.96138623, "V2_M": 86.18252023, "V3_H": 80.18726569, "V3_M": 86.15258899 }, "geometry": { "type": "Polygon", "coordinates": [ [ [ -0.4642078, 39.4559425 ], [ -0.4651427, 39.4559366 ], [ -0.4651415, 39.4559551 ], [ -0.465095, 39.4566417 ], [ -0.4653976, 39.456559 ], [ -0.4660491, 39.4563945 ], [ -0.4663402, 39.4563149 ], [ -0.4663639, 39.4550253 ], [ -0.4659085, 39.4542666 ], [ -0.4642111, 39.4541416 ], [ -0.4642078, 39.4559425 ] ] ] } },
{ "type": "Feature", "properties": { "CCAA": "10 - Comunitat Valenciana", "PROVINCIA": "46 - Valencia/Valéncia", "MUNICIPIO": "46005 - Alaquàs", "COD_MUNICIPIO": "46005", "DISTRITO": "02", "SECCION": "4600502005", "V1_H": 80.38, "V1_M": 86.41, "V2_H": 80.21151379, "V2_M": 86.36716419, "V3_H": 80.6951312, "V3_M": 86.59024448 }, "geometry": { "type": "Polygon", "coordinates": [ [ [ -0.4585543, 39.4555278 ], [ -0.4591629, 39.4557778 ], [ -0.459565, 39.4559716 ], [ -0.4597406, 39.4560562 ], [ -0.4598923, 39.4561501 ], [ -0.4615288, 39.4546818 ], [ -0.4582893, 39.4537875 ], [ -0.4582884, 39.4537872 ], [ -0.4580311, 39.4543697 ], [ -0.4578467, 39.4547987 ], [ -0.4577036, 39.4551314 ], [ -0.4585562, 39.4555258 ], [ -0.4585543, 39.4555278 ] ] ] } },
{ "type": "Feature", "properties": { "CCAA": "10 - Comunitat Valenciana", "PROVINCIA": "46 - Valencia/Valéncia", "MUNICIPIO": "46005 - Alaquàs", "COD_MUNICIPIO": "46005", "DISTRITO": "03", "SECCION": "4600503005", "V1_H": 80.0, "V1_M": 86.03, "V2_H": 79.84963877, "V2_M": 86.04281727, "V3_H": 80.29290896000001, "V3_M": 86.20578322 }, "geometry": { "type": "Polygon", "coordinates": [ [ [ -0.4469249, 39.4525092 ], [ -0.4469244, 39.4525094 ], [ -0.4466044, 39.4529978 ], [ -0.446574, 39.453202 ], [ -0.4465737, 39.4532035 ], [ -0.4465736, 39.4532044 ], [ -0.4466805, 39.453459 ], [ -0.4470668, 39.4537017 ], [ -0.4477238, 39.4538422 ], [ -0.447724, 39.4538423 ], [ -0.4480024, 39.4541727 ], [ -0.448076, 39.4546289 ], [ -0.4481161, 39.4548779 ], [ -0.4484975, 39.4555709 ], [ -0.4466365, 39.4562508 ], [ -0.4472063, 39.4578308 ], [ -0.4474409, 39.4593357 ], [ -0.4474417, 39.4593404 ], [ -0.4474898, 39.4593594 ], [ -0.4480947, 39.459598 ], [ -0.448804, 39.4598972 ], [ -0.4488157, 39.4599021 ], [ -0.448816, 39.4599021 ], [ -0.4497104, 39.4597623 ], [ -0.4493865, 39.4590347 ], [ -0.4493579, 39.4590458 ], [ -0.4490752, 39.458546 ], [ -0.4492074, 39.4585005 ], [ -0.4490055, 39.4582139 ], [ -0.4497797, 39.4574725 ], [ -0.4505004, 39.4567727 ], [ -0.4521291, 39.455733 ], [ -0.4511591, 39.4557991 ], [ -0.4503171, 39.4540622 ], [ -0.4516362, 39.4538491 ], [ -0.4525297, 39.4553293 ], [ -0.4526719, 39.4552069 ], [ -0.4528142, 39.4550845 ], [ -0.4530774, 39.4548581 ], [ -0.4539539, 39.4540959 ], [ -0.4542298, 39.4538038 ], [ -0.4543805, 39.4536735 ], [ -0.454477, 39.4535728 ], [ -0.454538, 39.4535741 ], [ -0.4545564, 39.4535745 ], [ -0.4559993, 39.4536473 ], [ -0.4558475, 39.4545384 ], [ -0.4578467, 39.4547987 ], [ -0.4580311, 39.4543697 ], [ -0.4582884, 39.4537872 ], [ -0.4582893, 39.4537875 ], [ -0.458674, 39.4530167 ], [ -0.4590507, 39.4521938 ], [ -0.4594133, 39.4514161 ], [ -0.4606443, 39.4487764 ], [ -0.4606764, 39.4487076 ], [ -0.4606235, 39.4487196 ], [ -0.4601691, 39.4487547 ], [ -0.458483, 39.4491052 ], [ -0.4584739, 39.449108 ], [ -0.4571201, 39.4495168 ], [ -0.4569575, 39.4495133 ], [ -0.4569045, 39.449387 ], [ -0.4569041, 39.4493861 ], [ -0.4569041, 39.449386 ], [ -0.4569039, 39.449386 ], [ -0.4546473, 39.4500933 ], [ -0.4491112, 39.4518253 ], [ -0.4491111, 39.4518253 ], [ -0.4469249, 39.4525092 ] ] ] } },
{ "type": "Feature", "properties": { "CCAA": "10 - Comunitat Valenciana", "PROVINCIA": "46 - Valencia/Valéncia", "MUNICIPIO": "46005 - Alaquàs", "COD_MUNICIPIO": "46005", "DISTRITO": "01", "SECCION": "4600501003", "V1_H": 79.66, "V1_M": 85.68, "V2_H": 79.65353369, "V2_M": 85.83118741, "V3_H": 79.80284041, "V3_M": 85.7603318 }, "geometry": { "type": "Polygon", "coordinates": [ [ [ -0.4536381, 39.4581547 ], [ -0.4536411, 39.4581594 ], [ -0.4540456, 39.4581506 ], [ -0.4540457, 39.458144 ], [ -0.4545574, 39.4581348 ], [ -0.455687, 39.4581145 ], [ -0.4565721, 39.4580986 ], [ -0.4564977, 39.457667 ], [ -0.4564612, 39.4573244 ], [ -0.4564707, 39.4570643 ], [ -0.4564773, 39.4566901 ], [ -0.4564982, 39.4565007 ], [ -0.4554384, 39.4561514 ], [ -0.45539, 39.4561696 ], [ -0.4548461, 39.4563735 ], [ -0.4543022, 39.4565774 ], [ -0.4542791, 39.4565407 ], [ -0.4542343, 39.4565582 ], [ -0.4529498, 39.457062 ], [ -0.4536381, 39.4581547 ] ] ] } },
{ "type": "Feature", "properties": { "CCAA": "10 - Comunitat Valenciana", "PROVINCIA": "46 - Valencia/Valéncia", "MUNICIPIO": "46005 - Alaquàs", "COD_MUNICIPIO": "46005", "DISTRITO": "01", "SECCION": "4600501005", "V1_H": 79.73, "V1_M": 85.7, "V2_H": 79.65450701, "V2_M": 85.67937417, "V3_H": 79.92768478000001, "V3_M": 85.93517811 }, "geometry": { "type": "Polygon", "coordinates": [ [ [ -0.4585543, 39.4555278 ], [ -0.4577033, 39.4564619 ], [ -0.4587381, 39.4570651 ], [ -0.458807, 39.4570937 ], [ -0.4587909, 39.457153 ], [ -0.4587564, 39.4573313 ], [ -0.4587514, 39.4576621 ], [ -0.4587572, 39.4578973 ], [ -0.4589074, 39.4578934 ], [ -0.4590826, 39.4578863 ], [ -0.4593381, 39.4577889 ], [ -0.4600794, 39.4574199 ], [ -0.4608424, 39.4570297 ], [ -0.461056, 39.4569669 ], [ -0.4606563, 39.4566621 ], [ -0.4602676, 39.4563824 ], [ -0.4598923, 39.4561501 ], [ -0.4597406, 39.4560562 ], [ -0.459565, 39.4559716 ], [ -0.4591629, 39.4557778 ], [ -0.4585543, 39.4555278 ] ] ] } },
{ "type": "Feature", "properties": { "CCAA": "10 - Comunitat Valenciana", "PROVINCIA": "46 - Valencia/Valéncia", "MUNICIPIO": "46005 - Alaquàs", "COD_MUNICIPIO": "46005", "DISTRITO": "01", "SECCION": "4600501006", "V1_H": 79.66, "V1_M": 85.68, "V2_H": 79.65353369, "V2_M": 85.83118741, "V3_H": 79.80284041, "V3_M": 85.7603318 }, "geometry": { "type": "Polygon", "coordinates": [ [ [ -0.4492074, 39.4585005 ], [ -0.4490752, 39.458546 ], [ -0.4493579, 39.4590458 ], [ -0.4493865, 39.4590347 ], [ -0.4504937, 39.4586042 ], [ -0.4514814, 39.4581973 ], [ -0.4516438, 39.4581574 ], [ -0.4526584, 39.4581634 ], [ -0.4536381, 39.4581547 ], [ -0.4529498, 39.457062 ], [ -0.4525813, 39.4572064 ], [ -0.451985, 39.457438 ], [ -0.4498761, 39.4582706 ], [ -0.4492074, 39.4585005 ] ] ] } },
{ "type": "Feature", "properties": { "CCAA": "10 - Comunitat Valenciana", "PROVINCIA": "46 - Valencia/Valéncia", "MUNICIPIO": "46005 - Alaquàs", "COD_MUNICIPIO": "46005", "DISTRITO": "02", "SECCION": "4600502004", "V1_H": 80.27, "V1_M": 86.36, "V2_H": 80.04050342, "V2_M": 86.25745667, "V3_H": 80.55487256000001, "V3_M": 86.64917866 }, "geometry": { "type": "Polygon", "coordinates": [ [ [ -0.4615288, 39.4546818 ], [ -0.4631758, 39.4551364 ], [ -0.4632075, 39.4550382 ], [ -0.4635143, 39.4540903 ], [ -0.4635344, 39.4540918 ], [ -0.4641101, 39.4522934 ], [ -0.462927, 39.4523742 ], [ -0.4594133, 39.4514161 ], [ -0.4590507, 39.4521938 ], [ -0.458674, 39.4530167 ], [ -0.4582893, 39.4537875 ], [ -0.4615288, 39.4546818 ] ] ] } },
{ "type": "Feature", "properties": { "CCAA": "10 - Comunitat Valenciana", "PROVINCIA": "46 - Valencia/Valéncia", "MUNICIPIO": "46005 - Alaquàs", "COD_MUNICIPIO": "46005", "DISTRITO": "03", "SECCION": "4600503004", "V1_H": 79.92, "V1_M": 85.8, "V2_H": 79.90391364, "V2_M": 85.68196434, "V3_H": 80.09820982, "V3_M": 86.14356104 }, "geometry": { "type": "Polygon", "coordinates": [ [ [ -0.4542343, 39.4565582 ], [ -0.4542791, 39.4565407 ], [ -0.4543022, 39.4565774 ], [ -0.4548461, 39.4563735 ], [ -0.45539, 39.4561696 ], [ -0.4550477, 39.4550143 ], [ -0.4548294, 39.4544544 ], [ -0.4558475, 39.4545384 ], [ -0.4559993, 39.4536473 ], [ -0.4545564, 39.4535745 ], [ -0.454538, 39.4535741 ], [ -0.454477, 39.4535728 ], [ -0.4543805, 39.4536735 ], [ -0.4542298, 39.4538038 ], [ -0.4539539, 39.4540959 ], [ -0.4530774, 39.4548581 ], [ -0.4528142, 39.4550845 ], [ -0.4526719, 39.4552069 ], [ -0.4525297, 39.4553293 ], [ -0.4516362, 39.4538491 ], [ -0.4503171, 39.4540622 ], [ -0.4511591, 39.4557991 ], [ -0.4521291, 39.455733 ], [ -0.4521437, 39.4557321 ], [ -0.4522618, 39.4557655 ], [ -0.4530237, 39.455841 ], [ -0.4538607, 39.4559239 ], [ -0.4540476, 39.4562411 ], [ -0.4542343, 39.4565582 ] ] ] } },
{ "type": "Feature", "properties": { "CCAA": "10 - Comunitat Valenciana", "PROVINCIA": "46 - Valencia/Valéncia", "MUNICIPIO": "46005 - Alaquàs", "COD_MUNICIPIO": "46005", "DISTRITO": "01", "SECCION": "4600501010", "V1_H": 79.92, "V1_M": 85.8, "V2_H": 79.90391364, "V2_M": 85.68196434, "V3_H": 80.09820982, "V3_M": 86.14356104 }, "geometry": { "type": "Polygon", "coordinates": [ [ [ -0.4493865, 39.4590347 ], [ -0.4497104, 39.4597623 ], [ -0.452708, 39.4592939 ], [ -0.4550543, 39.4596955 ], [ -0.4550219, 39.4587742 ], [ -0.4540357, 39.4587941 ], [ -0.4540456, 39.4581506 ], [ -0.4536411, 39.4581594 ], [ -0.4536381, 39.4581547 ], [ -0.4526584, 39.4581634 ], [ -0.4516438, 39.4581574 ], [ -0.4514814, 39.4581973 ], [ -0.4504937, 39.4586042 ], [ -0.4493865, 39.4590347 ] ] ] } },
{ "type": "Feature", "properties": { "CCAA": "10 - Comunitat Valenciana", "PROVINCIA": "46 - Valencia/Valéncia", "MUNICIPIO": "46005 - Alaquàs", "COD_MUNICIPIO": "46005", "DISTRITO": "01", "SECCION": "4600501004", "V1_H": 80.31, "V1_M": 86.3, "V2_H": 80.10187432, "V2_M": 86.1135989, "V3_H": 80.75259804, "V3_M": 86.72412179 }, "geometry": { "type": "Polygon", "coordinates": [ [ [ -0.4565721, 39.4580986 ], [ -0.4565728, 39.4581027 ], [ -0.4566887, 39.4582624 ], [ -0.4566696, 39.4582296 ], [ -0.4569797, 39.4581713 ], [ -0.457227, 39.4581062 ], [ -0.4573607, 39.4580874 ], [ -0.4575431, 39.4580751 ], [ -0.4578249, 39.4580216 ], [ -0.457987, 39.4579926 ], [ -0.4581981, 39.4579592 ], [ -0.4584728, 39.457911 ], [ -0.4586832, 39.4578993 ], [ -0.4587572, 39.4578973 ], [ -0.4587514, 39.4576621 ], [ -0.4587564, 39.4573313 ], [ -0.4587909, 39.457153 ], [ -0.458807, 39.4570937 ], [ -0.4587381, 39.4570651 ], [ -0.4577033, 39.4564619 ], [ -0.4585543, 39.4555278 ], [ -0.4585562, 39.4555258 ], [ -0.4577036, 39.4551314 ], [ -0.4576821, 39.4551215 ], [ -0.4575088, 39.4552696 ], [ -0.4573024, 39.4553627 ], [ -0.4570592, 39.4555093 ], [ -0.456739, 39.4556542 ], [ -0.4555822, 39.4560975 ], [ -0.4554384, 39.4561514 ], [ -0.4564982, 39.4565007 ], [ -0.4564773, 39.4566901 ], [ -0.4564707, 39.4570643 ], [ -0.4564612, 39.4573244 ], [ -0.4564977, 39.457667 ], [ -0.4565721, 39.4580986 ] ] ] } },
{ "type": "Feature", "properties": { "CCAA": "10 - Comunitat Valenciana", "PROVINCIA": "46 - Valencia/Valéncia", "MUNICIPIO": "46005 - Alaquàs", "COD_MUNICIPIO": "46005", "DISTRITO": "02", "SECCION": "4600502002", "V1_H": 80.27, "V1_M": 86.36, "V2_H": 80.04050342, "V2_M": 86.25745667, "V3_H": 80.55487256000001, "V3_M": 86.64917866 }, "geometry": { "type": "Polygon", "coordinates": [ [ [ -0.4613251, 39.4571246 ], [ -0.4615537, 39.4570995 ], [ -0.461668, 39.4572267 ], [ -0.4621493, 39.4574651 ], [ -0.4623025, 39.4574847 ], [ -0.4624704, 39.4574884 ], [ -0.4627147, 39.4575046 ], [ -0.4630698, 39.4575424 ], [ -0.4630687, 39.4575386 ], [ -0.4630769, 39.4575383 ], [ -0.4629621, 39.4563361 ], [ -0.4629073, 39.4559417 ], [ -0.462915, 39.4559419 ], [ -0.4631758, 39.4551364 ], [ -0.4615288, 39.4546818 ], [ -0.4598923, 39.4561501 ], [ -0.4602676, 39.4563824 ], [ -0.4606563, 39.4566621 ], [ -0.461056, 39.4569669 ], [ -0.4610829, 39.456959 ], [ -0.4613251, 39.4571246 ] ] ] } },
{ "type": "Feature", "properties": { "CCAA": "10 - Comunitat Valenciana", "PROVINCIA": "46 - Valencia/Valéncia", "MUNICIPIO": "46005 - Alaquàs", "COD_MUNICIPIO": "46005", "DISTRITO": "02", "SECCION": "4600502006", "V1_H": 79.36, "V1_M": 85.46, "V2_H": 79.32780616, "V2_M": 85.51002556, "V3_H": 79.53169609, "V3_M": 85.5666933 }, "geometry": { "type": "Polygon", "coordinates": [ [ [ -0.4631758, 39.4551364 ], [ -0.462915, 39.4559419 ], [ -0.4632248, 39.4559487 ], [ -0.4642078, 39.4559425 ], [ -0.4642111, 39.4541416 ], [ -0.4635344, 39.4540918 ], [ -0.4635143, 39.4540903 ], [ -0.4632075, 39.4550382 ], [ -0.4631758, 39.4551364 ] ] ] } },
{ "type": "Feature", "properties": { "CCAA": "10 - Comunitat Valenciana", "PROVINCIA": "46 - Valencia/Valéncia", "MUNICIPIO": "46005 - Alaquàs", "COD_MUNICIPIO": "46005", "DISTRITO": "01", "SECCION": "4600501002", "V1_H": 80.91, "V1_M": 86.64, "V2_H": 80.44720226, "V2_M": 86.54313262, "V3_H": 81.45534141, "V3_M": 86.89844934 }, "geometry": { "type": "Polygon", "coordinates": [ [ [ -0.4569678, 39.4587347 ], [ -0.4569997, 39.4587742 ], [ -0.4571179, 39.4588988 ], [ -0.4571074, 39.4589977 ], [ -0.4570974, 39.4590806 ], [ -0.4571181, 39.4591293 ], [ -0.4571191, 39.4591299 ], [ -0.4571587, 39.4591874 ], [ -0.4572661, 39.4591544 ], [ -0.4572856, 39.459187 ], [ -0.457351, 39.4593133 ], [ -0.4574901, 39.4595279 ], [ -0.4573349, 39.4596793 ], [ -0.4608517, 39.459645 ], [ -0.460789, 39.4588839 ], [ -0.4607853, 39.4587916 ], [ -0.4610656, 39.4587814 ], [ -0.461276, 39.4587697 ], [ -0.4612779, 39.4585257 ], [ -0.461313, 39.4583311 ], [ -0.4617378, 39.4582895 ], [ -0.4617513, 39.4582105 ], [ -0.4618044, 39.4580977 ], [ -0.4616525, 39.4580402 ], [ -0.4614309, 39.4579757 ], [ -0.4613627, 39.4579253 ], [ -0.4613085, 39.4578753 ], [ -0.4612548, 39.4578145 ], [ -0.4613207, 39.4573494 ], [ -0.4612885, 39.4572727 ], [ -0.4612656, 39.4571312 ], [ -0.4613251, 39.4571246 ], [ -0.4610829, 39.456959 ], [ -0.461056, 39.4569669 ], [ -0.4608424, 39.4570297 ], [ -0.4600794, 39.4574199 ], [ -0.4593381, 39.4577889 ], [ -0.4590826, 39.4578863 ], [ -0.4589074, 39.4578934 ], [ -0.4587572, 39.4578973 ], [ -0.4586832, 39.4578993 ], [ -0.4584728, 39.457911 ], [ -0.4581981, 39.4579592 ], [ -0.457987, 39.4579926 ], [ -0.4578249, 39.4580216 ], [ -0.4575431, 39.4580751 ], [ -0.4573607, 39.4580874 ], [ -0.457227, 39.4581062 ], [ -0.4569797, 39.4581713 ], [ -0.4566696, 39.4582296 ], [ -0.4566887, 39.4582624 ], [ -0.456815, 39.4584807 ], [ -0.4568888, 39.4586365 ], [ -0.4569678, 39.4587347 ] ] ] } },
{ "type": "Feature", "properties": { "CCAA": "10 - Comunitat Valenciana", "PROVINCIA": "46 - Valencia/Valéncia", "MUNICIPIO": "46005 - Alaquàs", "COD_MUNICIPIO": "46005", "DISTRITO": "02", "SECCION": "4600502007", "V1_H": 81.04, "V1_M": 86.55, "V2_H": 80.90626992, "V2_M": 86.32523903000001, "V3_H": 81.22678782, "V3_M": 86.81274177 }, "geometry": { "type": "Polygon", "coordinates": [ [ [ -0.4594133, 39.4514161 ], [ -0.462927, 39.4523742 ], [ -0.4641101, 39.4522934 ], [ -0.4644095, 39.451305 ], [ -0.4643229, 39.4495888 ], [ -0.4641497, 39.4482413 ], [ -0.4641429, 39.4481882 ], [ -0.4634861, 39.4482866 ], [ -0.4618612, 39.4484792 ], [ -0.4618173, 39.4484844 ], [ -0.4614554, 39.4485306 ], [ -0.4606764, 39.4487076 ], [ -0.4606443, 39.4487764 ], [ -0.4594133, 39.4514161 ] ] ] } },
{ "type": "Feature", "properties": { "CCAA": "10 - Comunitat Valenciana", "PROVINCIA": "46 - Valencia/Valéncia", "MUNICIPIO": "46005 - Alaquàs", "COD_MUNICIPIO": "46005", "DISTRITO": "03", "SECCION": "4600503001", "V1_H": 80.02, "V1_M": 86.02, "V2_H": 79.96138623, "V2_M": 86.18252023, "V3_H": 80.18726569, "V3_M": 86.15258899 }, "geometry": { "type": "Polygon", "coordinates": [ [ [ -0.4558475, 39.4545384 ], [ -0.4548294, 39.4544544 ], [ -0.4550477, 39.4550143 ], [ -0.45539, 39.4561696 ], [ -0.4554384, 39.4561514 ], [ -0.4555822, 39.4560975 ], [ -0.456739, 39.4556542 ], [ -0.4570592, 39.4555093 ], [ -0.4573024, 39.4553627 ], [ -0.4575088, 39.4552696 ], [ -0.4576821, 39.4551215 ], [ -0.4577036, 39.4551314 ], [ -0.4578467, 39.4547987 ], [ -0.4558475, 39.4545384 ] ] ] } }
]
}
