{
"type": "FeatureCollection",
"name": "46021",
"features": [
{ "type": "Feature", "properties": { "CCAA": "10 - Comunitat Valenciana", "PROVINCIA": "46 - Valencia/Valéncia", "MUNICIPIO": "46021 - Aldaia", "COD_MUNICIPIO": "46021", "DISTRITO": "01", "SECCION": "4602101005", "V1_H": 80.16, "V1_M": 86.09, "V2_H": 80.12695049, "V2_M": 86.02539962, "V3_H": 80.31827198000001, "V3_M": 86.38244546 }, "geometry": { "type": "Polygon", "coordinates": [ [ [ -0.4603696, 39.4649196 ], [ -0.4606034, 39.4649755 ], [ -0.4610794, 39.4650873 ], [ -0.461257, 39.465129 ], [ -0.4613089, 39.4651412 ], [ -0.4613685, 39.4651553 ], [ -0.4613853, 39.4651592 ], [ -0.4616233, 39.465233 ], [ -0.4616267, 39.4651844 ], [ -0.4616503, 39.4651228 ], [ -0.4616883, 39.465024 ], [ -0.4616885, 39.4650231 ], [ -0.4617711, 39.4650106 ], [ -0.4618687, 39.4650081 ], [ -0.4620907, 39.4650391 ], [ -0.4623471, 39.4650494 ], [ -0.4623433, 39.4650229 ], [ -0.462322, 39.4647266 ], [ -0.4623387, 39.4644089 ], [ -0.4623388, 39.4644052 ], [ -0.4623575, 39.4641518 ], [ -0.4623967, 39.4640363 ], [ -0.4624128, 39.4639553 ], [ -0.4624117, 39.4639546 ], [ -0.4623731, 39.4639466 ], [ -0.4622483, 39.4639288 ], [ -0.4620393, 39.4639169 ], [ -0.4619632, 39.4639116 ], [ -0.461655, 39.4638905 ], [ -0.4616409, 39.4638892 ], [ -0.4614322, 39.4638706 ], [ -0.4610432, 39.4638409 ], [ -0.4608829, 39.4638246 ], [ -0.4608825, 39.4638245 ], [ -0.4605097, 39.4637878 ], [ -0.4602287, 39.4637641 ], [ -0.4601584, 39.4637535 ], [ -0.4599877, 39.463728 ], [ -0.4598133, 39.4637287 ], [ -0.4595666, 39.4636493 ], [ -0.4592237, 39.4635405 ], [ -0.4592055, 39.4635345 ], [ -0.4589669, 39.4634578 ], [ -0.4586484, 39.4633421 ], [ -0.4580867, 39.4631482 ], [ -0.457419, 39.462918 ], [ -0.457065, 39.4628859 ], [ -0.4570534, 39.462948 ], [ -0.4570049, 39.4632088 ], [ -0.4569651, 39.463414 ], [ -0.4568988, 39.4637344 ], [ -0.4568199, 39.4641159 ], [ -0.4568071, 39.4641782 ], [ -0.4567782, 39.4643177 ], [ -0.4568671, 39.464298 ], [ -0.456986, 39.4643117 ], [ -0.4571602, 39.4643314 ], [ -0.4578503, 39.4644094 ], [ -0.4579175, 39.4644171 ], [ -0.4585098, 39.4644799 ], [ -0.4586821, 39.4645084 ], [ -0.4587441, 39.4645188 ], [ -0.4587821, 39.4645269 ], [ -0.4588091, 39.4645328 ], [ -0.4589169, 39.4645562 ], [ -0.4592918, 39.4646538 ], [ -0.4595386, 39.464718 ], [ -0.4596929, 39.4647493 ], [ -0.4597914, 39.4647592 ], [ -0.4598365, 39.4647638 ], [ -0.4600544, 39.4648233 ], [ -0.4602226, 39.4648757 ], [ -0.4603696, 39.4649196 ] ] ] } },
{ "type": "Feature", "properties": { "CCAA": "10 - Comunitat Valenciana", "PROVINCIA": "46 - Valencia/Valéncia", "MUNICIPIO": "46021 - Aldaia", "COD_MUNICIPIO": "46021", "DISTRITO": "01", "SECCION": "4602101007", "V1_H": 80.01, "V1_M": 85.88, "V2_H": 79.90171161000001, "V2_M": 85.93881404, "V3_H": 80.29104055000001, "V3_M": 85.88520273 }, "geometry": { "type": "Polygon", "coordinates": [ [ [ -0.4677134, 39.4654505 ], [ -0.4677599, 39.4654715 ], [ -0.4679813, 39.4654982 ], [ -0.4685007, 39.465585 ], [ -0.468967, 39.4656666 ], [ -0.469175, 39.465706 ], [ -0.469067, 39.4652577 ], [ -0.4690555, 39.4650658 ], [ -0.4690524, 39.4650153 ], [ -0.4690478, 39.4649377 ], [ -0.4690461, 39.4649084 ], [ -0.4689888, 39.4648651 ], [ -0.4689076, 39.4648036 ], [ -0.4688326, 39.4647575 ], [ -0.4688019, 39.4647387 ], [ -0.4686686, 39.4646554 ], [ -0.4685591, 39.4645846 ], [ -0.4685103, 39.4645452 ], [ -0.468497, 39.4645344 ], [ -0.4685845, 39.4644609 ], [ -0.4685906, 39.4644558 ], [ -0.4686024, 39.4644441 ], [ -0.4686439, 39.4644028 ], [ -0.4685782, 39.4643614 ], [ -0.4684068, 39.4642534 ], [ -0.467783, 39.4638563 ], [ -0.4674473, 39.463643 ], [ -0.4672562, 39.4635169 ], [ -0.4670964, 39.4634141 ], [ -0.4670357, 39.4633752 ], [ -0.4669569, 39.4633245 ], [ -0.4669093, 39.463294 ], [ -0.4664844, 39.4630228 ], [ -0.466263, 39.4628806 ], [ -0.4659901, 39.4627056 ], [ -0.4658096, 39.4628576 ], [ -0.4658177, 39.4628628 ], [ -0.4656458, 39.463019 ], [ -0.465397, 39.4629931 ], [ -0.4653303, 39.463548 ], [ -0.4653225, 39.4635966 ], [ -0.4652813, 39.4638518 ], [ -0.4652732, 39.4639881 ], [ -0.4652699, 39.4640431 ], [ -0.4652807, 39.4641472 ], [ -0.4652836, 39.4641893 ], [ -0.4652877, 39.4644872 ], [ -0.4653018, 39.4645953 ], [ -0.4653352, 39.4652067 ], [ -0.4655171, 39.4652273 ], [ -0.4661347, 39.4652998 ], [ -0.4665169, 39.4653466 ], [ -0.4665892, 39.4653551 ], [ -0.4667995, 39.4653742 ], [ -0.4671878, 39.4654035 ], [ -0.4675314, 39.4654387 ], [ -0.4677134, 39.4654505 ] ] ] } },
{ "type": "Feature", "properties": { "CCAA": "10 - Comunitat Valenciana", "PROVINCIA": "46 - Valencia/Valéncia", "MUNICIPIO": "46021 - Aldaia", "COD_MUNICIPIO": "46021", "DISTRITO": "01", "SECCION": "4602101008", "V1_H": 80.01, "V1_M": 85.96, "V2_H": 79.87654463, "V2_M": 85.8497366, "V3_H": 80.24882261, "V3_M": 86.17409879 }, "geometry": { "type": "Polygon", "coordinates": [ [ [ -0.4592055, 39.4635345 ], [ -0.4592237, 39.4635405 ], [ -0.4595666, 39.4636493 ], [ -0.4598133, 39.4637287 ], [ -0.4599877, 39.463728 ], [ -0.4601584, 39.4637535 ], [ -0.4602287, 39.4637641 ], [ -0.4605097, 39.4637878 ], [ -0.4608825, 39.4638245 ], [ -0.4608829, 39.4638246 ], [ -0.4610432, 39.4638409 ], [ -0.4614322, 39.4638706 ], [ -0.4616409, 39.4638892 ], [ -0.461655, 39.4638905 ], [ -0.4619632, 39.4639116 ], [ -0.4620393, 39.4639169 ], [ -0.4622483, 39.4639288 ], [ -0.4623731, 39.4639466 ], [ -0.4624117, 39.4639546 ], [ -0.4624128, 39.4639553 ], [ -0.462413, 39.4639544 ], [ -0.4624454, 39.4637351 ], [ -0.4624942, 39.4635349 ], [ -0.4625394, 39.463335 ], [ -0.4626404, 39.4627475 ], [ -0.4626407, 39.4627458 ], [ -0.4626852, 39.4623373 ], [ -0.462692, 39.4622766 ], [ -0.4627429, 39.4618258 ], [ -0.462753, 39.4617588 ], [ -0.4626713, 39.4617377 ], [ -0.4621503, 39.4616916 ], [ -0.4616248, 39.4616518 ], [ -0.4615132, 39.4616431 ], [ -0.4614204, 39.4616421 ], [ -0.4606617, 39.4616345 ], [ -0.4606068, 39.461634 ], [ -0.4601828, 39.4616168 ], [ -0.4595797, 39.4616107 ], [ -0.4593212, 39.4616009 ], [ -0.4592992, 39.4616001 ], [ -0.4592787, 39.4615993 ], [ -0.4590611, 39.4616082 ], [ -0.4590537, 39.4616084 ], [ -0.4590124, 39.4616101 ], [ -0.459005, 39.4616104 ], [ -0.458953, 39.4616125 ], [ -0.4590208, 39.4616826 ], [ -0.4590596, 39.4617227 ], [ -0.4593446, 39.4620173 ], [ -0.4593562, 39.462028 ], [ -0.4595992, 39.4622561 ], [ -0.4598843, 39.4625237 ], [ -0.4599943, 39.4628974 ], [ -0.4599794, 39.4628958 ], [ -0.4593498, 39.4628285 ], [ -0.4592351, 39.4634041 ], [ -0.4592232, 39.4634634 ], [ -0.4592055, 39.4635345 ] ] ] } },
{ "type": "Feature", "properties": { "CCAA": "10 - Comunitat Valenciana", "PROVINCIA": "46 - Valencia/Valéncia", "MUNICIPIO": "46021 - Aldaia", "COD_MUNICIPIO": "46021", "DISTRITO": "01", "SECCION": "4602101015", "V1_H": 80.23, "V1_M": 86.04, "V2_H": 80.01377171, "V2_M": 86.1814847, "V3_H": 80.55154758, "V3_M": 86.06989916000001 }, "geometry": { "type": "Polygon", "coordinates": [ [ [ -0.457065, 39.4628859 ], [ -0.457419, 39.462918 ], [ -0.4580867, 39.4631482 ], [ -0.4586484, 39.4633421 ], [ -0.4589669, 39.4634578 ], [ -0.4592055, 39.4635345 ], [ -0.4592232, 39.4634634 ], [ -0.4592351, 39.4634041 ], [ -0.4593498, 39.4628285 ], [ -0.4599794, 39.4628958 ], [ -0.4599943, 39.4628974 ], [ -0.4598843, 39.4625237 ], [ -0.4595992, 39.4622561 ], [ -0.4593562, 39.462028 ], [ -0.4593446, 39.4620173 ], [ -0.4590596, 39.4617227 ], [ -0.4590208, 39.4616826 ], [ -0.458953, 39.4616125 ], [ -0.4582567, 39.4615695 ], [ -0.4572007, 39.4616043 ], [ -0.457065, 39.4628859 ] ] ] } },
{ "type": "Feature", "properties": { "CCAA": "10 - Comunitat Valenciana", "PROVINCIA": "46 - Valencia/Valéncia", "MUNICIPIO": "46021 - Aldaia", "COD_MUNICIPIO": "46021", "DISTRITO": "01", "SECCION": "4602101002", "V1_H": 80.16, "V1_M": 86.09, "V2_H": 80.12695049, "V2_M": 86.02539962, "V3_H": 80.31827198000001, "V3_M": 86.38244546 }, "geometry": { "type": "Polygon", "coordinates": [ [ [ -0.4608277, 39.4679329 ], [ -0.4608276, 39.467933 ], [ -0.4609391, 39.4679601 ], [ -0.4611889, 39.4680108 ], [ -0.4614018, 39.468054 ], [ -0.4614458, 39.4680616 ], [ -0.4614572, 39.4680635 ], [ -0.4616477, 39.4681041 ], [ -0.4619343, 39.468165 ], [ -0.4619934, 39.4681776 ], [ -0.4628007, 39.4683576 ], [ -0.4630081, 39.468403 ], [ -0.4631907, 39.4684446 ], [ -0.463307, 39.4684779 ], [ -0.4634352, 39.4685145 ], [ -0.4634321, 39.4683724 ], [ -0.4634307, 39.4683071 ], [ -0.4634425, 39.4682359 ], [ -0.4635507, 39.4682139 ], [ -0.4635757, 39.4680629 ], [ -0.4636076, 39.4678699 ], [ -0.4635194, 39.4677872 ], [ -0.4635196, 39.4677484 ], [ -0.4635158, 39.4676927 ], [ -0.4635059, 39.4673211 ], [ -0.4635642, 39.4673528 ], [ -0.4639398, 39.4675659 ], [ -0.464082, 39.4676365 ], [ -0.4641389, 39.4671937 ], [ -0.4641637, 39.467002 ], [ -0.4641817, 39.4668415 ], [ -0.4642444, 39.4663404 ], [ -0.4642491, 39.4663076 ], [ -0.4643054, 39.4657469 ], [ -0.4643456, 39.4654683 ], [ -0.4643747, 39.4654703 ], [ -0.4648584, 39.4654988 ], [ -0.4648677, 39.4654995 ], [ -0.4648706, 39.4654692 ], [ -0.4648932, 39.4651888 ], [ -0.464894, 39.4651622 ], [ -0.4648705, 39.4651599 ], [ -0.4645612, 39.4651368 ], [ -0.4642678, 39.4651125 ], [ -0.4637024, 39.4650821 ], [ -0.4630542, 39.4650537 ], [ -0.4627873, 39.4650461 ], [ -0.4625513, 39.4650443 ], [ -0.4624085, 39.4650466 ], [ -0.4623471, 39.4650494 ], [ -0.4620907, 39.4650391 ], [ -0.4618687, 39.4650081 ], [ -0.4617711, 39.4650106 ], [ -0.4616885, 39.4650231 ], [ -0.4616883, 39.465024 ], [ -0.4616503, 39.4651228 ], [ -0.4616267, 39.4651844 ], [ -0.4616233, 39.465233 ], [ -0.4616222, 39.4652481 ], [ -0.4616477, 39.4652878 ], [ -0.4617266, 39.4653344 ], [ -0.4617345, 39.4653391 ], [ -0.4618706, 39.4653683 ], [ -0.4619466, 39.4653929 ], [ -0.4616806, 39.46578 ], [ -0.4614891, 39.4660666 ], [ -0.4614448, 39.4661226 ], [ -0.4615866, 39.4662005 ], [ -0.4614395, 39.4663949 ], [ -0.4613663, 39.4664888 ], [ -0.4612808, 39.466657 ], [ -0.4612138, 39.4668506 ], [ -0.461125, 39.4670993 ], [ -0.4609236, 39.4675874 ], [ -0.4608277, 39.4679329 ] ] ] } },
{ "type": "Feature", "properties": { "CCAA": "10 - Comunitat Valenciana", "PROVINCIA": "46 - Valencia/Valéncia", "MUNICIPIO": "46021 - Aldaia", "COD_MUNICIPIO": "46021", "DISTRITO": "01", "SECCION": "4602101004", "V1_H": 80.21, "V1_M": 86.35, "V2_H": 80.00126986, "V2_M": 86.33312861, "V3_H": 80.58114521, "V3_M": 86.56210486000001 }, "geometry": { "type": "Polygon", "coordinates": [ [ [ -0.4563244, 39.4658175 ], [ -0.4570096, 39.4659268 ], [ -0.4576197, 39.4660225 ], [ -0.4581454, 39.4661242 ], [ -0.45832, 39.4661518 ], [ -0.4583173, 39.4661595 ], [ -0.4583882, 39.466146 ], [ -0.4586761, 39.4661523 ], [ -0.4593348, 39.4662329 ], [ -0.4595853, 39.4662698 ], [ -0.4595968, 39.4662585 ], [ -0.4596623, 39.4661938 ], [ -0.4598088, 39.4660247 ], [ -0.4599474, 39.4659298 ], [ -0.4600818, 39.465829 ], [ -0.4602525, 39.4657381 ], [ -0.4603234, 39.4654377 ], [ -0.4603579, 39.4650814 ], [ -0.4603696, 39.4649196 ], [ -0.4602226, 39.4648757 ], [ -0.4600544, 39.4648233 ], [ -0.4598365, 39.4647638 ], [ -0.4597914, 39.4647592 ], [ -0.4596929, 39.4647493 ], [ -0.4595386, 39.464718 ], [ -0.4592918, 39.4646538 ], [ -0.4589169, 39.4645562 ], [ -0.4588091, 39.4645328 ], [ -0.4587821, 39.4645269 ], [ -0.4587441, 39.4645188 ], [ -0.4586821, 39.4645084 ], [ -0.4585098, 39.4644799 ], [ -0.4579175, 39.4644171 ], [ -0.4578503, 39.4644094 ], [ -0.4571602, 39.4643314 ], [ -0.456986, 39.4643117 ], [ -0.4568671, 39.464298 ], [ -0.4567782, 39.4643177 ], [ -0.4566181, 39.464353 ], [ -0.4566148, 39.4643581 ], [ -0.4565892, 39.4645249 ], [ -0.4564849, 39.4647487 ], [ -0.4564448, 39.4649654 ], [ -0.4564048, 39.4651681 ], [ -0.4563713, 39.4653478 ], [ -0.4563398, 39.4655136 ], [ -0.456302, 39.4657054 ], [ -0.4562823, 39.4658107 ], [ -0.4563244, 39.4658175 ] ] ] } },
{ "type": "Feature", "properties": { "CCAA": "10 - Comunitat Valenciana", "PROVINCIA": "46 - Valencia/Valéncia", "MUNICIPIO": "46021 - Aldaia", "COD_MUNICIPIO": "46021", "DISTRITO": "01", "SECCION": "4602101019", "V1_H": 80.39, "V1_M": 86.24, "V2_H": 80.20629068, "V2_M": 86.34105578, "V3_H": 80.66489809, "V3_M": 86.38520791000001 }, "geometry": { "type": "Polygon", "coordinates": [ [ [ -0.4563244, 39.4658175 ], [ -0.4562846, 39.4658932 ], [ -0.4560372, 39.4671201 ], [ -0.455953, 39.4676724 ], [ -0.4560144, 39.4680377 ], [ -0.4562199, 39.4685467 ], [ -0.4565284, 39.4688678 ], [ -0.4571143, 39.4691866 ], [ -0.4575585, 39.4692956 ], [ -0.4578592, 39.4692443 ], [ -0.4581507, 39.4691514 ], [ -0.4583386, 39.4689735 ], [ -0.4585837, 39.4686894 ], [ -0.4586808, 39.468369 ], [ -0.4587021, 39.4682148 ], [ -0.4587551, 39.4680598 ], [ -0.4587897, 39.4679584 ], [ -0.4588794, 39.4677125 ], [ -0.4589426, 39.4675411 ], [ -0.4590218, 39.4674801 ], [ -0.4591038, 39.4671917 ], [ -0.4591623, 39.4669744 ], [ -0.4592492, 39.4667571 ], [ -0.4593631, 39.4665578 ], [ -0.4594754, 39.46638 ], [ -0.4595333, 39.4663218 ], [ -0.4595656, 39.4662892 ], [ -0.4595853, 39.4662698 ], [ -0.4593348, 39.4662329 ], [ -0.4586761, 39.4661523 ], [ -0.4583882, 39.466146 ], [ -0.4583173, 39.4661595 ], [ -0.45832, 39.4661518 ], [ -0.4581454, 39.4661242 ], [ -0.4576197, 39.4660225 ], [ -0.4570096, 39.4659268 ], [ -0.4563244, 39.4658175 ] ] ] } },
{ "type": "Feature", "properties": { "CCAA": "10 - Comunitat Valenciana", "PROVINCIA": "46 - Valencia/Valéncia", "MUNICIPIO": "46021 - Aldaia", "COD_MUNICIPIO": "46021", "DISTRITO": "01", "SECCION": "4602101009", "V1_H": 80.16, "V1_M": 86.09, "V2_H": 80.12695049, "V2_M": 86.02539962, "V3_H": 80.31827198000001, "V3_M": 86.38244546 }, "geometry": { "type": "Polygon", "coordinates": [ [ [ -0.4658096, 39.4628576 ], [ -0.4659901, 39.4627056 ], [ -0.466263, 39.4628806 ], [ -0.4664844, 39.4630228 ], [ -0.4669093, 39.463294 ], [ -0.4669569, 39.4633245 ], [ -0.4670357, 39.4633752 ], [ -0.4670964, 39.4634141 ], [ -0.4672562, 39.4635169 ], [ -0.4674473, 39.463643 ], [ -0.467783, 39.4638563 ], [ -0.4684068, 39.4642534 ], [ -0.4685782, 39.4643614 ], [ -0.4686439, 39.4644028 ], [ -0.4688519, 39.464196 ], [ -0.4689381, 39.4641104 ], [ -0.4690129, 39.464036 ], [ -0.4690382, 39.4640109 ], [ -0.4691117, 39.4639378 ], [ -0.4691209, 39.4639287 ], [ -0.4691118, 39.4639252 ], [ -0.469013, 39.4638875 ], [ -0.4689966, 39.4636767 ], [ -0.4689627, 39.4632964 ], [ -0.4689325, 39.4629558 ], [ -0.4689207, 39.4628161 ], [ -0.4688678, 39.4621941 ], [ -0.4687991, 39.4614202 ], [ -0.4687752, 39.4611117 ], [ -0.4687744, 39.4611017 ], [ -0.4687664, 39.4610249 ], [ -0.4687651, 39.4610131 ], [ -0.4687603, 39.4609667 ], [ -0.4687588, 39.4609526 ], [ -0.4687573, 39.4609379 ], [ -0.4687571, 39.4609372 ], [ -0.4687391, 39.460938 ], [ -0.4686699, 39.4609406 ], [ -0.4686554, 39.4609415 ], [ -0.4676814, 39.4609986 ], [ -0.4673469, 39.4610181 ], [ -0.4673122, 39.4610201 ], [ -0.467058, 39.4610344 ], [ -0.4670121, 39.461037 ], [ -0.466971, 39.4610394 ], [ -0.4669374, 39.4610403 ], [ -0.466936, 39.4610354 ], [ -0.4667077, 39.4610468 ], [ -0.4666346, 39.4610488 ], [ -0.4663784, 39.4610544 ], [ -0.4654815, 39.461074 ], [ -0.4654331, 39.4610751 ], [ -0.4654417, 39.4610647 ], [ -0.4644708, 39.4612195 ], [ -0.4644634, 39.4612208 ], [ -0.464207, 39.4618563 ], [ -0.4643647, 39.4619461 ], [ -0.464474, 39.4620085 ], [ -0.4645781, 39.4620679 ], [ -0.4651928, 39.4624624 ], [ -0.4658096, 39.4628576 ] ] ] } },
{ "type": "Feature", "properties": { "CCAA": "10 - Comunitat Valenciana", "PROVINCIA": "46 - Valencia/Valéncia", "MUNICIPIO": "46021 - Aldaia", "COD_MUNICIPIO": "46021", "DISTRITO": "01", "SECCION": "4602101014", "V1_H": 80.01, "V1_M": 85.88, "V2_H": 79.90171161000001, "V2_M": 85.93881404, "V3_H": 80.29104055000001, "V3_M": 85.88520273 }, "geometry": { "type": "Polygon", "coordinates": [ [ [ -0.439888, 39.4643963 ], [ -0.4399437, 39.4644543 ], [ -0.439944, 39.4644546 ], [ -0.4402863, 39.4655793 ], [ -0.440331, 39.4665802 ], [ -0.4401865, 39.4679824 ], [ -0.4402674, 39.4692634 ], [ -0.4400697, 39.4711678 ], [ -0.4400697, 39.471169 ], [ -0.4400909, 39.4711701 ], [ -0.4437355, 39.4713668 ], [ -0.4440006, 39.4714267 ], [ -0.4440024, 39.4714289 ], [ -0.4441445, 39.4716094 ], [ -0.444145, 39.47161 ], [ -0.4442026, 39.4722599 ], [ -0.4443855, 39.4725411 ], [ -0.4447198, 39.4730551 ], [ -0.4463588, 39.4743253 ], [ -0.446759, 39.4745053 ], [ -0.4470249, 39.4745645 ], [ -0.4471626, 39.4745952 ], [ -0.4471628, 39.4745952 ], [ -0.4471743, 39.4745958 ], [ -0.4485435, 39.4746616 ], [ -0.4492496, 39.4753798 ], [ -0.4492811, 39.4755084 ], [ -0.4493406, 39.4757511 ], [ -0.4494721, 39.4759702 ], [ -0.4497595, 39.4760576 ], [ -0.4497605, 39.4760577 ], [ -0.4503051, 39.4760786 ], [ -0.4510386, 39.476365 ], [ -0.4512649, 39.4765321 ], [ -0.4513815, 39.476841 ], [ -0.4513815, 39.4768414 ], [ -0.4512656, 39.477469 ], [ -0.4511658, 39.477656 ], [ -0.4511947, 39.4778188 ], [ -0.4513544, 39.4779034 ], [ -0.4516218, 39.4779002 ], [ -0.4521428, 39.4776414 ], [ -0.45267, 39.4772116 ], [ -0.4530675, 39.4767615 ], [ -0.4532399, 39.4765664 ], [ -0.4579944, 39.476199 ], [ -0.4580082, 39.4760779 ], [ -0.4581737, 39.4759567 ], [ -0.4582672, 39.4758882 ], [ -0.4583148, 39.4758459 ], [ -0.4585631, 39.4756399 ], [ -0.4586151, 39.4755974 ], [ -0.4588366, 39.4754157 ], [ -0.4590356, 39.4752572 ], [ -0.4590662, 39.475236 ], [ -0.4591994, 39.4751437 ], [ -0.4593056, 39.4750666 ], [ -0.4592637, 39.4750346 ], [ -0.4592823, 39.4749899 ], [ -0.4592873, 39.4749755 ], [ -0.459297, 39.4749475 ], [ -0.4593048, 39.4749251 ], [ -0.4593282, 39.4748578 ], [ -0.4593461, 39.474806 ], [ -0.4593731, 39.4747286 ], [ -0.4593793, 39.4747105 ], [ -0.459393, 39.4746714 ], [ -0.4594081, 39.4746277 ], [ -0.4594104, 39.4746208 ], [ -0.459416, 39.4746049 ], [ -0.4594212, 39.4745898 ], [ -0.4594363, 39.4745465 ], [ -0.4594745, 39.4744361 ], [ -0.4593298, 39.4743223 ], [ -0.4593472, 39.474187 ], [ -0.4592726, 39.4741721 ], [ -0.4589753, 39.4741099 ], [ -0.4585363, 39.4740184 ], [ -0.4586749, 39.473676 ], [ -0.4588408, 39.4732497 ], [ -0.4587935, 39.4732392 ], [ -0.4585323, 39.4731746 ], [ -0.4586174, 39.4728962 ], [ -0.4587158, 39.4725893 ], [ -0.4582827, 39.4724795 ], [ -0.4582908, 39.4724519 ], [ -0.4584048, 39.4722336 ], [ -0.4584551, 39.4721525 ], [ -0.4584946, 39.4720887 ], [ -0.4586753, 39.4718161 ], [ -0.4587362, 39.4717242 ], [ -0.4588492, 39.4715374 ], [ -0.4588665, 39.4714999 ], [ -0.4588994, 39.4714282 ], [ -0.4589152, 39.4713621 ], [ -0.4589222, 39.4713331 ], [ -0.4589299, 39.4713004 ], [ -0.458956, 39.4712276 ], [ -0.4589833, 39.471237 ], [ -0.4590587, 39.4712626 ], [ -0.4592593, 39.4713313 ], [ -0.4593699, 39.471369 ], [ -0.4594482, 39.4713958 ], [ -0.4595384, 39.4714286 ], [ -0.4595854, 39.4714456 ], [ -0.4599642, 39.4715831 ], [ -0.460612, 39.4717358 ], [ -0.4610964, 39.4718488 ], [ -0.4611331, 39.4718238 ], [ -0.4613935, 39.4718515 ], [ -0.4622781, 39.4719456 ], [ -0.4622676, 39.4719599 ], [ -0.4621219, 39.4722303 ], [ -0.4619955, 39.4724503 ], [ -0.4619487, 39.4725318 ], [ -0.4619312, 39.472575 ], [ -0.4617376, 39.4730524 ], [ -0.4615747, 39.4735453 ], [ -0.4615604, 39.4736113 ], [ -0.4615748, 39.4737024 ], [ -0.4615854, 39.473771 ], [ -0.4615846, 39.473805 ], [ -0.4616586, 39.4738038 ], [ -0.4616587, 39.4738028 ], [ -0.4616849, 39.473804 ], [ -0.4618008, 39.4738094 ], [ -0.4618947, 39.4738129 ], [ -0.4621375, 39.473822 ], [ -0.4621471, 39.4738224 ], [ -0.4621473, 39.4738197 ], [ -0.4627331, 39.4738364 ], [ -0.4627145, 39.4739301 ], [ -0.4627005, 39.4741062 ], [ -0.4626941, 39.4741047 ], [ -0.4626642, 39.4742137 ], [ -0.4631057, 39.474242 ], [ -0.4632497, 39.47425 ], [ -0.4636427, 39.4742719 ], [ -0.4636296, 39.4746337 ], [ -0.4636675, 39.4746361 ], [ -0.4636373, 39.4747439 ], [ -0.4636284, 39.474851 ], [ -0.4636296, 39.4748624 ], [ -0.4636509, 39.4748623 ], [ -0.4636784, 39.474862 ], [ -0.4644346, 39.4748545 ], [ -0.4646869, 39.474852 ], [ -0.464806, 39.4748508 ], [ -0.4648901, 39.47485 ], [ -0.4651485, 39.4748475 ], [ -0.4656846, 39.4748422 ], [ -0.4657038, 39.474842 ], [ -0.4658107, 39.474841 ], [ -0.4658075, 39.4751607 ], [ -0.4658059, 39.475315 ], [ -0.4657791, 39.4758199 ], [ -0.4743969, 39.4755958 ], [ -0.4743973, 39.4755958 ], [ -0.4743988, 39.4755956 ], [ -0.4832871, 39.4746986 ], [ -0.4839521, 39.4746319 ], [ -0.4865246, 39.4740494 ], [ -0.4865307, 39.4740486 ], [ -0.4865366, 39.474047 ], [ -0.4875133, 39.4738711 ], [ -0.4883025, 39.4735553 ], [ -0.4883039, 39.4735549 ], [ -0.4924922, 39.4711056 ], [ -0.4925296, 39.471083 ], [ -0.4939142, 39.4702731 ], [ -0.493917, 39.4702723 ], [ -0.4957599, 39.4691945 ], [ -0.5133014, 39.4603454 ], [ -0.5139046, 39.459351 ], [ -0.5143381, 39.4586373 ], [ -0.5143607, 39.4586224 ], [ -0.5208481, 39.4546508 ], [ -0.5238735, 39.4526298 ], [ -0.5266925, 39.4507478 ], [ -0.528951, 39.450958 ], [ -0.5300951, 39.4511355 ], [ -0.5308145, 39.4511688 ], [ -0.5319469, 39.4510217 ], [ -0.532534, 39.4509844 ], [ -0.533855, 39.4509941 ], [ -0.535212, 39.4510279 ], [ -0.5355111, 39.4510062 ], [ -0.5431362, 39.4510618 ], [ -0.5431654, 39.4510584 ], [ -0.5457227, 39.4508631 ], [ -0.5466247, 39.4506569 ], [ -0.5507282, 39.4492485 ], [ -0.5507297, 39.449248 ], [ -0.5509286, 39.4478828 ], [ -0.5487825, 39.4471169 ], [ -0.5422582, 39.4452943 ], [ -0.5397231, 39.4446911 ], [ -0.5388338, 39.4445371 ], [ -0.5383343, 39.4445356 ], [ -0.5350917, 39.4438992 ], [ -0.5347698, 39.4438023 ], [ -0.5345423, 39.4436624 ], [ -0.5333816, 39.4436287 ], [ -0.533379, 39.4436279 ], [ -0.5330251, 39.443522 ], [ -0.5305632, 39.4431544 ], [ -0.5287335, 39.4429804 ], [ -0.5278392, 39.4429704 ], [ -0.5273026, 39.443031 ], [ -0.5260528, 39.4428873 ], [ -0.525493, 39.4429474 ], [ -0.5254888, 39.4429486 ], [ -0.5247535, 39.4431569 ], [ -0.5242863, 39.443228 ], [ -0.523997, 39.4431948 ], [ -0.5230225, 39.4428227 ], [ -0.5222894, 39.4427008 ], [ -0.5216545, 39.4425952 ], [ -0.5212206, 39.442523 ], [ -0.5208968, 39.4424012 ], [ -0.5208652, 39.4423893 ], [ -0.5207729, 39.4423693 ], [ -0.5196863, 39.442211 ], [ -0.5191505, 39.4421788 ], [ -0.5180632, 39.4421133 ], [ -0.5173599, 39.4419565 ], [ -0.5173484, 39.4419539 ], [ -0.5112666, 39.4435997 ], [ -0.5078454, 39.4445253 ], [ -0.5053335, 39.4452372 ], [ -0.5026503, 39.4458643 ], [ -0.4985808, 39.4465876 ], [ -0.4972007, 39.4468372 ], [ -0.4941751, 39.4479342 ], [ -0.4928634, 39.4485455 ], [ -0.4916529, 39.4489248 ], [ -0.4882685, 39.4503022 ], [ -0.483206, 39.4518053 ], [ -0.4788278, 39.4530167 ], [ -0.4769668, 39.453706 ], [ -0.4763504, 39.454044 ], [ -0.4752086, 39.4547669 ], [ -0.4736591, 39.455517 ], [ -0.4729775, 39.4557274 ], [ -0.4704778, 39.4564028 ], [ -0.4702297, 39.4564488 ], [ -0.4702712, 39.4571586 ], [ -0.4702655, 39.4571792 ], [ -0.4702531, 39.45718 ], [ -0.4702337, 39.4571812 ], [ -0.4701923, 39.4571818 ], [ -0.4701866, 39.4571819 ], [ -0.4701907, 39.4574029 ], [ -0.4701877, 39.4576451 ], [ -0.4701323, 39.458813 ], [ -0.4701037, 39.4591964 ], [ -0.4701025, 39.4592108 ], [ -0.4700115, 39.4592015 ], [ -0.4700781, 39.459709 ], [ -0.4701062, 39.4604547 ], [ -0.4701324, 39.4607805 ], [ -0.4701337, 39.4607979 ], [ -0.4701348, 39.4608118 ], [ -0.4701353, 39.4608179 ], [ -0.4700672, 39.4608208 ], [ -0.4699122, 39.4608274 ], [ -0.4691198, 39.4608614 ], [ -0.4689301, 39.4608696 ], [ -0.4689112, 39.4608704 ], [ -0.4688548, 39.4608723 ], [ -0.4688276, 39.4608731 ], [ -0.4688124, 39.4608737 ], [ -0.4687959, 39.4608743 ], [ -0.468756, 39.4608756 ], [ -0.4687391, 39.460938 ], [ -0.4687571, 39.4609372 ], [ -0.4687573, 39.4609379 ], [ -0.4687588, 39.4609526 ], [ -0.4687603, 39.4609667 ], [ -0.4687651, 39.4610131 ], [ -0.4687664, 39.4610249 ], [ -0.4687744, 39.4611017 ], [ -0.4687752, 39.4611117 ], [ -0.4687991, 39.4614202 ], [ -0.4688678, 39.4621941 ], [ -0.4689207, 39.4628161 ], [ -0.4689325, 39.4629558 ], [ -0.4689627, 39.4632964 ], [ -0.4689966, 39.4636767 ], [ -0.469013, 39.4638875 ], [ -0.4691118, 39.4639252 ], [ -0.4691209, 39.4639287 ], [ -0.4691117, 39.4639378 ], [ -0.4690382, 39.4640109 ], [ -0.4690129, 39.464036 ], [ -0.4689381, 39.4641104 ], [ -0.4688519, 39.464196 ], [ -0.4686439, 39.4644028 ], [ -0.4686024, 39.4644441 ], [ -0.4685906, 39.4644558 ], [ -0.4685845, 39.4644609 ], [ -0.468497, 39.4645344 ], [ -0.4685103, 39.4645452 ], [ -0.4685591, 39.4645846 ], [ -0.4686686, 39.4646554 ], [ -0.4688019, 39.4647387 ], [ -0.4688326, 39.4647575 ], [ -0.4689076, 39.4648036 ], [ -0.4689888, 39.4648651 ], [ -0.4690461, 39.4649084 ], [ -0.4690478, 39.4649377 ], [ -0.4690524, 39.4650153 ], [ -0.4690555, 39.4650658 ], [ -0.469067, 39.4652577 ], [ -0.469175, 39.465706 ], [ -0.468967, 39.4656666 ], [ -0.4685007, 39.465585 ], [ -0.4679813, 39.4654982 ], [ -0.4677599, 39.4654715 ], [ -0.4677134, 39.4654505 ], [ -0.4673748, 39.4658936 ], [ -0.4671612, 39.4661346 ], [ -0.4670206, 39.4662919 ], [ -0.466921, 39.4664032 ], [ -0.4668126, 39.466526 ], [ -0.4667579, 39.4665873 ], [ -0.4666829, 39.4666714 ], [ -0.4666134, 39.4667491 ], [ -0.4665376, 39.4668341 ], [ -0.4664569, 39.4669246 ], [ -0.466435, 39.4669493 ], [ -0.4663304, 39.4670671 ], [ -0.4662252, 39.4671847 ], [ -0.4661212, 39.4673014 ], [ -0.4660996, 39.467326 ], [ -0.4659594, 39.4674842 ], [ -0.4658711, 39.4675829 ], [ -0.4657201, 39.4677526 ], [ -0.4657137, 39.4677599 ], [ -0.4655993, 39.4678885 ], [ -0.4654898, 39.4680109 ], [ -0.4654111, 39.468103 ], [ -0.4652858, 39.4682432 ], [ -0.4651748, 39.4681841 ], [ -0.4650197, 39.4680944 ], [ -0.4650075, 39.4680874 ], [ -0.464752, 39.4679642 ], [ -0.4647112, 39.4679366 ], [ -0.4646666, 39.4679119 ], [ -0.4642992, 39.4677502 ], [ -0.4641399, 39.4676731 ], [ -0.464082, 39.4676365 ], [ -0.4639398, 39.4675659 ], [ -0.4635642, 39.4673528 ], [ -0.4635059, 39.4673211 ], [ -0.4635158, 39.4676927 ], [ -0.4635196, 39.4677484 ], [ -0.4635194, 39.4677872 ], [ -0.4636076, 39.4678699 ], [ -0.4635757, 39.4680629 ], [ -0.4635507, 39.4682139 ], [ -0.4634425, 39.4682359 ], [ -0.4634307, 39.4683071 ], [ -0.4634321, 39.4683724 ], [ -0.4634352, 39.4685145 ], [ -0.463307, 39.4684779 ], [ -0.4631907, 39.4684446 ], [ -0.4630081, 39.468403 ], [ -0.4628007, 39.4683576 ], [ -0.4619934, 39.4681776 ], [ -0.4619343, 39.468165 ], [ -0.4616477, 39.4681041 ], [ -0.4614572, 39.4680635 ], [ -0.4614458, 39.4680616 ], [ -0.4614018, 39.468054 ], [ -0.4611889, 39.4680108 ], [ -0.4609391, 39.4679601 ], [ -0.4608276, 39.467933 ], [ -0.4608277, 39.4679329 ], [ -0.4607228, 39.4679076 ], [ -0.4603842, 39.46781 ], [ -0.4601704, 39.4677744 ], [ -0.4601051, 39.4677565 ], [ -0.4600909, 39.4677526 ], [ -0.4598342, 39.4676932 ], [ -0.4589426, 39.4675411 ], [ -0.4588794, 39.4677125 ], [ -0.4587897, 39.4679584 ], [ -0.4587551, 39.4680598 ], [ -0.4587021, 39.4682148 ], [ -0.4586808, 39.468369 ], [ -0.4585837, 39.4686894 ], [ -0.4583386, 39.4689735 ], [ -0.4581507, 39.4691514 ], [ -0.4578592, 39.4692443 ], [ -0.4575585, 39.4692956 ], [ -0.4571143, 39.4691866 ], [ -0.4565284, 39.4688678 ], [ -0.4562199, 39.4685467 ], [ -0.4560144, 39.4680377 ], [ -0.455953, 39.4676724 ], [ -0.4560372, 39.4671201 ], [ -0.4562846, 39.4658932 ], [ -0.4563244, 39.4658175 ], [ -0.4562823, 39.4658107 ], [ -0.456302, 39.4657054 ], [ -0.4563398, 39.4655136 ], [ -0.4563713, 39.4653478 ], [ -0.4564048, 39.4651681 ], [ -0.4564448, 39.4649654 ], [ -0.4564849, 39.4647487 ], [ -0.4565892, 39.4645249 ], [ -0.4566148, 39.4643581 ], [ -0.4566181, 39.464353 ], [ -0.4567782, 39.4643177 ], [ -0.4568071, 39.4641782 ], [ -0.4568199, 39.4641159 ], [ -0.4568988, 39.4637344 ], [ -0.4569651, 39.463414 ], [ -0.4570049, 39.4632088 ], [ -0.4570534, 39.462948 ], [ -0.457065, 39.4628859 ], [ -0.4572007, 39.4616043 ], [ -0.4582567, 39.4615695 ], [ -0.458953, 39.4616125 ], [ -0.459005, 39.4616104 ], [ -0.4590124, 39.4616101 ], [ -0.4590537, 39.4616084 ], [ -0.4590611, 39.4616082 ], [ -0.4592787, 39.4615993 ], [ -0.4592992, 39.4616001 ], [ -0.4593212, 39.4616009 ], [ -0.4595797, 39.4616107 ], [ -0.4601828, 39.4616168 ], [ -0.4606068, 39.461634 ], [ -0.4606617, 39.4616345 ], [ -0.4614204, 39.4616421 ], [ -0.4615132, 39.4616431 ], [ -0.4616248, 39.4616518 ], [ -0.4621503, 39.4616916 ], [ -0.4626713, 39.4617377 ], [ -0.462753, 39.4617588 ], [ -0.4628434, 39.4617821 ], [ -0.4628439, 39.4617821 ], [ -0.4629374, 39.4617865 ], [ -0.4632603, 39.4618014 ], [ -0.4633257, 39.4618045 ], [ -0.4633516, 39.4618056 ], [ -0.4634061, 39.4618082 ], [ -0.4634166, 39.4618088 ], [ -0.4634795, 39.4618121 ], [ -0.4637405, 39.4618262 ], [ -0.4639572, 39.4618378 ], [ -0.4639787, 39.461839 ], [ -0.4642047, 39.461855 ], [ -0.464207, 39.4618563 ], [ -0.4644634, 39.4612208 ], [ -0.4644708, 39.4612195 ], [ -0.4644272, 39.4608691 ], [ -0.4643273, 39.4608577 ], [ -0.4639022, 39.4608015 ], [ -0.4639767, 39.4604887 ], [ -0.4640547, 39.4602138 ], [ -0.4640989, 39.46007 ], [ -0.4631352, 39.4599664 ], [ -0.4631306, 39.4599903 ], [ -0.4628556, 39.4599387 ], [ -0.4625881, 39.4598884 ], [ -0.4611908, 39.4596417 ], [ -0.4608517, 39.459645 ], [ -0.4573349, 39.4596793 ], [ -0.4566335, 39.4596861 ], [ -0.4551219, 39.4597071 ], [ -0.4550543, 39.4596955 ], [ -0.452708, 39.4592939 ], [ -0.4497104, 39.4597623 ], [ -0.448816, 39.4599021 ], [ -0.4488157, 39.4599021 ], [ -0.4464441, 39.460877 ], [ -0.443463, 39.4626223 ], [ -0.4431326, 39.4627592 ], [ -0.4427902, 39.4629048 ], [ -0.4422732, 39.4631172 ], [ -0.440855, 39.4636999 ], [ -0.4397761, 39.4642798 ], [ -0.4397772, 39.4642809 ], [ -0.439888, 39.4643963 ] ] ] } },
{ "type": "Feature", "properties": { "CCAA": "10 - Comunitat Valenciana", "PROVINCIA": "46 - Valencia/Valéncia", "MUNICIPIO": "46021 - Aldaia", "COD_MUNICIPIO": "46021", "DISTRITO": "01", "SECCION": "4602101016", "V1_H": 80.16, "V1_M": 86.09, "V2_H": 80.12695049, "V2_M": 86.02539962, "V3_H": 80.31827198000001, "V3_M": 86.38244546 }, "geometry": { "type": "Polygon", "coordinates": [ [ [ -0.46592, 39.4589346 ], [ -0.4658146, 39.4594364 ], [ -0.4656441, 39.4602951 ], [ -0.4654815, 39.461074 ], [ -0.4663784, 39.4610544 ], [ -0.4666346, 39.4610488 ], [ -0.4667077, 39.4610468 ], [ -0.466936, 39.4610354 ], [ -0.4669374, 39.4610403 ], [ -0.466971, 39.4610394 ], [ -0.4670121, 39.461037 ], [ -0.467058, 39.4610344 ], [ -0.4673122, 39.4610201 ], [ -0.4673469, 39.4610181 ], [ -0.4676814, 39.4609986 ], [ -0.4686554, 39.4609415 ], [ -0.4686699, 39.4609406 ], [ -0.4687391, 39.460938 ], [ -0.468756, 39.4608756 ], [ -0.4687959, 39.4608743 ], [ -0.4688124, 39.4608737 ], [ -0.4688276, 39.4608731 ], [ -0.4688548, 39.4608723 ], [ -0.4689112, 39.4608704 ], [ -0.4689301, 39.4608696 ], [ -0.4691198, 39.4608614 ], [ -0.4699122, 39.4608274 ], [ -0.4700672, 39.4608208 ], [ -0.4701353, 39.4608179 ], [ -0.4701348, 39.4608118 ], [ -0.4701337, 39.4607979 ], [ -0.4701324, 39.4607805 ], [ -0.4701062, 39.4604547 ], [ -0.4700781, 39.459709 ], [ -0.4700115, 39.4592015 ], [ -0.4701025, 39.4592108 ], [ -0.4686886, 39.4590372 ], [ -0.4670472, 39.4588872 ], [ -0.4664914, 39.4589471 ], [ -0.46592, 39.4589346 ] ] ] } },
{ "type": "Feature", "properties": { "CCAA": "10 - Comunitat Valenciana", "PROVINCIA": "46 - Valencia/Valéncia", "MUNICIPIO": "46021 - Aldaia", "COD_MUNICIPIO": "46021", "DISTRITO": "01", "SECCION": "4602101011", "V1_H": 79.73, "V1_M": 85.7, "V2_H": 79.65450701, "V2_M": 85.67937417, "V3_H": 79.92768478000001, "V3_M": 85.93517811 }, "geometry": { "type": "Polygon", "coordinates": [ [ [ -0.463281, 39.4582556 ], [ -0.4640348, 39.4582886 ], [ -0.4644921, 39.4583121 ], [ -0.4648647, 39.4583315 ], [ -0.4651911, 39.4583414 ], [ -0.465264, 39.4583436 ], [ -0.4660152, 39.4583664 ], [ -0.4661965, 39.457572 ], [ -0.4662148, 39.4573507 ], [ -0.4658031, 39.4574451 ], [ -0.4630769, 39.4575383 ], [ -0.4630687, 39.4575386 ], [ -0.4630698, 39.4575424 ], [ -0.4632757, 39.4582368 ], [ -0.463281, 39.4582556 ] ] ] } },
{ "type": "Feature", "properties": { "CCAA": "10 - Comunitat Valenciana", "PROVINCIA": "46 - Valencia/Valéncia", "MUNICIPIO": "46021 - Aldaia", "COD_MUNICIPIO": "46021", "DISTRITO": "01", "SECCION": "4602101012", "V1_H": 79.9, "V1_M": 85.71, "V2_H": 79.8721496, "V2_M": 85.86187756, "V3_H": 80.05417582, "V3_M": 85.81846709 }, "geometry": { "type": "Polygon", "coordinates": [ [ [ -0.4615846, 39.473805 ], [ -0.4615854, 39.473771 ], [ -0.4615748, 39.4737024 ], [ -0.4615604, 39.4736113 ], [ -0.4615747, 39.4735453 ], [ -0.4617376, 39.4730524 ], [ -0.4619312, 39.472575 ], [ -0.4619487, 39.4725318 ], [ -0.4619955, 39.4724503 ], [ -0.4621219, 39.4722303 ], [ -0.4622676, 39.4719599 ], [ -0.4622781, 39.4719456 ], [ -0.4613935, 39.4718515 ], [ -0.4611331, 39.4718238 ], [ -0.4610964, 39.4718488 ], [ -0.460612, 39.4717358 ], [ -0.4599642, 39.4715831 ], [ -0.4595854, 39.4714456 ], [ -0.4595384, 39.4714286 ], [ -0.4594482, 39.4713958 ], [ -0.4593699, 39.471369 ], [ -0.4592593, 39.4713313 ], [ -0.4590587, 39.4712626 ], [ -0.4589833, 39.471237 ], [ -0.458956, 39.4712276 ], [ -0.4589299, 39.4713004 ], [ -0.4589222, 39.4713331 ], [ -0.4589152, 39.4713621 ], [ -0.4588994, 39.4714282 ], [ -0.4588665, 39.4714999 ], [ -0.4588492, 39.4715374 ], [ -0.4587362, 39.4717242 ], [ -0.4586753, 39.4718161 ], [ -0.4584946, 39.4720887 ], [ -0.4584551, 39.4721525 ], [ -0.4584048, 39.4722336 ], [ -0.4582908, 39.4724519 ], [ -0.4582827, 39.4724795 ], [ -0.4587158, 39.4725893 ], [ -0.4586174, 39.4728962 ], [ -0.4585323, 39.4731746 ], [ -0.4587935, 39.4732392 ], [ -0.4588408, 39.4732497 ], [ -0.4586749, 39.473676 ], [ -0.4585363, 39.4740184 ], [ -0.4589753, 39.4741099 ], [ -0.4592726, 39.4741721 ], [ -0.4593472, 39.474187 ], [ -0.4593298, 39.4743223 ], [ -0.4594745, 39.4744361 ], [ -0.4594363, 39.4745465 ], [ -0.4594212, 39.4745898 ], [ -0.459416, 39.4746049 ], [ -0.4594104, 39.4746208 ], [ -0.4594081, 39.4746277 ], [ -0.459393, 39.4746714 ], [ -0.4593793, 39.4747105 ], [ -0.4593731, 39.4747286 ], [ -0.4593461, 39.474806 ], [ -0.4593282, 39.4748578 ], [ -0.4593048, 39.4749251 ], [ -0.459297, 39.4749475 ], [ -0.4592873, 39.4749755 ], [ -0.4592823, 39.4749899 ], [ -0.4592637, 39.4750346 ], [ -0.4593056, 39.4750666 ], [ -0.4591994, 39.4751437 ], [ -0.4590662, 39.475236 ], [ -0.4590356, 39.4752572 ], [ -0.4588366, 39.4754157 ], [ -0.4586151, 39.4755974 ], [ -0.4585631, 39.4756399 ], [ -0.4583148, 39.4758459 ], [ -0.4582672, 39.4758882 ], [ -0.4581737, 39.4759567 ], [ -0.4580082, 39.4760779 ], [ -0.4579944, 39.476199 ], [ -0.4585091, 39.4761592 ], [ -0.4608558, 39.4758772 ], [ -0.4608646, 39.4758782 ], [ -0.4613733, 39.4759323 ], [ -0.4613885, 39.4759339 ], [ -0.4614173, 39.4759332 ], [ -0.4614562, 39.4757919 ], [ -0.4615187, 39.4755849 ], [ -0.4615546, 39.4753637 ], [ -0.4615931, 39.4751216 ], [ -0.4615958, 39.4750615 ], [ -0.4616001, 39.4749618 ], [ -0.4615892, 39.474791 ], [ -0.4615882, 39.4747758 ], [ -0.4615847, 39.4746353 ], [ -0.4615817, 39.4745223 ], [ -0.4615723, 39.4741589 ], [ -0.4615758, 39.4740598 ], [ -0.4615844, 39.473805 ], [ -0.4615846, 39.473805 ] ] ] } },
{ "type": "Feature", "properties": { "CCAA": "10 - Comunitat Valenciana", "PROVINCIA": "46 - Valencia/Valéncia", "MUNICIPIO": "46021 - Aldaia", "COD_MUNICIPIO": "46021", "DISTRITO": "01", "SECCION": "4602101001", "V1_H": 79.92, "V1_M": 85.8, "V2_H": 79.90391364, "V2_M": 85.68196434, "V3_H": 80.09820982, "V3_M": 86.14356104 }, "geometry": { "type": "Polygon", "coordinates": [ [ [ -0.464082, 39.4676365 ], [ -0.4641399, 39.4676731 ], [ -0.4642992, 39.4677502 ], [ -0.4646666, 39.4679119 ], [ -0.4647112, 39.4679366 ], [ -0.464752, 39.4679642 ], [ -0.4650075, 39.4680874 ], [ -0.4650197, 39.4680944 ], [ -0.4651748, 39.4681841 ], [ -0.4652858, 39.4682432 ], [ -0.4654111, 39.468103 ], [ -0.4654898, 39.4680109 ], [ -0.4655993, 39.4678885 ], [ -0.4657137, 39.4677599 ], [ -0.4657201, 39.4677526 ], [ -0.4658711, 39.4675829 ], [ -0.4659594, 39.4674842 ], [ -0.4660996, 39.467326 ], [ -0.4661212, 39.4673014 ], [ -0.4662252, 39.4671847 ], [ -0.4663304, 39.4670671 ], [ -0.466435, 39.4669493 ], [ -0.4664569, 39.4669246 ], [ -0.4665376, 39.4668341 ], [ -0.4666134, 39.4667491 ], [ -0.4666829, 39.4666714 ], [ -0.4667579, 39.4665873 ], [ -0.4668126, 39.466526 ], [ -0.466921, 39.4664032 ], [ -0.4670206, 39.4662919 ], [ -0.4671612, 39.4661346 ], [ -0.4673748, 39.4658936 ], [ -0.4677134, 39.4654505 ], [ -0.4675314, 39.4654387 ], [ -0.4671878, 39.4654035 ], [ -0.4667995, 39.4653742 ], [ -0.4665892, 39.4653551 ], [ -0.4665169, 39.4653466 ], [ -0.4661347, 39.4652998 ], [ -0.4655171, 39.4652273 ], [ -0.4653352, 39.4652067 ], [ -0.4651457, 39.4651878 ], [ -0.464894, 39.4651622 ], [ -0.4648932, 39.4651888 ], [ -0.4648706, 39.4654692 ], [ -0.4648677, 39.4654995 ], [ -0.4648584, 39.4654988 ], [ -0.4643747, 39.4654703 ], [ -0.4643456, 39.4654683 ], [ -0.4643054, 39.4657469 ], [ -0.4642491, 39.4663076 ], [ -0.4642444, 39.4663404 ], [ -0.4641817, 39.4668415 ], [ -0.4641637, 39.467002 ], [ -0.4641389, 39.4671937 ], [ -0.464082, 39.4676365 ] ] ] } },
{ "type": "Feature", "properties": { "CCAA": "10 - Comunitat Valenciana", "PROVINCIA": "46 - Valencia/Valéncia", "MUNICIPIO": "46021 - Aldaia", "COD_MUNICIPIO": "46021", "DISTRITO": "01", "SECCION": "4602101003", "V1_H": 80.02, "V1_M": 86.02, "V2_H": 79.96138623, "V2_M": 86.18252023, "V3_H": 80.18726569, "V3_M": 86.15258899 }, "geometry": { "type": "Polygon", "coordinates": [ [ [ -0.4589426, 39.4675411 ], [ -0.4598342, 39.4676932 ], [ -0.4600909, 39.4677526 ], [ -0.4601051, 39.4677565 ], [ -0.4601704, 39.4677744 ], [ -0.4603842, 39.46781 ], [ -0.4607228, 39.4679076 ], [ -0.4608277, 39.4679329 ], [ -0.4609236, 39.4675874 ], [ -0.461125, 39.4670993 ], [ -0.4612138, 39.4668506 ], [ -0.4612808, 39.466657 ], [ -0.4613663, 39.4664888 ], [ -0.4614395, 39.4663949 ], [ -0.4615866, 39.4662005 ], [ -0.4614448, 39.4661226 ], [ -0.4614891, 39.4660666 ], [ -0.4616806, 39.46578 ], [ -0.4619466, 39.4653929 ], [ -0.4618706, 39.4653683 ], [ -0.4617345, 39.4653391 ], [ -0.4617266, 39.4653344 ], [ -0.4616477, 39.4652878 ], [ -0.4616222, 39.4652481 ], [ -0.4616233, 39.465233 ], [ -0.4613853, 39.4651592 ], [ -0.4613685, 39.4651553 ], [ -0.4613089, 39.4651412 ], [ -0.461257, 39.465129 ], [ -0.4610794, 39.4650873 ], [ -0.4606034, 39.4649755 ], [ -0.4603696, 39.4649196 ], [ -0.4603579, 39.4650814 ], [ -0.4603234, 39.4654377 ], [ -0.4602525, 39.4657381 ], [ -0.4600818, 39.465829 ], [ -0.4599474, 39.4659298 ], [ -0.4598088, 39.4660247 ], [ -0.4596623, 39.4661938 ], [ -0.4595968, 39.4662585 ], [ -0.4595853, 39.4662698 ], [ -0.4595656, 39.4662892 ], [ -0.4595333, 39.4663218 ], [ -0.4594754, 39.46638 ], [ -0.4593631, 39.4665578 ], [ -0.4592492, 39.4667571 ], [ -0.4591623, 39.4669744 ], [ -0.4591038, 39.4671917 ], [ -0.4590218, 39.4674801 ], [ -0.4589426, 39.4675411 ] ] ] } },
{ "type": "Feature", "properties": { "CCAA": "10 - Comunitat Valenciana", "PROVINCIA": "46 - Valencia/Valéncia", "MUNICIPIO": "46021 - Aldaia", "COD_MUNICIPIO": "46021", "DISTRITO": "01", "SECCION": "4602101018", "V1_H": 80.01, "V1_M": 85.96, "V2_H": 79.87654463, "V2_M": 85.8497366, "V3_H": 80.24882261, "V3_M": 86.17409879 }, "geometry": { "type": "Polygon", "coordinates": [ [ [ -0.4686886, 39.4590372 ], [ -0.4701025, 39.4592108 ], [ -0.4701037, 39.4591964 ], [ -0.4701323, 39.458813 ], [ -0.4701877, 39.4576451 ], [ -0.4701907, 39.4574029 ], [ -0.4701866, 39.4571819 ], [ -0.4701923, 39.4571818 ], [ -0.4702337, 39.4571812 ], [ -0.4702531, 39.45718 ], [ -0.4702655, 39.4571792 ], [ -0.4702712, 39.4571586 ], [ -0.4702297, 39.4564488 ], [ -0.4683707, 39.456794 ], [ -0.4684836, 39.4577561 ], [ -0.4686215, 39.4583347 ], [ -0.4686886, 39.4590372 ] ] ] } },
{ "type": "Feature", "properties": { "CCAA": "10 - Comunitat Valenciana", "PROVINCIA": "46 - Valencia/Valéncia", "MUNICIPIO": "46021 - Aldaia", "COD_MUNICIPIO": "46021", "DISTRITO": "01", "SECCION": "4602101010", "V1_H": 80.25, "V1_M": 86.11, "V2_H": 80.02266353, "V2_M": 86.02270939, "V3_H": 80.50879823, "V3_M": 86.37032083 }, "geometry": { "type": "Polygon", "coordinates": [ [ [ -0.4631352, 39.4599664 ], [ -0.4640989, 39.46007 ], [ -0.4640547, 39.4602138 ], [ -0.4639767, 39.4604887 ], [ -0.4639022, 39.4608015 ], [ -0.4643273, 39.4608577 ], [ -0.4644272, 39.4608691 ], [ -0.4644708, 39.4612195 ], [ -0.4654417, 39.4610647 ], [ -0.4654331, 39.4610751 ], [ -0.4654815, 39.461074 ], [ -0.4656441, 39.4602951 ], [ -0.4658146, 39.4594364 ], [ -0.46592, 39.4589346 ], [ -0.4659708, 39.4586767 ], [ -0.4659741, 39.45866 ], [ -0.4659744, 39.4586584 ], [ -0.4660152, 39.4583664 ], [ -0.465264, 39.4583436 ], [ -0.4651911, 39.4583414 ], [ -0.4648647, 39.4583315 ], [ -0.4644921, 39.4583121 ], [ -0.4640348, 39.4582886 ], [ -0.463281, 39.4582556 ], [ -0.463286, 39.458273 ], [ -0.463303, 39.4590842 ], [ -0.4631352, 39.4599664 ] ] ] } },
{ "type": "Feature", "properties": { "CCAA": "10 - Comunitat Valenciana", "PROVINCIA": "46 - Valencia/Valéncia", "MUNICIPIO": "46021 - Aldaia", "COD_MUNICIPIO": "46021", "DISTRITO": "01", "SECCION": "4602101013", "V1_H": 79.35, "V1_M": 85.2, "V2_H": 79.29922448000001, "V2_M": 85.22530012, "V3_H": 79.59037894, "V3_M": 85.4114479 }, "geometry": { "type": "Polygon", "coordinates": [ [ [ -0.4615846, 39.473805 ], [ -0.4615844, 39.473805 ], [ -0.4615758, 39.4740598 ], [ -0.4615723, 39.4741589 ], [ -0.4615817, 39.4745223 ], [ -0.4615847, 39.4746353 ], [ -0.4615882, 39.4747758 ], [ -0.4615892, 39.474791 ], [ -0.4616001, 39.4749618 ], [ -0.4615958, 39.4750615 ], [ -0.4615931, 39.4751216 ], [ -0.4615546, 39.4753637 ], [ -0.4615187, 39.4755849 ], [ -0.4614562, 39.4757919 ], [ -0.4614173, 39.4759332 ], [ -0.4615086, 39.4759308 ], [ -0.4617674, 39.4759241 ], [ -0.4657791, 39.4758199 ], [ -0.4658059, 39.475315 ], [ -0.4658075, 39.4751607 ], [ -0.4658107, 39.474841 ], [ -0.4657038, 39.474842 ], [ -0.4656846, 39.4748422 ], [ -0.4651485, 39.4748475 ], [ -0.4648901, 39.47485 ], [ -0.464806, 39.4748508 ], [ -0.4646869, 39.474852 ], [ -0.4644346, 39.4748545 ], [ -0.4636784, 39.474862 ], [ -0.4636509, 39.4748623 ], [ -0.4636296, 39.4748624 ], [ -0.4636284, 39.474851 ], [ -0.4636373, 39.4747439 ], [ -0.4636675, 39.4746361 ], [ -0.4636296, 39.4746337 ], [ -0.4636427, 39.4742719 ], [ -0.4632497, 39.47425 ], [ -0.4631057, 39.474242 ], [ -0.4626642, 39.4742137 ], [ -0.4626941, 39.4741047 ], [ -0.4627005, 39.4741062 ], [ -0.4627145, 39.4739301 ], [ -0.4627331, 39.4738364 ], [ -0.4621473, 39.4738197 ], [ -0.4621471, 39.4738224 ], [ -0.4621375, 39.473822 ], [ -0.4618947, 39.4738129 ], [ -0.4618008, 39.4738094 ], [ -0.4616849, 39.473804 ], [ -0.4616587, 39.4738028 ], [ -0.4616586, 39.4738038 ], [ -0.4615846, 39.473805 ] ] ] } },
{ "type": "Feature", "properties": { "CCAA": "10 - Comunitat Valenciana", "PROVINCIA": "46 - Valencia/Valéncia", "MUNICIPIO": "46021 - Aldaia", "COD_MUNICIPIO": "46021", "DISTRITO": "01", "SECCION": "4602101006", "V1_H": 80.21, "V1_M": 86.17, "V2_H": 80.05188782, "V2_M": 86.17746221, "V3_H": 80.45086201, "V3_M": 86.3559927 }, "geometry": { "type": "Polygon", "coordinates": [ [ [ -0.464894, 39.4651622 ], [ -0.4651457, 39.4651878 ], [ -0.4653352, 39.4652067 ], [ -0.4653018, 39.4645953 ], [ -0.4652877, 39.4644872 ], [ -0.4652836, 39.4641893 ], [ -0.4652807, 39.4641472 ], [ -0.4652699, 39.4640431 ], [ -0.4652732, 39.4639881 ], [ -0.4652813, 39.4638518 ], [ -0.4653225, 39.4635966 ], [ -0.4653303, 39.463548 ], [ -0.465397, 39.4629931 ], [ -0.4656458, 39.463019 ], [ -0.4658177, 39.4628628 ], [ -0.4658096, 39.4628576 ], [ -0.4651928, 39.4624624 ], [ -0.4645781, 39.4620679 ], [ -0.464474, 39.4620085 ], [ -0.4643647, 39.4619461 ], [ -0.464207, 39.4618563 ], [ -0.4642047, 39.461855 ], [ -0.4639787, 39.461839 ], [ -0.4639572, 39.4618378 ], [ -0.4637405, 39.4618262 ], [ -0.4634795, 39.4618121 ], [ -0.4634166, 39.4618088 ], [ -0.4634061, 39.4618082 ], [ -0.4633516, 39.4618056 ], [ -0.4633257, 39.4618045 ], [ -0.4632603, 39.4618014 ], [ -0.4629374, 39.4617865 ], [ -0.4628439, 39.4617821 ], [ -0.4628434, 39.4617821 ], [ -0.462753, 39.4617588 ], [ -0.4627429, 39.4618258 ], [ -0.462692, 39.4622766 ], [ -0.4626852, 39.4623373 ], [ -0.4626407, 39.4627458 ], [ -0.4626404, 39.4627475 ], [ -0.4625394, 39.463335 ], [ -0.4624942, 39.4635349 ], [ -0.4624454, 39.4637351 ], [ -0.462413, 39.4639544 ], [ -0.4624128, 39.4639553 ], [ -0.4623967, 39.4640363 ], [ -0.4623575, 39.4641518 ], [ -0.4623388, 39.4644052 ], [ -0.4623387, 39.4644089 ], [ -0.462322, 39.4647266 ], [ -0.4623433, 39.4650229 ], [ -0.4623471, 39.4650494 ], [ -0.4624085, 39.4650466 ], [ -0.4625513, 39.4650443 ], [ -0.4627873, 39.4650461 ], [ -0.4630542, 39.4650537 ], [ -0.4637024, 39.4650821 ], [ -0.4642678, 39.4651125 ], [ -0.4645612, 39.4651368 ], [ -0.4648705, 39.4651599 ], [ -0.464894, 39.4651622 ] ] ] } },
{ "type": "Feature", "properties": { "CCAA": "10 - Comunitat Valenciana", "PROVINCIA": "46 - Valencia/Valéncia", "MUNICIPIO": "46021 - Aldaia", "COD_MUNICIPIO": "46021", "DISTRITO": "01", "SECCION": "4602101017", "V1_H": 80.01, "V1_M": 85.96, "V2_H": 79.87654463, "V2_M": 85.8497366, "V3_H": 80.24882261, "V3_M": 86.17409879 }, "geometry": { "type": "Polygon", "coordinates": [ [ [ -0.46592, 39.4589346 ], [ -0.4664914, 39.4589471 ], [ -0.4670472, 39.4588872 ], [ -0.4686886, 39.4590372 ], [ -0.4686215, 39.4583347 ], [ -0.4684836, 39.4577561 ], [ -0.4683707, 39.456794 ], [ -0.4679155, 39.4568785 ], [ -0.4669515, 39.4571818 ], [ -0.4662148, 39.4573507 ], [ -0.4661965, 39.457572 ], [ -0.4660152, 39.4583664 ], [ -0.4659744, 39.4586584 ], [ -0.4659741, 39.45866 ], [ -0.4659708, 39.4586767 ], [ -0.46592, 39.4589346 ] ] ] } }
]
}
