{
"type": "FeatureCollection",
"name": "46050",
"features": [
{ "type": "Feature", "properties": { "CCAA": "10 - Comunitat Valenciana", "PROVINCIA": "46 - Valencia/Valéncia", "MUNICIPIO": "46050 - Benagéber", "COD_MUNICIPIO": "46050", "DISTRITO": "01", "SECCION": "4605001001", "V1_H": 80.27, "V1_M": 86.36, "V2_H": 80.04050342, "V2_M": 86.25745667, "V3_H": 80.55487256000001, "V3_M": 86.64917866 }, "geometry": { "type": "Polygon", "coordinates": [ [ [ -1.0655864, 39.7395393 ], [ -1.0655865, 39.7395395 ], [ -1.0668585, 39.7399571 ], [ -1.067088, 39.740096 ], [ -1.0681057, 39.742095 ], [ -1.0701508, 39.7465885 ], [ -1.074102, 39.7501227 ], [ -1.0774748, 39.7526472 ], [ -1.0783559, 39.7532834 ], [ -1.0809298, 39.7551639 ], [ -1.0836065, 39.7571361 ], [ -1.0846703, 39.7579195 ], [ -1.087621, 39.7601213 ], [ -1.0938073, 39.7635205 ], [ -1.097144, 39.7627464 ], [ -1.1077187, 39.7632347 ], [ -1.1090477, 39.7633014 ], [ -1.1110661, 39.7633434 ], [ -1.1121275, 39.7633786 ], [ -1.114113, 39.7637713 ], [ -1.117135, 39.7646853 ], [ -1.1182265, 39.7649012 ], [ -1.1185585, 39.7651408 ], [ -1.1188883, 39.7654615 ], [ -1.1192356, 39.7655662 ], [ -1.1195515, 39.7655443 ], [ -1.1217296, 39.7648679 ], [ -1.1267078, 39.7638222 ], [ -1.1320485, 39.763611 ], [ -1.1340757, 39.7637608 ], [ -1.1359841, 39.7639896 ], [ -1.1364936, 39.764142 ], [ -1.1373549, 39.7651018 ], [ -1.1376892, 39.7652603 ], [ -1.1387898, 39.7655753 ], [ -1.1390898, 39.7657062 ], [ -1.1393395, 39.7659715 ], [ -1.1394397, 39.7661533 ], [ -1.1414205, 39.7684644 ], [ -1.1433886, 39.7690815 ], [ -1.1437672, 39.7693308 ], [ -1.1442228, 39.7697525 ], [ -1.1457741, 39.7711107 ], [ -1.1483597, 39.7730891 ], [ -1.1501045, 39.7746394 ], [ -1.1523886, 39.7726217 ], [ -1.1535055, 39.7714593 ], [ -1.1568885, 39.768504 ], [ -1.1599168, 39.7657052 ], [ -1.1624467, 39.7627632 ], [ -1.1630853, 39.7620166 ], [ -1.1637567, 39.7613515 ], [ -1.164769, 39.7601603 ], [ -1.1650733, 39.7596876 ], [ -1.1664394, 39.7557181 ], [ -1.1665289, 39.7549807 ], [ -1.1670084, 39.7536279 ], [ -1.1673547, 39.7528946 ], [ -1.1677863, 39.7515861 ], [ -1.1680042, 39.7512922 ], [ -1.1692843, 39.7501142 ], [ -1.1693321, 39.7500699 ], [ -1.1694228, 39.749729 ], [ -1.1694041, 39.7491161 ], [ -1.1691651, 39.7484456 ], [ -1.1686958, 39.7476544 ], [ -1.1685096, 39.747192 ], [ -1.1685537, 39.7468503 ], [ -1.1685573, 39.7467152 ], [ -1.1693291, 39.7448985 ], [ -1.169471, 39.7443872 ], [ -1.1695081, 39.7438653 ], [ -1.1693551, 39.7434754 ], [ -1.1677059, 39.7409719 ], [ -1.1615925, 39.7308118 ], [ -1.161054, 39.7234156 ], [ -1.1611902, 39.7169761 ], [ -1.1613024, 39.7149508 ], [ -1.1615089, 39.7137648 ], [ -1.1625882, 39.7091421 ], [ -1.1626589, 39.7082332 ], [ -1.1625467, 39.7036728 ], [ -1.1625422, 39.7016456 ], [ -1.16252, 39.6941313 ], [ -1.1629897, 39.689616 ], [ -1.1632077, 39.6879888 ], [ -1.1639911, 39.6852714 ], [ -1.1661817, 39.6804859 ], [ -1.1667864, 39.6792252 ], [ -1.1671005, 39.6783572 ], [ -1.1653203, 39.6773467 ], [ -1.1653136, 39.6773436 ], [ -1.1628142, 39.6762058 ], [ -1.1628142, 39.6762058 ], [ -1.1615655, 39.6756374 ], [ -1.1615652, 39.6756212 ], [ -1.1616416, 39.6727381 ], [ -1.1614954, 39.6716965 ], [ -1.1614945, 39.6716907 ], [ -1.1609036, 39.6693569 ], [ -1.1605729, 39.6677666 ], [ -1.1605728, 39.667766 ], [ -1.159993, 39.6672073 ], [ -1.159387, 39.6668109 ], [ -1.1593858, 39.6668101 ], [ -1.159383, 39.6668085 ], [ -1.1593205, 39.6667732 ], [ -1.1588103, 39.6665308 ], [ -1.1583045, 39.6662008 ], [ -1.1571259, 39.665432 ], [ -1.1537968, 39.6634961 ], [ -1.1505917, 39.6617243 ], [ -1.1477894, 39.6602757 ], [ -1.1477861, 39.660274 ], [ -1.1468345, 39.6597098 ], [ -1.146834, 39.6597095 ], [ -1.1463146, 39.6603947 ], [ -1.1449492, 39.6617604 ], [ -1.1395455, 39.6667912 ], [ -1.1394979, 39.6668265 ], [ -1.1392132, 39.6670111 ], [ -1.1372625, 39.6688898 ], [ -1.1361631, 39.6698903 ], [ -1.1323689, 39.6735501 ], [ -1.1301566, 39.6756047 ], [ -1.1290645, 39.6763259 ], [ -1.1257922, 39.6783362 ], [ -1.1253534, 39.6786085 ], [ -1.1198957, 39.6820879 ], [ -1.1178815, 39.6832625 ], [ -1.1122539, 39.6860992 ], [ -1.1021381, 39.6909975 ], [ -1.096909, 39.6937138 ], [ -1.0928681, 39.6960439 ], [ -1.0907767, 39.6995682 ], [ -1.0801701, 39.7174118 ], [ -1.0781143, 39.7208644 ], [ -1.0778969, 39.721131 ], [ -1.0770775, 39.7216491 ], [ -1.075827, 39.7225652 ], [ -1.0754271, 39.7230992 ], [ -1.0745688, 39.7250129 ], [ -1.0742206, 39.7253675 ], [ -1.0738419, 39.7255594 ], [ -1.0735955, 39.7256094 ], [ -1.0735951, 39.7256094 ], [ -1.0720313, 39.7256375 ], [ -1.071246, 39.7257686 ], [ -1.0707521, 39.7259045 ], [ -1.0703387, 39.7260868 ], [ -1.0698005, 39.7265553 ], [ -1.069407, 39.7272786 ], [ -1.0692872, 39.7278081 ], [ -1.069217, 39.7290682 ], [ -1.0655384, 39.7308538 ], [ -1.0627977, 39.731637 ], [ -1.0626428, 39.7317515 ], [ -1.0622163, 39.7336453 ], [ -1.0622787, 39.7339167 ], [ -1.062455, 39.734289 ], [ -1.0653698, 39.7391755 ], [ -1.0655869, 39.7395395 ], [ -1.0655864, 39.7395393 ] ] ] } }
]
}
