{
"type": "FeatureCollection",
"name": "46073",
"features": [
{ "type": "Feature", "properties": { "CCAA": "10 - Comunitat Valenciana", "PROVINCIA": "46 - Valencia/Valéncia", "MUNICIPIO": "46073 - Bolbaite", "COD_MUNICIPIO": "46073", "DISTRITO": "01", "SECCION": "4607301001", "V1_H": 79.85, "V1_M": 85.78, "V2_H": 79.86035794, "V2_M": 85.76242541000001, "V3_H": 79.99500792000001, "V3_M": 85.93655133 }, "geometry": { "type": "Polygon", "coordinates": [ [ [ -0.674168, 39.0779851 ], [ -0.6792695, 39.0796183 ], [ -0.6833129, 39.0796897 ], [ -0.6844888, 39.0794338 ], [ -0.6867241, 39.0789466 ], [ -0.6875427, 39.0786566 ], [ -0.6881032, 39.0784875 ], [ -0.6887716, 39.0781944 ], [ -0.6909197, 39.0775433 ], [ -0.6925226, 39.0769533 ], [ -0.6940982, 39.0764889 ], [ -0.6978847, 39.0755727 ], [ -0.6993583, 39.0756929 ], [ -0.6994871, 39.0757034 ], [ -0.7000237, 39.0755495 ], [ -0.7024856, 39.0748436 ], [ -0.704864, 39.0742147 ], [ -0.7096237, 39.0732182 ], [ -0.7149112, 39.0719795 ], [ -0.7269562, 39.0668992 ], [ -0.7343939, 39.0659809 ], [ -0.7347832, 39.0657362 ], [ -0.7352826, 39.0652955 ], [ -0.7357412, 39.0650521 ], [ -0.7381997, 39.0640637 ], [ -0.738664, 39.0640006 ], [ -0.7397861, 39.0640755 ], [ -0.7398057, 39.0640768 ], [ -0.7411079, 39.0638317 ], [ -0.7521897, 39.0588945 ], [ -0.7522329, 39.0588752 ], [ -0.7522925, 39.0588809 ], [ -0.7631552, 39.0599164 ], [ -0.7641923, 39.0600152 ], [ -0.7709517, 39.060415 ], [ -0.7730881, 39.0604648 ], [ -0.773089, 39.0604649 ], [ -0.7751354, 39.0594584 ], [ -0.7758934, 39.0590858 ], [ -0.7783724, 39.0584571 ], [ -0.7835581, 39.0571423 ], [ -0.7825113, 39.0610585 ], [ -0.7825112, 39.0610589 ], [ -0.7829523, 39.0609952 ], [ -0.7835648, 39.0606285 ], [ -0.7839822, 39.060213 ], [ -0.7841794, 39.0598203 ], [ -0.7850087, 39.0595387 ], [ -0.7870104, 39.0583514 ], [ -0.7876608, 39.0582466 ], [ -0.7891095, 39.0577426 ], [ -0.7899104, 39.0576316 ], [ -0.7934101, 39.0576889 ], [ -0.7945782, 39.057657 ], [ -0.7951512, 39.0578119 ], [ -0.7957096, 39.0580657 ], [ -0.79602, 39.0581167 ], [ -0.7962546, 39.058004 ], [ -0.7962845, 39.0577883 ], [ -0.7959582, 39.0575029 ], [ -0.7956148, 39.0573972 ], [ -0.795377, 39.0572396 ], [ -0.7952905, 39.0570487 ], [ -0.7954122, 39.0568528 ], [ -0.7959595, 39.056719 ], [ -0.796526, 39.0567117 ], [ -0.7968288, 39.0566364 ], [ -0.7970062, 39.0565046 ], [ -0.7971444, 39.0561468 ], [ -0.7972066, 39.0556344 ], [ -0.7973927, 39.0552234 ], [ -0.7997911, 39.0535298 ], [ -0.7999899, 39.0530832 ], [ -0.7998864, 39.0526938 ], [ -0.7994077, 39.0521081 ], [ -0.7990324, 39.0515424 ], [ -0.7991264, 39.0511207 ], [ -0.7993658, 39.0508549 ], [ -0.7998646, 39.0507922 ], [ -0.8023738, 39.0514792 ], [ -0.8037397, 39.0517753 ], [ -0.8042374, 39.0517486 ], [ -0.8046337, 39.051639 ], [ -0.8051326, 39.0508285 ], [ -0.8054863, 39.0498531 ], [ -0.8056343, 39.0491801 ], [ -0.8062795, 39.0488679 ], [ -0.8065332, 39.0488817 ], [ -0.8069359, 39.0485649 ], [ -0.8072617, 39.0484899 ], [ -0.8075499, 39.0485134 ], [ -0.8079573, 39.0487913 ], [ -0.8085882, 39.0489384 ], [ -0.8094892, 39.0485769 ], [ -0.8096907, 39.0484095 ], [ -0.8098441, 39.0479348 ], [ -0.8101233, 39.0474986 ], [ -0.8100336, 39.0470374 ], [ -0.8096516, 39.0463094 ], [ -0.8091391, 39.0456961 ], [ -0.8089652, 39.0453415 ], [ -0.8089017, 39.0447816 ], [ -0.8093546, 39.0443306 ], [ -0.8100113, 39.0440187 ], [ -0.8111971, 39.0437796 ], [ -0.8124479, 39.043686 ], [ -0.8133327, 39.0434684 ], [ -0.814187, 39.0431149 ], [ -0.8146237, 39.0428167 ], [ -0.8148009, 39.0423155 ], [ -0.814847, 39.0408208 ], [ -0.8151348, 39.0401053 ], [ -0.815396, 39.039876 ], [ -0.8158235, 39.039875 ], [ -0.81647, 39.0402655 ], [ -0.8178669, 39.0425532 ], [ -0.8182222, 39.0430193 ], [ -0.8186233, 39.043126 ], [ -0.8192026, 39.0430737 ], [ -0.820034, 39.0430893 ], [ -0.8207403, 39.0430394 ], [ -0.8214918, 39.042648 ], [ -0.8219463, 39.0421429 ], [ -0.8220908, 39.041578 ], [ -0.8220277, 39.0410002 ], [ -0.8218202, 39.0406089 ], [ -0.8219154, 39.0401422 ], [ -0.8222811, 39.0398967 ], [ -0.8228021, 39.0398614 ], [ -0.8245079, 39.0403708 ], [ -0.8252851, 39.0406466 ], [ -0.8257385, 39.0405559 ], [ -0.8263065, 39.040116 ], [ -0.8268836, 39.0397574 ], [ -0.8271992, 39.0392587 ], [ -0.8278347, 39.0385047 ], [ -0.8281429, 39.0382491 ], [ -0.8286548, 39.0381325 ], [ -0.8295076, 39.0382025 ], [ -0.8311403, 39.0380797 ], [ -0.831724, 39.0378833 ], [ -0.8324888, 39.0378075 ], [ -0.8325806, 39.0374487 ], [ -0.8325807, 39.0374486 ], [ -0.8322845, 39.0373261 ], [ -0.8319257, 39.0369681 ], [ -0.8315673, 39.0362226 ], [ -0.8308804, 39.0352638 ], [ -0.8291044, 39.0336539 ], [ -0.8269538, 39.0318299 ], [ -0.8258631, 39.0293498 ], [ -0.8142921, 39.0236103 ], [ -0.8138326, 39.0234035 ], [ -0.8085278, 39.0210153 ], [ -0.8066592, 39.0201873 ], [ -0.8036032, 39.0189134 ], [ -0.8036031, 39.0189136 ], [ -0.8036027, 39.0189134 ], [ -0.8020809, 39.0203173 ], [ -0.7970832, 39.0228088 ], [ -0.7966683, 39.0230803 ], [ -0.7920249, 39.0261189 ], [ -0.7865796, 39.0288628 ], [ -0.7817481, 39.0311766 ], [ -0.7715915, 39.03383 ], [ -0.7640172, 39.0351716 ], [ -0.7639357, 39.0351883 ], [ -0.7595172, 39.0360944 ], [ -0.7539444, 39.0366178 ], [ -0.7539439, 39.0366179 ], [ -0.7483828, 39.0367538 ], [ -0.7463814, 39.0368413 ], [ -0.7382359, 39.0375935 ], [ -0.7302264, 39.0373568 ], [ -0.7302259, 39.0373568 ], [ -0.7234957, 39.0368562 ], [ -0.7234952, 39.0368562 ], [ -0.7167245, 39.0383185 ], [ -0.710061, 39.0418188 ], [ -0.7009745, 39.0462609 ], [ -0.7003523, 39.0465651 ], [ -0.6950627, 39.0496951 ], [ -0.6910445, 39.0510302 ], [ -0.6875456, 39.0509788 ], [ -0.687545, 39.0509788 ], [ -0.6812168, 39.0508801 ], [ -0.678167, 39.0519187 ], [ -0.6733604, 39.0536698 ], [ -0.6731615, 39.0537469 ], [ -0.6730196, 39.0538431 ], [ -0.6730276, 39.0539515 ], [ -0.6733646, 39.0542465 ], [ -0.6735305, 39.054475 ], [ -0.6735336, 39.0549984 ], [ -0.673534, 39.0550697 ], [ -0.6737262, 39.0555511 ], [ -0.6737283, 39.0558394 ], [ -0.6735101, 39.0561504 ], [ -0.6729706, 39.0567433 ], [ -0.6726049, 39.0569702 ], [ -0.6724412, 39.05703 ], [ -0.6719962, 39.0572104 ], [ -0.6713148, 39.0575482 ], [ -0.6707952, 39.0582405 ], [ -0.6694908, 39.0592505 ], [ -0.6686285, 39.0612244 ], [ -0.6660169, 39.0629741 ], [ -0.6666085, 39.0632562 ], [ -0.6677163, 39.0640082 ], [ -0.6682985, 39.0645785 ], [ -0.6685182, 39.0649252 ], [ -0.6686144, 39.0658641 ], [ -0.668546, 39.0665385 ], [ -0.6683807, 39.0669947 ], [ -0.6681758, 39.0672519 ], [ -0.6681823, 39.0674052 ], [ -0.6691915, 39.0683443 ], [ -0.6692451, 39.0684715 ], [ -0.6691595, 39.068614 ], [ -0.6692102, 39.0688312 ], [ -0.6693535, 39.0690413 ], [ -0.6696571, 39.0692997 ], [ -0.6703356, 39.0697547 ], [ -0.6707318, 39.0703573 ], [ -0.6726905, 39.0761716 ], [ -0.6741682, 39.077985 ], [ -0.674168, 39.0779851 ] ] ] } }
]
}
