{
"type": "FeatureCollection",
"name": "46070",
"features": [
{ "type": "Feature", "properties": { "CCAA": "10 - Comunitat Valenciana", "PROVINCIA": "46 - Valencia/Valéncia", "MUNICIPIO": "46070 - Bétera", "COD_MUNICIPIO": "46070", "DISTRITO": "01", "SECCION": "4607001002", "V1_H": 80.23, "V1_M": 86.04, "V2_H": 80.01377171, "V2_M": 86.1814847, "V3_H": 80.55154758, "V3_M": 86.06989916000001 }, "geometry": { "type": "Polygon", "coordinates": [ [ [ -0.4591262, 39.5968688 ], [ -0.4599764, 39.5972115 ], [ -0.4620711, 39.5975984 ], [ -0.4629692, 39.595899 ], [ -0.462958, 39.5958964 ], [ -0.4632621, 39.5953193 ], [ -0.4621458, 39.595001 ], [ -0.4621961, 39.5948979 ], [ -0.462275, 39.594571 ], [ -0.4623337, 39.5941193 ], [ -0.4617321, 39.5940178 ], [ -0.4613525, 39.5939523 ], [ -0.4606568, 39.5937174 ], [ -0.4606519, 39.5937223 ], [ -0.4598639, 39.5934478 ], [ -0.4584017, 39.5929416 ], [ -0.4584302, 39.5928381 ], [ -0.4569609, 39.5923974 ], [ -0.4569572, 39.5927169 ], [ -0.456497, 39.592822 ], [ -0.4562881, 39.5929328 ], [ -0.4561689, 39.5933912 ], [ -0.4564013, 39.5936557 ], [ -0.4563768, 39.5943253 ], [ -0.4561985, 39.5955022 ], [ -0.4568292, 39.5957434 ], [ -0.4576034, 39.5958406 ], [ -0.45756, 39.5961213 ], [ -0.4581427, 39.5963678 ], [ -0.4581593, 39.5963389 ], [ -0.4591262, 39.5968688 ] ] ] } },
{ "type": "Feature", "properties": { "CCAA": "10 - Comunitat Valenciana", "PROVINCIA": "46 - Valencia/Valéncia", "MUNICIPIO": "46070 - Bétera", "COD_MUNICIPIO": "46070", "DISTRITO": "02", "SECCION": "4607002004", "V1_H": 79.78, "V1_M": 85.67, "V2_H": 79.78305357000001, "V2_M": 85.83721796, "V3_H": 80.07461692, "V3_M": 85.64972132 }, "geometry": { "type": "Polygon", "coordinates": [ [ [ -0.4522049, 39.5895807 ], [ -0.4531902, 39.5901302 ], [ -0.4545538, 39.5897407 ], [ -0.454851, 39.5894628 ], [ -0.4548529, 39.5894637 ], [ -0.4557282, 39.5885522 ], [ -0.4563835, 39.5878632 ], [ -0.4568226, 39.5873473 ], [ -0.4571715, 39.5869373 ], [ -0.4573708, 39.586729 ], [ -0.4549354, 39.5851785 ], [ -0.4540148, 39.585865 ], [ -0.4539972, 39.585854 ], [ -0.4539915, 39.585849 ], [ -0.4536521, 39.5855464 ], [ -0.4532972, 39.5852224 ], [ -0.4529294, 39.5846792 ], [ -0.4528237, 39.5842725 ], [ -0.4493077, 39.5834056 ], [ -0.4459786, 39.5848133 ], [ -0.4469009, 39.5854461 ], [ -0.446924, 39.5854386 ], [ -0.4478868, 39.5860761 ], [ -0.448259, 39.5863533 ], [ -0.4487865, 39.5866607 ], [ -0.4495691, 39.5871217 ], [ -0.4503498, 39.5876365 ], [ -0.451052, 39.5879209 ], [ -0.4510594, 39.587915 ], [ -0.4530627, 39.5887033 ], [ -0.4522049, 39.5895807 ] ] ] } },
{ "type": "Feature", "properties": { "CCAA": "10 - Comunitat Valenciana", "PROVINCIA": "46 - Valencia/Valéncia", "MUNICIPIO": "46070 - Bétera", "COD_MUNICIPIO": "46070", "DISTRITO": "02", "SECCION": "4607002002", "V1_H": 80.39, "V1_M": 86.24, "V2_H": 80.20629068, "V2_M": 86.34105578, "V3_H": 80.66489809, "V3_M": 86.38520791000001 }, "geometry": { "type": "Polygon", "coordinates": [ [ [ -0.4584302, 39.5928381 ], [ -0.4584017, 39.5929416 ], [ -0.4598639, 39.5934478 ], [ -0.4606519, 39.5937223 ], [ -0.4606568, 39.5937174 ], [ -0.4613525, 39.5939523 ], [ -0.4617321, 39.5940178 ], [ -0.4623337, 39.5941193 ], [ -0.4623483, 39.5940069 ], [ -0.4624116, 39.5940197 ], [ -0.4624954, 39.5939283 ], [ -0.462545, 39.5938742 ], [ -0.4627226, 39.5933551 ], [ -0.4628297, 39.5933667 ], [ -0.462954, 39.5930733 ], [ -0.4630923, 39.5928913 ], [ -0.4634335, 39.5927183 ], [ -0.4636027, 39.5925045 ], [ -0.4637364, 39.5922853 ], [ -0.4637692, 39.5920408 ], [ -0.4638311, 39.59182 ], [ -0.4639254, 39.5915306 ], [ -0.46404, 39.591319 ], [ -0.4628416, 39.5909667 ], [ -0.4628471, 39.5909564 ], [ -0.4627739, 39.5908704 ], [ -0.4611913, 39.5903856 ], [ -0.4611219, 39.5904727 ], [ -0.4608837, 39.5907721 ], [ -0.4598954, 39.5920803 ], [ -0.4591644, 39.5930321 ], [ -0.4584302, 39.5928381 ] ] ] } },
{ "type": "Feature", "properties": { "CCAA": "10 - Comunitat Valenciana", "PROVINCIA": "46 - Valencia/Valéncia", "MUNICIPIO": "46070 - Bétera", "COD_MUNICIPIO": "46070", "DISTRITO": "01", "SECCION": "4607001003", "V1_H": 80.65, "V1_M": 86.4, "V2_H": 80.41087182, "V2_M": 86.2775211, "V3_H": 80.94660094, "V3_M": 86.57847437 }, "geometry": { "type": "MultiPolygon", "coordinates": [ [ [ [ -0.4642918, 39.5870202 ], [ -0.4641428, 39.5871516 ], [ -0.4633705, 39.5878324 ], [ -0.4627575, 39.5883786 ], [ -0.4626711, 39.5886228 ], [ -0.4624443, 39.5889278 ], [ -0.462263, 39.5890001 ], [ -0.4611913, 39.5903856 ], [ -0.4627739, 39.5908704 ], [ -0.4628471, 39.5909564 ], [ -0.4628416, 39.5909667 ], [ -0.46404, 39.591319 ], [ -0.4640532, 39.5912946 ], [ -0.4642847, 39.5909074 ], [ -0.4644499, 39.5906308 ], [ -0.4645159, 39.590532 ], [ -0.4645922, 39.5904178 ], [ -0.4651119, 39.5897886 ], [ -0.4653762, 39.5894764 ], [ -0.4660384, 39.5886941 ], [ -0.466146, 39.5885728 ], [ -0.4663936, 39.5883692 ], [ -0.4642918, 39.5870202 ] ] ], [ [ [ -0.4635549, 39.6431589 ], [ -0.463555, 39.643159 ], [ -0.4693681, 39.6447993 ], [ -0.4701407, 39.6450234 ], [ -0.4869578, 39.649794 ], [ -0.486958, 39.6497941 ], [ -0.4928232, 39.6503263 ], [ -0.4928239, 39.6503263 ], [ -0.4969984, 39.6486417 ], [ -0.5003301, 39.6470559 ], [ -0.5004013, 39.6470214 ], [ -0.5015019, 39.6464524 ], [ -0.5015298, 39.646438 ], [ -0.5030611, 39.6456462 ], [ -0.5065119, 39.6439817 ], [ -0.508513, 39.6430967 ], [ -0.5109335, 39.6418786 ], [ -0.5109338, 39.6418784 ], [ -0.5109339, 39.6418783 ], [ -0.5109342, 39.6418779 ], [ -0.5112168, 39.6414611 ], [ -0.5116821, 39.6401828 ], [ -0.51286, 39.6375504 ], [ -0.5135454, 39.6354114 ], [ -0.5136054, 39.635224 ], [ -0.5138176, 39.6345619 ], [ -0.5143889, 39.6332499 ], [ -0.5150587, 39.6316633 ], [ -0.5150636, 39.6316517 ], [ -0.5152039, 39.6311207 ], [ -0.5111752, 39.6288199 ], [ -0.505861, 39.6257311 ], [ -0.502992, 39.6246016 ], [ -0.4977319, 39.6213992 ], [ -0.491766, 39.618639 ], [ -0.4878207, 39.6159223 ], [ -0.4836726, 39.6147265 ], [ -0.4807676, 39.6132524 ], [ -0.4796966, 39.611513 ], [ -0.4788734, 39.6097408 ], [ -0.4770976, 39.6084056 ], [ -0.474424, 39.6073559 ], [ -0.4731188, 39.606641 ], [ -0.4711982, 39.6052263 ], [ -0.4687829, 39.602504 ], [ -0.46731, 39.6009846 ], [ -0.4654798, 39.5998005 ], [ -0.4631682, 39.5983008 ], [ -0.4631124, 39.5976945 ], [ -0.4631147, 39.5976865 ], [ -0.4623546, 39.597661 ], [ -0.4620605, 39.5976185 ], [ -0.4620711, 39.5975984 ], [ -0.4599764, 39.5972115 ], [ -0.4591262, 39.5968688 ], [ -0.4581593, 39.5963389 ], [ -0.4581427, 39.5963678 ], [ -0.4575402, 39.5961129 ], [ -0.4575397, 39.5961126 ], [ -0.4575357, 39.5961274 ], [ -0.4573547, 39.5968005 ], [ -0.4571287, 39.5976411 ], [ -0.4568591, 39.5986113 ], [ -0.4566885, 39.5992252 ], [ -0.4564227, 39.6002247 ], [ -0.4562591, 39.6007238 ], [ -0.4560309, 39.601112 ], [ -0.454837, 39.6030284 ], [ -0.4540356, 39.6042468 ], [ -0.4526303, 39.6065044 ], [ -0.45237, 39.6069304 ], [ -0.4514033, 39.6084852 ], [ -0.4508821, 39.6093548 ], [ -0.4503874, 39.6101275 ], [ -0.4496325, 39.6113232 ], [ -0.4491045, 39.612169 ], [ -0.4487641, 39.6124868 ], [ -0.4483412, 39.6127614 ], [ -0.4460514, 39.6139502 ], [ -0.4440565, 39.6150362 ], [ -0.4426953, 39.6158288 ], [ -0.4423182, 39.6161528 ], [ -0.4410673, 39.6180361 ], [ -0.4375342, 39.6235413 ], [ -0.4363294, 39.6254418 ], [ -0.4370979, 39.6259472 ], [ -0.4375875, 39.6262553 ], [ -0.4474092, 39.6325708 ], [ -0.4523787, 39.6362115 ], [ -0.4537537, 39.6371605 ], [ -0.456957, 39.6390956 ], [ -0.4597137, 39.6407685 ], [ -0.4615622, 39.6418902 ], [ -0.4635341, 39.6431457 ], [ -0.4635546, 39.6431587 ], [ -0.4635549, 39.6431589 ] ], [ [ -0.4618761, 39.6163401 ], [ -0.4616626, 39.6157729 ], [ -0.4615415, 39.6136918 ], [ -0.4611641, 39.6135596 ], [ -0.460855, 39.6132477 ], [ -0.4605765, 39.6127744 ], [ -0.4598263, 39.6120525 ], [ -0.4593828, 39.6117091 ], [ -0.4588139, 39.6110864 ], [ -0.4587008, 39.6108075 ], [ -0.4587581, 39.6105894 ], [ -0.4588133, 39.6104286 ], [ -0.458916, 39.6103164 ], [ -0.459622, 39.60955 ], [ -0.4599421, 39.6092233 ], [ -0.4604952, 39.6089303 ], [ -0.4610824, 39.6087144 ], [ -0.4617695, 39.6084624 ], [ -0.4623939, 39.607904 ], [ -0.462871, 39.6076666 ], [ -0.4630424, 39.607022 ], [ -0.4635172, 39.606508 ], [ -0.463882, 39.6069831 ], [ -0.4640353, 39.6075108 ], [ -0.46432, 39.6074789 ], [ -0.4644542, 39.6078537 ], [ -0.464429, 39.6082059 ], [ -0.464093, 39.6082939 ], [ -0.46465, 39.6089067 ], [ -0.4641462, 39.6092008 ], [ -0.4650579, 39.6098881 ], [ -0.4640225, 39.6105615 ], [ -0.4644102, 39.6110848 ], [ -0.4637517, 39.6125769 ], [ -0.4640652, 39.6131081 ], [ -0.4643743, 39.61342 ], [ -0.4647825, 39.6150688 ], [ -0.4648352, 39.6158651 ], [ -0.463827, 39.6159155 ], [ -0.4636198, 39.6151769 ], [ -0.4634569, 39.6152496 ], [ -0.4632553, 39.6153691 ], [ -0.4632599, 39.615579 ], [ -0.4630368, 39.6156122 ], [ -0.4629604, 39.6153436 ], [ -0.4625922, 39.6152974 ], [ -0.4625611, 39.6158116 ], [ -0.4626851, 39.6161289 ], [ -0.4627633, 39.6163499 ], [ -0.4618761, 39.6163401 ] ], [ [ -0.5026908, 39.6425673 ], [ -0.4994159, 39.6441271 ], [ -0.4991217, 39.6440575 ], [ -0.4927971, 39.637196 ], [ -0.4860593, 39.6298423 ], [ -0.4870615, 39.6294064 ], [ -0.4882732, 39.6286317 ], [ -0.4887029, 39.6290224 ], [ -0.4897857, 39.629084 ], [ -0.4912132, 39.6305259 ], [ -0.493698, 39.6351274 ], [ -0.4937219, 39.6354902 ], [ -0.4926711, 39.6359061 ], [ -0.493232, 39.6364235 ], [ -0.493652, 39.6360608 ], [ -0.4938964, 39.6361233 ], [ -0.4943561, 39.6356851 ], [ -0.4958298, 39.6365368 ], [ -0.5031749, 39.6352839 ], [ -0.5048766, 39.6359689 ], [ -0.5061074, 39.6374064 ], [ -0.5072711, 39.6372788 ], [ -0.5090195, 39.6387274 ], [ -0.5100929, 39.6390556 ], [ -0.5110363, 39.640258 ], [ -0.5094947, 39.6412928 ], [ -0.5091784, 39.6418581 ], [ -0.5083699, 39.6423937 ], [ -0.5079448, 39.6425562 ], [ -0.505051, 39.6427801 ], [ -0.5044561, 39.6421762 ], [ -0.5030626, 39.6418316 ], [ -0.5030369, 39.6422029 ], [ -0.5026908, 39.6425673 ] ] ] ] } },
{ "type": "Feature", "properties": { "CCAA": "10 - Comunitat Valenciana", "PROVINCIA": "46 - Valencia/Valéncia", "MUNICIPIO": "46070 - Bétera", "COD_MUNICIPIO": "46070", "DISTRITO": "02", "SECCION": "4607002003", "V1_H": 80.78, "V1_M": 86.64, "V2_H": 80.55514168000001, "V2_M": 86.45889906, "V3_H": 81.06237696, "V3_M": 86.87120108000001 }, "geometry": { "type": "MultiPolygon", "coordinates": [ [ [ [ -0.477807, 39.5786513 ], [ -0.478022, 39.5791804 ], [ -0.4779648, 39.5793984 ], [ -0.4779551, 39.5796652 ], [ -0.478073, 39.5798107 ], [ -0.4785333, 39.5800305 ], [ -0.4793259, 39.5802574 ], [ -0.48005, 39.5806027 ], [ -0.4809049, 39.5802059 ], [ -0.4816241, 39.5800785 ], [ -0.4822907, 39.5800453 ], [ -0.482909, 39.5799824 ], [ -0.4836341, 39.579693 ], [ -0.4852246, 39.5786405 ], [ -0.4864087, 39.5779225 ], [ -0.4864029, 39.5777412 ], [ -0.4866068, 39.5775549 ], [ -0.4864429, 39.5766361 ], [ -0.4859349, 39.576034 ], [ -0.4851544, 39.5764938 ], [ -0.4850357, 39.5767105 ], [ -0.4839935, 39.5772505 ], [ -0.4834933, 39.5767724 ], [ -0.4822412, 39.5773269 ], [ -0.4811641, 39.5781521 ], [ -0.4804406, 39.5777169 ], [ -0.479662, 39.5784627 ], [ -0.4790835, 39.578107 ], [ -0.4783767, 39.5789116 ], [ -0.477807, 39.5786513 ] ] ], [ [ [ -0.4545538, 39.5897407 ], [ -0.4531704, 39.5901358 ], [ -0.4555105, 39.5915294 ], [ -0.4556845, 39.5913296 ], [ -0.4557038, 39.5913455 ], [ -0.4557042, 39.591345 ], [ -0.4560109, 39.5909882 ], [ -0.4561972, 39.5906966 ], [ -0.4564075, 39.5901788 ], [ -0.4564031, 39.5901768 ], [ -0.4570803, 39.5894291 ], [ -0.4579273, 39.5885844 ], [ -0.4586511, 39.5878603 ], [ -0.4586779, 39.5878335 ], [ -0.4585177, 39.5876942 ], [ -0.4585271, 39.5876878 ], [ -0.4580254, 39.587277 ], [ -0.4580282, 39.5872741 ], [ -0.4573773, 39.5867222 ], [ -0.4571715, 39.5869373 ], [ -0.4568226, 39.5873473 ], [ -0.4563835, 39.5878632 ], [ -0.4557282, 39.5885522 ], [ -0.4548529, 39.5894637 ], [ -0.454851, 39.5894628 ], [ -0.4545538, 39.5897407 ] ] ], [ [ [ -0.4611641, 39.6135596 ], [ -0.4615415, 39.6136918 ], [ -0.4616626, 39.6157729 ], [ -0.4618761, 39.6163401 ], [ -0.4627633, 39.6163499 ], [ -0.4626851, 39.6161289 ], [ -0.4625611, 39.6158116 ], [ -0.4625922, 39.6152974 ], [ -0.4629604, 39.6153436 ], [ -0.4630368, 39.6156122 ], [ -0.4632599, 39.615579 ], [ -0.4632553, 39.6153691 ], [ -0.4634569, 39.6152496 ], [ -0.4636198, 39.6151769 ], [ -0.463827, 39.6159155 ], [ -0.4648352, 39.6158651 ], [ -0.4647825, 39.6150688 ], [ -0.4643743, 39.61342 ], [ -0.4640652, 39.6131081 ], [ -0.4637517, 39.6125769 ], [ -0.4644102, 39.6110848 ], [ -0.4640225, 39.6105615 ], [ -0.4650579, 39.6098881 ], [ -0.4641462, 39.6092008 ], [ -0.46465, 39.6089067 ], [ -0.464093, 39.6082939 ], [ -0.464429, 39.6082059 ], [ -0.4644542, 39.6078537 ], [ -0.46432, 39.6074789 ], [ -0.4640353, 39.6075108 ], [ -0.463882, 39.6069831 ], [ -0.4635172, 39.606508 ], [ -0.4630424, 39.607022 ], [ -0.462871, 39.6076666 ], [ -0.4623939, 39.607904 ], [ -0.4617695, 39.6084624 ], [ -0.4610824, 39.6087144 ], [ -0.4604952, 39.6089303 ], [ -0.4599421, 39.6092233 ], [ -0.459622, 39.60955 ], [ -0.458916, 39.6103164 ], [ -0.4588133, 39.6104286 ], [ -0.4587581, 39.6105894 ], [ -0.4587008, 39.6108075 ], [ -0.4588139, 39.6110864 ], [ -0.4593828, 39.6117091 ], [ -0.4598263, 39.6120525 ], [ -0.4605765, 39.6127744 ], [ -0.460855, 39.6132477 ], [ -0.4611641, 39.6135596 ] ] ] ] } },
{ "type": "Feature", "properties": { "CCAA": "10 - Comunitat Valenciana", "PROVINCIA": "46 - Valencia/Valéncia", "MUNICIPIO": "46070 - Bétera", "COD_MUNICIPIO": "46070", "DISTRITO": "02", "SECCION": "4607002006", "V1_H": 83.02, "V1_M": 87.55, "V2_H": 82.56010262, "V2_M": 87.39744151, "V3_H": 83.4975015, "V3_M": 87.7973198 }, "geometry": { "type": "Polygon", "coordinates": [ [ [ -0.4623146, 39.5610057 ], [ -0.4623561, 39.5610044 ], [ -0.4630237, 39.5629639 ], [ -0.4651983, 39.5627826 ], [ -0.4654373, 39.568394 ], [ -0.4661759, 39.5684101 ], [ -0.4658359, 39.5723308 ], [ -0.4667513, 39.5742577 ], [ -0.4665897, 39.5746355 ], [ -0.4663109, 39.5741718 ], [ -0.4658171, 39.5741992 ], [ -0.4649398, 39.575286 ], [ -0.4653593, 39.5759435 ], [ -0.4649557, 39.5762016 ], [ -0.4653177, 39.5770867 ], [ -0.4643779, 39.5771806 ], [ -0.4645852, 39.578253 ], [ -0.4655728, 39.5781982 ], [ -0.4684782, 39.5809694 ], [ -0.4701089, 39.5808524 ], [ -0.4712159, 39.5802281 ], [ -0.4715012, 39.5803568 ], [ -0.4718563, 39.5801439 ], [ -0.472119, 39.5799864 ], [ -0.4743246, 39.5807753 ], [ -0.4779593, 39.5795492 ], [ -0.4779648, 39.5793984 ], [ -0.478022, 39.5791804 ], [ -0.477807, 39.5786513 ], [ -0.4783767, 39.5789116 ], [ -0.4790835, 39.578107 ], [ -0.479662, 39.5784627 ], [ -0.4804406, 39.5777169 ], [ -0.4811641, 39.5781521 ], [ -0.4822412, 39.5773269 ], [ -0.4834933, 39.5767724 ], [ -0.4839935, 39.5772505 ], [ -0.4850357, 39.5767105 ], [ -0.4851544, 39.5764938 ], [ -0.4858162, 39.5761039 ], [ -0.4859349, 39.576034 ], [ -0.4859769, 39.5760838 ], [ -0.4886731, 39.5744506 ], [ -0.4835678, 39.5721638 ], [ -0.4836153, 39.5719368 ], [ -0.4841765, 39.5716645 ], [ -0.4858149, 39.5708287 ], [ -0.4868672, 39.5703181 ], [ -0.4874447, 39.5698955 ], [ -0.4873772, 39.5698508 ], [ -0.4870845, 39.5696571 ], [ -0.4865718, 39.5693178 ], [ -0.4863042, 39.5696364 ], [ -0.4859545, 39.5699712 ], [ -0.4855015, 39.5702676 ], [ -0.485073, 39.5705286 ], [ -0.4846833, 39.5706824 ], [ -0.4842729, 39.5707636 ], [ -0.4837676, 39.5708968 ], [ -0.483311, 39.5709679 ], [ -0.4827039, 39.5710179 ], [ -0.4821676, 39.5710423 ], [ -0.4820887, 39.570999 ], [ -0.4819621, 39.5709297 ], [ -0.4815764, 39.5706511 ], [ -0.4811584, 39.5702996 ], [ -0.4811549, 39.5702969 ], [ -0.4809547, 39.5701421 ], [ -0.4809336, 39.570104 ], [ -0.4808891, 39.5700235 ], [ -0.480896, 39.5695102 ], [ -0.4809236, 39.5690693 ], [ -0.4809337, 39.5687903 ], [ -0.4810117, 39.5685667 ], [ -0.4811713, 39.568336 ], [ -0.4812858, 39.5682277 ], [ -0.4807968, 39.5677771 ], [ -0.4802985, 39.5672515 ], [ -0.4790694, 39.5678541 ], [ -0.4789658, 39.5677086 ], [ -0.4760273, 39.5668155 ], [ -0.4740779, 39.5662201 ], [ -0.4740844, 39.5662082 ], [ -0.4730571, 39.5658356 ], [ -0.4716526, 39.5658432 ], [ -0.4715298, 39.565154 ], [ -0.4716549, 39.5650996 ], [ -0.4717281, 39.5651202 ], [ -0.4722232, 39.5650547 ], [ -0.4723498, 39.5649621 ], [ -0.4724278, 39.5648494 ], [ -0.4724319, 39.5647351 ], [ -0.4723878, 39.5639142 ], [ -0.4730334, 39.5637757 ], [ -0.47316, 39.5636831 ], [ -0.4728915, 39.5629336 ], [ -0.4716819, 39.5630026 ], [ -0.4711218, 39.5614649 ], [ -0.4715698, 39.5613412 ], [ -0.4716724, 39.561229 ], [ -0.4716117, 39.5608654 ], [ -0.4705348, 39.5606703 ], [ -0.4701368, 39.560776 ], [ -0.4689088, 39.560673 ], [ -0.4667925, 39.5606078 ], [ -0.4665807, 39.5603362 ], [ -0.4664687, 39.5600287 ], [ -0.4658433, 39.5596146 ], [ -0.4654311, 39.559434 ], [ -0.4622836, 39.5596122 ], [ -0.4623146, 39.5610057 ] ] ] } },
{ "type": "Feature", "properties": { "CCAA": "10 - Comunitat Valenciana", "PROVINCIA": "46 - Valencia/Valéncia", "MUNICIPIO": "46070 - Bétera", "COD_MUNICIPIO": "46070", "DISTRITO": "01", "SECCION": "4607001001", "V1_H": 81.0, "V1_M": 86.46, "V2_H": 80.73228769000001, "V2_M": 86.26471443, "V3_H": 81.28044537, "V3_M": 86.73149122 }, "geometry": { "type": "MultiPolygon", "coordinates": [ [ [ [ -0.4796665, 39.5638996 ], [ -0.4789896, 39.5635073 ], [ -0.4784568, 39.5636838 ], [ -0.4779554, 39.5639208 ], [ -0.4777284, 39.5640684 ], [ -0.476925, 39.5638031 ], [ -0.4762849, 39.5637892 ], [ -0.476183, 39.5638823 ], [ -0.4772707, 39.5644589 ], [ -0.4778553, 39.5646432 ], [ -0.4781273, 39.5652975 ], [ -0.4783403, 39.5662174 ], [ -0.4785637, 39.5668515 ], [ -0.4788349, 39.5675248 ], [ -0.4790694, 39.5678541 ], [ -0.4802985, 39.5672515 ], [ -0.4807968, 39.5677771 ], [ -0.4812858, 39.5682277 ], [ -0.4813762, 39.5681422 ], [ -0.4815585, 39.56793 ], [ -0.4816756, 39.5675902 ], [ -0.4817458, 39.5672584 ], [ -0.4818687, 39.5667565 ], [ -0.4819409, 39.5663707 ], [ -0.4820084, 39.5661109 ], [ -0.4821057, 39.5659959 ], [ -0.4822624, 39.5658461 ], [ -0.482374, 39.5656594 ], [ -0.4823756, 39.5656144 ], [ -0.4820771, 39.5654209 ], [ -0.4820017, 39.565372 ], [ -0.4819059, 39.5653095 ], [ -0.4818575, 39.5652778 ], [ -0.4803743, 39.5643097 ], [ -0.4796665, 39.5638996 ] ] ], [ [ [ -0.4676767, 39.5888179 ], [ -0.4665123, 39.5882715 ], [ -0.4663936, 39.5883692 ], [ -0.466146, 39.5885728 ], [ -0.4660384, 39.5886941 ], [ -0.4653762, 39.5894764 ], [ -0.4651119, 39.5897886 ], [ -0.4645922, 39.5904178 ], [ -0.4645159, 39.590532 ], [ -0.4644499, 39.5906308 ], [ -0.4642847, 39.5909074 ], [ -0.4640532, 39.5912946 ], [ -0.4639254, 39.5915306 ], [ -0.4638311, 39.59182 ], [ -0.4637692, 39.5920408 ], [ -0.4637364, 39.5922853 ], [ -0.4636027, 39.5925045 ], [ -0.4634335, 39.5927183 ], [ -0.4630923, 39.5928913 ], [ -0.462954, 39.5930733 ], [ -0.4628297, 39.5933667 ], [ -0.4627226, 39.5933551 ], [ -0.462545, 39.5938742 ], [ -0.4624954, 39.5939283 ], [ -0.4629556, 39.5938931 ], [ -0.4636605, 39.5936826 ], [ -0.4641701, 39.5934931 ], [ -0.4645708, 39.5931756 ], [ -0.4647707, 39.5931987 ], [ -0.4649363, 39.5929886 ], [ -0.4655342, 39.5926441 ], [ -0.4660816, 39.5923319 ], [ -0.4665245, 39.5921842 ], [ -0.4674047, 39.5931861 ], [ -0.467585, 39.5932125 ], [ -0.4676506, 39.5929171 ], [ -0.468063, 39.5917438 ], [ -0.4683109, 39.5913679 ], [ -0.4687025, 39.5907662 ], [ -0.4693127, 39.5899119 ], [ -0.4675452, 39.5890439 ], [ -0.4676767, 39.5888179 ] ] ] ] } },
{ "type": "Feature", "properties": { "CCAA": "10 - Comunitat Valenciana", "PROVINCIA": "46 - Valencia/Valéncia", "MUNICIPIO": "46070 - Bétera", "COD_MUNICIPIO": "46070", "DISTRITO": "02", "SECCION": "4607002005", "V1_H": 82.53, "V1_M": 87.34, "V2_H": 82.38507422000001, "V2_M": 87.19104055, "V3_H": 82.74254947, "V3_M": 87.61225513 }, "geometry": { "type": "Polygon", "coordinates": [ [ [ -0.4574012, 39.5573421 ], [ -0.4579929, 39.5577054 ], [ -0.4598781, 39.5587001 ], [ -0.4609748, 39.5610504 ], [ -0.4623146, 39.5610057 ], [ -0.4622836, 39.5596122 ], [ -0.4622713, 39.5596129 ], [ -0.4621851, 39.5586004 ], [ -0.4651267, 39.5583214 ], [ -0.4667269, 39.5570285 ], [ -0.4657793, 39.5560908 ], [ -0.4656738, 39.5559864 ], [ -0.4621107, 39.5582746 ], [ -0.4618241, 39.557353 ], [ -0.4589007, 39.5524075 ], [ -0.4600773, 39.5513786 ], [ -0.4500031, 39.5456832 ], [ -0.450003, 39.5456833 ], [ -0.4500027, 39.5456834 ], [ -0.4500027, 39.5456834 ], [ -0.4495371, 39.5459626 ], [ -0.448742, 39.5464392 ], [ -0.448739, 39.5464414 ], [ -0.4477865, 39.5471119 ], [ -0.4468758, 39.5479685 ], [ -0.4469537, 39.548389 ], [ -0.4472835, 39.5487967 ], [ -0.4477892, 39.5491129 ], [ -0.4481107, 39.5497492 ], [ -0.4487759, 39.5497448 ], [ -0.4489293, 39.550263 ], [ -0.4510439, 39.5503666 ], [ -0.4507726, 39.5510471 ], [ -0.4513022, 39.5513829 ], [ -0.4525064, 39.5501127 ], [ -0.4526297, 39.5507828 ], [ -0.4576591, 39.556728 ], [ -0.4574012, 39.5573421 ] ] ] } },
{ "type": "Feature", "properties": { "CCAA": "10 - Comunitat Valenciana", "PROVINCIA": "46 - Valencia/Valéncia", "MUNICIPIO": "46070 - Bétera", "COD_MUNICIPIO": "46070", "DISTRITO": "02", "SECCION": "4607002007", "V1_H": 82.08, "V1_M": 87.23, "V2_H": 81.77226367, "V2_M": 87.02227373, "V3_H": 82.52263661000001, "V3_M": 87.52638345 }, "geometry": { "type": "MultiPolygon", "coordinates": [ [ [ [ -0.4622708, 39.5526184 ], [ -0.4600773, 39.5513786 ], [ -0.4589007, 39.5524075 ], [ -0.4618241, 39.557353 ], [ -0.4621107, 39.5582746 ], [ -0.4656738, 39.5559864 ], [ -0.4650774, 39.5553961 ], [ -0.4622708, 39.5526184 ] ] ], [ [ [ -0.4668571, 39.5571573 ], [ -0.4667269, 39.5570285 ], [ -0.4651267, 39.5583214 ], [ -0.4621851, 39.5586004 ], [ -0.4622713, 39.5596129 ], [ -0.4654311, 39.559434 ], [ -0.4658433, 39.5596146 ], [ -0.4664687, 39.5600287 ], [ -0.4665807, 39.5603362 ], [ -0.4667925, 39.5606078 ], [ -0.4689088, 39.560673 ], [ -0.4701368, 39.560776 ], [ -0.4705348, 39.5606703 ], [ -0.4716117, 39.5608654 ], [ -0.4716724, 39.561229 ], [ -0.4715698, 39.5613412 ], [ -0.4711218, 39.5614649 ], [ -0.4716819, 39.5630026 ], [ -0.4728915, 39.5629336 ], [ -0.47316, 39.5636831 ], [ -0.4730334, 39.5637757 ], [ -0.4723878, 39.5639142 ], [ -0.4724319, 39.5647351 ], [ -0.4724278, 39.5648494 ], [ -0.4723498, 39.5649621 ], [ -0.4722232, 39.5650547 ], [ -0.4717281, 39.5651202 ], [ -0.4716549, 39.5650996 ], [ -0.4715298, 39.565154 ], [ -0.4716526, 39.5658432 ], [ -0.4730571, 39.5658356 ], [ -0.4740844, 39.5662082 ], [ -0.4750285, 39.5644674 ], [ -0.4751633, 39.5641462 ], [ -0.475273, 39.5618031 ], [ -0.4753524, 39.5616523 ], [ -0.4752424, 39.5612876 ], [ -0.4746234, 39.5602243 ], [ -0.4731124, 39.5597916 ], [ -0.4697819, 39.5591569 ], [ -0.4687896, 39.5589677 ], [ -0.4685725, 39.5588549 ], [ -0.4668571, 39.5571573 ] ] ] ] } },
{ "type": "Feature", "properties": { "CCAA": "10 - Comunitat Valenciana", "PROVINCIA": "46 - Valencia/Valéncia", "MUNICIPIO": "46070 - Bétera", "COD_MUNICIPIO": "46070", "DISTRITO": "02", "SECCION": "4607002009", "V1_H": 80.63, "V1_M": 86.52, "V2_H": 80.3855305, "V2_M": 86.44800565, "V3_H": 80.88841766, "V3_M": 86.66780776 }, "geometry": { "type": "Polygon", "coordinates": [ [ [ -0.4531841, 39.5946123 ], [ -0.4536068, 39.5947466 ], [ -0.454239, 39.5948634 ], [ -0.4549644, 39.5950336 ], [ -0.4556499, 39.5952545 ], [ -0.4557226, 39.5953443 ], [ -0.4559465, 39.5954594 ], [ -0.4561358, 39.5954783 ], [ -0.4561985, 39.5955022 ], [ -0.4563768, 39.5943253 ], [ -0.4564013, 39.5936557 ], [ -0.4561689, 39.5933912 ], [ -0.4562881, 39.5929328 ], [ -0.456497, 39.592822 ], [ -0.4569572, 39.5927169 ], [ -0.456961, 39.5923931 ], [ -0.4531704, 39.5901358 ], [ -0.4531902, 39.5901302 ], [ -0.4522049, 39.5895807 ], [ -0.4530627, 39.5887033 ], [ -0.4510594, 39.587915 ], [ -0.451052, 39.5879209 ], [ -0.4503498, 39.5876365 ], [ -0.4495691, 39.5871217 ], [ -0.4487865, 39.5866607 ], [ -0.448259, 39.5863533 ], [ -0.4478868, 39.5860761 ], [ -0.446924, 39.5854386 ], [ -0.4469009, 39.5854461 ], [ -0.4459786, 39.5848133 ], [ -0.4493077, 39.5834056 ], [ -0.4493533, 39.5834169 ], [ -0.4528237, 39.5842725 ], [ -0.4529294, 39.5846792 ], [ -0.4532972, 39.5852224 ], [ -0.4536521, 39.5855464 ], [ -0.4539915, 39.585849 ], [ -0.4539972, 39.585854 ], [ -0.4540148, 39.585865 ], [ -0.4549354, 39.5851785 ], [ -0.4573708, 39.586729 ], [ -0.4573773, 39.5867222 ], [ -0.4580282, 39.5872741 ], [ -0.459038, 39.5862075 ], [ -0.4590399, 39.5861551 ], [ -0.4600349, 39.5853951 ], [ -0.4592713, 39.5849439 ], [ -0.4595091, 39.5847581 ], [ -0.4595524, 39.5847242 ], [ -0.4588239, 39.5843604 ], [ -0.4577437, 39.5837802 ], [ -0.4565916, 39.5833201 ], [ -0.4554531, 39.5831038 ], [ -0.4540682, 39.5828647 ], [ -0.4534814, 39.5828159 ], [ -0.4535955, 39.578383 ], [ -0.4546929, 39.5780257 ], [ -0.4553609, 39.5772776 ], [ -0.4554548, 39.5760593 ], [ -0.4547603, 39.5734888 ], [ -0.4515657, 39.574601 ], [ -0.4479705, 39.5718525 ], [ -0.438579, 39.5751952 ], [ -0.4384781, 39.5750836 ], [ -0.4375081, 39.5739612 ], [ -0.4370853, 39.5733417 ], [ -0.4351901, 39.5703551 ], [ -0.434687, 39.5695879 ], [ -0.4345446, 39.5692664 ], [ -0.4342339, 39.5683973 ], [ -0.4333649, 39.5659374 ], [ -0.4329192, 39.564548 ], [ -0.4321771, 39.5612099 ], [ -0.4269778, 39.5622927 ], [ -0.4269774, 39.5622923 ], [ -0.4261103, 39.5624711 ], [ -0.4256408, 39.5625778 ], [ -0.4242071, 39.5616901 ], [ -0.4223599, 39.5606582 ], [ -0.4209233, 39.5601669 ], [ -0.4187523, 39.5622177 ], [ -0.4157563, 39.565169 ], [ -0.4140951, 39.5669608 ], [ -0.4139618, 39.567102 ], [ -0.4134595, 39.5677219 ], [ -0.4122051, 39.56927 ], [ -0.4098139, 39.5722166 ], [ -0.4080899, 39.5748943 ], [ -0.408219, 39.5749308 ], [ -0.4086229, 39.5750451 ], [ -0.4087522, 39.5751378 ], [ -0.408976, 39.575361 ], [ -0.4090962, 39.5756975 ], [ -0.409311, 39.5761644 ], [ -0.4094321, 39.5764752 ], [ -0.4095855, 39.5768123 ], [ -0.4095456, 39.5769911 ], [ -0.4096606, 39.577244 ], [ -0.4100566, 39.5775224 ], [ -0.4103376, 39.5777726 ], [ -0.4113692, 39.5785786 ], [ -0.4119286, 39.5789249 ], [ -0.4121507, 39.5789747 ], [ -0.4124376, 39.5792892 ], [ -0.4128803, 39.5796521 ], [ -0.4132633, 39.5798339 ], [ -0.413771, 39.5800121 ], [ -0.4143701, 39.5801827 ], [ -0.4148918, 39.58065 ], [ -0.4155257, 39.5812257 ], [ -0.4158971, 39.5814971 ], [ -0.4161879, 39.5817089 ], [ -0.4164037, 39.5819256 ], [ -0.4166796, 39.5820922 ], [ -0.4169483, 39.5822265 ], [ -0.4174647, 39.5823921 ], [ -0.4179875, 39.582609 ], [ -0.4185181, 39.5828391 ], [ -0.419228, 39.5831533 ], [ -0.4194653, 39.583242 ], [ -0.4197002, 39.5833949 ], [ -0.419909, 39.5835792 ], [ -0.4205656, 39.5837671 ], [ -0.4209252, 39.5839099 ], [ -0.4212428, 39.5840709 ], [ -0.4215858, 39.5842134 ], [ -0.4219382, 39.5843303 ], [ -0.4223893, 39.5844687 ], [ -0.4228124, 39.5846899 ], [ -0.4232081, 39.5849811 ], [ -0.4237566, 39.5853976 ], [ -0.4242239, 39.5857706 ], [ -0.4255164, 39.5858121 ], [ -0.4273192, 39.5857365 ], [ -0.4298633, 39.5854392 ], [ -0.4314413, 39.5854169 ], [ -0.4342027, 39.58605 ], [ -0.4365005, 39.5865584 ], [ -0.4380842, 39.587051 ], [ -0.4398306, 39.5878141 ], [ -0.4418196, 39.5886779 ], [ -0.4442049, 39.5894932 ], [ -0.4458127, 39.5900053 ], [ -0.4482499, 39.591381 ], [ -0.4491424, 39.5920183 ], [ -0.4496733, 39.5925933 ], [ -0.4496893, 39.5925921 ], [ -0.4502956, 39.5933214 ], [ -0.4506589, 39.5937778 ], [ -0.4509967, 39.5941527 ], [ -0.4512012, 39.5942748 ], [ -0.4515506, 39.5943339 ], [ -0.4519203, 39.5943567 ], [ -0.4522217, 39.5944295 ], [ -0.4524667, 39.5944863 ], [ -0.4528087, 39.5944865 ], [ -0.4531841, 39.5946123 ] ] ] } },
{ "type": "Feature", "properties": { "CCAA": "10 - Comunitat Valenciana", "PROVINCIA": "46 - Valencia/Valéncia", "MUNICIPIO": "46070 - Bétera", "COD_MUNICIPIO": "46070", "DISTRITO": "01", "SECCION": "4607001004", "V1_H": 80.85, "V1_M": 86.44, "V2_H": 80.47892397, "V2_M": 86.23437891, "V3_H": 81.22204479, "V3_M": 86.80010662 }, "geometry": { "type": "MultiPolygon", "coordinates": [ [ [ [ -0.4743246, 39.5807753 ], [ -0.472119, 39.5799864 ], [ -0.4712537, 39.5805052 ], [ -0.4703199, 39.582174 ], [ -0.4692359, 39.5841773 ], [ -0.4686748, 39.5850719 ], [ -0.4683269, 39.5857933 ], [ -0.46809, 39.5863037 ], [ -0.4671308, 39.587403 ], [ -0.466525, 39.588261 ], [ -0.4665123, 39.5882715 ], [ -0.4676767, 39.5888179 ], [ -0.4675452, 39.5890439 ], [ -0.4693127, 39.5899119 ], [ -0.4687025, 39.5907662 ], [ -0.4683109, 39.5913679 ], [ -0.468063, 39.5917438 ], [ -0.4676506, 39.5929171 ], [ -0.467585, 39.5932125 ], [ -0.4674047, 39.5931861 ], [ -0.4665245, 39.5921842 ], [ -0.4660816, 39.5923319 ], [ -0.4655342, 39.5926441 ], [ -0.4649363, 39.5929886 ], [ -0.4647707, 39.5931987 ], [ -0.4645708, 39.5931756 ], [ -0.4641701, 39.5934931 ], [ -0.4636605, 39.5936826 ], [ -0.4629556, 39.5938931 ], [ -0.4624954, 39.5939283 ], [ -0.4624116, 39.5940197 ], [ -0.4623483, 39.5940069 ], [ -0.462275, 39.594571 ], [ -0.4621961, 39.5948979 ], [ -0.4621458, 39.595001 ], [ -0.4632621, 39.5953193 ], [ -0.462958, 39.5958964 ], [ -0.4629692, 39.595899 ], [ -0.4620711, 39.5975984 ], [ -0.4620605, 39.5976185 ], [ -0.4623546, 39.597661 ], [ -0.4631147, 39.5976865 ], [ -0.4631124, 39.5976945 ], [ -0.4631682, 39.5983008 ], [ -0.4654798, 39.5998005 ], [ -0.46731, 39.6009846 ], [ -0.4687829, 39.602504 ], [ -0.4711982, 39.6052263 ], [ -0.4731188, 39.606641 ], [ -0.474424, 39.6073559 ], [ -0.4770976, 39.6084056 ], [ -0.4788734, 39.6097408 ], [ -0.4796966, 39.611513 ], [ -0.4807676, 39.6132524 ], [ -0.4836726, 39.6147265 ], [ -0.4878207, 39.6159223 ], [ -0.491766, 39.618639 ], [ -0.4977319, 39.6213992 ], [ -0.502992, 39.6246016 ], [ -0.505861, 39.6257311 ], [ -0.5111752, 39.6288199 ], [ -0.5152039, 39.6311207 ], [ -0.515899, 39.6284895 ], [ -0.5167528, 39.624814 ], [ -0.5172058, 39.6232201 ], [ -0.5179469, 39.6200829 ], [ -0.5185939, 39.6169706 ], [ -0.5191732, 39.6134619 ], [ -0.5191735, 39.6134605 ], [ -0.5191727, 39.613457 ], [ -0.518812, 39.6118401 ], [ -0.5180434, 39.6092292 ], [ -0.5158357, 39.6035422 ], [ -0.5158272, 39.6035176 ], [ -0.5154818, 39.6025128 ], [ -0.5154818, 39.6025127 ], [ -0.5154578, 39.6024431 ], [ -0.5154578, 39.602443 ], [ -0.5154008, 39.6022772 ], [ -0.5149496, 39.6009648 ], [ -0.5142628, 39.5996527 ], [ -0.5139225, 39.5977716 ], [ -0.5132162, 39.5957024 ], [ -0.5112484, 39.5891917 ], [ -0.5104649, 39.5869552 ], [ -0.5099703, 39.5855432 ], [ -0.5099703, 39.5855431 ], [ -0.5099701, 39.5855427 ], [ -0.5093818, 39.58344 ], [ -0.5076353, 39.5785646 ], [ -0.5074942, 39.5782823 ], [ -0.5067082, 39.5771484 ], [ -0.50514, 39.5757543 ], [ -0.5038915, 39.5745383 ], [ -0.5007889, 39.5724986 ], [ -0.5003821, 39.5726636 ], [ -0.5002196, 39.5727296 ], [ -0.4998309, 39.5728563 ], [ -0.4992303, 39.5730506 ], [ -0.4988076, 39.5731496 ], [ -0.4984325, 39.5732226 ], [ -0.4981969, 39.5732986 ], [ -0.4979976, 39.5733393 ], [ -0.4976396, 39.5735839 ], [ -0.497152, 39.5738707 ], [ -0.4967122, 39.5741225 ], [ -0.4963671, 39.5743312 ], [ -0.4961053, 39.5744878 ], [ -0.4959629, 39.5745658 ], [ -0.4957219, 39.5746298 ], [ -0.4957183, 39.5746308 ], [ -0.4956807, 39.5746408 ], [ -0.4953134, 39.5744 ], [ -0.4951121, 39.5742681 ], [ -0.4946236, 39.5739333 ], [ -0.4943399, 39.5737289 ], [ -0.4941668, 39.5736413 ], [ -0.4938941, 39.5735031 ], [ -0.4935402, 39.5733071 ], [ -0.4934033, 39.5732313 ], [ -0.4930989, 39.5729544 ], [ -0.4930846, 39.5729434 ], [ -0.4929628, 39.5728502 ], [ -0.4927478, 39.5726856 ], [ -0.4923963, 39.5724257 ], [ -0.4921485, 39.5721952 ], [ -0.4919676, 39.5720471 ], [ -0.4918558, 39.5719186 ], [ -0.4916988, 39.571753 ], [ -0.4915913, 39.5715075 ], [ -0.4914272, 39.5712156 ], [ -0.4910324, 39.5708648 ], [ -0.4907836, 39.5706612 ], [ -0.4906878, 39.5705939 ], [ -0.4904658, 39.5704381 ], [ -0.4904129, 39.5703728 ], [ -0.4902874, 39.570218 ], [ -0.4902352, 39.5700547 ], [ -0.4901011, 39.5698987 ], [ -0.489979, 39.5697339 ], [ -0.4899167, 39.569738 ], [ -0.4895706, 39.5697611 ], [ -0.4892342, 39.5697268 ], [ -0.4890828, 39.5697325 ], [ -0.4889322, 39.5697112 ], [ -0.4888172, 39.5696227 ], [ -0.4887396, 39.5695629 ], [ -0.4885113, 39.5694409 ], [ -0.4882586, 39.5693453 ], [ -0.488223, 39.5693317 ], [ -0.4881094, 39.5692881 ], [ -0.4878298, 39.5696153 ], [ -0.4874585, 39.5699046 ], [ -0.4874447, 39.5698955 ], [ -0.4874447, 39.5698955 ], [ -0.4868672, 39.5703181 ], [ -0.4858149, 39.5708287 ], [ -0.4841765, 39.5716645 ], [ -0.4836153, 39.5719368 ], [ -0.4835678, 39.5721638 ], [ -0.4886731, 39.5744506 ], [ -0.4859769, 39.5760838 ], [ -0.4864429, 39.5766361 ], [ -0.4866068, 39.5775549 ], [ -0.4864029, 39.5777412 ], [ -0.4864087, 39.5779225 ], [ -0.4852246, 39.5786405 ], [ -0.4836341, 39.579693 ], [ -0.482909, 39.5799824 ], [ -0.4822907, 39.5800453 ], [ -0.4816241, 39.5800785 ], [ -0.4809049, 39.5802059 ], [ -0.48005, 39.5806027 ], [ -0.4793259, 39.5802574 ], [ -0.4785333, 39.5800305 ], [ -0.478073, 39.5798107 ], [ -0.4779551, 39.5796652 ], [ -0.4779593, 39.5795492 ], [ -0.4743246, 39.5807753 ] ] ], [ [ [ -0.4927971, 39.637196 ], [ -0.4991217, 39.6440575 ], [ -0.4994159, 39.6441271 ], [ -0.5026908, 39.6425673 ], [ -0.5030369, 39.6422029 ], [ -0.5030626, 39.6418316 ], [ -0.5044561, 39.6421762 ], [ -0.505051, 39.6427801 ], [ -0.5079448, 39.6425562 ], [ -0.5083699, 39.6423937 ], [ -0.5091784, 39.6418581 ], [ -0.5094947, 39.6412928 ], [ -0.5110363, 39.640258 ], [ -0.5100929, 39.6390556 ], [ -0.5090195, 39.6387274 ], [ -0.5072711, 39.6372788 ], [ -0.5061074, 39.6374064 ], [ -0.5048766, 39.6359689 ], [ -0.5031749, 39.6352839 ], [ -0.4958298, 39.6365368 ], [ -0.4943561, 39.6356851 ], [ -0.4938964, 39.6361233 ], [ -0.493652, 39.6360608 ], [ -0.493232, 39.6364235 ], [ -0.4926711, 39.6359061 ], [ -0.4937219, 39.6354902 ], [ -0.493698, 39.6351274 ], [ -0.4912132, 39.6305259 ], [ -0.4897857, 39.629084 ], [ -0.4887029, 39.6290224 ], [ -0.4882732, 39.6286317 ], [ -0.4870615, 39.6294064 ], [ -0.4860593, 39.6298423 ], [ -0.4927971, 39.637196 ] ] ] ] } },
{ "type": "Feature", "properties": { "CCAA": "10 - Comunitat Valenciana", "PROVINCIA": "46 - Valencia/Valéncia", "MUNICIPIO": "46070 - Bétera", "COD_MUNICIPIO": "46070", "DISTRITO": "02", "SECCION": "4607002008", "V1_H": 81.1, "V1_M": 86.64, "V2_H": 80.60081217, "V2_M": 86.48118059, "V3_H": 81.51550291, "V3_M": 86.87452308 }, "geometry": { "type": "MultiPolygon", "coordinates": [ [ [ [ -0.4746444, 39.5602303 ], [ -0.4746234, 39.5602243 ], [ -0.4752424, 39.5612876 ], [ -0.4753524, 39.5616523 ], [ -0.475273, 39.5618031 ], [ -0.4751633, 39.5641462 ], [ -0.4750285, 39.5644674 ], [ -0.4740779, 39.5662201 ], [ -0.4760273, 39.5668155 ], [ -0.4789658, 39.5677086 ], [ -0.4788349, 39.5675248 ], [ -0.4785637, 39.5668515 ], [ -0.4783403, 39.5662174 ], [ -0.4781273, 39.5652975 ], [ -0.4778553, 39.5646432 ], [ -0.4772707, 39.5644589 ], [ -0.476183, 39.5638823 ], [ -0.4762849, 39.5637892 ], [ -0.476925, 39.5638031 ], [ -0.4777284, 39.5640684 ], [ -0.4779554, 39.5639208 ], [ -0.4784568, 39.5636838 ], [ -0.4789896, 39.5635073 ], [ -0.4788239, 39.5634112 ], [ -0.4784527, 39.5631165 ], [ -0.4784505, 39.5631148 ], [ -0.4768206, 39.5615208 ], [ -0.476155, 39.5609388 ], [ -0.4755631, 39.5606022 ], [ -0.475562, 39.5606016 ], [ -0.4746444, 39.5602303 ] ] ], [ [ [ -0.459038, 39.5862075 ], [ -0.4580254, 39.587277 ], [ -0.4585271, 39.5876878 ], [ -0.4585177, 39.5876942 ], [ -0.4586779, 39.5878335 ], [ -0.4586511, 39.5878603 ], [ -0.4594692, 39.5885829 ], [ -0.4605627, 39.5895759 ], [ -0.4608168, 39.5898118 ], [ -0.4611219, 39.5904727 ], [ -0.4611913, 39.5903856 ], [ -0.462263, 39.5890001 ], [ -0.4624443, 39.5889278 ], [ -0.4626711, 39.5886228 ], [ -0.4627575, 39.5883786 ], [ -0.4633705, 39.5878324 ], [ -0.4641428, 39.5871516 ], [ -0.4642918, 39.5870202 ], [ -0.4663936, 39.5883692 ], [ -0.466525, 39.588261 ], [ -0.4671308, 39.587403 ], [ -0.46809, 39.5863037 ], [ -0.4683269, 39.5857933 ], [ -0.4686748, 39.5850719 ], [ -0.4692359, 39.5841773 ], [ -0.4703199, 39.582174 ], [ -0.4712537, 39.5805052 ], [ -0.4715012, 39.5803568 ], [ -0.4712159, 39.5802281 ], [ -0.4701089, 39.5808524 ], [ -0.4684782, 39.5809694 ], [ -0.4655728, 39.5781982 ], [ -0.4645852, 39.578253 ], [ -0.4643779, 39.5771806 ], [ -0.4653177, 39.5770867 ], [ -0.4649557, 39.5762016 ], [ -0.4653593, 39.5759435 ], [ -0.4649398, 39.575286 ], [ -0.4658171, 39.5741992 ], [ -0.4663109, 39.5741718 ], [ -0.4665897, 39.5746355 ], [ -0.4667513, 39.5742577 ], [ -0.4658359, 39.5723308 ], [ -0.4661759, 39.5684101 ], [ -0.4654373, 39.568394 ], [ -0.4651983, 39.5627826 ], [ -0.4630237, 39.5629639 ], [ -0.4623561, 39.5610044 ], [ -0.4609748, 39.5610504 ], [ -0.4598781, 39.5587001 ], [ -0.4579929, 39.5577054 ], [ -0.4574012, 39.5573421 ], [ -0.4576591, 39.556728 ], [ -0.4526297, 39.5507828 ], [ -0.4525064, 39.5501127 ], [ -0.4513022, 39.5513829 ], [ -0.4507726, 39.5510471 ], [ -0.4510439, 39.5503666 ], [ -0.4489293, 39.550263 ], [ -0.4487759, 39.5497448 ], [ -0.4481107, 39.5497492 ], [ -0.4477892, 39.5491129 ], [ -0.4472835, 39.5487967 ], [ -0.4469537, 39.548389 ], [ -0.4468758, 39.5479685 ], [ -0.4461112, 39.5486877 ], [ -0.4438836, 39.551044 ], [ -0.4425246, 39.5525921 ], [ -0.4410085, 39.554319 ], [ -0.4410051, 39.5543229 ], [ -0.4393334, 39.5563047 ], [ -0.4387296, 39.5570204 ], [ -0.4395761, 39.5596237 ], [ -0.4355391, 39.5604905 ], [ -0.4325381, 39.5611348 ], [ -0.43244, 39.5611552 ], [ -0.4321771, 39.5612099 ], [ -0.4329192, 39.564548 ], [ -0.4333649, 39.5659374 ], [ -0.4342339, 39.5683973 ], [ -0.4345446, 39.5692664 ], [ -0.434687, 39.5695879 ], [ -0.4351901, 39.5703551 ], [ -0.4370853, 39.5733417 ], [ -0.4375081, 39.5739612 ], [ -0.4384781, 39.5750836 ], [ -0.438579, 39.5751952 ], [ -0.4479705, 39.5718525 ], [ -0.4515657, 39.574601 ], [ -0.4547603, 39.5734888 ], [ -0.4554548, 39.5760593 ], [ -0.4553609, 39.5772776 ], [ -0.4546929, 39.5780257 ], [ -0.4535955, 39.578383 ], [ -0.4534814, 39.5828159 ], [ -0.4540682, 39.5828647 ], [ -0.4554531, 39.5831038 ], [ -0.4565916, 39.5833201 ], [ -0.4577437, 39.5837802 ], [ -0.4588239, 39.5843604 ], [ -0.4595524, 39.5847242 ], [ -0.4595091, 39.5847581 ], [ -0.4592713, 39.5849439 ], [ -0.4600349, 39.5853951 ], [ -0.4590399, 39.5861551 ], [ -0.459038, 39.5862075 ] ] ] ] } },
{ "type": "Feature", "properties": { "CCAA": "10 - Comunitat Valenciana", "PROVINCIA": "46 - Valencia/Valéncia", "MUNICIPIO": "46070 - Bétera", "COD_MUNICIPIO": "46070", "DISTRITO": "02", "SECCION": "4607002001", "V1_H": 80.53, "V1_M": 86.43, "V2_H": 80.43347749, "V2_M": 86.30479166000001, "V3_H": 80.8868878, "V3_M": 86.74881461 }, "geometry": { "type": "MultiPolygon", "coordinates": [ [ [ [ -0.4569609, 39.5923974 ], [ -0.4584302, 39.5928381 ], [ -0.4591644, 39.5930321 ], [ -0.4598954, 39.5920803 ], [ -0.4608837, 39.5907721 ], [ -0.4611219, 39.5904727 ], [ -0.4608168, 39.5898118 ], [ -0.4605627, 39.5895759 ], [ -0.4594692, 39.5885829 ], [ -0.4586511, 39.5878603 ], [ -0.4579273, 39.5885844 ], [ -0.4570803, 39.5894291 ], [ -0.4564031, 39.5901768 ], [ -0.4564075, 39.5901788 ], [ -0.4561972, 39.5906966 ], [ -0.4560109, 39.5909882 ], [ -0.4557042, 39.591345 ], [ -0.4557038, 39.5913455 ], [ -0.4556845, 39.5913296 ], [ -0.4555105, 39.5915294 ], [ -0.456961, 39.5923931 ], [ -0.4569609, 39.5923974 ] ] ], [ [ [ -0.408219, 39.5749308 ], [ -0.4080899, 39.5748943 ], [ -0.4078128, 39.5753247 ], [ -0.406972, 39.5766305 ], [ -0.4062212, 39.5786587 ], [ -0.4051209, 39.5816251 ], [ -0.4039705, 39.5834371 ], [ -0.4037859, 39.5837033 ], [ -0.4021989, 39.585983 ], [ -0.4006655, 39.5877594 ], [ -0.4000087, 39.5885105 ], [ -0.3970398, 39.591615 ], [ -0.395715, 39.5925211 ], [ -0.3957139, 39.5925218 ], [ -0.3957134, 39.5925222 ], [ -0.4088468, 39.607221 ], [ -0.4088496, 39.6072243 ], [ -0.4097169, 39.6082494 ], [ -0.4101352, 39.6088984 ], [ -0.4208304, 39.6153977 ], [ -0.4240992, 39.6173982 ], [ -0.4363294, 39.6254418 ], [ -0.4375342, 39.6235413 ], [ -0.4410673, 39.6180361 ], [ -0.4423182, 39.6161528 ], [ -0.4426953, 39.6158288 ], [ -0.4440565, 39.6150362 ], [ -0.4460514, 39.6139502 ], [ -0.4483412, 39.6127614 ], [ -0.4487641, 39.6124868 ], [ -0.4491045, 39.612169 ], [ -0.4496325, 39.6113232 ], [ -0.4503874, 39.6101275 ], [ -0.4508821, 39.6093548 ], [ -0.4514033, 39.6084852 ], [ -0.45237, 39.6069304 ], [ -0.4526303, 39.6065044 ], [ -0.4540356, 39.6042468 ], [ -0.454837, 39.6030284 ], [ -0.4560309, 39.601112 ], [ -0.4562591, 39.6007238 ], [ -0.4564227, 39.6002247 ], [ -0.4566885, 39.5992252 ], [ -0.4568591, 39.5986113 ], [ -0.4571287, 39.5976411 ], [ -0.4573547, 39.5968005 ], [ -0.4575357, 39.5961274 ], [ -0.4575397, 39.5961126 ], [ -0.4575402, 39.5961129 ], [ -0.45756, 39.5961213 ], [ -0.4576034, 39.5958406 ], [ -0.4568292, 39.5957434 ], [ -0.4561985, 39.5955022 ], [ -0.4561358, 39.5954783 ], [ -0.4559465, 39.5954594 ], [ -0.4557226, 39.5953443 ], [ -0.4556499, 39.5952545 ], [ -0.4549644, 39.5950336 ], [ -0.454239, 39.5948634 ], [ -0.4536068, 39.5947466 ], [ -0.4531841, 39.5946123 ], [ -0.4528087, 39.5944865 ], [ -0.4524667, 39.5944863 ], [ -0.4522217, 39.5944295 ], [ -0.4519203, 39.5943567 ], [ -0.4515506, 39.5943339 ], [ -0.4512012, 39.5942748 ], [ -0.4509967, 39.5941527 ], [ -0.4506589, 39.5937778 ], [ -0.4502956, 39.5933214 ], [ -0.4496893, 39.5925921 ], [ -0.4496733, 39.5925933 ], [ -0.4491424, 39.5920183 ], [ -0.4482499, 39.591381 ], [ -0.4458127, 39.5900053 ], [ -0.4442049, 39.5894932 ], [ -0.4418196, 39.5886779 ], [ -0.4398306, 39.5878141 ], [ -0.4380842, 39.587051 ], [ -0.4365005, 39.5865584 ], [ -0.4342027, 39.58605 ], [ -0.4314413, 39.5854169 ], [ -0.4298633, 39.5854392 ], [ -0.4273192, 39.5857365 ], [ -0.4255164, 39.5858121 ], [ -0.4242239, 39.5857706 ], [ -0.4237566, 39.5853976 ], [ -0.4232081, 39.5849811 ], [ -0.4228124, 39.5846899 ], [ -0.4223893, 39.5844687 ], [ -0.4219382, 39.5843303 ], [ -0.4215858, 39.5842134 ], [ -0.4212428, 39.5840709 ], [ -0.4209252, 39.5839099 ], [ -0.4205656, 39.5837671 ], [ -0.419909, 39.5835792 ], [ -0.4197002, 39.5833949 ], [ -0.4194653, 39.583242 ], [ -0.419228, 39.5831533 ], [ -0.4185181, 39.5828391 ], [ -0.4179875, 39.582609 ], [ -0.4174647, 39.5823921 ], [ -0.4169483, 39.5822265 ], [ -0.4166796, 39.5820922 ], [ -0.4164037, 39.5819256 ], [ -0.4161879, 39.5817089 ], [ -0.4158971, 39.5814971 ], [ -0.4155257, 39.5812257 ], [ -0.4148918, 39.58065 ], [ -0.4143701, 39.5801827 ], [ -0.413771, 39.5800121 ], [ -0.4132633, 39.5798339 ], [ -0.4128803, 39.5796521 ], [ -0.4124376, 39.5792892 ], [ -0.4121507, 39.5789747 ], [ -0.4119286, 39.5789249 ], [ -0.4113692, 39.5785786 ], [ -0.4103376, 39.5777726 ], [ -0.4100566, 39.5775224 ], [ -0.4096606, 39.577244 ], [ -0.4095456, 39.5769911 ], [ -0.4095855, 39.5768123 ], [ -0.4094321, 39.5764752 ], [ -0.409311, 39.5761644 ], [ -0.4090962, 39.5756975 ], [ -0.408976, 39.575361 ], [ -0.4087522, 39.5751378 ], [ -0.4086229, 39.5750451 ], [ -0.408219, 39.5749308 ] ] ] ] } }
]
}
