{
"type": "FeatureCollection",
"name": "46222",
"features": [
{ "type": "Feature", "properties": { "CCAA": "10 - Comunitat Valenciana", "PROVINCIA": "46 - Valencia/Valéncia", "MUNICIPIO": "46222 - Sant Joanet", "COD_MUNICIPIO": "46222", "DISTRITO": "01", "SECCION": "4622201001", "V1_H": 80.3, "V1_M": 86.18, "V2_H": 80.25682951, "V2_M": 86.26310791, "V3_H": 80.49886239, "V3_M": 86.29802272000001 }, "geometry": { "type": "Polygon", "coordinates": [ [ [ -0.4789172, 39.0717091 ], [ -0.4789165, 39.0717107 ], [ -0.4788553, 39.0718416 ], [ -0.4786811, 39.0721892 ], [ -0.478478, 39.072374 ], [ -0.4783584, 39.0724886 ], [ -0.4779205, 39.0727764 ], [ -0.477157, 39.0731379 ], [ -0.4771563, 39.0731383 ], [ -0.4777107, 39.0734746 ], [ -0.4784794, 39.0739597 ], [ -0.4791045, 39.0742491 ], [ -0.4793777, 39.0743756 ], [ -0.4798457, 39.074672 ], [ -0.4798637, 39.0746834 ], [ -0.4795827, 39.0751098 ], [ -0.4795834, 39.0751099 ], [ -0.4795859, 39.0751106 ], [ -0.4800639, 39.0752283 ], [ -0.480217, 39.0751671 ], [ -0.4804274, 39.075083 ], [ -0.4805881, 39.0751135 ], [ -0.4810341, 39.0752402 ], [ -0.4810344, 39.0752403 ], [ -0.4812955, 39.0747233 ], [ -0.4812958, 39.0747234 ], [ -0.4815133, 39.0747428 ], [ -0.4830238, 39.0748778 ], [ -0.4860029, 39.0749601 ], [ -0.4870827, 39.0751456 ], [ -0.4877234, 39.0753306 ], [ -0.4880257, 39.0756074 ], [ -0.4881541, 39.0758985 ], [ -0.4880826, 39.0762843 ], [ -0.4880833, 39.076915 ], [ -0.4883009, 39.0792034 ], [ -0.4883022, 39.0792171 ], [ -0.4883029, 39.0792171 ], [ -0.4902992, 39.0792699 ], [ -0.4906703, 39.0792797 ], [ -0.4919976, 39.0793147 ], [ -0.4922207, 39.0798691 ], [ -0.4925686, 39.0804893 ], [ -0.492878, 39.0808923 ], [ -0.4933308, 39.0811633 ], [ -0.493331, 39.0811634 ], [ -0.4937598, 39.0814519 ], [ -0.4942368, 39.0817898 ], [ -0.4943236, 39.0818514 ], [ -0.4943246, 39.0818506 ], [ -0.4945177, 39.0817055 ], [ -0.494953, 39.0813784 ], [ -0.4951375, 39.081067 ], [ -0.4952112, 39.0809425 ], [ -0.4955976, 39.080149 ], [ -0.4958135, 39.0799283 ], [ -0.4961561, 39.0797195 ], [ -0.496157, 39.0797192 ], [ -0.4962165, 39.0796985 ], [ -0.4967178, 39.0795244 ], [ -0.4958669, 39.0758032 ], [ -0.4949193, 39.0735125 ], [ -0.4949387, 39.0732876 ], [ -0.4966027, 39.072972 ], [ -0.4970276, 39.0728943 ], [ -0.4972193, 39.0728592 ], [ -0.497219, 39.0728582 ], [ -0.4967087, 39.0709562 ], [ -0.4962509, 39.0688652 ], [ -0.4961581, 39.0685479 ], [ -0.4958988, 39.0683621 ], [ -0.495888, 39.0683388 ], [ -0.4956947, 39.0679253 ], [ -0.495473, 39.0676592 ], [ -0.4946254, 39.0671185 ], [ -0.494057, 39.0669269 ], [ -0.4940543, 39.066926 ], [ -0.4940384, 39.0663941 ], [ -0.492369, 39.0658897 ], [ -0.4923316, 39.0658653 ], [ -0.4911725, 39.0651065 ], [ -0.4911423, 39.0650868 ], [ -0.4895228, 39.0640266 ], [ -0.4894614, 39.0640335 ], [ -0.4891862, 39.0640643 ], [ -0.4882328, 39.0632509 ], [ -0.488121, 39.0633404 ], [ -0.4876737, 39.0636984 ], [ -0.4876713, 39.0636995 ], [ -0.4875211, 39.0637672 ], [ -0.4872305, 39.063815 ], [ -0.4867487, 39.0637145 ], [ -0.4865151, 39.0636746 ], [ -0.4865074, 39.0636732 ], [ -0.4863081, 39.063408 ], [ -0.4858123, 39.0627484 ], [ -0.4858122, 39.0627483 ], [ -0.4844869, 39.0649433 ], [ -0.4838845, 39.0659411 ], [ -0.4829714, 39.0678944 ], [ -0.4828893, 39.068253 ], [ -0.4828441, 39.0682443 ], [ -0.48173, 39.0680298 ], [ -0.4817288, 39.0680336 ], [ -0.4815613, 39.0685487 ], [ -0.4807774, 39.0701174 ], [ -0.4797355, 39.0716689 ], [ -0.4797279, 39.0716803 ], [ -0.4789178, 39.0717078 ], [ -0.4789172, 39.0717091 ] ] ] } }
]
}
