{
"type": "FeatureCollection",
"name": "47011",
"features": [
{ "type": "Feature", "properties": { "CCAA": "07 - Castilla y León", "PROVINCIA": "47 - Valladolid", "MUNICIPIO": "47011 - Ataquines", "COD_MUNICIPIO": "47011", "DISTRITO": "01", "SECCION": "4701101001", "V1_H": 80.25, "V1_M": 86.11, "V2_H": 80.02266353, "V2_M": 86.02270939, "V3_H": 80.50879823, "V3_M": 86.37032083 }, "geometry": { "type": "Polygon", "coordinates": [ [ [ -4.7739475, 41.2110599 ], [ -4.7761525, 41.2114402 ], [ -4.7804295, 41.2103743 ], [ -4.7826087, 41.2106829 ], [ -4.7857273, 41.2108867 ], [ -4.7898174, 41.2095352 ], [ -4.7907781, 41.2097724 ], [ -4.7953304, 41.2109356 ], [ -4.8001762, 41.2123551 ], [ -4.8039414, 41.2139445 ], [ -4.8059595, 41.215327 ], [ -4.809929, 41.2160933 ], [ -4.8153524, 41.2168096 ], [ -4.8169192, 41.2173884 ], [ -4.8180766, 41.2178295 ], [ -4.8193161, 41.2186476 ], [ -4.8204291, 41.2179184 ], [ -4.8196871, 41.216543 ], [ -4.8206275, 41.2160418 ], [ -4.8220599, 41.2147851 ], [ -4.8218637, 41.213302 ], [ -4.8213711, 41.2131747 ], [ -4.821175, 41.2112683 ], [ -4.8253778, 41.2092742 ], [ -4.8266543, 41.2067139 ], [ -4.8287028, 41.2057536 ], [ -4.8308102, 41.2047653 ], [ -4.8331618, 41.2014222 ], [ -4.8320963, 41.1969986 ], [ -4.83361, 41.1952631 ], [ -4.8337764, 41.1931077 ], [ -4.8340385, 41.1913922 ], [ -4.8349708, 41.1906207 ], [ -4.8353707, 41.1878581 ], [ -4.8375712, 41.1842562 ], [ -4.8365921, 41.182074 ], [ -4.8391073, 41.1795028 ], [ -4.8421043, 41.178392 ], [ -4.8421452, 41.1777248 ], [ -4.8427436, 41.177382 ], [ -4.8419704, 41.177016 ], [ -4.8406836, 41.1778923 ], [ -4.8372993, 41.1779463 ], [ -4.8310714, 41.1756316 ], [ -4.8309815, 41.1745432 ], [ -4.8309349, 41.1741566 ], [ -4.8303371, 41.174094 ], [ -4.8296845, 41.1733478 ], [ -4.827174, 41.1705143 ], [ -4.8264394, 41.1702467 ], [ -4.8255012, 41.169514 ], [ -4.8254923, 41.1687665 ], [ -4.824887, 41.1680015 ], [ -4.8244375, 41.1668377 ], [ -4.8244129, 41.166811 ], [ -4.822026, 41.164552 ], [ -4.8212669, 41.1621049 ], [ -4.8211765, 41.1618541 ], [ -4.819973, 41.1614318 ], [ -4.8187882, 41.1603966 ], [ -4.8153388, 41.1619463 ], [ -4.81325, 41.1635645 ], [ -4.8122827, 41.1639311 ], [ -4.809753, 41.1646914 ], [ -4.8019884, 41.1662453 ], [ -4.8007708, 41.1666156 ], [ -4.8001208, 41.166815 ], [ -4.799979, 41.1668622 ], [ -4.798546, 41.1671999 ], [ -4.7978932, 41.1668678 ], [ -4.7977964, 41.1668153 ], [ -4.7959735, 41.16597 ], [ -4.7948258, 41.1654114 ], [ -4.7939346, 41.1668214 ], [ -4.7939001, 41.166867 ], [ -4.7917404, 41.1689723 ], [ -4.7904286, 41.1702627 ], [ -4.7880481, 41.1721463 ], [ -4.7856438, 41.1740391 ], [ -4.7790728, 41.1783472 ], [ -4.7741258, 41.1819004 ], [ -4.7702292, 41.1828611 ], [ -4.7697515, 41.1828324 ], [ -4.7667201, 41.1827168 ], [ -4.756078, 41.1788803 ], [ -4.7530568, 41.1769087 ], [ -4.7488219, 41.16829 ], [ -4.7474024, 41.1669063 ], [ -4.7473047, 41.1668178 ], [ -4.745708, 41.1654909 ], [ -4.7431961, 41.16561 ], [ -4.7412481, 41.1645135 ], [ -4.7403974, 41.1634455 ], [ -4.738391, 41.1632957 ], [ -4.7355339, 41.1616183 ], [ -4.7346192, 41.1608304 ], [ -4.7342723, 41.1603312 ], [ -4.7341459, 41.1596036 ], [ -4.7331536, 41.1585826 ], [ -4.7317343, 41.1580905 ], [ -4.7300615, 41.1579266 ], [ -4.7290113, 41.1569695 ], [ -4.7277181, 41.1562864 ], [ -4.7264681, 41.1558817 ], [ -4.7245095, 41.1561813 ], [ -4.7213362, 41.1569674 ], [ -4.7182413, 41.1598509 ], [ -4.71593, 41.1617139 ], [ -4.7091018, 41.1668056 ], [ -4.7089497, 41.1669159 ], [ -4.7067954, 41.1693349 ], [ -4.7053328, 41.1703924 ], [ -4.7023401, 41.174508 ], [ -4.7028103, 41.1765547 ], [ -4.7022994, 41.179841 ], [ -4.7022832, 41.1824354 ], [ -4.7019057, 41.1835128 ], [ -4.7030196, 41.18555 ], [ -4.7050855, 41.1884289 ], [ -4.7083408, 41.1934788 ], [ -4.7079943, 41.194826 ], [ -4.7079611, 41.1963038 ], [ -4.7082366, 41.1981822 ], [ -4.7092441, 41.2002389 ], [ -4.7107106, 41.2020547 ], [ -4.7122127, 41.2034015 ], [ -4.7144632, 41.204638 ], [ -4.7154529, 41.2041729 ], [ -4.7180089, 41.2052247 ], [ -4.7192917, 41.2050254 ], [ -4.7199391, 41.2040537 ], [ -4.7200461, 41.2038931 ], [ -4.7204737, 41.2032514 ], [ -4.7204737, 41.2032513 ], [ -4.7211163, 41.2031342 ], [ -4.7225746, 41.2028686 ], [ -4.7246616, 41.2015043 ], [ -4.7281131, 41.1998762 ], [ -4.7295758, 41.1992689 ], [ -4.7315341, 41.1984557 ], [ -4.7336601, 41.1976761 ], [ -4.7425373, 41.1924619 ], [ -4.7499438, 41.1893862 ], [ -4.7520486, 41.1873816 ], [ -4.7540599, 41.1881346 ], [ -4.7554254, 41.1892578 ], [ -4.7562975, 41.1898794 ], [ -4.7581968, 41.1912331 ], [ -4.7595029, 41.1919157 ], [ -4.7639643, 41.1924239 ], [ -4.7643483, 41.1929585 ], [ -4.7671278, 41.1969872 ], [ -4.7671278, 41.1969872 ], [ -4.7683429, 41.1989338 ], [ -4.7683892, 41.199008 ], [ -4.7689099, 41.1998422 ], [ -4.7689987, 41.200039 ], [ -4.7714162, 41.2056584 ], [ -4.7739475, 41.2110599 ] ] ] } }
]
}
