{
"type": "FeatureCollection",
"name": "47096",
"features": [
{ "type": "Feature", "properties": { "CCAA": "07 - Castilla y León", "PROVINCIA": "47 - Valladolid", "MUNICIPIO": "47096 - Morales de Campos", "COD_MUNICIPIO": "47096", "DISTRITO": "01", "SECCION": "4709601001", "V1_H": 81.02, "V1_M": 86.64, "V2_H": 80.81080237, "V2_M": 86.47452022, "V3_H": 81.32513937, "V3_M": 86.89244175 }, "geometry": { "type": "Polygon", "coordinates": [ [ [ -5.1637534, 41.879989 ], [ -5.1666749, 41.8808525 ], [ -5.1712358, 41.8824415 ], [ -5.1726863, 41.8818557 ], [ -5.1746917, 41.8812863 ], [ -5.176496, 41.8815404 ], [ -5.1782559, 41.8822635 ], [ -5.1800489, 41.881473 ], [ -5.1805671, 41.8800582 ], [ -5.180717, 41.8787945 ], [ -5.1815159, 41.8774824 ], [ -5.1845752, 41.8746053 ], [ -5.187649, 41.871809 ], [ -5.1913669, 41.8688291 ], [ -5.1939746, 41.8626371 ], [ -5.194701, 41.8599214 ], [ -5.196892, 41.8584655 ], [ -5.1987886, 41.8572134 ], [ -5.1988244, 41.8572037 ], [ -5.199728, 41.8568532 ], [ -5.2034412, 41.8558814 ], [ -5.2055403, 41.8556159 ], [ -5.2092441, 41.852978 ], [ -5.2111206, 41.8518522 ], [ -5.2124894, 41.850673 ], [ -5.2116546, 41.8498695 ], [ -5.2053068, 41.8446149 ], [ -5.2015267, 41.8415083 ], [ -5.2010511, 41.8402836 ], [ -5.1985351, 41.8399626 ], [ -5.1978326, 41.8405524 ], [ -5.1959638, 41.8404891 ], [ -5.1957304, 41.8403584 ], [ -5.194755, 41.8389541 ], [ -5.1942955, 41.8385486 ], [ -5.1932639, 41.8386674 ], [ -5.1925891, 41.8375996 ], [ -5.1916162, 41.8369697 ], [ -5.1876398, 41.836199 ], [ -5.1840493, 41.8354387 ], [ -5.181485, 41.8351092 ], [ -5.174358, 41.837667 ], [ -5.1708015, 41.8386259 ], [ -5.1695289, 41.8391003 ], [ -5.1679469, 41.8396885 ], [ -5.1655296, 41.8412201 ], [ -5.1639424, 41.8423668 ], [ -5.1602441, 41.8444899 ], [ -5.1576099, 41.8453139 ], [ -5.1548854, 41.8463197 ], [ -5.1501148, 41.8477331 ], [ -5.1495768, 41.8489319 ], [ -5.1489162, 41.8500701 ], [ -5.1485265, 41.8513832 ], [ -5.1489038, 41.8532945 ], [ -5.1496816, 41.8567383 ], [ -5.1507089, 41.8571964 ], [ -5.1521715, 41.8584209 ], [ -5.152888, 41.859308 ], [ -5.1524345, 41.8608746 ], [ -5.1531995, 41.8624904 ], [ -5.154029, 41.8638708 ], [ -5.1563853, 41.8655107 ], [ -5.1582994, 41.8665375 ], [ -5.1584251, 41.8670484 ], [ -5.1589667, 41.8673895 ], [ -5.1589587, 41.867867 ], [ -5.15904, 41.8681356 ], [ -5.1591927, 41.8687362 ], [ -5.1596246, 41.8693945 ], [ -5.1603415, 41.8699304 ], [ -5.1609909, 41.8702513 ], [ -5.1624076, 41.8736741 ], [ -5.1627089, 41.8758208 ], [ -5.1616343, 41.8764714 ], [ -5.1637534, 41.879989 ] ] ] } }
]
}
