{
"type": "FeatureCollection",
"name": "47090",
"features": [
{ "type": "Feature", "properties": { "CCAA": "07 - Castilla y León", "PROVINCIA": "47 - Valladolid", "MUNICIPIO": "47090 - Mojados", "COD_MUNICIPIO": "47090", "DISTRITO": "01", "SECCION": "4709001002", "V1_H": 80.3, "V1_M": 86.18, "V2_H": 80.25682951, "V2_M": 86.26310791, "V3_H": 80.49886239, "V3_M": 86.29802272000001 }, "geometry": { "type": "Polygon", "coordinates": [ [ [ -4.6536843, 41.4508383 ], [ -4.6537647, 41.4508617 ], [ -4.6547456, 41.4511473 ], [ -4.6558622, 41.4517437 ], [ -4.6561629, 41.4522708 ], [ -4.6566787, 41.4523084 ], [ -4.6572954, 41.4525517 ], [ -4.6584046, 41.4525447 ], [ -4.6584086, 41.4525447 ], [ -4.6590362, 41.4527428 ], [ -4.6598805, 41.4534602 ], [ -4.6602206, 41.4536535 ], [ -4.6603643, 41.4541197 ], [ -4.6610468, 41.4541279 ], [ -4.6620844, 41.4544372 ], [ -4.6624043, 41.4547748 ], [ -4.6639189, 41.4550141 ], [ -4.6639189, 41.4550141 ], [ -4.6638443, 41.4555163 ], [ -4.6637861, 41.4559078 ], [ -4.6638149, 41.455909 ], [ -4.6645532, 41.4559417 ], [ -4.6663516, 41.455105 ], [ -4.6670292, 41.454915 ], [ -4.6680652, 41.4546404 ], [ -4.667629, 41.4535356 ], [ -4.6668163, 41.4514884 ], [ -4.6659526, 41.4494228 ], [ -4.6649505, 41.4469017 ], [ -4.6643295, 41.4454045 ], [ -4.6636559, 41.4438319 ], [ -4.6628712, 41.4418795 ], [ -4.6625191, 41.4409886 ], [ -4.6610019, 41.4371308 ], [ -4.6606259, 41.4362973 ], [ -4.6603009, 41.4354727 ], [ -4.6601655, 41.4351315 ], [ -4.6601356, 41.4349508 ], [ -4.660157, 41.434798 ], [ -4.6601661, 41.4347135 ], [ -4.6606043, 41.4342592 ], [ -4.6606961, 41.4341339 ], [ -4.6606954, 41.4341254 ], [ -4.6611031, 41.4336971 ], [ -4.6611894, 41.4336067 ], [ -4.6612688, 41.4335327 ], [ -4.6612689, 41.4335325 ], [ -4.6613552, 41.4334687 ], [ -4.6613558, 41.4334682 ], [ -4.6613812, 41.4334525 ], [ -4.6614347, 41.4334193 ], [ -4.6615164, 41.4333812 ], [ -4.6616459, 41.4333469 ], [ -4.6617508, 41.4333301 ], [ -4.6618749, 41.433313 ], [ -4.6619251, 41.4333344 ], [ -4.6621142, 41.4334148 ], [ -4.6621145, 41.4334149 ], [ -4.6621397, 41.4333713 ], [ -4.662257, 41.4332429 ], [ -4.6622573, 41.4332426 ], [ -4.6624142, 41.4331557 ], [ -4.6625228, 41.4330947 ], [ -4.6626437, 41.433047 ], [ -4.662735, 41.4330177 ], [ -4.6629066, 41.4329891 ], [ -4.6630172, 41.4329587 ], [ -4.66313, 41.4329255 ], [ -4.6632469, 41.4328626 ], [ -4.6632764, 41.4328424 ], [ -4.6633733, 41.4327784 ], [ -4.663374, 41.4327779 ], [ -4.6634801, 41.4326922 ], [ -4.6634807, 41.4326917 ], [ -4.6635812, 41.4325966 ], [ -4.6637059, 41.4324624 ], [ -4.6637678, 41.4324011 ], [ -4.6638647, 41.4323088 ], [ -4.6639976, 41.4321717 ], [ -4.6640766, 41.4320778 ], [ -4.6641372, 41.4319679 ], [ -4.6641462, 41.4318948 ], [ -4.6641784, 41.4318705 ], [ -4.6641785, 41.4318705 ], [ -4.6641791, 41.4318701 ], [ -4.6642232, 41.4317712 ], [ -4.664279, 41.4316587 ], [ -4.6643352, 41.4315625 ], [ -4.664395, 41.4314679 ], [ -4.6644529, 41.4313923 ], [ -4.6645111, 41.4313284 ], [ -4.6646036, 41.431246 ], [ -4.6646761, 41.4311819 ], [ -4.66476, 41.4311172 ], [ -4.6647606, 41.4311168 ], [ -4.664841, 41.4310566 ], [ -4.6648417, 41.4310561 ], [ -4.664921, 41.4310005 ], [ -4.6649863, 41.4309798 ], [ -4.6649869, 41.4309793 ], [ -4.6651777, 41.4308392 ], [ -4.6651783, 41.4308387 ], [ -4.6653503, 41.4307078 ], [ -4.6655527, 41.4305726 ], [ -4.6657483, 41.4304535 ], [ -4.6658331, 41.4303991 ], [ -4.6660215, 41.4302784 ], [ -4.6662807, 41.4301188 ], [ -4.6665213, 41.4299766 ], [ -4.66677, 41.4298289 ], [ -4.6670261, 41.4296892 ], [ -4.6674975, 41.4294013 ], [ -4.6681754, 41.4290015 ], [ -4.6686717, 41.4287097 ], [ -4.668996, 41.4285212 ], [ -4.6692119, 41.4284001 ], [ -4.6693912, 41.4282957 ], [ -4.6695172, 41.4282173 ], [ -4.6696455, 41.4281317 ], [ -4.6697618, 41.428048 ], [ -4.670195, 41.4278126 ], [ -4.6701954, 41.4278122 ], [ -4.6701956, 41.4278121 ], [ -4.6715471, 41.4264891 ], [ -4.6749725, 41.4231809 ], [ -4.6779772, 41.4202501 ], [ -4.6810112, 41.4172476 ], [ -4.6839435, 41.4143808 ], [ -4.6854939, 41.4128612 ], [ -4.6863966, 41.4116553 ], [ -4.6868216, 41.4108472 ], [ -4.6870994, 41.4098242 ], [ -4.6872129, 41.4089379 ], [ -4.6872019, 41.4087129 ], [ -4.6857682, 41.4077844 ], [ -4.6838448, 41.4083642 ], [ -4.680811, 41.409021 ], [ -4.6796238, 41.4087745 ], [ -4.6792714, 41.4087013 ], [ -4.6792713, 41.4087013 ], [ -4.67826, 41.4093825 ], [ -4.67826, 41.4093826 ], [ -4.6782597, 41.4093828 ], [ -4.6782594, 41.409383 ], [ -4.6782593, 41.4093831 ], [ -4.6777809, 41.4098309 ], [ -4.6765039, 41.4099486 ], [ -4.6753913, 41.4090191 ], [ -4.6734961, 41.4083621 ], [ -4.6734961, 41.4083621 ], [ -4.6737587, 41.4079774 ], [ -4.6740612, 41.4075343 ], [ -4.6740611, 41.4075343 ], [ -4.6733594, 41.4076976 ], [ -4.6727623, 41.4072739 ], [ -4.6729347, 41.4055961 ], [ -4.6720135, 41.4051321 ], [ -4.6720134, 41.4051328 ], [ -4.6720129, 41.4051326 ], [ -4.6719006, 41.4058815 ], [ -4.6704974, 41.40619 ], [ -4.6704972, 41.4061904 ], [ -4.6704968, 41.4061904 ], [ -4.6699723, 41.407179 ], [ -4.6699721, 41.4071794 ], [ -4.666642, 41.4074709 ], [ -4.6662747, 41.4066745 ], [ -4.6636445, 41.40651 ], [ -4.6610144, 41.4063454 ], [ -4.6610144, 41.4063453 ], [ -4.6608826, 41.4058699 ], [ -4.6597707, 41.4040124 ], [ -4.6591976, 41.4035883 ], [ -4.6591862, 41.4035865 ], [ -4.6556203, 41.4028102 ], [ -4.6555888, 41.4028027 ], [ -4.6534669, 41.4021487 ], [ -4.6521283, 41.4017266 ], [ -4.6521281, 41.4017272 ], [ -4.6521277, 41.4017271 ], [ -4.6519852, 41.4022425 ], [ -4.6511513, 41.4028305 ], [ -4.6511512, 41.4028306 ], [ -4.6511507, 41.4028309 ], [ -4.650863, 41.403267 ], [ -4.6475981, 41.4037642 ], [ -4.6466704, 41.4035072 ], [ -4.6462723, 41.4029004 ], [ -4.6457557, 41.4023404 ], [ -4.6449368, 41.4016495 ], [ -4.6438083, 41.4019629 ], [ -4.6428405, 41.4015354 ], [ -4.6428402, 41.401536 ], [ -4.6428401, 41.401536 ], [ -4.6428399, 41.4015359 ], [ -4.6428399, 41.4015359 ], [ -4.6427197, 41.4017391 ], [ -4.6425874, 41.4019628 ], [ -4.6423849, 41.4021429 ], [ -4.6423306, 41.4021912 ], [ -4.6415114, 41.4024371 ], [ -4.6403045, 41.4024903 ], [ -4.6399778, 41.4025452 ], [ -4.6395421, 41.4026183 ], [ -4.638368, 41.402545 ], [ -4.6383677, 41.4025455 ], [ -4.6383674, 41.4025455 ], [ -4.6380935, 41.4030622 ], [ -4.6368795, 41.4028184 ], [ -4.6368794, 41.402819 ], [ -4.6368789, 41.4028189 ], [ -4.6367886, 41.4035133 ], [ -4.6359679, 41.403678 ], [ -4.6359678, 41.403678 ], [ -4.6340006, 41.4029854 ], [ -4.6329956, 41.4025043 ], [ -4.6312897, 41.4012585 ], [ -4.6295166, 41.4001938 ], [ -4.6287906, 41.3998618 ], [ -4.6287906, 41.3998618 ], [ -4.6275849, 41.3994825 ], [ -4.6265045, 41.3993267 ], [ -4.6265044, 41.3993267 ], [ -4.6256138, 41.3991051 ], [ -4.6238845, 41.3983549 ], [ -4.6211118, 41.3979707 ], [ -4.6211082, 41.3979716 ], [ -4.6209816, 41.3985091 ], [ -4.620981, 41.3985094 ], [ -4.6203893, 41.3987427 ], [ -4.6197644, 41.3991213 ], [ -4.6197863, 41.399121 ], [ -4.6189283, 41.3996408 ], [ -4.618928, 41.399641 ], [ -4.6189277, 41.3996412 ], [ -4.6179473, 41.4006279 ], [ -4.6176157, 41.4012355 ], [ -4.6172817, 41.4012582 ], [ -4.6169556, 41.4012928 ], [ -4.6167934, 41.40131 ], [ -4.6168208, 41.4015873 ], [ -4.6168401, 41.4017831 ], [ -4.6168396, 41.4017867 ], [ -4.6168391, 41.4017892 ], [ -4.6168398, 41.4017963 ], [ -4.6168398, 41.4017963 ], [ -4.6167982, 41.4020491 ], [ -4.6166606, 41.4027716 ], [ -4.6166606, 41.4027716 ], [ -4.6164559, 41.4031978 ], [ -4.6161283, 41.4038917 ], [ -4.6161284, 41.4038923 ], [ -4.6164142, 41.4053559 ], [ -4.6164141, 41.4053662 ], [ -4.6163901, 41.4067974 ], [ -4.61639, 41.4067976 ], [ -4.6163898, 41.4068107 ], [ -4.615531, 41.4088398 ], [ -4.6142963, 41.4087221 ], [ -4.6142962, 41.4087221 ], [ -4.6142957, 41.4087226 ], [ -4.6142956, 41.4087226 ], [ -4.6125598, 41.4105522 ], [ -4.6125599, 41.4105523 ], [ -4.612209, 41.4109221 ], [ -4.6071007, 41.4162808 ], [ -4.6069856, 41.4163979 ], [ -4.6070537, 41.4168001 ], [ -4.6076774, 41.4207456 ], [ -4.6076758, 41.4207462 ], [ -4.6076777, 41.4207584 ], [ -4.609473, 41.4202918 ], [ -4.6103959, 41.420351 ], [ -4.6113238, 41.4206172 ], [ -4.6131718, 41.4208255 ], [ -4.614519, 41.4215902 ], [ -4.6161701, 41.421585 ], [ -4.6175765, 41.4213581 ], [ -4.6200702, 41.4215482 ], [ -4.620499, 41.4219475 ], [ -4.6205562, 41.4223249 ], [ -4.6209958, 41.4223959 ], [ -4.6211208, 41.4224161 ], [ -4.6211209, 41.4224161 ], [ -4.6216866, 41.4224737 ], [ -4.6229084, 41.422598 ], [ -4.6240631, 41.4228339 ], [ -4.628844, 41.4235679 ], [ -4.6304575, 41.423491 ], [ -4.6308546, 41.4235754 ], [ -4.6316447, 41.4240686 ], [ -4.6319259, 41.4241506 ], [ -4.6324404, 41.4243006 ], [ -4.6344352, 41.4251099 ], [ -4.6348924, 41.4261662 ], [ -4.6349906, 41.4267413 ], [ -4.6348288, 41.4274461 ], [ -4.634938, 41.427985 ], [ -4.6354152, 41.4284016 ], [ -4.6356541, 41.4293349 ], [ -4.6358369, 41.4304222 ], [ -4.6337821, 41.4305685 ], [ -4.6334749, 41.4312033 ], [ -4.632801, 41.4320145 ], [ -4.632801, 41.4320146 ], [ -4.6327308, 41.432556 ], [ -4.6333709, 41.4337449 ], [ -4.6341042, 41.4343469 ], [ -4.6364389, 41.4343768 ], [ -4.6476261, 41.4399275 ], [ -4.6479866, 41.4405687 ], [ -4.6488168, 41.4420452 ], [ -4.649013, 41.4423988 ], [ -4.6524502, 41.4485942 ], [ -4.6534078, 41.4503198 ], [ -4.6536843, 41.4508383 ] ] ] } },
{ "type": "Feature", "properties": { "CCAA": "07 - Castilla y León", "PROVINCIA": "47 - Valladolid", "MUNICIPIO": "47090 - Mojados", "COD_MUNICIPIO": "47090", "DISTRITO": "01", "SECCION": "4709001001", "V1_H": 80.16, "V1_M": 86.09, "V2_H": 80.12695049, "V2_M": 86.02539962, "V3_H": 80.31827198000001, "V3_M": 86.38244546 }, "geometry": { "type": "Polygon", "coordinates": [ [ [ -4.7288975, 41.4628376 ], [ -4.7301952, 41.4625569 ], [ -4.7301952, 41.4625569 ], [ -4.730362, 41.4625274 ], [ -4.7311235, 41.4627952 ], [ -4.7319599, 41.4627285 ], [ -4.7327893, 41.4619504 ], [ -4.7327894, 41.4619504 ], [ -4.7348984, 41.4602163 ], [ -4.7378358, 41.4581183 ], [ -4.7380064, 41.457969 ], [ -4.7383388, 41.4576783 ], [ -4.7392555, 41.4561333 ], [ -4.7407095, 41.454544 ], [ -4.7425417, 41.4527689 ], [ -4.7440936, 41.4503676 ], [ -4.7444573, 41.4496415 ], [ -4.7444573, 41.4496414 ], [ -4.7451386, 41.4491537 ], [ -4.7457314, 41.4489376 ], [ -4.7452027, 41.4479728 ], [ -4.7430758, 41.4449877 ], [ -4.7426482, 41.4442196 ], [ -4.7418701, 41.4433216 ], [ -4.739605, 41.440978 ], [ -4.7373086, 41.4379053 ], [ -4.7370005, 41.4376254 ], [ -4.7364991, 41.4371699 ], [ -4.7356198, 41.4360663 ], [ -4.7343183, 41.4325822 ], [ -4.7339186, 41.4319577 ], [ -4.7325421, 41.4292493 ], [ -4.7309784, 41.4275975 ], [ -4.7301042, 41.4262236 ], [ -4.7277536, 41.4233226 ], [ -4.727378, 41.4226977 ], [ -4.7264024, 41.4211001 ], [ -4.7246785, 41.4188111 ], [ -4.7238119, 41.4181666 ], [ -4.7231099, 41.4174115 ], [ -4.7220168, 41.4167974 ], [ -4.7209, 41.4161926 ], [ -4.7182233, 41.4136025 ], [ -4.7170625, 41.4126831 ], [ -4.7153754, 41.4117715 ], [ -4.7145784, 41.4110358 ], [ -4.7138724, 41.410578 ], [ -4.7116454, 41.4096023 ], [ -4.7098626, 41.408683 ], [ -4.7069966, 41.4075187 ], [ -4.705177, 41.4070142 ], [ -4.7045466, 41.4066993 ], [ -4.7031915, 41.4065752 ], [ -4.6992416, 41.4055798 ], [ -4.6971117, 41.4055662 ], [ -4.6946944, 41.4057356 ], [ -4.6932068, 41.4058399 ], [ -4.6912717, 41.4062191 ], [ -4.6909955, 41.4059498 ], [ -4.6896742, 41.4062647 ], [ -4.6892709, 41.4063373 ], [ -4.6888925, 41.4063906 ], [ -4.6886777, 41.406408 ], [ -4.6884368, 41.4063973 ], [ -4.6880638, 41.4061692 ], [ -4.687298, 41.4066666 ], [ -4.6872781, 41.4068766 ], [ -4.6864855, 41.4070741 ], [ -4.6861152, 41.4071987 ], [ -4.6858206, 41.4073126 ], [ -4.6854412, 41.4078186 ], [ -4.6854179, 41.4078899 ], [ -4.6838448, 41.4083642 ], [ -4.6857682, 41.4077844 ], [ -4.6872019, 41.4087129 ], [ -4.6872129, 41.4089379 ], [ -4.6870994, 41.4098242 ], [ -4.6868216, 41.4108472 ], [ -4.6863966, 41.4116553 ], [ -4.6854939, 41.4128612 ], [ -4.6839435, 41.4143808 ], [ -4.6810112, 41.4172476 ], [ -4.6779772, 41.4202501 ], [ -4.6749725, 41.4231809 ], [ -4.6715471, 41.4264891 ], [ -4.6701956, 41.4278121 ], [ -4.6701954, 41.4278122 ], [ -4.670195, 41.4278126 ], [ -4.6697618, 41.428048 ], [ -4.6696455, 41.4281317 ], [ -4.6695172, 41.4282173 ], [ -4.6693912, 41.4282957 ], [ -4.6692119, 41.4284001 ], [ -4.668996, 41.4285212 ], [ -4.6686717, 41.4287097 ], [ -4.6681754, 41.4290015 ], [ -4.6674975, 41.4294013 ], [ -4.6670261, 41.4296892 ], [ -4.66677, 41.4298289 ], [ -4.6665213, 41.4299766 ], [ -4.6662807, 41.4301188 ], [ -4.6660215, 41.4302784 ], [ -4.6658331, 41.4303991 ], [ -4.6657483, 41.4304535 ], [ -4.6655527, 41.4305726 ], [ -4.6653503, 41.4307078 ], [ -4.6651783, 41.4308387 ], [ -4.6651777, 41.4308392 ], [ -4.6649869, 41.4309793 ], [ -4.6649863, 41.4309798 ], [ -4.664921, 41.4310005 ], [ -4.6648417, 41.4310561 ], [ -4.664841, 41.4310566 ], [ -4.6647606, 41.4311168 ], [ -4.66476, 41.4311172 ], [ -4.6646761, 41.4311819 ], [ -4.6646036, 41.431246 ], [ -4.6645111, 41.4313284 ], [ -4.6644529, 41.4313923 ], [ -4.664395, 41.4314679 ], [ -4.6643352, 41.4315625 ], [ -4.664279, 41.4316587 ], [ -4.6642232, 41.4317712 ], [ -4.6641791, 41.4318701 ], [ -4.6641785, 41.4318705 ], [ -4.6641784, 41.4318705 ], [ -4.6641462, 41.4318948 ], [ -4.6641372, 41.4319679 ], [ -4.6640766, 41.4320778 ], [ -4.6639976, 41.4321717 ], [ -4.6638647, 41.4323088 ], [ -4.6637678, 41.4324011 ], [ -4.6637059, 41.4324624 ], [ -4.6635812, 41.4325966 ], [ -4.6634807, 41.4326917 ], [ -4.6634801, 41.4326922 ], [ -4.663374, 41.4327779 ], [ -4.6633733, 41.4327784 ], [ -4.6632764, 41.4328424 ], [ -4.6632469, 41.4328626 ], [ -4.66313, 41.4329255 ], [ -4.6630172, 41.4329587 ], [ -4.6629066, 41.4329891 ], [ -4.662735, 41.4330177 ], [ -4.6626437, 41.433047 ], [ -4.6625228, 41.4330947 ], [ -4.6624142, 41.4331557 ], [ -4.6622573, 41.4332426 ], [ -4.662257, 41.4332429 ], [ -4.6621397, 41.4333713 ], [ -4.6621145, 41.4334149 ], [ -4.6621142, 41.4334148 ], [ -4.6619251, 41.4333344 ], [ -4.6618749, 41.433313 ], [ -4.6617508, 41.4333301 ], [ -4.6616459, 41.4333469 ], [ -4.6615164, 41.4333812 ], [ -4.6614347, 41.4334193 ], [ -4.6613812, 41.4334525 ], [ -4.6613558, 41.4334682 ], [ -4.6613552, 41.4334687 ], [ -4.6612689, 41.4335325 ], [ -4.6612688, 41.4335327 ], [ -4.6611894, 41.4336067 ], [ -4.6611031, 41.4336971 ], [ -4.6606954, 41.4341254 ], [ -4.6606961, 41.4341339 ], [ -4.6606043, 41.4342592 ], [ -4.6601661, 41.4347135 ], [ -4.660157, 41.434798 ], [ -4.6601356, 41.4349508 ], [ -4.6601655, 41.4351315 ], [ -4.6603009, 41.4354727 ], [ -4.6606259, 41.4362973 ], [ -4.6610019, 41.4371308 ], [ -4.6625191, 41.4409886 ], [ -4.6628712, 41.4418795 ], [ -4.6636559, 41.4438319 ], [ -4.6643295, 41.4454045 ], [ -4.6649505, 41.4469017 ], [ -4.6659526, 41.4494228 ], [ -4.6668163, 41.4514884 ], [ -4.667629, 41.4535356 ], [ -4.6680652, 41.4546404 ], [ -4.6686465, 41.4544863 ], [ -4.671327, 41.4535016 ], [ -4.6725816, 41.4530041 ], [ -4.6735905, 41.4526039 ], [ -4.6744907, 41.4519361 ], [ -4.6763395, 41.4505644 ], [ -4.6775689, 41.4494926 ], [ -4.6781453, 41.4490968 ], [ -4.6801333, 41.4477347 ], [ -4.6829225, 41.4471578 ], [ -4.6851464, 41.4466976 ], [ -4.6865582, 41.4466679 ], [ -4.6865582, 41.4466679 ], [ -4.68764, 41.4468412 ], [ -4.6894368, 41.4473463 ], [ -4.6919267, 41.4482644 ], [ -4.6935039, 41.4490699 ], [ -4.6942699, 41.4499863 ], [ -4.6951038, 41.4507486 ], [ -4.6968348, 41.4533172 ], [ -4.6980386, 41.4544884 ], [ -4.6993201, 41.4554242 ], [ -4.70047, 41.4568213 ], [ -4.7015346, 41.4581567 ], [ -4.7029487, 41.4582078 ], [ -4.7036558, 41.4582334 ], [ -4.7048162, 41.4581981 ], [ -4.7048163, 41.4581981 ], [ -4.7057465, 41.4580583 ], [ -4.7071337, 41.458452 ], [ -4.7071337, 41.458452 ], [ -4.7087145, 41.4584646 ], [ -4.7094995, 41.4587231 ], [ -4.7108092, 41.4589018 ], [ -4.7108093, 41.4589018 ], [ -4.7108605, 41.4589019 ], [ -4.7118271, 41.4589046 ], [ -4.7137627, 41.459214 ], [ -4.7152298, 41.4594484 ], [ -4.7156603, 41.459642 ], [ -4.7162961, 41.4599279 ], [ -4.7166928, 41.459939 ], [ -4.7167154, 41.4599397 ], [ -4.7174722, 41.4595771 ], [ -4.7202832, 41.459472 ], [ -4.724189, 41.4609267 ], [ -4.7288975, 41.4628376 ] ] ] } }
]
}
