{
"type": "FeatureCollection",
"name": "47112",
"features": [
{ "type": "Feature", "properties": { "CCAA": "07 - Castilla y León", "PROVINCIA": "47 - Valladolid", "MUNICIPIO": "47112 - Pedrajas de San Esteban", "COD_MUNICIPIO": "47112", "DISTRITO": "01", "SECCION": "4711201002", "V1_H": 80.27, "V1_M": 86.36, "V2_H": 80.04050342, "V2_M": 86.25745667, "V3_H": 80.55487256000001, "V3_M": 86.64917866 }, "geometry": { "type": "Polygon", "coordinates": [ [ [ -4.5968511, 41.3205871 ], [ -4.593261, 41.3203486 ], [ -4.5888306, 41.3204369 ], [ -4.5847605, 41.3210965 ], [ -4.5814451, 41.3218447 ], [ -4.5793485, 41.3250711 ], [ -4.5784262, 41.3259664 ], [ -4.5771087, 41.3268312 ], [ -4.574567, 41.3279649 ], [ -4.5733236, 41.3294231 ], [ -4.5723299, 41.3308328 ], [ -4.569812, 41.3334703 ], [ -4.5697654, 41.3335159 ], [ -4.5673257, 41.3359361 ], [ -4.5667435, 41.3365745 ], [ -4.5660017, 41.337035 ], [ -4.5618444, 41.3396046 ], [ -4.5603567, 41.3403633 ], [ -4.5583906, 41.3411105 ], [ -4.5573908, 41.3432949 ], [ -4.5568651, 41.3448062 ], [ -4.5588541, 41.3495261 ], [ -4.5597303, 41.3506449 ], [ -4.5597589, 41.3506814 ], [ -4.5609084, 41.3501756 ], [ -4.570218, 41.3459118 ], [ -4.5727449, 41.3447333 ], [ -4.5746946, 41.3437534 ], [ -4.5768443, 41.3426754 ], [ -4.5797199, 41.3412823 ], [ -4.5818216, 41.3403192 ], [ -4.5837752, 41.3395106 ], [ -4.5856304, 41.3388178 ], [ -4.5870083, 41.338265 ], [ -4.5881351, 41.3377919 ], [ -4.5987584, 41.3335555 ], [ -4.6039674, 41.331424 ], [ -4.6082752, 41.3296861 ], [ -4.6119557, 41.3282173 ], [ -4.6092727, 41.3257643 ], [ -4.6044477, 41.3239041 ], [ -4.6009509, 41.3211426 ], [ -4.5982155, 41.321658 ], [ -4.5982155, 41.3216579 ], [ -4.5980136, 41.3212194 ], [ -4.5975837, 41.320739 ], [ -4.5968511, 41.3205871 ] ] ] } },
{ "type": "Feature", "properties": { "CCAA": "07 - Castilla y León", "PROVINCIA": "47 - Valladolid", "MUNICIPIO": "47112 - Pedrajas de San Esteban", "COD_MUNICIPIO": "47112", "DISTRITO": "01", "SECCION": "4711201001", "V1_H": 79.96, "V1_M": 85.86, "V2_H": 79.90630759, "V2_M": 85.80766239, "V3_H": 80.18166072, "V3_M": 86.22029934 }, "geometry": { "type": "Polygon", "coordinates": [ [ [ -4.5649975, 41.3785456 ], [ -4.5649995, 41.3785411 ], [ -4.5658042, 41.3791877 ], [ -4.5668794, 41.3801369 ], [ -4.5678122, 41.3806375 ], [ -4.5708177, 41.3812991 ], [ -4.5728824, 41.3821176 ], [ -4.5733083, 41.3822073 ], [ -4.5747695, 41.382515 ], [ -4.5747696, 41.3825151 ], [ -4.5764326, 41.3830417 ], [ -4.5786446, 41.3840112 ], [ -4.5800901, 41.384937 ], [ -4.5820617, 41.3853603 ], [ -4.5820618, 41.3853603 ], [ -4.5825687, 41.3855515 ], [ -4.5836315, 41.3854828 ], [ -4.5840632, 41.3855309 ], [ -4.5847653, 41.3858816 ], [ -4.5860059, 41.3857473 ], [ -4.5863659, 41.3857964 ], [ -4.587563, 41.3863383 ], [ -4.5887667, 41.386655 ], [ -4.5902757, 41.387724 ], [ -4.5905784, 41.3881206 ], [ -4.5908812, 41.3885172 ], [ -4.5912456, 41.3887509 ], [ -4.5916101, 41.3889845 ], [ -4.5919987, 41.3890971 ], [ -4.5928266, 41.3893369 ], [ -4.5957278, 41.389612 ], [ -4.5974783, 41.3897858 ], [ -4.6060967, 41.3900711 ], [ -4.6066465, 41.3900544 ], [ -4.6102798, 41.3899856 ], [ -4.6099627, 41.3867873 ], [ -4.6099849, 41.3867218 ], [ -4.6101411, 41.3862624 ], [ -4.6111632, 41.3850321 ], [ -4.6120086, 41.3843987 ], [ -4.6123789, 41.3838981 ], [ -4.6127051, 41.3820921 ], [ -4.6127575, 41.3817942 ], [ -4.6127576, 41.3817941 ], [ -4.613991, 41.3813806 ], [ -4.6147634, 41.3806942 ], [ -4.6153211, 41.3800379 ], [ -4.6159254, 41.3793268 ], [ -4.6160899, 41.3778473 ], [ -4.6160914, 41.3778344 ], [ -4.616121, 41.3775676 ], [ -4.6158769, 41.3754364 ], [ -4.6177966, 41.3732837 ], [ -4.6191279, 41.3710312 ], [ -4.6202081, 41.3711962 ], [ -4.6231985, 41.3678754 ], [ -4.6217695, 41.3666615 ], [ -4.624907, 41.3630144 ], [ -4.6208023, 41.3580373 ], [ -4.6206946, 41.3551385 ], [ -4.6198297, 41.3544842 ], [ -4.6186448, 41.3481508 ], [ -4.6180998, 41.3444835 ], [ -4.6159938, 41.3404085 ], [ -4.6149619, 41.3384118 ], [ -4.6136949, 41.3350158 ], [ -4.6134198, 41.3335515 ], [ -4.6133942, 41.3334798 ], [ -4.6131131, 41.3327452 ], [ -4.6128555, 41.330533 ], [ -4.6126419, 41.3296263 ], [ -4.6123777, 41.3286031 ], [ -4.6119557, 41.3282173 ], [ -4.6082752, 41.3296861 ], [ -4.6039674, 41.331424 ], [ -4.5987584, 41.3335555 ], [ -4.5881351, 41.3377919 ], [ -4.5870083, 41.338265 ], [ -4.5856304, 41.3388178 ], [ -4.5837752, 41.3395106 ], [ -4.5818216, 41.3403192 ], [ -4.5797199, 41.3412823 ], [ -4.5768443, 41.3426754 ], [ -4.5746946, 41.3437534 ], [ -4.5727449, 41.3447333 ], [ -4.570218, 41.3459118 ], [ -4.5609084, 41.3501756 ], [ -4.5597589, 41.3506814 ], [ -4.5601733, 41.3512106 ], [ -4.5606789, 41.3518612 ], [ -4.561979, 41.3547439 ], [ -4.5633195, 41.3568244 ], [ -4.5643379, 41.3584048 ], [ -4.5652336, 41.3608606 ], [ -4.5661483, 41.3621182 ], [ -4.5661087, 41.3639562 ], [ -4.5659525, 41.3649221 ], [ -4.5658882, 41.366229 ], [ -4.5660911, 41.3677124 ], [ -4.5660193, 41.3687042 ], [ -4.5651229, 41.370716 ], [ -4.5636675, 41.3738523 ], [ -4.5643574, 41.3756984 ], [ -4.5644248, 41.3765172 ], [ -4.5649337, 41.3783196 ], [ -4.5649975, 41.3785456 ] ] ] } }
]
}
