{
"type": "FeatureCollection",
"name": "47123",
"features": [
{ "type": "Feature", "properties": { "CCAA": "07 - Castilla y León", "PROVINCIA": "47 - Valladolid", "MUNICIPIO": "47123 - Pozal de Gallinas", "COD_MUNICIPIO": "47123", "DISTRITO": "01", "SECCION": "4712301001", "V1_H": 80.06, "V1_M": 86.09, "V2_H": 79.80248703, "V2_M": 86.14116428, "V3_H": 80.46064959, "V3_M": 86.17412372 }, "geometry": { "type": "Polygon", "coordinates": [ [ [ -4.7940118, 41.3501889 ], [ -4.795679, 41.3503971 ], [ -4.7979255, 41.350371 ], [ -4.7988634, 41.3505725 ], [ -4.8009707, 41.3507017 ], [ -4.8017911, 41.3509771 ], [ -4.8032796, 41.3516383 ], [ -4.8052722, 41.3523726 ], [ -4.8080432, 41.3514284 ], [ -4.8120227, 41.3535456 ], [ -4.8148674, 41.3535367 ], [ -4.8170676, 41.3531328 ], [ -4.8188844, 41.3526987 ], [ -4.8222596, 41.3524201 ], [ -4.8249463, 41.3527469 ], [ -4.8264869, 41.3526954 ], [ -4.8282244, 41.3528479 ], [ -4.8311692, 41.3534226 ], [ -4.832771, 41.3538475 ], [ -4.8353977, 41.3541659 ], [ -4.8371696, 41.3529847 ], [ -4.8406463, 41.3524968 ], [ -4.8423954, 41.3522076 ], [ -4.8440472, 41.3522892 ], [ -4.8442716, 41.3576989 ], [ -4.8478357, 41.3547954 ], [ -4.8493055, 41.3539342 ], [ -4.8515214, 41.3528267 ], [ -4.8543293, 41.3510972 ], [ -4.8561274, 41.3500144 ], [ -4.8577891, 41.3487626 ], [ -4.8592348, 41.3479016 ], [ -4.8620184, 41.3457489 ], [ -4.8630214, 41.344877 ], [ -4.8642518, 41.3440194 ], [ -4.8632247, 41.3423698 ], [ -4.8609844, 41.3358849 ], [ -4.8609033, 41.3334543 ], [ -4.8608101, 41.3297629 ], [ -4.8608101, 41.3297628 ], [ -4.8643413, 41.3283007 ], [ -4.8634275, 41.3272616 ], [ -4.8648186, 41.3265996 ], [ -4.8641791, 41.3251238 ], [ -4.8658383, 41.3242322 ], [ -4.8702341, 41.3220983 ], [ -4.8689663, 41.3203805 ], [ -4.8702575, 41.3195759 ], [ -4.870977, 41.3188346 ], [ -4.8704423, 41.3176814 ], [ -4.8699293, 41.3168701 ], [ -4.8691646, 41.3151982 ], [ -4.8689991, 41.3148406 ], [ -4.8706235, 41.3144089 ], [ -4.8706235, 41.3144089 ], [ -4.8706087, 41.3142964 ], [ -4.8700744, 41.3102476 ], [ -4.8700744, 41.3102475 ], [ -4.8688727, 41.3079072 ], [ -4.867886, 41.3064011 ], [ -4.867886, 41.306401 ], [ -4.8671747, 41.3053317 ], [ -4.8643004, 41.3059097 ], [ -4.8628988, 41.305347 ], [ -4.8629844, 41.303319 ], [ -4.8600947, 41.3025101 ], [ -4.8570495, 41.3012713 ], [ -4.8543321, 41.2997929 ], [ -4.8535444, 41.2993912 ], [ -4.8507614, 41.2989676 ], [ -4.8496185, 41.2948698 ], [ -4.8440777, 41.2948956 ], [ -4.8440776, 41.2948956 ], [ -4.8413708, 41.2954704 ], [ -4.8335634, 41.2964417 ], [ -4.8298408, 41.2961497 ], [ -4.8259067, 41.2968337 ], [ -4.8224154, 41.2971232 ], [ -4.8199437, 41.2975766 ], [ -4.8164796, 41.2975593 ], [ -4.8142098, 41.2971087 ], [ -4.8126044, 41.2964945 ], [ -4.8107258, 41.2959385 ], [ -4.8092362, 41.2956287 ], [ -4.8078543, 41.2948849 ], [ -4.805074, 41.2936765 ], [ -4.8020787, 41.2928948 ], [ -4.798494, 41.2928247 ], [ -4.7970149, 41.2933252 ], [ -4.7970149, 41.2933252 ], [ -4.796608, 41.2950339 ], [ -4.796543, 41.2957105 ], [ -4.7966326, 41.2960144 ], [ -4.7983779, 41.3019359 ], [ -4.799006, 41.3040666 ], [ -4.7995873, 41.3060931 ], [ -4.7995872, 41.3060932 ], [ -4.7983185, 41.3073019 ], [ -4.798269, 41.3102841 ], [ -4.7982633, 41.3105093 ], [ -4.7964282, 41.3158972 ], [ -4.7952628, 41.3201284 ], [ -4.7952223, 41.3202755 ], [ -4.7950392, 41.3214402 ], [ -4.7950301, 41.3228545 ], [ -4.7946238, 41.3254639 ], [ -4.7940874, 41.326382 ], [ -4.7940875, 41.326382 ], [ -4.7953022, 41.3266693 ], [ -4.7958263, 41.3279695 ], [ -4.7975719, 41.3322993 ], [ -4.798859, 41.3334771 ], [ -4.7988959, 41.3335126 ], [ -4.7989821, 41.3349073 ], [ -4.7993531, 41.3370993 ], [ -4.8000142, 41.3381067 ], [ -4.7995674, 41.3383749 ], [ -4.7986754, 41.3393976 ], [ -4.7983487, 41.3401233 ], [ -4.7983487, 41.3401233 ], [ -4.7976756, 41.3430251 ], [ -4.7960537, 41.3453292 ], [ -4.7957713, 41.3459281 ], [ -4.7928911, 41.3481167 ], [ -4.7930814, 41.3485191 ], [ -4.7930814, 41.3485191 ], [ -4.793515, 41.3490707 ], [ -4.7941286, 41.3496557 ], [ -4.7940118, 41.3501889 ] ] ] } }
]
}
