{
"type": "FeatureCollection",
"name": "47126",
"features": [
{ "type": "Feature", "properties": { "CCAA": "07 - Castilla y León", "PROVINCIA": "47 - Valladolid", "MUNICIPIO": "47126 - Puras", "COD_MUNICIPIO": "47126", "DISTRITO": "01", "SECCION": "4712601001", "V1_H": 75.48, "V1_M": 82.31, "V2_H": 75.36985678000001, "V2_M": 82.56533706, "V3_H": 75.8600571, "V3_M": 82.01450712 }, "geometry": { "type": "Polygon", "coordinates": [ [ [ -4.6319279, 41.184832 ], [ -4.6344789, 41.1872098 ], [ -4.6351816, 41.188614 ], [ -4.636352, 41.190606 ], [ -4.6383616, 41.1899019 ], [ -4.6404354, 41.1936825 ], [ -4.6426614, 41.1940021 ], [ -4.6443018, 41.1956991 ], [ -4.6453784, 41.19726 ], [ -4.6489554, 41.1991364 ], [ -4.6506254, 41.2001033 ], [ -4.6534229, 41.1989552 ], [ -4.6564319, 41.1981554 ], [ -4.658768, 41.1976354 ], [ -4.6620042, 41.1973365 ], [ -4.6629241, 41.1974043 ], [ -4.6644539, 41.1975353 ], [ -4.6690569, 41.1937757 ], [ -4.6715038, 41.1929295 ], [ -4.67226, 41.1917206 ], [ -4.6752521, 41.1916861 ], [ -4.676442, 41.1915877 ], [ -4.6787452, 41.1907255 ], [ -4.6814838, 41.1891723 ], [ -4.6817957, 41.1887804 ], [ -4.6827138, 41.1887759 ], [ -4.6842164, 41.18879 ], [ -4.6860796, 41.1879791 ], [ -4.6876526, 41.1874787 ], [ -4.6887644, 41.1871291 ], [ -4.6906868, 41.1863082 ], [ -4.6949057, 41.1866966 ], [ -4.6987058, 41.1861002 ], [ -4.7012903, 41.18599 ], [ -4.7030196, 41.18555 ], [ -4.7019057, 41.1835128 ], [ -4.7022832, 41.1824354 ], [ -4.7022994, 41.179841 ], [ -4.7028103, 41.1765547 ], [ -4.7023401, 41.174508 ], [ -4.6928495, 41.177233 ], [ -4.6876587, 41.1793629 ], [ -4.6844378, 41.1806801 ], [ -4.6830087, 41.1844661 ], [ -4.6805612, 41.1857359 ], [ -4.6737544, 41.1829797 ], [ -4.6659135, 41.1803281 ], [ -4.655135, 41.1741422 ], [ -4.6527131, 41.1721683 ], [ -4.6499629, 41.1708837 ], [ -4.6469075, 41.1697834 ], [ -4.6436946, 41.1680999 ], [ -4.6415068, 41.1678429 ], [ -4.6350887, 41.1681143 ], [ -4.6341858, 41.1682352 ], [ -4.6277528, 41.1707943 ], [ -4.6284232, 41.1766848 ], [ -4.6320426, 41.1827316 ], [ -4.6318407, 41.1837253 ], [ -4.6319279, 41.184832 ] ] ] } }
]
}
