{
"type": "FeatureCollection",
"name": "47143",
"features": [
{ "type": "Feature", "properties": { "CCAA": "07 - Castilla y León", "PROVINCIA": "47 - Valladolid", "MUNICIPIO": "47143 - San Llorente", "COD_MUNICIPIO": "47143", "DISTRITO": "01", "SECCION": "4714301001", "V1_H": 80.61, "V1_M": 86.39, "V2_H": 80.33359214, "V2_M": 86.26240397, "V3_H": 81.01911703, "V3_M": 86.63389387 }, "geometry": { "type": "MultiPolygon", "coordinates": [ [ [ [ -4.0602309, 41.6730232 ], [ -4.0615656, 41.6723625 ], [ -4.0643798, 41.671823 ], [ -4.0660195, 41.670727 ], [ -4.0655889, 41.6701095 ], [ -4.0658898, 41.6686837 ], [ -4.0663147, 41.6682294 ], [ -4.0656338, 41.6677313 ], [ -4.0655345, 41.6675341 ], [ -4.0657765, 41.6669104 ], [ -4.065811, 41.66682 ], [ -4.0660277, 41.6661154 ], [ -4.068402, 41.6658683 ], [ -4.0688616, 41.6667916 ], [ -4.0691061, 41.6655915 ], [ -4.0691201, 41.6649878 ], [ -4.0700975, 41.665258 ], [ -4.0694821, 41.6636335 ], [ -4.0702456, 41.661861 ], [ -4.0697817, 41.6606855 ], [ -4.0696915, 41.6595875 ], [ -4.0672138, 41.6593763 ], [ -4.0653711, 41.6590691 ], [ -4.0612632, 41.6583145 ], [ -4.059604, 41.6582128 ], [ -4.0583522, 41.6580441 ], [ -4.0542993, 41.6569735 ], [ -4.0527949, 41.6589959 ], [ -4.0527211, 41.659627 ], [ -4.0534431, 41.6597104 ], [ -4.0526519, 41.6620234 ], [ -4.0526774, 41.6628518 ], [ -4.0529526, 41.6635248 ], [ -4.0532573, 41.666008 ], [ -4.0537526, 41.6661835 ], [ -4.0537629, 41.6668139 ], [ -4.0537524, 41.6669131 ], [ -4.0538999, 41.6671099 ], [ -4.053788, 41.6676153 ], [ -4.0537782, 41.6684891 ], [ -4.0535656, 41.6694548 ], [ -4.0534749, 41.6705184 ], [ -4.0537971, 41.6711279 ], [ -4.0546033, 41.6712106 ], [ -4.0552755, 41.6711774 ], [ -4.0563971, 41.6721848 ], [ -4.0575103, 41.6719404 ], [ -4.057854, 41.6723876 ], [ -4.0588904, 41.6725852 ], [ -4.0602309, 41.6730232 ] ] ], [ [ [ -4.0603803, 41.6733371 ], [ -4.0602309, 41.6730232 ], [ -4.0600579, 41.6734571 ], [ -4.0599948, 41.6740072 ], [ -4.0603303, 41.6746886 ], [ -4.0599998, 41.6750429 ], [ -4.0603971, 41.6758319 ], [ -4.0600871, 41.6767083 ], [ -4.0594274, 41.677507 ], [ -4.0589376, 41.6791418 ], [ -4.0586474, 41.6804954 ], [ -4.0578756, 41.681061 ], [ -4.0576025, 41.6812526 ], [ -4.0565543, 41.6818117 ], [ -4.0564308, 41.6823442 ], [ -4.055667, 41.683396 ], [ -4.0553761, 41.6839752 ], [ -4.055067, 41.6849147 ], [ -4.0551696, 41.68531 ], [ -4.0558684, 41.6868978 ], [ -4.0565478, 41.6880355 ], [ -4.057086, 41.688616 ], [ -4.0573701, 41.6890907 ], [ -4.0575481, 41.6896835 ], [ -4.0574896, 41.6905127 ], [ -4.0571559, 41.6906869 ], [ -4.056856, 41.6907167 ], [ -4.0559776, 41.6906437 ], [ -4.0518394, 41.6903663 ], [ -4.0508912, 41.690429 ], [ -4.0489653, 41.690969 ], [ -4.0478684, 41.6915014 ], [ -4.0459647, 41.6919331 ], [ -4.0440646, 41.6925898 ], [ -4.0438516, 41.6927899 ], [ -4.0436688, 41.693377 ], [ -4.0430991, 41.6945621 ], [ -4.0427179, 41.6962588 ], [ -4.0428478, 41.6968611 ], [ -4.0429742, 41.6987423 ], [ -4.0432652, 41.7003879 ], [ -4.0432816, 41.7028917 ], [ -4.0429781, 41.7041914 ], [ -4.0419179, 41.7047864 ], [ -4.0401018, 41.7061989 ], [ -4.0391, 41.7066854 ], [ -4.0411516, 41.7094409 ], [ -4.0420557, 41.7110899 ], [ -4.0431688, 41.7115392 ], [ -4.0451391, 41.7122238 ], [ -4.0493722, 41.7153016 ], [ -4.051249, 41.7168697 ], [ -4.0519744, 41.7178628 ], [ -4.0529399, 41.7195652 ], [ -4.0534835, 41.7197314 ], [ -4.055075, 41.720014 ], [ -4.0560889, 41.7202569 ], [ -4.0589047, 41.7211587 ], [ -4.0602966, 41.7217223 ], [ -4.0617261, 41.7223846 ], [ -4.0642267, 41.7238477 ], [ -4.0661912, 41.7248652 ], [ -4.0670563, 41.7255597 ], [ -4.0681187, 41.7265496 ], [ -4.0687937, 41.7266514 ], [ -4.0698039, 41.726669 ], [ -4.0709561, 41.7265502 ], [ -4.0728142, 41.7262177 ], [ -4.0763588, 41.7260854 ], [ -4.078218, 41.7258248 ], [ -4.0800906, 41.7256451 ], [ -4.0815174, 41.7254155 ], [ -4.0834346, 41.7250282 ], [ -4.0885393, 41.7240162 ], [ -4.0913841, 41.7237461 ], [ -4.0931691, 41.7233688 ], [ -4.0948446, 41.7229206 ], [ -4.0980932, 41.7223672 ], [ -4.0997215, 41.7219733 ], [ -4.1004604, 41.721588 ], [ -4.1014184, 41.7213716 ], [ -4.1025456, 41.7211987 ], [ -4.1041185, 41.7210845 ], [ -4.1053944, 41.7204778 ], [ -4.1078319, 41.7195987 ], [ -4.1128944, 41.7182798 ], [ -4.1112493, 41.7149002 ], [ -4.1093777, 41.7109103 ], [ -4.1086895, 41.7086292 ], [ -4.1079889, 41.7035201 ], [ -4.1080709, 41.7026997 ], [ -4.1078753, 41.7018009 ], [ -4.1075231, 41.7008856 ], [ -4.1069565, 41.7000805 ], [ -4.1062817, 41.6992763 ], [ -4.1047625, 41.6982822 ], [ -4.1042854, 41.6977914 ], [ -4.1036786, 41.6960409 ], [ -4.1028819, 41.6944184 ], [ -4.1020606, 41.6934715 ], [ -4.1013649, 41.6928387 ], [ -4.1008128, 41.6921775 ], [ -4.1002818, 41.6913359 ], [ -4.0997042, 41.6898733 ], [ -4.0995213, 41.6890104 ], [ -4.0990469, 41.685142 ], [ -4.0985706, 41.6825617 ], [ -4.0982255, 41.68134 ], [ -4.097528, 41.6798875 ], [ -4.0968724, 41.678777 ], [ -4.0967401, 41.6780577 ], [ -4.0969148, 41.6763177 ], [ -4.096743, 41.6746891 ], [ -4.0965861, 41.673934 ], [ -4.0928662, 41.6770318 ], [ -4.0913573, 41.6787394 ], [ -4.090988, 41.6796436 ], [ -4.0908229, 41.6805369 ], [ -4.0911494, 41.6827945 ], [ -4.0912424, 41.6840365 ], [ -4.0911774, 41.6858835 ], [ -4.088495, 41.6864224 ], [ -4.0872891, 41.6854521 ], [ -4.0864393, 41.6849286 ], [ -4.0856781, 41.6846747 ], [ -4.084449, 41.6844611 ], [ -4.0837607, 41.6842605 ], [ -4.081208, 41.6832127 ], [ -4.0792324, 41.682907 ], [ -4.0782665, 41.6826279 ], [ -4.077262, 41.6821869 ], [ -4.0760433, 41.6818741 ], [ -4.0728857, 41.6805616 ], [ -4.0708304, 41.6790587 ], [ -4.0706076, 41.6786644 ], [ -4.0698762, 41.6765726 ], [ -4.0689739, 41.6765 ], [ -4.0662907, 41.6755161 ], [ -4.0657092, 41.6752243 ], [ -4.0651249, 41.6747613 ], [ -4.0643283, 41.6745345 ], [ -4.0625505, 41.6760101 ], [ -4.0613211, 41.6750307 ], [ -4.0606603, 41.6742982 ], [ -4.0604012, 41.6738773 ], [ -4.0603803, 41.6733371 ] ] ] ] } }
]
}
