{
"type": "FeatureCollection",
"name": "47169",
"features": [
{ "type": "Feature", "properties": { "CCAA": "07 - Castilla y León", "PROVINCIA": "47 - Valladolid", "MUNICIPIO": "47169 - Torre de Esgueva", "COD_MUNICIPIO": "47169", "DISTRITO": "01", "SECCION": "4716901001", "V1_H": 75.48, "V1_M": 82.31, "V2_H": 75.36985678000001, "V2_M": 82.56533706, "V3_H": 75.8600571, "V3_M": 82.01450712 }, "geometry": { "type": "MultiPolygon", "coordinates": [ [ [ [ -4.2315919, 41.8069378 ], [ -4.2329267, 41.8081214 ], [ -4.2328513, 41.8041863 ], [ -4.2325312, 41.801929 ], [ -4.2321628, 41.8002937 ], [ -4.2331809, 41.7987697 ], [ -4.2343533, 41.7940016 ], [ -4.235391, 41.7916306 ], [ -4.2348958, 41.7902849 ], [ -4.2339544, 41.7882596 ], [ -4.2339506, 41.7855486 ], [ -4.2342594, 41.7828253 ], [ -4.234311, 41.7804919 ], [ -4.2340287, 41.7789458 ], [ -4.2330823, 41.7772807 ], [ -4.231774, 41.7743045 ], [ -4.2298639, 41.7731991 ], [ -4.2278475, 41.7728244 ], [ -4.223004, 41.7731012 ], [ -4.2209837, 41.7712494 ], [ -4.2200684, 41.7705656 ], [ -4.2182065, 41.7694505 ], [ -4.2166752, 41.7679986 ], [ -4.2150498, 41.7666558 ], [ -4.2142277, 41.7657999 ], [ -4.2133311, 41.7654671 ], [ -4.2123904, 41.7640629 ], [ -4.2118415, 41.7636544 ], [ -4.2117135, 41.762611 ], [ -4.2115242, 41.7621356 ], [ -4.2108703, 41.7612689 ], [ -4.2099455, 41.7600627 ], [ -4.2097277, 41.7580745 ], [ -4.2098083, 41.7553176 ], [ -4.20971, 41.7526436 ], [ -4.209828, 41.7512373 ], [ -4.209594, 41.7503031 ], [ -4.2094825, 41.7501332 ], [ -4.2089526, 41.7494542 ], [ -4.2098097, 41.7489768 ], [ -4.209965, 41.7482817 ], [ -4.2098045, 41.7467792 ], [ -4.209886, 41.7453553 ], [ -4.2089745, 41.744203 ], [ -4.2098257, 41.74278 ], [ -4.2113452, 41.7391613 ], [ -4.2112197, 41.7382439 ], [ -4.2107478, 41.7380868 ], [ -4.2101364, 41.7375438 ], [ -4.2093994, 41.735435 ], [ -4.2083122, 41.7345277 ], [ -4.2073652, 41.7334028 ], [ -4.2062155, 41.7342886 ], [ -4.2068434, 41.7357141 ], [ -4.2065949, 41.7365723 ], [ -4.2066916, 41.7372469 ], [ -4.2063264, 41.7395744 ], [ -4.2060486, 41.7408023 ], [ -4.2056747, 41.7413826 ], [ -4.2044953, 41.7426289 ], [ -4.2040578, 41.7436693 ], [ -4.2045611, 41.7448619 ], [ -4.2038207, 41.7451399 ], [ -4.2029854, 41.7461394 ], [ -4.2021089, 41.7468601 ], [ -4.2014109, 41.7481283 ], [ -4.2012375, 41.7491479 ], [ -4.2008349, 41.7501338 ], [ -4.2005926, 41.7506858 ], [ -4.198519, 41.7536617 ], [ -4.1981342, 41.7543141 ], [ -4.1967474, 41.7554184 ], [ -4.1955348, 41.7561876 ], [ -4.1951631, 41.7562545 ], [ -4.1947181, 41.7569077 ], [ -4.1936828, 41.7588098 ], [ -4.1938785, 41.7602849 ], [ -4.1938963, 41.7625454 ], [ -4.1938885, 41.7627706 ], [ -4.1936416, 41.7643854 ], [ -4.1931686, 41.7674256 ], [ -4.1930307, 41.7697237 ], [ -4.193632, 41.7736084 ], [ -4.193588, 41.7744826 ], [ -4.191599, 41.7762324 ], [ -4.1909158, 41.7783291 ], [ -4.1893243, 41.7820654 ], [ -4.19001, 41.7840127 ], [ -4.1897542, 41.7844928 ], [ -4.188781, 41.7852324 ], [ -4.1876699, 41.7863247 ], [ -4.1876116, 41.7864244 ], [ -4.1873072, 41.7868869 ], [ -4.1876086, 41.7875683 ], [ -4.1877095, 41.7878194 ], [ -4.1877734, 41.7919349 ], [ -4.1879786, 41.7939232 ], [ -4.1876076, 41.7946926 ], [ -4.1871115, 41.7952021 ], [ -4.1867267, 41.7958726 ], [ -4.1862378, 41.7974268 ], [ -4.1862622, 41.798102 ], [ -4.1861237, 41.7990762 ], [ -4.1856671, 41.7997744 ], [ -4.1860044, 41.8024009 ], [ -4.1871052, 41.8026958 ], [ -4.1875954, 41.8025105 ], [ -4.1903598, 41.8016353 ], [ -4.1912282, 41.8017254 ], [ -4.1927446, 41.8023671 ], [ -4.1944126, 41.804034 ], [ -4.1963105, 41.8038162 ], [ -4.1970394, 41.8035294 ], [ -4.1988161, 41.8026191 ], [ -4.2006391, 41.8022668 ], [ -4.2041862, 41.8014101 ], [ -4.2077769, 41.8009671 ], [ -4.2095592, 41.8003719 ], [ -4.2111602, 41.7997336 ], [ -4.2123943, 41.7994323 ], [ -4.2139465, 41.7994069 ], [ -4.2151174, 41.7995837 ], [ -4.2152127, 41.8001681 ], [ -4.2162003, 41.8002027 ], [ -4.2173129, 41.8004791 ], [ -4.2200889, 41.8015124 ], [ -4.2207711, 41.8019375 ], [ -4.22179, 41.8029805 ], [ -4.2233707, 41.8031798 ], [ -4.2239864, 41.8039118 ], [ -4.2251727, 41.8042594 ], [ -4.226337, 41.8047154 ], [ -4.2276921, 41.8050792 ], [ -4.228748, 41.8061577 ], [ -4.2297266, 41.8069758 ], [ -4.2315919, 41.8069378 ] ] ], [ [ [ -4.2398783, 41.8021652 ], [ -4.2409544, 41.8030362 ], [ -4.2403259, 41.8041508 ], [ -4.2375515, 41.8082338 ], [ -4.2372124, 41.8100028 ], [ -4.2364643, 41.8105422 ], [ -4.2359091, 41.8110976 ], [ -4.2354456, 41.8120393 ], [ -4.2355886, 41.8132176 ], [ -4.2360245, 41.8139695 ], [ -4.2363371, 41.8114443 ], [ -4.2412459, 41.8081669 ], [ -4.2437359, 41.8061945 ], [ -4.2449868, 41.8055235 ], [ -4.2454946, 41.8050136 ], [ -4.2467278, 41.803424 ], [ -4.2474405, 41.8029299 ], [ -4.2486943, 41.8030334 ], [ -4.2504237, 41.8034469 ], [ -4.2521474, 41.8041847 ], [ -4.2548338, 41.8055244 ], [ -4.2562347, 41.8063737 ], [ -4.2580936, 41.8060201 ], [ -4.2597448, 41.8055066 ], [ -4.2602335, 41.8052581 ], [ -4.2610727, 41.8044743 ], [ -4.2621373, 41.8028955 ], [ -4.2627162, 41.8017272 ], [ -4.2633493, 41.8008646 ], [ -4.2642561, 41.7992334 ], [ -4.2655893, 41.7978587 ], [ -4.2668687, 41.7968178 ], [ -4.2676021, 41.7955578 ], [ -4.2687137, 41.7945548 ], [ -4.2696779, 41.7934003 ], [ -4.2712883, 41.7920585 ], [ -4.2749905, 41.7906124 ], [ -4.2774341, 41.7894234 ], [ -4.2787415, 41.7885982 ], [ -4.279955, 41.7866842 ], [ -4.2807483, 41.7854235 ], [ -4.2810804, 41.7845731 ], [ -4.2828513, 41.7822567 ], [ -4.283449, 41.7808449 ], [ -4.2842521, 41.778278 ], [ -4.2849267, 41.777712 ], [ -4.2862258, 41.7764906 ], [ -4.2865789, 41.7748835 ], [ -4.2862269, 41.7741309 ], [ -4.2856965, 41.7734793 ], [ -4.2841047, 41.7732989 ], [ -4.2834771, 41.7719909 ], [ -4.2823153, 41.7716527 ], [ -4.2796721, 41.7712318 ], [ -4.278998, 41.7706089 ], [ -4.2779994, 41.7699985 ], [ -4.2767014, 41.7694636 ], [ -4.2759331, 41.7701566 ], [ -4.2751032, 41.7713818 ], [ -4.2736828, 41.7725594 ], [ -4.2725957, 41.7741746 ], [ -4.271851, 41.7748493 ], [ -4.270363, 41.7744425 ], [ -4.2707394, 41.774006 ], [ -4.2713505, 41.7726573 ], [ -4.2712163, 41.7707313 ], [ -4.2714035, 41.7692432 ], [ -4.2732301, 41.7673135 ], [ -4.2742221, 41.7663747 ], [ -4.2748926, 41.7656018 ], [ -4.2749045, 41.7649892 ], [ -4.2744376, 41.7657149 ], [ -4.2738357, 41.766298 ], [ -4.2727567, 41.7671026 ], [ -4.270393, 41.7686419 ], [ -4.2695959, 41.7703169 ], [ -4.2690476, 41.7711876 ], [ -4.268212, 41.7721336 ], [ -4.2672638, 41.7716396 ], [ -4.2661671, 41.7709312 ], [ -4.2630429, 41.7692904 ], [ -4.263364, 41.7709441 ], [ -4.2644042, 41.7718333 ], [ -4.264353, 41.7729056 ], [ -4.2637314, 41.7731106 ], [ -4.2637152, 41.7741286 ], [ -4.262997, 41.7749291 ], [ -4.2608427, 41.7767451 ], [ -4.2595669, 41.777957 ], [ -4.2610968, 41.7786607 ], [ -4.2653291, 41.7803345 ], [ -4.2627694, 41.7811192 ], [ -4.2618082, 41.7811928 ], [ -4.260491, 41.782135 ], [ -4.2582919, 41.7835192 ], [ -4.2570969, 41.784568 ], [ -4.2562392, 41.7856312 ], [ -4.2563591, 41.7874582 ], [ -4.2562916, 41.788936 ], [ -4.256374, 41.7906915 ], [ -4.2539145, 41.7935555 ], [ -4.254035, 41.7947971 ], [ -4.2525952, 41.7956504 ], [ -4.2516045, 41.796697 ], [ -4.2493341, 41.7969289 ], [ -4.2474798, 41.796886 ], [ -4.245706, 41.7966531 ], [ -4.2447496, 41.7963662 ], [ -4.2441287, 41.7966251 ], [ -4.2426452, 41.7983345 ], [ -4.2410441, 41.7989462 ], [ -4.2415667, 41.7998322 ], [ -4.2398783, 41.8021652 ] ] ] ] } }
]
}
