{
"type": "FeatureCollection",
"name": "47160",
"features": [
{ "type": "Feature", "properties": { "CCAA": "07 - Castilla y León", "PROVINCIA": "47 - Valladolid", "MUNICIPIO": "47160 - Siete Iglesias de Trabancos", "COD_MUNICIPIO": "47160", "DISTRITO": "01", "SECCION": "4716001001", "V1_H": 79.94, "V1_M": 85.93, "V2_H": 80.18978947, "V2_M": 86.02067046000001, "V3_H": 79.89390484, "V3_M": 85.97042077 }, "geometry": { "type": "Polygon", "coordinates": [ [ [ -5.1568423, 41.40426 ], [ -5.1571357, 41.4048129 ], [ -5.1576044, 41.4070468 ], [ -5.1575137, 41.4075619 ], [ -5.1576703, 41.4083155 ], [ -5.1583282, 41.4086725 ], [ -5.1594603, 41.4085431 ], [ -5.1599916, 41.4086863 ], [ -5.1608811, 41.4095342 ], [ -5.1610194, 41.4097388 ], [ -5.1617252, 41.4097345 ], [ -5.1626844, 41.4094373 ], [ -5.1647202, 41.409498 ], [ -5.1653288, 41.4094506 ], [ -5.1660641, 41.4092566 ], [ -5.16693, 41.4086729 ], [ -5.1677344, 41.4080362 ], [ -5.1695658, 41.4080648 ], [ -5.170521, 41.4080107 ], [ -5.1709108, 41.4082195 ], [ -5.1712952, 41.4086266 ], [ -5.1720111, 41.408568 ], [ -5.1726723, 41.4086636 ], [ -5.1731458, 41.4088709 ], [ -5.1741912, 41.410085 ], [ -5.1742672, 41.4109302 ], [ -5.1745296, 41.4119791 ], [ -5.1742583, 41.4131731 ], [ -5.1736268, 41.4139686 ], [ -5.1726114, 41.4143751 ], [ -5.171378, 41.4147046 ], [ -5.1713001, 41.4155978 ], [ -5.1703824, 41.4157051 ], [ -5.170251, 41.417509 ], [ -5.1738058, 41.4175409 ], [ -5.1740379, 41.4205538 ], [ -5.1738694, 41.4212415 ], [ -5.174023, 41.4229769 ], [ -5.1754848, 41.4237508 ], [ -5.1753084, 41.4252763 ], [ -5.176278, 41.4256453 ], [ -5.1768974, 41.4266333 ], [ -5.1775138, 41.427171 ], [ -5.1788641, 41.4274697 ], [ -5.179478, 41.4279354 ], [ -5.1807754, 41.4284422 ], [ -5.1819691, 41.4287078 ], [ -5.1825985, 41.428921 ], [ -5.1847358, 41.4291326 ], [ -5.1857413, 41.4291406 ], [ -5.1876713, 41.4288787 ], [ -5.1879821, 41.4285125 ], [ -5.1880968, 41.4283662 ], [ -5.1888635, 41.4269646 ], [ -5.1891263, 41.4262391 ], [ -5.1891975, 41.4255081 ], [ -5.1894892, 41.4245749 ], [ -5.191465, 41.4199889 ], [ -5.1925516, 41.417077 ], [ -5.1927333, 41.4167854 ], [ -5.1928463, 41.4165851 ], [ -5.1930197, 41.4160503 ], [ -5.1938805, 41.4149621 ], [ -5.194669, 41.4142175 ], [ -5.1974493, 41.410805 ], [ -5.2007866, 41.407949 ], [ -5.2066634, 41.4041436 ], [ -5.2073862, 41.4025266 ], [ -5.2079777, 41.4016235 ], [ -5.2096106, 41.3996827 ], [ -5.2104095, 41.3989019 ], [ -5.2113204, 41.3975423 ], [ -5.2130717, 41.3931043 ], [ -5.2148135, 41.3919179 ], [ -5.2154678, 41.3921665 ], [ -5.216878, 41.3914278 ], [ -5.217849, 41.3893826 ], [ -5.2179113, 41.3880483 ], [ -5.2182717, 41.387393 ], [ -5.2199722, 41.3853517 ], [ -5.2203878, 41.3838575 ], [ -5.2226327, 41.3791937 ], [ -5.2234398, 41.3779622 ], [ -5.2252122, 41.3759375 ], [ -5.2267754, 41.3747904 ], [ -5.2269089, 41.3744996 ], [ -5.2273462, 41.3739958 ], [ -5.229182, 41.3713843 ], [ -5.2313462, 41.3685863 ], [ -5.2322156, 41.3677858 ], [ -5.2327898, 41.3670992 ], [ -5.2337178, 41.365568 ], [ -5.2355549, 41.363704 ], [ -5.2361387, 41.3629451 ], [ -5.237784, 41.3603732 ], [ -5.2384971, 41.3595577 ], [ -5.2392001, 41.3591388 ], [ -5.2392822, 41.3590922 ], [ -5.2390971, 41.3589246 ], [ -5.2388884, 41.3587577 ], [ -5.2388881, 41.3587581 ], [ -5.2381561, 41.3586738 ], [ -5.2365041, 41.3540339 ], [ -5.2364234, 41.3538073 ], [ -5.2364217, 41.3538044 ], [ -5.2364217, 41.3538044 ], [ -5.2361149, 41.3532687 ], [ -5.2357199, 41.3525789 ], [ -5.2356133, 41.3524896 ], [ -5.2333923, 41.349065 ], [ -5.2324195, 41.3468156 ], [ -5.232419, 41.3468148 ], [ -5.2307874, 41.3438377 ], [ -5.2306833, 41.3411376 ], [ -5.2284753, 41.3408742 ], [ -5.2283926, 41.3404246 ], [ -5.2283432, 41.3401562 ], [ -5.2259379, 41.3404405 ], [ -5.2259304, 41.3404414 ], [ -5.2259256, 41.340442 ], [ -5.2257008, 41.3404686 ], [ -5.2247384, 41.3404212 ], [ -5.2183505, 41.3401067 ], [ -5.2182152, 41.3392903 ], [ -5.2138934, 41.3387149 ], [ -5.213101, 41.3389553 ], [ -5.2130997, 41.3389551 ], [ -5.2130997, 41.3389551 ], [ -5.2109002, 41.3387211 ], [ -5.207008, 41.3383068 ], [ -5.2070073, 41.3383064 ], [ -5.2052374, 41.3375391 ], [ -5.2025242, 41.3359111 ], [ -5.2025241, 41.335911 ], [ -5.2025175, 41.3359075 ], [ -5.2005834, 41.3338364 ], [ -5.2005722, 41.3338452 ], [ -5.2005436, 41.3338675 ], [ -5.1998965, 41.334373 ], [ -5.1980499, 41.3338313 ], [ -5.1976139, 41.3343716 ], [ -5.1961394, 41.3339439 ], [ -5.195231, 41.3338666 ], [ -5.1944644, 41.3334579 ], [ -5.1944643, 41.3334579 ], [ -5.1932105, 41.3327703 ], [ -5.1916754, 41.3319454 ], [ -5.1916748, 41.3319451 ], [ -5.191446, 41.3318221 ], [ -5.1907744, 41.3317718 ], [ -5.1907743, 41.3317718 ], [ -5.1901043, 41.3317216 ], [ -5.1876842, 41.3304616 ], [ -5.1866952, 41.3300472 ], [ -5.1866951, 41.3300471 ], [ -5.1865328, 41.3299791 ], [ -5.1861636, 41.3300934 ], [ -5.185784, 41.3302109 ], [ -5.1857819, 41.3302115 ], [ -5.1857812, 41.3302117 ], [ -5.1853856, 41.3303342 ], [ -5.1851532, 41.3298735 ], [ -5.1851529, 41.3298731 ], [ -5.1846563, 41.3288889 ], [ -5.1813457, 41.327438 ], [ -5.1789566, 41.3263908 ], [ -5.1789465, 41.3263864 ], [ -5.1764228, 41.3252807 ], [ -5.1689331, 41.3257008 ], [ -5.1689331, 41.3257008 ], [ -5.168933, 41.3257008 ], [ -5.1664607, 41.3264661 ], [ -5.1657575, 41.3266838 ], [ -5.1649635, 41.3269296 ], [ -5.1625819, 41.3276667 ], [ -5.1625818, 41.3276667 ], [ -5.1625743, 41.3276739 ], [ -5.1625696, 41.3276783 ], [ -5.1608326, 41.3293298 ], [ -5.1607744, 41.3293759 ], [ -5.1590534, 41.3308133 ], [ -5.1580251, 41.3315171 ], [ -5.1562986, 41.3324584 ], [ -5.1552195, 41.3330468 ], [ -5.1546119, 41.3334635 ], [ -5.154577, 41.3334911 ], [ -5.1535247, 41.3356454 ], [ -5.1488844, 41.3351738 ], [ -5.1449816, 41.3382368 ], [ -5.1439298, 41.338959 ], [ -5.1434926, 41.3386156 ], [ -5.1431569, 41.3383519 ], [ -5.1415484, 41.3377694 ], [ -5.1401141, 41.3388589 ], [ -5.1386829, 41.3385793 ], [ -5.1384196, 41.339665 ], [ -5.1374594, 41.3420967 ], [ -5.1360866, 41.3443378 ], [ -5.1376311, 41.3447865 ], [ -5.1372877, 41.3452522 ], [ -5.1369187, 41.3463939 ], [ -5.1368005, 41.347531 ], [ -5.1368192, 41.3484673 ], [ -5.1371088, 41.3500112 ], [ -5.137291, 41.3504671 ], [ -5.1396367, 41.3509189 ], [ -5.138443, 41.353526 ], [ -5.1378155, 41.3544384 ], [ -5.1370555, 41.3553262 ], [ -5.1358284, 41.3565468 ], [ -5.1334071, 41.3600054 ], [ -5.1329685, 41.3608511 ], [ -5.1309633, 41.363149 ], [ -5.1314538, 41.3635271 ], [ -5.1332216, 41.3623775 ], [ -5.1348466, 41.3616178 ], [ -5.135591, 41.3613519 ], [ -5.1371258, 41.3611252 ], [ -5.137494, 41.360686 ], [ -5.1381304, 41.3607733 ], [ -5.1392482, 41.3613199 ], [ -5.1428021, 41.3617852 ], [ -5.1439527, 41.3618719 ], [ -5.1444645, 41.3621685 ], [ -5.1444493, 41.3623422 ], [ -5.1444036, 41.3628632 ], [ -5.1439591, 41.3631597 ], [ -5.1431782, 41.3634084 ], [ -5.1411186, 41.3629424 ], [ -5.1403261, 41.3628401 ], [ -5.1398407, 41.3628383 ], [ -5.1395131, 41.3628372 ], [ -5.1391069, 41.3628916 ], [ -5.1388108, 41.3629313 ], [ -5.1388108, 41.3629313 ], [ -5.1381292, 41.3629259 ], [ -5.137549, 41.3630988 ], [ -5.1369261, 41.3634256 ], [ -5.1350294, 41.3639202 ], [ -5.134398, 41.3643553 ], [ -5.1346449, 41.3647882 ], [ -5.1348566, 41.3651594 ], [ -5.1356926, 41.3666254 ], [ -5.1358313, 41.3668686 ], [ -5.1358313, 41.3668686 ], [ -5.1359023, 41.3683083 ], [ -5.1360978, 41.3691693 ], [ -5.1365874, 41.3698808 ], [ -5.1365874, 41.3698808 ], [ -5.1370293, 41.3716919 ], [ -5.1368724, 41.3731089 ], [ -5.1364925, 41.3750164 ], [ -5.13648, 41.3760974 ], [ -5.13648, 41.3760975 ], [ -5.1371256, 41.376824 ], [ -5.1367231, 41.3771895 ], [ -5.1363359, 41.3775412 ], [ -5.1367267, 41.3780344 ], [ -5.136997, 41.3783756 ], [ -5.1369971, 41.3783756 ], [ -5.1386832, 41.3787406 ], [ -5.1392491, 41.379955 ], [ -5.1403973, 41.3816785 ], [ -5.1408968, 41.3824282 ], [ -5.1418189, 41.3831946 ], [ -5.143513, 41.3841628 ], [ -5.1442404, 41.3848247 ], [ -5.1454195, 41.3872256 ], [ -5.1461713, 41.3901046 ], [ -5.1465827, 41.3916802 ], [ -5.1465827, 41.3916802 ], [ -5.1482696, 41.3938735 ], [ -5.1491176, 41.3948324 ], [ -5.1494643, 41.3952246 ], [ -5.150009, 41.3958404 ], [ -5.1501243, 41.3971623 ], [ -5.1501121, 41.3974777 ], [ -5.1500856, 41.3981628 ], [ -5.1507599, 41.3990238 ], [ -5.1519385, 41.3995782 ], [ -5.1535619, 41.4009259 ], [ -5.1550584, 41.402411 ], [ -5.1560276, 41.4031404 ], [ -5.1568423, 41.40426 ] ] ] } }
]
}
