{
"type": "FeatureCollection",
"name": "47171",
"features": [
{ "type": "Feature", "properties": { "CCAA": "07 - Castilla y León", "PROVINCIA": "47 - Valladolid", "MUNICIPIO": "47171 - Torrelobatón", "COD_MUNICIPIO": "47171", "DISTRITO": "01", "SECCION": "4717101001", "V1_H": 80.21, "V1_M": 86.17, "V2_H": 80.05188782, "V2_M": 86.17746221, "V3_H": 80.45086201, "V3_M": 86.3559927 }, "geometry": { "type": "MultiPolygon", "coordinates": [ [ [ [ -4.9830808, 41.6793203 ], [ -4.9863437, 41.6815065 ], [ -4.9879336, 41.6820284 ], [ -4.9895158, 41.6826855 ], [ -4.9919625, 41.6821568 ], [ -4.995598, 41.6808328 ], [ -4.9961048, 41.6805178 ], [ -5.0004046, 41.6804791 ], [ -5.0009825, 41.6785776 ], [ -5.0021852, 41.6778452 ], [ -5.0032583, 41.6775833 ], [ -5.0055343, 41.6765979 ], [ -5.0071103, 41.6766695 ], [ -5.0078163, 41.6758106 ], [ -5.0086711, 41.6754804 ], [ -5.0100362, 41.6757267 ], [ -5.0134416, 41.6751357 ], [ -5.0153991, 41.6751194 ], [ -5.0160037, 41.6752439 ], [ -5.0171702, 41.6737464 ], [ -5.0176313, 41.6727385 ], [ -5.0176788, 41.6719541 ], [ -5.0184195, 41.6725896 ], [ -5.0191732, 41.6732609 ], [ -5.019581, 41.673623 ], [ -5.0209777, 41.6733462 ], [ -5.0210138, 41.6733456 ], [ -5.0220948, 41.6729573 ], [ -5.0240677, 41.6730487 ], [ -5.0285438, 41.6736632 ], [ -5.0297764, 41.6735154 ], [ -5.0305185, 41.6734302 ], [ -5.0341188, 41.6717904 ], [ -5.0366293, 41.6706472 ], [ -5.0392849, 41.6702939 ], [ -5.0434698, 41.6685443 ], [ -5.0442617, 41.6681339 ], [ -5.0442958, 41.6673138 ], [ -5.0443187, 41.666899 ], [ -5.0440966, 41.6644352 ], [ -5.0441049, 41.664318 ], [ -5.0440587, 41.6628597 ], [ -5.0454215, 41.6626554 ], [ -5.0566585, 41.6609867 ], [ -5.0579893, 41.6601614 ], [ -5.0584505, 41.6588021 ], [ -5.05898, 41.6577028 ], [ -5.0591067, 41.6564036 ], [ -5.0593998, 41.6554256 ], [ -5.0623835, 41.6555973 ], [ -5.0668141, 41.6563193 ], [ -5.069756, 41.6566806 ], [ -5.0750478, 41.6591611 ], [ -5.0749953, 41.6608913 ], [ -5.0752006, 41.6605543 ], [ -5.0763763, 41.6601368 ], [ -5.0777841, 41.6602194 ], [ -5.078313, 41.6606061 ], [ -5.0798646, 41.6599296 ], [ -5.0794525, 41.6594417 ], [ -5.0802387, 41.6592383 ], [ -5.0805582, 41.6587192 ], [ -5.0802697, 41.6583372 ], [ -5.0810933, 41.6581781 ], [ -5.0817654, 41.6589135 ], [ -5.0828318, 41.6584618 ], [ -5.084744, 41.6566799 ], [ -5.0849702, 41.6547574 ], [ -5.0849742, 41.6541359 ], [ -5.0842966, 41.6536078 ], [ -5.0833175, 41.6534094 ], [ -5.0825682, 41.6532608 ], [ -5.0817673, 41.6533744 ], [ -5.0800702, 41.6536303 ], [ -5.0783887, 41.6536247 ], [ -5.0778949, 41.6535796 ], [ -5.0756442, 41.6534221 ], [ -5.0706113, 41.6526393 ], [ -5.0649665, 41.651489 ], [ -5.0610991, 41.6503425 ], [ -5.0565396, 41.6485688 ], [ -5.0562613, 41.6485017 ], [ -5.0552814, 41.6482761 ], [ -5.0533315, 41.6454829 ], [ -5.053166, 41.6451886 ], [ -5.0504146, 41.6405904 ], [ -5.0476667, 41.6364693 ], [ -5.0485394, 41.6329412 ], [ -5.0491959, 41.6324431 ], [ -5.049372, 41.6315573 ], [ -5.0485244, 41.630951 ], [ -5.0483045, 41.6304505 ], [ -5.0488141, 41.6291085 ], [ -5.0451419, 41.6272464 ], [ -5.0428765, 41.6250711 ], [ -5.0395559, 41.6225452 ], [ -5.0381951, 41.6216416 ], [ -5.0364607, 41.6206906 ], [ -5.0352082, 41.6197941 ], [ -5.0330905, 41.6184806 ], [ -5.0326267, 41.6170928 ], [ -5.0316954, 41.6153349 ], [ -5.0309022, 41.61262 ], [ -5.0302526, 41.6110463 ], [ -5.0292288, 41.6090108 ], [ -5.0282224, 41.605615 ], [ -5.0283792, 41.6041081 ], [ -5.0280448, 41.6033935 ], [ -5.0257079, 41.603876 ], [ -5.0235895, 41.6044357 ], [ -5.0212018, 41.604829 ], [ -5.0209865, 41.6048508 ], [ -5.0161439, 41.6054132 ], [ -5.0142701, 41.6057433 ], [ -5.0114227, 41.6064056 ], [ -5.0092971, 41.6071272 ], [ -5.0078438, 41.6078642 ], [ -5.0075485, 41.6080134 ], [ -5.0068503, 41.6081734 ], [ -5.0066547, 41.6082182 ], [ -5.0027045, 41.6077647 ], [ -5.0013249, 41.6077797 ], [ -5.0008811, 41.6077874 ], [ -4.9999408, 41.608038 ], [ -4.9986277, 41.6074844 ], [ -4.9969682, 41.6081526 ], [ -4.993004, 41.6095815 ], [ -4.9921689, 41.6093528 ], [ -4.9864946, 41.609424 ], [ -4.9874889, 41.6105416 ], [ -4.9806367, 41.6113354 ], [ -4.9809205, 41.6123753 ], [ -4.9781422, 41.6121799 ], [ -4.9758188, 41.612337 ], [ -4.9744217, 41.6129644 ], [ -4.9736959, 41.6127787 ], [ -4.9724661, 41.6137726 ], [ -4.9708988, 41.6143308 ], [ -4.9679444, 41.6146607 ], [ -4.9662762, 41.6150585 ], [ -4.96552, 41.6154497 ], [ -4.9615796, 41.6153279 ], [ -4.9605455, 41.6160571 ], [ -4.9587338, 41.6164752 ], [ -4.9573316, 41.6169404 ], [ -4.9560423, 41.6171695 ], [ -4.9546264, 41.6175809 ], [ -4.951082, 41.6182536 ], [ -4.9488421, 41.6192013 ], [ -4.9444957, 41.6203557 ], [ -4.9420822, 41.6211261 ], [ -4.9379276, 41.6222769 ], [ -4.9344769, 41.6232898 ], [ -4.9333221, 41.6199947 ], [ -4.9239163, 41.6298347 ], [ -4.9207992, 41.6295716 ], [ -4.9197674, 41.6295889 ], [ -4.9183856, 41.6299542 ], [ -4.9169258, 41.630519 ], [ -4.9156504, 41.6312337 ], [ -4.9140742, 41.6323318 ], [ -4.913646, 41.633681 ], [ -4.9134329, 41.6349995 ], [ -4.9132448, 41.635543 ], [ -4.9115348, 41.6382104 ], [ -4.9110173, 41.6402005 ], [ -4.9107064, 41.6426825 ], [ -4.9109281, 41.6444982 ], [ -4.913565, 41.6439319 ], [ -4.9144777, 41.6435294 ], [ -4.9149522, 41.6413059 ], [ -4.9152834, 41.639517 ], [ -4.9180985, 41.6372725 ], [ -4.9180787, 41.6357957 ], [ -4.9197059, 41.6335889 ], [ -4.9347336, 41.6286625 ], [ -4.9369096, 41.6287699 ], [ -4.9379184, 41.6291852 ], [ -4.9398313, 41.6293241 ], [ -4.9415665, 41.6291417 ], [ -4.9437294, 41.6296095 ], [ -4.9448251, 41.6297171 ], [ -4.9481644, 41.628985 ], [ -4.9505345, 41.6295573 ], [ -4.9514517, 41.6293165 ], [ -4.955189, 41.6274607 ], [ -4.9580187, 41.6265569 ], [ -4.9608755, 41.6261569 ], [ -4.9652112, 41.6230657 ], [ -4.9671583, 41.6219695 ], [ -4.9690309, 41.6215772 ], [ -4.9721199, 41.6217134 ], [ -4.9755779, 41.6221404 ], [ -4.978898, 41.6200208 ], [ -4.9847878, 41.6222519 ], [ -4.9874112, 41.6232513 ], [ -4.9879152, 41.6259807 ], [ -4.9840752, 41.6326759 ], [ -4.9826888, 41.6352307 ], [ -4.9821546, 41.6362126 ], [ -4.981256, 41.6378403 ], [ -4.9802704, 41.6370197 ], [ -4.9789647, 41.6371142 ], [ -4.97711, 41.6365337 ], [ -4.9763958, 41.6367351 ], [ -4.9764666, 41.6414083 ], [ -4.9779384, 41.6435987 ], [ -4.9749678, 41.6469822 ], [ -4.9723818, 41.6495935 ], [ -4.9699022, 41.650978 ], [ -4.9699336, 41.6524005 ], [ -4.9667652, 41.6556251 ], [ -4.965424, 41.6573323 ], [ -4.9643363, 41.6594765 ], [ -4.9624013, 41.6614099 ], [ -4.9607505, 41.6624198 ], [ -4.9583754, 41.6641085 ], [ -4.9565447, 41.6651304 ], [ -4.9529659, 41.6663442 ], [ -4.9490401, 41.6668071 ], [ -4.9484417, 41.6668803 ], [ -4.9495014, 41.6677629 ], [ -4.9454144, 41.6700569 ], [ -4.9444642, 41.6704152 ], [ -4.9457609, 41.6711948 ], [ -4.9474438, 41.6728235 ], [ -4.9492876, 41.6750078 ], [ -4.9516249, 41.6780124 ], [ -4.9524319, 41.6792776 ], [ -4.9527935, 41.6805054 ], [ -4.9575115, 41.6811817 ], [ -4.9595843, 41.6813895 ], [ -4.9662252, 41.6808978 ], [ -4.9677631, 41.6808985 ], [ -4.9713656, 41.6804495 ], [ -4.9727946, 41.680425 ], [ -4.9737704, 41.68012 ], [ -4.9785411, 41.6801551 ], [ -4.9801374, 41.6797132 ], [ -4.9830808, 41.6793203 ] ] ], [ [ [ -5.0629696, 41.6927566 ], [ -5.0609376, 41.6930902 ], [ -5.0566146, 41.6950681 ], [ -5.0539793, 41.6960879 ], [ -5.0514895, 41.6963936 ], [ -5.0468435, 41.6969177 ], [ -5.04571, 41.6971721 ], [ -5.0432618, 41.6980353 ], [ -5.0385761, 41.69883 ], [ -5.0368339, 41.6992211 ], [ -5.0344978, 41.7002172 ], [ -5.0343674, 41.7002735 ], [ -5.0332236, 41.7013476 ], [ -5.0332075, 41.7023656 ], [ -5.0333569, 41.7029123 ], [ -5.0333697, 41.7067488 ], [ -5.0335306, 41.7084212 ], [ -5.0338892, 41.7098828 ], [ -5.0352607, 41.7122093 ], [ -5.029254, 41.7142249 ], [ -5.0274079, 41.7151491 ], [ -5.0292488, 41.7163505 ], [ -5.0305827, 41.7171015 ], [ -5.0357665, 41.7194776 ], [ -5.0361819, 41.7196863 ], [ -5.0380394, 41.7206441 ], [ -5.0380984, 41.7236512 ], [ -5.0385863, 41.7261554 ], [ -5.0389164, 41.7286082 ], [ -5.0392783, 41.7301689 ], [ -5.040086, 41.7325143 ], [ -5.0419278, 41.7325806 ], [ -5.0463471, 41.7327902 ], [ -5.0470026, 41.7318509 ], [ -5.0470581, 41.7309492 ], [ -5.0473786, 41.7296826 ], [ -5.0481305, 41.7295071 ], [ -5.0502754, 41.7285232 ], [ -5.051477, 41.7277452 ], [ -5.0737582, 41.7162493 ], [ -5.0756534, 41.7138824 ], [ -5.0771013, 41.7118118 ], [ -5.0794359, 41.7089145 ], [ -5.0805634, 41.7077233 ], [ -5.0799314, 41.706762 ], [ -5.0799436, 41.7060233 ], [ -5.0797838, 41.7047923 ], [ -5.0797654, 41.7034777 ], [ -5.0789754, 41.7005919 ], [ -5.0773657, 41.6972526 ], [ -5.076274, 41.6961916 ], [ -5.0762003, 41.6953913 ], [ -5.0740012, 41.6942693 ], [ -5.0742882, 41.6934805 ], [ -5.0738469, 41.6932093 ], [ -5.072105, 41.6932226 ], [ -5.0711913, 41.6928339 ], [ -5.0703776, 41.692191 ], [ -5.0667046, 41.6926895 ], [ -5.064707, 41.6925993 ], [ -5.0629696, 41.6927566 ] ] ] ] } }
]
}
