{
"type": "FeatureCollection",
"name": "48012",
"features": [
{ "type": "Feature", "properties": { "CCAA": "16 - País Vasco", "PROVINCIA": "48 - Bizkaia", "MUNICIPIO": "48012 - Bakio", "COD_MUNICIPIO": "48012", "DISTRITO": "01", "SECCION": "4801201002", "V1_H": 82.19, "V1_M": 87.25, "V2_H": 81.84285612, "V2_M": 87.14223952, "V3_H": 82.56554756, "V3_M": 87.46692958 }, "geometry": { "type": "Polygon", "coordinates": [ [ [ -2.7832459, 43.4482317 ], [ -2.7832586, 43.4482453 ], [ -2.783292, 43.4482813 ], [ -2.7833348, 43.4483129 ], [ -2.7833537, 43.4483265 ], [ -2.7833892, 43.4483355 ], [ -2.7834865, 43.4483402 ], [ -2.7835178, 43.4483403 ], [ -2.7835548, 43.4483358 ], [ -2.7835769, 43.4483314 ], [ -2.7836686, 43.448264 ], [ -2.7837267, 43.4482191 ], [ -2.783764, 43.4481832 ], [ -2.7838259, 43.4481428 ], [ -2.7838398, 43.4481293 ], [ -2.7838966, 43.4481294 ], [ -2.7839379, 43.448134 ], [ -2.7839723, 43.448143 ], [ -2.7840463, 43.4481837 ], [ -2.7840925, 43.4482198 ], [ -2.7841179, 43.4482424 ], [ -2.7841325, 43.4482649 ], [ -2.7842138, 43.4483146 ], [ -2.784247, 43.4483282 ], [ -2.7846474, 43.448356 ], [ -2.7846679, 43.448356 ], [ -2.7846942, 43.448356 ], [ -2.7847246, 43.4483471 ], [ -2.7847699, 43.4483202 ], [ -2.7847874, 43.4483067 ], [ -2.7848041, 43.4482797 ], [ -2.784808, 43.4482617 ], [ -2.7848394, 43.4482303 ], [ -2.7848603, 43.4482123 ], [ -2.7849318, 43.4481854 ], [ -2.784952, 43.4481809 ], [ -2.7849718, 43.4481494 ], [ -2.7849784, 43.4481315 ], [ -2.7850369, 43.4480775 ], [ -2.7850512, 43.4480641 ], [ -2.7850768, 43.4480551 ], [ -2.785098, 43.4480551 ], [ -2.7851394, 43.4480552 ], [ -2.7851613, 43.4480553 ], [ -2.7851838, 43.4480553 ], [ -2.785225, 43.4480734 ], [ -2.7852416, 43.4480824 ], [ -2.7853551, 43.4480916 ], [ -2.7853756, 43.4480917 ], [ -2.7854192, 43.4480828 ], [ -2.7854796, 43.4480604 ], [ -2.7855051, 43.4480559 ], [ -2.7855267, 43.448056 ], [ -2.7855545, 43.4480605 ], [ -2.7855769, 43.4480696 ], [ -2.7856386, 43.4480787 ], [ -2.7856591, 43.4480787 ], [ -2.7856846, 43.4480698 ], [ -2.785697, 43.4480563 ], [ -2.7857159, 43.4480518 ], [ -2.7857376, 43.4480519 ], [ -2.7857912, 43.4480745 ], [ -2.7858073, 43.448088 ], [ -2.7858641, 43.4480971 ], [ -2.785885, 43.4480971 ], [ -2.7859062, 43.4480927 ], [ -2.7859221, 43.4480792 ], [ -2.7859338, 43.4480567 ], [ -2.7859466, 43.4479352 ], [ -2.785949, 43.4479037 ], [ -2.7859638, 43.4478587 ], [ -2.7859864, 43.4478092 ], [ -2.7859989, 43.4477732 ], [ -2.7859964, 43.4477056 ], [ -2.7859907, 43.4476741 ], [ -2.7859935, 43.4476426 ], [ -2.786001, 43.4476201 ], [ -2.7860184, 43.4476067 ], [ -2.7860361, 43.4475121 ], [ -2.7860377, 43.4474896 ], [ -2.786102, 43.4474582 ], [ -2.786131, 43.4474448 ], [ -2.7861584, 43.4474403 ], [ -2.7861839, 43.4474404 ], [ -2.7862174, 43.4474675 ], [ -2.7862282, 43.447481 ], [ -2.7862559, 43.4474945 ], [ -2.7862768, 43.4474946 ], [ -2.7863015, 43.4474901 ], [ -2.7863236, 43.4474767 ], [ -2.7863467, 43.4474767 ], [ -2.7863745, 43.4474768 ], [ -2.7863948, 43.4474408 ], [ -2.7863972, 43.4474183 ], [ -2.7863876, 43.4473867 ], [ -2.7863792, 43.4473732 ], [ -2.7864388, 43.4473328 ], [ -2.7864674, 43.4473148 ], [ -2.7864841, 43.4473014 ], [ -2.7865642, 43.447261 ], [ -2.7865978, 43.4472431 ], [ -2.7866276, 43.4472206 ], [ -2.7866552, 43.4471846 ], [ -2.7866641, 43.4471622 ], [ -2.7866635, 43.4471351 ], [ -2.7866512, 43.4471036 ], [ -2.7866505, 43.4470811 ], [ -2.7866893, 43.4470451 ], [ -2.786749, 43.4470002 ], [ -2.7867744, 43.4469868 ], [ -2.7867862, 43.4469328 ], [ -2.7867863, 43.4469013 ], [ -2.7867953, 43.4468787 ], [ -2.7868185, 43.4468608 ], [ -2.7868762, 43.4468294 ], [ -2.7869373, 43.446789 ], [ -2.7869598, 43.446771 ], [ -2.7869715, 43.4467395 ], [ -2.7869681, 43.446708 ], [ -2.7869521, 43.4466719 ], [ -2.7869086, 43.4466178 ], [ -2.786879, 43.4465863 ], [ -2.7868156, 43.4464781 ], [ -2.786801, 43.4464511 ], [ -2.7867976, 43.446433 ], [ -2.7867715, 43.446406 ], [ -2.7867314, 43.4463744 ], [ -2.7866532, 43.4463247 ], [ -2.7865908, 43.4462886 ], [ -2.7865457, 43.446257 ], [ -2.7864921, 43.4462299 ], [ -2.7864732, 43.4462253 ], [ -2.7864334, 43.4462253 ], [ -2.7863808, 43.4462387 ], [ -2.7863604, 43.4462386 ], [ -2.7863205, 43.4462701 ], [ -2.7862686, 43.4463195 ], [ -2.7862562, 43.446333 ], [ -2.7862353, 43.4463374 ], [ -2.7862148, 43.4463374 ], [ -2.7861602, 43.4463778 ], [ -2.7860602, 43.4464677 ], [ -2.7859886, 43.4465261 ], [ -2.7859208, 43.446589 ], [ -2.7858413, 43.4466699 ], [ -2.7858231, 43.4466878 ], [ -2.7857825, 43.4467103 ], [ -2.7857569, 43.4467192 ], [ -2.7857141, 43.4467237 ], [ -2.7856936, 43.4467191 ], [ -2.7856763, 43.4467146 ], [ -2.7856698, 43.4466875 ], [ -2.785673, 43.4466605 ], [ -2.7856684, 43.4466425 ], [ -2.7856576, 43.446629 ], [ -2.7856287, 43.4466244 ], [ -2.785604, 43.4466289 ], [ -2.7855464, 43.4466513 ], [ -2.7855216, 43.4466603 ], [ -2.7855019, 43.4466647 ], [ -2.7854822, 43.4466647 ], [ -2.7855077, 43.4466467 ], [ -2.7855275, 43.4466242 ], [ -2.7855384, 43.4465973 ], [ -2.78554, 43.4465838 ], [ -2.7854644, 43.4465701 ], [ -2.7854435, 43.4465701 ], [ -2.7854266, 43.4465565 ], [ -2.7854181, 43.446543 ], [ -2.7854247, 43.4465295 ], [ -2.7854893, 43.4465071 ], [ -2.785519, 43.4465027 ], [ -2.7855419, 43.4464892 ], [ -2.785557, 43.4464712 ], [ -2.7855587, 43.4464487 ], [ -2.785534, 43.4464307 ], [ -2.785505, 43.4464216 ], [ -2.7854614, 43.446417 ], [ -2.785422, 43.4464259 ], [ -2.7853698, 43.4464394 ], [ -2.78534, 43.4464483 ], [ -2.7853087, 43.4464483 ], [ -2.7852532, 43.4464211 ], [ -2.7852266, 43.4464121 ], [ -2.7852086, 43.446394 ], [ -2.7852113, 43.4463761 ], [ -2.7851925, 43.4463445 ], [ -2.7851783, 43.4463265 ], [ -2.785115, 43.4463038 ], [ -2.785073, 43.4462947 ], [ -2.7850444, 43.4462812 ], [ -2.785012, 43.4462721 ], [ -2.7849842, 43.4462721 ], [ -2.7849217, 43.4462494 ], [ -2.784887, 43.4462358 ], [ -2.7848485, 43.4462133 ], [ -2.7848146, 43.4461817 ], [ -2.7847811, 43.4461411 ], [ -2.7847662, 43.4461141 ], [ -2.7847616, 43.446096 ], [ -2.7847721, 43.4460646 ], [ -2.784788, 43.4460376 ], [ -2.7848006, 43.4459881 ], [ -2.7848014, 43.4459701 ], [ -2.7847934, 43.445952 ], [ -2.7847795, 43.445943 ], [ -2.7846969, 43.4459383 ], [ -2.7846764, 43.4459338 ], [ -2.7846568, 43.4459248 ], [ -2.7846452, 43.4459067 ], [ -2.7846426, 43.4458932 ], [ -2.7846594, 43.4458527 ], [ -2.7846799, 43.4458258 ], [ -2.7846935, 43.4458123 ], [ -2.7847068, 43.4457628 ], [ -2.7847195, 43.4456592 ], [ -2.7847219, 43.4456413 ], [ -2.7847351, 43.4456278 ], [ -2.7847469, 43.4455558 ], [ -2.7847529, 43.4454928 ], [ -2.7847532, 43.4454207 ], [ -2.7847506, 43.4453982 ], [ -2.7847386, 43.4453757 ], [ -2.7847228, 43.4453666 ], [ -2.7847171, 43.4453486 ], [ -2.7846835, 43.4453486 ], [ -2.7846603, 43.4453485 ], [ -2.7846106, 43.4454519 ], [ -2.7845915, 43.4454924 ], [ -2.7845745, 43.4456095 ], [ -2.7845729, 43.445623 ], [ -2.7845481, 43.4456229 ], [ -2.7845374, 43.4456049 ], [ -2.784536, 43.4455779 ], [ -2.7844892, 43.4454697 ], [ -2.7844804, 43.4454472 ], [ -2.7844187, 43.4454336 ], [ -2.7843932, 43.4454335 ], [ -2.7843077, 43.4453793 ], [ -2.7842872, 43.4453613 ], [ -2.7842738, 43.4453433 ], [ -2.7843168, 43.4452893 ], [ -2.7843343, 43.4452713 ], [ -2.784346, 43.4452399 ], [ -2.784346, 43.4452174 ], [ -2.7843311, 43.4451903 ], [ -2.7843026, 43.4451677 ], [ -2.7842814, 43.4451587 ], [ -2.7842672, 43.4451361 ], [ -2.7842733, 43.4450461 ], [ -2.7842793, 43.4449921 ], [ -2.7842918, 43.4449471 ], [ -2.7843342, 43.4448706 ], [ -2.784368, 43.4448167 ], [ -2.7844219, 43.4447492 ], [ -2.7844642, 43.4446818 ], [ -2.7845022, 43.4446368 ], [ -2.7845367, 43.4446054 ], [ -2.7845882, 43.444574 ], [ -2.7846343, 43.4445336 ], [ -2.7846599, 43.4445066 ], [ -2.7848353, 43.4443763 ], [ -2.7849127, 43.4443225 ], [ -2.7849475, 43.4443 ], [ -2.7849912, 43.4442821 ], [ -2.7850168, 43.4442732 ], [ -2.7850851, 43.4442733 ], [ -2.7851056, 43.4442778 ], [ -2.7851867, 43.4442735 ], [ -2.7852624, 43.4442646 ], [ -2.7853165, 43.4442557 ], [ -2.7853726, 43.4442378 ], [ -2.7853992, 43.4442288 ], [ -2.7857288, 43.4441799 ], [ -2.7858138, 43.4441711 ], [ -2.7859418, 43.4441443 ], [ -2.7860504, 43.444122 ], [ -2.7861215, 43.4441041 ], [ -2.7861528, 43.4440907 ], [ -2.7861767, 43.4440862 ], [ -2.7862061, 43.4440908 ], [ -2.7862525, 43.4440864 ], [ -2.7863185, 43.4440685 ], [ -2.7864191, 43.4440282 ], [ -2.7864585, 43.4440102 ], [ -2.7864933, 43.4440058 ], [ -2.7865269, 43.4440059 ], [ -2.7865938, 43.4440015 ], [ -2.7866161, 43.4440015 ], [ -2.7867691, 43.4440063 ], [ -2.7867899, 43.4440064 ], [ -2.7868722, 43.443993 ], [ -2.7869376, 43.4439751 ], [ -2.786972, 43.4439707 ], [ -2.7870133, 43.4439572 ], [ -2.7870396, 43.4439438 ], [ -2.7870919, 43.4438899 ], [ -2.787114, 43.4438674 ], [ -2.7871686, 43.443827 ], [ -2.7871903, 43.443818 ], [ -2.7872305, 43.4438046 ], [ -2.7872521, 43.4438046 ], [ -2.7872896, 43.4438047 ], [ -2.787317, 43.4438138 ], [ -2.787349, 43.4438273 ], [ -2.7873686, 43.4438453 ], [ -2.7873851, 43.4438769 ], [ -2.7873981, 43.4439174 ], [ -2.7874029, 43.443967 ], [ -2.7874021, 43.4439805 ], [ -2.7875612, 43.4439898 ], [ -2.7875824, 43.4439943 ], [ -2.7876543, 43.4439764 ], [ -2.7876721, 43.4439675 ], [ -2.7877031, 43.443936 ], [ -2.7877435, 43.443873 ], [ -2.7877567, 43.4438551 ], [ -2.7878209, 43.4438147 ], [ -2.7878403, 43.4438012 ], [ -2.7878601, 43.4437742 ], [ -2.7878659, 43.4437607 ], [ -2.7878537, 43.4437247 ], [ -2.7878445, 43.4437112 ], [ -2.7878447, 43.4436571 ], [ -2.7878474, 43.4436436 ], [ -2.7878977, 43.4436167 ], [ -2.7879685, 43.4435943 ], [ -2.7879975, 43.4435854 ], [ -2.7881179, 43.4435946 ], [ -2.7882264, 43.4436038 ], [ -2.7882604, 43.4436039 ], [ -2.7883106, 43.4435995 ], [ -2.7883435, 43.443595 ], [ -2.7883856, 43.4435726 ], [ -2.7884096, 43.4435501 ], [ -2.7884229, 43.4435187 ], [ -2.7884237, 43.4435007 ], [ -2.7884107, 43.4434826 ], [ -2.7883694, 43.443469 ], [ -2.7883455, 43.4434555 ], [ -2.7883347, 43.443442 ], [ -2.7883375, 43.4434284 ], [ -2.7883681, 43.4434015 ], [ -2.7883936, 43.443388 ], [ -2.7884142, 43.443361 ], [ -2.7884193, 43.4433296 ], [ -2.788417, 43.4433071 ], [ -2.7884086, 43.4432935 ], [ -2.7883198, 43.4432843 ], [ -2.7882777, 43.4432798 ], [ -2.7882507, 43.4432752 ], [ -2.7882334, 43.4432662 ], [ -2.7882253, 43.4432527 ], [ -2.7882277, 43.4432211 ], [ -2.7882336, 43.4432076 ], [ -2.788293, 43.4432078 ], [ -2.7883135, 43.4432078 ], [ -2.7883405, 43.4432078 ], [ -2.7883842, 43.4431944 ], [ -2.7884009, 43.4431855 ], [ -2.7884165, 43.443136 ], [ -2.788426, 43.4430774 ], [ -2.7884334, 43.443046 ], [ -2.7884327, 43.4430324 ], [ -2.7884081, 43.4429964 ], [ -2.7883958, 43.4429874 ], [ -2.7883929, 43.4429333 ], [ -2.7883945, 43.4429198 ], [ -2.7884491, 43.4428659 ], [ -2.7884696, 43.4428479 ], [ -2.7884837, 43.4428209 ], [ -2.7884872, 43.4428074 ], [ -2.788473, 43.4427714 ], [ -2.7884607, 43.4427578 ], [ -2.7884569, 43.4427353 ], [ -2.7884651, 43.4427083 ], [ -2.7884565, 43.4426273 ], [ -2.7884531, 43.4426093 ], [ -2.7884632, 43.4425957 ], [ -2.7884937, 43.4425823 ], [ -2.7885644, 43.4425689 ], [ -2.7886518, 43.4425376 ], [ -2.7887006, 43.4425197 ], [ -2.7887246, 43.4425062 ], [ -2.7887436, 43.4424793 ], [ -2.7887518, 43.4424522 ], [ -2.7887712, 43.4424208 ], [ -2.7888312, 43.4423758 ], [ -2.7888626, 43.4423534 ], [ -2.7888889, 43.4423445 ], [ -2.7889503, 43.44234 ], [ -2.7889811, 43.4423446 ], [ -2.789012, 43.4423582 ], [ -2.789042, 43.4423807 ], [ -2.7890613, 43.4424033 ], [ -2.7890666, 43.4424213 ], [ -2.7891317, 43.4424664 ], [ -2.7891456, 43.44248 ], [ -2.7891768, 43.442489 ], [ -2.7892394, 43.4424937 ], [ -2.789261, 43.4424937 ], [ -2.7892974, 43.4424803 ], [ -2.7893453, 43.4424578 ], [ -2.7893658, 43.4424489 ], [ -2.7893782, 43.4424354 ], [ -2.7893767, 43.4424219 ], [ -2.7893159, 43.4423857 ], [ -2.789263, 43.4423586 ], [ -2.7892441, 43.4423541 ], [ -2.7892426, 43.4423316 ], [ -2.7892516, 43.4423091 ], [ -2.7892617, 43.4422956 ], [ -2.7893053, 43.4423002 ], [ -2.7893408, 43.4423093 ], [ -2.7894265, 43.4423184 ], [ -2.789447, 43.4423185 ], [ -2.7894725, 43.4423185 ], [ -2.7894937, 43.4423095 ], [ -2.7895096, 43.4422916 ], [ -2.7895205, 43.4422646 ], [ -2.7895214, 43.4422511 ], [ -2.7895075, 43.4422285 ], [ -2.7894867, 43.4422105 ], [ -2.7893981, 43.4421698 ], [ -2.7893719, 43.4421608 ], [ -2.7893568, 43.4421517 ], [ -2.7893488, 43.4421247 ], [ -2.7893496, 43.4420977 ], [ -2.7893555, 43.4420842 ], [ -2.7893721, 43.4420752 ], [ -2.7895003, 43.4420799 ], [ -2.7895212, 43.44208 ], [ -2.7895509, 43.44208 ], [ -2.7895694, 43.4420756 ], [ -2.789578, 43.4420621 ], [ -2.7895977, 43.4420486 ], [ -2.7896086, 43.4420351 ], [ -2.7896094, 43.4420216 ], [ -2.7896234, 43.4420036 ], [ -2.78964, 43.4419947 ], [ -2.7896844, 43.4419947 ], [ -2.7897056, 43.4419993 ], [ -2.7897411, 43.4420264 ], [ -2.7897626, 43.4420489 ], [ -2.7897707, 43.4420624 ], [ -2.7897857, 43.442076 ], [ -2.7898274, 43.4420805 ], [ -2.7898482, 43.4420851 ], [ -2.7898904, 43.4420447 ], [ -2.7899102, 43.4420221 ], [ -2.7899331, 43.4420087 ], [ -2.789954, 43.4419997 ], [ -2.7899744, 43.4419998 ], [ -2.7900519, 43.442036 ], [ -2.7901078, 43.4420676 ], [ -2.7901356, 43.4420811 ], [ -2.7901726, 43.4420902 ], [ -2.7902116, 43.4421038 ], [ -2.7902475, 43.4421128 ], [ -2.7902698, 43.4421129 ], [ -2.7903004, 43.4421084 ], [ -2.7903185, 43.442104 ], [ -2.7903342, 43.442059 ], [ -2.7903377, 43.442041 ], [ -2.7903169, 43.4420229 ], [ -2.7902988, 43.4420184 ], [ -2.7902775, 43.4420138 ], [ -2.7902738, 43.4419778 ], [ -2.7902815, 43.4418833 ], [ -2.790283, 43.4418698 ], [ -2.7903043, 43.4418608 ], [ -2.7903606, 43.4418924 ], [ -2.7903833, 43.4419105 ], [ -2.7904552, 43.4419016 ], [ -2.7904953, 43.4418927 ], [ -2.7905664, 43.4418883 ], [ -2.7905911, 43.4418883 ], [ -2.7906233, 43.4418749 ], [ -2.7906399, 43.4418659 ], [ -2.7906465, 43.4418435 ], [ -2.7906698, 43.4418255 ], [ -2.7906895, 43.4418165 ], [ -2.7907036, 43.4417625 ], [ -2.7907051, 43.4417445 ], [ -2.7907195, 43.4417265 ], [ -2.7907509, 43.4417131 ], [ -2.7908018, 43.4417132 ], [ -2.7908346, 43.4417177 ], [ -2.790879, 43.4417268 ], [ -2.7909233, 43.4417494 ], [ -2.7910001, 43.4417721 ], [ -2.7910692, 43.4417857 ], [ -2.7911078, 43.4417993 ], [ -2.7911251, 43.4418083 ], [ -2.7911424, 43.4418308 ], [ -2.7911519, 43.4418624 ], [ -2.7911604, 43.4418759 ], [ -2.7911801, 43.4418804 ], [ -2.7912148, 43.4418805 ], [ -2.7912361, 43.441885 ], [ -2.7913035, 43.4419257 ], [ -2.7913366, 43.4419527 ], [ -2.7913556, 43.4419618 ], [ -2.7914088, 43.4419709 ], [ -2.7914304, 43.441971 ], [ -2.7914494, 43.4419665 ], [ -2.791448, 43.4419125 ], [ -2.7914431, 43.4418854 ], [ -2.7914455, 43.4418674 ], [ -2.7914563, 43.4418584 ], [ -2.7914965, 43.4418405 ], [ -2.7915224, 43.4418361 ], [ -2.7915502, 43.4418181 ], [ -2.7915801, 43.4417911 ], [ -2.7916014, 43.4417777 ], [ -2.7916385, 43.4417642 ], [ -2.7916559, 43.4417597 ], [ -2.7916791, 43.4417598 ], [ -2.7916995, 43.4417598 ], [ -2.7917641, 43.4417419 ], [ -2.7917838, 43.4417375 ], [ -2.7917978, 43.4417105 ], [ -2.7918002, 43.441697 ], [ -2.791755, 43.4416699 ], [ -2.7917377, 43.4416609 ], [ -2.7917319, 43.4416473 ], [ -2.7917386, 43.4416293 ], [ -2.7917568, 43.4416114 ], [ -2.7917654, 43.4415934 ], [ -2.7918246, 43.4415529 ], [ -2.7918675, 43.4415305 ], [ -2.7918872, 43.4415261 ], [ -2.7919606, 43.4415262 ], [ -2.7919845, 43.4415262 ], [ -2.7920462, 43.4415579 ], [ -2.7920709, 43.4415624 ], [ -2.7921022, 43.4415625 ], [ -2.7921304, 43.441549 ], [ -2.7921524, 43.441549 ], [ -2.7921791, 43.4415491 ], [ -2.7922034, 43.4415626 ], [ -2.792225, 43.4415672 ], [ -2.7922687, 43.4415583 ], [ -2.7922876, 43.4415448 ], [ -2.7923544, 43.4415449 ], [ -2.7923761, 43.441545 ], [ -2.7924063, 43.4415225 ], [ -2.7924187, 43.4415045 ], [ -2.7924534, 43.4415001 ], [ -2.7924782, 43.4415046 ], [ -2.7925102, 43.4415047 ], [ -2.7925779, 43.4414733 ], [ -2.7926127, 43.4414554 ], [ -2.7926259, 43.4414419 ], [ -2.7926299, 43.4413969 ], [ -2.7926292, 43.4413788 ], [ -2.7926114, 43.4413743 ], [ -2.7925898, 43.4413743 ], [ -2.7925295, 43.4414102 ], [ -2.7925147, 43.4414191 ], [ -2.7924808, 43.4414236 ], [ -2.7924603, 43.4414235 ], [ -2.7924445, 43.4414145 ], [ -2.7924511, 43.441392 ], [ -2.7924663, 43.441374 ], [ -2.7924744, 43.441347 ], [ -2.7924737, 43.4413335 ], [ -2.7924268, 43.4412749 ], [ -2.7924137, 43.4412614 ], [ -2.7924099, 43.4412479 ], [ -2.7924595, 43.4412165 ], [ -2.7925004, 43.4411985 ], [ -2.7925155, 43.441185 ], [ -2.7925257, 43.441158 ], [ -2.7925289, 43.441104 ], [ -2.7925313, 43.4410905 ], [ -2.7925619, 43.4410726 ], [ -2.7926438, 43.4410502 ], [ -2.7927385, 43.4410234 ], [ -2.7927923, 43.4410055 ], [ -2.7928105, 43.441001 ], [ -2.7928376, 43.4409695 ], [ -2.7928481, 43.4409515 ], [ -2.7928516, 43.44092 ], [ -2.7928467, 43.440902 ], [ -2.7928286, 43.4408749 ], [ -2.7928075, 43.4408569 ], [ -2.7927909, 43.4408299 ], [ -2.7927837, 43.4408073 ], [ -2.7927861, 43.4407758 ], [ -2.7927978, 43.4407443 ], [ -2.7927994, 43.4407218 ], [ -2.7928161, 43.4406994 ], [ -2.7928292, 43.4406859 ], [ -2.7928492, 43.4406138 ], [ -2.7928618, 43.4405599 ], [ -2.792863, 43.4405418 ], [ -2.7928719, 43.4405284 ], [ -2.7928927, 43.4405284 ], [ -2.7929359, 43.4405645 ], [ -2.7929632, 43.4405961 ], [ -2.7930044, 43.4406277 ], [ -2.7930341, 43.4406457 ], [ -2.7930719, 43.4406593 ], [ -2.7931186, 43.4406684 ], [ -2.7931657, 43.440673 ], [ -2.7932514, 43.4406866 ], [ -2.7933062, 43.4407002 ], [ -2.7933401, 43.4407093 ], [ -2.7934184, 43.4407364 ], [ -2.7935056, 43.4407591 ], [ -2.7935326, 43.4407682 ], [ -2.7935811, 43.4408043 ], [ -2.7936065, 43.4408224 ], [ -2.793632, 43.4408359 ], [ -2.7936748, 43.4408495 ], [ -2.793703, 43.4408495 ], [ -2.7937699, 43.4408316 ], [ -2.7937962, 43.4408227 ], [ -2.7938499, 43.4408183 ], [ -2.7939001, 43.4408048 ], [ -2.7939889, 43.440796 ], [ -2.7940253, 43.4407916 ], [ -2.7940501, 43.4407781 ], [ -2.7940667, 43.4407647 ], [ -2.79408, 43.4407106 ], [ -2.7940816, 43.4406836 ], [ -2.7940744, 43.4406656 ], [ -2.7939083, 43.4405572 ], [ -2.7938879, 43.4405437 ], [ -2.7937813, 43.44053 ], [ -2.7937609, 43.44053 ], [ -2.7937435, 43.4405209 ], [ -2.7937362, 43.4405029 ], [ -2.7937428, 43.4404894 ], [ -2.7937595, 43.4404714 ], [ -2.7938287, 43.4404401 ], [ -2.7938477, 43.4404356 ], [ -2.7938558, 43.4404221 ], [ -2.7938535, 43.4404086 ], [ -2.7938405, 43.4403951 ], [ -2.7938, 43.440386 ], [ -2.7937722, 43.4403859 ], [ -2.7937533, 43.4403769 ], [ -2.7937376, 43.4403273 ], [ -2.793732, 43.4402913 ], [ -2.7937231, 43.4402688 ], [ -2.7937226, 43.4401967 ], [ -2.7937242, 43.4401833 ], [ -2.793754, 43.4401518 ], [ -2.793773, 43.4401338 ], [ -2.7937827, 43.4401158 ], [ -2.7937829, 43.4400528 ], [ -2.7937807, 43.4400258 ], [ -2.7937684, 43.4399987 ], [ -2.7937662, 43.4399852 ], [ -2.7937751, 43.4399717 ], [ -2.7937956, 43.4399583 ], [ -2.7939483, 43.439927 ], [ -2.7939811, 43.4399181 ], [ -2.7940834, 43.4399183 ], [ -2.7942167, 43.439923 ], [ -2.7943537, 43.4399323 ], [ -2.7943907, 43.4399368 ], [ -2.7944739, 43.439919 ], [ -2.7945322, 43.4399011 ], [ -2.7945918, 43.4398697 ], [ -2.7946209, 43.4398517 ], [ -2.7946529, 43.4398382 ], [ -2.7946811, 43.4398383 ], [ -2.7947089, 43.4398383 ], [ -2.7947402, 43.4398339 ], [ -2.7947627, 43.4397934 ], [ -2.7947644, 43.4397754 ], [ -2.7947883, 43.439753 ], [ -2.7948081, 43.439744 ], [ -2.7948417, 43.4397441 ], [ -2.7948691, 43.4397486 ], [ -2.7948938, 43.4397441 ], [ -2.7949491, 43.4397217 ], [ -2.7949681, 43.4397082 ], [ -2.7949774, 43.4396903 ], [ -2.7949775, 43.4396678 ], [ -2.7949675, 43.4396452 ], [ -2.7949777, 43.4396137 ], [ -2.7949889, 43.4395957 ], [ -2.7950476, 43.4395958 ], [ -2.7950839, 43.4395959 ], [ -2.7951465, 43.439587 ], [ -2.7952084, 43.4395691 ], [ -2.7952389, 43.4395602 ], [ -2.7953263, 43.4395198 ], [ -2.7953511, 43.4395063 ], [ -2.7954239, 43.4394344 ], [ -2.7954386, 43.4394165 ], [ -2.7955152, 43.4393806 ], [ -2.7955435, 43.4393671 ], [ -2.795564, 43.4393492 ], [ -2.7955764, 43.4393312 ], [ -2.7956541, 43.4393043 ], [ -2.795665, 43.4392998 ], [ -2.7956854, 43.4392998 ], [ -2.7957086, 43.4392999 ], [ -2.7957487, 43.4393045 ], [ -2.7957873, 43.439309 ], [ -2.7958178, 43.4393136 ], [ -2.7959316, 43.4393453 ], [ -2.7959621, 43.4393544 ], [ -2.7959964, 43.4393769 ], [ -2.7960368, 43.439413 ], [ -2.796058, 43.4394356 ], [ -2.7960949, 43.4394626 ], [ -2.7961157, 43.4394807 ], [ -2.7961362, 43.4394943 ], [ -2.796174, 43.4395033 ], [ -2.7962894, 43.439508 ], [ -2.7963106, 43.4395126 ], [ -2.7963312, 43.4395081 ], [ -2.7963397, 43.4394946 ], [ -2.7963356, 43.4394496 ], [ -2.7963376, 43.4394271 ], [ -2.7963326, 43.439409 ], [ -2.7963169, 43.439391 ], [ -2.7963096, 43.439373 ], [ -2.7962546, 43.4393144 ], [ -2.7962372, 43.4392918 ], [ -2.7962448, 43.4392333 ], [ -2.796255, 43.4391928 ], [ -2.7962558, 43.4391748 ], [ -2.7962278, 43.4391117 ], [ -2.7962182, 43.4390982 ], [ -2.7961805, 43.4390666 ], [ -2.7961427, 43.4390485 ], [ -2.7961245, 43.439044 ], [ -2.7960719, 43.4389809 ], [ -2.796053, 43.4389583 ], [ -2.7960399, 43.4389448 ], [ -2.7960342, 43.4389268 ], [ -2.7960377, 43.4389133 ], [ -2.796064, 43.4389178 ], [ -2.7960879, 43.4389314 ], [ -2.7961291, 43.4389405 ], [ -2.7961504, 43.4389405 ], [ -2.7961716, 43.4389405 ], [ -2.7962253, 43.4389451 ], [ -2.7962812, 43.4389542 ], [ -2.796321, 43.4389543 ], [ -2.7963523, 43.4389634 ], [ -2.7963893, 43.4389815 ], [ -2.7964135, 43.4389995 ], [ -2.7964328, 43.439022 ], [ -2.7964736, 43.4390581 ], [ -2.7965032, 43.4390852 ], [ -2.7965437, 43.4391168 ], [ -2.7965633, 43.4391258 ], [ -2.7966104, 43.4391349 ], [ -2.7966309, 43.4391349 ], [ -2.7966522, 43.4391305 ], [ -2.7966719, 43.4391215 ], [ -2.7966827, 43.439108 ], [ -2.7966947, 43.4389955 ], [ -2.7966963, 43.438973 ], [ -2.7966855, 43.4389549 ], [ -2.7966678, 43.4389459 ], [ -2.7965531, 43.4389367 ], [ -2.7965261, 43.4389367 ], [ -2.7964536, 43.4389095 ], [ -2.7964262, 43.4389005 ], [ -2.7964125, 43.4388779 ], [ -2.7964283, 43.4388465 ], [ -2.796445, 43.438824 ], [ -2.7964516, 43.438806 ], [ -2.796446, 43.438779 ], [ -2.7964337, 43.4387609 ], [ -2.7964469, 43.4387114 ], [ -2.7964776, 43.438662 ], [ -2.7964881, 43.4386394 ], [ -2.796491, 43.4385809 ], [ -2.7964884, 43.4385584 ], [ -2.7965017, 43.4385179 ], [ -2.7965095, 43.4384999 ], [ -2.7965415, 43.438491 ], [ -2.7965728, 43.4384865 ], [ -2.7965945, 43.4384776 ], [ -2.7966077, 43.4384641 ], [ -2.7966116, 43.4384371 ], [ -2.7966093, 43.4384236 ], [ -2.7965947, 43.43841 ], [ -2.7964651, 43.4383828 ], [ -2.7964438, 43.4383782 ], [ -2.796428, 43.4383692 ], [ -2.7964134, 43.4383467 ], [ -2.7963429, 43.4383015 ], [ -2.796324, 43.438288 ], [ -2.7963133, 43.4382745 ], [ -2.7963084, 43.4382294 ], [ -2.7963092, 43.4382114 ], [ -2.7963224, 43.4382025 ], [ -2.7963432, 43.4382025 ], [ -2.7963819, 43.4381936 ], [ -2.7964008, 43.4381891 ], [ -2.7964067, 43.4381666 ], [ -2.7964036, 43.4381531 ], [ -2.7963852, 43.4381305 ], [ -2.7963683, 43.43809 ], [ -2.7963641, 43.4380675 ], [ -2.7963511, 43.4380539 ], [ -2.7963179, 43.4380314 ], [ -2.7962933, 43.4380223 ], [ -2.7962366, 43.4379817 ], [ -2.7962197, 43.4379636 ], [ -2.7962082, 43.4379411 ], [ -2.7962075, 43.4379276 ], [ -2.7962157, 43.4379096 ], [ -2.7962077, 43.4378646 ], [ -2.7962027, 43.4378466 ], [ -2.7964216, 43.4378559 ], [ -2.7964441, 43.437856 ], [ -2.7964726, 43.437856 ], [ -2.7965175, 43.4378201 ], [ -2.7965431, 43.4377886 ], [ -2.7965679, 43.4377662 ], [ -2.7965796, 43.4377437 ], [ -2.7965811, 43.4377302 ], [ -2.7965646, 43.4377076 ], [ -2.7965477, 43.4376941 ], [ -2.7964964, 43.4376805 ], [ -2.7964759, 43.4376759 ], [ -2.7964709, 43.4376579 ], [ -2.7964799, 43.43764 ], [ -2.7964992, 43.4376265 ], [ -2.796532, 43.4376356 ], [ -2.7966092, 43.4376717 ], [ -2.7966292, 43.4376807 ], [ -2.7967179, 43.4376944 ], [ -2.7967527, 43.4376945 ], [ -2.7967774, 43.4376855 ], [ -2.7967906, 43.437672 ], [ -2.7968033, 43.437573 ], [ -2.7968061, 43.437546 ], [ -2.7967912, 43.4374965 ], [ -2.7967832, 43.4374784 ], [ -2.7967708, 43.4374649 ], [ -2.7967652, 43.4374243 ], [ -2.796766, 43.4374108 ], [ -2.7967769, 43.4373929 ], [ -2.7968074, 43.4373749 ], [ -2.7968206, 43.4373614 ], [ -2.7969428, 43.4373211 ], [ -2.796993, 43.4373032 ], [ -2.79701, 43.4372987 ], [ -2.7970222, 43.4372627 ], [ -2.7970237, 43.4372447 ], [ -2.7970435, 43.4372312 ], [ -2.7970624, 43.4372268 ], [ -2.7970733, 43.4372088 ], [ -2.7970741, 43.4371953 ], [ -2.7970865, 43.4371818 ], [ -2.7971069, 43.4371864 ], [ -2.7971178, 43.4371638 ], [ -2.7971195, 43.4371458 ], [ -2.7971311, 43.4371324 ], [ -2.7971334, 43.4371144 ], [ -2.7971428, 43.4371009 ], [ -2.79732, 43.4371012 ], [ -2.7973405, 43.4371012 ], [ -2.7973617, 43.4370967 ], [ -2.797395, 43.4370743 ], [ -2.7974105, 43.4370608 ], [ -2.7974368, 43.4370474 ], [ -2.7974716, 43.4370384 ], [ -2.7974929, 43.4370384 ], [ -2.7975038, 43.4370025 ], [ -2.7975046, 43.436989 ], [ -2.7975263, 43.436971 ], [ -2.7975444, 43.436962 ], [ -2.7975263, 43.436953 ], [ -2.797599, 43.4369351 ], [ -2.7976384, 43.4369262 ], [ -2.7976821, 43.4369082 ], [ -2.79773, 43.4368813 ], [ -2.7977498, 43.4368633 ], [ -2.7977739, 43.4368139 ], [ -2.797779, 43.4367869 ], [ -2.7977503, 43.4367238 ], [ -2.7977242, 43.4366832 ], [ -2.7977166, 43.4366427 ], [ -2.7977209, 43.4366202 ], [ -2.7977713, 43.4365662 ], [ -2.7978119, 43.4365348 ], [ -2.7978383, 43.4364988 ], [ -2.7978543, 43.4364583 ], [ -2.7978667, 43.4364403 ], [ -2.7979026, 43.4364224 ], [ -2.7979274, 43.4364179 ], [ -2.7980652, 43.4364182 ], [ -2.7981015, 43.4364182 ], [ -2.7982192, 43.4364455 ], [ -2.7982956, 43.4364636 ], [ -2.7983666, 43.4364772 ], [ -2.7983987, 43.4364773 ], [ -2.7984264, 43.4364774 ], [ -2.798462, 43.4364639 ], [ -2.7984628, 43.4364459 ], [ -2.7984004, 43.4364233 ], [ -2.798351, 43.4364142 ], [ -2.798319, 43.4363961 ], [ -2.7983175, 43.4363781 ], [ -2.7983782, 43.4363512 ], [ -2.7984269, 43.4363378 ], [ -2.7984741, 43.4363198 ], [ -2.7985144, 43.4362884 ], [ -2.7985477, 43.4362389 ], [ -2.7985633, 43.4361894 ], [ -2.7985678, 43.4361354 ], [ -2.798562, 43.4361129 ], [ -2.7985325, 43.4360723 ], [ -2.7984881, 43.4360452 ], [ -2.7984345, 43.4360227 ], [ -2.7984076, 43.4360046 ], [ -2.7984397, 43.4359641 ], [ -2.7984739, 43.4359327 ], [ -2.7984851, 43.4359192 ], [ -2.7984886, 43.4358876 ], [ -2.7984721, 43.4358516 ], [ -2.7984699, 43.4358336 ], [ -2.7984867, 43.4357931 ], [ -2.7985626, 43.4357257 ], [ -2.7986028, 43.4356943 ], [ -2.7986327, 43.4356628 ], [ -2.7986575, 43.4356088 ], [ -2.7986801, 43.4355729 ], [ -2.7987385, 43.4355324 ], [ -2.7987826, 43.43551 ], [ -2.7987989, 43.4354965 ], [ -2.7988502, 43.4353795 ], [ -2.7988654, 43.4353391 ], [ -2.7988699, 43.435276 ], [ -2.7988643, 43.435213 ], [ -2.798866, 43.435177 ], [ -2.7989041, 43.435078 ], [ -2.7989263, 43.4350285 ], [ -2.7989264, 43.435006 ], [ -2.7988838, 43.4349159 ], [ -2.7988604, 43.4348753 ], [ -2.7988546, 43.4348528 ], [ -2.7988655, 43.4348303 ], [ -2.7989084, 43.4348304 ], [ -2.7989354, 43.4348349 ], [ -2.7990025, 43.4348756 ], [ -2.799039, 43.4349072 ], [ -2.7990587, 43.4349162 ], [ -2.7990996, 43.4349208 ], [ -2.7991403, 43.4348938 ], [ -2.7991651, 43.4348623 ], [ -2.7991768, 43.4348219 ], [ -2.7991776, 43.4348038 ], [ -2.7992403, 43.4347724 ], [ -2.7992905, 43.4347545 ], [ -2.7993377, 43.4347276 ], [ -2.7993873, 43.4346872 ], [ -2.7993997, 43.4346737 ], [ -2.7994123, 43.4346062 ], [ -2.7994131, 43.4345882 ], [ -2.79947, 43.4345568 ], [ -2.7994897, 43.4345477 ], [ -2.7995149, 43.4345253 ], [ -2.7995371, 43.4344713 ], [ -2.7995603, 43.4344264 ], [ -2.7995701, 43.4343948 ], [ -2.7995648, 43.4343588 ], [ -2.7995406, 43.4343363 ], [ -2.799531, 43.4343092 ], [ -2.7995334, 43.4342912 ], [ -2.7995639, 43.4342913 ], [ -2.7995979, 43.4342778 ], [ -2.7995965, 43.4342508 ], [ -2.7995707, 43.4342237 ], [ -2.7995642, 43.4342012 ], [ -2.7995801, 43.4341788 ], [ -2.7995998, 43.4341833 ], [ -2.7996136, 43.4341968 ], [ -2.7996411, 43.4341969 ], [ -2.7996647, 43.4341789 ], [ -2.7996601, 43.4341564 ], [ -2.799627, 43.4341338 ], [ -2.7996132, 43.4341158 ], [ -2.7996429, 43.4341023 ], [ -2.7996831, 43.4341024 ], [ -2.7997005, 43.4340889 ], [ -2.7996932, 43.4340664 ], [ -2.7996971, 43.4340529 ], [ -2.7997288, 43.4340395 ], [ -2.799771, 43.4340305 ], [ -2.7997938, 43.4340305 ], [ -2.7998146, 43.4340306 ], [ -2.7998548, 43.4340172 ], [ -2.7998862, 43.4339812 ], [ -2.7999079, 43.4339362 ], [ -2.7999154, 43.4338957 ], [ -2.7999098, 43.4338597 ], [ -2.7998998, 43.4338462 ], [ -2.7999035, 43.4337606 ], [ -2.7999203, 43.4336976 ], [ -2.7999213, 43.4336526 ], [ -2.7998984, 43.4335625 ], [ -2.7998797, 43.4335039 ], [ -2.7998771, 43.4334634 ], [ -2.7998865, 43.4334139 ], [ -2.7999269, 43.433342 ], [ -2.7999735, 43.433279 ], [ -2.8000041, 43.433243 ], [ -2.8000406, 43.4331846 ], [ -2.8000721, 43.4331171 ], [ -2.8000897, 43.4330541 ], [ -2.8000921, 43.4330136 ], [ -2.8000703, 43.4329505 ], [ -2.8000603, 43.4329235 ], [ -2.8000596, 43.4328965 ], [ -2.8000694, 43.4328695 ], [ -2.8000892, 43.432847 ], [ -2.8001407, 43.4328066 ], [ -2.8001693, 43.4327931 ], [ -2.800292, 43.4327888 ], [ -2.8003195, 43.4327889 ], [ -2.8003524, 43.4327754 ], [ -2.800359, 43.4327439 ], [ -2.800393, 43.432744 ], [ -2.8004281, 43.4327576 ], [ -2.8004528, 43.4327486 ], [ -2.8004537, 43.4327081 ], [ -2.800448, 43.4326765 ], [ -2.8004539, 43.4326585 ], [ -2.8005158, 43.4326181 ], [ -2.8006744, 43.4325329 ], [ -2.8007792, 43.4324835 ], [ -2.8008519, 43.4324432 ], [ -2.8009924, 43.4323443 ], [ -2.8010771, 43.4322814 ], [ -2.8011217, 43.43225 ], [ -2.8014659, 43.432066 ], [ -2.8015649, 43.4320122 ], [ -2.8016581, 43.4319718 ], [ -2.8018467, 43.4319091 ], [ -2.8019391, 43.4318778 ], [ -2.8020268, 43.4318554 ], [ -2.8021555, 43.4318286 ], [ -2.8023112, 43.4318019 ], [ -2.8023811, 43.431793 ], [ -2.8025021, 43.4317527 ], [ -2.8025566, 43.4317347 ], [ -2.8026088, 43.4317213 ], [ -2.802635, 43.4317214 ], [ -2.8028045, 43.4317217 ], [ -2.8028385, 43.4317217 ], [ -2.8029374, 43.4317039 ], [ -2.8030445, 43.4316725 ], [ -2.8031403, 43.4316412 ], [ -2.8032277, 43.4316008 ], [ -2.8033128, 43.431556 ], [ -2.8033662, 43.4315335 ], [ -2.8034803, 43.4314482 ], [ -2.8035361, 43.4313988 ], [ -2.8035775, 43.4313718 ], [ -2.8036583, 43.4313405 ], [ -2.803688, 43.431327 ], [ -2.8037338, 43.4312865 ], [ -2.8037624, 43.4312551 ], [ -2.8038788, 43.4312058 ], [ -2.8039879, 43.4311609 ], [ -2.8041329, 43.4310936 ], [ -2.8042821, 43.4310219 ], [ -2.8043614, 43.4309815 ], [ -2.804693, 43.4308605 ], [ -2.8048214, 43.4308157 ], [ -2.8050023, 43.4307575 ], [ -2.8052542, 43.4306859 ], [ -2.8054061, 43.4306366 ], [ -2.8054954, 43.4306143 ], [ -2.8056056, 43.4305694 ], [ -2.8056774, 43.4305515 ], [ -2.805754, 43.4305382 ], [ -2.8058296, 43.4305338 ], [ -2.8058602, 43.4305248 ], [ -2.8059198, 43.4304889 ], [ -2.8059716, 43.430444 ], [ -2.8060026, 43.430426 ], [ -2.8060791, 43.4303946 ], [ -2.8062233, 43.4303589 ], [ -2.8062769, 43.4303455 ], [ -2.8063484, 43.4303321 ], [ -2.8064245, 43.4303277 ], [ -2.8075104, 43.430172 ], [ -2.8076645, 43.4301497 ], [ -2.8077583, 43.4301363 ], [ -2.8082604, 43.4300967 ], [ -2.8082816, 43.4300967 ], [ -2.8086828, 43.4300974 ], [ -2.8088032, 43.4301021 ], [ -2.8089024, 43.4301068 ], [ -2.8090198, 43.430116 ], [ -2.8091062, 43.4301251 ], [ -2.8095632, 43.4302069 ], [ -2.8096484, 43.4302206 ], [ -2.8097572, 43.4302478 ], [ -2.8098386, 43.4302749 ], [ -2.8099335, 43.4303066 ], [ -2.8101753, 43.4304015 ], [ -2.8102959, 43.4304513 ], [ -2.8104031, 43.4304965 ], [ -2.8105273, 43.4305597 ], [ -2.8106506, 43.4306184 ], [ -2.8107131, 43.43065 ], [ -2.8107436, 43.4306681 ], [ -2.8108151, 43.4307403 ], [ -2.8108401, 43.4307718 ], [ -2.8108675, 43.4307899 ], [ -2.8108856, 43.4307989 ], [ -2.8109517, 43.4307945 ], [ -2.8109721, 43.4307946 ], [ -2.8110605, 43.4310751 ], [ -2.8116009, 43.4300382 ], [ -2.8117326, 43.4297358 ], [ -2.8117396, 43.4296 ], [ -2.8116682, 43.4294308 ], [ -2.8114079, 43.4290301 ], [ -2.8112357, 43.4287106 ], [ -2.81121, 43.42857 ], [ -2.8112237, 43.4283413 ], [ -2.811372, 43.4279841 ], [ -2.8116119, 43.4275581 ], [ -2.8118415, 43.4273035 ], [ -2.8122971, 43.4269231 ], [ -2.8125202, 43.4266328 ], [ -2.8127534, 43.4262925 ], [ -2.8128487, 43.4261307 ], [ -2.8129933, 43.4258593 ], [ -2.8130592, 43.4256831 ], [ -2.8130992, 43.4254569 ], [ -2.8131197, 43.42514 ], [ -2.8130387, 43.4249088 ], [ -2.8130456, 43.4247897 ], [ -2.8130394, 43.4246968 ], [ -2.8130889, 43.4245515 ], [ -2.8131154, 43.4244229 ], [ -2.8130378, 43.4241607 ], [ -2.8130219, 43.4240225 ], [ -2.8130188, 43.4239415 ], [ -2.8129865, 43.4238271 ], [ -2.8128989, 43.4236054 ], [ -2.8128859, 43.4235768 ], [ -2.8129945, 43.4233625 ], [ -2.8130733, 43.4232245 ], [ -2.8131196, 43.4230673 ], [ -2.8131365, 43.4228767 ], [ -2.8131572, 43.4225123 ], [ -2.813148, 43.4223383 ], [ -2.8130865, 43.4221357 ], [ -2.8130774, 43.4219046 ], [ -2.8128926, 43.4214016 ], [ -2.8127593, 43.4211798 ], [ -2.8126224, 43.4210653 ], [ -2.812505, 43.4209769 ], [ -2.8124594, 43.4209173 ], [ -2.8123197, 43.4206407 ], [ -2.8121801, 43.4203355 ], [ -2.8120796, 43.4200876 ], [ -2.8120635, 43.4199875 ], [ -2.8120607, 43.4198445 ], [ -2.8121331, 43.4196874 ], [ -2.812176, 43.4195731 ], [ -2.8123727, 43.4193781 ], [ -2.8124582, 43.4192091 ], [ -2.8124882, 43.4189923 ], [ -2.8124104, 43.4187921 ], [ -2.8124307, 43.4185634 ], [ -2.8124116, 43.4184133 ], [ -2.8124053, 43.4183251 ], [ -2.8124451, 43.4181608 ], [ -2.8125604, 43.4178441 ], [ -2.8125708, 43.417644 ], [ -2.812591, 43.4174797 ], [ -2.8124968, 43.417277 ], [ -2.8125661, 43.4170484 ], [ -2.8124753, 43.4168457 ], [ -2.812404, 43.4166455 ], [ -2.8123523, 43.416431 ], [ -2.8123139, 43.416176 ], [ -2.8123111, 43.4160259 ], [ -2.8127092, 43.415188 ], [ -2.812867, 43.4148737 ], [ -2.8132254, 43.4141691 ], [ -2.813462, 43.4137407 ], [ -2.8129754, 43.4136422 ], [ -2.8126389, 43.4136035 ], [ -2.8127344, 43.4133726 ], [ -2.8128557, 43.4132275 ], [ -2.8130591, 43.4129776 ], [ -2.8132099, 43.4128302 ], [ -2.8134624, 43.4125375 ], [ -2.8137639, 43.4122712 ], [ -2.8143263, 43.4121697 ], [ -2.8143695, 43.4119506 ], [ -2.8144095, 43.4116933 ], [ -2.8145323, 43.4110693 ], [ -2.8146547, 43.4105787 ], [ -2.8146495, 43.4101475 ], [ -2.8145217, 43.40918 ], [ -2.8143696, 43.4087057 ], [ -2.8141975, 43.4083481 ], [ -2.8141098, 43.408174 ], [ -2.8137429, 43.4074039 ], [ -2.813616, 43.4072155 ], [ -2.8130458, 43.4066666 ], [ -2.812792, 43.4063302 ], [ -2.8125191, 43.4058056 ], [ -2.8123732, 43.4054361 ], [ -2.8120877, 43.40479 ], [ -2.8118272, 43.4044918 ], [ -2.8115567, 43.4042674 ], [ -2.810964, 43.4036232 ], [ -2.8106971, 43.4032773 ], [ -2.8108905, 43.4030727 ], [ -2.8110382, 43.40288 ], [ -2.8111269, 43.4027157 ], [ -2.8111141, 43.4026156 ], [ -2.8110523, 43.4025298 ], [ -2.8108794, 43.4024342 ], [ -2.8104816, 43.4021786 ], [ -2.8103381, 43.4020878 ], [ -2.8100225, 43.4016632 ], [ -2.8098989, 43.4014796 ], [ -2.8096156, 43.4011837 ], [ -2.8092153, 43.400666 ], [ -2.8091889, 43.4006351 ], [ -2.8091841, 43.4006388 ], [ -2.8077272, 43.4017588 ], [ -2.8082159, 43.402453 ], [ -2.808334, 43.4025928 ], [ -2.8083732, 43.4026379 ], [ -2.8084036, 43.4026694 ], [ -2.808434, 43.4027055 ], [ -2.8084643, 43.4027371 ], [ -2.8084955, 43.4027686 ], [ -2.8085274, 43.4028047 ], [ -2.8085605, 43.4028318 ], [ -2.8085948, 43.4028633 ], [ -2.8086294, 43.4028949 ], [ -2.808664, 43.4029265 ], [ -2.8086983, 43.4029581 ], [ -2.808733, 43.4029851 ], [ -2.8087737, 43.4030257 ], [ -2.8088149, 43.4030618 ], [ -2.8088561, 43.4031024 ], [ -2.8088961, 43.4031385 ], [ -2.8089353, 43.4031791 ], [ -2.8089742, 43.4032152 ], [ -2.8090003, 43.4032422 ], [ -2.8090273, 43.4032693 ], [ -2.8090538, 43.4032963 ], [ -2.8090792, 43.4033234 ], [ -2.809103, 43.403355 ], [ -2.8091242, 43.403382 ], [ -2.80914, 43.4034045 ], [ -2.8091565, 43.4034271 ], [ -2.8091711, 43.4034496 ], [ -2.8091841, 43.4034721 ], [ -2.8091941, 43.4034947 ], [ -2.8091979, 43.4035172 ], [ -2.8091978, 43.4035352 ], [ -2.809197, 43.4035532 ], [ -2.8091931, 43.4035712 ], [ -2.809188, 43.4035892 ], [ -2.8091802, 43.4036072 ], [ -2.8091705, 43.4036207 ], [ -2.8091581, 43.4036342 ], [ -2.8091434, 43.4036477 ], [ -2.8091268, 43.4036611 ], [ -2.8091086, 43.4036746 ], [ -2.8090897, 43.4036836 ], [ -2.8090695, 43.4036925 ], [ -2.8090425, 43.4037015 ], [ -2.8090139, 43.4037105 ], [ -2.808983, 43.4037149 ], [ -2.8089522, 43.4037194 ], [ -2.8089209, 43.4037238 ], [ -2.8088892, 43.4037238 ], [ -2.8088468, 43.4037282 ], [ -2.8088027, 43.4037326 ], [ -2.8087591, 43.4037326 ], [ -2.8087155, 43.403737 ], [ -2.8086719, 43.4037324 ], [ -2.8086283, 43.4037323 ], [ -2.8085921, 43.4037323 ], [ -2.8085569, 43.4037322 ], [ -2.8085206, 43.4037277 ], [ -2.8084844, 43.4037231 ], [ -2.8084489, 43.4037185 ], [ -2.8084134, 43.403714 ], [ -2.8083756, 43.4037094 ], [ -2.8083378, 43.4037049 ], [ -2.8083007, 43.4036958 ], [ -2.8082637, 43.4036867 ], [ -2.8082267, 43.4036776 ], [ -2.8081897, 43.4036686 ], [ -2.8081519, 43.4036595 ], [ -2.8081141, 43.4036505 ], [ -2.8080771, 43.4036414 ], [ -2.8080393, 43.4036278 ], [ -2.8080031, 43.4036187 ], [ -2.8079668, 43.4036052 ], [ -2.8079271, 43.4035916 ], [ -2.8078886, 43.4035735 ], [ -2.8078509, 43.4035554 ], [ -2.8078139, 43.4035374 ], [ -2.8077753, 43.4035193 ], [ -2.8077364, 43.4035012 ], [ -2.8077102, 43.4034922 ], [ -2.8076839, 43.4034831 ], [ -2.8076578, 43.4034696 ], [ -2.8076315, 43.4034605 ], [ -2.8076042, 43.4034515 ], [ -2.8075772, 43.4034424 ], [ -2.8075402, 43.4034334 ], [ -2.8075019, 43.4034288 ], [ -2.8074634, 43.4034242 ], [ -2.8074248, 43.4034197 ], [ -2.8073862, 43.4034151 ], [ -2.8073477, 43.4034105 ], [ -2.8073153, 43.403406 ], [ -2.8072832, 43.4034014 ], [ -2.8072504, 43.4034014 ], [ -2.807218, 43.4033968 ], [ -2.807186, 43.4033923 ], [ -2.807154, 43.4033877 ], [ -2.8071293, 43.4033832 ], [ -2.8071046, 43.4033831 ], [ -2.8070799, 43.4033786 ], [ -2.8070552, 43.403374 ], [ -2.8070313, 43.4033695 ], [ -2.8070085, 43.4033649 ], [ -2.8069804, 43.4033514 ], [ -2.806955, 43.4033423 ], [ -2.8069296, 43.4033243 ], [ -2.8069041, 43.4033107 ], [ -2.8068775, 43.4032972 ], [ -2.8068505, 43.4032881 ], [ -2.8068228, 43.4032791 ], [ -2.8067931, 43.4032745 ], [ -2.8067626, 43.40327 ], [ -2.8067322, 43.4032654 ], [ -2.8067017, 43.4032609 ], [ -2.806672, 43.4032608 ], [ -2.8066442, 43.4032653 ], [ -2.806616, 43.4032697 ], [ -2.806587, 43.4032742 ], [ -2.80656, 43.4032786 ], [ -2.8065338, 43.4032876 ], [ -2.8065098, 43.4032965 ], [ -2.8064842, 43.40331 ], [ -2.8064595, 43.403328 ], [ -2.8064371, 43.403346 ], [ -2.8064165, 43.4033639 ], [ -2.8063991, 43.4033864 ], [ -2.8063852, 43.4034044 ], [ -2.8063758, 43.4034269 ], [ -2.8063719, 43.4034494 ], [ -2.8063699, 43.4034719 ], [ -2.806369, 43.4034989 ], [ -2.8063674, 43.4035214 ], [ -2.8063639, 43.4035439 ], [ -2.8063541, 43.4035799 ], [ -2.8063417, 43.4036114 ], [ -2.8063284, 43.4036474 ], [ -2.8063133, 43.4036789 ], [ -2.8062992, 43.4037149 ], [ -2.8062861, 43.4037464 ], [ -2.8062786, 43.4037689 ], [ -2.8062728, 43.4037959 ], [ -2.8062661, 43.4038184 ], [ -2.8062591, 43.4038409 ], [ -2.8062501, 43.4038634 ], [ -2.8062385, 43.4038814 ], [ -2.8062304, 43.4038949 ], [ -2.8062203, 43.4039084 ], [ -2.8062106, 43.4039219 ], [ -2.8061997, 43.4039353 ], [ -2.8061881, 43.4039443 ], [ -2.806175, 43.4039578 ], [ -2.8061568, 43.4039668 ], [ -2.8061363, 43.4039803 ], [ -2.8061147, 43.4039892 ], [ -2.8060919, 43.4039982 ], [ -2.8060687, 43.4040026 ], [ -2.8060456, 43.4040071 ], [ -2.806015, 43.4040116 ], [ -2.805983, 43.4040115 ], [ -2.805951, 43.4040069 ], [ -2.8059178, 43.4040024 ], [ -2.8058858, 43.4039978 ], [ -2.8058546, 43.4039933 ], [ -2.8058225, 43.4039842 ], [ -2.8057905, 43.4039752 ], [ -2.8057593, 43.4039661 ], [ -2.8057281, 43.4039571 ], [ -2.8056984, 43.4039435 ], [ -2.8056687, 43.4039299 ], [ -2.8056383, 43.4039164 ], [ -2.8056078, 43.4039028 ], [ -2.805579, 43.4038847 ], [ -2.8055512, 43.4038667 ], [ -2.8055251, 43.4038487 ], [ -2.8055004, 43.4038306 ], [ -2.8054796, 43.4038125 ], [ -2.8054607, 43.4037945 ], [ -2.8054419, 43.403772 ], [ -2.8054262, 43.4037539 ], [ -2.8054123, 43.4037314 ], [ -2.8054012, 43.4037089 ], [ -2.8053935, 43.4036908 ], [ -2.8053878, 43.4036728 ], [ -2.8053829, 43.4036548 ], [ -2.8053806, 43.4036368 ], [ -2.8053807, 43.4036143 ], [ -2.8053831, 43.4035963 ], [ -2.8053893, 43.4035783 ], [ -2.8053982, 43.4035603 ], [ -2.8054098, 43.4035423 ], [ -2.805423, 43.4035243 ], [ -2.805437, 43.4035109 ], [ -2.8054528, 43.4034928 ], [ -2.8054764, 43.4034749 ], [ -2.8055046, 43.4034614 ], [ -2.8055352, 43.403448 ], [ -2.8055665, 43.4034345 ], [ -2.805597, 43.4034211 ], [ -2.8056253, 43.4034031 ], [ -2.8056481, 43.4033896 ], [ -2.8056698, 43.4033716 ], [ -2.805691, 43.4033537 ], [ -2.8057127, 43.4033402 ], [ -2.8057332, 43.4033223 ], [ -2.8057545, 43.4033043 ], [ -2.8057761, 43.4032908 ], [ -2.8057982, 43.4032728 ], [ -2.8058206, 43.4032594 ], [ -2.8058423, 43.4032414 ], [ -2.8058605, 43.4032234 ], [ -2.8058744, 43.4032054 ], [ -2.8058845, 43.4031875 ], [ -2.8058907, 43.4031694 ], [ -2.8058951, 43.4031469 ], [ -2.8058971, 43.4031244 ], [ -2.8058979, 43.4031064 ], [ -2.8058988, 43.4030839 ], [ -2.8058988, 43.4030614 ], [ -2.8058973, 43.4030434 ], [ -2.805894, 43.4030209 ], [ -2.8058902, 43.4029984 ], [ -2.8058852, 43.4029758 ], [ -2.8058783, 43.4029578 ], [ -2.8058718, 43.4029398 ], [ -2.8058645, 43.4029218 ], [ -2.8058565, 43.4029037 ], [ -2.8058473, 43.4028857 ], [ -2.8058385, 43.4028722 ], [ -2.8058285, 43.4028542 ], [ -2.8058197, 43.4028362 ], [ -2.8058112, 43.4028226 ], [ -2.8058024, 43.4028046 ], [ -2.8057924, 43.4027911 ], [ -2.8057801, 43.4027731 ], [ -2.8057662, 43.4027595 ], [ -2.8057504, 43.4027505 ], [ -2.8057335, 43.4027415 ], [ -2.8057139, 43.4027324 ], [ -2.8056938, 43.4027279 ], [ -2.8056734, 43.4027188 ], [ -2.8056537, 43.4027143 ], [ -2.8056217, 43.4027098 ], [ -2.805587, 43.4027097 ], [ -2.8055526, 43.4027141 ], [ -2.8055178, 43.4027186 ], [ -2.8054823, 43.402723 ], [ -2.805448, 43.4027275 ], [ -2.8054043, 43.4027319 ], [ -2.8053615, 43.4027363 ], [ -2.8053179, 43.4027408 ], [ -2.805275, 43.4027497 ], [ -2.8052317, 43.4027541 ], [ -2.8051885, 43.4027585 ], [ -2.8051503, 43.4027675 ], [ -2.8051117, 43.4027719 ], [ -2.8050738, 43.4027763 ], [ -2.8050352, 43.4027808 ], [ -2.8049974, 43.4027852 ], [ -2.8049584, 43.4027851 ], [ -2.8049241, 43.4027851 ], [ -2.8048886, 43.402785 ], [ -2.8048531, 43.4027805 ], [ -2.8048187, 43.4027759 ], [ -2.804784, 43.4027714 ], [ -2.8047505, 43.4027623 ], [ -2.8047181, 43.4027532 ], [ -2.8046869, 43.4027442 ], [ -2.8046556, 43.4027351 ], [ -2.8046252, 43.4027215 ], [ -2.8045959, 43.4027125 ], [ -2.8045677, 43.402699 ], [ -2.8045431, 43.4026854 ], [ -2.8045192, 43.4026673 ], [ -2.8044961, 43.4026538 ], [ -2.8044742, 43.4026358 ], [ -2.8044518, 43.4026222 ], [ -2.8044299, 43.4026041 ], [ -2.8043922, 43.4025726 ], [ -2.8043567, 43.4025455 ], [ -2.8043213, 43.4025139 ], [ -2.8042867, 43.4024824 ], [ -2.8042517, 43.4024508 ], [ -2.8042163, 43.4024192 ], [ -2.8041832, 43.4023921 ], [ -2.8041505, 43.4023696 ], [ -2.804117, 43.4023425 ], [ -2.8040843, 43.4023154 ], [ -2.8040527, 43.4022884 ], [ -2.8040227, 43.4022613 ], [ -2.8039984, 43.4022388 ], [ -2.8039757, 43.4022117 ], [ -2.8039538, 43.4021891 ], [ -2.8039323, 43.4021621 ], [ -2.8039108, 43.402135 ], [ -2.8038904, 43.402108 ], [ -2.8038666, 43.4020809 ], [ -2.8038447, 43.4020494 ], [ -2.8038232, 43.4020178 ], [ -2.8038013, 43.4019863 ], [ -2.803779, 43.4019547 ], [ -2.8037552, 43.4019232 ], [ -2.8037329, 43.4018961 ], [ -2.803711, 43.4018691 ], [ -2.8036887, 43.401842 ], [ -2.8036648, 43.401815 ], [ -2.8036414, 43.4017924 ], [ -2.8036171, 43.4017653 ], [ -2.8035952, 43.4017428 ], [ -2.8035721, 43.4017158 ], [ -2.8035503, 43.4016932 ], [ -2.8035264, 43.4016707 ], [ -2.803501, 43.4016481 ], [ -2.8034736, 43.4016255 ], [ -2.8034424, 43.4016075 ], [ -2.8034097, 43.4015894 ], [ -2.8033743, 43.4015713 ], [ -2.8033381, 43.4015533 ], [ -2.8033018, 43.4015397 ], [ -2.8032648, 43.4015261 ], [ -2.8032155, 43.401508 ], [ -2.8031638, 43.4014944 ], [ -2.8031117, 43.4014808 ], [ -2.8030593, 43.4014673 ], [ -2.8030076, 43.4014537 ], [ -2.8029564, 43.4014355 ], [ -2.8029112, 43.401422 ], [ -2.8028669, 43.4014039 ], [ -2.8028226, 43.4013858 ], [ -2.802779, 43.4013677 ], [ -2.8027343, 43.4013496 ], [ -2.8026892, 43.4013316 ], [ -2.8026465, 43.4013179 ], [ -2.8026037, 43.4013044 ], [ -2.8025601, 43.4012863 ], [ -2.8025173, 43.4012727 ], [ -2.802473, 43.4012591 ], [ -2.8024279, 43.40125 ], [ -2.802385, 43.4012455 ], [ -2.8023403, 43.4012409 ], [ -2.8022959, 43.4012363 ], [ -2.8022515, 43.4012362 ], [ -2.8022072, 43.4012362 ], [ -2.8021643, 43.4012406 ], [ -2.8021199, 43.4012495 ], [ -2.8020755, 43.4012585 ], [ -2.8020307, 43.4012674 ], [ -2.8019878, 43.4012808 ], [ -2.8019461, 43.4012987 ], [ -2.8019062, 43.4013167 ], [ -2.80188, 43.4013257 ], [ -2.8018537, 43.4013391 ], [ -2.8018274, 43.4013526 ], [ -2.8018034, 43.401366 ], [ -2.8017818, 43.401384 ], [ -2.8017643, 43.4013975 ], [ -2.8017519, 43.40142 ], [ -2.8017438, 43.4014379 ], [ -2.8017379, 43.4014605 ], [ -2.8017348, 43.401483 ], [ -2.801732, 43.4015055 ], [ -2.8017296, 43.401528 ], [ -2.8017279, 43.401564 ], [ -2.8017301, 43.4016 ], [ -2.8017351, 43.401636 ], [ -2.8017415, 43.4016721 ], [ -2.8017479, 43.4017081 ], [ -2.8017536, 43.4017396 ], [ -2.8017593, 43.4017802 ], [ -2.8017649, 43.4018207 ], [ -2.8017713, 43.4018612 ], [ -2.8017766, 43.4019018 ], [ -2.8017827, 43.4019423 ], [ -2.8017883, 43.4019828 ], [ -2.8017935, 43.4020323 ], [ -2.8017984, 43.4020819 ], [ -2.8018033, 43.4021269 ], [ -2.8018081, 43.4021764 ], [ -2.8018122, 43.402226 ], [ -2.8018167, 43.402271 ], [ -2.8018216, 43.402316 ], [ -2.8018265, 43.4023611 ], [ -2.8018313, 43.4024016 ], [ -2.8018362, 43.4024466 ], [ -2.8018391, 43.4024871 ], [ -2.8018413, 43.4025321 ], [ -2.8018431, 43.4025682 ], [ -2.8018453, 43.4026042 ], [ -2.8018468, 43.4026402 ], [ -2.8018459, 43.4026763 ], [ -2.8018434, 43.4027122 ], [ -2.801836, 43.4027483 ], [ -2.8018309, 43.4027663 ], [ -2.8018258, 43.4027842 ], [ -2.80182, 43.4028023 ], [ -2.8018134, 43.4028203 ], [ -2.801806, 43.4028337 ], [ -2.8017974, 43.4028517 ], [ -2.8017784, 43.4028787 ], [ -2.8017556, 43.4029057 ], [ -2.8017301, 43.4029327 ], [ -2.8017026, 43.4029596 ], [ -2.8016743, 43.4029821 ], [ -2.801648, 43.4030091 ], [ -2.8016151, 43.4030405 ], [ -2.8015821, 43.4030765 ], [ -2.8015481, 43.4031079 ], [ -2.8015144, 43.4031394 ], [ -2.8014795, 43.4031708 ], [ -2.8014451, 43.4032023 ], [ -2.8014014, 43.4032428 ], [ -2.8013573, 43.4032832 ], [ -2.801312, 43.4033191 ], [ -2.8012667, 43.4033551 ], [ -2.8012195, 43.4033955 ], [ -2.8011727, 43.4034314 ], [ -2.8011305, 43.4034584 ], [ -2.8010883, 43.4034898 ], [ -2.8010446, 43.4035213 ], [ -2.8010017, 43.4035482 ], [ -2.800958, 43.4035797 ], [ -2.8009151, 43.4036111 ], [ -2.8008721, 43.4036425 ], [ -2.8008292, 43.4036695 ], [ -2.8007863, 43.4037009 ], [ -2.8007433, 43.4037323 ], [ -2.8007023, 43.4037638 ], [ -2.8006609, 43.4037952 ], [ -2.800618, 43.4038267 ], [ -2.8005773, 43.4038626 ], [ -2.8005363, 43.4039031 ], [ -2.8004964, 43.403939 ], [ -2.8004562, 43.403975 ], [ -2.8004147, 43.4040109 ], [ -2.800376, 43.4040424 ], [ -2.8003381, 43.4040783 ], [ -2.8002994, 43.4041097 ], [ -2.8002595, 43.4041412 ], [ -2.8002193, 43.4041726 ], [ -2.8001779, 43.4042041 ], [ -2.8001357, 43.4042355 ], [ -2.8000928, 43.4042624 ], [ -2.8000483, 43.4042894 ], [ -2.8000039, 43.4043163 ], [ -2.7999594, 43.4043433 ], [ -2.7999157, 43.4043702 ], [ -2.79987, 43.4044017 ], [ -2.7998256, 43.4044331 ], [ -2.7997819, 43.4044645 ], [ -2.7997374, 43.404496 ], [ -2.799691, 43.4045274 ], [ -2.7996434, 43.4045543 ], [ -2.7996078, 43.4045723 ], [ -2.7995715, 43.4045902 ], [ -2.7995351, 43.4046082 ], [ -2.7994973, 43.4046261 ], [ -2.7994594, 43.404644 ], [ -2.7994208, 43.4046575 ], [ -2.7993825, 43.4046754 ], [ -2.7993439, 43.4046889 ], [ -2.7993044, 43.4047023 ], [ -2.7992639, 43.4047112 ], [ -2.7992233, 43.4047202 ], [ -2.7991832, 43.4047246 ], [ -2.7991453, 43.4047245 ], [ -2.7991056, 43.40472 ], [ -2.799067, 43.4047154 ], [ -2.7990277, 43.4047108 ], [ -2.7989891, 43.4047017 ], [ -2.7989513, 43.4046927 ], [ -2.7989116, 43.4046836 ], [ -2.7988722, 43.4046745 ], [ -2.7988326, 43.4046655 ], [ -2.7987948, 43.4046519 ], [ -2.7987586, 43.4046383 ], [ -2.7987258, 43.4046202 ], [ -2.7987054, 43.4046067 ], [ -2.7986946, 43.4046022 ], [ -2.7986854, 43.4045932 ], [ -2.79867, 43.4045796 ], [ -2.798665, 43.4045706 ], [ -2.7986573, 43.4041924 ], [ -2.7986583, 43.4041564 ], [ -2.7986584, 43.4041249 ], [ -2.7986557, 43.4040934 ], [ -2.7986527, 43.4040663 ], [ -2.7986493, 43.4040438 ], [ -2.7986456, 43.4040168 ], [ -2.7986406, 43.4039943 ], [ -2.798635, 43.4039673 ], [ -2.7986292, 43.4039448 ], [ -2.7986243, 43.4039222 ], [ -2.7986185, 43.4039042 ], [ -2.7986128, 43.4038817 ], [ -2.7986071, 43.4038636 ], [ -2.7985999, 43.4038411 ], [ -2.7985918, 43.4038231 ], [ -2.7985853, 43.4038096 ], [ -2.7985795, 43.4037961 ], [ -2.7985722, 43.4037826 ], [ -2.7985646, 43.4037645 ], [ -2.7985557, 43.4037555 ], [ -2.798545, 43.403742 ], [ -2.7985238, 43.4037239 ], [ -2.798498, 43.4037104 ], [ -2.7984695, 43.4037013 ], [ -2.798439, 43.4036923 ], [ -2.7984078, 43.4036832 ], [ -2.7983781, 43.4036741 ], [ -2.7983157, 43.4036515 ], [ -2.7982508, 43.4036379 ], [ -2.7981849, 43.4036243 ], [ -2.7981182, 43.4036107 ], [ -2.7980515, 43.403597 ], [ -2.7979859, 43.4035834 ], [ -2.7979242, 43.4035698 ], [ -2.7978621, 43.4035562 ], [ -2.7978016, 43.4035426 ], [ -2.7977398, 43.403529 ], [ -2.7976782, 43.4035153 ], [ -2.7976172, 43.4035017 ], [ -2.7975598, 43.4034881 ], [ -2.7975012, 43.4034745 ], [ -2.7974437, 43.4034609 ], [ -2.7973859, 43.4034428 ], [ -2.7973284, 43.4034292 ], [ -2.7972717, 43.4034156 ], [ -2.7972066, 43.4033929 ], [ -2.7971418, 43.4033748 ], [ -2.7970774, 43.4033567 ], [ -2.7970134, 43.4033341 ], [ -2.7969482, 43.4033159 ], [ -2.7968835, 43.4032978 ], [ -2.7968168, 43.4032797 ], [ -2.7967504, 43.4032616 ], [ -2.7966826, 43.4032479 ], [ -2.7966151, 43.4032298 ], [ -2.796548, 43.4032162 ], [ -2.7964793, 43.4032026 ], [ -2.7964226, 43.4031935 ], [ -2.7963652, 43.4031799 ], [ -2.7963077, 43.4031707 ], [ -2.7962498, 43.4031616 ], [ -2.7961924, 43.4031525 ], [ -2.7961337, 43.4031479 ], [ -2.7960871, 43.4031433 ], [ -2.79604, 43.4031432 ], [ -2.7959925, 43.4031431 ], [ -2.7959446, 43.4031476 ], [ -2.7958976, 43.4031475 ], [ -2.7958508, 43.4031519 ], [ -2.7958146, 43.4031563 ], [ -2.7957775, 43.4031608 ], [ -2.7957412, 43.4031607 ], [ -2.7957049, 43.4031651 ], [ -2.7956701, 43.4031741 ], [ -2.7956365, 43.403183 ], [ -2.7956044, 43.4031965 ], [ -2.7955731, 43.4032099 ], [ -2.7955434, 43.4032279 ], [ -2.7955143, 43.4032459 ], [ -2.7954846, 43.4032593 ], [ -2.795454, 43.4032772 ], [ -2.7954131, 43.4032952 ], [ -2.7953718, 43.4033131 ], [ -2.7953304, 43.4033356 ], [ -2.7952886, 43.4033535 ], [ -2.7952465, 43.4033714 ], [ -2.7952044, 43.4033894 ], [ -2.7951599, 43.4034073 ], [ -2.7951162, 43.4034252 ], [ -2.7950719, 43.4034432 ], [ -2.7950262, 43.4034611 ], [ -2.7949825, 43.4034835 ], [ -2.7949381, 43.4035014 ], [ -2.7948771, 43.4035238 ], [ -2.794816, 43.4035508 ], [ -2.7947561, 43.4035777 ], [ -2.7946957, 43.4036045 ], [ -2.794637, 43.4036315 ], [ -2.7945802, 43.4036629 ], [ -2.7945446, 43.4036808 ], [ -2.7945102, 43.4037033 ], [ -2.7944761, 43.4037257 ], [ -2.7944425, 43.4037437 ], [ -2.7944085, 43.4037661 ], [ -2.7943756, 43.4037886 ], [ -2.7943392, 43.4038155 ], [ -2.7943033, 43.4038425 ], [ -2.7942677, 43.4038649 ], [ -2.7942321, 43.4038919 ], [ -2.7941965, 43.4039188 ], [ -2.7941609, 43.4039458 ], [ -2.7941295, 43.4039682 ], [ -2.7940989, 43.4039951 ], [ -2.794068, 43.4040176 ], [ -2.7940363, 43.4040401 ], [ -2.7940034, 43.4040626 ], [ -2.7939671, 43.404085 ], [ -2.7939373, 43.4040939 ], [ -2.7939145, 43.4041029 ], [ -2.7934638, 43.4042101 ], [ -2.7934378, 43.4042146 ], [ -2.7934143, 43.4042145 ], [ -2.7933896, 43.4042145 ], [ -2.7933561, 43.4042099 ], [ -2.7932436, 43.4044664 ], [ -2.79317, 43.4057989 ], [ -2.7930337, 43.4057176 ], [ -2.7929311, 43.4056004 ], [ -2.7928705, 43.4054787 ], [ -2.7927574, 43.4053659 ], [ -2.7925475, 43.4053385 ], [ -2.7921161, 43.4053378 ], [ -2.791939, 43.4053194 ], [ -2.7917655, 43.4052606 ], [ -2.7916736, 43.4051614 ], [ -2.7914329, 43.4050078 ], [ -2.7913667, 43.4051653 ], [ -2.7913251, 43.4055029 ], [ -2.791393, 43.4056066 ], [ -2.7915259, 43.4056878 ], [ -2.7918157, 43.4058144 ], [ -2.7922764, 43.40835 ], [ -2.7915631, 43.4078895 ], [ -2.7916039, 43.4084839 ], [ -2.7912752, 43.4085823 ], [ -2.7913705, 43.4097981 ], [ -2.7920259, 43.4104881 ], [ -2.7888809, 43.4167314 ], [ -2.7878976, 43.418625 ], [ -2.7871602, 43.4206586 ], [ -2.7867346, 43.4212611 ], [ -2.7860417, 43.4213724 ], [ -2.7852889, 43.4215871 ], [ -2.7849246, 43.421861 ], [ -2.7848212, 43.4218608 ], [ -2.7847558, 43.4218787 ], [ -2.7847129, 43.4219011 ], [ -2.7846757, 43.4219416 ], [ -2.7846369, 43.4220001 ], [ -2.7845954, 43.4220585 ], [ -2.7845531, 43.4221215 ], [ -2.7844938, 43.4221889 ], [ -2.7844283, 43.4222518 ], [ -2.7843737, 43.4222967 ], [ -2.7842658, 43.422364 ], [ -2.7841865, 43.4224089 ], [ -2.7840956, 43.4224538 ], [ -2.7840395, 43.4224761 ], [ -2.7839545, 43.4225075 ], [ -2.783878, 43.4225344 ], [ -2.7837608, 43.4225747 ], [ -2.7835869, 43.4226509 ], [ -2.7834483, 43.4227452 ], [ -2.7833121, 43.4228395 ], [ -2.782977, 43.4229559 ], [ -2.7828245, 43.4230456 ], [ -2.7826347, 43.4231263 ], [ -2.7825662, 43.4231757 ], [ -2.782529, 43.4232207 ], [ -2.782509, 43.4235178 ], [ -2.7825158, 43.4236528 ], [ -2.7825543, 43.4237835 ], [ -2.7825867, 43.4239231 ], [ -2.7825713, 43.4239951 ], [ -2.7825236, 43.4240715 ], [ -2.7826596, 43.4242699 ], [ -2.7829894, 43.4243291 ], [ -2.7830554, 43.4243427 ], [ -2.7831598, 43.424406 ], [ -2.7833028, 43.4244828 ], [ -2.7833539, 43.4245324 ], [ -2.7833832, 43.4245549 ], [ -2.7834482, 43.4246091 ], [ -2.7835335, 43.4247308 ], [ -2.7835778, 43.4247759 ], [ -2.7836263, 43.4247985 ], [ -2.7838371, 43.4248169 ], [ -2.7833269, 43.4267069 ], [ -2.7829578, 43.4295065 ], [ -2.7825832, 43.4301857 ], [ -2.782517, 43.4304512 ], [ -2.7818284, 43.430711 ], [ -2.7817982, 43.4322507 ], [ -2.781741, 43.4323721 ], [ -2.7813568, 43.4328846 ], [ -2.7811213, 43.4333299 ], [ -2.7810822, 43.4334514 ], [ -2.7810659, 43.4335819 ], [ -2.780951, 43.4337528 ], [ -2.780666, 43.4339863 ], [ -2.7805014, 43.4341031 ], [ -2.7803797, 43.4341479 ], [ -2.7797111, 43.4353487 ], [ -2.7794327, 43.436118 ], [ -2.7786894, 43.4372781 ], [ -2.7784609, 43.4375658 ], [ -2.7781955, 43.437921 ], [ -2.7795655, 43.4387656 ], [ -2.7802646, 43.4392667 ], [ -2.7825917, 43.4411936 ], [ -2.7814591, 43.44342 ], [ -2.7815231, 43.4434696 ], [ -2.7815988, 43.4435463 ], [ -2.7817593, 43.4436051 ], [ -2.7821848, 43.443741 ], [ -2.7822076, 43.4438401 ], [ -2.7823149, 43.4439619 ], [ -2.7824375, 43.4440206 ], [ -2.7824653, 43.4440252 ], [ -2.7826286, 43.444048 ], [ -2.7826919, 43.4440617 ], [ -2.7828261, 43.4441114 ], [ -2.7830112, 43.4441883 ], [ -2.7832305, 43.4442968 ], [ -2.7833728, 43.4443556 ], [ -2.7834183, 43.4443872 ], [ -2.7834657, 43.4444143 ], [ -2.7834938, 43.4444413 ], [ -2.7835846, 43.4445136 ], [ -2.7836243, 43.4445541 ], [ -2.783717, 43.4446624 ], [ -2.7837861, 43.4447841 ], [ -2.7838157, 43.4449327 ], [ -2.7838594, 43.4450048 ], [ -2.783906, 43.4450364 ], [ -2.7840417, 43.4451357 ], [ -2.7840588, 43.4452078 ], [ -2.7840624, 43.4452799 ], [ -2.7840688, 43.4453114 ], [ -2.7840714, 43.4453429 ], [ -2.7842268, 43.4454107 ], [ -2.784377, 43.445528 ], [ -2.7844305, 43.4455777 ], [ -2.7844782, 43.4456363 ], [ -2.7844962, 43.4456814 ], [ -2.7845068, 43.4457489 ], [ -2.7845498, 43.4459291 ], [ -2.7846275, 43.4460238 ], [ -2.7846347, 43.4460508 ], [ -2.7845825, 43.4461722 ], [ -2.7846352, 43.446465 ], [ -2.7847113, 43.4465507 ], [ -2.7847526, 43.4465688 ], [ -2.7847912, 43.4467849 ], [ -2.7848108, 43.446821 ], [ -2.7848523, 43.4471992 ], [ -2.7832459, 43.4482317 ] ] ] } },
{ "type": "Feature", "properties": { "CCAA": "16 - País Vasco", "PROVINCIA": "48 - Bizkaia", "MUNICIPIO": "48012 - Bakio", "COD_MUNICIPIO": "48012", "DISTRITO": "01", "SECCION": "4801201001", "V1_H": 81.4, "V1_M": 86.8, "V2_H": 81.08162797, "V2_M": 86.57651574, "V3_H": 81.67802952, "V3_M": 87.10412253 }, "geometry": { "type": "Polygon", "coordinates": [ [ [ -2.8110605, 43.4310751 ], [ -2.8111297, 43.4312945 ], [ -2.8110983, 43.431317 ], [ -2.8110709, 43.431326 ], [ -2.8110461, 43.4313394 ], [ -2.810995, 43.4313844 ], [ -2.810933, 43.4314563 ], [ -2.8109009, 43.4314923 ], [ -2.8108869, 43.4315013 ], [ -2.8108376, 43.4315912 ], [ -2.810822, 43.4316362 ], [ -2.810813, 43.4316767 ], [ -2.8108122, 43.4316992 ], [ -2.8108259, 43.4317398 ], [ -2.8108686, 43.4318119 ], [ -2.8108766, 43.4318254 ], [ -2.8108725, 43.4319244 ], [ -2.8108712, 43.4319695 ], [ -2.8108811, 43.4320145 ], [ -2.8109022, 43.4320731 ], [ -2.8109332, 43.4321316 ], [ -2.8110924, 43.4323345 ], [ -2.8111286, 43.4323796 ], [ -2.8111682, 43.4324112 ], [ -2.8112454, 43.4324428 ], [ -2.8113237, 43.43247 ], [ -2.8113993, 43.4324881 ], [ -2.8114873, 43.4324972 ], [ -2.8115155, 43.4324973 ], [ -2.8115557, 43.4324838 ], [ -2.8115674, 43.4324433 ], [ -2.8115691, 43.4324163 ], [ -2.8116227, 43.4324074 ], [ -2.811664, 43.4324075 ], [ -2.8117389, 43.4324166 ], [ -2.8118327, 43.4324393 ], [ -2.8118582, 43.4324438 ], [ -2.8120181, 43.4324216 ], [ -2.8120494, 43.4324126 ], [ -2.8122168, 43.4323319 ], [ -2.8123425, 43.4322645 ], [ -2.8124222, 43.4322152 ], [ -2.8125022, 43.4321838 ], [ -2.8125362, 43.4321748 ], [ -2.8125791, 43.4321659 ], [ -2.8126564, 43.4321615 ], [ -2.8126938, 43.4321616 ], [ -2.8127551, 43.4321842 ], [ -2.8127782, 43.4322067 ], [ -2.8128036, 43.4322428 ], [ -2.8128069, 43.4323013 ], [ -2.8128052, 43.4323328 ], [ -2.8128997, 43.432378 ], [ -2.8129425, 43.4323961 ], [ -2.812959, 43.4324141 ], [ -2.8129902, 43.4324367 ], [ -2.8130231, 43.4324412 ], [ -2.8130552, 43.4324368 ], [ -2.8131242, 43.4324459 ], [ -2.8131794, 43.4324595 ], [ -2.8132716, 43.4324687 ], [ -2.8133327, 43.4324688 ], [ -2.8134168, 43.4324869 ], [ -2.8134662, 43.4325005 ], [ -2.8134916, 43.4325005 ], [ -2.8135187, 43.4325006 ], [ -2.8135739, 43.4324827 ], [ -2.8136196, 43.4324557 ], [ -2.8136308, 43.4324422 ], [ -2.8136212, 43.4324197 ], [ -2.8135966, 43.4323972 ], [ -2.8135832, 43.4323746 ], [ -2.8136477, 43.4323432 ], [ -2.8136833, 43.4323297 ], [ -2.8137081, 43.4323118 ], [ -2.8138681, 43.43224 ], [ -2.8139234, 43.4322131 ], [ -2.813947, 43.4322087 ], [ -2.8139875, 43.4322132 ], [ -2.8140244, 43.4322628 ], [ -2.8140456, 43.4322943 ], [ -2.8140737, 43.4323214 ], [ -2.8141757, 43.4322991 ], [ -2.8142483, 43.4322812 ], [ -2.8143249, 43.4322498 ], [ -2.8143968, 43.4322139 ], [ -2.8144725, 43.432187 ], [ -2.8146194, 43.4321467 ], [ -2.8146781, 43.4321333 ], [ -2.8147028, 43.4321333 ], [ -2.814756, 43.4321649 ], [ -2.8148285, 43.4322236 ], [ -2.8148924, 43.4322687 ], [ -2.8149756, 43.4323409 ], [ -2.8150075, 43.4323724 ], [ -2.8150503, 43.432395 ], [ -2.8150766, 43.4323996 ], [ -2.815155, 43.4323997 ], [ -2.8151928, 43.4323952 ], [ -2.8152341, 43.4324133 ], [ -2.8152572, 43.4324314 ], [ -2.8152815, 43.4324359 ], [ -2.8153838, 43.4324316 ], [ -2.8154054, 43.4324316 ], [ -2.8154259, 43.4324316 ], [ -2.8154347, 43.4324497 ], [ -2.815433, 43.4325037 ], [ -2.8154352, 43.4325262 ], [ -2.815451, 43.4325533 ], [ -2.8154676, 43.4325713 ], [ -2.8155389, 43.4326074 ], [ -2.815596, 43.4326345 ], [ -2.815636, 43.4326571 ], [ -2.8156615, 43.4326662 ], [ -2.8157109, 43.4326752 ], [ -2.8157333, 43.4326753 ], [ -2.8158148, 43.4326619 ], [ -2.8158476, 43.4326529 ], [ -2.8158681, 43.432653 ], [ -2.815953, 43.4326621 ], [ -2.8160009, 43.4326712 ], [ -2.8161063, 43.4326759 ], [ -2.8161731, 43.432676 ], [ -2.816275, 43.4326761 ], [ -2.8163075, 43.4326762 ], [ -2.8163286, 43.4326807 ], [ -2.8163425, 43.4326898 ], [ -2.8163625, 43.4327438 ], [ -2.8163727, 43.4327934 ], [ -2.8163907, 43.4328429 ], [ -2.816426, 43.432906 ], [ -2.8165121, 43.4330367 ], [ -2.8165295, 43.4330637 ], [ -2.8165418, 43.4330773 ], [ -2.8165607, 43.4330818 ], [ -2.8165622, 43.4330953 ], [ -2.8165803, 43.4331133 ], [ -2.8165998, 43.4331584 ], [ -2.8166214, 43.4331855 ], [ -2.8166788, 43.433226 ], [ -2.8167867, 43.4332847 ], [ -2.8168392, 43.4333119 ], [ -2.8169421, 43.433348 ], [ -2.8169691, 43.4333571 ], [ -2.8170423, 43.4334067 ], [ -2.8170901, 43.4334473 ], [ -2.8171418, 43.4334789 ], [ -2.8171772, 43.433497 ], [ -2.8172339, 43.4335151 ], [ -2.8172675, 43.4335241 ], [ -2.8172891, 43.4335242 ], [ -2.8173219, 43.4335242 ], [ -2.817342, 43.4335198 ], [ -2.8173583, 43.4335063 ], [ -2.8173691, 43.4334883 ], [ -2.8173708, 43.4334613 ], [ -2.817365, 43.4334388 ], [ -2.8173258, 43.4333982 ], [ -2.8172896, 43.4333711 ], [ -2.8172692, 43.4333441 ], [ -2.8172658, 43.433317 ], [ -2.8172717, 43.43329 ], [ -2.8172552, 43.4332495 ], [ -2.8172282, 43.4332224 ], [ -2.8172209, 43.4332044 ], [ -2.8172315, 43.4331549 ], [ -2.8172517, 43.4331189 ], [ -2.8172641, 43.4331054 ], [ -2.8173669, 43.4330786 ], [ -2.8174453, 43.4330607 ], [ -2.8175095, 43.4330518 ], [ -2.8176604, 43.4330521 ], [ -2.8176955, 43.4330521 ], [ -2.8177955, 43.4330748 ], [ -2.8179691, 43.4331246 ], [ -2.8180119, 43.4331381 ], [ -2.8180555, 43.4331607 ], [ -2.8181049, 43.4331743 ], [ -2.8181304, 43.4331744 ], [ -2.8181767, 43.4331744 ], [ -2.8181964, 43.4331654 ], [ -2.8182542, 43.4330935 ], [ -2.8182821, 43.4330486 ], [ -2.8182988, 43.4330035 ], [ -2.8183017, 43.432945 ], [ -2.8183091, 43.4329135 ], [ -2.8183355, 43.4328865 ], [ -2.8183718, 43.4328686 ], [ -2.8183974, 43.4328326 ], [ -2.8184005, 43.4328191 ], [ -2.8184593, 43.4327922 ], [ -2.8184806, 43.4327877 ], [ -2.818517, 43.4327518 ], [ -2.8185321, 43.4327293 ], [ -2.8185649, 43.4327293 ], [ -2.8186433, 43.4327385 ], [ -2.8187015, 43.4327521 ], [ -2.8187294, 43.4327521 ], [ -2.8187552, 43.4327521 ], [ -2.8187799, 43.4327432 ], [ -2.8188643, 43.4326803 ], [ -2.8188856, 43.4326623 ], [ -2.8189308, 43.4326444 ], [ -2.8190209, 43.432622 ], [ -2.8190819, 43.4326041 ], [ -2.8191248, 43.4325861 ], [ -2.8191503, 43.4325727 ], [ -2.8191899, 43.4325277 ], [ -2.8192213, 43.4324873 ], [ -2.8192356, 43.4324603 ], [ -2.8192469, 43.4324468 ], [ -2.8192685, 43.4324468 ], [ -2.8192909, 43.4324558 ], [ -2.8193151, 43.4324784 ], [ -2.8193244, 43.4324919 ], [ -2.8193432, 43.432501 ], [ -2.8193645, 43.432483 ], [ -2.8193731, 43.432465 ], [ -2.8193985, 43.4324605 ], [ -2.8194306, 43.4324606 ], [ -2.8194511, 43.4324606 ], [ -2.8194825, 43.4324246 ], [ -2.8194918, 43.4324112 ], [ -2.8195091, 43.4324022 ], [ -2.8195261, 43.4324202 ], [ -2.8195403, 43.4324562 ], [ -2.8195526, 43.4324788 ], [ -2.8195605, 43.4325283 ], [ -2.8195588, 43.4325823 ], [ -2.8195667, 43.4326589 ], [ -2.8195846, 43.4327355 ], [ -2.8195903, 43.432794 ], [ -2.8196002, 43.43283 ], [ -2.8196206, 43.4328571 ], [ -2.819646, 43.4328661 ], [ -2.8196723, 43.4328662 ], [ -2.8196916, 43.4328572 ], [ -2.8197261, 43.4328122 ], [ -2.8197343, 43.4327942 ], [ -2.8198217, 43.4327493 ], [ -2.819855, 43.4327359 ], [ -2.8199112, 43.4326369 ], [ -2.8199294, 43.4325964 ], [ -2.8199639, 43.4325695 ], [ -2.8200003, 43.4325605 ], [ -2.8200655, 43.4325606 ], [ -2.8201099, 43.4325652 ], [ -2.8201997, 43.4326059 ], [ -2.8202652, 43.432642 ], [ -2.8203516, 43.4326871 ], [ -2.8204198, 43.4327143 ], [ -2.8204839, 43.4327369 ], [ -2.8205194, 43.4327549 ], [ -2.8205452, 43.432782 ], [ -2.8205763, 43.4328316 ], [ -2.820582, 43.432854 ], [ -2.820575, 43.4328721 ], [ -2.8205448, 43.432899 ], [ -2.8205092, 43.4329125 ], [ -2.8204351, 43.4329259 ], [ -2.8203945, 43.4329393 ], [ -2.8203666, 43.4329573 ], [ -2.8203484, 43.4329798 ], [ -2.820341, 43.4330023 ], [ -2.8203483, 43.4330158 ], [ -2.8203927, 43.4330339 ], [ -2.8204949, 43.4330521 ], [ -2.8205393, 43.4330611 ], [ -2.8206621, 43.4330703 ], [ -2.8207049, 43.4330704 ], [ -2.8207551, 43.4330885 ], [ -2.8207836, 43.433102 ], [ -2.8208925, 43.4331067 ], [ -2.8210053, 43.4331024 ], [ -2.8210342, 43.4331069 ], [ -2.8210785, 43.4331205 ], [ -2.8211568, 43.4331837 ], [ -2.8212142, 43.4332242 ], [ -2.8212905, 43.4332739 ], [ -2.821341, 43.433301 ], [ -2.8213714, 43.4333235 ], [ -2.8214362, 43.4333462 ], [ -2.8215003, 43.4333598 ], [ -2.8215647, 43.4333689 ], [ -2.8216107, 43.433369 ], [ -2.8216526, 43.433423 ], [ -2.821673, 43.4334591 ], [ -2.8216953, 43.4334816 ], [ -2.8217949, 43.4334998 ], [ -2.8218478, 43.4334999 ], [ -2.8218964, 43.4335135 ], [ -2.8219415, 43.433536 ], [ -2.8219884, 43.4335812 ], [ -2.8220612, 43.4336713 ], [ -2.8220966, 43.4337074 ], [ -2.8221582, 43.4337525 ], [ -2.8221791, 43.4337615 ], [ -2.8222003, 43.4337616 ], [ -2.8222463, 43.4337616 ], [ -2.8222679, 43.4337481 ], [ -2.82229, 43.4337212 ], [ -2.8222971, 43.4336627 ], [ -2.8222945, 43.4336447 ], [ -2.8223219, 43.4336177 ], [ -2.8223432, 43.4336132 ], [ -2.8223986, 43.4335503 ], [ -2.8224176, 43.4335233 ], [ -2.8224473, 43.4335143 ], [ -2.8224836, 43.4335144 ], [ -2.8225188, 43.4335234 ], [ -2.8225366, 43.433618 ], [ -2.8225373, 43.433636 ], [ -2.8226204, 43.4337577 ], [ -2.8226912, 43.4338524 ], [ -2.8227204, 43.4338885 ], [ -2.82276, 43.433956 ], [ -2.822773, 43.4339831 ], [ -2.8227721, 43.4340236 ], [ -2.8227569, 43.4340731 ], [ -2.822748, 43.4340911 ], [ -2.8227618, 43.4341226 ], [ -2.822788, 43.4341452 ], [ -2.8229025, 43.4342084 ], [ -2.8229773, 43.4342445 ], [ -2.8230201, 43.4342716 ], [ -2.8230586, 43.4342852 ], [ -2.8231714, 43.4343033 ], [ -2.8232752, 43.4343125 ], [ -2.8234327, 43.4343217 ], [ -2.8234582, 43.4343218 ], [ -2.8235841, 43.434304 ], [ -2.8236073, 43.4342995 ], [ -2.8236845, 43.4343131 ], [ -2.823725, 43.4343267 ], [ -2.8238238, 43.4343404 ], [ -2.8238485, 43.4343404 ], [ -2.8239227, 43.4343405 ], [ -2.8239903, 43.4343271 ], [ -2.8240783, 43.4343272 ], [ -2.8241196, 43.4343273 ], [ -2.8241707, 43.4342959 ], [ -2.8242477, 43.4342195 ], [ -2.8242714, 43.434197 ], [ -2.8243062, 43.434179 ], [ -2.8243398, 43.4341746 ], [ -2.8243715, 43.4341611 ], [ -2.8244067, 43.4341252 ], [ -2.8244351, 43.4340757 ], [ -2.8244459, 43.4340397 ], [ -2.8244623, 43.4340127 ], [ -2.8244928, 43.4339902 ], [ -2.824506, 43.4339767 ], [ -2.8245307, 43.4339768 ], [ -2.8245728, 43.4339768 ], [ -2.8246403, 43.433995 ], [ -2.8246858, 43.4340085 ], [ -2.8247233, 43.4340131 ], [ -2.8247259, 43.4340581 ], [ -2.8247231, 43.4340806 ], [ -2.8247724, 43.4341032 ], [ -2.8248589, 43.4341303 ], [ -2.8249206, 43.4341485 ], [ -2.8249545, 43.4341575 ], [ -2.8249758, 43.4341621 ], [ -2.8250206, 43.4341531 ], [ -2.8250616, 43.4341262 ], [ -2.8250883, 43.4340902 ], [ -2.8250958, 43.4340452 ], [ -2.8250886, 43.4340091 ], [ -2.8250736, 43.4339866 ], [ -2.8250694, 43.4339506 ], [ -2.8250788, 43.4338966 ], [ -2.8250797, 43.4338696 ], [ -2.8250617, 43.433829 ], [ -2.8250378, 43.433802 ], [ -2.8250305, 43.433784 ], [ -2.8250822, 43.433793 ], [ -2.8251096, 43.4338066 ], [ -2.8251467, 43.4338066 ], [ -2.8251679, 43.4338067 ], [ -2.8252077, 43.4337932 ], [ -2.8252333, 43.4337708 ], [ -2.8252275, 43.4337482 ], [ -2.8251387, 43.4337391 ], [ -2.8251021, 43.433739 ], [ -2.8250816, 43.4337255 ], [ -2.825091, 43.433712 ], [ -2.825118, 43.4336986 ], [ -2.8251247, 43.4336805 ], [ -2.8250927, 43.433658 ], [ -2.8250368, 43.4336354 ], [ -2.825004, 43.4336128 ], [ -2.8250403, 43.4335904 ], [ -2.8250863, 43.433577 ], [ -2.8251227, 43.4335545 ], [ -2.825159, 43.4335275 ], [ -2.8251889, 43.4334825 ], [ -2.8251972, 43.4334375 ], [ -2.8251941, 43.433415 ], [ -2.8251684, 43.433379 ], [ -2.8251576, 43.4333519 ], [ -2.8251801, 43.4333295 ], [ -2.8252381, 43.433289 ], [ -2.8253073, 43.4332576 ], [ -2.8253476, 43.4332307 ], [ -2.8253693, 43.4331947 ], [ -2.8253767, 43.4331722 ], [ -2.8253267, 43.4331001 ], [ -2.8253117, 43.433082 ], [ -2.8253002, 43.4330505 ], [ -2.8253068, 43.4330325 ], [ -2.8254499, 43.4329517 ], [ -2.8255373, 43.4329068 ], [ -2.8255942, 43.4328709 ], [ -2.8256693, 43.432808 ], [ -2.8257115, 43.4327675 ], [ -2.8257809, 43.4326595 ], [ -2.8258306, 43.4325786 ], [ -2.8258844, 43.4325066 ], [ -2.8259197, 43.4324662 ], [ -2.8259868, 43.4323537 ], [ -2.826038, 43.4322637 ], [ -2.8260888, 43.4321873 ], [ -2.8261291, 43.4321333 ], [ -2.826224, 43.4320344 ], [ -2.8262845, 43.431967 ], [ -2.8263616, 43.4318591 ], [ -2.8264046, 43.4317961 ], [ -2.8264631, 43.4317421 ], [ -2.8265265, 43.4316927 ], [ -2.8265877, 43.4316478 ], [ -2.8266901, 43.4315984 ], [ -2.8267543, 43.431576 ], [ -2.8268803, 43.4315402 ], [ -2.8269792, 43.4315223 ], [ -2.8270858, 43.4315045 ], [ -2.8271202, 43.4315 ], [ -2.8271877, 43.4315001 ], [ -2.8272553, 43.4315092 ], [ -2.8273178, 43.4315229 ], [ -2.8274143, 43.431532 ], [ -2.8274514, 43.4315321 ], [ -2.8275452, 43.4315277 ], [ -2.8275683, 43.4315232 ], [ -2.8276483, 43.4315324 ], [ -2.8277035, 43.4315459 ], [ -2.8277262, 43.4315505 ], [ -2.8277762, 43.4315055 ], [ -2.827804, 43.4314741 ], [ -2.8278396, 43.4314606 ], [ -2.8278635, 43.4314561 ], [ -2.8278883, 43.4314561 ], [ -2.8280018, 43.4314428 ], [ -2.8282359, 43.4313936 ], [ -2.8283588, 43.4313668 ], [ -2.8285581, 43.4313311 ], [ -2.8286527, 43.4313177 ], [ -2.8287034, 43.4313043 ], [ -2.8287269, 43.4313044 ], [ -2.8288111, 43.4313135 ], [ -2.8288555, 43.431318 ], [ -2.8288817, 43.4313181 ], [ -2.8289281, 43.4313047 ], [ -2.8289478, 43.4312957 ], [ -2.8290393, 43.4312913 ], [ -2.8291235, 43.4312959 ], [ -2.8292285, 43.4313096 ], [ -2.8293481, 43.4313323 ], [ -2.8294261, 43.4313504 ], [ -2.8295317, 43.4313866 ], [ -2.8296772, 43.4314318 ], [ -2.829833, 43.4314771 ], [ -2.829879, 43.4314907 ], [ -2.8299013, 43.4314907 ], [ -2.8299523, 43.4314863 ], [ -2.8300281, 43.4314684 ], [ -2.8301509, 43.4314505 ], [ -2.8302251, 43.4314372 ], [ -2.8303015, 43.4314373 ], [ -2.8303675, 43.4314374 ], [ -2.830393, 43.4314464 ], [ -2.8304241, 43.4314825 ], [ -2.8304386, 43.431541 ], [ -2.8304544, 43.4315726 ], [ -2.8304979, 43.4316177 ], [ -2.8305734, 43.4316763 ], [ -2.8306343, 43.4317169 ], [ -2.8306921, 43.431762 ], [ -2.8307387, 43.4318071 ], [ -2.8307776, 43.4318522 ], [ -2.8308168, 43.4318883 ], [ -2.8309256, 43.4319469 ], [ -2.8309788, 43.431974 ], [ -2.8310405, 43.4319967 ], [ -2.8311122, 43.4320193 ], [ -2.8311837, 43.4320284 ], [ -2.8312184, 43.4320284 ], [ -2.8312802, 43.432024 ], [ -2.8313262, 43.4320016 ], [ -2.8313421, 43.4319881 ], [ -2.8313588, 43.4319431 ], [ -2.8313613, 43.4318891 ], [ -2.8313522, 43.4318305 ], [ -2.8313204, 43.4317359 ], [ -2.8313089, 43.4316954 ], [ -2.8313117, 43.4316774 ], [ -2.8313248, 43.4316594 ], [ -2.8314377, 43.4316191 ], [ -2.8314624, 43.4316101 ], [ -2.8315656, 43.4316012 ], [ -2.8318695, 43.4315972 ], [ -2.8319022, 43.4315972 ], [ -2.8319528, 43.4316288 ], [ -2.831982, 43.4316604 ], [ -2.8320144, 43.4316829 ], [ -2.8320514, 43.4316965 ], [ -2.8321205, 43.4317056 ], [ -2.8321518, 43.4317146 ], [ -2.8322003, 43.4317462 ], [ -2.8322323, 43.4317733 ], [ -2.8322743, 43.4317959 ], [ -2.8322963, 43.4318004 ], [ -2.8323434, 43.4318005 ], [ -2.8323689, 43.4317915 ], [ -2.8324955, 43.4316836 ], [ -2.8325284, 43.4316522 ], [ -2.8326299, 43.4315127 ], [ -2.8327071, 43.4313958 ], [ -2.8327218, 43.4313733 ], [ -2.8327442, 43.4313734 ], [ -2.832814, 43.431414 ], [ -2.8328371, 43.431432 ], [ -2.8328676, 43.4314366 ], [ -2.8329236, 43.4314096 ], [ -2.8329681, 43.4313782 ], [ -2.8330037, 43.4313647 ], [ -2.8330141, 43.4313872 ], [ -2.8330117, 43.4314233 ], [ -2.8330166, 43.4314458 ], [ -2.8330328, 43.4314638 ], [ -2.8330625, 43.4314729 ], [ -2.833103, 43.4314684 ], [ -2.8331258, 43.4314594 ], [ -2.8331797, 43.4314055 ], [ -2.8332524, 43.4313246 ], [ -2.8332846, 43.4312886 ], [ -2.8333137, 43.4312661 ], [ -2.8333365, 43.4312527 ], [ -2.8333573, 43.4312482 ], [ -2.8333778, 43.4312482 ], [ -2.8334206, 43.4312753 ], [ -2.8334676, 43.4313114 ], [ -2.8334822, 43.4313204 ], [ -2.8335266, 43.4313295 ], [ -2.8335926, 43.4313296 ], [ -2.8336131, 43.4313296 ], [ -2.8336501, 43.4313296 ], [ -2.8336864, 43.4313387 ], [ -2.8337621, 43.4313478 ], [ -2.8337837, 43.4313479 ], [ -2.833837, 43.4313435 ], [ -2.8339501, 43.4313301 ], [ -2.8339865, 43.4313211 ], [ -2.8346023, 43.431322 ], [ -2.8346691, 43.4313221 ], [ -2.8347012, 43.4313267 ], [ -2.8348427, 43.4313719 ], [ -2.8348906, 43.43139 ], [ -2.8349226, 43.431399 ], [ -2.8350164, 43.4313992 ], [ -2.835038, 43.4313992 ], [ -2.8350592, 43.4314037 ], [ -2.8351085, 43.4314533 ], [ -2.8351439, 43.4314894 ], [ -2.8351809, 43.431521 ], [ -2.8351967, 43.43153 ], [ -2.8352395, 43.4315391 ], [ -2.8352635, 43.4315436 ], [ -2.8353013, 43.4315527 ], [ -2.8356321, 43.4315712 ], [ -2.8357113, 43.4315758 ], [ -2.8357885, 43.4315849 ], [ -2.8358652, 43.4316075 ], [ -2.8359683, 43.4316482 ], [ -2.8360596, 43.4316978 ], [ -2.8361143, 43.4317339 ], [ -2.8362783, 43.4317972 ], [ -2.8364025, 43.4318469 ], [ -2.8364685, 43.4318695 ], [ -2.8365695, 43.4318967 ], [ -2.8366421, 43.4319103 ], [ -2.836893, 43.4319242 ], [ -2.83702, 43.4319288 ], [ -2.8371173, 43.431929 ], [ -2.8371849, 43.4319291 ], [ -2.8373363, 43.4319338 ], [ -2.8374139, 43.4319339 ], [ -2.8375637, 43.4319206 ], [ -2.837717, 43.4319028 ], [ -2.8378457, 43.431885 ], [ -2.8379287, 43.4318761 ], [ -2.8380187, 43.4318762 ], [ -2.8381592, 43.4318764 ], [ -2.8382507, 43.4318811 ], [ -2.8385209, 43.431922 ], [ -2.8386856, 43.4319492 ], [ -2.8387794, 43.4319628 ], [ -2.8388566, 43.4319719 ], [ -2.8389918, 43.4319992 ], [ -2.8390461, 43.4320127 ], [ -2.8393976, 43.4321303 ], [ -2.8394724, 43.4321529 ], [ -2.8395079, 43.4321665 ], [ -2.8395357, 43.432189 ], [ -2.8395614, 43.4322476 ], [ -2.8395613, 43.4322611 ], [ -2.8396179, 43.4323332 ], [ -2.8396326, 43.4323467 ], [ -2.8397972, 43.432419 ], [ -2.8399674, 43.4324553 ], [ -2.8400696, 43.4325184 ], [ -2.8401073, 43.4325365 ], [ -2.8401655, 43.4325816 ], [ -2.8402264, 43.4326402 ], [ -2.8402707, 43.4326763 ], [ -2.8403054, 43.4326944 ], [ -2.840349, 43.4327169 ], [ -2.840391, 43.432726 ], [ -2.8404512, 43.4327351 ], [ -2.8404717, 43.4327351 ], [ -2.8405895, 43.4327173 ], [ -2.840625, 43.4327128 ], [ -2.840671, 43.4327084 ], [ -2.840705, 43.4327129 ], [ -2.8407412, 43.432722 ], [ -2.840801, 43.4327536 ], [ -2.8408342, 43.4327716 ], [ -2.8409302, 43.4328078 ], [ -2.8409657, 43.4328168 ], [ -2.8410283, 43.4328259 ], [ -2.8410487, 43.4328305 ], [ -2.8411067, 43.4328215 ], [ -2.8412172, 43.4327992 ], [ -2.8414091, 43.4327679 ], [ -2.8415968, 43.4327412 ], [ -2.8416679, 43.4327278 ], [ -2.841727, 43.4327233 ], [ -2.8417684, 43.4327144 ], [ -2.8417989, 43.4327009 ], [ -2.841925, 43.4326201 ], [ -2.8419574, 43.4325976 ], [ -2.8419861, 43.4325706 ], [ -2.8420051, 43.4325571 ], [ -2.8420545, 43.4325437 ], [ -2.8420742, 43.4325392 ], [ -2.8421738, 43.4325484 ], [ -2.8422537, 43.432553 ], [ -2.8422761, 43.432553 ], [ -2.8422951, 43.4325485 ], [ -2.8423059, 43.4325171 ], [ -2.8423075, 43.4325036 ], [ -2.8423842, 43.4324271 ], [ -2.8424016, 43.4324136 ], [ -2.8424901, 43.4323777 ], [ -2.8425237, 43.4323643 ], [ -2.8425601, 43.4323553 ], [ -2.8426087, 43.4323554 ], [ -2.8426299, 43.4323554 ], [ -2.8426523, 43.4323554 ], [ -2.8427134, 43.432324 ], [ -2.8427304, 43.432315 ], [ -2.842744, 43.4322925 ], [ -2.8427463, 43.432279 ], [ -2.8427677, 43.4322566 ], [ -2.842809, 43.4322251 ], [ -2.8428876, 43.4321532 ], [ -2.8429321, 43.4321127 ], [ -2.8429801, 43.4320723 ], [ -2.8429917, 43.4320588 ], [ -2.8430101, 43.4319867 ], [ -2.8430329, 43.4319463 ], [ -2.843057, 43.4318878 ], [ -2.8430671, 43.4318563 ], [ -2.8430788, 43.4318338 ], [ -2.8430985, 43.4318203 ], [ -2.8431283, 43.4318068 ], [ -2.8432086, 43.4317934 ], [ -2.8432716, 43.4317845 ], [ -2.8433697, 43.4317621 ], [ -2.8434396, 43.4317442 ], [ -2.8435312, 43.4317263 ], [ -2.8436142, 43.4317129 ], [ -2.8437649, 43.4317042 ], [ -2.8437872, 43.4316997 ], [ -2.8438911, 43.4317043 ], [ -2.8439471, 43.4317044 ], [ -2.8440015, 43.4317135 ], [ -2.8440451, 43.431727 ], [ -2.8441292, 43.4317677 ], [ -2.8442352, 43.4318174 ], [ -2.844258, 43.4318309 ], [ -2.8443762, 43.431651 ], [ -2.8444803, 43.4312549 ], [ -2.8445591, 43.4311065 ], [ -2.844583, 43.4309669 ], [ -2.8445773, 43.4309264 ], [ -2.8445202, 43.4307597 ], [ -2.8442444, 43.4306603 ], [ -2.8441781, 43.4306017 ], [ -2.8440976, 43.4305385 ], [ -2.8440941, 43.430525 ], [ -2.8439577, 43.4304258 ], [ -2.8438434, 43.4302726 ], [ -2.8438411, 43.4302545 ], [ -2.8437156, 43.4301373 ], [ -2.8435826, 43.4299075 ], [ -2.8435533, 43.4297589 ], [ -2.8436968, 43.4296466 ], [ -2.843838, 43.4295207 ], [ -2.8438674, 43.4293722 ], [ -2.8436908, 43.4291198 ], [ -2.8433365, 43.4289257 ], [ -2.8431505, 43.4288714 ], [ -2.8429143, 43.4288171 ], [ -2.8427934, 43.4287088 ], [ -2.8427721, 43.4285738 ], [ -2.8427934, 43.4284027 ], [ -2.8428906, 43.4282767 ], [ -2.8430327, 43.4281419 ], [ -2.8431222, 43.4280385 ], [ -2.8432361, 43.4278765 ], [ -2.8433697, 43.4275661 ], [ -2.8435074, 43.4274762 ], [ -2.8436247, 43.4273413 ], [ -2.8439481, 43.4270807 ], [ -2.844247, 43.4267479 ], [ -2.8459066, 43.4219643 ], [ -2.8464483, 43.4204027 ], [ -2.8467868, 43.4178324 ], [ -2.8461206, 43.4167015 ], [ -2.8445174, 43.4138629 ], [ -2.8449763, 43.4114774 ], [ -2.8431545, 43.4075445 ], [ -2.8420749, 43.4040267 ], [ -2.827878, 43.4038396 ], [ -2.8209835, 43.4012672 ], [ -2.8125243, 43.4002451 ], [ -2.8100878, 43.3999439 ], [ -2.8091889, 43.4006351 ], [ -2.8092153, 43.400666 ], [ -2.8096156, 43.4011837 ], [ -2.8098989, 43.4014796 ], [ -2.8100225, 43.4016632 ], [ -2.8103381, 43.4020878 ], [ -2.8104816, 43.4021786 ], [ -2.8108794, 43.4024342 ], [ -2.8110523, 43.4025298 ], [ -2.8111141, 43.4026156 ], [ -2.8111269, 43.4027157 ], [ -2.8110382, 43.40288 ], [ -2.8108905, 43.4030727 ], [ -2.8106971, 43.4032773 ], [ -2.810964, 43.4036232 ], [ -2.8115567, 43.4042674 ], [ -2.8118272, 43.4044918 ], [ -2.8120877, 43.40479 ], [ -2.8123732, 43.4054361 ], [ -2.8125191, 43.4058056 ], [ -2.812792, 43.4063302 ], [ -2.8130458, 43.4066666 ], [ -2.813616, 43.4072155 ], [ -2.8137429, 43.4074039 ], [ -2.8141098, 43.408174 ], [ -2.8141975, 43.4083481 ], [ -2.8143696, 43.4087057 ], [ -2.8145217, 43.40918 ], [ -2.8146495, 43.4101475 ], [ -2.8146547, 43.4105787 ], [ -2.8145323, 43.4110693 ], [ -2.8144095, 43.4116933 ], [ -2.8143695, 43.4119506 ], [ -2.8143263, 43.4121697 ], [ -2.8137639, 43.4122712 ], [ -2.8134624, 43.4125375 ], [ -2.8132099, 43.4128302 ], [ -2.8130591, 43.4129776 ], [ -2.8128557, 43.4132275 ], [ -2.8127344, 43.4133726 ], [ -2.8126389, 43.4136035 ], [ -2.8129754, 43.4136422 ], [ -2.813462, 43.4137407 ], [ -2.8132254, 43.4141691 ], [ -2.812867, 43.4148737 ], [ -2.8127092, 43.415188 ], [ -2.8123111, 43.4160259 ], [ -2.8123139, 43.416176 ], [ -2.8123523, 43.416431 ], [ -2.812404, 43.4166455 ], [ -2.8124753, 43.4168457 ], [ -2.8125661, 43.4170484 ], [ -2.8124968, 43.417277 ], [ -2.812591, 43.4174797 ], [ -2.8125708, 43.417644 ], [ -2.8125604, 43.4178441 ], [ -2.8124451, 43.4181608 ], [ -2.8124053, 43.4183251 ], [ -2.8124116, 43.4184133 ], [ -2.8124307, 43.4185634 ], [ -2.8124104, 43.4187921 ], [ -2.8124882, 43.4189923 ], [ -2.8124582, 43.4192091 ], [ -2.8123727, 43.4193781 ], [ -2.812176, 43.4195731 ], [ -2.8121331, 43.4196874 ], [ -2.8120607, 43.4198445 ], [ -2.8120635, 43.4199875 ], [ -2.8120796, 43.4200876 ], [ -2.8121801, 43.4203355 ], [ -2.8123197, 43.4206407 ], [ -2.8124594, 43.4209173 ], [ -2.812505, 43.4209769 ], [ -2.8126224, 43.4210653 ], [ -2.8127593, 43.4211798 ], [ -2.8128926, 43.4214016 ], [ -2.8130774, 43.4219046 ], [ -2.8130865, 43.4221357 ], [ -2.813148, 43.4223383 ], [ -2.8131572, 43.4225123 ], [ -2.8131365, 43.4228767 ], [ -2.8131196, 43.4230673 ], [ -2.8130733, 43.4232245 ], [ -2.8129945, 43.4233625 ], [ -2.8128859, 43.4235768 ], [ -2.8128989, 43.4236054 ], [ -2.8129865, 43.4238271 ], [ -2.8130188, 43.4239415 ], [ -2.8130219, 43.4240225 ], [ -2.8130378, 43.4241607 ], [ -2.8131154, 43.4244229 ], [ -2.8130889, 43.4245515 ], [ -2.8130394, 43.4246968 ], [ -2.8130456, 43.4247897 ], [ -2.8130387, 43.4249088 ], [ -2.8131197, 43.42514 ], [ -2.8130992, 43.4254569 ], [ -2.8130592, 43.4256831 ], [ -2.8129933, 43.4258593 ], [ -2.8128487, 43.4261307 ], [ -2.8127534, 43.4262925 ], [ -2.8125202, 43.4266328 ], [ -2.8122971, 43.4269231 ], [ -2.8118415, 43.4273035 ], [ -2.8116119, 43.4275581 ], [ -2.811372, 43.4279841 ], [ -2.8112237, 43.4283413 ], [ -2.81121, 43.42857 ], [ -2.8112357, 43.4287106 ], [ -2.8114079, 43.4290301 ], [ -2.8116682, 43.4294308 ], [ -2.8117396, 43.4296 ], [ -2.8117326, 43.4297358 ], [ -2.8116009, 43.4300382 ], [ -2.8110605, 43.4310751 ] ] ] } }
]
}
