{
"type": "FeatureCollection",
"name": "48025",
"features": [
{ "type": "Feature", "properties": { "CCAA": "16 - País Vasco", "PROVINCIA": "48 - Bizkaia", "MUNICIPIO": "48025 - Zeberio", "COD_MUNICIPIO": "48025", "DISTRITO": "01", "SECCION": "4802501001", "V1_H": 81.73, "V1_M": 86.8, "V2_H": 81.31626673, "V2_M": 86.83145999, "V3_H": 82.17064416, "V3_M": 87.00536352 }, "geometry": { "type": "Polygon", "coordinates": [ [ [ -2.8783279, 43.1894781 ], [ -2.8791346, 43.1897402 ], [ -2.8798794, 43.1899841 ], [ -2.8812877, 43.1904493 ], [ -2.8832375, 43.1910952 ], [ -2.884711, 43.1915784 ], [ -2.8858222, 43.1919442 ], [ -2.8877513, 43.1925855 ], [ -2.8902955, 43.1929572 ], [ -2.889787, 43.1925875 ], [ -2.8894182, 43.1921594 ], [ -2.8890138, 43.1916052 ], [ -2.8817, 43.1882256 ], [ -2.8822597, 43.1875418 ], [ -2.8828799, 43.1868355 ], [ -2.8833395, 43.1864173 ], [ -2.8842575, 43.1853782 ], [ -2.8845489, 43.1852254 ], [ -2.8885126, 43.1834824 ], [ -2.8895155, 43.1830332 ], [ -2.8898335, 43.1828579 ], [ -2.8905271, 43.1822867 ], [ -2.8910024, 43.1818189 ], [ -2.8913929, 43.1813106 ], [ -2.892869, 43.1789617 ], [ -2.8958738, 43.1766053 ], [ -2.8963158, 43.1762545 ], [ -2.896588, 43.1760341 ], [ -2.8966281, 43.1760026 ], [ -2.8967968, 43.1760343 ], [ -2.8970209, 43.176093 ], [ -2.8972861, 43.1761383 ], [ -2.8975603, 43.176134 ], [ -2.8977872, 43.1760622 ], [ -2.8980385, 43.1759679 ], [ -2.8982244, 43.175851 ], [ -2.8982987, 43.1757925 ], [ -2.8983686, 43.1757926 ], [ -2.8995733, 43.1757666 ], [ -2.9016065, 43.176016 ], [ -2.9016391, 43.1755838 ], [ -2.9017123, 43.1752958 ], [ -2.9018002, 43.1749041 ], [ -2.9018286, 43.1744179 ], [ -2.9018791, 43.1741433 ], [ -2.9020522, 43.1738148 ], [ -2.902286, 43.1735808 ], [ -2.9025137, 43.1732974 ], [ -2.9027067, 43.1730409 ], [ -2.9027811, 43.1729104 ], [ -2.9027985, 43.1728969 ], [ -2.9029763, 43.172762 ], [ -2.9029191, 43.172734 ], [ -2.9029762, 43.1726722 ], [ -2.9028332, 43.1725411 ], [ -2.902726, 43.1723909 ], [ -2.9025473, 43.172131 ], [ -2.9023389, 43.1718224 ], [ -2.9036085, 43.171721 ], [ -2.9042153, 43.1709091 ], [ -2.9044208, 43.1706353 ], [ -2.9044925, 43.1705353 ], [ -2.9043233, 43.1705351 ], [ -2.9040466, 43.1705349 ], [ -2.9037406, 43.1705203 ], [ -2.9034802, 43.1705106 ], [ -2.9032622, 43.1705032 ], [ -2.9030213, 43.1704673 ], [ -2.9017293, 43.1702827 ], [ -2.9014988, 43.1699323 ], [ -2.9011307, 43.170075 ], [ -2.9007334, 43.1702271 ], [ -2.9004434, 43.1703865 ], [ -2.900046, 43.1705934 ], [ -2.8997462, 43.1707528 ], [ -2.8995637, 43.1708789 ], [ -2.8993226, 43.1710478 ], [ -2.8991466, 43.1711716 ], [ -2.8990749, 43.1712168 ], [ -2.8989414, 43.1712548 ], [ -2.8986972, 43.1712784 ], [ -2.8986647, 43.1712402 ], [ -2.8986553, 43.1710592 ], [ -2.8986424, 43.1709591 ], [ -2.8986099, 43.1708971 ], [ -2.8985059, 43.1707993 ], [ -2.8984019, 43.1707158 ], [ -2.8982296, 43.1706132 ], [ -2.8981873, 43.1705703 ], [ -2.8980767, 43.1705321 ], [ -2.8979531, 43.1705034 ], [ -2.8978424, 43.1704985 ], [ -2.8977239, 43.1705214 ], [ -2.8975859, 43.1705376 ], [ -2.8973855, 43.1705779 ], [ -2.8971601, 43.1706138 ], [ -2.896954, 43.1706271 ], [ -2.896723, 43.1706269 ], [ -2.8964831, 43.1705771 ], [ -2.8962976, 43.1705049 ], [ -2.8961662, 43.1704463 ], [ -2.8960229, 43.1703561 ], [ -2.8959037, 43.1702074 ], [ -2.895837, 43.1700453 ], [ -2.8958031, 43.1698966 ], [ -2.8957265, 43.1694824 ], [ -2.8956253, 43.1690726 ], [ -2.8955387, 43.1688698 ], [ -2.8953796, 43.1686446 ], [ -2.8956397, 43.1685503 ], [ -2.8958101, 43.1684649 ], [ -2.8958859, 43.1684244 ], [ -2.8960606, 43.168312 ], [ -2.8962874, 43.1681457 ], [ -2.8964499, 43.1679972 ], [ -2.8966178, 43.1678353 ], [ -2.8967649, 43.1676689 ], [ -2.8968771, 43.1674709 ], [ -2.8969628, 43.1672818 ], [ -2.8970698, 43.1669667 ], [ -2.8971094, 43.1667237 ], [ -2.8987666, 43.1654149 ], [ -2.8990929, 43.165037 ], [ -2.8988769, 43.1640373 ], [ -2.8994805, 43.1628537 ], [ -2.9014474, 43.1619955 ], [ -2.8999093, 43.1618636 ], [ -2.9026838, 43.1595202 ], [ -2.9078135, 43.1575164 ], [ -2.9080079, 43.1563325 ], [ -2.9077773, 43.1547789 ], [ -2.907736, 43.1546754 ], [ -2.9076696, 43.1545898 ], [ -2.9075795, 43.1544456 ], [ -2.9074284, 43.1542744 ], [ -2.9072288, 43.1540716 ], [ -2.9070609, 43.1537653 ], [ -2.9070323, 43.1536167 ], [ -2.9070597, 43.1520544 ], [ -2.9068808, 43.1516806 ], [ -2.9064941, 43.151221 ], [ -2.9059042, 43.1504011 ], [ -2.9058536, 43.1500499 ], [ -2.9058075, 43.1498427 ], [ -2.904726, 43.1486217 ], [ -2.9060017, 43.1472765 ], [ -2.9057134, 43.1463578 ], [ -2.9062678, 43.145908 ], [ -2.9066688, 43.1455751 ], [ -2.9069032, 43.1453277 ], [ -2.9070703, 43.1451613 ], [ -2.9071447, 43.1450218 ], [ -2.9071708, 43.1447651 ], [ -2.9071913, 43.1444049 ], [ -2.9072365, 43.1440538 ], [ -2.9072508, 43.1437252 ], [ -2.9072827, 43.143455 ], [ -2.9073345, 43.1430498 ], [ -2.9074473, 43.1426627 ], [ -2.907622, 43.1421946 ], [ -2.9077102, 43.141857 ], [ -2.9077984, 43.1414654 ], [ -2.9078246, 43.1411592 ], [ -2.907825, 43.1411277 ], [ -2.9078133, 43.141104 ], [ -2.9078005, 43.1410782 ], [ -2.9077763, 43.1410332 ], [ -2.907742, 43.1406189 ], [ -2.9077016, 43.1401641 ], [ -2.9074965, 43.1396101 ], [ -2.9075001, 43.1389978 ], [ -2.9074355, 43.138534 ], [ -2.9073028, 43.1381512 ], [ -2.907091, 43.1376468 ], [ -2.9070132, 43.137282 ], [ -2.9065969, 43.1371331 ], [ -2.9059284, 43.137047 ], [ -2.9050703, 43.1368887 ], [ -2.9040527, 43.1366762 ], [ -2.9029854, 43.1365763 ], [ -2.9024026, 43.1364992 ], [ -2.9018085, 43.1363321 ], [ -2.9010304, 43.1360973 ], [ -2.9000314, 43.1358443 ], [ -2.8990825, 43.1354968 ], [ -2.8985069, 43.1353072 ], [ -2.8978939, 43.1351265 ], [ -2.8970726, 43.1349547 ], [ -2.8965207, 43.1348686 ], [ -2.8960453, 43.1348772 ], [ -2.8958709, 43.1348906 ], [ -2.8958402, 43.1348771 ], [ -2.8956284, 43.1347103 ], [ -2.8953156, 43.1344848 ], [ -2.8949971, 43.1342144 ], [ -2.8947949, 43.1340567 ], [ -2.8945067, 43.1338943 ], [ -2.894249, 43.133786 ], [ -2.894016, 43.1336822 ], [ -2.8937092, 43.1335739 ], [ -2.8934208, 43.1334701 ], [ -2.8931139, 43.1333797 ], [ -2.8928747, 43.1333209 ], [ -2.8925925, 43.1331856 ], [ -2.8921936, 43.1330232 ], [ -2.8914514, 43.1327163 ], [ -2.8910279, 43.1325403 ], [ -2.8905925, 43.1323823 ], [ -2.8902305, 43.1322018 ], [ -2.8897705, 43.1320618 ], [ -2.8893468, 43.1319849 ], [ -2.8888919, 43.1319979 ], [ -2.8873375, 43.1321134 ], [ -2.8869261, 43.132041 ], [ -2.8857165, 43.1318687 ], [ -2.8851027, 43.13176 ], [ -2.8846361, 43.1316515 ], [ -2.884176, 43.13157 ], [ -2.883157, 43.1313844 ], [ -2.8823591, 43.1311314 ], [ -2.8819602, 43.1310049 ], [ -2.8814448, 43.1308738 ], [ -2.8810397, 43.1307383 ], [ -2.8802976, 43.1304584 ], [ -2.8797762, 43.1302822 ], [ -2.8794566, 43.1302144 ], [ -2.8790952, 43.1299934 ], [ -2.8783718, 43.1295514 ], [ -2.8779242, 43.1293663 ], [ -2.8773655, 43.1292036 ], [ -2.8768258, 43.1290004 ], [ -2.8763289, 43.1288198 ], [ -2.8757522, 43.1286526 ], [ -2.8752672, 43.128562 ], [ -2.8747944, 43.1284804 ], [ -2.8742421, 43.1283762 ], [ -2.8738678, 43.1282362 ], [ -2.873561, 43.1281459 ], [ -2.8733158, 43.127997 ], [ -2.8730343, 43.1277671 ], [ -2.87274, 43.1276227 ], [ -2.8719368, 43.1271671 ], [ -2.871434, 43.1269233 ], [ -2.8709805, 43.1266392 ], [ -2.8706068, 43.1264271 ], [ -2.8704363, 43.1259992 ], [ -2.8702844, 43.1255353 ], [ -2.8701335, 43.1253235 ], [ -2.8700127, 43.1252018 ], [ -2.8699503, 43.1251387 ], [ -2.8699012, 43.1250711 ], [ -2.8695371, 43.124679 ], [ -2.8690405, 43.1242507 ], [ -2.8686934, 43.1239981 ], [ -2.8682227, 43.1236824 ], [ -2.8679124, 43.1234344 ], [ -2.8675334, 43.1230648 ], [ -2.8671667, 43.1227627 ], [ -2.8667271, 43.1224605 ], [ -2.8664421, 43.1222711 ], [ -2.8660093, 43.122041 ], [ -2.8656276, 43.1219415 ], [ -2.8652951, 43.1218735 ], [ -2.8649564, 43.1218191 ], [ -2.8643541, 43.1217869 ], [ -2.8634575, 43.1217813 ], [ -2.8626589, 43.1217488 ], [ -2.8622882, 43.1215728 ], [ -2.8619914, 43.1213788 ], [ -2.861621, 43.1212298 ], [ -2.8608146, 43.1210757 ], [ -2.8601797, 43.1208814 ], [ -2.8595276, 43.120795 ], [ -2.8590405, 43.1206233 ], [ -2.8586831, 43.1205283 ], [ -2.8583868, 43.1204109 ], [ -2.8580038, 43.1202348 ], [ -2.8576774, 43.1201668 ], [ -2.8570442, 43.1200895 ], [ -2.8565583, 43.1200394 ], [ -2.8559984, 43.1199576 ], [ -2.8554758, 43.1198984 ], [ -2.8550637, 43.1198394 ], [ -2.8550388, 43.1198258 ], [ -2.8547186, 43.1197399 ], [ -2.854193, 43.1196177 ], [ -2.8535852, 43.1195043 ], [ -2.8530327, 43.1194001 ], [ -2.8525966, 43.1192734 ], [ -2.8521482, 43.1191558 ], [ -2.8517425, 43.1190066 ], [ -2.8513556, 43.1187405 ], [ -2.8510668, 43.118551 ], [ -2.8507903, 43.1183616 ], [ -2.8503726, 43.1181134 ], [ -2.8500165, 43.1179418 ], [ -2.8496477, 43.1178018 ], [ -2.8492303, 43.1175986 ], [ -2.8485853, 43.1174402 ], [ -2.8481246, 43.117336 ], [ -2.8478363, 43.1172771 ], [ -2.8475414, 43.1172497 ], [ -2.8473633, 43.1171909 ], [ -2.8472403, 43.1170511 ], [ -2.847111, 43.1168619 ], [ -2.8468776, 43.116641 ], [ -2.8464171, 43.1163342 ], [ -2.8458517, 43.1159777 ], [ -2.8452438, 43.1156302 ], [ -2.8448259, 43.11531 ], [ -2.8444205, 43.1150528 ], [ -2.8440335, 43.1148541 ], [ -2.843536, 43.1146013 ], [ -2.8429525, 43.1143078 ], [ -2.8425961, 43.1141228 ], [ -2.8423198, 43.1138928 ], [ -2.8420926, 43.1136763 ], [ -2.8417545, 43.1134057 ], [ -2.8414043, 43.11309 ], [ -2.8410175, 43.1127924 ], [ -2.8406546, 43.1123191 ], [ -2.8403412, 43.1120125 ], [ -2.8399299, 43.1116968 ], [ -2.839586, 43.1114441 ], [ -2.8392543, 43.1112365 ], [ -2.8388855, 43.1109839 ], [ -2.8386095, 43.1107809 ], [ -2.8383083, 43.1105238 ], [ -2.8380135, 43.1102983 ], [ -2.8376631, 43.1100456 ], [ -2.8373319, 43.1099641 ], [ -2.8369142, 43.1098825 ], [ -2.8362388, 43.1096744 ], [ -2.835772, 43.1095702 ], [ -2.8352199, 43.1097765 ], [ -2.8352076, 43.1097765 ], [ -2.8345629, 43.1100367 ], [ -2.8339248, 43.1102294 ], [ -2.8338387, 43.1102427 ], [ -2.833219, 43.1104399 ], [ -2.8328507, 43.1104394 ], [ -2.8324821, 43.1103803 ], [ -2.8320829, 43.1102807 ], [ -2.8314505, 43.1100816 ], [ -2.83099, 43.1099189 ], [ -2.8304866, 43.1097515 ], [ -2.8299952, 43.1096563 ], [ -2.8295656, 43.1095971 ], [ -2.8290067, 43.1094882 ], [ -2.8289944, 43.1094837 ], [ -2.8286016, 43.1097262 ], [ -2.828123, 43.1100001 ], [ -2.8277241, 43.1102202 ], [ -2.8269753, 43.1105612 ], [ -2.8269755, 43.1107638 ], [ -2.827025, 43.1112096 ], [ -2.8271232, 43.1116555 ], [ -2.8272218, 43.1119618 ], [ -2.8274366, 43.1123088 ], [ -2.8276948, 43.112719 ], [ -2.828002, 43.1131381 ], [ -2.8283525, 43.11376 ], [ -2.8286473, 43.1140801 ], [ -2.8286349, 43.1141341 ], [ -2.8285552, 43.1143546 ], [ -2.8284328, 43.1146922 ], [ -2.82831, 43.1149486 ], [ -2.8281137, 43.1154931 ], [ -2.8281079, 43.1155111 ], [ -2.8279792, 43.1159071 ], [ -2.8278871, 43.1162761 ], [ -2.8277953, 43.1166813 ], [ -2.8277401, 43.1170729 ], [ -2.8272613, 43.1175224 ], [ -2.8270653, 43.1178508 ], [ -2.8268566, 43.1181341 ], [ -2.8268569, 43.1183052 ], [ -2.8268199, 43.1183592 ], [ -2.8268466, 43.1184358 ], [ -2.8269151, 43.1185304 ], [ -2.8270187, 43.1185756 ], [ -2.8273068, 43.1186796 ], [ -2.8273766, 43.1187292 ], [ -2.8275365, 43.1188285 ], [ -2.827609, 43.1188782 ], [ -2.8276435, 43.1189007 ], [ -2.8278167, 43.119027 ], [ -2.8279099, 43.1190857 ], [ -2.828045, 43.11914 ], [ -2.8281731, 43.1192167 ], [ -2.8282782, 43.1192889 ], [ -2.8283844, 43.1193521 ], [ -2.8284995, 43.1194063 ], [ -2.8286518, 43.119483 ], [ -2.8286906, 43.1194831 ], [ -2.8290258, 43.1196412 ], [ -2.8290794, 43.1196953 ], [ -2.8290924, 43.1198754 ], [ -2.8291266, 43.1200015 ], [ -2.8292403, 43.1202899 ], [ -2.8291421, 43.1203798 ], [ -2.8285222, 43.1210002 ], [ -2.8279882, 43.1215577 ], [ -2.8271353, 43.1224344 ], [ -2.8263373, 43.1231175 ], [ -2.8258769, 43.123576 ], [ -2.8254045, 43.1239355 ], [ -2.8248888, 43.1243985 ], [ -2.8238117, 43.1250452 ], [ -2.8237261, 43.1251306 ], [ -2.8236332, 43.125216 ], [ -2.8233178, 43.1256117 ], [ -2.8227608, 43.1262772 ], [ -2.8220377, 43.1269559 ], [ -2.8209254, 43.1280033 ], [ -2.8203094, 43.1282004 ], [ -2.8194162, 43.1284376 ], [ -2.8185536, 43.1286929 ], [ -2.8174437, 43.1292134 ], [ -2.8167095, 43.1295949 ], [ -2.8159819, 43.1299359 ], [ -2.815528, 43.1308717 ], [ -2.8150555, 43.1318435 ], [ -2.8133264, 43.134416 ], [ -2.8126415, 43.1354685 ], [ -2.8125328, 43.1355943 ], [ -2.8124207, 43.1358103 ], [ -2.8122619, 43.1360802 ], [ -2.8116387, 43.1370562 ], [ -2.8113327, 43.1374879 ], [ -2.8108676, 43.1380409 ], [ -2.8105057, 43.138387 ], [ -2.8101197, 43.1388006 ], [ -2.8097646, 43.1392007 ], [ -2.8095384, 43.139502 ], [ -2.8084988, 43.1398289 ], [ -2.8077176, 43.1400257 ], [ -2.8071764, 43.1402004 ], [ -2.8063272, 43.1404331 ], [ -2.8055463, 43.1407019 ], [ -2.8045507, 43.1411459 ], [ -2.8046133, 43.1412991 ], [ -2.8047065, 43.1414839 ], [ -2.8048251, 43.1417632 ], [ -2.8049185, 43.1419975 ], [ -2.8051358, 43.142304 ], [ -2.8054956, 43.142854 ], [ -2.8056578, 43.1432144 ], [ -2.8058132, 43.1435208 ], [ -2.8059502, 43.1438183 ], [ -2.805933, 43.1440298 ], [ -2.8059584, 43.1442595 ], [ -2.8060094, 43.1445387 ], [ -2.80606, 43.144827 ], [ -2.8060614, 43.1451241 ], [ -2.8060631, 43.1454303 ], [ -2.8060091, 43.1457409 ], [ -2.8059901, 43.1458939 ], [ -2.8059748, 43.1459975 ], [ -2.8061429, 43.1465606 ], [ -2.8066228, 43.1482903 ], [ -2.80663, 43.1483173 ], [ -2.807885, 43.1490938 ], [ -2.8074389, 43.149926 ], [ -2.8084991, 43.1507068 ], [ -2.8088588, 43.1523372 ], [ -2.8090797, 43.1533281 ], [ -2.809628, 43.1541305 ], [ -2.8091806, 43.1543548 ], [ -2.8090701, 43.1543186 ], [ -2.8089394, 43.1540888 ], [ -2.808857, 43.1539761 ], [ -2.8087712, 43.1538859 ], [ -2.8085454, 43.1537144 ], [ -2.8074647, 43.1550228 ], [ -2.8070198, 43.1556839 ], [ -2.8064176, 43.1555208 ], [ -2.8057997, 43.155952 ], [ -2.8049087, 43.1565763 ], [ -2.8043318, 43.1582367 ], [ -2.8038949, 43.1594876 ], [ -2.8035174, 43.1605585 ], [ -2.8034009, 43.1614003 ], [ -2.8032565, 43.1624536 ], [ -2.8025163, 43.1638075 ], [ -2.8030938, 43.1645964 ], [ -2.8034429, 43.1650608 ], [ -2.8040163, 43.165611 ], [ -2.8046383, 43.166202 ], [ -2.805271, 43.1667253 ], [ -2.8059358, 43.1672757 ], [ -2.806575, 43.1677991 ], [ -2.8071582, 43.1682863 ], [ -2.8077093, 43.168742 ], [ -2.8080988, 43.1690623 ], [ -2.8087695, 43.1696173 ], [ -2.8092703, 43.1700278 ], [ -2.8101569, 43.1707587 ], [ -2.8105235, 43.1710654 ], [ -2.8110496, 43.1714985 ], [ -2.8117384, 43.1720715 ], [ -2.812536, 43.1727391 ], [ -2.8127904, 43.1729287 ], [ -2.813397, 43.1730557 ], [ -2.8140652, 43.1731919 ], [ -2.8152299, 43.1734369 ], [ -2.8165013, 43.1737046 ], [ -2.818039, 43.1740267 ], [ -2.8199341, 43.1744305 ], [ -2.8199817, 43.1744395 ], [ -2.8203276, 43.1744941 ], [ -2.8216009, 43.1746762 ], [ -2.8223684, 43.1747945 ], [ -2.8235433, 43.1749674 ], [ -2.8240237, 43.1750357 ], [ -2.825398, 43.1752404 ], [ -2.8273608, 43.175527 ], [ -2.8290899, 43.1757818 ], [ -2.8295144, 43.1753727 ], [ -2.8306356, 43.1750997 ], [ -2.8322902, 43.1753273 ], [ -2.8336833, 43.1748521 ], [ -2.8341872, 43.1747808 ], [ -2.8361007, 43.1742568 ], [ -2.8369668, 43.1740194 ], [ -2.8384255, 43.1736207 ], [ -2.8395861, 43.1726544 ], [ -2.8404361, 43.1719487 ], [ -2.8406947, 43.1715708 ], [ -2.8407504, 43.1709586 ], [ -2.8407975, 43.1704499 ], [ -2.8408926, 43.1695405 ], [ -2.8416069, 43.1689382 ], [ -2.8442642, 43.1689734 ], [ -2.8447522, 43.1688975 ], [ -2.8462134, 43.1694038 ], [ -2.8470369, 43.169684 ], [ -2.8482915, 43.1701224 ], [ -2.8493782, 43.1704931 ], [ -2.8496969, 43.1706646 ], [ -2.8507618, 43.1714899 ], [ -2.8517084, 43.172225 ], [ -2.8525935, 43.1725504 ], [ -2.8542026, 43.1731557 ], [ -2.8546132, 43.1733229 ], [ -2.8553325, 43.1736929 ], [ -2.8555756, 43.1738103 ], [ -2.8572319, 43.1744743 ], [ -2.8566654, 43.175347 ], [ -2.8560866, 43.1762468 ], [ -2.8552621, 43.1770877 ], [ -2.8544338, 43.1779331 ], [ -2.8542021, 43.1781939 ], [ -2.8536577, 43.1788055 ], [ -2.8530735, 43.1794846 ], [ -2.8518892, 43.1804241 ], [ -2.8522989, 43.1819149 ], [ -2.8530745, 43.1831901 ], [ -2.8522392, 43.1835402 ], [ -2.8526146, 43.184144 ], [ -2.8531131, 43.1845814 ], [ -2.8535942, 43.1850322 ], [ -2.8542024, 43.1855688 ], [ -2.8543245, 43.185686 ], [ -2.8547558, 43.1867311 ], [ -2.8550349, 43.1872222 ], [ -2.8552322, 43.1875692 ], [ -2.8557525, 43.1882137 ], [ -2.8560494, 43.1885247 ], [ -2.8583104, 43.1898152 ], [ -2.8583814, 43.1900179 ], [ -2.8587935, 43.1897798 ], [ -2.8596383, 43.1891865 ], [ -2.8604082, 43.1886742 ], [ -2.8608093, 43.1883325 ], [ -2.8617141, 43.1875592 ], [ -2.8617299, 43.1875412 ], [ -2.8619684, 43.1873254 ], [ -2.8621572, 43.1871815 ], [ -2.8630381, 43.1865433 ], [ -2.8632265, 43.1864174 ], [ -2.8639919, 43.1860176 ], [ -2.8642441, 43.1858423 ], [ -2.8657378, 43.184786 ], [ -2.8688335, 43.1846005 ], [ -2.8687173, 43.1853568 ], [ -2.8694646, 43.1856593 ], [ -2.8706818, 43.1861605 ], [ -2.8726075, 43.1869326 ], [ -2.8733348, 43.1874512 ], [ -2.8734169, 43.1875683 ], [ -2.8735492, 43.1877305 ], [ -2.8737053, 43.1879333 ], [ -2.8743409, 43.1885824 ], [ -2.8749782, 43.1890783 ], [ -2.8758268, 43.1897456 ], [ -2.8770031, 43.1890445 ], [ -2.8783279, 43.1894781 ] ] ] } }
]
}
