{
"type": "FeatureCollection",
"name": "49044",
"features": [
{ "type": "Feature", "properties": { "CCAA": "07 - Castilla y León", "PROVINCIA": "49 - Zamora", "MUNICIPIO": "49044 - Cazurra", "COD_MUNICIPIO": "49044", "DISTRITO": "01", "SECCION": "4904401001", "V1_H": 75.48, "V1_M": 82.31, "V2_H": 75.36985678000001, "V2_M": 82.56533706, "V3_H": 75.8600571, "V3_M": 82.01450712 }, "geometry": { "type": "Polygon", "coordinates": [ [ [ -5.6769026, 41.4034726 ], [ -5.6755691, 41.4047916 ], [ -5.6749002, 41.4051044 ], [ -5.6741643, 41.4052476 ], [ -5.6724587, 41.4053683 ], [ -5.6725539, 41.4062307 ], [ -5.6726193, 41.4069497 ], [ -5.6732731, 41.4080152 ], [ -5.6732035, 41.4083591 ], [ -5.6752162, 41.4081412 ], [ -5.6802358, 41.4120951 ], [ -5.6849638, 41.4167942 ], [ -5.6876906, 41.4190902 ], [ -5.6886416, 41.4195182 ], [ -5.6891369, 41.419921 ], [ -5.693764, 41.4244689 ], [ -5.6945316, 41.4253786 ], [ -5.6956888, 41.4270266 ], [ -5.6966823, 41.4290567 ], [ -5.7049203, 41.4239908 ], [ -5.706019, 41.4248025 ], [ -5.7068477, 41.4248731 ], [ -5.7078417, 41.4246065 ], [ -5.7124143, 41.4226344 ], [ -5.7130191, 41.422503 ], [ -5.7136294, 41.4219303 ], [ -5.7139459, 41.4203377 ], [ -5.7143171, 41.4194823 ], [ -5.7163591, 41.4168043 ], [ -5.7168013, 41.4162174 ], [ -5.7179808, 41.4146674 ], [ -5.7199201, 41.4115414 ], [ -5.7200196, 41.4113815 ], [ -5.7206937, 41.4102983 ], [ -5.7210486, 41.4093442 ], [ -5.7220387, 41.4081319 ], [ -5.7220893, 41.40705 ], [ -5.723345, 41.4050389 ], [ -5.7243023, 41.4030438 ], [ -5.7250928, 41.4004943 ], [ -5.7255276, 41.3994483 ], [ -5.7279952, 41.3952468 ], [ -5.7285031, 41.3945233 ], [ -5.7281778, 41.3921804 ], [ -5.7283315, 41.3918525 ], [ -5.7281424, 41.3913346 ], [ -5.7265998, 41.3919116 ], [ -5.7235706, 41.3935504 ], [ -5.7199562, 41.3952121 ], [ -5.7191087, 41.3955384 ], [ -5.7178964, 41.3960084 ], [ -5.714616, 41.3985176 ], [ -5.71186, 41.4004109 ], [ -5.7099179, 41.4017446 ], [ -5.7017511, 41.4023961 ], [ -5.6924378, 41.4036773 ], [ -5.6876849, 41.4035814 ], [ -5.6833996, 41.4035103 ], [ -5.6818587, 41.4035643 ], [ -5.6786384, 41.4035043 ], [ -5.6769026, 41.4034726 ] ] ] } }
]
}
