{
"type": "FeatureCollection",
"name": "49084",
"features": [
{ "type": "Feature", "properties": { "CCAA": "07 - Castilla y León", "PROVINCIA": "49 - Zamora", "MUNICIPIO": "49084 - Fuentespreadas", "COD_MUNICIPIO": "49084", "DISTRITO": "01", "SECCION": "4908401001", "V1_H": 80.02, "V1_M": 86.02, "V2_H": 79.96138623, "V2_M": 86.18252023, "V3_H": 80.18726569, "V3_M": 86.15258899 }, "geometry": { "type": "Polygon", "coordinates": [ [ [ -5.5986479, 41.3398719 ], [ -5.5998313, 41.3401784 ], [ -5.601412, 41.3411604 ], [ -5.6042418, 41.341997 ], [ -5.6047017, 41.3421397 ], [ -5.6055146, 41.3424456 ], [ -5.6056969, 41.3425225 ], [ -5.6063111, 41.3429409 ], [ -5.6069897, 41.3437721 ], [ -5.6076735, 41.3450355 ], [ -5.6084334, 41.346108 ], [ -5.608649, 41.3464184 ], [ -5.609167, 41.346821 ], [ -5.6085461, 41.346835 ], [ -5.6086951, 41.347273 ], [ -5.6102413, 41.3500749 ], [ -5.6107171, 41.3506136 ], [ -5.612178, 41.3518773 ], [ -5.6133629, 41.3531113 ], [ -5.6158118, 41.3548659 ], [ -5.6168211, 41.3552932 ], [ -5.6189829, 41.3558475 ], [ -5.6193977, 41.3560542 ], [ -5.620894, 41.357299 ], [ -5.6232796, 41.3586587 ], [ -5.6253095, 41.359495 ], [ -5.6267488, 41.3581291 ], [ -5.6286169, 41.3567265 ], [ -5.6304067, 41.3557579 ], [ -5.6309286, 41.3553587 ], [ -5.6321426, 41.3546374 ], [ -5.6331975, 41.3544151 ], [ -5.6342642, 41.3538954 ], [ -5.6369706, 41.3531309 ], [ -5.6373976, 41.3527518 ], [ -5.6391016, 41.3523254 ], [ -5.6397437, 41.3519504 ], [ -5.6400661, 41.3516458 ], [ -5.6407532, 41.3511977 ], [ -5.6412004, 41.3510253 ], [ -5.6418491, 41.3505151 ], [ -5.6425445, 41.3499767 ], [ -5.6442543, 41.3476318 ], [ -5.644622, 41.3452006 ], [ -5.6466772, 41.3428296 ], [ -5.6488234, 41.3397631 ], [ -5.6490709, 41.3387936 ], [ -5.649371, 41.3382374 ], [ -5.6494415, 41.3370289 ], [ -5.6494983, 41.3369555 ], [ -5.6496675, 41.3367084 ], [ -5.6512908, 41.3357794 ], [ -5.6515844, 41.3344757 ], [ -5.6515499, 41.3339181 ], [ -5.6516974, 41.3337255 ], [ -5.6519332, 41.3336481 ], [ -5.6521811, 41.3335703 ], [ -5.6522845, 41.3334688 ], [ -5.6537838, 41.3321373 ], [ -5.6544024, 41.332069 ], [ -5.6553659, 41.3316685 ], [ -5.6564127, 41.3306716 ], [ -5.657054, 41.3296931 ], [ -5.6575898, 41.3290593 ], [ -5.6580873, 41.3286605 ], [ -5.6599091, 41.3264479 ], [ -5.6601815, 41.3258021 ], [ -5.6608208, 41.325364 ], [ -5.659643, 41.3231396 ], [ -5.6592337, 41.3227708 ], [ -5.6589921, 41.3221189 ], [ -5.6586172, 41.3217133 ], [ -5.6578668, 41.3211813 ], [ -5.6569696, 41.3205625 ], [ -5.655876, 41.3201104 ], [ -5.6550938, 41.3196782 ], [ -5.6549921, 41.3195274 ], [ -5.6542687, 41.3184813 ], [ -5.6542199, 41.3184554 ], [ -5.6520722, 41.3176404 ], [ -5.6476203, 41.315086 ], [ -5.6472539, 41.3148873 ], [ -5.6456435, 41.3140597 ], [ -5.6438748, 41.3131547 ], [ -5.6433463, 41.3124914 ], [ -5.6431219, 41.3119652 ], [ -5.6429529, 41.3116268 ], [ -5.6428763, 41.3100254 ], [ -5.6430546, 41.3088234 ], [ -5.6443543, 41.3069922 ], [ -5.6449657, 41.3055732 ], [ -5.6448664, 41.3045938 ], [ -5.6439063, 41.3044807 ], [ -5.6438691, 41.3044456 ], [ -5.6418919, 41.303104 ], [ -5.6407444, 41.3024909 ], [ -5.6380359, 41.3013732 ], [ -5.6376036, 41.299834 ], [ -5.6367062, 41.2997915 ], [ -5.636077, 41.2992925 ], [ -5.6347968, 41.2974576 ], [ -5.6337457, 41.2974546 ], [ -5.6329017, 41.2978521 ], [ -5.6303477, 41.2987842 ], [ -5.6284769, 41.2991872 ], [ -5.6267063, 41.299705 ], [ -5.6246112, 41.3013651 ], [ -5.6227431, 41.303326 ], [ -5.621133, 41.3054702 ], [ -5.6209113, 41.3061958 ], [ -5.6190862, 41.3080477 ], [ -5.6184497, 41.3088548 ], [ -5.6182446, 41.3091026 ], [ -5.617485, 41.3104168 ], [ -5.6139901, 41.3135315 ], [ -5.6136835, 41.3145292 ], [ -5.6130545, 41.315228 ], [ -5.612662, 41.3158673 ], [ -5.6125736, 41.3163467 ], [ -5.6122728, 41.3168939 ], [ -5.6107925, 41.3184136 ], [ -5.6080367, 41.3215023 ], [ -5.6053767, 41.3237061 ], [ -5.6033661, 41.3269219 ], [ -5.6025436, 41.331768 ], [ -5.602035, 41.3325001 ], [ -5.6015126, 41.3334846 ], [ -5.6014793, 41.3335484 ], [ -5.601086, 41.3338725 ], [ -5.6004968, 41.3349846 ], [ -5.6004346, 41.3358236 ], [ -5.6005079, 41.3364614 ], [ -5.6003395, 41.3367355 ], [ -5.5993977, 41.3376934 ], [ -5.5993705, 41.3379102 ], [ -5.5990476, 41.3385029 ], [ -5.5990445, 41.3387281 ], [ -5.5987896, 41.3392292 ], [ -5.5988387, 41.3395614 ], [ -5.5986479, 41.3398719 ] ] ] } }
]
}
