{
"type": "FeatureCollection",
"name": "49114",
"features": [
{ "type": "Feature", "properties": { "CCAA": "07 - Castilla y León", "PROVINCIA": "49 - Zamora", "MUNICIPIO": "49114 - Matilla la Seca", "COD_MUNICIPIO": "49114", "DISTRITO": "01", "SECCION": "4911401001", "V1_H": 75.48, "V1_M": 82.31, "V2_H": 75.36985678000001, "V2_M": 82.56533706, "V3_H": 75.8600571, "V3_M": 82.01450712 }, "geometry": { "type": "Polygon", "coordinates": [ [ [ -5.5006384, 41.6022856 ], [ -5.501576, 41.6023283 ], [ -5.5023937, 41.6023735 ], [ -5.5049515, 41.6002553 ], [ -5.5095257, 41.5978499 ], [ -5.5103654, 41.5975344 ], [ -5.5115089, 41.5973202 ], [ -5.5121842, 41.5970983 ], [ -5.5148974, 41.5959042 ], [ -5.5151065, 41.5957285 ], [ -5.515567, 41.5946106 ], [ -5.5158664, 41.5942889 ], [ -5.5170268, 41.5938942 ], [ -5.517462, 41.5936685 ], [ -5.5177442, 41.5929057 ], [ -5.5187748, 41.5901002 ], [ -5.5210208, 41.5889342 ], [ -5.5216568, 41.5886321 ], [ -5.5226481, 41.5875926 ], [ -5.5230357, 41.5867645 ], [ -5.5230079, 41.585126 ], [ -5.5235623, 41.5842672 ], [ -5.5244782, 41.5834545 ], [ -5.5245473, 41.5833809 ], [ -5.5253512, 41.5824627 ], [ -5.5262025, 41.5821467 ], [ -5.5265872, 41.5818591 ], [ -5.5271851, 41.5808912 ], [ -5.5273318, 41.5806539 ], [ -5.5279335, 41.5803975 ], [ -5.5284954, 41.5803491 ], [ -5.5291056, 41.5803086 ], [ -5.5299012, 41.5797958 ], [ -5.5297728, 41.579722 ], [ -5.5292756, 41.5794403 ], [ -5.527593, 41.5759738 ], [ -5.5271721, 41.5747132 ], [ -5.5248656, 41.5709272 ], [ -5.5235891, 41.5710994 ], [ -5.5223312, 41.571136 ], [ -5.5210202, 41.5710387 ], [ -5.5196839, 41.5709194 ], [ -5.5194195, 41.5708936 ], [ -5.5181377, 41.5718584 ], [ -5.515542, 41.5735814 ], [ -5.5145522, 41.5731843 ], [ -5.5132028, 41.5726419 ], [ -5.5105122, 41.5713715 ], [ -5.5096843, 41.5709805 ], [ -5.5087924, 41.570406 ], [ -5.5068309, 41.5691425 ], [ -5.5059799, 41.5688458 ], [ -5.5047165, 41.5681168 ], [ -5.503894, 41.5679366 ], [ -5.5035067, 41.5679225 ], [ -5.5023448, 41.5678803 ], [ -5.5002311, 41.5681154 ], [ -5.4992307, 41.5679841 ], [ -5.4992307, 41.5679841 ], [ -5.4969514, 41.5682768 ], [ -5.4961359, 41.5682765 ], [ -5.4936266, 41.5688263 ], [ -5.4910553, 41.5696386 ], [ -5.4882481, 41.5711765 ], [ -5.4875325, 41.5700302 ], [ -5.4869981, 41.5701588 ], [ -5.4864749, 41.5702872 ], [ -5.4856749, 41.5703766 ], [ -5.4811304, 41.5700875 ], [ -5.4803566, 41.5700103 ], [ -5.4789034, 41.5698654 ], [ -5.4789032, 41.5698653 ], [ -5.4789032, 41.5698654 ], [ -5.4765803, 41.5709061 ], [ -5.4732864, 41.5725892 ], [ -5.4733539, 41.5727859 ], [ -5.4744925, 41.5733918 ], [ -5.4747911, 41.5739888 ], [ -5.4748305, 41.5743933 ], [ -5.4747477, 41.5747373 ], [ -5.4734409, 41.5753779 ], [ -5.4741322, 41.5758944 ], [ -5.4738799, 41.576197 ], [ -5.474621, 41.5764422 ], [ -5.474966, 41.5763717 ], [ -5.4749868, 41.5772269 ], [ -5.4756238, 41.5785191 ], [ -5.4756137, 41.5791948 ], [ -5.4754128, 41.5802169 ], [ -5.4745847, 41.5814596 ], [ -5.4758918, 41.5817647 ], [ -5.476298, 41.5820351 ], [ -5.4762734, 41.5823328 ], [ -5.4757171, 41.5834706 ], [ -5.4755247, 41.5840872 ], [ -5.4765836, 41.5841724 ], [ -5.478132, 41.5848235 ], [ -5.4780926, 41.5850496 ], [ -5.4772426, 41.5863468 ], [ -5.4765642, 41.5861723 ], [ -5.475749, 41.5861899 ], [ -5.4750865, 41.5870597 ], [ -5.4722821, 41.5874443 ], [ -5.4723526, 41.587722 ], [ -5.4723671, 41.5877848 ], [ -5.472751, 41.5881007 ], [ -5.4731863, 41.5881905 ], [ -5.4745585, 41.5876835 ], [ -5.4755047, 41.5879604 ], [ -5.4759251, 41.5882846 ], [ -5.4764397, 41.5895073 ], [ -5.4767658, 41.5898786 ], [ -5.4772347, 41.5902197 ], [ -5.4796481, 41.5912124 ], [ -5.4815294, 41.5927209 ], [ -5.482218, 41.5922197 ], [ -5.4828612, 41.5924129 ], [ -5.4830829, 41.5925612 ], [ -5.483106, 41.5931642 ], [ -5.4821428, 41.5940135 ], [ -5.482656, 41.5945698 ], [ -5.4821609, 41.5947967 ], [ -5.482634, 41.5952458 ], [ -5.4837432, 41.5960144 ], [ -5.4850503, 41.5972471 ], [ -5.4859489, 41.5975248 ], [ -5.4868961, 41.5981347 ], [ -5.4869455, 41.5981697 ], [ -5.4880649, 41.5982626 ], [ -5.4905208, 41.5984795 ], [ -5.4916298, 41.5989238 ], [ -5.493567, 41.5993772 ], [ -5.4950365, 41.6001468 ], [ -5.4957961, 41.6005536 ], [ -5.4972374, 41.6012158 ], [ -5.4975167, 41.6012998 ], [ -5.5006384, 41.6022856 ] ] ] } }
]
}
