{
"type": "FeatureCollection",
"name": "49203",
"features": [
{ "type": "Feature", "properties": { "CCAA": "07 - Castilla y León", "PROVINCIA": "49 - Zamora", "MUNICIPIO": "49203 - Santa María de la Vega", "COD_MUNICIPIO": "49203", "DISTRITO": "01", "SECCION": "4920301001", "V1_H": 79.47, "V1_M": 85.31, "V2_H": 79.34656828, "V2_M": 85.44731594, "V3_H": 79.76976452, "V3_M": 85.31663719 }, "geometry": { "type": "Polygon", "coordinates": [ [ [ -5.7816305, 42.0968226 ], [ -5.7825649, 42.096899 ], [ -5.7831713, 42.0972175 ], [ -5.784582, 42.098507 ], [ -5.7839899, 42.0996201 ], [ -5.7839696, 42.101917 ], [ -5.7839589, 42.1025026 ], [ -5.7847947, 42.1022572 ], [ -5.7856886, 42.1022355 ], [ -5.7867879, 42.1022087 ], [ -5.7887694, 42.1021696 ], [ -5.7900516, 42.1016251 ], [ -5.7901228, 42.1015963 ], [ -5.7919126, 42.10022 ], [ -5.7935733, 42.0989368 ], [ -5.7979538, 42.0981816 ], [ -5.7981054, 42.099979 ], [ -5.7991321, 42.1016019 ], [ -5.800941, 42.1009364 ], [ -5.8038922, 42.0998556 ], [ -5.8100152, 42.0983099 ], [ -5.816022, 42.0982437 ], [ -5.8214552, 42.0980561 ], [ -5.824172, 42.0982413 ], [ -5.8248269, 42.096379 ], [ -5.8268655, 42.0930058 ], [ -5.8275749, 42.0918266 ], [ -5.8279969, 42.0915281 ], [ -5.8327062, 42.0881338 ], [ -5.8382822, 42.0841237 ], [ -5.840245, 42.0836788 ], [ -5.8408266, 42.0834393 ], [ -5.8432495, 42.0824697 ], [ -5.8438305, 42.0811315 ], [ -5.842766, 42.0784112 ], [ -5.848264, 42.071881 ], [ -5.8524637, 42.0655268 ], [ -5.851146, 42.0649832 ], [ -5.8487316, 42.0634222 ], [ -5.8458681, 42.0626288 ], [ -5.844496, 42.0614021 ], [ -5.8389799, 42.0572161 ], [ -5.8380095, 42.0565918 ], [ -5.8354523, 42.0539804 ], [ -5.8336009, 42.0528375 ], [ -5.8330225, 42.0523295 ], [ -5.8320387, 42.0508589 ], [ -5.831534, 42.050376 ], [ -5.8253186, 42.0565359 ], [ -5.8246401, 42.0570389 ], [ -5.8235511, 42.057552 ], [ -5.8205451, 42.0589858 ], [ -5.8182091, 42.060268 ], [ -5.8141921, 42.062618 ], [ -5.8121428, 42.06383 ], [ -5.811966, 42.0639333 ], [ -5.8065985, 42.0647222 ], [ -5.8035893, 42.0658224 ], [ -5.801613, 42.0675998 ], [ -5.8010413, 42.0683432 ], [ -5.8018261, 42.0694227 ], [ -5.8015342, 42.0707536 ], [ -5.8004666, 42.0717613 ], [ -5.8003291, 42.0719358 ], [ -5.7972878, 42.0758914 ], [ -5.7965219, 42.0768917 ], [ -5.7902864, 42.0791418 ], [ -5.7885965, 42.0797502 ], [ -5.7875968, 42.0801077 ], [ -5.7866991, 42.0805888 ], [ -5.7850599, 42.0823577 ], [ -5.7840203, 42.0834636 ], [ -5.7836624, 42.0838505 ], [ -5.7823217, 42.0924472 ], [ -5.7816305, 42.0968226 ] ] ] } }
]
}
