{
"type": "FeatureCollection",
"name": "49246",
"features": [
{ "type": "Feature", "properties": { "CCAA": "07 - Castilla y León", "PROVINCIA": "49 - Zamora", "MUNICIPIO": "49246 - Villalba de la Lampreana", "COD_MUNICIPIO": "49246", "DISTRITO": "01", "SECCION": "4924601001", "V1_H": 80.02, "V1_M": 85.97, "V2_H": 79.96436773000001, "V2_M": 86.10256972000001, "V3_H": 80.28635595, "V3_M": 85.87857517 }, "geometry": { "type": "Polygon", "coordinates": [ [ [ -5.5913761, 41.786629 ], [ -5.5969326, 41.7865574 ], [ -5.601245, 41.786667 ], [ -5.6041136, 41.7864849 ], [ -5.6077491, 41.7859251 ], [ -5.6098846, 41.7854712 ], [ -5.6147407, 41.7841539 ], [ -5.6161234, 41.7835371 ], [ -5.6172745, 41.7831416 ], [ -5.6195195, 41.7827211 ], [ -5.6205552, 41.7824454 ], [ -5.6251643, 41.780692 ], [ -5.6258472, 41.7806223 ], [ -5.6305382, 41.7764623 ], [ -5.6320544, 41.7744102 ], [ -5.6333567, 41.7730115 ], [ -5.6338237, 41.7723704 ], [ -5.6337762, 41.7712097 ], [ -5.6335734, 41.770665 ], [ -5.6335323, 41.7699544 ], [ -5.6336153, 41.769043 ], [ -5.6337221, 41.7675365 ], [ -5.6337076, 41.7660058 ], [ -5.6336772, 41.7640883 ], [ -5.6336586, 41.763044 ], [ -5.6341909, 41.7628247 ], [ -5.6355523, 41.7622891 ], [ -5.6366683, 41.7619302 ], [ -5.6378245, 41.7619667 ], [ -5.6387284, 41.762009 ], [ -5.6389702, 41.7620395 ], [ -5.641633, 41.7624376 ], [ -5.6425349, 41.7609668 ], [ -5.6429289, 41.7603093 ], [ -5.643094, 41.7593509 ], [ -5.6435128, 41.7581255 ], [ -5.6435629, 41.7572958 ], [ -5.6436043, 41.7565473 ], [ -5.6434124, 41.7559754 ], [ -5.6434345, 41.7544619 ], [ -5.6429838, 41.7534455 ], [ -5.6428705, 41.7527367 ], [ -5.6425725, 41.7510414 ], [ -5.6427154, 41.7501285 ], [ -5.6429817, 41.7484113 ], [ -5.6445426, 41.7448361 ], [ -5.6446628, 41.7445451 ], [ -5.644696, 41.7444723 ], [ -5.6450838, 41.7433736 ], [ -5.64516, 41.7417148 ], [ -5.6449298, 41.7410897 ], [ -5.6454121, 41.7384848 ], [ -5.6454592, 41.7381685 ], [ -5.6465745, 41.7348737 ], [ -5.6471779, 41.7337611 ], [ -5.6479541, 41.7327525 ], [ -5.6481184, 41.7323615 ], [ -5.6492394, 41.7295077 ], [ -5.6486278, 41.7292517 ], [ -5.6477829, 41.7285867 ], [ -5.6477872, 41.7283975 ], [ -5.6477811, 41.7279563 ], [ -5.6481719, 41.7272269 ], [ -5.6478546, 41.7262345 ], [ -5.647289, 41.7256351 ], [ -5.6467141, 41.7242254 ], [ -5.6468101, 41.7233406 ], [ -5.6461109, 41.7227083 ], [ -5.6461331, 41.7209066 ], [ -5.6461417, 41.7208253 ], [ -5.646135, 41.7203662 ], [ -5.6459592, 41.7204783 ], [ -5.6439565, 41.7217672 ], [ -5.6418948, 41.7230846 ], [ -5.6419115, 41.7237866 ], [ -5.6409391, 41.723818 ], [ -5.6409566, 41.7245381 ], [ -5.6387737, 41.7249575 ], [ -5.6363898, 41.7257508 ], [ -5.6348418, 41.7264076 ], [ -5.6339623, 41.7260676 ], [ -5.6241189, 41.7305618 ], [ -5.6235228, 41.7298009 ], [ -5.6227443, 41.7298727 ], [ -5.6214274, 41.7300109 ], [ -5.6195277, 41.7294148 ], [ -5.6111807, 41.7293347 ], [ -5.6105622, 41.7289075 ], [ -5.6099223, 41.7294354 ], [ -5.609455, 41.7288786 ], [ -5.6093293, 41.7287464 ], [ -5.6085585, 41.7284127 ], [ -5.607563, 41.7287684 ], [ -5.6068798, 41.7291172 ], [ -5.6060688, 41.7286853 ], [ -5.6013835, 41.7293679 ], [ -5.6026108, 41.7311774 ], [ -5.6014494, 41.7336803 ], [ -5.5988824, 41.7391961 ], [ -5.5961672, 41.7443279 ], [ -5.5964071, 41.745205 ], [ -5.5966495, 41.7482346 ], [ -5.5963994, 41.7497892 ], [ -5.5960769, 41.7501387 ], [ -5.5959035, 41.7503138 ], [ -5.5951999, 41.7513564 ], [ -5.5934549, 41.7516299 ], [ -5.5882247, 41.7531619 ], [ -5.5868088, 41.7538422 ], [ -5.5844953, 41.756434 ], [ -5.5837125, 41.7573072 ], [ -5.5771795, 41.7632719 ], [ -5.5740861, 41.7656288 ], [ -5.5712188, 41.7682327 ], [ -5.5675227, 41.7708731 ], [ -5.5672602, 41.7730404 ], [ -5.56728, 41.7747421 ], [ -5.5681927, 41.7750009 ], [ -5.5684638, 41.7760665 ], [ -5.5739489, 41.7796452 ], [ -5.5765096, 41.7801911 ], [ -5.5822501, 41.7826198 ], [ -5.5831684, 41.7830134 ], [ -5.5848983, 41.7835419 ], [ -5.5885322, 41.785036 ], [ -5.5913761, 41.786629 ] ] ] } }
]
}
