{
"type": "FeatureCollection",
"name": "49264",
"features": [
{ "type": "Feature", "properties": { "CCAA": "07 - Castilla y León", "PROVINCIA": "49 - Zamora", "MUNICIPIO": "49264 - Villar del Buey", "COD_MUNICIPIO": "49264", "DISTRITO": "01", "SECCION": "4926401001", "V1_H": 79.9, "V1_M": 85.71, "V2_H": 79.8721496, "V2_M": 85.86187756, "V3_H": 80.05417582, "V3_M": 85.81846709 }, "geometry": { "type": "Polygon", "coordinates": [ [ [ -6.3183023, 41.386115 ], [ -6.3193021, 41.3860231 ], [ -6.320853, 41.3861854 ], [ -6.3248511, 41.3872045 ], [ -6.326041, 41.387089 ], [ -6.3293458, 41.3855344 ], [ -6.3307359, 41.3851249 ], [ -6.3318959, 41.384659 ], [ -6.3327001, 41.3844826 ], [ -6.3330118, 41.3845005 ], [ -6.3335437, 41.384377 ], [ -6.3340437, 41.3841013 ], [ -6.3346852, 41.3835514 ], [ -6.337693, 41.3820411 ], [ -6.3431851, 41.3797831 ], [ -6.3465108, 41.3788848 ], [ -6.3498733, 41.3782375 ], [ -6.351468, 41.3780919 ], [ -6.3526826, 41.3782276 ], [ -6.3543735, 41.3785565 ], [ -6.3546999, 41.378628 ], [ -6.3576213, 41.3798665 ], [ -6.359194, 41.3809193 ], [ -6.3596971, 41.3813998 ], [ -6.3611162, 41.3824841 ], [ -6.3623522, 41.3839609 ], [ -6.3639576, 41.385643 ], [ -6.3658798, 41.3879012 ], [ -6.3666154, 41.3891765 ], [ -6.3666787, 41.3899401 ], [ -6.3663246, 41.392346 ], [ -6.3660525, 41.3935608 ], [ -6.366235, 41.3938526 ], [ -6.3666944, 41.3939472 ], [ -6.3671926, 41.3938696 ], [ -6.3700162, 41.3929672 ], [ -6.3712211, 41.3924456 ], [ -6.3731353, 41.3910746 ], [ -6.3749775, 41.3892374 ], [ -6.3758615, 41.388527 ], [ -6.3769833, 41.3877916 ], [ -6.3776886, 41.3875547 ], [ -6.3784623, 41.3874869 ], [ -6.3806051, 41.3879913 ], [ -6.3813955, 41.388013 ], [ -6.3834905, 41.387366 ], [ -6.3853024, 41.3865651 ], [ -6.3875038, 41.3858969 ], [ -6.3899276, 41.3853661 ], [ -6.3906177, 41.3848414 ], [ -6.3911838, 41.3842304 ], [ -6.3920145, 41.3827289 ], [ -6.3926752, 41.3802598 ], [ -6.3932644, 41.3794049 ], [ -6.3938506, 41.3778025 ], [ -6.3936048, 41.3767561 ], [ -6.3933568, 41.3747462 ], [ -6.3933296, 41.3737654 ], [ -6.3934619, 41.3728609 ], [ -6.3939787, 41.3708464 ], [ -6.3919525, 41.3677452 ], [ -6.3907617, 41.3669158 ], [ -6.3885867, 41.3650887 ], [ -6.3875586, 41.3637051 ], [ -6.3870616, 41.3633416 ], [ -6.3857442, 41.3630651 ], [ -6.3850978, 41.3630482 ], [ -6.3831219, 41.3634396 ], [ -6.3811131, 41.3641201 ], [ -6.380458, 41.3641664 ], [ -6.3797491, 41.3640972 ], [ -6.3790534, 41.3638204 ], [ -6.3781919, 41.3633414 ], [ -6.3776567, 41.3629339 ], [ -6.3770404, 41.3618803 ], [ -6.3768852, 41.3611915 ], [ -6.3771621, 41.3600756 ], [ -6.3795728, 41.3572309 ], [ -6.3804572, 41.3565385 ], [ -6.3818719, 41.3559295 ], [ -6.3829023, 41.3552868 ], [ -6.3871969, 41.3532871 ], [ -6.3871969, 41.3532871 ], [ -6.3867702, 41.3530131 ], [ -6.3864057, 41.3527791 ], [ -6.385722, 41.3525021 ], [ -6.3842419, 41.3520773 ], [ -6.3837526, 41.3520917 ], [ -6.3832753, 41.3521058 ], [ -6.3820583, 41.3519165 ], [ -6.3815684, 41.3516564 ], [ -6.3812227, 41.3514728 ], [ -6.3794108, 41.3499501 ], [ -6.3774657, 41.3493138 ], [ -6.3764697, 41.349235 ], [ -6.3751444, 41.3487966 ], [ -6.3751443, 41.3487966 ], [ -6.3737184, 41.3489556 ], [ -6.3731216, 41.3487389 ], [ -6.3722849, 41.348043 ], [ -6.370834, 41.3463294 ], [ -6.3696096, 41.3455278 ], [ -6.368394, 41.3442036 ], [ -6.3663256, 41.3425621 ], [ -6.3657045, 41.3423371 ], [ -6.3649326, 41.3421976 ], [ -6.364021, 41.3419001 ], [ -6.3632002, 41.3415099 ], [ -6.3627241, 41.3410825 ], [ -6.3615068, 41.3404157 ], [ -6.360006, 41.3400453 ], [ -6.3590738, 41.3395772 ], [ -6.3581992, 41.3388373 ], [ -6.3575305, 41.3386137 ], [ -6.3568721, 41.338822 ], [ -6.3566574, 41.3390624 ], [ -6.356798, 41.3397067 ], [ -6.3567981, 41.3397068 ], [ -6.3565147, 41.3402374 ], [ -6.3564478, 41.3419594 ], [ -6.356136, 41.342635 ], [ -6.3547728, 41.3435483 ], [ -6.3543668, 41.3440195 ], [ -6.3536228, 41.3448877 ], [ -6.349336, 41.3426262 ], [ -6.3467624, 41.3411431 ], [ -6.3445648, 41.339532 ], [ -6.3431126, 41.3384756 ], [ -6.341769, 41.3383706 ], [ -6.3417689, 41.3383706 ], [ -6.3410539, 41.3381753 ], [ -6.3395363, 41.3374719 ], [ -6.3387927, 41.336719 ], [ -6.3379567, 41.3367252 ], [ -6.3379567, 41.3367252 ], [ -6.3370177, 41.3365904 ], [ -6.3362725, 41.3362699 ], [ -6.3310765, 41.3358351 ], [ -6.3297188, 41.3354634 ], [ -6.3291133, 41.3352977 ], [ -6.328017, 41.3353565 ], [ -6.3273007, 41.3356023 ], [ -6.3257736, 41.3342416 ], [ -6.3255098, 41.3341 ], [ -6.3244839, 41.3335495 ], [ -6.3243834, 41.3334533 ], [ -6.3223866, 41.3317819 ], [ -6.3220063, 41.3315858 ], [ -6.3209523, 41.331301 ], [ -6.3203475, 41.3311564 ], [ -6.3193294, 41.3306365 ], [ -6.318495, 41.3297329 ], [ -6.3176727, 41.3278925 ], [ -6.3170437, 41.3258573 ], [ -6.3171121, 41.325324 ], [ -6.3183193, 41.3232178 ], [ -6.3185272, 41.3228426 ], [ -6.318805, 41.3217268 ], [ -6.3218814, 41.3209085 ], [ -6.3266612, 41.3197615 ], [ -6.3292923, 41.3182985 ], [ -6.3319234, 41.3168353 ], [ -6.3308751, 41.3089225 ], [ -6.3328057, 41.3072005 ], [ -6.3326981, 41.303214 ], [ -6.3328777, 41.2922126 ], [ -6.3321038, 41.2899116 ], [ -6.3326318, 41.2852763 ], [ -6.3326318, 41.2852762 ], [ -6.3282785, 41.2731634 ], [ -6.3309759, 41.2694018 ], [ -6.3294783, 41.2683555 ], [ -6.3288604, 41.2681753 ], [ -6.3277566, 41.2680632 ], [ -6.3263355, 41.2680503 ], [ -6.3251532, 41.2682735 ], [ -6.3244362, 41.2684925 ], [ -6.3224276, 41.26937 ], [ -6.3203772, 41.2706001 ], [ -6.31905, 41.2710257 ], [ -6.3176824, 41.270894 ], [ -6.3168021, 41.270244 ], [ -6.3148397, 41.2684994 ], [ -6.3141848, 41.2675907 ], [ -6.3129195, 41.2652316 ], [ -6.3114424, 41.2634009 ], [ -6.309188, 41.2624842 ], [ -6.3057674, 41.2618711 ], [ -6.3029502, 41.2609164 ], [ -6.3013731, 41.2599351 ], [ -6.3007375, 41.2594039 ], [ -6.3001596, 41.258592 ], [ -6.2994848, 41.25799 ], [ -6.2989498, 41.2573209 ], [ -6.2967453, 41.2564385 ], [ -6.2926011, 41.2554315 ], [ -6.2915101, 41.2550935 ], [ -6.2902099, 41.2548696 ], [ -6.2885669, 41.2547094 ], [ -6.2875367, 41.2546308 ], [ -6.2840328, 41.2540105 ], [ -6.2822752, 41.2539436 ], [ -6.2776017, 41.2547524 ], [ -6.2765333, 41.2558185 ], [ -6.2751673, 41.2569021 ], [ -6.2742618, 41.2571711 ], [ -6.2726174, 41.2569837 ], [ -6.2709906, 41.2561925 ], [ -6.2703867, 41.2560476 ], [ -6.2692831, 41.2559349 ], [ -6.2681687, 41.2556063 ], [ -6.2678987, 41.2552177 ], [ -6.2674909, 41.2542207 ], [ -6.2670651, 41.2538185 ], [ -6.263964, 41.2595983 ], [ -6.2614344, 41.2646414 ], [ -6.262011, 41.2666333 ], [ -6.2622004, 41.2706716 ], [ -6.2625411, 41.2734358 ], [ -6.2621749, 41.2744729 ], [ -6.2643388, 41.2771673 ], [ -6.2611884, 41.2795892 ], [ -6.2597192, 41.2800542 ], [ -6.2581125, 41.2808743 ], [ -6.257007, 41.2816891 ], [ -6.2559278, 41.2830345 ], [ -6.2556005, 41.2836562 ], [ -6.2563642, 41.2853277 ], [ -6.2561628, 41.2865583 ], [ -6.2560604, 41.2871375 ], [ -6.2564919, 41.2893317 ], [ -6.2556417, 41.2897611 ], [ -6.2547416, 41.29039 ], [ -6.2540929, 41.2910297 ], [ -6.2531484, 41.2914888 ], [ -6.250849, 41.291833 ], [ -6.2500583, 41.2922606 ], [ -6.2469642, 41.2948788 ], [ -6.2465856, 41.2954298 ], [ -6.2452806, 41.2965654 ], [ -6.2448627, 41.2972887 ], [ -6.2444614, 41.2976242 ], [ -6.2405231, 41.3000858 ], [ -6.2382759, 41.3014911 ], [ -6.2383095, 41.3026519 ], [ -6.2341056, 41.30531 ], [ -6.2313273, 41.3056403 ], [ -6.2302259, 41.305347 ], [ -6.227244, 41.3066375 ], [ -6.2253738, 41.3072214 ], [ -6.2225022, 41.3083286 ], [ -6.2213502, 41.3089463 ], [ -6.2202538, 41.3097245 ], [ -6.2164332, 41.3129115 ], [ -6.2150964, 41.3136604 ], [ -6.2142261, 41.3139369 ], [ -6.2119698, 41.3151797 ], [ -6.2101253, 41.3160508 ], [ -6.207659, 41.3176417 ], [ -6.2061727, 41.3168096 ], [ -6.204762, 41.3162995 ], [ -6.2034972, 41.3163258 ], [ -6.202511, 41.3164343 ], [ -6.2023144, 41.3163227 ], [ -6.1989171, 41.314517 ], [ -6.1988512, 41.3126816 ], [ -6.1986861, 41.3117496 ], [ -6.1984123, 41.3110368 ], [ -6.1976439, 41.3097343 ], [ -6.1947553, 41.3090401 ], [ -6.192108, 41.3096179 ], [ -6.1889886, 41.3098216 ], [ -6.1876908, 41.3106411 ], [ -6.1857787, 41.3130717 ], [ -6.1847686, 41.3134239 ], [ -6.1777917, 41.3158595 ], [ -6.176495, 41.3159674 ], [ -6.1750989, 41.3157537 ], [ -6.1685346, 41.3180874 ], [ -6.1648211, 41.3191083 ], [ -6.1636617, 41.320329 ], [ -6.1637333, 41.3215608 ], [ -6.1639719, 41.3227881 ], [ -6.1646685, 41.3231111 ], [ -6.1650404, 41.3233891 ], [ -6.1652221, 41.3239335 ], [ -6.1652045, 41.3243121 ], [ -6.1628075, 41.3246483 ], [ -6.1611832, 41.3246569 ], [ -6.1585594, 41.3245039 ], [ -6.157118, 41.3233548 ], [ -6.1557105, 41.3229071 ], [ -6.1551123, 41.3228875 ], [ -6.1543176, 41.3230083 ], [ -6.1513748, 41.3239176 ], [ -6.1504592, 41.3240058 ], [ -6.146703, 41.3236583 ], [ -6.1449867, 41.3242367 ], [ -6.1445992, 41.3246255 ], [ -6.1441546, 41.32507 ], [ -6.1434297, 41.3261435 ], [ -6.1424154, 41.3266665 ], [ -6.1417205, 41.3268747 ], [ -6.1402623, 41.327608 ], [ -6.1384617, 41.3286748 ], [ -6.1355487, 41.329718 ], [ -6.1326196, 41.330176 ], [ -6.1313023, 41.3308604 ], [ -6.1301243, 41.3317121 ], [ -6.128976, 41.3321846 ], [ -6.1278447, 41.3325126 ], [ -6.1285952, 41.3334648 ], [ -6.1286212, 41.3335091 ], [ -6.1310324, 41.3354519 ], [ -6.1314913, 41.3367993 ], [ -6.1323018, 41.338002 ], [ -6.132356, 41.3381356 ], [ -6.132712, 41.3390805 ], [ -6.1329218, 41.3414614 ], [ -6.1327697, 41.342276 ], [ -6.1327719, 41.3430685 ], [ -6.1331778, 41.343805 ], [ -6.1367374, 41.3445184 ], [ -6.1391775, 41.3472977 ], [ -6.1400854, 41.3477863 ], [ -6.1408529, 41.3485848 ], [ -6.1418597, 41.3496381 ], [ -6.1427215, 41.3506592 ], [ -6.1433184, 41.3513904 ], [ -6.1459445, 41.3540473 ], [ -6.1472755, 41.354137 ], [ -6.1478107, 41.3543295 ], [ -6.1500266, 41.3551694 ], [ -6.1532219, 41.3564867 ], [ -6.1570477, 41.3577415 ], [ -6.1585941, 41.359068 ], [ -6.1600426, 41.3600999 ], [ -6.162387, 41.3611161 ], [ -6.1631158, 41.3613573 ], [ -6.1638854, 41.3629301 ], [ -6.1653128, 41.364755 ], [ -6.1660394, 41.3644558 ], [ -6.166515, 41.3641545 ], [ -6.1674839, 41.3639207 ], [ -6.1704766, 41.363514 ], [ -6.1747429, 41.3625046 ], [ -6.1763028, 41.3623805 ], [ -6.1785193, 41.3624813 ], [ -6.1793614, 41.3625931 ], [ -6.179838, 41.3625619 ], [ -6.1813281, 41.3624757 ], [ -6.1823367, 41.3623217 ], [ -6.1851257, 41.3621543 ], [ -6.1876859, 41.3626867 ], [ -6.1888063, 41.3628628 ], [ -6.189893, 41.3630848 ], [ -6.1903767, 41.3631975 ], [ -6.1912669, 41.3623353 ], [ -6.1941455, 41.3605802 ], [ -6.1963921, 41.3598333 ], [ -6.1987332, 41.3593088 ], [ -6.1992665, 41.3582403 ], [ -6.2006037, 41.3555283 ], [ -6.2012339, 41.3539977 ], [ -6.2024183, 41.3520735 ], [ -6.2025744, 41.3513577 ], [ -6.2032133, 41.3497638 ], [ -6.2033071, 41.349482 ], [ -6.2036869, 41.3482106 ], [ -6.2048341, 41.3462603 ], [ -6.2057712, 41.3453876 ], [ -6.2064338, 41.3440363 ], [ -6.2076038, 41.34304 ], [ -6.2102761, 41.3412453 ], [ -6.2115755, 41.339723 ], [ -6.2125425, 41.3387323 ], [ -6.2134016, 41.338222 ], [ -6.2145237, 41.3372269 ], [ -6.2161416, 41.3363532 ], [ -6.2205854, 41.3355983 ], [ -6.2231192, 41.3346447 ], [ -6.2238981, 41.3334791 ], [ -6.2239326, 41.3334511 ], [ -6.2249594, 41.3327108 ], [ -6.2291075, 41.332027 ], [ -6.2312783, 41.331948 ], [ -6.2335861, 41.3322253 ], [ -6.2365744, 41.3334561 ], [ -6.2366601, 41.3334987 ], [ -6.2383061, 41.3351274 ], [ -6.2389833, 41.3352885 ], [ -6.2402923, 41.3354226 ], [ -6.2413438, 41.3356632 ], [ -6.243749, 41.3366941 ], [ -6.245069, 41.3365668 ], [ -6.2480947, 41.33758 ], [ -6.2490565, 41.3376969 ], [ -6.2496531, 41.33768 ], [ -6.2517905, 41.3371693 ], [ -6.2549201, 41.3373869 ], [ -6.2576, 41.3374551 ], [ -6.2595911, 41.3376057 ], [ -6.2596955, 41.3399353 ], [ -6.2601603, 41.3413451 ], [ -6.2615221, 41.343729 ], [ -6.261538, 41.3447642 ], [ -6.2613853, 41.3467319 ], [ -6.2609194, 41.3488885 ], [ -6.2608518, 41.3506465 ], [ -6.261081, 41.3514055 ], [ -6.261523, 41.3518793 ], [ -6.2627688, 41.3536091 ], [ -6.2638561, 41.3559918 ], [ -6.264564, 41.3581961 ], [ -6.2651101, 41.3593154 ], [ -6.2670037, 41.3589373 ], [ -6.2730652, 41.3572969 ], [ -6.2749495, 41.3574504 ], [ -6.2780886, 41.3585496 ], [ -6.279297, 41.3583351 ], [ -6.2836099, 41.3590044 ], [ -6.2847146, 41.3588648 ], [ -6.2858532, 41.3591654 ], [ -6.2912615, 41.3616404 ], [ -6.2934697, 41.3622886 ], [ -6.2946659, 41.3625425 ], [ -6.300265, 41.3633454 ], [ -6.3013377, 41.3637559 ], [ -6.3019152, 41.3640635 ], [ -6.3012283, 41.3660826 ], [ -6.3009534, 41.3679726 ], [ -6.300813, 41.369922 ], [ -6.3009135, 41.3719093 ], [ -6.3020136, 41.3730935 ], [ -6.3030385, 41.3742078 ], [ -6.3044049, 41.3754564 ], [ -6.3060107, 41.3767071 ], [ -6.3093184, 41.3775664 ], [ -6.3140932, 41.3788248 ], [ -6.3173343, 41.3807215 ], [ -6.3180641, 41.384726 ], [ -6.3183023, 41.386115 ] ] ] } }
]
}
