{
"type": "FeatureCollection",
"name": "49262",
"features": [
{ "type": "Feature", "properties": { "CCAA": "07 - Castilla y León", "PROVINCIA": "49 - Zamora", "MUNICIPIO": "49262 - Villardeciervos", "COD_MUNICIPIO": "49262", "DISTRITO": "01", "SECCION": "4926201001", "V1_H": 80.11, "V1_M": 85.95, "V2_H": 80.1609953, "V2_M": 86.03869322, "V3_H": 80.32004483, "V3_M": 85.9872989 }, "geometry": { "type": "Polygon", "coordinates": [ [ [ -6.2665167, 41.9934963 ], [ -6.2673753, 41.99376 ], [ -6.2682561, 41.993753 ], [ -6.2699364, 41.9933268 ], [ -6.2704167, 41.993043 ], [ -6.2710978, 41.9929065 ], [ -6.271897, 41.9929557 ], [ -6.2727673, 41.9925077 ], [ -6.2748572, 41.9925381 ], [ -6.2762118, 41.9928235 ], [ -6.2766846, 41.9930982 ], [ -6.2776071, 41.993432 ], [ -6.279343, 41.99268 ], [ -6.280603, 41.9923018 ], [ -6.2821969, 41.9920761 ], [ -6.2835136, 41.9911559 ], [ -6.2853932, 41.9878061 ], [ -6.2879415, 41.9864274 ], [ -6.2901822, 41.9856427 ], [ -6.2904196, 41.9855639 ], [ -6.2944014, 41.9850713 ], [ -6.2963606, 41.9846818 ], [ -6.2997167, 41.9818928 ], [ -6.3005736, 41.9809586 ], [ -6.3010142, 41.9801445 ], [ -6.3017321, 41.9797906 ], [ -6.3020501, 41.9796373 ], [ -6.303492, 41.9797489 ], [ -6.3057393, 41.9807287 ], [ -6.3061482, 41.9809331 ], [ -6.3084048, 41.9820927 ], [ -6.3110114, 41.9830171 ], [ -6.3125585, 41.9828283 ], [ -6.3135261, 41.98217 ], [ -6.3136988, 41.9815436 ], [ -6.3133616, 41.98086 ], [ -6.3131928, 41.9806307 ], [ -6.3129989, 41.9803842 ], [ -6.3125348, 41.9798123 ], [ -6.3124798, 41.9789854 ], [ -6.3125906, 41.9787931 ], [ -6.3128786, 41.9782985 ], [ -6.3137855, 41.977867 ], [ -6.3148965, 41.97788 ], [ -6.3160641, 41.9780534 ], [ -6.316624, 41.9781452 ], [ -6.320679, 41.9802341 ], [ -6.3216095, 41.9807204 ], [ -6.3219039, 41.980811 ], [ -6.3226897, 41.9810674 ], [ -6.322997, 41.9811755 ], [ -6.3277413, 41.9818934 ], [ -6.3281661, 41.9821693 ], [ -6.3302044, 41.9835329 ], [ -6.3304391, 41.9836342 ], [ -6.3311568, 41.9839735 ], [ -6.331789, 41.9838291 ], [ -6.3331046, 41.9833676 ], [ -6.3344272, 41.983041 ], [ -6.335834, 41.9824778 ], [ -6.3362723, 41.9820868 ], [ -6.3366467, 41.9807071 ], [ -6.3371728, 41.9801515 ], [ -6.3381338, 41.9798354 ], [ -6.3393954, 41.9797266 ], [ -6.3407226, 41.9799491 ], [ -6.3409789, 41.9800047 ], [ -6.3422624, 41.9803185 ], [ -6.3434657, 41.9809408 ], [ -6.3440992, 41.9812825 ], [ -6.3446731, 41.9814098 ], [ -6.3460422, 41.9812799 ], [ -6.3476953, 41.9805832 ], [ -6.3488206, 41.9794878 ], [ -6.3496053, 41.9790327 ], [ -6.3504025, 41.9790454 ], [ -6.3504348, 41.9789724 ], [ -6.3515578, 41.9759949 ], [ -6.3519274, 41.9743002 ], [ -6.3525259, 41.9725987 ], [ -6.3530065, 41.9711798 ], [ -6.3539926, 41.969278 ], [ -6.3543675, 41.9688347 ], [ -6.3574132, 41.9654857 ], [ -6.3586158, 41.9642619 ], [ -6.3672838, 41.9554258 ], [ -6.3661318, 41.9537126 ], [ -6.3645646, 41.952588 ], [ -6.3636973, 41.9516949 ], [ -6.3604384, 41.9489088 ], [ -6.3587186, 41.9478605 ], [ -6.357752, 41.9466821 ], [ -6.3574403, 41.9457997 ], [ -6.3569198, 41.9450766 ], [ -6.3552784, 41.9434497 ], [ -6.3543518, 41.9428014 ], [ -6.3523367, 41.9402578 ], [ -6.3464368, 41.9360717 ], [ -6.3433238, 41.9341993 ], [ -6.3412738, 41.9335116 ], [ -6.3399867, 41.9328827 ], [ -6.339009, 41.9335596 ], [ -6.3382157, 41.9343031 ], [ -6.3373651, 41.9353364 ], [ -6.3371046, 41.9349658 ], [ -6.3369746, 41.9345553 ], [ -6.3367503, 41.9344177 ], [ -6.3364401, 41.9344808 ], [ -6.3362439, 41.9341893 ], [ -6.3357858, 41.9339595 ], [ -6.3355773, 41.9338935 ], [ -6.3350015, 41.9337212 ], [ -6.3344907, 41.9338711 ], [ -6.3339455, 41.9338239 ], [ -6.3328721, 41.9333599 ], [ -6.3320834, 41.9332657 ], [ -6.3317893, 41.9327159 ], [ -6.3300535, 41.9327303 ], [ -6.3297023, 41.9324703 ], [ -6.3295306, 41.931953 ], [ -6.329581, 41.9317625 ], [ -6.3289259, 41.9314573 ], [ -6.3278214, 41.9313182 ], [ -6.3274729, 41.9311122 ], [ -6.3267529, 41.9304847 ], [ -6.3261618, 41.9302498 ], [ -6.3250023, 41.9285904 ], [ -6.3251462, 41.9283431 ], [ -6.3254969, 41.9276665 ], [ -6.3255337, 41.9272152 ], [ -6.3258951, 41.9230353 ], [ -6.3260318, 41.9212573 ], [ -6.3268357, 41.9167765 ], [ -6.3271423, 41.9150206 ], [ -6.3272364, 41.9133519 ], [ -6.3273679, 41.9126367 ], [ -6.3270683, 41.910349 ], [ -6.3270529, 41.9102864 ], [ -6.3275276, 41.900403 ], [ -6.3272292, 41.8999974 ], [ -6.3256003, 41.8992703 ], [ -6.3230524, 41.8977862 ], [ -6.3177522, 41.8964537 ], [ -6.3168167, 41.8963097 ], [ -6.3157645, 41.896241 ], [ -6.3141564, 41.8961434 ], [ -6.3117286, 41.8962766 ], [ -6.3108051, 41.895898 ], [ -6.3093742, 41.895498 ], [ -6.3056529, 41.896722 ], [ -6.3048937, 41.8967259 ], [ -6.3025454, 41.8962982 ], [ -6.2997569, 41.895514 ], [ -6.2917691, 41.8925286 ], [ -6.2885239, 41.8903524 ], [ -6.2870905, 41.889664 ], [ -6.2824267, 41.8882577 ], [ -6.2793897, 41.8892 ], [ -6.2777807, 41.8895522 ], [ -6.2770721, 41.8898336 ], [ -6.2746076, 41.8918401 ], [ -6.2745671, 41.8924626 ], [ -6.2742898, 41.8926957 ], [ -6.2729721, 41.8923821 ], [ -6.2706664, 41.8916013 ], [ -6.256574, 41.8908226 ], [ -6.2560764, 41.8909898 ], [ -6.2550138, 41.8921366 ], [ -6.2542866, 41.8927696 ], [ -6.2533672, 41.8931739 ], [ -6.2528875, 41.8939349 ], [ -6.2509536, 41.8959619 ], [ -6.2504323, 41.8966161 ], [ -6.2466368, 41.9028201 ], [ -6.2448312, 41.90596 ], [ -6.2447755, 41.9060516 ], [ -6.2442779, 41.9076506 ], [ -6.2433416, 41.9105858 ], [ -6.2411564, 41.9126648 ], [ -6.2406186, 41.9139497 ], [ -6.2397378, 41.9167932 ], [ -6.2396161, 41.9172469 ], [ -6.2404712, 41.9174659 ], [ -6.2465104, 41.9181506 ], [ -6.2488868, 41.9186506 ], [ -6.2511693, 41.9194325 ], [ -6.2513854, 41.9203629 ], [ -6.2514516, 41.9216668 ], [ -6.2507996, 41.9237835 ], [ -6.2495566, 41.9270876 ], [ -6.248115, 41.933369 ], [ -6.2453608, 41.9354192 ], [ -6.239961, 41.9447661 ], [ -6.2319414, 41.9586353 ], [ -6.229934, 41.9649865 ], [ -6.2296462, 41.9659762 ], [ -6.2292381, 41.9705533 ], [ -6.2299869, 41.9705682 ], [ -6.2330568, 41.9706618 ], [ -6.239864, 41.9704517 ], [ -6.240081, 41.9704456 ], [ -6.2410741, 41.9705166 ], [ -6.2423713, 41.9703989 ], [ -6.2443462, 41.9696046 ], [ -6.2450963, 41.9698806 ], [ -6.2487265, 41.9712636 ], [ -6.2472805, 41.9760504 ], [ -6.243217, 41.979209 ], [ -6.2410982, 41.9812141 ], [ -6.2399936, 41.982515 ], [ -6.2378501, 41.9842776 ], [ -6.2374794, 41.9845852 ], [ -6.2396544, 41.9862978 ], [ -6.2411095, 41.9876164 ], [ -6.242964, 41.9884825 ], [ -6.2447057, 41.9885503 ], [ -6.2483834, 41.9875277 ], [ -6.2485503, 41.9874869 ], [ -6.2498394, 41.9874415 ], [ -6.2501342, 41.9875411 ], [ -6.2564969, 41.989702 ], [ -6.2610084, 41.9908255 ], [ -6.2639174, 41.9920034 ], [ -6.2648461, 41.9929316 ], [ -6.2665167, 41.9934963 ] ] ] } }
]
}
