{
"type": "FeatureCollection",
"name": "49272",
"features": [
{ "type": "Feature", "properties": { "CCAA": "07 - Castilla y León", "PROVINCIA": "49 - Zamora", "MUNICIPIO": "49272 - Villaveza de Valverde", "COD_MUNICIPIO": "49272", "DISTRITO": "01", "SECCION": "4927201001", "V1_H": 75.48, "V1_M": 82.31, "V2_H": 75.36985678000001, "V2_M": 82.56533706, "V3_H": 75.8600571, "V3_M": 82.01450712 }, "geometry": { "type": "Polygon", "coordinates": [ [ [ -5.8361566, 41.9630708 ], [ -5.8465873, 41.963731 ], [ -5.8485529, 41.9637002 ], [ -5.854348, 41.9645828 ], [ -5.8567129, 41.9651183 ], [ -5.8608127, 41.9626297 ], [ -5.8628495, 41.961228 ], [ -5.8612574, 41.946958 ], [ -5.8606843, 41.946549 ], [ -5.8590662, 41.9454366 ], [ -5.8582942, 41.9448976 ], [ -5.8576351, 41.9444547 ], [ -5.8582516, 41.9442142 ], [ -5.8586902, 41.9440411 ], [ -5.865689, 41.929827 ], [ -5.8662096, 41.9285262 ], [ -5.867166, 41.92807 ], [ -5.8686477, 41.9258806 ], [ -5.8691525, 41.9247693 ], [ -5.8692428, 41.9240917 ], [ -5.8698931, 41.9235351 ], [ -5.869771, 41.9229617 ], [ -5.8705127, 41.9220246 ], [ -5.8710735, 41.9216234 ], [ -5.8713782, 41.9211565 ], [ -5.8723971, 41.9207527 ], [ -5.8724543, 41.9201479 ], [ -5.8745388, 41.9182316 ], [ -5.8767645, 41.9167799 ], [ -5.8772184, 41.9164174 ], [ -5.8777743, 41.9159081 ], [ -5.8783116, 41.9149851 ], [ -5.8772644, 41.9120755 ], [ -5.8763421, 41.9124769 ], [ -5.8729493, 41.9131743 ], [ -5.8705955, 41.9133863 ], [ -5.8688769, 41.9137805 ], [ -5.8669104, 41.9148293 ], [ -5.8644051, 41.916774 ], [ -5.8627876, 41.9172736 ], [ -5.8621486, 41.9178119 ], [ -5.8598669, 41.9177517 ], [ -5.854353, 41.9171325 ], [ -5.8527017, 41.9168765 ], [ -5.8460167, 41.919474 ], [ -5.8418338, 41.921676 ], [ -5.8362143, 41.9230307 ], [ -5.8331613, 41.9248893 ], [ -5.8294631, 41.9260702 ], [ -5.8306495, 41.9294451 ], [ -5.8308839, 41.9298355 ], [ -5.8344754, 41.9325025 ], [ -5.8364171, 41.9349491 ], [ -5.8390755, 41.9383234 ], [ -5.8347764, 41.9428335 ], [ -5.8347071, 41.9458971 ], [ -5.8346467, 41.9477987 ], [ -5.8347183, 41.9485984 ], [ -5.8347283, 41.9488233 ], [ -5.8346186, 41.9517889 ], [ -5.8362758, 41.9537921 ], [ -5.8361566, 41.9630708 ] ] ] } }
]
}
