{
"type": "FeatureCollection",
"name": "50014",
"features": [
{ "type": "Feature", "properties": { "CCAA": "02 - Aragón", "PROVINCIA": "50 - Zaragoza", "MUNICIPIO": "50014 - Alcalá de Moncayo", "COD_MUNICIPIO": "50014", "DISTRITO": "01", "SECCION": "5001401001", "V1_H": 80.38, "V1_M": 86.41, "V2_H": 80.21151379, "V2_M": 86.36716419, "V3_H": 80.6951312, "V3_M": 86.59024448 }, "geometry": { "type": "Polygon", "coordinates": [ [ [ -1.6523937, 41.8187846 ], [ -1.6530187, 41.8194134 ], [ -1.6555523, 41.8191729 ], [ -1.6584415, 41.8186213 ], [ -1.65926, 41.8192073 ], [ -1.6607645, 41.8192338 ], [ -1.6614992, 41.818648 ], [ -1.6653256, 41.8187646 ], [ -1.667242, 41.8175079 ], [ -1.6697323, 41.8170233 ], [ -1.6720815, 41.8163751 ], [ -1.6751073, 41.8161939 ], [ -1.677572, 41.8146101 ], [ -1.6792056, 41.8142055 ], [ -1.6831374, 41.8115217 ], [ -1.6833326, 41.810218 ], [ -1.6840529, 41.8073801 ], [ -1.685653, 41.80684 ], [ -1.6853721, 41.8046842 ], [ -1.6875323, 41.8038262 ], [ -1.6904567, 41.8026798 ], [ -1.6901364, 41.8018565 ], [ -1.6915677, 41.8013234 ], [ -1.6920204, 41.8009593 ], [ -1.6924782, 41.800352 ], [ -1.6928932, 41.7994741 ], [ -1.6935081, 41.7988326 ], [ -1.6947363, 41.799405 ], [ -1.6968943, 41.8004203 ], [ -1.6990439, 41.8006698 ], [ -1.7029183, 41.8013441 ], [ -1.7047633, 41.8017793 ], [ -1.7088816, 41.8010961 ], [ -1.7146936, 41.7999904 ], [ -1.7186225, 41.8009531 ], [ -1.7226368, 41.8006555 ], [ -1.7280609, 41.7972391 ], [ -1.7345314, 41.7926001 ], [ -1.735438, 41.791178 ], [ -1.7339554, 41.7900719 ], [ -1.7327978, 41.7895727 ], [ -1.7316, 41.7892803 ], [ -1.7281202, 41.7887644 ], [ -1.7270379, 41.7887164 ], [ -1.7250516, 41.7887484 ], [ -1.7233631, 41.7889278 ], [ -1.7225775, 41.7890992 ], [ -1.7188941, 41.7885267 ], [ -1.7174922, 41.7882229 ], [ -1.7162864, 41.7877321 ], [ -1.7155669, 41.7876069 ], [ -1.7139065, 41.7875884 ], [ -1.7110366, 41.7872679 ], [ -1.709639, 41.7867479 ], [ -1.7078255, 41.7865653 ], [ -1.7058782, 41.7864534 ], [ -1.7049019, 41.7853345 ], [ -1.703196, 41.7857836 ], [ -1.7007047, 41.7846026 ], [ -1.7005521, 41.7844117 ], [ -1.6997177, 41.7834205 ], [ -1.6994857, 41.7829946 ], [ -1.699638, 41.7820056 ], [ -1.6994752, 41.7805356 ], [ -1.6995068, 41.7783834 ], [ -1.6989608, 41.7762245 ], [ -1.6981053, 41.7744946 ], [ -1.6965499, 41.7758459 ], [ -1.6956331, 41.7765561 ], [ -1.6932828, 41.7779344 ], [ -1.6919822, 41.7785771 ], [ -1.690213, 41.7791874 ], [ -1.688126, 41.7800372 ], [ -1.6875306, 41.7803186 ], [ -1.6858416, 41.781119 ], [ -1.6828069, 41.7824082 ], [ -1.6802361, 41.7833694 ], [ -1.6794334, 41.7837835 ], [ -1.6788707, 41.7842273 ], [ -1.6786834, 41.7845584 ], [ -1.6785298, 41.7873488 ], [ -1.678425, 41.7877618 ], [ -1.6763658, 41.7925027 ], [ -1.6725978, 41.7954585 ], [ -1.6719814, 41.7955864 ], [ -1.6714752, 41.7956166 ], [ -1.6661607, 41.7953568 ], [ -1.6624763, 41.7954221 ], [ -1.6615233, 41.7955281 ], [ -1.6610255, 41.7957294 ], [ -1.6577353, 41.7976725 ], [ -1.6560533, 41.7998234 ], [ -1.6555259, 41.8002945 ], [ -1.6536233, 41.8014792 ], [ -1.6543803, 41.8026949 ], [ -1.6541371, 41.8033856 ], [ -1.6547526, 41.8038882 ], [ -1.6546905, 41.804554 ], [ -1.6545882, 41.804841 ], [ -1.6552491, 41.8054702 ], [ -1.655228, 41.8070551 ], [ -1.6529913, 41.8115322 ], [ -1.6519834, 41.8125202 ], [ -1.652104, 41.8148093 ], [ -1.6523507, 41.8168207 ], [ -1.6523886, 41.8173074 ], [ -1.6524223, 41.8180014 ], [ -1.6523937, 41.8187846 ] ] ] } }
]
}
