{
"type": "FeatureCollection",
"name": "50029",
"features": [
{ "type": "Feature", "properties": { "CCAA": "02 - Aragón", "PROVINCIA": "50 - Zaragoza", "MUNICIPIO": "50029 - Aniñón", "COD_MUNICIPIO": "50029", "DISTRITO": "01", "SECCION": "5002901001", "V1_H": 79.85, "V1_M": 85.78, "V2_H": 79.86035794, "V2_M": 85.76242541000001, "V3_H": 79.99500792000001, "V3_M": 85.93655133 }, "geometry": { "type": "Polygon", "coordinates": [ [ [ -1.6927636, 41.5239329 ], [ -1.693687, 41.5245018 ], [ -1.6941077, 41.525038 ], [ -1.6952925, 41.5275103 ], [ -1.6961705, 41.5285562 ], [ -1.6966673, 41.5294806 ], [ -1.6969363, 41.5304113 ], [ -1.6981564, 41.5311367 ], [ -1.6989344, 41.5317941 ], [ -1.6993393, 41.5325192 ], [ -1.6998407, 41.5338219 ], [ -1.7034578, 41.5339798 ], [ -1.7075575, 41.533972 ], [ -1.710132, 41.534109 ], [ -1.7109296, 41.5337847 ], [ -1.7130557, 41.5311514 ], [ -1.7140593, 41.5301088 ], [ -1.7183495, 41.5283373 ], [ -1.7193684, 41.5277271 ], [ -1.7201945, 41.5277723 ], [ -1.7214123, 41.5274076 ], [ -1.7228719, 41.5269374 ], [ -1.7229621, 41.5205253 ], [ -1.7269844, 41.5170931 ], [ -1.7269276, 41.513877 ], [ -1.7271378, 41.5117086 ], [ -1.7279177, 41.5110507 ], [ -1.7291794, 41.5108755 ], [ -1.7303099, 41.5100503 ], [ -1.7300884, 41.5091201 ], [ -1.7297673, 41.505937 ], [ -1.7295312, 41.5051418 ], [ -1.7290306, 41.5043887 ], [ -1.7298762, 41.5022003 ], [ -1.7341806, 41.5002031 ], [ -1.734326, 41.5001146 ], [ -1.7354411, 41.4994603 ], [ -1.7364847, 41.4987783 ], [ -1.7366863, 41.4964206 ], [ -1.7362555, 41.4951638 ], [ -1.7360801, 41.4937118 ], [ -1.7362091, 41.4932358 ], [ -1.7371236, 41.4917957 ], [ -1.7375765, 41.4906838 ], [ -1.7381727, 41.4895914 ], [ -1.7387672, 41.4879676 ], [ -1.7402026, 41.484984 ], [ -1.7404818, 41.4841764 ], [ -1.74179, 41.4815696 ], [ -1.7420422, 41.4809148 ], [ -1.7424004, 41.4803513 ], [ -1.7431279, 41.4786569 ], [ -1.7435864, 41.4778603 ], [ -1.7439044, 41.4769 ], [ -1.7440954, 41.4756951 ], [ -1.7439848, 41.4752165 ], [ -1.743494, 41.4739681 ], [ -1.7434243, 41.4726163 ], [ -1.7433246, 41.4722008 ], [ -1.7427008, 41.4710141 ], [ -1.7426715, 41.47005 ], [ -1.742295, 41.4690821 ], [ -1.7421815, 41.4675226 ], [ -1.7420354, 41.4670256 ], [ -1.7422012, 41.466505 ], [ -1.7422715, 41.4659653 ], [ -1.7420757, 41.4649453 ], [ -1.742323, 41.4639212 ], [ -1.7426741, 41.4631054 ], [ -1.7426462, 41.4620693 ], [ -1.7430759, 41.4615155 ], [ -1.7436112, 41.46108 ], [ -1.7437711, 41.4608656 ], [ -1.7438153, 41.4604337 ], [ -1.7435756, 41.4592061 ], [ -1.7435624, 41.4586475 ], [ -1.7420099, 41.4578199 ], [ -1.7415261, 41.4574543 ], [ -1.7412939, 41.4570734 ], [ -1.7411953, 41.4559825 ], [ -1.7412331, 41.4546498 ], [ -1.7410376, 41.4542333 ], [ -1.7408256, 41.4540509 ], [ -1.7403146, 41.4538562 ], [ -1.7396637, 41.4534617 ], [ -1.738763, 41.452371 ], [ -1.7382989, 41.4516092 ], [ -1.7381172, 41.4511028 ], [ -1.7379967, 41.4486696 ], [ -1.7382531, 41.4471771 ], [ -1.7381538, 41.4467437 ], [ -1.7369517, 41.4457667 ], [ -1.736601, 41.4453305 ], [ -1.7359191, 41.4446925 ], [ -1.7338121, 41.4440839 ], [ -1.7329104, 41.4436686 ], [ -1.7303606, 41.443055 ], [ -1.728812, 41.4426686 ], [ -1.7274878, 41.4424378 ], [ -1.7269178, 41.4422063 ], [ -1.726599, 41.4419776 ], [ -1.7264619, 41.4416428 ], [ -1.7265814, 41.4410406 ], [ -1.7268879, 41.4406747 ], [ -1.7273749, 41.4402568 ], [ -1.728445, 41.4387824 ], [ -1.7275658, 41.4378359 ], [ -1.7264875, 41.4372745 ], [ -1.7251534, 41.4369445 ], [ -1.7251176, 41.4369351 ], [ -1.7245318, 41.4369016 ], [ -1.7242901, 41.4364125 ], [ -1.7240534, 41.4362748 ], [ -1.7231022, 41.435949 ], [ -1.7228545, 41.435766 ], [ -1.7225747, 41.4353847 ], [ -1.722438, 41.4350318 ], [ -1.722101, 41.4320737 ], [ -1.7219383, 41.4318287 ], [ -1.7210557, 41.4310623 ], [ -1.7203927, 41.4306946 ], [ -1.7203255, 41.4304597 ], [ -1.7205178, 41.4292008 ], [ -1.7212994, 41.4277953 ], [ -1.7216345, 41.4271865 ], [ -1.7215429, 41.4269783 ], [ -1.7202831, 41.4259195 ], [ -1.7198607, 41.4254915 ], [ -1.7196893, 41.4250753 ], [ -1.7196821, 41.4242285 ], [ -1.7198572, 41.4238431 ], [ -1.7201759, 41.4234593 ], [ -1.7210518, 41.4221179 ], [ -1.7196952, 41.4217335 ], [ -1.7192867, 41.4218191 ], [ -1.7189123, 41.4219951 ], [ -1.7182287, 41.4220685 ], [ -1.7174806, 41.4223845 ], [ -1.7160105, 41.422287 ], [ -1.7152736, 41.4220355 ], [ -1.7145271, 41.4216579 ], [ -1.7139369, 41.421246 ], [ -1.7128848, 41.4211982 ], [ -1.712368, 41.4213095 ], [ -1.7098374, 41.4221998 ], [ -1.7093674, 41.4223657 ], [ -1.7089593, 41.4224242 ], [ -1.708326, 41.4217776 ], [ -1.7078875, 41.4215655 ], [ -1.7067271, 41.4215434 ], [ -1.7062698, 41.4216734 ], [ -1.7061102, 41.4218788 ], [ -1.7061012, 41.422329 ], [ -1.7055199, 41.4226828 ], [ -1.7054334, 41.422817 ], [ -1.7054459, 41.425195 ], [ -1.7052843, 41.4254994 ], [ -1.7046348, 41.4256633 ], [ -1.7039222, 41.424187 ], [ -1.7035194, 41.4233808 ], [ -1.7030058, 41.422132 ], [ -1.7020012, 41.4221026 ], [ -1.7015994, 41.4224494 ], [ -1.7012781, 41.4229592 ], [ -1.7006296, 41.425474 ], [ -1.6995335, 41.4264253 ], [ -1.6997129, 41.4270308 ], [ -1.6993003, 41.4273144 ], [ -1.6977827, 41.4278016 ], [ -1.697449, 41.4283293 ], [ -1.6957629, 41.4294541 ], [ -1.6951881, 41.4300691 ], [ -1.6943792, 41.4316092 ], [ -1.6936736, 41.4333756 ], [ -1.6913262, 41.4364294 ], [ -1.6903895, 41.4371753 ], [ -1.6897976, 41.4374478 ], [ -1.6888271, 41.4380853 ], [ -1.6887145, 41.4383272 ], [ -1.6886117, 41.4398663 ], [ -1.6894266, 41.440416 ], [ -1.6896609, 41.4406709 ], [ -1.690002, 41.4415575 ], [ -1.6900051, 41.4419989 ], [ -1.689851, 41.4425195 ], [ -1.6895442, 41.4428943 ], [ -1.6888613, 41.4435171 ], [ -1.6876584, 41.4438096 ], [ -1.6875138, 41.443853 ], [ -1.6867303, 41.4441233 ], [ -1.6858583, 41.4446267 ], [ -1.682447, 41.4475601 ], [ -1.6810738, 41.4485711 ], [ -1.6804375, 41.4492484 ], [ -1.6791585, 41.4509181 ], [ -1.6788183, 41.4511664 ], [ -1.6776207, 41.4517742 ], [ -1.6768808, 41.452243 ], [ -1.6760523, 41.452954 ], [ -1.6753773, 41.4537659 ], [ -1.67497, 41.4543647 ], [ -1.6739504, 41.454461 ], [ -1.6737913, 41.4546303 ], [ -1.6735256, 41.4559153 ], [ -1.6727594, 41.456501 ], [ -1.6720988, 41.4571869 ], [ -1.6715635, 41.457604 ], [ -1.6705525, 41.458448 ], [ -1.6690873, 41.4604217 ], [ -1.6691195, 41.4606022 ], [ -1.6682587, 41.4617092 ], [ -1.6684638, 41.4622159 ], [ -1.6679934, 41.4635526 ], [ -1.6675904, 41.4639352 ], [ -1.6672828, 41.464337 ], [ -1.6670572, 41.4648297 ], [ -1.6668887, 41.4654583 ], [ -1.6671932, 41.466957 ], [ -1.6675385, 41.468222 ], [ -1.6685009, 41.4697644 ], [ -1.66866, 41.470766 ], [ -1.6688908, 41.4711921 ], [ -1.6688295, 41.4718489 ], [ -1.6665548, 41.4735609 ], [ -1.6665719, 41.4738944 ], [ -1.6668157, 41.4742755 ], [ -1.6684903, 41.4749615 ], [ -1.669189, 41.4765188 ], [ -1.6693872, 41.4767823 ], [ -1.6698722, 41.4770761 ], [ -1.6712715, 41.4777589 ], [ -1.6718921, 41.4778651 ], [ -1.6735933, 41.4784342 ], [ -1.675024, 41.4793424 ], [ -1.675306, 41.4796069 ], [ -1.6756178, 41.4801779 ], [ -1.6759128, 41.4803975 ], [ -1.6760659, 41.4805254 ], [ -1.6762099, 41.4810944 ], [ -1.6757835, 41.4814498 ], [ -1.6753665, 41.4819314 ], [ -1.6751048, 41.4824238 ], [ -1.6747725, 41.4846267 ], [ -1.6748485, 41.4856004 ], [ -1.6759907, 41.4865683 ], [ -1.6763644, 41.487041 ], [ -1.6744973, 41.4899018 ], [ -1.6761129, 41.4917399 ], [ -1.6765777, 41.4924477 ], [ -1.6772203, 41.4932478 ], [ -1.6776779, 41.4943069 ], [ -1.6783099, 41.4950438 ], [ -1.6785963, 41.4956865 ], [ -1.6787733, 41.4964092 ], [ -1.678944, 41.4986179 ], [ -1.6791191, 41.4988451 ], [ -1.6795272, 41.4993992 ], [ -1.6796688, 41.5000943 ], [ -1.6796904, 41.5002117 ], [ -1.6800986, 41.5007569 ], [ -1.6795551, 41.5039211 ], [ -1.6795817, 41.5043807 ], [ -1.6799148, 41.5050872 ], [ -1.6789897, 41.506977 ], [ -1.6785481, 41.5080708 ], [ -1.6778264, 41.5117375 ], [ -1.6771902, 41.5129641 ], [ -1.6784064, 41.5132664 ], [ -1.6800077, 41.5140774 ], [ -1.6807963, 41.5141945 ], [ -1.6821554, 41.5151288 ], [ -1.6832646, 41.5165737 ], [ -1.6849447, 41.5182322 ], [ -1.6861481, 41.5203537 ], [ -1.686455, 41.5205914 ], [ -1.6875233, 41.5210989 ], [ -1.6879505, 41.521311 ], [ -1.6889545, 41.522043 ], [ -1.6927636, 41.5239329 ] ] ] } }
]
}
