{
"type": "FeatureCollection",
"name": "50037",
"features": [
{ "type": "Feature", "properties": { "CCAA": "02 - Aragón", "PROVINCIA": "50 - Zaragoza", "MUNICIPIO": "50037 - Atea", "COD_MUNICIPIO": "50037", "DISTRITO": "01", "SECCION": "5003701001", "V1_H": 79.89, "V1_M": 85.97, "V2_H": 79.67266264, "V2_M": 85.8368825, "V3_H": 80.33686579, "V3_M": 86.2809331 }, "geometry": { "type": "Polygon", "coordinates": [ [ [ -1.5391225, 41.181444 ], [ -1.54058, 41.1823812 ], [ -1.5407189, 41.1825722 ], [ -1.5406916, 41.1832654 ], [ -1.5407454, 41.1835273 ], [ -1.5412171, 41.1842989 ], [ -1.5417433, 41.184765 ], [ -1.5426666, 41.1861458 ], [ -1.5429921, 41.1865192 ], [ -1.5437932, 41.1869617 ], [ -1.545251, 41.1862776 ], [ -1.5471132, 41.1856435 ], [ -1.5477633, 41.1853635 ], [ -1.5520431, 41.1821476 ], [ -1.5571914, 41.1827978 ], [ -1.5601902, 41.1830605 ], [ -1.5657577, 41.183085 ], [ -1.5666493, 41.1832042 ], [ -1.567686, 41.1832351 ], [ -1.5680946, 41.1830871 ], [ -1.568315, 41.1828195 ], [ -1.5691522, 41.1816049 ], [ -1.569734, 41.1811708 ], [ -1.5701318, 41.1809686 ], [ -1.5711774, 41.1805852 ], [ -1.5729952, 41.179779 ], [ -1.5741334, 41.1795229 ], [ -1.575892, 41.1792474 ], [ -1.5771499, 41.1789658 ], [ -1.579084, 41.1788455 ], [ -1.5800184, 41.1786319 ], [ -1.5806552, 41.1784056 ], [ -1.5816348, 41.17776 ], [ -1.5810213, 41.1763563 ], [ -1.5814551, 41.1761454 ], [ -1.5815295, 41.1743539 ], [ -1.5814349, 41.1737672 ], [ -1.5811661, 41.1729623 ], [ -1.5807587, 41.1702999 ], [ -1.5787535, 41.168762 ], [ -1.5776651, 41.1672803 ], [ -1.5772939, 41.1668073 ], [ -1.5773304, 41.1667717 ], [ -1.5786337, 41.1649323 ], [ -1.5795859, 41.1638901 ], [ -1.5802729, 41.1629888 ], [ -1.5806631, 41.1620299 ], [ -1.5811215, 41.1595674 ], [ -1.5813937, 41.157445 ], [ -1.5815867, 41.1567898 ], [ -1.5818882, 41.1566224 ], [ -1.5825603, 41.1564054 ], [ -1.5830587, 41.1559522 ], [ -1.5831286, 41.1554757 ], [ -1.5837542, 41.1507724 ], [ -1.5835891, 41.1490318 ], [ -1.5829768, 41.1448177 ], [ -1.5831029, 41.1428377 ], [ -1.5834268, 41.1416255 ], [ -1.5841532, 41.1399861 ], [ -1.5844299, 41.1376476 ], [ -1.5854858, 41.1367508 ], [ -1.5861437, 41.1360743 ], [ -1.5864438, 41.1354114 ], [ -1.586436, 41.1352221 ], [ -1.5857344, 41.1329436 ], [ -1.5853322, 41.1300382 ], [ -1.5853365, 41.1292816 ], [ -1.5857438, 41.1280706 ], [ -1.587233, 41.125846 ], [ -1.5876822, 41.1248967 ], [ -1.588052, 41.1243157 ], [ -1.5892315, 41.1231952 ], [ -1.5894173, 41.1228642 ], [ -1.58931, 41.1217549 ], [ -1.5893407, 41.1203231 ], [ -1.5876623, 41.1191586 ], [ -1.5874067, 41.1188582 ], [ -1.5863187, 41.1168271 ], [ -1.580587, 41.1169458 ], [ -1.5772557, 41.1167695 ], [ -1.5760333, 41.1165652 ], [ -1.5751923, 41.1163477 ], [ -1.5685173, 41.1171207 ], [ -1.5662521, 41.1166691 ], [ -1.5658471, 41.1161236 ], [ -1.5660107, 41.1140809 ], [ -1.5633702, 41.1139129 ], [ -1.5606305, 41.1122933 ], [ -1.5602104, 41.1102614 ], [ -1.5594684, 41.1087929 ], [ -1.5575327, 41.1063636 ], [ -1.5528017, 41.0999989 ], [ -1.5522068, 41.0994329 ], [ -1.5515005, 41.0996042 ], [ -1.5470109, 41.1007006 ], [ -1.5466258, 41.100885 ], [ -1.5445261, 41.102678 ], [ -1.542382, 41.1043173 ], [ -1.5391983, 41.1071864 ], [ -1.5387033, 41.1080268 ], [ -1.5383441, 41.1097247 ], [ -1.5385652, 41.1121056 ], [ -1.5384903, 41.1127982 ], [ -1.5382452, 41.1136418 ], [ -1.5378768, 41.1141415 ], [ -1.5354338, 41.1158129 ], [ -1.5351796, 41.1176022 ], [ -1.5302066, 41.1216103 ], [ -1.5285391, 41.1221385 ], [ -1.526273, 41.1233255 ], [ -1.5244968, 41.1244467 ], [ -1.5231739, 41.1250063 ], [ -1.5219132, 41.1254495 ], [ -1.5208361, 41.1256699 ], [ -1.5177943, 41.1269098 ], [ -1.514872, 41.1270704 ], [ -1.5125141, 41.1275624 ], [ -1.5164536, 41.1282527 ], [ -1.5208344, 41.1278677 ], [ -1.5262909, 41.1278476 ], [ -1.5270435, 41.1293524 ], [ -1.5274996, 41.1313309 ], [ -1.5280567, 41.1330585 ], [ -1.528368, 41.1340533 ], [ -1.5286309, 41.1350836 ], [ -1.5286885, 41.1357058 ], [ -1.5283153, 41.1374756 ], [ -1.5280616, 41.1424265 ], [ -1.5280992, 41.1434088 ], [ -1.5275544, 41.1512474 ], [ -1.5267723, 41.1574346 ], [ -1.5264847, 41.1585659 ], [ -1.526145, 41.1593632 ], [ -1.5253659, 41.1611547 ], [ -1.5265803, 41.1606839 ], [ -1.5272684, 41.1602964 ], [ -1.5283028, 41.1593458 ], [ -1.5289043, 41.1590922 ], [ -1.5292036, 41.159033 ], [ -1.5296306, 41.1591285 ], [ -1.5303269, 41.1594347 ], [ -1.5312152, 41.1602207 ], [ -1.5316672, 41.1607939 ], [ -1.5319712, 41.161059 ], [ -1.5325371, 41.1613364 ], [ -1.5336323, 41.1624673 ], [ -1.5343749, 41.1628371 ], [ -1.5347305, 41.1634631 ], [ -1.5348877, 41.1638975 ], [ -1.5373084, 41.165991 ], [ -1.5383758, 41.1667702 ], [ -1.5385876, 41.166899 ], [ -1.5388231, 41.1670281 ], [ -1.5390469, 41.1671481 ], [ -1.5393274, 41.1673948 ], [ -1.5402088, 41.1679644 ], [ -1.5424064, 41.168848 ], [ -1.5430093, 41.1696123 ], [ -1.5442534, 41.1704927 ], [ -1.544307, 41.1707636 ], [ -1.5433752, 41.1730037 ], [ -1.5430516, 41.1736212 ], [ -1.5426088, 41.1742371 ], [ -1.5414003, 41.1755099 ], [ -1.5412737, 41.1758416 ], [ -1.5413925, 41.1774734 ], [ -1.5413366, 41.177842 ], [ -1.5394069, 41.1804478 ], [ -1.5391287, 41.1811648 ], [ -1.5391225, 41.181444 ] ] ] } }
]
}
