{
"type": "FeatureCollection",
"name": "50066",
"features": [
{ "type": "Feature", "properties": { "CCAA": "02 - Aragón", "PROVINCIA": "50 - Zaragoza", "MUNICIPIO": "50066 - Cadrete", "COD_MUNICIPIO": "50066", "DISTRITO": "01", "SECCION": "5006601001", "V1_H": 80.65, "V1_M": 86.42, "V2_H": 80.32339709, "V2_M": 86.16224497, "V3_H": 80.9318118, "V3_M": 86.73476557 }, "geometry": { "type": "Polygon", "coordinates": [ [ [ -0.9452571, 41.5172161 ], [ -0.9449618, 41.517472 ], [ -0.9448082, 41.51778 ], [ -0.9447764, 41.517838 ], [ -0.9443346, 41.5187352 ], [ -0.9441876, 41.5190253 ], [ -0.9438462, 41.5197412 ], [ -0.9438461, 41.5197415 ], [ -0.9423224, 41.5224685 ], [ -0.9424072, 41.5226508 ], [ -0.9433321, 41.5246392 ], [ -0.9439428, 41.5265506 ], [ -0.9439562, 41.526884 ], [ -0.9438487, 41.527508 ], [ -0.9438487, 41.527508 ], [ -0.9436624, 41.5285901 ], [ -0.9441216, 41.5299853 ], [ -0.9442599, 41.5312937 ], [ -0.9412187, 41.5332655 ], [ -0.9393628, 41.5344688 ], [ -0.9393704, 41.5344891 ], [ -0.9389459, 41.5348327 ], [ -0.9388752, 41.5348374 ], [ -0.9387012, 41.534977 ], [ -0.9385015, 41.5352337 ], [ -0.9385645, 41.5353303 ], [ -0.9384629, 41.5355085 ], [ -0.9385387, 41.5355775 ], [ -0.9384306, 41.5356897 ], [ -0.9384138, 41.5364759 ], [ -0.9382114, 41.536724 ], [ -0.9381893, 41.5367511 ], [ -0.9377917, 41.536816 ], [ -0.9372996, 41.5368032 ], [ -0.9364583, 41.5367813 ], [ -0.9355519, 41.5367577 ], [ -0.9354377, 41.5367423 ], [ -0.934991, 41.5366821 ], [ -0.933857, 41.5365292 ], [ -0.9339517, 41.5368061 ], [ -0.9339995, 41.536946 ], [ -0.9353895, 41.5383779 ], [ -0.9356013, 41.538596 ], [ -0.9360678, 41.5390124 ], [ -0.9360679, 41.5390124 ], [ -0.9367331, 41.539606 ], [ -0.937169, 41.5399951 ], [ -0.937548, 41.5403332 ], [ -0.9375057, 41.5407754 ], [ -0.9375101, 41.5407829 ], [ -0.9375311, 41.541067 ], [ -0.9374612, 41.5412406 ], [ -0.9372607, 41.5433363 ], [ -0.9380289, 41.5435394 ], [ -0.938029, 41.5435394 ], [ -0.9381655, 41.5435461 ], [ -0.9384449, 41.5436187 ], [ -0.9386115, 41.5436935 ], [ -0.9386116, 41.5436935 ], [ -0.9387759, 41.5437672 ], [ -0.939008, 41.5442353 ], [ -0.9390516, 41.5443231 ], [ -0.9396295, 41.5446217 ], [ -0.9401929, 41.5450011 ], [ -0.9405264, 41.5454484 ], [ -0.941031, 41.5465472 ], [ -0.9412384, 41.5468122 ], [ -0.9423085, 41.5476554 ], [ -0.9435544, 41.548637 ], [ -0.9435705, 41.5486537 ], [ -0.943709, 41.5486892 ], [ -0.943884, 41.548841 ], [ -0.9438538, 41.5489462 ], [ -0.944007, 41.5491044 ], [ -0.9440593, 41.5497267 ], [ -0.9458933, 41.5508764 ], [ -0.9463817, 41.5513535 ], [ -0.9469079, 41.5521555 ], [ -0.9470837, 41.552663 ], [ -0.9469886, 41.5528984 ], [ -0.9468885, 41.5531459 ], [ -0.946343, 41.5540908 ], [ -0.945826, 41.5552704 ], [ -0.9459008, 41.55556 ], [ -0.9459404, 41.5555876 ], [ -0.9459168, 41.5556323 ], [ -0.9461172, 41.555744 ], [ -0.9461687, 41.5557463 ], [ -0.9462997, 41.5558373 ], [ -0.9469067, 41.5560029 ], [ -0.9469068, 41.5560029 ], [ -0.9470035, 41.5561516 ], [ -0.9475767, 41.5562294 ], [ -0.9476169, 41.5562636 ], [ -0.9478102, 41.5564272 ], [ -0.9476623, 41.5565935 ], [ -0.9476486, 41.556609 ], [ -0.947704, 41.5568968 ], [ -0.9477041, 41.5568972 ], [ -0.9477773, 41.5572778 ], [ -0.9478036, 41.5573953 ], [ -0.9477923, 41.5575395 ], [ -0.9477833, 41.5576562 ], [ -0.9477282, 41.5578803 ], [ -0.9476796, 41.5580911 ], [ -0.9477013, 41.5583312 ], [ -0.9477013, 41.5583312 ], [ -0.947724, 41.5585828 ], [ -0.9477879, 41.5588361 ], [ -0.9478858, 41.558964 ], [ -0.9479907, 41.5590604 ], [ -0.9480352, 41.5591692 ], [ -0.9479354, 41.5592891 ], [ -0.947539, 41.5595027 ], [ -0.9472706, 41.5596465 ], [ -0.9467399, 41.5597451 ], [ -0.9464793, 41.5597751 ], [ -0.946469, 41.5597763 ], [ -0.946209, 41.5598482 ], [ -0.9459903, 41.5599388 ], [ -0.9458615, 41.5600266 ], [ -0.945846, 41.5601389 ], [ -0.9458362, 41.5602603 ], [ -0.9459262, 41.5604465 ], [ -0.9460349, 41.5606106 ], [ -0.9461495, 41.5607793 ], [ -0.9462395, 41.5609655 ], [ -0.9463965, 41.5611214 ], [ -0.9465193, 41.5612182 ], [ -0.9465754, 41.5613408 ], [ -0.9466232, 41.5615353 ], [ -0.9466908, 41.5616716 ], [ -0.9469401, 41.5617526 ], [ -0.9470907, 41.5617283 ], [ -0.9472761, 41.5617451 ], [ -0.9473765, 41.5617919 ], [ -0.9474295, 41.5618244 ], [ -0.9474974, 41.5619517 ], [ -0.947559, 41.5620879 ], [ -0.9476143, 41.5622375 ], [ -0.9476003, 41.5623003 ], [ -0.9474717, 41.5623836 ], [ -0.9472892, 41.5624659 ], [ -0.9472327, 41.5625459 ], [ -0.9471998, 41.5626399 ], [ -0.9473228, 41.5627322 ], [ -0.9474687, 41.5630455 ], [ -0.9473609, 41.563611 ], [ -0.945512, 41.565001 ], [ -0.9455848, 41.5653536 ], [ -0.9456365, 41.5654266 ], [ -0.945915, 41.5655306 ], [ -0.9461342, 41.5656156 ], [ -0.9462688, 41.565717 ], [ -0.9464548, 41.565905 ], [ -0.9469104, 41.5662869 ], [ -0.9471212, 41.5664483 ], [ -0.9471554, 41.566503 ], [ -0.9477702, 41.5667796 ], [ -0.9479015, 41.5668 ], [ -0.948284, 41.5668292 ], [ -0.9484399, 41.5668412 ], [ -0.9486013, 41.5667339 ], [ -0.9487995, 41.5664873 ], [ -0.948895, 41.5661746 ], [ -0.9491047, 41.5658639 ], [ -0.9492679, 41.5655166 ], [ -0.9493614, 41.5652681 ], [ -0.9497898, 41.5649613 ], [ -0.9504564, 41.5643443 ], [ -0.95072, 41.5641346 ], [ -0.9511663, 41.5638638 ], [ -0.9514672, 41.5636762 ], [ -0.9516286, 41.5633861 ], [ -0.9518163, 41.5631679 ], [ -0.9521811, 41.562767 ], [ -0.952527, 41.5623587 ], [ -0.9528338, 41.5619854 ], [ -0.953293, 41.5616076 ], [ -0.953569, 41.5613052 ], [ -0.953912, 41.5609897 ], [ -0.9541873, 41.5607088 ], [ -0.954338, 41.5604542 ], [ -0.9547283, 41.5601466 ], [ -0.9549138, 41.5599999 ], [ -0.9552595, 41.5598988 ], [ -0.9555667, 41.5598114 ], [ -0.9559534, 41.5596181 ], [ -0.9561816, 41.559322 ], [ -0.9566326, 41.5589013 ], [ -0.9569464, 41.5586067 ], [ -0.9572579, 41.5583835 ], [ -0.9574294, 41.5580721 ], [ -0.9576291, 41.5577755 ], [ -0.9578745, 41.5575369 ], [ -0.9581436, 41.5571486 ], [ -0.958209, 41.5568853 ], [ -0.958259, 41.5565074 ], [ -0.958359, 41.556352 ], [ -0.9582221, 41.5563031 ], [ -0.9582666, 41.5560336 ], [ -0.9583453, 41.5558188 ], [ -0.9584236, 41.5556175 ], [ -0.9585207, 41.5553895 ], [ -0.958525, 41.5552545 ], [ -0.9586572, 41.5550541 ], [ -0.9586692, 41.5549333 ], [ -0.9586881, 41.554761 ], [ -0.9587684, 41.5546995 ], [ -0.9588583, 41.5546768 ], [ -0.9589228, 41.5546901 ], [ -0.9590016, 41.5547626 ], [ -0.9590217, 41.5548096 ], [ -0.9590783, 41.5548999 ], [ -0.9591162, 41.5549859 ], [ -0.9592049, 41.5550869 ], [ -0.9593109, 41.5551538 ], [ -0.9594996, 41.5552525 ], [ -0.9596374, 41.5553402 ], [ -0.9598628, 41.5554782 ], [ -0.9598802, 41.5555252 ], [ -0.9600956, 41.5556366 ], [ -0.9602918, 41.5557127 ], [ -0.9606301, 41.5558268 ], [ -0.9608693, 41.5559459 ], [ -0.9613714, 41.556286 ], [ -0.961556, 41.5564244 ], [ -0.9617291, 41.5566437 ], [ -0.9619726, 41.5569116 ], [ -0.962309, 41.5570865 ], [ -0.9626895, 41.5572893 ], [ -0.963034, 41.5574914 ], [ -0.9632433, 41.5577046 ], [ -0.9634861, 41.5579927 ], [ -0.9637468, 41.5582879 ], [ -0.963883, 41.5585336 ], [ -0.964033, 41.5589147 ], [ -0.9641337, 41.5591463 ], [ -0.964359, 41.5594206 ], [ -0.9647137, 41.5598729 ], [ -0.9652183, 41.5604225 ], [ -0.9664385, 41.561397 ], [ -0.9679727, 41.5626655 ], [ -0.9686609, 41.5620082 ], [ -0.9688464, 41.5618313 ], [ -0.9703362, 41.5602094 ], [ -0.9724147, 41.5581656 ], [ -0.9730526, 41.5573212 ], [ -0.9765369, 41.5513391 ], [ -0.9769349, 41.5508778 ], [ -0.9775855, 41.5503938 ], [ -0.980748, 41.5485581 ], [ -0.9811124, 41.5483438 ], [ -0.9814319, 41.5481558 ], [ -0.982173, 41.5478446 ], [ -0.9824317, 41.5472366 ], [ -0.9824704, 41.5471473 ], [ -0.982452, 41.5469668 ], [ -0.982186, 41.5466559 ], [ -0.9803527, 41.5450836 ], [ -0.9792073, 41.5441357 ], [ -0.9775705, 41.542801 ], [ -0.9758947, 41.5419518 ], [ -0.9742255, 41.5405083 ], [ -0.9734217, 41.5401429 ], [ -0.9718547, 41.5392687 ], [ -0.9712132, 41.5386989 ], [ -0.9699627, 41.5384337 ], [ -0.9683367, 41.5382968 ], [ -0.9673848, 41.5380728 ], [ -0.9668105, 41.5380357 ], [ -0.9661373, 41.5380958 ], [ -0.9655215, 41.538238 ], [ -0.9646362, 41.5385646 ], [ -0.9642947, 41.5383694 ], [ -0.9637713, 41.5378558 ], [ -0.9627035, 41.5371253 ], [ -0.9622279, 41.5369998 ], [ -0.9604662, 41.5369866 ], [ -0.9598132, 41.5367859 ], [ -0.9595809, 41.5365475 ], [ -0.9588948, 41.5351123 ], [ -0.9593913, 41.5345717 ], [ -0.9585483, 41.5327914 ], [ -0.9579875, 41.5311873 ], [ -0.9581993, 41.5305515 ], [ -0.9573823, 41.5298525 ], [ -0.9567584, 41.5294902 ], [ -0.9550612, 41.528199 ], [ -0.95324, 41.5270408 ], [ -0.9521675, 41.526085 ], [ -0.950178, 41.5238069 ], [ -0.946979, 41.5192284 ], [ -0.9459187, 41.5178944 ], [ -0.9452571, 41.5172161 ] ] ] } },
{ "type": "Feature", "properties": { "CCAA": "02 - Aragón", "PROVINCIA": "50 - Zaragoza", "MUNICIPIO": "50066 - Cadrete", "COD_MUNICIPIO": "50066", "DISTRITO": "01", "SECCION": "5006601002", "V1_H": 81.37, "V1_M": 86.85, "V2_H": 81.08688328, "V2_M": 86.76748373, "V3_H": 81.75507894, "V3_M": 87.07522296 }, "geometry": { "type": "Polygon", "coordinates": [ [ [ -0.9498597, 41.5770195 ], [ -0.9510509, 41.5758294 ], [ -0.9511969, 41.5756926 ], [ -0.9512953, 41.5756002 ], [ -0.9516144, 41.575301 ], [ -0.9533866, 41.5759631 ], [ -0.9530548, 41.576308 ], [ -0.9517788, 41.5776341 ], [ -0.9519491, 41.5776126 ], [ -0.9520691, 41.5776103 ], [ -0.9521356, 41.5776176 ], [ -0.9523142, 41.5776371 ], [ -0.9537899, 41.5778166 ], [ -0.9548477, 41.5779345 ], [ -0.9552593, 41.5780049 ], [ -0.9553954, 41.5780613 ], [ -0.9554933, 41.5781003 ], [ -0.9555139, 41.5781085 ], [ -0.955588, 41.5780973 ], [ -0.9560502, 41.5780279 ], [ -0.9563926, 41.5780041 ], [ -0.9577089, 41.5779125 ], [ -0.9577318, 41.5779109 ], [ -0.9577512, 41.5779096 ], [ -0.9592198, 41.5760308 ], [ -0.9599521, 41.5750576 ], [ -0.9600919, 41.5748078 ], [ -0.9602454, 41.5745044 ], [ -0.9607764, 41.5732574 ], [ -0.9611494, 41.5724579 ], [ -0.9617319, 41.5710992 ], [ -0.9618001, 41.5709436 ], [ -0.9620073, 41.5703385 ], [ -0.9627871, 41.5688032 ], [ -0.962928, 41.5685175 ], [ -0.9644571, 41.566419 ], [ -0.9665593, 41.5640155 ], [ -0.9679727, 41.5626655 ], [ -0.9664385, 41.561397 ], [ -0.9652183, 41.5604225 ], [ -0.9647137, 41.5598729 ], [ -0.964359, 41.5594206 ], [ -0.9641337, 41.5591463 ], [ -0.964033, 41.5589147 ], [ -0.963883, 41.5585336 ], [ -0.9637468, 41.5582879 ], [ -0.9634861, 41.5579927 ], [ -0.9632433, 41.5577046 ], [ -0.963034, 41.5574914 ], [ -0.9626895, 41.5572893 ], [ -0.962309, 41.5570865 ], [ -0.9619726, 41.5569116 ], [ -0.9617291, 41.5566437 ], [ -0.961556, 41.5564244 ], [ -0.9613714, 41.556286 ], [ -0.9608693, 41.5559459 ], [ -0.9606301, 41.5558268 ], [ -0.9602918, 41.5557127 ], [ -0.9600956, 41.5556366 ], [ -0.9598802, 41.5555252 ], [ -0.9598628, 41.5554782 ], [ -0.9596374, 41.5553402 ], [ -0.9594996, 41.5552525 ], [ -0.9593109, 41.5551538 ], [ -0.9592049, 41.5550869 ], [ -0.9591162, 41.5549859 ], [ -0.9590783, 41.5548999 ], [ -0.9590217, 41.5548096 ], [ -0.9590016, 41.5547626 ], [ -0.9589228, 41.5546901 ], [ -0.9588583, 41.5546768 ], [ -0.9587684, 41.5546995 ], [ -0.9586881, 41.554761 ], [ -0.9586692, 41.5549333 ], [ -0.9586572, 41.5550541 ], [ -0.958525, 41.5552545 ], [ -0.9585207, 41.5553895 ], [ -0.9584236, 41.5556175 ], [ -0.9583453, 41.5558188 ], [ -0.9582666, 41.5560336 ], [ -0.9582221, 41.5563031 ], [ -0.958359, 41.556352 ], [ -0.958259, 41.5565074 ], [ -0.958209, 41.5568853 ], [ -0.9581436, 41.5571486 ], [ -0.9578745, 41.5575369 ], [ -0.9576291, 41.5577755 ], [ -0.9574294, 41.5580721 ], [ -0.9572579, 41.5583835 ], [ -0.9569464, 41.5586067 ], [ -0.9566326, 41.5589013 ], [ -0.9561816, 41.559322 ], [ -0.9559534, 41.5596181 ], [ -0.9555667, 41.5598114 ], [ -0.9552595, 41.5598988 ], [ -0.9549138, 41.5599999 ], [ -0.9547283, 41.5601466 ], [ -0.954338, 41.5604542 ], [ -0.9541873, 41.5607088 ], [ -0.953912, 41.5609897 ], [ -0.953569, 41.5613052 ], [ -0.953293, 41.5616076 ], [ -0.9528338, 41.5619854 ], [ -0.952527, 41.5623587 ], [ -0.9521811, 41.562767 ], [ -0.9518163, 41.5631679 ], [ -0.9516286, 41.5633861 ], [ -0.9514672, 41.5636762 ], [ -0.9511663, 41.5638638 ], [ -0.95072, 41.5641346 ], [ -0.9504564, 41.5643443 ], [ -0.9497898, 41.5649613 ], [ -0.9493614, 41.5652681 ], [ -0.9492679, 41.5655166 ], [ -0.9491047, 41.5658639 ], [ -0.948895, 41.5661746 ], [ -0.9487995, 41.5664873 ], [ -0.9486013, 41.5667339 ], [ -0.9484399, 41.5668412 ], [ -0.9479231, 41.5672552 ], [ -0.9475468, 41.5675862 ], [ -0.9474067, 41.5676558 ], [ -0.9473076, 41.5677531 ], [ -0.9472582, 41.5678018 ], [ -0.9469163, 41.5681829 ], [ -0.9465229, 41.5684866 ], [ -0.9463249, 41.5686767 ], [ -0.9461337, 41.5688444 ], [ -0.9459903, 41.5690175 ], [ -0.9457643, 41.5691486 ], [ -0.9457003, 41.5691712 ], [ -0.9456551, 41.5691871 ], [ -0.9450808, 41.5695236 ], [ -0.9447265, 41.5697289 ], [ -0.9439322, 41.5707595 ], [ -0.9422164, 41.573048 ], [ -0.9421435, 41.5732674 ], [ -0.9421249, 41.5733169 ], [ -0.9421962, 41.5733752 ], [ -0.9421985, 41.5733717 ], [ -0.9467139, 41.5754329 ], [ -0.946855, 41.5755095 ], [ -0.9474884, 41.5758533 ], [ -0.9475235, 41.575881 ], [ -0.9498597, 41.5770195 ] ] ] } }
]
}
