{
"type": "FeatureCollection",
"name": "50078",
"features": [
{ "type": "Feature", "properties": { "CCAA": "02 - Aragón", "PROVINCIA": "50 - Zaragoza", "MUNICIPIO": "50078 - Castiliscar", "COD_MUNICIPIO": "50078", "DISTRITO": "01", "SECCION": "5007801001", "V1_H": 80.74, "V1_M": 86.31, "V2_H": 80.60059228, "V2_M": 86.16828649, "V3_H": 80.96013544, "V3_M": 86.56561146 }, "geometry": { "type": "Polygon", "coordinates": [ [ [ -1.2361195, 42.3897719 ], [ -1.2379753, 42.390746 ], [ -1.2389301, 42.3913551 ], [ -1.2398087, 42.392089 ], [ -1.240836, 42.3931494 ], [ -1.2416355, 42.393666 ], [ -1.2423898, 42.3940649 ], [ -1.2443644, 42.3947075 ], [ -1.2454223, 42.395111 ], [ -1.2463573, 42.3955666 ], [ -1.2477067, 42.3959745 ], [ -1.2482581, 42.3962441 ], [ -1.2488421, 42.3966493 ], [ -1.2495912, 42.3968048 ], [ -1.2544241, 42.3964643 ], [ -1.2552763, 42.3964053 ], [ -1.256902, 42.3960517 ], [ -1.2578799, 42.3958415 ], [ -1.2622409, 42.3949892 ], [ -1.268737, 42.3929262 ], [ -1.2720083, 42.3905981 ], [ -1.2747722, 42.3868303 ], [ -1.2761914, 42.3846903 ], [ -1.2791765, 42.3848073 ], [ -1.27983, 42.3848981 ], [ -1.2813184, 42.3851096 ], [ -1.2839284, 42.3851757 ], [ -1.2847027, 42.3848451 ], [ -1.2857198, 42.3845182 ], [ -1.2887977, 42.3839068 ], [ -1.2953648, 42.3822846 ], [ -1.3008246, 42.3807266 ], [ -1.3015972, 42.38045 ], [ -1.3020633, 42.3802857 ], [ -1.3073186, 42.3777339 ], [ -1.3152073, 42.3738876 ], [ -1.3191202, 42.3719909 ], [ -1.3249084, 42.3607644 ], [ -1.3260558, 42.3600787 ], [ -1.329039, 42.3554532 ], [ -1.3289766, 42.3553843 ], [ -1.3288054, 42.3551955 ], [ -1.3287944, 42.3551841 ], [ -1.3288403, 42.3551133 ], [ -1.3294228, 42.3542083 ], [ -1.3295915, 42.3539434 ], [ -1.3296651, 42.353828 ], [ -1.3296865, 42.3537945 ], [ -1.3296889, 42.35379 ], [ -1.3298374, 42.3536245 ], [ -1.3301862, 42.3532648 ], [ -1.3304693, 42.3529768 ], [ -1.3308788, 42.3525561 ], [ -1.3312324, 42.3521847 ], [ -1.3315395, 42.3518763 ], [ -1.3316111, 42.3517822 ], [ -1.3317462, 42.3514931 ], [ -1.3319648, 42.3510635 ], [ -1.3320337, 42.3509254 ], [ -1.3322572, 42.3504762 ], [ -1.3324161, 42.3501498 ], [ -1.3324242, 42.350133 ], [ -1.3325438, 42.3498269 ], [ -1.3325632, 42.3498097 ], [ -1.3325648, 42.349808 ], [ -1.3326549, 42.3497288 ], [ -1.3326759, 42.34971 ], [ -1.3327576, 42.3496347 ], [ -1.33277, 42.3496219 ], [ -1.3328987, 42.3494921 ], [ -1.3331589, 42.3492651 ], [ -1.3332172, 42.3492113 ], [ -1.3333898, 42.3490523 ], [ -1.3338029, 42.3486688 ], [ -1.3338154, 42.3486577 ], [ -1.3340005, 42.3484848 ], [ -1.3343495, 42.3481432 ], [ -1.3347409, 42.3477762 ], [ -1.3348423, 42.3477 ], [ -1.3351388, 42.3475923 ], [ -1.3359738, 42.3472915 ], [ -1.3360894, 42.3472504 ], [ -1.3369159, 42.3469292 ], [ -1.3371437, 42.3468357 ], [ -1.3373408, 42.3467553 ], [ -1.3373516, 42.3467509 ], [ -1.3376145, 42.3462476 ], [ -1.337656, 42.3461677 ], [ -1.3379799, 42.3455949 ], [ -1.3381711, 42.3452526 ], [ -1.3383227, 42.3450826 ], [ -1.3383932, 42.3450016 ], [ -1.3385747, 42.344793 ], [ -1.3387304, 42.3446433 ], [ -1.3391305, 42.3442883 ], [ -1.3391732, 42.3442501 ], [ -1.3393294, 42.3441116 ], [ -1.339812, 42.3437623 ], [ -1.3402562, 42.3434339 ], [ -1.340542, 42.3434723 ], [ -1.3414647, 42.3429482 ], [ -1.3415279, 42.3429119 ], [ -1.341598, 42.3428719 ], [ -1.3419771, 42.3426528 ], [ -1.3423918, 42.3425119 ], [ -1.3425382, 42.3424622 ], [ -1.3427871, 42.3423729 ], [ -1.3430497, 42.3422789 ], [ -1.341802, 42.3398916 ], [ -1.3412821, 42.3398121 ], [ -1.331589, 42.3335248 ], [ -1.3315676, 42.333511 ], [ -1.3314368, 42.33341 ], [ -1.3234653, 42.3273589 ], [ -1.3231653, 42.3272283 ], [ -1.3219695, 42.3269364 ], [ -1.3170037, 42.3257241 ], [ -1.3155305, 42.3251158 ], [ -1.3154432, 42.3250798 ], [ -1.3113717, 42.3239391 ], [ -1.311326, 42.3239408 ], [ -1.309756, 42.3239964 ], [ -1.3090819, 42.3242476 ], [ -1.307335, 42.3242218 ], [ -1.3066334, 42.3240515 ], [ -1.3066236, 42.3240491 ], [ -1.3065904, 42.3240525 ], [ -1.3047738, 42.3242379 ], [ -1.300821, 42.3241884 ], [ -1.3008066, 42.3241883 ], [ -1.2990181, 42.3243598 ], [ -1.2961408, 42.3247671 ], [ -1.296082, 42.3247754 ], [ -1.2947702, 42.3243777 ], [ -1.29477, 42.3243777 ], [ -1.2932879, 42.3253282 ], [ -1.2915545, 42.3250211 ], [ -1.2891813, 42.3246005 ], [ -1.2891813, 42.3246008 ], [ -1.2890166, 42.3257508 ], [ -1.2888094, 42.3271256 ], [ -1.2884422, 42.3281378 ], [ -1.286883, 42.3301318 ], [ -1.2861569, 42.3309495 ], [ -1.2851536, 42.3316909 ], [ -1.2838567, 42.3325181 ], [ -1.2833746, 42.3328351 ], [ -1.2822663, 42.3334218 ], [ -1.2821309, 42.3334919 ], [ -1.2820452, 42.3335176 ], [ -1.2645352, 42.3390714 ], [ -1.2634321, 42.3394599 ], [ -1.2623982, 42.3404169 ], [ -1.2599988, 42.3437847 ], [ -1.2533106, 42.3498879 ], [ -1.2494299, 42.3593477 ], [ -1.2483139, 42.3597449 ], [ -1.2474894, 42.3601375 ], [ -1.2471251, 42.3605732 ], [ -1.245534, 42.3636378 ], [ -1.2442319, 42.3659143 ], [ -1.2442019, 42.3696062 ], [ -1.243283, 42.3738158 ], [ -1.2428514, 42.3749169 ], [ -1.2421235, 42.3757612 ], [ -1.2406659, 42.3779362 ], [ -1.2402909, 42.37875 ], [ -1.2388812, 42.3826818 ], [ -1.2361195, 42.3897719 ] ] ] } }
]
}
