{
"type": "FeatureCollection",
"name": "50081",
"features": [
{ "type": "Feature", "properties": { "CCAA": "02 - Aragón", "PROVINCIA": "50 - Zaragoza", "MUNICIPIO": "50081 - Cetina", "COD_MUNICIPIO": "50081", "DISTRITO": "01", "SECCION": "5008101001", "V1_H": 79.96, "V1_M": 85.86, "V2_H": 79.90630759, "V2_M": 85.80766239, "V3_H": 80.18166072, "V3_M": 86.22029934 }, "geometry": { "type": "Polygon", "coordinates": [ [ [ -1.9212814, 41.3286823 ], [ -1.9221367, 41.3289876 ], [ -1.9230489, 41.3294735 ], [ -1.9250064, 41.3310591 ], [ -1.9266069, 41.3325603 ], [ -1.9276119, 41.333448 ], [ -1.9276671, 41.333498 ], [ -1.9298301, 41.3371482 ], [ -1.9344091, 41.339974 ], [ -1.9362829, 41.3445402 ], [ -1.9367485, 41.3453101 ], [ -1.939161, 41.3483769 ], [ -1.9404987, 41.3499115 ], [ -1.9488718, 41.3465925 ], [ -1.9506055, 41.3458157 ], [ -1.9577675, 41.3419265 ], [ -1.9628568, 41.3398107 ], [ -1.9664136, 41.3394553 ], [ -1.9675493, 41.3393394 ], [ -1.9681077, 41.3394571 ], [ -1.9709323, 41.3400543 ], [ -1.9745697, 41.3397985 ], [ -1.9823349, 41.3384803 ], [ -1.9823355, 41.33848 ], [ -1.9858644, 41.3364141 ], [ -1.9868216, 41.3358537 ], [ -1.9907772, 41.3335375 ], [ -1.9908452, 41.3334613 ], [ -1.990873, 41.3334302 ], [ -1.9914944, 41.3327265 ], [ -1.9931854, 41.3308113 ], [ -1.9931877, 41.3308092 ], [ -1.9940097, 41.3300528 ], [ -1.9942348, 41.3293804 ], [ -1.9942352, 41.3293793 ], [ -1.9942352, 41.3293792 ], [ -1.9942951, 41.3262632 ], [ -1.9938657, 41.3254584 ], [ -1.9938654, 41.3254577 ], [ -1.9934206, 41.3240757 ], [ -1.9924885, 41.318654 ], [ -1.9912051, 41.3127788 ], [ -1.9911917, 41.3121031 ], [ -1.991287, 41.3113473 ], [ -1.9912772, 41.311333 ], [ -1.9894413, 41.3086378 ], [ -1.9892332, 41.3081946 ], [ -1.9888099, 41.3077495 ], [ -1.9888047, 41.3077467 ], [ -1.9878624, 41.3072278 ], [ -1.9874966, 41.3069363 ], [ -1.9873809, 41.3066921 ], [ -1.987378, 41.3061066 ], [ -1.9876302, 41.3055323 ], [ -1.9887273, 41.3030208 ], [ -1.9887278, 41.3030198 ], [ -1.9883498, 41.3027463 ], [ -1.9874922, 41.3025856 ], [ -1.9863755, 41.3025152 ], [ -1.9856665, 41.3024705 ], [ -1.9850967, 41.3022402 ], [ -1.984639, 41.3017138 ], [ -1.9843005, 41.3012063 ], [ -1.9843006, 41.301206 ], [ -1.9845595, 41.3007395 ], [ -1.9851361, 41.2997004 ], [ -1.9851526, 41.2997036 ], [ -1.9869105, 41.3000403 ], [ -1.9879734, 41.3000497 ], [ -1.9881167, 41.3000509 ], [ -1.9885067, 41.3001151 ], [ -1.9885218, 41.3001176 ], [ -1.9889883, 41.3006692 ], [ -1.9893429, 41.3010886 ], [ -1.9908377, 41.3016526 ], [ -1.9918605, 41.3020385 ], [ -1.9918614, 41.3020372 ], [ -1.9925097, 41.3009903 ], [ -1.9936904, 41.2995594 ], [ -1.9943979, 41.2987954 ], [ -1.9950143, 41.2981297 ], [ -1.9956195, 41.297234 ], [ -1.9956254, 41.2972253 ], [ -1.9956281, 41.2972202 ], [ -1.9970888, 41.2944817 ], [ -1.9974761, 41.2933681 ], [ -1.9976068, 41.2926307 ], [ -1.9976067, 41.2926305 ], [ -1.9974259, 41.2919625 ], [ -1.9973553, 41.2911152 ], [ -1.9976207, 41.2901627 ], [ -1.9976209, 41.2901624 ], [ -1.9976229, 41.2901591 ], [ -1.9979757, 41.2895983 ], [ -1.9986771, 41.2889064 ], [ -1.9992246, 41.2883661 ], [ -1.999591, 41.2878201 ], [ -1.9995912, 41.2878198 ], [ -1.9999423, 41.2859403 ], [ -2.0005488, 41.2852799 ], [ -2.0005496, 41.285279 ], [ -2.0036029, 41.282387 ], [ -2.0048477, 41.2805704 ], [ -2.0048485, 41.2805692 ], [ -2.0048497, 41.2805672 ], [ -2.005939, 41.2787411 ], [ -2.0064927, 41.277665 ], [ -2.0077841, 41.2743449 ], [ -2.0077848, 41.2743433 ], [ -2.0077888, 41.2743298 ], [ -2.0085145, 41.2718905 ], [ -2.0092336, 41.2701312 ], [ -2.0095386, 41.2689088 ], [ -2.0100947, 41.2660762 ], [ -2.0100948, 41.2660754 ], [ -2.0102087, 41.2640684 ], [ -2.0103271, 41.2633398 ], [ -2.0108286, 41.2617498 ], [ -2.0106113, 41.2587484 ], [ -2.0106719, 41.2579022 ], [ -2.0109649, 41.2566797 ], [ -2.010965, 41.2566792 ], [ -2.0109662, 41.2566752 ], [ -2.0121749, 41.2524294 ], [ -2.0130513, 41.2503991 ], [ -2.0132014, 41.2500512 ], [ -2.0133895, 41.249381 ], [ -2.0133905, 41.2493773 ], [ -2.0133905, 41.2493772 ], [ -2.0133905, 41.249377 ], [ -2.0132543, 41.248124 ], [ -2.0133668, 41.2477827 ], [ -2.013367, 41.2477824 ], [ -2.0133672, 41.247782 ], [ -2.0136356, 41.2473706 ], [ -2.0155824, 41.2456849 ], [ -2.016276, 41.244799 ], [ -2.0167402, 41.2440824 ], [ -2.0170389, 41.2432652 ], [ -2.0173111, 41.2418263 ], [ -2.0172611, 41.2387903 ], [ -2.0164283, 41.2370357 ], [ -2.0158277, 41.2349138 ], [ -2.0155253, 41.2343888 ], [ -2.0147977, 41.2327792 ], [ -2.0143775, 41.2321631 ], [ -2.0104569, 41.2278688 ], [ -2.0090221, 41.2264962 ], [ -2.0076039, 41.224714 ], [ -2.005814, 41.2224692 ], [ -2.0040308, 41.2204811 ], [ -2.0022751, 41.2190427 ], [ -2.0017124, 41.2183892 ], [ -1.9991283, 41.2149528 ], [ -1.9972834, 41.2146936 ], [ -1.9955894, 41.2147509 ], [ -1.9947174, 41.2147793 ], [ -1.9929288, 41.2147277 ], [ -1.9906176, 41.2145272 ], [ -1.9842959, 41.213724 ], [ -1.9788441, 41.2129822 ], [ -1.9779849, 41.2128124 ], [ -1.9777025, 41.2127558 ], [ -1.9764911, 41.2124118 ], [ -1.9755041, 41.2122139 ], [ -1.9733244, 41.2120053 ], [ -1.9714171, 41.2119342 ], [ -1.9707231, 41.2120722 ], [ -1.9697521, 41.2123697 ], [ -1.9683288, 41.2126182 ], [ -1.9632775, 41.2137258 ], [ -1.9619266, 41.2139118 ], [ -1.9611991, 41.2139052 ], [ -1.9596476, 41.2147019 ], [ -1.9581718, 41.215238 ], [ -1.9567576, 41.2156575 ], [ -1.9557406, 41.2158465 ], [ -1.95344, 41.2164832 ], [ -1.9518073, 41.2171349 ], [ -1.9512686, 41.217247 ], [ -1.9504636, 41.2183567 ], [ -1.9501011, 41.2186416 ], [ -1.9487731, 41.2188818 ], [ -1.9479008, 41.2189728 ], [ -1.9473134, 41.2191476 ], [ -1.9468059, 41.2195483 ], [ -1.9461004, 41.2211362 ], [ -1.9455861, 41.2219602 ], [ -1.9450056, 41.2224503 ], [ -1.9436179, 41.2241671 ], [ -1.9432184, 41.2245237 ], [ -1.9419105, 41.2249891 ], [ -1.9406114, 41.2256437 ], [ -1.9392211, 41.2267749 ], [ -1.9381029, 41.2280436 ], [ -1.9374488, 41.2286502 ], [ -1.9340126, 41.2308433 ], [ -1.9321951, 41.2318172 ], [ -1.9299315, 41.2331564 ], [ -1.9296047, 41.2333516 ], [ -1.9286848, 41.2333745 ], [ -1.9286571, 41.233649 ], [ -1.9286775, 41.2338653 ], [ -1.9286972, 41.2341178 ], [ -1.9288002, 41.2343889 ], [ -1.9290353, 41.2346073 ], [ -1.9292949, 41.2347898 ], [ -1.9296016, 41.2349999 ], [ -1.9298863, 41.2351106 ], [ -1.9303964, 41.2352865 ], [ -1.9305249, 41.2354589 ], [ -1.930735, 41.2357491 ], [ -1.9308992, 41.2359217 ], [ -1.931087, 41.2361126 ], [ -1.9313455, 41.2363582 ], [ -1.9315462, 41.2364952 ], [ -1.9317339, 41.2366861 ], [ -1.9318014, 41.236939 ], [ -1.9318458, 41.2371466 ], [ -1.9318774, 41.2374081 ], [ -1.9318561, 41.2379754 ], [ -1.9320671, 41.2382115 ], [ -1.9322908, 41.2383938 ], [ -1.9324914, 41.2385397 ], [ -1.9327038, 41.2386858 ], [ -1.9329041, 41.2388408 ], [ -1.9330667, 41.2391126 ], [ -1.9333022, 41.2393129 ], [ -1.9334913, 41.2394227 ], [ -1.9335149, 41.239441 ], [ -1.933834, 41.2396331 ], [ -1.9340109, 41.2397608 ], [ -1.9341634, 41.2399244 ], [ -1.9342913, 41.2401327 ], [ -1.9345268, 41.2403241 ], [ -1.9347987, 41.2404887 ], [ -1.9355698, 41.2407661 ], [ -1.9365762, 41.2412528 ], [ -1.9366206, 41.2414604 ], [ -1.9366284, 41.2417127 ], [ -1.9367549, 41.2420111 ], [ -1.9370255, 41.2422478 ], [ -1.9376871, 41.2426592 ], [ -1.938195, 41.2429882 ], [ -1.9382876, 41.2431602 ], [ -1.9383166, 41.243219 ], [ -1.9384263, 41.2434407 ], [ -1.938518, 41.2436758 ], [ -1.938726, 41.244092 ], [ -1.9391064, 41.2449242 ], [ -1.9391157, 41.2450865 ], [ -1.9391236, 41.2453388 ], [ -1.9392029, 41.2456007 ], [ -1.9394134, 41.2458639 ], [ -1.9396735, 41.2460194 ], [ -1.9399343, 41.2461299 ], [ -1.9401825, 41.2462763 ], [ -1.940287, 41.2464575 ], [ -1.9403423, 41.2467282 ], [ -1.9404935, 41.2469728 ], [ -1.9407045, 41.2472089 ], [ -1.9408926, 41.2473818 ], [ -1.9410686, 41.2475726 ], [ -1.9411247, 41.2477983 ], [ -1.9412636, 41.2480608 ], [ -1.9417365, 41.2483353 ], [ -1.9421015, 41.248645 ], [ -1.942609, 41.2490009 ], [ -1.943152, 41.2493257 ], [ -1.9433892, 41.2494675 ], [ -1.9436004, 41.2496946 ], [ -1.9439754, 41.2501214 ], [ -1.9440866, 41.2506269 ], [ -1.9440343, 41.2509147 ], [ -1.943935, 41.2511479 ], [ -1.9438001, 41.2513719 ], [ -1.9436182, 41.2515503 ], [ -1.9432561, 41.2517993 ], [ -1.9426435, 41.2521809 ], [ -1.9422908, 41.252448 ], [ -1.9418432, 41.2528221 ], [ -1.9419059, 41.2533722 ], [ -1.94202, 41.2536975 ], [ -1.9420262, 41.2540489 ], [ -1.9420089, 41.2543819 ], [ -1.9420664, 41.2544275 ], [ -1.9421974, 41.2545369 ], [ -1.9424196, 41.2548271 ], [ -1.9424763, 41.2550078 ], [ -1.9424722, 41.25526 ], [ -1.9424212, 41.2554667 ], [ -1.9422757, 41.2556004 ], [ -1.9420938, 41.255779 ], [ -1.941995, 41.2559852 ], [ -1.9419801, 41.2561652 ], [ -1.9419141, 41.256561 ], [ -1.9417322, 41.2567394 ], [ -1.941541, 41.2568412 ], [ -1.941359, 41.2569342 ], [ -1.9410328, 41.2571743 ], [ -1.9408619, 41.257407 ], [ -1.940798, 41.2576677 ], [ -1.9407321, 41.2580544 ], [ -1.940811, 41.2583433 ], [ -1.9409235, 41.2587677 ], [ -1.9410061, 41.2590117 ], [ -1.9410716, 41.2592014 ], [ -1.941065, 41.2596157 ], [ -1.9409869, 41.2600114 ], [ -1.9409112, 41.2603529 ], [ -1.9408711, 41.2605327 ], [ -1.940743, 41.261072 ], [ -1.9406862, 41.2616299 ], [ -1.9407053, 41.2619274 ], [ -1.940734, 41.262369 ], [ -1.9407154, 41.2627742 ], [ -1.9404872, 41.265078 ], [ -1.9404253, 41.2674285 ], [ -1.9392227, 41.2782896 ], [ -1.9390374, 41.2794048 ], [ -1.9386559, 41.2808425 ], [ -1.9379911, 41.2850159 ], [ -1.9367935, 41.291112 ], [ -1.9362324, 41.2933047 ], [ -1.9359348, 41.294617 ], [ -1.9355504, 41.2963159 ], [ -1.9354675, 41.2970087 ], [ -1.93534, 41.3004395 ], [ -1.9348683, 41.3028131 ], [ -1.9342893, 41.3057262 ], [ -1.9339998, 41.3071827 ], [ -1.9234601, 41.325541 ], [ -1.9212814, 41.3286823 ] ] ] } }
]
}
