{
"type": "FeatureCollection",
"name": "50149",
"features": [
{ "type": "Feature", "properties": { "CCAA": "02 - Aragón", "PROVINCIA": "50 - Zaragoza", "MUNICIPIO": "50149 - Luesma", "COD_MUNICIPIO": "50149", "DISTRITO": "01", "SECCION": "5014901001", "V1_H": 75.48, "V1_M": 82.31, "V2_H": 75.36985678000001, "V2_M": 82.56533706, "V3_H": 75.8600571, "V3_M": 82.01450712 }, "geometry": { "type": "Polygon", "coordinates": [ [ [ -1.1385352, 41.1996593 ], [ -1.1394327, 41.2003945 ], [ -1.1415956, 41.2002402 ], [ -1.1439156, 41.1966387 ], [ -1.1449847, 41.1950977 ], [ -1.1453664, 41.1946715 ], [ -1.1465394, 41.1940959 ], [ -1.1468819, 41.1937862 ], [ -1.1471704, 41.1924397 ], [ -1.1474907, 41.1920756 ], [ -1.1479885, 41.1917593 ], [ -1.1489057, 41.1905221 ], [ -1.149772, 41.1902478 ], [ -1.1510992, 41.190116 ], [ -1.1519754, 41.1894905 ], [ -1.1523669, 41.1891365 ], [ -1.1530861, 41.1890039 ], [ -1.153896, 41.1886116 ], [ -1.1545177, 41.1885495 ], [ -1.1553358, 41.1887158 ], [ -1.1569028, 41.1893894 ], [ -1.1595871, 41.1901889 ], [ -1.1616301, 41.1908971 ], [ -1.1623303, 41.1910164 ], [ -1.1630283, 41.19164 ], [ -1.1635941, 41.1918743 ], [ -1.1641398, 41.191973 ], [ -1.1649288, 41.1919046 ], [ -1.1662238, 41.1916459 ], [ -1.1674034, 41.1912504 ], [ -1.1688532, 41.1901476 ], [ -1.1722999, 41.1871219 ], [ -1.1747792, 41.1854318 ], [ -1.1750683, 41.1853283 ], [ -1.1760691, 41.1853532 ], [ -1.17622, 41.184644 ], [ -1.1767975, 41.1831669 ], [ -1.1768688, 41.1827447 ], [ -1.1770563, 41.1824324 ], [ -1.1791046, 41.1803661 ], [ -1.1803724, 41.1793593 ], [ -1.1805232, 41.1790825 ], [ -1.1805659, 41.1766782 ], [ -1.1804073, 41.1759461 ], [ -1.180431, 41.1755231 ], [ -1.180433, 41.1754511 ], [ -1.1805545, 41.1749396 ], [ -1.1805547, 41.1744982 ], [ -1.1800063, 41.1727782 ], [ -1.179987, 41.1721834 ], [ -1.1798997, 41.1718937 ], [ -1.1788528, 41.1705261 ], [ -1.1785157, 41.1702145 ], [ -1.1772641, 41.1676366 ], [ -1.1771552, 41.1672656 ], [ -1.1769822, 41.1670556 ], [ -1.176359, 41.1667486 ], [ -1.1757974, 41.165938 ], [ -1.1749471, 41.1630782 ], [ -1.1734629, 41.1602984 ], [ -1.1622103, 41.1467073 ], [ -1.1575996, 41.1411481 ], [ -1.1563306, 41.1290309 ], [ -1.1216032, 41.1349278 ], [ -1.1212646, 41.1388585 ], [ -1.1131223, 41.1427607 ], [ -1.1176449, 41.1508512 ], [ -1.1170595, 41.1554804 ], [ -1.1086313, 41.1646829 ], [ -1.1122077, 41.1663179 ], [ -1.1125763, 41.1667652 ], [ -1.1160238, 41.1704157 ], [ -1.1177667, 41.1728221 ], [ -1.1190708, 41.175987 ], [ -1.1193582, 41.176361 ], [ -1.1199045, 41.1768473 ], [ -1.12216, 41.1809374 ], [ -1.124395, 41.184919 ], [ -1.1244404, 41.1850008 ], [ -1.125586, 41.1870551 ], [ -1.12653, 41.1886558 ], [ -1.1274335, 41.1900036 ], [ -1.1305206, 41.1925578 ], [ -1.1321523, 41.1943046 ], [ -1.1348929, 41.1964748 ], [ -1.137052, 41.1985545 ], [ -1.1378675, 41.1992342 ], [ -1.1385352, 41.1996593 ] ] ] } }
]
}
