{
"type": "FeatureCollection",
"name": "50143",
"features": [
{ "type": "Feature", "properties": { "CCAA": "02 - Aragón", "PROVINCIA": "50 - Zaragoza", "MUNICIPIO": "50143 - Longares", "COD_MUNICIPIO": "50143", "DISTRITO": "01", "SECCION": "5014301001", "V1_H": 79.86, "V1_M": 85.62, "V2_H": 79.74592797, "V2_M": 85.80311169, "V3_H": 80.14073418, "V3_M": 85.57864485 }, "geometry": { "type": "Polygon", "coordinates": [ [ [ -1.1340747, 41.4219823 ], [ -1.1367033, 41.4221239 ], [ -1.1375023, 41.4222179 ], [ -1.1380845, 41.4223625 ], [ -1.139935, 41.4225095 ], [ -1.1399351, 41.4225095 ], [ -1.1419355, 41.4228571 ], [ -1.1427071, 41.4230768 ], [ -1.143667, 41.4234075 ], [ -1.144466, 41.4235014 ], [ -1.1461176, 41.4239154 ], [ -1.1478997, 41.4243674 ], [ -1.1486927, 41.4246774 ], [ -1.1487754, 41.4247148 ], [ -1.1493515, 41.4250753 ], [ -1.1501814, 41.4253498 ], [ -1.1541502, 41.427188 ], [ -1.1552799, 41.4274404 ], [ -1.1564667, 41.4277926 ], [ -1.1581986, 41.4283337 ], [ -1.1611041, 41.4288486 ], [ -1.1624791, 41.429321 ], [ -1.1644534, 41.4297578 ], [ -1.1694357, 41.4326023 ], [ -1.1698934, 41.4329249 ], [ -1.1706629, 41.4319464 ], [ -1.171325, 41.4309571 ], [ -1.172488, 41.4300299 ], [ -1.1752669, 41.4282366 ], [ -1.1765275, 41.4272387 ], [ -1.1793475, 41.4256802 ], [ -1.1801032, 41.4251878 ], [ -1.1802322, 41.4248566 ], [ -1.1808491, 41.4241908 ], [ -1.1820867, 41.4235799 ], [ -1.1827812, 41.4235638 ], [ -1.1853589, 41.4221004 ], [ -1.1875062, 41.4206211 ], [ -1.1901205, 41.4191221 ], [ -1.1912788, 41.4183476 ], [ -1.1921034, 41.4175229 ], [ -1.1930104, 41.4167446 ], [ -1.1936229, 41.4162318 ], [ -1.194726, 41.4152854 ], [ -1.1984868, 41.4116875 ], [ -1.2006974, 41.4104882 ], [ -1.202489, 41.4093003 ], [ -1.2029113, 41.4086446 ], [ -1.2031265, 41.4083104 ], [ -1.2048707, 41.404924 ], [ -1.2050408, 41.4043953 ], [ -1.2050805, 41.4038205 ], [ -1.2050806, 41.4038194 ], [ -1.20508, 41.4038168 ], [ -1.2049193, 41.4031594 ], [ -1.2046911, 41.4023271 ], [ -1.2040965, 41.4008948 ], [ -1.203441, 41.3996203 ], [ -1.203438, 41.3996145 ], [ -1.2026529, 41.3985309 ], [ -1.2020321, 41.397674 ], [ -1.2020316, 41.3976725 ], [ -1.2012505, 41.3952209 ], [ -1.2009669, 41.393361 ], [ -1.2009827, 41.3929675 ], [ -1.2010052, 41.3924069 ], [ -1.2008998, 41.3918918 ], [ -1.2005954, 41.3912302 ], [ -1.2005951, 41.3912295 ], [ -1.2005947, 41.3912289 ], [ -1.1995933, 41.3898268 ], [ -1.1981365, 41.3886464 ], [ -1.198131, 41.3886419 ], [ -1.1967836, 41.3880624 ], [ -1.1956346, 41.3876571 ], [ -1.194796, 41.3872746 ], [ -1.1925499, 41.3858973 ], [ -1.1925002, 41.3858625 ], [ -1.1885611, 41.3831054 ], [ -1.1875137, 41.3824945 ], [ -1.1874563, 41.3824617 ], [ -1.1867785, 41.3820749 ], [ -1.1864424, 41.3818831 ], [ -1.1857004, 41.3814751 ], [ -1.1856564, 41.3814354 ], [ -1.1853154, 41.3811267 ], [ -1.1852899, 41.3810979 ], [ -1.1846778, 41.3804051 ], [ -1.1838595, 41.3797807 ], [ -1.1826169, 41.3788324 ], [ -1.1809336, 41.3770862 ], [ -1.180827, 41.3769756 ], [ -1.179058, 41.3753588 ], [ -1.1788214, 41.3751425 ], [ -1.1778941, 41.373626 ], [ -1.1778036, 41.3734781 ], [ -1.1759094, 41.3719438 ], [ -1.1745941, 41.370662 ], [ -1.173196, 41.3699121 ], [ -1.1731923, 41.3699102 ], [ -1.1695961, 41.3676823 ], [ -1.1669735, 41.3661273 ], [ -1.1637837, 41.3639147 ], [ -1.1593772, 41.3603406 ], [ -1.1590706, 41.3598692 ], [ -1.159022, 41.3597945 ], [ -1.1585634, 41.359434 ], [ -1.1585425, 41.3594175 ], [ -1.1585402, 41.3594139 ], [ -1.1579482, 41.3584442 ], [ -1.1539816, 41.3551341 ], [ -1.1531832, 41.3544678 ], [ -1.1526558, 41.3538892 ], [ -1.1526499, 41.3538828 ], [ -1.1526287, 41.353865 ], [ -1.1501862, 41.3518166 ], [ -1.1493077, 41.3511809 ], [ -1.1482216, 41.3502808 ], [ -1.1470816, 41.3491726 ], [ -1.146446, 41.3484058 ], [ -1.1458142, 41.3475039 ], [ -1.1449985, 41.3459234 ], [ -1.1447117, 41.3450812 ], [ -1.1416693, 41.3461489 ], [ -1.1400554, 41.3465822 ], [ -1.1393246, 41.3466425 ], [ -1.1383979, 41.3468617 ], [ -1.1344214, 41.3484095 ], [ -1.1333002, 41.3487426 ], [ -1.1308235, 41.3496661 ], [ -1.1260911, 41.3517148 ], [ -1.1249688, 41.3520838 ], [ -1.1248, 41.3521351 ], [ -1.1242212, 41.3518915 ], [ -1.1211926, 41.3532922 ], [ -1.1199467, 41.3538033 ], [ -1.117569, 41.354593 ], [ -1.1142339, 41.3554211 ], [ -1.113248, 41.3556121 ], [ -1.1125094, 41.3559422 ], [ -1.1089302, 41.3569372 ], [ -1.1083894, 41.3570365 ], [ -1.107541, 41.3570225 ], [ -1.107482, 41.3574088 ], [ -1.1075433, 41.3577701 ], [ -1.108738, 41.3590327 ], [ -1.1090245, 41.3606947 ], [ -1.1089507, 41.3611799 ], [ -1.1099918, 41.3619716 ], [ -1.110889, 41.362779 ], [ -1.1139106, 41.3649542 ], [ -1.1149334, 41.3667995 ], [ -1.1155234, 41.3674846 ], [ -1.1157621, 41.3679119 ], [ -1.1163069, 41.3685063 ], [ -1.1172048, 41.3692956 ], [ -1.1180406, 41.3697506 ], [ -1.1183903, 41.3700626 ], [ -1.1192575, 41.3714999 ], [ -1.1202273, 41.3727046 ], [ -1.1215633, 41.3736452 ], [ -1.1223906, 41.3743973 ], [ -1.1229265, 41.3761354 ], [ -1.122924, 41.3766397 ], [ -1.1210792, 41.3775823 ], [ -1.1196795, 41.3780188 ], [ -1.1180449, 41.3787217 ], [ -1.1175818, 41.3790203 ], [ -1.1174135, 41.3794679 ], [ -1.1167981, 41.3800703 ], [ -1.1154859, 41.3812017 ], [ -1.1154225, 41.3817411 ], [ -1.1120153, 41.3854231 ], [ -1.1146605, 41.389898 ], [ -1.1151247, 41.3908063 ], [ -1.1147746, 41.391332 ], [ -1.1134331, 41.3938769 ], [ -1.1131323, 41.3951781 ], [ -1.1159819, 41.3963236 ], [ -1.1165219, 41.3966747 ], [ -1.1172112, 41.3968301 ], [ -1.1196581, 41.4003288 ], [ -1.1202501, 41.40096 ], [ -1.1210473, 41.4023511 ], [ -1.1209628, 41.4032054 ], [ -1.1206379, 41.4041008 ], [ -1.1207141, 41.4043632 ], [ -1.1213061, 41.4049944 ], [ -1.1222861, 41.405857 ], [ -1.1236106, 41.406392 ], [ -1.1247263, 41.4071128 ], [ -1.1252287, 41.4079496 ], [ -1.1256121, 41.4083431 ], [ -1.126202, 41.408632 ], [ -1.1264922, 41.408943 ], [ -1.1266167, 41.4091882 ], [ -1.1268794, 41.4104534 ], [ -1.1275719, 41.4117527 ], [ -1.1283309, 41.4124046 ], [ -1.1308546, 41.4141029 ], [ -1.1313146, 41.4147498 ], [ -1.1316537, 41.4150256 ], [ -1.1317416, 41.4152972 ], [ -1.1316977, 41.4155757 ], [ -1.1318472, 41.4157853 ], [ -1.132896, 41.4167661 ], [ -1.1335831, 41.4174258 ], [ -1.1337391, 41.4186622 ], [ -1.1337639, 41.4207162 ], [ -1.1340076, 41.4214047 ], [ -1.1340747, 41.4219823 ] ] ] } }
]
}
