{
"type": "FeatureCollection",
"name": "50261",
"features": [
{ "type": "Feature", "properties": { "CCAA": "02 - Aragón", "PROVINCIA": "50 - Zaragoza", "MUNICIPIO": "50261 - Torrellas", "COD_MUNICIPIO": "50261", "DISTRITO": "01", "SECCION": "5026101001", "V1_H": 80.16, "V1_M": 86.09, "V2_H": 80.12695049, "V2_M": 86.02539962, "V3_H": 80.31827198000001, "V3_M": 86.38244546 }, "geometry": { "type": "Polygon", "coordinates": [ [ [ -1.7567357, 41.8984451 ], [ -1.7567589, 41.898453 ], [ -1.7610457, 41.8999154 ], [ -1.7610462, 41.8999155 ], [ -1.7625061, 41.9010151 ], [ -1.7638741, 41.9020455 ], [ -1.7638744, 41.9020457 ], [ -1.7638742, 41.902047 ], [ -1.7637879, 41.9027116 ], [ -1.763704, 41.9033576 ], [ -1.763704, 41.9033583 ], [ -1.7656789, 41.9041 ], [ -1.7656793, 41.9041009 ], [ -1.7666845, 41.9063709 ], [ -1.7677137, 41.9067591 ], [ -1.7677308, 41.9067541 ], [ -1.7712298, 41.9057357 ], [ -1.7712563, 41.9057326 ], [ -1.7754567, 41.9052324 ], [ -1.7754593, 41.9052321 ], [ -1.7754592, 41.9052308 ], [ -1.7754366, 41.9045198 ], [ -1.7754311, 41.904514 ], [ -1.7738293, 41.9028448 ], [ -1.7764331, 41.9009007 ], [ -1.7764345, 41.9008996 ], [ -1.7788062, 41.9004211 ], [ -1.7788063, 41.9004211 ], [ -1.7788063, 41.9004209 ], [ -1.7789189, 41.8997274 ], [ -1.7790383, 41.8989914 ], [ -1.7790384, 41.8989909 ], [ -1.7790363, 41.8989871 ], [ -1.7765112, 41.8944181 ], [ -1.7765099, 41.8944157 ], [ -1.7765038, 41.8944102 ], [ -1.7724575, 41.8907529 ], [ -1.7724581, 41.8907529 ], [ -1.7734101, 41.8907265 ], [ -1.7724573, 41.8907523 ], [ -1.7726658, 41.8905654 ], [ -1.773291, 41.8900227 ], [ -1.7737448, 41.8896133 ], [ -1.7733578, 41.8884203 ], [ -1.7734597, 41.8881332 ], [ -1.7753608, 41.8870456 ], [ -1.7740239, 41.8857344 ], [ -1.7732512, 41.8851767 ], [ -1.7723909, 41.8847803 ], [ -1.7717061, 41.8846648 ], [ -1.7709957, 41.8846302 ], [ -1.7699096, 41.8846996 ], [ -1.7680875, 41.8848152 ], [ -1.7669156, 41.8849558 ], [ -1.765989, 41.8855042 ], [ -1.764702, 41.8866162 ], [ -1.7652724, 41.8870456 ], [ -1.7648345, 41.8885 ], [ -1.7631366, 41.8896616 ], [ -1.7622543, 41.8904086 ], [ -1.7617742, 41.8909258 ], [ -1.7610559, 41.8919178 ], [ -1.7605794, 41.8934978 ], [ -1.7614442, 41.8942817 ], [ -1.7620852, 41.8948819 ], [ -1.7621539, 41.8949462 ], [ -1.7621546, 41.8949469 ], [ -1.7594653, 41.8968722 ], [ -1.7576121, 41.897942 ], [ -1.7567357, 41.8984451 ] ] ] } }
]
}
